{
"type": "FeatureCollection",
"name": "cw_2023-06-07",
"crs": { "type": "name", "properties": { "name": "urn:ogc:def:crs:OGC:1.3:CRS84" } },
"features": [
{ "type": "Feature", "properties": { "Density": "Light", "Start": "2023158 1310", "End": "2023158 1710" }, "geometry": { "type": "Polygon", "coordinates": [ [ [ -80.909527, 28.011293 ], [ -80.919293, 28.050355 ], [ -80.904645, 28.089417 ], [ -80.865582, 28.191956 ], [ -80.814313, 28.326234 ], [ -80.787457, 28.353089 ], [ -80.758161, 28.350648 ], [ -80.741071, 28.316468 ], [ -80.753278, 28.243226 ], [ -80.794782, 28.172425 ], [ -80.909527, 28.011293 ] ] ] } },
{ "type": "Feature", "properties": { "Density": "Light", "Start": "2023158 1310", "End": "2023158 1710" }, "geometry": { "type": "Polygon", "coordinates": [ [ [ -81.217145, 27.598695 ], [ -81.212262, 27.640198 ], [ -81.165875, 27.706116 ], [ -81.136579, 27.759827 ], [ -81.099957, 27.7818 ], [ -81.060895, 27.772034 ], [ -81.063336, 27.742738 ], [ -81.090192, 27.696351 ], [ -81.217145, 27.598695 ] ] ] } },
{ "type": "Feature", "properties": { "Density": "Light", "Start": "2023158 1310", "End": "2023158 1710" }, "geometry": { "type": "Polygon", "coordinates": [ [ [ -86.837263, 30.75267 ], [ -86.807966, 30.767318 ], [ -86.785994, 30.774642 ], [ -86.700545, 30.772201 ], [ -86.649275, 30.764877 ], [ -86.632185, 30.740463 ], [ -86.641951, 30.720932 ], [ -86.67613, 30.691635 ], [ -86.712752, 30.694076 ], [ -86.766463, 30.703842 ], [ -86.837263, 30.75267 ] ] ] } },
{ "type": "Feature", "properties": { "Density": "Light", "Start": "2023158 1310", "End": "2023158 1710" }, "geometry": { "type": "Polygon", "coordinates": [ [ [ -80.940378, 33.092035 ], [ -80.759714, 33.126215 ], [ -80.537546, 33.15307 ], [ -80.393503, 33.160394 ], [ -80.305612, 33.143304 ], [ -80.273874, 33.079828 ], [ -80.300729, 33.031 ], [ -80.349557, 33.004144 ], [ -80.532663, 33.023676 ], [ -80.767038, 33.077387 ], [ -80.940378, 33.092035 ] ] ] } },
{ "type": "Feature", "properties": { "Density": "Light", "Start": "2023158 1310", "End": "2023158 1710" }, "geometry": { "type": "Polygon", "coordinates": [ [ [ -81.074625, 34.782824 ], [ -81.041422, 34.804309 ], [ -80.980875, 34.819934 ], [ -80.918375, 34.817981 ], [ -80.898843, 34.806263 ], [ -80.892984, 34.775013 ], [ -80.914468, 34.765247 ], [ -80.971109, 34.769153 ], [ -81.074625, 34.782824 ] ] ] } },
{ "type": "Feature", "properties": { "Density": "Light", "Start": "2023158 1310", "End": "2023158 1710" }, "geometry": { "type": "Polygon", "coordinates": [ [ [ -77.689432, 34.42932 ], [ -77.524636, 34.426269 ], [ -77.338479, 34.398803 ], [ -77.213357, 34.35913 ], [ -77.191995, 34.316405 ], [ -77.204202, 34.276732 ], [ -77.234719, 34.264525 ], [ -77.311013, 34.267577 ], [ -77.417825, 34.298095 ], [ -77.488015, 34.346923 ], [ -77.689432, 34.42932 ] ] ] } },
{ "type": "Feature", "properties": { "Density": "Light", "Start": "2023158 1310", "End": "2023158 1710" }, "geometry": { "type": "Polygon", "coordinates": [ [ [ -79.549478, 34.982812 ], [ -79.372476, 34.869897 ], [ -79.29313, 34.799706 ], [ -79.271768, 34.744775 ], [ -79.280923, 34.705102 ], [ -79.311441, 34.686791 ], [ -79.363321, 34.686791 ], [ -79.436563, 34.705102 ], [ -79.488443, 34.760033 ], [ -79.528116, 34.839379 ], [ -79.549478, 34.982812 ] ] ] } },
{ "type": "Feature", "properties": { "Density": "Light", "Start": "2023158 1310", "End": "2023158 1710" }, "geometry": { "type": "Polygon", "coordinates": [ [ [ -90.251528, 34.206561 ], [ -90.209566, 34.221819 ], [ -90.056979, 34.164598 ], [ -89.843355, 34.115007 ], [ -89.78232, 34.065416 ], [ -89.767061, 34.038713 ], [ -89.797579, 34.004381 ], [ -89.889132, 33.977678 ], [ -89.957796, 33.992937 ], [ -90.072237, 34.088304 ], [ -90.251528, 34.206561 ] ] ] } },
{ "type": "Feature", "properties": { "Density": "Light", "Start": "2023158 1030", "End": "2023158 1430" }, "geometry": { "type": "Polygon", "coordinates": [ [ [ -50.588269, 33.506693 ], [ -55.93122, 30.453578 ], [ -67.172232, 30.800523 ], [ -79.939802, 24.833072 ], [ -88.149885, 14.738618 ], [ -88.843774, 12.223268 ], [ -89.797873, 9.9681268 ], [ -93.354057, 8.2334026 ], [ -95.695935, 7.7997216 ], [ -99.772536, 7.7129854 ], [ -106.45122, 7.7129854 ], [ -112.78297, 7.8864578 ], [ -115.09709, 7.7785182 ], [ -116.81794, 9.4438533 ], [ -117.53958, 10.887144 ], [ -117.81714, 12.330434 ], [ -117.70611, 13.884747 ], [ -117.48407, 14.439859 ], [ -116.42936, 15.272526 ], [ -114.04238, 15.827638 ], [ -111.1558, 16.160705 ], [ -109.43495, 16.493772 ], [ -107.38104, 17.104395 ], [ -106.49286, 17.937062 ], [ -105.38263, 19.602398 ], [ -104.7165, 21.15671 ], [ -104.27241, 21.878356 ], [ -103.16219, 22.54449 ], [ -102.27401, 22.822046 ], [ -100.77521, 23.210624 ], [ -100.05356, 24.431869 ], [ -100.05356, 25.042492 ], [ -100.2201, 27.76254 ], [ -100.94174, 30.094009 ], [ -101.49685, 32.0369 ], [ -101.82992, 33.702235 ], [ -102.05196, 35.534104 ], [ -103.2177, 39.419886 ], [ -104.7165, 41.806866 ], [ -104.77201, 43.361179 ], [ -104.93855, 44.027313 ], [ -105.54917, 44.915491 ], [ -106.65939, 45.415092 ], [ -108.2137, 45.581626 ], [ -111.93295, 47.135938 ], [ -112.87664, 47.913095 ], [ -113.93135, 49.467407 ], [ -114.76624, 51.314819 ], [ -114.97941, 51.883254 ], [ -115.51231, 52.238525 ], [ -116.25838, 52.487215 ], [ -116.9334, 52.629324 ], [ -117.28867, 52.771432 ], [ -117.28867, 52.913541 ], [ -117.18209, 53.162231 ], [ -116.68471, 53.446448 ], [ -116.11627, 53.837247 ], [ -115.51231, 54.263573 ], [ -115.29915, 54.654371 ], [ -115.33468, 55.080697 ], [ -115.90311, 55.435969 ], [ -116.9334, 55.400441 ], [ -120.41506, 55.04517 ], [ -121.05021, 55.067509 ], [ -121.48087, 55.187279 ], [ -122.77825, 55.522256 ], [ -125.16568, 56.409014 ], [ -128.84913, 57.955155 ], [ -131.74822, 58.988683 ], [ -135.86937, 60.196607 ], [ -140.8787, 61.546638 ], [ -145.54164, 62.790088 ], [ -148.47263, 63.012133 ], [ -150.02694, 63.234178 ], [ -151.04834, 64.077948 ], [ -151.35921, 65.898714 ], [ -151.27039, 66.609257 ], [ -150.29339, 67.586254 ], [ -147.3624, 68.962931 ], [ -144.65346, 69.673474 ], [ -141.58924, 70.206381 ], [ -135.14994, 71.272195 ], [ -132.61864, 71.671876 ], [ -129.68765, 71.849512 ], [ -127.4672, 71.849512 ], [ -126.0017, 71.49424 ], [ -125.37998, 70.739288 ], [ -125.64643, 69.540247 ], [ -126.35698, 68.740886 ], [ -126.44579, 67.763889 ], [ -125.4688, 67.541845 ], [ -124.13653, 67.763889 ], [ -119.87327, 69.318202 ], [ -115.0327, 70.961333 ], [ -112.72343, 71.805103 ], [ -105.48478, 73.403824 ], [ -101.88765, 73.803505 ], [ -97.668802, 74.336412 ], [ -92.828228, 74.913728 ], [ -82.836217, 74.780501 ], [ -77.329509, 75.046955 ], [ -73.377114, 74.691683 ], [ -69.646763, 72.870917 ], [ -68.53654, 70.25079 ], [ -68.09245, 66.431621 ], [ -68.181268, 63.54504 ], [ -69.291492, 61.591047 ], [ -70.579351, 60.436415 ], [ -71.289894, 59.415009 ], [ -71.289894, 58.793284 ], [ -71.201076, 58.260377 ], [ -69.890328, 57.459766 ], [ -63.228987, 58.708767 ], [ -57.747258, 58.014878 ], [ -54.27781, 54.961763 ], [ -51.849196, 51.284148 ], [ -49.351193, 46.565698 ], [ -49.686212, 38.294532 ], [ -50.588269, 33.506693 ] ] ] } },
{ "type": "Feature", "properties": { "Density": "Light", "Start": "2023158 1310", "End": "2023158 1710" }, "geometry": { "type": "Polygon", "coordinates": [ [ [ -90.196719, 36.050969 ], [ -90.09296, 36.011296 ], [ -90.013614, 35.962468 ], [ -89.998355, 35.913639 ], [ -90.010562, 35.892277 ], [ -90.056339, 35.88007 ], [ -90.132633, 35.907536 ], [ -90.187564, 35.962468 ], [ -90.202823, 36.011296 ], [ -90.196719, 36.050969 ] ] ] } },
{ "type": "Feature", "properties": { "Density": "Light", "Start": "2023158 1310", "End": "2023158 1710" }, "geometry": { "type": "Polygon", "coordinates": [ [ [ -90.672794, 36.026555 ], [ -90.633121, 35.95026 ], [ -90.639224, 35.919743 ], [ -90.66669, 35.913639 ], [ -90.678897, 35.93195 ], [ -90.691104, 36.014347 ], [ -90.672794, 36.026555 ] ] ] } },
{ "type": "Feature", "properties": { "Density": "Light", "Start": "2023158 1310", "End": "2023158 1710" }, "geometry": { "type": "Polygon", "coordinates": [ [ [ -92.88837, 33.881168 ], [ -92.824283, 33.810978 ], [ -92.815128, 33.777409 ], [ -92.839542, 33.756046 ], [ -92.873111, 33.759098 ], [ -92.897526, 33.792667 ], [ -92.906681, 33.838444 ], [ -92.88837, 33.881168 ] ] ] } },
{ "type": "Feature", "properties": { "Density": "Light", "Start": "2023158 1310", "End": "2023158 1710" }, "geometry": { "type": "Polygon", "coordinates": [ [ [ -93.977848, 34.158879 ], [ -93.922916, 34.100895 ], [ -93.907658, 34.05817 ], [ -93.907658, 34.036808 ], [ -93.959537, 34.03986 ], [ -93.971744, 34.070377 ], [ -93.9809, 34.119206 ], [ -93.977848, 34.158879 ] ] ] } },
{ "type": "Feature", "properties": { "Density": "Light", "Start": "2023158 1310", "End": "2023158 1710" }, "geometry": { "type": "Polygon", "coordinates": [ [ [ -111.89328, 35.35602 ], [ -111.98483, 35.497163 ], [ -112.01535, 35.623048 ], [ -112.00391, 35.66501 ], [ -111.97339, 35.672639 ], [ -111.96195, 35.649751 ], [ -111.92761, 35.562013 ], [ -111.91617, 35.497163 ], [ -111.89328, 35.35602 ] ] ] } },
{ "type": "Feature", "properties": { "Density": "Light", "Start": "2023158 1310", "End": "2023158 1710" }, "geometry": { "type": "Polygon", "coordinates": [ [ [ -121.95895, 49.501229 ], [ -121.87699, 49.337316 ], [ -121.86954, 49.233008 ], [ -121.95149, 49.13615 ], [ -122.16756, 49.024392 ], [ -122.53264, 48.845578 ], [ -122.81576, 48.711467 ], [ -123.05418, 48.74872 ], [ -123.2777, 48.87538 ], [ -123.45651, 49.00204 ], [ -123.65023, 49.113799 ], [ -123.97805, 49.173403 ], [ -124.20157, 49.277712 ], [ -124.30588, 49.456526 ], [ -124.29843, 49.620438 ], [ -124.07491, 49.732197 ], [ -123.70983, 49.76945 ], [ -123.41926, 49.724746 ], [ -123.08398, 49.486328 ], [ -122.82321, 49.396921 ], [ -122.55499, 49.396921 ], [ -122.27932, 49.411822 ], [ -122.16011, 49.434174 ], [ -122.0707, 49.478877 ], [ -122.0409, 49.531031 ], [ -121.95895, 49.501229 ] ] ] } },
{ "type": "Feature", "properties": { "Density": "Light", "Start": "2023158 1310", "End": "2023158 1710" }, "geometry": { "type": "Polygon", "coordinates": [ [ [ -124.6039, 49.255359 ], [ -124.76036, 49.009491 ], [ -124.86467, 48.87538 ], [ -125.05094, 48.815775 ], [ -125.267, 48.763621 ], [ -125.52032, 48.756171 ], [ -125.76619, 48.763621 ], [ -125.92265, 48.845578 ], [ -126.02696, 48.934985 ], [ -126.01206, 49.009491 ], [ -125.89285, 49.054194 ], [ -125.61718, 49.039293 ], [ -125.25955, 48.994589 ], [ -124.98388, 49.061645 ], [ -124.88702, 49.225557 ], [ -124.87212, 49.322415 ], [ -124.81997, 49.38202 ], [ -124.69331, 49.411822 ], [ -124.6337, 49.38947 ], [ -124.6039, 49.255359 ] ] ] } },
{ "type": "Feature", "properties": { "Density": "Light", "Start": "2023158 1310", "End": "2023158 1710" }, "geometry": { "type": "Polygon", "coordinates": [ [ [ -118.63353, 52.043804 ], [ -118.60015, 51.938899 ], [ -118.60492, 51.872142 ], [ -118.62876, 51.748165 ], [ -118.6383, 51.690944 ], [ -118.67168, 51.681407 ], [ -118.70982, 51.710018 ], [ -118.72413, 51.805385 ], [ -118.70982, 51.881679 ], [ -118.7289, 51.957973 ], [ -118.79089, 52.000888 ], [ -118.8195, 52.034267 ], [ -118.80519, 52.081951 ], [ -118.76705, 52.115329 ], [ -118.7289, 52.124866 ], [ -118.70982, 52.096256 ], [ -118.63353, 52.043804 ] ] ] } },
{ "type": "Feature", "properties": { "Density": "Light", "Start": "2023158 1310", "End": "2023158 1710" }, "geometry": { "type": "Polygon", "coordinates": [ [ [ -121.04633, 52.606472 ], [ -121.08924, 52.573093 ], [ -121.14646, 52.568325 ], [ -121.156, 52.573093 ], [ -121.15123, 52.630313 ], [ -121.10355, 52.66846 ], [ -120.99864, 52.754291 ], [ -120.8699, 52.8735 ], [ -120.80314, 52.916416 ], [ -120.76499, 52.906879 ], [ -120.75546, 52.859195 ], [ -120.78407, 52.78767 ], [ -120.86036, 52.725681 ], [ -121.04633, 52.606472 ] ] ] } },
{ "type": "Feature", "properties": { "Density": "Light", "Start": "2023158 1310", "End": "2023158 1710" }, "geometry": { "type": "Polygon", "coordinates": [ [ [ -123.88634, 55.654908 ], [ -124.0279, 55.617655 ], [ -124.09496, 55.625106 ], [ -124.15456, 55.669809 ], [ -124.15456, 55.714513 ], [ -124.11731, 55.736864 ], [ -123.9981, 55.729414 ], [ -123.91614, 55.707062 ], [ -123.88634, 55.654908 ] ] ] } },
{ "type": "Feature", "properties": { "Density": "Light", "Start": "2023158 1720", "End": "2023158 1850" }, "geometry": { "type": "Polygon", "coordinates": [ [ [ -111.93759, 35.382402 ], [ -112.04558, 35.50555 ], [ -112.10052, 35.611647 ], [ -112.11189, 35.704482 ], [ -112.10999, 35.787844 ], [ -112.07589, 35.861733 ], [ -112.01526, 35.89773 ], [ -111.91296, 35.90152 ], [ -111.85422, 35.859839 ], [ -111.82012, 35.816263 ], [ -111.80686, 35.746163 ], [ -111.84664, 35.630593 ], [ -111.87885, 35.524496 ], [ -111.88454, 35.412715 ], [ -111.88643, 35.388086 ], [ -111.93759, 35.382402 ] ] ] } },
{ "type": "Feature", "properties": { "Density": "Light", "Start": "2023158 1720", "End": "2023158 1850" }, "geometry": { "type": "Polygon", "coordinates": [ [ [ -111.81823, 35.086846 ], [ -111.86749, 35.209994 ], [ -111.86559, 35.259254 ], [ -111.82959, 35.331248 ], [ -111.7917, 35.418399 ], [ -111.77655, 35.43924 ], [ -111.72729, 35.43924 ], [ -111.71023, 35.416505 ], [ -111.71781, 35.352088 ], [ -111.74434, 35.287672 ], [ -111.76897, 35.185365 ], [ -111.77844, 35.132316 ], [ -111.78791, 35.098213 ], [ -111.81823, 35.086846 ] ] ] } },
{ "type": "Feature", "properties": { "Density": "Light", "Start": "2023158 1720", "End": "2023158 1850" }, "geometry": { "type": "Polygon", "coordinates": [ [ [ -104.36559, 22.375879 ], [ -104.37507, 22.499027 ], [ -104.35612, 22.560601 ], [ -104.29692, 22.619807 ], [ -104.20455, 22.645858 ], [ -104.12403, 22.600861 ], [ -104.09325, 22.525077 ], [ -104.10272, 22.470608 ], [ -104.16193, 22.349828 ], [ -104.19745, 22.304831 ], [ -104.28271, 22.290622 ], [ -104.33007, 22.297727 ], [ -104.35138, 22.359301 ], [ -104.36559, 22.375879 ] ] ] } },
{ "type": "Feature", "properties": { "Density": "Light", "Start": "2023158 1720", "End": "2023158 1850" }, "geometry": { "type": "Polygon", "coordinates": [ [ [ -104.70133, 22.963187 ], [ -104.68712, 23.015287 ], [ -104.6516, 23.053179 ], [ -104.60423, 23.062652 ], [ -104.55923, 23.057915 ], [ -104.54739, 23.005814 ], [ -104.56397, 22.94424 ], [ -104.60423, 22.913453 ], [ -104.6587, 22.913453 ], [ -104.66817, 22.937135 ], [ -104.70133, 22.963187 ] ] ] } },
{ "type": "Feature", "properties": { "Density": "Light", "Start": "2023158 1900", "End": "2023158 2330" }, "geometry": { "type": "Polygon", "coordinates": [ [ [ -121.07671, 52.618537 ], [ -121.29504, 52.714747 ], [ -121.34314, 52.873863 ], [ -121.25063, 53.036679 ], [ -121.12112, 53.188394 ], [ -120.84359, 53.232799 ], [ -120.58457, 53.2476 ], [ -120.38105, 53.14769 ], [ -120.35514, 53.04778 ], [ -120.49206, 52.899765 ], [ -120.72888, 52.788754 ], [ -120.9028, 52.703646 ], [ -120.98791, 52.64444 ], [ -121.07671, 52.618537 ] ] ] } },
{ "type": "Feature", "properties": { "Density": "Light", "Start": "2023158 1900", "End": "2023158 2330" }, "geometry": { "type": "Polygon", "coordinates": [ [ [ -119.58177, 52.115287 ], [ -119.78899, 52.185594 ], [ -119.83339, 52.329908 ], [ -119.68908, 52.485324 ], [ -119.50776, 52.592634 ], [ -119.29314, 52.618537 ], [ -119.07481, 52.492724 ], [ -119.00451, 52.422417 ], [ -119.00081, 52.337309 ], [ -119.12292, 52.259601 ], [ -119.34494, 52.192994 ], [ -119.43005, 52.14489 ], [ -119.52256, 52.130088 ], [ -119.58177, 52.115287 ] ] ] } },
{ "type": "Feature", "properties": { "Density": "Light", "Start": "2023158 1900", "End": "2023158 2330" }, "geometry": { "type": "Polygon", "coordinates": [ [ [ -118.71218, 52.033878 ], [ -118.9009, 52.115287 ], [ -118.9157, 52.267002 ], [ -118.8787, 52.329908 ], [ -118.76028, 52.44832 ], [ -118.65667, 52.474223 ], [ -118.46055, 52.474223 ], [ -118.30514, 52.359511 ], [ -118.26443, 52.200395 ], [ -118.40505, 52.078283 ], [ -118.54196, 52.037579 ], [ -118.56416, 52.037579 ], [ -118.71218, 52.033878 ] ] ] } },
{ "type": "Feature", "properties": { "Density": "Light", "Start": "2023158 1900", "End": "2023158 2330" }, "geometry": { "type": "Polygon", "coordinates": [ [ [ -122.88725, 50.883417 ], [ -123.04535, 51.267367 ], [ -123.54223, 51.402878 ], [ -123.79067, 51.673901 ], [ -123.86971, 52.012681 ], [ -123.62128, 52.227241 ], [ -123.21474, 52.645068 ], [ -122.71787, 52.803165 ], [ -122.3565, 52.825751 ], [ -122.13065, 52.735409 ], [ -122.08548, 52.374045 ], [ -122.13065, 51.865876 ], [ -122.34521, 51.425463 ], [ -122.53718, 51.064099 ], [ -122.59365, 50.883417 ], [ -122.76304, 50.826954 ], [ -122.88725, 50.883417 ] ] ] } },
{ "type": "Feature", "properties": { "Density": "Light", "Start": "2023158 1900", "End": "2023158 2330" }, "geometry": { "type": "Polygon", "coordinates": [ [ [ -124.73925, 49.020132 ], [ -125.04415, 49.291155 ], [ -125.25871, 49.754153 ], [ -125.54103, 50.092932 ], [ -125.83463, 50.420419 ], [ -125.8798, 50.702735 ], [ -125.76688, 50.883417 ], [ -125.33776, 50.838246 ], [ -124.58115, 50.363955 ], [ -123.79067, 49.934835 ], [ -123.20345, 49.652519 ], [ -122.85338, 49.5283 ], [ -122.25487, 49.641227 ], [ -121.93867, 49.720275 ], [ -121.71282, 49.629934 ], [ -121.65636, 49.449252 ], [ -121.83704, 49.087887 ], [ -122.06289, 48.907205 ], [ -122.41296, 48.760401 ], [ -122.88726, 48.703938 ], [ -123.65515, 48.794279 ], [ -124.31013, 49.031424 ], [ -124.5134, 49.031424 ], [ -124.73925, 49.020132 ] ] ] } },
{ "type": "Feature", "properties": { "Density": "Light", "Start": "2023158 1900", "End": "2023158 2330" }, "geometry": { "type": "Polygon", "coordinates": [ [ [ -124.27078, 55.561104 ], [ -125.15302, 56.509509 ], [ -125.59414, 57.303523 ], [ -126.12348, 57.921089 ], [ -127.90484, 58.690776 ], [ -133.20343, 60.026194 ], [ -138.93281, 61.016988 ], [ -144.6191, 61.921626 ], [ -146.94531, 62.91242 ], [ -148.36689, 64.85093 ], [ -148.23765, 66.660206 ], [ -145.82529, 68.426404 ], [ -142.24981, 69.201808 ], [ -136.34813, 70.623382 ], [ -133.33267, 71.140318 ], [ -128.55101, 71.31263 ], [ -123.98474, 71.140318 ], [ -120.06464, 69.934134 ], [ -117.78151, 69.8049 ], [ -115.02452, 70.709538 ], [ -111.63213, 71.866959 ], [ -105.38582, 73.051604 ], [ -96.177894, 73.805469 ], [ -88.370007, 73.805469 ], [ -79.485169, 72.728519 ], [ -74.046572, 71.974654 ], [ -67.261787, 70.143839 ], [ -60.853935, 68.851499 ], [ -56.00766, 67.128379 ], [ -51.48447, 65.512954 ], [ -49.438265, 64.382157 ], [ -45.561245, 62.659037 ], [ -42.815022, 60.989764 ], [ -42.2227, 59.105102 ], [ -43.568887, 57.812762 ], [ -50.084435, 57.112744 ], [ -59.400052, 56.089642 ], [ -63.869394, 55.012692 ], [ -70.820807, 53.544011 ], [ -72.27469, 52.682451 ], [ -73.367148, 51.390078 ], [ -74.359665, 48.963926 ], [ -74.359665, 46.603941 ], [ -71.977624, 45.655535 ], [ -69.088296, 45.809927 ], [ -67.015039, 48.302248 ], [ -65.95687, 49.719356 ], [ -64.302675, 50.711873 ], [ -62.523207, 51.189519 ], [ -59.130815, 51.243367 ], [ -56.330745, 50.974129 ], [ -54.230692, 50.166417 ], [ -52.076792, 48.874077 ], [ -47.768992, 46.181702 ], [ -43.999667, 42.735462 ], [ -42.976565, 40.527715 ], [ -42.922717, 38.158425 ], [ -43.138107, 35.519897 ], [ -44.268905, 33.204455 ], [ -46.153567, 31.104402 ], [ -49.707502, 30.027452 ], [ -55.523032, 31.15825 ], [ -62.68475, 31.80442 ], [ -70.061857, 30.458232 ], [ -72.269604, 30.0813 ], [ -74.100419, 29.488977 ], [ -78.785152, 25.7735 ], [ -80.939052, 22.596497 ], [ -82.769867, 19.688732 ], [ -85.354547, 16.996358 ], [ -86.700734, 15.65017 ], [ -89.662347, 13.334728 ], [ -90.631602, 12.473168 ], [ -94.239384, 10.211573 ], [ -100.97032, 9.2961652 ], [ -105.54736, 8.9730802 ], [ -109.31668, 9.0269277 ], [ -113.03216, 9.8346401 ], [ -115.50915, 10.857743 ], [ -117.77074, 12.042388 ], [ -118.68615, 13.442423 ], [ -118.79384, 17.642528 ], [ -115.61633, 21.732232 ], [ -112.17009, 23.196884 ], [ -108.9936, 23.673447 ], [ -107.05509, 24.965787 ], [ -106.03199, 25.019635 ], [ -104.25502, 23.888837 ], [ -103.01653, 22.75804 ], [ -102.20881, 22.165717 ], [ -101.34725, 21.734937 ], [ -101.10023, 21.80178 ], [ -100.74733, 21.960583 ], [ -100.60617, 22.401701 ], [ -100.00625, 23.54861 ], [ -99.706292, 24.307334 ], [ -99.291641, 26.488845 ], [ -99.291641, 29.245837 ], [ -99.126221, 31.175731 ], [ -99.45706, 34.373842 ], [ -99.70519, 35.724768 ], [ -102.3519, 37.516812 ], [ -103.92339, 39.005588 ], [ -104.77805, 40.907912 ], [ -105.55001, 45.450056 ], [ -105.3777, 46.863015 ], [ -105.30878, 47.621188 ], [ -105.58447, 48.551672 ], [ -106.79066, 49.344307 ], [ -108.51378, 49.344307 ], [ -110.30582, 48.620597 ], [ -112.54588, 48.37936 ], [ -114.06222, 49.034146 ], [ -115.16502, 50.96404 ], [ -115.75088, 51.584363 ], [ -116.95707, 52.583773 ], [ -118.78357, 53.721032 ], [ -121.12702, 54.617054 ], [ -123.05691, 54.858291 ], [ -123.60831, 55.099528 ], [ -124.27078, 55.561104 ] ] ] } },
{ "type": "Feature", "properties": { "Density": "Light", "Start": "2023158 1900", "End": "2023158 2330" }, "geometry": { "type": "Polygon", "coordinates": [ [ [ -111.93852, 35.147545 ], [ -111.98015, 35.33719 ], [ -112.00328, 35.480579 ], [ -112.01716, 35.684099 ], [ -112.07266, 35.869118 ], [ -112.14667, 36.007882 ], [ -112.27156, 36.183649 ], [ -112.40107, 36.391795 ], [ -112.4242, 36.553687 ], [ -112.37794, 36.738705 ], [ -112.23918, 36.895971 ], [ -112.06804, 36.946851 ], [ -111.79051, 36.942226 ], [ -111.4621, 36.909847 ], [ -111.24008, 36.872844 ], [ -111.12444, 36.775709 ], [ -111.01343, 36.558312 ], [ -110.93942, 36.294661 ], [ -110.94405, 36.035635 ], [ -111.15682, 35.721103 ], [ -111.38809, 35.485204 ], [ -111.57311, 35.309437 ], [ -111.72575, 35.156796 ], [ -111.76738, 35.073538 ], [ -111.83214, 35.09204 ], [ -111.86914, 35.096665 ], [ -111.93852, 35.147545 ] ] ] } },
{ "type": "Feature", "properties": { "Density": "Light", "Start": "2023158 1900", "End": "2023158 2330" }, "geometry": { "type": "Polygon", "coordinates": [ [ [ -81.225564, 25.997371 ], [ -81.253983, 26.0921 ], [ -81.253983, 26.094468 ], [ -81.135571, 26.26735 ], [ -80.896379, 26.442599 ], [ -80.695079, 26.563379 ], [ -80.588508, 26.622585 ], [ -80.467728, 26.62969 ], [ -80.391945, 26.584693 ], [ -80.399049, 26.520751 ], [ -80.446414, 26.471018 ], [ -80.517461, 26.404707 ], [ -80.614559, 26.328924 ], [ -80.678501, 26.283927 ], [ -80.995845, 26.120519 ], [ -81.225564, 25.997371 ] ] ] } },
{ "type": "Feature", "properties": { "Density": "Light", "Start": "2023158 2340", "End": "2023159 0200" }, "geometry": { "type": "Polygon", "coordinates": [ [ [ -108.21205, 33.33558 ], [ -108.30519, 33.451995 ], [ -107.86281, 33.766316 ], [ -106.97805, 34.208694 ], [ -106.60552, 34.17377 ], [ -106.52403, 33.975864 ], [ -106.61717, 33.71975 ], [ -106.76851, 33.603335 ], [ -106.91984, 33.475278 ], [ -107.5252, 33.300655 ], [ -108.21205, 33.33558 ] ] ] } },
{ "type": "Feature", "properties": { "Density": "Light", "Start": "2023158 2340", "End": "2023159 0200" }, "geometry": { "type": "Polygon", "coordinates": [ [ [ -111.20393, 30.902498 ], [ -110.94782, 31.461292 ], [ -110.61021, 32.078294 ], [ -110.41231, 32.299483 ], [ -110.19112, 32.392615 ], [ -110.05142, 32.392615 ], [ -110.01649, 32.217992 ], [ -110.02813, 31.938595 ], [ -110.29589, 31.659198 ], [ -111.05259, 30.91414 ], [ -111.20393, 30.902498 ] ] ] } },
{ "type": "Feature", "properties": { "Density": "Medium", "Start": "2023158 1100", "End": "2023158 1500" }, "geometry": { "type": "Polygon", "coordinates": [ [ [ -51.371234, 41.445455 ], [ -50.927145, 38.070375 ], [ -51.104781, 35.627884 ], [ -51.904142, 33.67389 ], [ -52.925547, 32.563667 ], [ -54.47986, 31.853124 ], [ -56.1674, 31.764306 ], [ -58.076985, 31.897533 ], [ -60.741521, 32.519258 ], [ -63.31724, 33.185392 ], [ -65.759731, 33.407437 ], [ -69.401264, 33.540664 ], [ -74.952382, 32.608076 ], [ -76.639922, 32.963347 ], [ -80.969793, 33.152085 ], [ -84.211646, 33.440743 ], [ -87.195927, 33.582852 ], [ -89.292029, 33.582852 ], [ -91.459185, 34.044705 ], [ -92.631581, 34.577612 ], [ -93.377651, 35.288155 ], [ -93.448706, 35.750008 ], [ -93.448706, 36.10528 ], [ -93.057907, 36.460551 ], [ -91.956565, 36.531606 ], [ -90.642061, 36.176334 ], [ -89.682828, 35.821063 ], [ -88.936757, 35.039465 ], [ -88.261741, 34.577612 ], [ -86.876182, 34.293395 ], [ -84.815608, 34.009178 ], [ -82.897141, 33.902596 ], [ -81.760273, 34.009178 ], [ -81.014202, 34.328922 ], [ -80.623404, 34.648667 ], [ -80.729985, 35.323682 ], [ -81.831327, 36.176334 ], [ -84.140592, 37.171094 ], [ -85.774841, 38.307963 ], [ -86.947237, 39.657995 ], [ -88.65254, 42.429113 ], [ -89.789409, 44.809432 ], [ -91.068386, 46.798953 ], [ -91.032859, 47.438441 ], [ -91.352604, 50.031924 ], [ -91.332908, 54.077639 ], [ -90.489138, 57.053038 ], [ -89.467732, 58.829396 ], [ -87.124873, 60.903232 ], [ -85.419569, 61.862465 ], [ -84.105065, 63.034861 ], [ -82.897141, 64.207257 ], [ -82.932669, 65.486235 ], [ -84.176119, 66.80074 ], [ -86.485384, 67.582337 ], [ -89.292029, 67.653391 ], [ -91.921038, 66.871794 ], [ -93.910559, 65.202018 ], [ -95.473753, 63.070389 ], [ -98.304557, 61.782726 ], [ -98.872991, 61.600827 ], [ -99.555113, 60.668595 ], [ -99.759749, 60.077423 ], [ -99.918911, 59.66815 ], [ -100.28271, 59.486251 ], [ -100.76019, 59.440776 ], [ -101.21494, 59.895524 ], [ -101.66969, 60.19111 ], [ -102.37455, 60.850494 ], [ -103.807, 60.941443 ], [ -104.83253, 60.285181 ], [ -105.10538, 59.375686 ], [ -104.92348, 58.557141 ], [ -105.0599, 57.738595 ], [ -105.37823, 57.215635 ], [ -106.44688, 56.669938 ], [ -107.30856, 56.143857 ], [ -109.0366, 54.734139 ], [ -110.3781, 54.938776 ], [ -110.49179, 55.393523 ], [ -110.78738, 56.507655 ], [ -110.90106, 56.780503 ], [ -111.26486, 56.848715 ], [ -111.51497, 56.712291 ], [ -112.37899, 56.052907 ], [ -113.7205, 55.50721 ], [ -115.88055, 55.416261 ], [ -117.1311, 55.529947 ], [ -119.13199, 55.393523 ], [ -120.33708, 55.188887 ], [ -120.56445, 55.166149 ], [ -120.70087, 55.279836 ], [ -120.6554, 55.325311 ], [ -120.20065, 55.484473 ], [ -120.04149, 55.711846 ], [ -120.08696, 55.893746 ], [ -121.22383, 55.984695 ], [ -122.42891, 56.303018 ], [ -124.95276, 57.007877 ], [ -127.31745, 57.985584 ], [ -129.41355, 60.05879 ], [ -129.37802, 60.378535 ], [ -128.84512, 60.662752 ], [ -127.88588, 60.378535 ], [ -126.64243, 59.490356 ], [ -124.3687, 58.389014 ], [ -122.43278, 57.842471 ], [ -120.49738, 57.842471 ], [ -118.3728, 58.148062 ], [ -116.77209, 59.239456 ], [ -116.19745, 60.129845 ], [ -115.13164, 61.266714 ], [ -114.38557, 61.621985 ], [ -113.6395, 62.297001 ], [ -113.31975, 63.043071 ], [ -113.31975, 63.966777 ], [ -113.85266, 64.997065 ], [ -114.38557, 65.67208 ], [ -115.23471, 65.694598 ], [ -116.14421, 65.580911 ], [ -116.82633, 65.552489 ], [ -117.79267, 65.467224 ], [ -118.6169, 65.353537 ], [ -119.07164, 65.467224 ], [ -119.21726, 65.920771 ], [ -119.21726, 66.347096 ], [ -118.00934, 66.951058 ], [ -116.05894, 67.598853 ], [ -113.41572, 67.968336 ], [ -109.60721, 68.025179 ], [ -105.03131, 67.854649 ], [ -100.67209, 67.910291 ], [ -98.611511, 68.016873 ], [ -92.323205, 69.189269 ], [ -89.267869, 69.79323 ], [ -86.63886, 70.04192 ], [ -81.984803, 69.580067 ], [ -76.797839, 69.509013 ], [ -75.021481, 69.082687 ], [ -73.955667, 67.768182 ], [ -73.778031, 65.565499 ], [ -74.950427, 62.865435 ], [ -76.975475, 60.414062 ], [ -78.503142, 59.667992 ], [ -80.320356, 58.775124 ], [ -81.20143, 57.38246 ], [ -81.741442, 56.245591 ], [ -82.025659, 54.341336 ], [ -81.883551, 53.374997 ], [ -81.599334, 52.863406 ], [ -81.030899, 52.209706 ], [ -80.3772, 52.010754 ], [ -79.808765, 52.039176 ], [ -78.956113, 52.380237 ], [ -77.819245, 53.09078 ], [ -76.568689, 54.000275 ], [ -75.232868, 54.398179 ], [ -73.754938, 54.938192 ], [ -72.248587, 55.620313 ], [ -71.282248, 55.734 ], [ -71.083296, 55.535048 ], [ -70.884344, 55.051879 ], [ -71.367513, 54.341336 ], [ -72.585527, 53.519359 ], [ -73.531402, 52.631692 ], [ -74.957491, 50.4198 ], [ -76.092541, 48.862744 ], [ -76.194404, 47.000098 ], [ -74.98542, 45.123132 ], [ -73.120244, 44.012909 ], [ -71.299478, 43.035912 ], [ -69.264306, 42.148417 ], [ -66.458903, 42.147733 ], [ -65.082226, 42.414187 ], [ -63.483504, 43.568819 ], [ -62.595325, 44.501407 ], [ -61.529511, 45.123132 ], [ -60.396728, 45.871662 ], [ -59.25986, 46.013771 ], [ -57.355604, 46.013771 ], [ -55.820831, 45.985349 ], [ -54.712384, 45.50218 ], [ -53.888154, 45.047432 ], [ -53.206033, 44.450576 ], [ -52.523911, 43.740033 ], [ -52.182851, 43.256864 ], [ -51.371234, 41.445455 ] ] ] } },
{ "type": "Feature", "properties": { "Density": "Medium", "Start": "2023158 1310", "End": "2023158 1710" }, "geometry": { "type": "Polygon", "coordinates": [ [ [ -120.56501, 55.155331 ], [ -120.58736, 55.27454 ], [ -120.55011, 55.304342 ], [ -120.22228, 55.431002 ], [ -119.88701, 55.475705 ], [ -119.21646, 55.52786 ], [ -118.36709, 55.557662 ], [ -118.11377, 55.512958 ], [ -118.11377, 55.483156 ], [ -118.15847, 55.4012 ], [ -118.58316, 55.319243 ], [ -119.90191, 55.200034 ], [ -120.56501, 55.155331 ] ] ] } },
{ "type": "Feature", "properties": { "Density": "Medium", "Start": "2023158 1720", "End": "2023158 1850" }, "geometry": { "type": "Polygon", "coordinates": [ [ [ -111.93569, 35.388086 ], [ -112.01526, 35.497972 ], [ -112.05316, 35.581334 ], [ -112.05694, 35.683642 ], [ -112.06073, 35.721534 ], [ -112.05694, 35.744269 ], [ -111.99632, 35.772687 ], [ -111.95085, 35.78216 ], [ -111.91106, 35.767004 ], [ -111.89022, 35.725323 ], [ -111.89212, 35.674169 ], [ -111.91106, 35.556704 ], [ -111.90917, 35.479026 ], [ -111.8978, 35.407032 ], [ -111.89969, 35.38998 ], [ -111.93569, 35.388086 ] ] ] } },
{ "type": "Feature", "properties": { "Density": "Medium", "Start": "2023158 1720", "End": "2023158 1850" }, "geometry": { "type": "Polygon", "coordinates": [ [ [ -111.81254, 35.084951 ], [ -111.84475, 35.147473 ], [ -111.84664, 35.225151 ], [ -111.81823, 35.289567 ], [ -111.80686, 35.327459 ], [ -111.78223, 35.338826 ], [ -111.76328, 35.317986 ], [ -111.76518, 35.266832 ], [ -111.79739, 35.206205 ], [ -111.80307, 35.147473 ], [ -111.79928, 35.115265 ], [ -111.81254, 35.084951 ] ] ] } },
{ "type": "Feature", "properties": { "Density": "Medium", "Start": "2023158 1720", "End": "2023158 1850" }, "geometry": { "type": "Polygon", "coordinates": [ [ [ -104.31823, 22.446926 ], [ -104.30876, 22.506132 ], [ -104.27323, 22.581915 ], [ -104.24481, 22.593756 ], [ -104.18087, 22.593756 ], [ -104.15482, 22.527446 ], [ -104.15719, 22.487186 ], [ -104.19745, 22.399561 ], [ -104.23534, 22.328514 ], [ -104.2756, 22.316673 ], [ -104.31586, 22.342723 ], [ -104.3206, 22.368774 ], [ -104.32533, 22.418507 ], [ -104.31823, 22.446926 ] ] ] } },
{ "type": "Feature", "properties": { "Density": "Medium", "Start": "2023158 1900", "End": "2023158 2330" }, "geometry": { "type": "Polygon", "coordinates": [ [ [ -122.49037, 57.891459 ], [ -119.62309, 58.056878 ], [ -116.92124, 58.332578 ], [ -114.41238, 58.442857 ], [ -112.3722, 58.497997 ], [ -110.74558, 59.269955 ], [ -110.02876, 59.655934 ], [ -108.9811, 60.179762 ], [ -108.18158, 61.503118 ], [ -107.60261, 62.826474 ], [ -107.93345, 63.929271 ], [ -108.347, 64.535809 ], [ -109.83577, 65.087208 ], [ -111.37969, 65.362907 ], [ -113.14416, 65.390477 ], [ -115.65302, 65.032068 ], [ -117.72077, 64.50824 ], [ -119.04412, 63.350303 ], [ -119.59552, 63.074604 ], [ -120.17449, 62.881614 ], [ -120.91888, 63.157314 ], [ -121.41514, 64.067121 ], [ -121.22215, 65.032068 ], [ -120.58804, 65.859166 ], [ -118.68572, 66.493274 ], [ -115.62545, 67.375511 ], [ -111.02128, 67.8442 ], [ -106.19654, 68.257749 ], [ -102.7503, 68.616158 ], [ -99.166213, 68.864287 ], [ -96.76763, 68.781577 ], [ -90.899652, 68.343437 ], [ -82.755218, 68.478056 ], [ -80.601318, 68.343437 ], [ -79.726296, 68.343437 ], [ -77.908943, 67.872272 ], [ -75.889661, 66.660703 ], [ -74.274236, 65.516444 ], [ -74.206927, 64.237566 ], [ -74.543474, 62.554831 ], [ -76.495446, 60.939406 ], [ -79.389749, 58.516269 ], [ -80.39939, 57.3047 ], [ -81.341721, 56.025822 ], [ -81.880196, 54.679634 ], [ -83.428312, 52.862281 ], [ -84.70719, 51.987259 ], [ -85.312974, 51.583403 ], [ -86.255305, 50.708381 ], [ -87.063018, 49.900669 ], [ -87.736112, 49.092956 ], [ -87.87073, 47.814078 ], [ -87.130327, 47.208294 ], [ -85.986068, 47.208294 ], [ -85.043737, 48.823719 ], [ -81.47634, 52.794972 ], [ -78.716655, 55.285419 ], [ -73.264596, 56.833534 ], [ -66.802896, 57.641247 ], [ -63.10088, 57.977794 ], [ -62.02393, 58.045103 ], [ -61.754693, 57.170081 ], [ -62.966261, 56.093131 ], [ -66.466349, 55.285419 ], [ -69.697199, 54.814253 ], [ -72.658811, 54.410397 ], [ -75.553115, 53.400756 ], [ -77.505086, 52.391116 ], [ -79.860915, 49.294884 ], [ -79.995533, 47.948697 ], [ -79.120512, 46.131344 ], [ -78.043561, 44.919775 ], [ -72.187646, 43.573587 ], [ -67.072133, 42.765875 ], [ -64.043211, 43.910134 ], [ -62.898952, 45.323631 ], [ -61.620074, 47.342912 ], [ -58.860389, 49.227575 ], [ -56.235324, 49.160265 ], [ -53.879496, 47.814078 ], [ -51.25443, 46.5352 ], [ -47.350486, 44.246681 ], [ -45.533133, 42.16009 ], [ -44.388874, 39.400406 ], [ -44.860039, 37.246506 ], [ -47.283177, 34.284893 ], [ -49.571696, 32.332922 ], [ -51.658286, 31.592518 ], [ -58.052677, 32.669468 ], [ -62.293168, 33.275253 ], [ -65.591327, 33.477181 ], [ -68.081774, 33.409872 ], [ -71.110696, 31.794447 ], [ -72.591502, 30.650187 ], [ -74.678093, 30.582878 ], [ -76.226208, 31.054043 ], [ -78.267812, 32.347323 ], [ -79.877013, 32.544944 ], [ -81.810877, 32.784913 ], [ -83.899477, 32.400231 ], [ -87.534183, 32.130993 ], [ -92.380458, 33.746418 ], [ -94.534358, 34.284893 ], [ -95.40938, 34.62144 ], [ -95.611308, 35.294534 ], [ -95.274762, 36.708031 ], [ -95.274762, 37.784981 ], [ -95.274762, 38.256147 ], [ -96.082474, 38.99655 ], [ -96.217093, 41.15045 ], [ -98.236374, 43.035112 ], [ -99.919109, 45.45825 ], [ -100.45758, 46.871747 ], [ -100.5922, 48.285244 ], [ -100.39027, 49.900669 ], [ -98.64023, 53.535375 ], [ -98.64023, 54.814253 ], [ -99.986418, 55.756584 ], [ -101.53453, 55.891203 ], [ -104.56346, 54.948872 ], [ -106.85197, 54.746944 ], [ -108.73664, 55.285419 ], [ -110.48668, 55.487347 ], [ -112.64058, 55.1508 ], [ -113.24636, 54.679634 ], [ -115.13103, 53.198828 ], [ -116.07336, 53.064209 ], [ -117.75609, 53.535375 ], [ -119.03497, 54.006541 ], [ -120.98694, 54.948872 ], [ -121.3908, 55.756584 ], [ -122.40044, 56.900844 ], [ -122.87161, 57.573937 ], [ -122.49037, 57.891459 ] ] ] } },
{ "type": "Feature", "properties": { "Density": "Medium", "Start": "2023158 1900", "End": "2023158 2330" }, "geometry": { "type": "Polygon", "coordinates": [ [ [ -121.10262, 52.622237 ], [ -121.22473, 52.692544 ], [ -121.31354, 52.781353 ], [ -121.30614, 52.881263 ], [ -121.23953, 52.992275 ], [ -121.05081, 53.103286 ], [ -120.925, 53.140289 ], [ -120.65857, 53.106986 ], [ -120.52906, 53.04778 ], [ -120.51426, 52.970072 ], [ -120.69558, 52.881263 ], [ -120.8954, 52.822057 ], [ -121.04711, 52.711046 ], [ -121.03601, 52.629638 ], [ -121.10262, 52.622237 ] ] ] } },
{ "type": "Feature", "properties": { "Density": "Medium", "Start": "2023158 1900", "End": "2023158 2330" }, "geometry": { "type": "Polygon", "coordinates": [ [ [ -119.59287, 52.126388 ], [ -119.72978, 52.14489 ], [ -119.77418, 52.255901 ], [ -119.73348, 52.333608 ], [ -119.59657, 52.459421 ], [ -119.35974, 52.526028 ], [ -119.24503, 52.529728 ], [ -119.19323, 52.481623 ], [ -119.16732, 52.392814 ], [ -119.27093, 52.267002 ], [ -119.38935, 52.185594 ], [ -119.50776, 52.15229 ], [ -119.59287, 52.126388 ] ] ] } },
{ "type": "Feature", "properties": { "Density": "Medium", "Start": "2023158 1900", "End": "2023158 2330" }, "geometry": { "type": "Polygon", "coordinates": [ [ [ -118.72698, 52.037579 ], [ -118.85279, 52.122687 ], [ -118.86019, 52.211496 ], [ -118.81209, 52.329908 ], [ -118.73808, 52.426118 ], [ -118.63447, 52.440919 ], [ -118.53826, 52.378013 ], [ -118.43095, 52.2522 ], [ -118.42725, 52.141189 ], [ -118.52346, 52.081983 ], [ -118.65297, 52.04498 ], [ -118.68628, 52.041279 ], [ -118.72698, 52.037579 ] ] ] } },
{ "type": "Feature", "properties": { "Density": "Medium", "Start": "2023158 1900", "End": "2023158 2330" }, "geometry": { "type": "Polygon", "coordinates": [ [ [ -96.564714, 20.592539 ], [ -95.760113, 20.394919 ], [ -95.237829, 19.773824 ], [ -94.772008, 19.392698 ], [ -94.46146, 19.378582 ], [ -93.92506, 19.378582 ], [ -93.501586, 19.378582 ], [ -92.824028, 19.477393 ], [ -92.386438, 19.491508 ], [ -92.033543, 19.51974 ], [ -91.652416, 19.562087 ], [ -91.299521, 19.675014 ], [ -90.819584, 19.830287 ], [ -90.39611, 19.95733 ], [ -90.057331, 20.169067 ], [ -89.619742, 20.211414 ], [ -89.040994, 19.886751 ], [ -88.998646, 19.336235 ], [ -89.337426, 18.870413 ], [ -89.845594, 18.221087 ], [ -90.014984, 17.515297 ], [ -90.170258, 17.162402 ], [ -90.212605, 16.851854 ], [ -90.579616, 16.541307 ], [ -91.186595, 16.216643 ], [ -91.468911, 16.174296 ], [ -92.584059, 16.936549 ], [ -93.374544, 17.120054 ], [ -94.207376, 17.120054 ], [ -94.99786, 17.049475 ], [ -95.33664, 17.03536 ], [ -95.943619, 17.247097 ], [ -96.296514, 17.741149 ], [ -96.607061, 18.362245 ], [ -96.917609, 18.926876 ], [ -97.171693, 19.322119 ], [ -97.228156, 19.773824 ], [ -97.086998, 20.253761 ], [ -96.917609, 20.507846 ], [ -96.776451, 20.620772 ], [ -96.564714, 20.592539 ] ] ] } },
{ "type": "Feature", "properties": { "Density": "Medium", "Start": "2023158 1900", "End": "2023158 2330" }, "geometry": { "type": "Polygon", "coordinates": [ [ [ -105.29895, 20.270477 ], [ -105.00986, 20.33986 ], [ -104.8711, 20.478624 ], [ -104.62826, 20.484406 ], [ -104.41433, 20.310951 ], [ -104.38542, 20.258914 ], [ -104.37964, 19.923568 ], [ -104.28713, 19.726986 ], [ -104.00346, 19.698308 ], [ -103.52465, 19.2195 ], [ -103.2988, 18.894272 ], [ -102.81096, 18.731658 ], [ -102.28698, 18.569044 ], [ -102.08823, 18.487737 ], [ -101.69976, 18.397396 ], [ -101.3926, 18.352226 ], [ -101.09448, 18.40643 ], [ -100.89573, 18.767795 ], [ -100.53436, 19.129159 ], [ -100.2272, 19.138193 ], [ -99.956179, 18.957511 ], [ -99.89294, 18.740692 ], [ -99.874872, 18.334157 ], [ -100.00417, 17.92756 ], [ -100.49823, 17.433507 ], [ -101.24636, 17.235885 ], [ -101.88157, 17.235885 ], [ -102.46032, 17.433507 ], [ -103.70251, 18.111065 ], [ -104.11187, 18.859202 ], [ -105.00116, 19.353255 ], [ -105.41052, 19.677919 ], [ -105.57991, 19.988466 ], [ -105.53757, 20.186087 ], [ -105.29895, 20.270477 ] ] ] } },
{ "type": "Feature", "properties": { "Density": "Medium", "Start": "2023158 1900", "End": "2023158 2330" }, "geometry": { "type": "Polygon", "coordinates": [ [ [ -124.89734, 49.189521 ], [ -124.90864, 49.471837 ], [ -125.06673, 49.74286 ], [ -125.43939, 50.070347 ], [ -125.64266, 50.386541 ], [ -125.82334, 50.601101 ], [ -125.78946, 50.77049 ], [ -125.60878, 50.860832 ], [ -125.11191, 50.77049 ], [ -124.58115, 50.228444 ], [ -123.98264, 49.844494 ], [ -123.10182, 49.48313 ], [ -122.34521, 49.302447 ], [ -122.17582, 49.212106 ], [ -122.14194, 49.008839 ], [ -122.24358, 48.92979 ], [ -122.94372, 48.974961 ], [ -123.37284, 49.110473 ], [ -124.01652, 49.26857 ], [ -124.27625, 49.279862 ], [ -124.56986, 49.133058 ], [ -124.75054, 49.09918 ], [ -124.807, 49.09918 ], [ -124.89734, 49.189521 ] ] ] } },
{ "type": "Feature", "properties": { "Density": "Medium", "Start": "2023158 1900", "End": "2023158 2330" }, "geometry": { "type": "Polygon", "coordinates": [ [ [ -122.94372, 51.346415 ], [ -123.47447, 51.448049 ], [ -123.63257, 51.786828 ], [ -123.50835, 51.96751 ], [ -123.07923, 52.1369 ], [ -122.83079, 52.193363 ], [ -122.49201, 52.193363 ], [ -122.33392, 51.956217 ], [ -122.39038, 51.560975 ], [ -122.6727, 51.335122 ], [ -122.85338, 51.312537 ], [ -122.94372, 51.346415 ] ] ] } },
{ "type": "Feature", "properties": { "Density": "Medium", "Start": "2023158 1900", "End": "2023158 2330" }, "geometry": { "type": "Polygon", "coordinates": [ [ [ -111.76969, 35.100744 ], [ -111.7986, 35.094963 ], [ -111.84486, 35.11809 ], [ -111.87377, 35.216381 ], [ -111.90846, 35.366709 ], [ -111.93737, 35.470782 ], [ -112.03566, 35.522818 ], [ -112.04722, 35.730964 ], [ -112.01253, 35.962238 ], [ -112.10504, 36.072092 ], [ -112.2438, 36.176165 ], [ -112.27271, 36.499948 ], [ -112.21489, 36.719657 ], [ -112.08191, 36.835294 ], [ -111.92002, 36.835294 ], [ -111.57311, 36.725439 ], [ -111.42278, 36.528857 ], [ -111.28402, 36.314929 ], [ -111.20307, 36.060529 ], [ -111.24933, 35.777219 ], [ -111.36496, 35.569073 ], [ -111.6078, 35.326236 ], [ -111.76969, 35.100744 ] ] ] } },
{ "type": "Feature", "properties": { "Density": "Medium", "Start": "2023158 1900", "End": "2023158 2330" }, "geometry": { "type": "Polygon", "coordinates": [ [ [ -81.21846, 26.016316 ], [ -81.237405, 26.056576 ], [ -81.235037, 26.077891 ], [ -81.187672, 26.125255 ], [ -81.021896, 26.25314 ], [ -80.84191, 26.385761 ], [ -80.744812, 26.376288 ], [ -80.74718, 26.343133 ], [ -80.780336, 26.274454 ], [ -80.856119, 26.193934 ], [ -80.979268, 26.111046 ], [ -81.21846, 26.016316 ] ] ] } },
{ "type": "Feature", "properties": { "Density": "Medium", "Start": "2023158 2340", "End": "2023159 0200" }, "geometry": { "type": "Polygon", "coordinates": [ [ [ -120.25548, 59.048044 ], [ -120.17166, 59.187742 ], [ -118.6536, 59.075983 ], [ -117.30318, 58.908345 ], [ -115.15183, 58.712767 ], [ -114.48128, 58.647575 ], [ -113.87592, 58.535816 ], [ -113.66171, 58.340238 ], [ -113.69897, 58.107408 ], [ -113.88523, 57.986336 ], [ -114.05287, 57.986336 ], [ -114.4999, 58.032902 ], [ -115.24496, 58.014275 ], [ -116.33461, 58.116721 ], [ -118.28107, 58.433371 ], [ -118.83987, 58.545129 ], [ -120.25548, 59.048044 ] ] ] } },
{ "type": "Feature", "properties": { "Density": "Medium", "Start": "2023158 2340", "End": "2023159 0200" }, "geometry": { "type": "Polygon", "coordinates": [ [ [ -119.99341, 60.081182 ], [ -119.88864, 60.151031 ], [ -117.88629, 59.522388 ], [ -117.21109, 59.289558 ], [ -117.10631, 59.138218 ], [ -117.26929, 58.986878 ], [ -117.51377, 58.975236 ], [ -117.82809, 59.126576 ], [ -118.48001, 59.336124 ], [ -119.38805, 59.68537 ], [ -119.99341, 60.081182 ] ] ] } },
{ "type": "Feature", "properties": { "Density": "Medium", "Start": "2023158 2340", "End": "2023159 0200" }, "geometry": { "type": "Polygon", "coordinates": [ [ [ -108.15385, 33.33558 ], [ -108.2237, 33.405429 ], [ -107.67654, 33.812882 ], [ -107.22252, 34.02243 ], [ -106.98969, 33.987505 ], [ -106.94313, 33.801241 ], [ -106.98969, 33.56841 ], [ -107.16432, 33.463636 ], [ -107.35058, 33.393787 ], [ -107.8046, 33.358862 ], [ -108.15385, 33.33558 ] ] ] } },
{ "type": "Feature", "properties": { "Density": "Heavy", "Start": "2023158 1100", "End": "2023158 1500" }, "geometry": { "type": "Polygon", "coordinates": [ [ [ -108.99711, 67.789455 ], [ -107.27627, 67.844966 ], [ -104.00111, 67.511899 ], [ -101.89168, 67.400877 ], [ -99.560212, 66.901276 ], [ -98.06141, 66.235142 ], [ -97.284254, 65.68003 ], [ -97.006698, 64.847363 ], [ -96.951187, 64.23674 ], [ -97.228743, 64.014695 ], [ -98.02678, 62.738897 ], [ -98.972655, 62.33872 ], [ -100.08224, 60.48335 ], [ -100.99173, 60.319641 ], [ -102.33779, 61.192756 ], [ -103.68384, 61.174566 ], [ -104.8298, 60.810768 ], [ -105.46645, 60.119552 ], [ -106.35775, 57.791244 ], [ -108.01304, 55.954064 ], [ -108.86796, 55.317418 ], [ -109.68651, 55.281038 ], [ -110.21401, 55.826735 ], [ -110.4141, 56.71804 ], [ -110.2322, 57.427446 ], [ -110.54143, 57.554776 ], [ -111.81472, 57.027268 ], [ -112.49432, 56.576197 ], [ -113.27147, 55.854552 ], [ -114.77027, 55.521485 ], [ -115.26988, 55.576996 ], [ -115.43641, 56.021085 ], [ -115.26988, 56.465175 ], [ -115.65845, 56.631708 ], [ -116.36463, 56.430935 ], [ -117.6452, 56.154448 ], [ -119.3777, 56.187619 ], [ -120.48793, 56.187619 ], [ -121.43162, 56.298641 ], [ -121.65366, 56.520686 ], [ -121.71974, 56.911148 ], [ -121.53056, 57.37681 ], [ -121.0649, 57.711504 ], [ -120.16268, 57.638744 ], [ -118.32914, 57.551433 ], [ -117.03402, 57.886127 ], [ -115.7389, 58.293581 ], [ -114.24005, 59.1958 ], [ -113.35238, 60.156227 ], [ -112.62479, 61.145757 ], [ -112.18823, 61.931561 ], [ -111.54795, 62.644605 ], [ -111.21325, 63.939726 ], [ -111.32858, 64.680829 ], [ -112.32778, 65.624519 ], [ -113.43801, 66.068608 ], [ -114.77027, 66.013097 ], [ -116.71317, 65.791053 ], [ -117.65686, 65.957586 ], [ -117.76788, 66.290653 ], [ -117.71237, 66.679231 ], [ -117.32379, 66.956787 ], [ -116.60214, 67.289854 ], [ -115.49192, 67.511899 ], [ -114.54823, 67.733944 ], [ -108.99711, 67.789455 ] ] ] } },
{ "type": "Feature", "properties": { "Density": "Heavy", "Start": "2023158 1310", "End": "2023158 1710" }, "geometry": { "type": "Polygon", "coordinates": [ [ [ -120.52776, 55.185133 ], [ -120.51286, 55.27454 ], [ -120.4905, 55.28199 ], [ -119.93916, 55.423551 ], [ -119.26116, 55.498057 ], [ -118.70237, 55.542761 ], [ -118.66511, 55.512958 ], [ -118.67256, 55.4012 ], [ -118.89608, 55.326694 ], [ -119.46978, 55.267089 ], [ -120.52776, 55.185133 ] ] ] } },
{ "type": "Feature", "properties": { "Density": "Heavy", "Start": "2023158 1310", "End": "2023158 1710" }, "geometry": { "type": "Polygon", "coordinates": [ [ [ -121.7992, 57.247081 ], [ -121.72171, 57.294765 ], [ -121.50714, 57.288805 ], [ -121.22103, 57.282844 ], [ -121.00646, 57.241121 ], [ -120.97666, 57.193437 ], [ -121.00646, 57.139793 ], [ -121.13759, 57.127872 ], [ -121.34024, 57.163635 ], [ -121.53098, 57.211318 ], [ -121.7992, 57.247081 ] ] ] } },
{ "type": "Feature", "properties": { "Density": "Heavy", "Start": "2023158 1310", "End": "2023158 1710" }, "geometry": { "type": "Polygon", "coordinates": [ [ [ -75.314221, 52.804516 ], [ -75.919581, 52.490194 ], [ -76.152411, 52.350496 ], [ -76.3736, 52.292288 ], [ -76.478374, 52.315571 ], [ -76.501657, 52.420345 ], [ -76.478374, 52.618251 ], [ -76.105845, 52.944214 ], [ -75.744958, 53.118837 ], [ -75.465561, 53.246894 ], [ -75.38407, 53.165403 ], [ -75.442278, 53.037346 ], [ -75.558693, 52.979138 ], [ -75.558693, 52.897648 ], [ -75.500485, 52.874365 ], [ -75.453919, 52.886006 ], [ -75.314221, 52.804516 ] ] ] } },
{ "type": "Feature", "properties": { "Density": "Heavy", "Start": "2023158 1720", "End": "2023158 1850" }, "geometry": { "type": "Polygon", "coordinates": [ [ [ -75.427547, 53.21465 ], [ -75.45083, 53.156443 ], [ -75.404264, 53.098235 ], [ -75.380981, 52.900329 ], [ -75.462472, 52.818838 ], [ -75.706944, 52.655857 ], [ -76.626625, 52.120346 ], [ -77.208702, 51.864233 ], [ -77.453174, 51.875874 ], [ -77.557948, 51.992289 ], [ -77.56959, 52.178554 ], [ -77.429891, 52.364819 ], [ -76.952588, 52.702423 ], [ -76.556776, 52.935254 ], [ -75.974699, 53.109877 ], [ -75.427547, 53.21465 ] ] ] } },
{ "type": "Feature", "properties": { "Density": "Heavy", "Start": "2023158 1720", "End": "2023158 1850" }, "geometry": { "type": "Polygon", "coordinates": [ [ [ -79.372418, 49.002449 ], [ -79.418195, 48.777382 ], [ -79.586041, 48.376839 ], [ -79.746259, 48.193734 ], [ -79.830182, 48.121254 ], [ -79.898847, 48.102181 ], [ -79.98277, 48.113625 ], [ -80.074323, 48.208992 ], [ -80.108655, 48.308175 ], [ -80.108655, 48.392098 ], [ -80.078137, 48.529427 ], [ -80.078137, 48.651497 ], [ -80.017102, 48.758309 ], [ -79.906476, 48.849862 ], [ -79.704297, 48.99482 ], [ -79.631818, 49.010079 ], [ -79.555524, 49.010079 ], [ -79.502118, 49.010079 ], [ -79.433453, 49.010079 ], [ -79.410565, 49.010079 ], [ -79.372418, 49.002449 ] ] ] } },
{ "type": "Feature", "properties": { "Density": "Heavy", "Start": "2023158 1720", "End": "2023158 1850" }, "geometry": { "type": "Polygon", "coordinates": [ [ [ -82.23511, 46.569637 ], [ -82.283939, 46.374324 ], [ -82.329715, 46.117976 ], [ -82.354129, 46.005061 ], [ -82.399906, 45.882991 ], [ -82.457889, 45.754817 ], [ -82.54639, 45.675471 ], [ -82.607425, 45.63885 ], [ -82.628787, 45.629695 ], [ -82.65015, 45.663264 ], [ -82.644046, 45.8128 ], [ -82.561649, 45.96844 ], [ -82.485355, 46.236995 ], [ -82.402957, 46.4201 ], [ -82.335819, 46.560481 ], [ -82.293094, 46.606257 ], [ -82.256473, 46.624568 ], [ -82.23511, 46.569637 ] ] ] } },
{ "type": "Feature", "properties": { "Density": "Heavy", "Start": "2023158 1720", "End": "2023158 1850" }, "geometry": { "type": "Polygon", "coordinates": [ [ [ -82.401765, 47.68187 ], [ -82.523836, 47.418656 ], [ -82.607759, 47.250809 ], [ -82.653535, 47.1707 ], [ -82.684053, 47.128739 ], [ -82.764161, 47.109665 ], [ -82.798494, 47.098221 ], [ -82.809938, 47.151627 ], [ -82.752717, 47.308029 ], [ -82.634462, 47.510208 ], [ -82.523836, 47.643723 ], [ -82.424653, 47.723831 ], [ -82.401765, 47.68187 ] ] ] } },
{ "type": "Feature", "properties": { "Density": "Heavy", "Start": "2023158 1720", "End": "2023158 1850" }, "geometry": { "type": "Polygon", "coordinates": [ [ [ -81.799342, 46.563265 ], [ -81.81653, 46.480452 ], [ -81.830592, 46.452327 ], [ -81.857155, 46.425765 ], [ -81.869655, 46.417952 ], [ -81.87278, 46.417952 ], [ -81.877467, 46.450765 ], [ -81.86653, 46.489827 ], [ -81.836842, 46.552327 ], [ -81.825905, 46.582015 ], [ -81.818092, 46.589827 ], [ -81.799342, 46.563265 ] ] ] } },
{ "type": "Feature", "properties": { "Density": "Heavy", "Start": "2023158 1720", "End": "2023158 1850" }, "geometry": { "type": "Polygon", "coordinates": [ [ [ -107.17022, 56.490704 ], [ -107.13553, 56.63525 ], [ -106.92739, 56.866523 ], [ -106.81753, 56.935905 ], [ -106.77128, 56.970596 ], [ -106.62673, 56.98216 ], [ -106.5111, 56.930123 ], [ -106.50531, 56.854959 ], [ -106.55157, 56.721977 ], [ -106.73659, 56.577431 ], [ -106.91004, 56.513831 ], [ -107.07772, 56.496486 ], [ -107.11241, 56.496486 ], [ -107.17022, 56.490704 ] ] ] } },
{ "type": "Feature", "properties": { "Density": "Heavy", "Start": "2023158 1720", "End": "2023158 1850" }, "geometry": { "type": "Polygon", "coordinates": [ [ [ -111.94895, 35.401348 ], [ -112.00011, 35.509339 ], [ -112.02663, 35.566177 ], [ -112.03421, 35.607858 ], [ -112.02853, 35.651434 ], [ -112.01337, 35.676063 ], [ -111.99821, 35.683642 ], [ -111.966, 35.689326 ], [ -111.93569, 35.687431 ], [ -111.92053, 35.64575 ], [ -111.92811, 35.598385 ], [ -111.92811, 35.507445 ], [ -111.92053, 35.456291 ], [ -111.92811, 35.412715 ], [ -111.94895, 35.401348 ] ] ] } },
{ "type": "Feature", "properties": { "Density": "Heavy", "Start": "2023158 1900", "End": "2023158 2330" }, "geometry": { "type": "Polygon", "coordinates": [ [ [ -90.327602, 52.311339 ], [ -90.537193, 52.499248 ], [ -90.638375, 52.70884 ], [ -90.638375, 52.831704 ], [ -90.54442, 52.896749 ], [ -90.508284, 52.896749 ], [ -90.428784, 52.882295 ], [ -90.277011, 52.781113 ], [ -90.248102, 52.528157 ], [ -90.262556, 52.354703 ], [ -90.327602, 52.311339 ] ] ] } },
{ "type": "Feature", "properties": { "Density": "Heavy", "Start": "2023158 1100", "End": "2023158 1500" }, "geometry": { "type": "Polygon", "coordinates": [ [ [ -56.56959, 44.578813 ], [ -55.326138, 42.402776 ], [ -55.192912, 41.203734 ], [ -55.503774, 40.315555 ], [ -56.836042, 38.983287 ], [ -56.92486, 38.628016 ], [ -56.92486, 38.050699 ], [ -56.391953, 37.828655 ], [ -55.503774, 37.651019 ], [ -55.104094, 36.76284 ], [ -55.059685, 36.052297 ], [ -55.637001, 35.341754 ], [ -57.235723, 34.942074 ], [ -59.322943, 34.453575 ], [ -61.721026, 33.920668 ], [ -63.497383, 33.876259 ], [ -64.652016, 34.275939 ], [ -64.962878, 34.986483 ], [ -65.31815, 36.052297 ], [ -66.028693, 36.940476 ], [ -67.583006, 37.651019 ], [ -69.581408, 37.562201 ], [ -73.667031, 36.76284 ], [ -76.820066, 37.384565 ], [ -78.285561, 38.095108 ], [ -79.12933, 38.983287 ], [ -82.282365, 39.649421 ], [ -87.96671, 42.62482 ], [ -89.60984, 45.067312 ], [ -90.675655, 49.241752 ], [ -90.808882, 52.305969 ], [ -90.853291, 54.970506 ], [ -90.231566, 56.968908 ], [ -89.21016, 57.990314 ], [ -87.922301, 58.16795 ], [ -86.67885, 57.812678 ], [ -85.879489, 56.569228 ], [ -85.657445, 54.570825 ], [ -85.879489, 52.750059 ], [ -86.057125, 50.17434 ], [ -85.790672, 48.575618 ], [ -85.524218, 48.042711 ], [ -84.769266, 47.731848 ], [ -84.147541, 47.554213 ], [ -83.436998, 47.598622 ], [ -82.770864, 47.731848 ], [ -81.971503, 47.998302 ], [ -81.616231, 48.4868 ], [ -80.574533, 48.9064 ], [ -78.188017, 49.153782 ], [ -76.689169, 49.255646 ], [ -76.325371, 49.182886 ], [ -76.267164, 47.989628 ], [ -76.485442, 47.349344 ], [ -75.487797, 45.244948 ], [ -74.510801, 44.134724 ], [ -73.045306, 42.935683 ], [ -70.691632, 42.047504 ], [ -68.115913, 41.559006 ], [ -64.429971, 41.825459 ], [ -62.475978, 42.891274 ], [ -61.410163, 44.001497 ], [ -59.989077, 45.244948 ], [ -58.790036, 45.55581 ], [ -57.546585, 45.333766 ], [ -56.56959, 44.578813 ] ] ] } },
{ "type": "Feature", "properties": { "Density": "Heavy", "Start": "2023158 1900", "End": "2023158 2330" }, "geometry": { "type": "Polygon", "coordinates": [ [ [ -88.421544, 53.065055 ], [ -88.811817, 53.332465 ], [ -88.985272, 53.614329 ], [ -89.115363, 53.910648 ], [ -89.308107, 54.36119 ], [ -89.252602, 54.560085 ], [ -89.155467, 54.536958 ], [ -88.655917, 53.91252 ], [ -88.373763, 53.579487 ], [ -88.267378, 53.352839 ], [ -88.320362, 53.108419 ], [ -88.421544, 53.065055 ] ] ] } },
{ "type": "Feature", "properties": { "Density": "Heavy", "Start": "2023158 1900", "End": "2023158 2330" }, "geometry": { "type": "Polygon", "coordinates": [ [ [ -89.655406, 56.418419 ], [ -89.639484, 57.0145 ], [ -89.088085, 57.324662 ], [ -88.398837, 57.324662 ], [ -87.709589, 56.945575 ], [ -87.296041, 56.221865 ], [ -87.330503, 54.56767 ], [ -87.812977, 52.84455 ], [ -88.4333, 50.466645 ], [ -88.846849, 46.917018 ], [ -88.536687, 45.607447 ], [ -88.260988, 45.331747 ], [ -87.57174, 45.400672 ], [ -87.43389, 45.469597 ], [ -86.675717, 46.158845 ], [ -86.193244, 46.331157 ], [ -85.84862, 47.537341 ], [ -84.745823, 48.6746 ], [ -83.505177, 49.742934 ], [ -82.230068, 51.397129 ], [ -80.851572, 52.810088 ], [ -80.403561, 52.810088 ], [ -80.265712, 52.534389 ], [ -80.541411, 51.741753 ], [ -80.954959, 51.12143 ], [ -81.437433, 50.328795 ], [ -82.54023, 49.088149 ], [ -82.54023, 48.640138 ], [ -82.230068, 47.95089 ], [ -82.023294, 47.537341 ], [ -82.073678, 46.381246 ], [ -81.772132, 45.519686 ], [ -80.350558, 45.00275 ], [ -78.79975, 44.442736 ], [ -77.07663, 43.581176 ], [ -75.956602, 43.021162 ], [ -74.018092, 41.98729 ], [ -72.165738, 41.513432 ], [ -70.356462, 41.298042 ], [ -67.039456, 41.427276 ], [ -63.119359, 43.236552 ], [ -60.146977, 45.821232 ], [ -57.949999, 46.94126 ], [ -54.934539, 47.070494 ], [ -53.297575, 46.553558 ], [ -52.005235, 45.390452 ], [ -51.919079, 44.270424 ], [ -52.608327, 42.590382 ], [ -53.125263, 41.858056 ], [ -56.743815, 41.298042 ], [ -57.906921, 40.867262 ], [ -58.639247, 40.522638 ], [ -59.931587, 39.488766 ], [ -62.947047, 38.153348 ], [ -67.556392, 36.990242 ], [ -69.96876, 36.731774 ], [ -74.49195, 37.421022 ], [ -78.627438, 38.153348 ], [ -83.193706, 38.196426 ], [ -86.639946, 38.497972 ], [ -89.396938, 39.704156 ], [ -91.07698, 41.944212 ], [ -92.153929, 45.907388 ], [ -91.938539, 48.2336 ], [ -91.335447, 50.732124 ], [ -90.603122, 53.489115 ], [ -89.655406, 56.418419 ] ] ] } },
{ "type": "Feature", "properties": { "Density": "Heavy", "Start": "2023158 1900", "End": "2023158 2330" }, "geometry": { "type": "Polygon", "coordinates": [ [ [ -120.65628, 55.145634 ], [ -120.73578, 55.152861 ], [ -120.81528, 55.246816 ], [ -120.78637, 55.304634 ], [ -120.61292, 55.398589 ], [ -120.27324, 55.492544 ], [ -119.78901, 55.60818 ], [ -119.39151, 55.774408 ], [ -118.58928, 55.969545 ], [ -117.54855, 56.063499 ], [ -116.82582, 56.114091 ], [ -115.64777, 56.063499 ], [ -114.75159, 55.918954 ], [ -114.45527, 55.759953 ], [ -114.20231, 55.543135 ], [ -114.16618, 55.254043 ], [ -114.29627, 55.109497 ], [ -114.44081, 55.066134 ], [ -114.63595, 55.123952 ], [ -114.83109, 55.138407 ], [ -115.52491, 55.196225 ], [ -115.79232, 55.196225 ], [ -116.85473, 55.275725 ], [ -117.33896, 55.232361 ], [ -117.81596, 55.131179 ], [ -118.62541, 54.921588 ], [ -119.42764, 54.986634 ], [ -119.84683, 55.10227 ], [ -120.32383, 55.138407 ], [ -120.65628, 55.145634 ] ] ] } },
{ "type": "Feature", "properties": { "Density": "Heavy", "Start": "2023158 1900", "End": "2023158 2330" }, "geometry": { "type": "Polygon", "coordinates": [ [ [ -117.83764, 53.93145 ], [ -117.92437, 53.989268 ], [ -117.95328, 54.083223 ], [ -117.73646, 54.133814 ], [ -117.51241, 54.162723 ], [ -117.1655, 54.184405 ], [ -116.78968, 54.220541 ], [ -116.58732, 54.220541 ], [ -116.33436, 54.097677 ], [ -116.23318, 53.916995 ], [ -116.38496, 53.851949 ], [ -116.62346, 53.844722 ], [ -116.96314, 53.888086 ], [ -117.245, 53.989268 ], [ -117.74369, 53.938677 ], [ -117.83764, 53.93145 ] ] ] } },
{ "type": "Feature", "properties": { "Density": "Heavy", "Start": "2023158 1900", "End": "2023158 2330" }, "geometry": { "type": "Polygon", "coordinates": [ [ [ -116.43555, 53.374948 ], [ -116.44277, 53.39663 ], [ -116.291, 53.432767 ], [ -116.09586, 53.483358 ], [ -116.00914, 53.562858 ], [ -115.93686, 53.729085 ], [ -115.88627, 53.830267 ], [ -115.74173, 53.880858 ], [ -115.51045, 53.938677 ], [ -115.30809, 53.909768 ], [ -115.22859, 53.851949 ], [ -115.23582, 53.779676 ], [ -115.28641, 53.671267 ], [ -115.178, 53.58454 ], [ -114.95395, 53.425539 ], [ -114.82386, 53.143675 ], [ -114.90336, 52.977447 ], [ -115.05513, 52.926856 ], [ -115.28641, 52.926856 ], [ -115.77786, 53.056948 ], [ -116.14645, 53.129221 ], [ -116.18259, 53.201493 ], [ -116.27655, 53.288221 ], [ -116.43555, 53.374948 ] ] ] } },
{ "type": "Feature", "properties": { "Density": "Heavy", "Start": "2023158 1900", "End": "2023158 2330" }, "geometry": { "type": "Polygon", "coordinates": [ [ [ -124.81188, 56.368659 ], [ -124.76563, 56.46695 ], [ -124.47654, 56.507423 ], [ -124.08915, 56.501641 ], [ -123.95617, 56.443822 ], [ -123.95617, 56.409131 ], [ -124.16432, 56.391786 ], [ -124.43606, 56.414913 ], [ -124.64999, 56.397568 ], [ -124.75985, 56.351313 ], [ -124.81188, 56.368659 ] ] ] } },
{ "type": "Feature", "properties": { "Density": "Heavy", "Start": "2023158 1900", "End": "2023158 2330" }, "geometry": { "type": "Polygon", "coordinates": [ [ [ -123.14671, 55.911894 ], [ -123.2161, 55.940803 ], [ -123.22188, 55.975494 ], [ -123.21032, 55.987058 ], [ -123.10046, 56.010185 ], [ -122.95592, 56.068003 ], [ -122.60322, 56.12004 ], [ -122.3893, 56.12004 ], [ -122.31413, 56.085349 ], [ -122.36039, 55.987058 ], [ -122.43555, 55.940803 ], [ -122.5801, 55.940803 ], [ -122.82293, 55.940803 ], [ -122.97326, 55.935021 ], [ -123.14671, 55.911894 ] ] ] } },
{ "type": "Feature", "properties": { "Density": "Heavy", "Start": "2023158 1900", "End": "2023158 2330" }, "geometry": { "type": "Polygon", "coordinates": [ [ [ -122.51505, 57.665827 ], [ -121.90977, 57.747134 ], [ -120.79857, 57.846509 ], [ -119.82289, 57.747134 ], [ -118.30553, 57.678471 ], [ -116.29293, 57.678471 ], [ -113.59108, 57.568191 ], [ -112.12987, 57.733611 ], [ -110.22755, 58.257439 ], [ -108.29765, 59.139677 ], [ -107.11215, 60.490603 ], [ -106.36776, 60.959291 ], [ -105.45795, 61.758819 ], [ -104.85141, 62.944326 ], [ -104.96169, 63.578434 ], [ -104.93412, 64.157402 ], [ -103.72105, 65.067209 ], [ -102.42526, 65.398048 ], [ -101.21219, 64.95693 ], [ -100.55051, 64.102262 ], [ -99.66827, 63.633574 ], [ -98.896312, 62.944326 ], [ -98.703322, 61.758819 ], [ -99.199581, 60.407893 ], [ -100.08182, 58.670988 ], [ -101.29489, 57.347632 ], [ -102.4804, 56.685954 ], [ -104.38273, 56.189695 ], [ -106.80888, 56.106986 ], [ -109.09718, 56.410255 ], [ -110.33783, 55.969136 ], [ -112.98454, 56.106986 ], [ -116.40321, 55.886426 ], [ -118.6088, 56.630814 ], [ -120.34571, 56.961653 ], [ -121.91719, 57.127073 ], [ -122.38588, 57.292492 ], [ -122.5513, 57.513052 ], [ -122.51505, 57.665827 ] ] ] } },
{ "type": "Feature", "properties": { "Density": "Heavy", "Start": "2023158 1900", "End": "2023158 2330" }, "geometry": { "type": "Polygon", "coordinates": [ [ [ -110.78036, 58.821444 ], [ -111.08526, 58.923078 ], [ -111.0288, 59.013419 ], [ -110.78036, 59.115053 ], [ -110.00117, 59.284443 ], [ -108.53312, 59.544173 ], [ -107.50549, 59.6571 ], [ -107.16671, 59.600636 ], [ -106.82794, 59.374784 ], [ -106.97474, 59.194101 ], [ -107.22318, 59.069882 ], [ -107.55066, 59.047297 ], [ -108.19434, 58.979541 ], [ -108.89449, 58.900493 ], [ -109.70756, 58.900493 ], [ -110.78036, 58.821444 ] ] ] } },
{ "type": "Feature", "properties": { "Density": "Heavy", "Start": "2023158 1900", "End": "2023158 2330" }, "geometry": { "type": "Polygon", "coordinates": [ [ [ -108.42613, 55.488387 ], [ -108.50743, 55.533558 ], [ -108.46226, 55.596796 ], [ -108.27255, 55.750376 ], [ -107.83891, 55.922024 ], [ -107.35107, 56.06657 ], [ -106.58317, 56.111741 ], [ -106.20373, 55.949127 ], [ -106.2218, 55.741342 ], [ -106.36635, 55.687137 ], [ -106.68254, 55.632933 ], [ -107.05294, 55.687137 ], [ -107.81181, 55.596796 ], [ -108.42613, 55.488387 ] ] ] } },
{ "type": "Feature", "properties": { "Density": "Heavy", "Start": "2023158 1900", "End": "2023158 2330" }, "geometry": { "type": "Polygon", "coordinates": [ [ [ -89.293247, 52.100949 ], [ -89.5191, 52.218392 ], [ -89.726885, 52.435211 ], [ -89.799157, 52.588791 ], [ -89.781089, 52.688166 ], [ -89.645578, 52.742371 ], [ -89.482964, 52.624927 ], [ -89.275179, 52.128051 ], [ -89.293247, 52.100949 ] ] ] } },
{ "type": "Feature", "properties": { "Density": "Heavy", "Start": "2023158 1900", "End": "2023158 2330" }, "geometry": { "type": "Polygon", "coordinates": [ [ [ -121.08319, 52.629202 ], [ -121.24971, 52.76334 ], [ -121.2127, 52.902104 ], [ -121.09244, 53.008489 ], [ -120.96293, 53.05937 ], [ -120.82879, 53.073246 ], [ -120.72241, 52.999239 ], [ -120.75941, 52.878976 ], [ -120.92593, 52.855849 ], [ -121.11557, 52.786467 ], [ -121.07857, 52.707834 ], [ -121.07394, 52.666205 ], [ -121.08319, 52.629202 ] ] ] } },
{ "type": "Feature", "properties": { "Density": "Heavy", "Start": "2023158 1900", "End": "2023158 2330" }, "geometry": { "type": "Polygon", "coordinates": [ [ [ -119.59379, 52.129651 ], [ -119.7233, 52.203659 ], [ -119.66317, 52.31467 ], [ -119.52441, 52.425681 ], [ -119.37177, 52.439557 ], [ -119.30701, 52.370175 ], [ -119.34864, 52.259164 ], [ -119.48741, 52.180531 ], [ -119.55216, 52.138902 ], [ -119.59379, 52.129651 ] ] ] } },
{ "type": "Feature", "properties": { "Density": "Heavy", "Start": "2023158 1900", "End": "2023158 2330" }, "geometry": { "type": "Polygon", "coordinates": [ [ [ -118.73808, 52.044979 ], [ -118.83059, 52.137489 ], [ -118.80839, 52.237399 ], [ -118.75658, 52.307706 ], [ -118.66407, 52.337309 ], [ -118.53086, 52.315107 ], [ -118.53086, 52.241099 ], [ -118.62707, 52.174493 ], [ -118.70848, 52.104185 ], [ -118.70848, 52.085684 ], [ -118.73808, 52.044979 ] ] ] } },
{ "type": "Feature", "properties": { "Density": "Heavy", "Start": "2023158 1900", "End": "2023158 2330" }, "geometry": { "type": "Polygon", "coordinates": [ [ [ -119.29392, 54.523981 ], [ -119.38865, 54.583187 ], [ -119.40049, 54.658971 ], [ -119.29155, 54.741859 ], [ -119.14472, 54.817643 ], [ -119.0121, 54.850798 ], [ -118.85106, 54.860271 ], [ -118.73738, 54.853166 ], [ -118.6687, 54.782119 ], [ -118.70896, 54.685021 ], [ -118.91027, 54.609238 ], [ -119.08788, 54.559505 ], [ -119.24655, 54.523981 ], [ -119.29392, 54.523981 ] ] ] } },
{ "type": "Feature", "properties": { "Density": "Heavy", "Start": "2023158 1900", "End": "2023158 2330" }, "geometry": { "type": "Polygon", "coordinates": [ [ [ -111.12713, 55.918069 ], [ -111.19189, 55.9782 ], [ -111.18726, 56.010578 ], [ -111.09475, 56.052207 ], [ -110.85885, 56.098462 ], [ -110.5397, 56.163218 ], [ -110.18816, 56.227975 ], [ -109.96614, 56.241851 ], [ -109.8135, 56.223349 ], [ -109.72562, 56.121589 ], [ -109.74412, 56.005952 ], [ -109.80887, 55.945821 ], [ -110.04015, 55.913443 ], [ -110.19279, 55.913443 ], [ -110.72009, 55.927319 ], [ -111.12713, 55.918069 ] ] ] } },
{ "type": "Feature", "properties": { "Density": "Heavy", "Start": "2023158 1900", "End": "2023158 2330" }, "geometry": { "type": "Polygon", "coordinates": [ [ [ -108.06601, 56.474631 ], [ -107.88099, 56.655025 ], [ -107.54334, 56.793788 ], [ -107.10392, 56.918676 ], [ -106.87727, 56.988058 ], [ -106.72463, 56.992683 ], [ -106.65525, 56.877047 ], [ -106.80789, 56.692028 ], [ -107.14555, 56.539388 ], [ -107.52021, 56.511635 ], [ -107.81161, 56.470006 ], [ -108.00588, 56.405249 ], [ -108.06601, 56.474631 ] ] ] } },
{ "type": "Feature", "properties": { "Density": "Heavy", "Start": "2023158 1900", "End": "2023158 2330" }, "geometry": { "type": "Polygon", "coordinates": [ [ [ -107.33403, 56.306348 ], [ -107.33403, 56.349712 ], [ -107.38462, 56.508712 ], [ -107.1389, 56.703849 ], [ -106.68358, 56.956804 ], [ -106.14876, 57.216986 ], [ -105.69344, 57.462714 ], [ -104.93457, 57.737351 ], [ -104.51539, 57.693987 ], [ -104.45757, 57.592805 ], [ -104.47203, 57.412123 ], [ -104.84062, 57.130259 ], [ -105.25257, 56.906213 ], [ -105.59948, 56.523167 ], [ -106.09817, 56.429212 ], [ -106.78476, 56.393075 ], [ -107.33403, 56.306348 ] ] ] } },
{ "type": "Feature", "properties": { "Density": "Heavy", "Start": "2023158 1900", "End": "2023158 2330" }, "geometry": { "type": "Polygon", "coordinates": [ [ [ -82.377106, 47.696142 ], [ -82.411797, 47.308759 ], [ -82.556343, 46.753703 ], [ -82.481179, 46.678539 ], [ -82.29616, 46.678539 ], [ -82.238342, 46.661194 ], [ -82.099578, 46.678539 ], [ -82.018632, 46.765267 ], [ -81.937687, 46.71323 ], [ -81.787359, 46.58603 ], [ -81.816268, 46.354757 ], [ -81.918444, 46.031354 ], [ -82.336272, 45.184406 ], [ -82.618588, 44.800457 ], [ -82.754099, 44.585896 ], [ -82.912196, 44.563311 ], [ -83.092878, 44.64236 ], [ -83.115464, 44.958554 ], [ -83.115464, 45.319918 ], [ -83.194512, 45.658697 ], [ -83.521999, 45.816794 ], [ -83.928534, 45.986184 ], [ -84.109216, 46.494352 ], [ -84.030167, 46.91218 ], [ -83.65751, 47.138033 ], [ -82.991245, 47.397763 ], [ -82.426613, 47.781713 ], [ -82.377106, 47.696142 ] ] ] } },
{ "type": "Feature", "properties": { "Density": "Heavy", "Start": "2023158 2340", "End": "2023159 0200" }, "geometry": { "type": "Polygon", "coordinates": [ [ [ -118.94231, 56.282015 ], [ -119.01682, 56.356521 ], [ -118.2997, 56.365834 ], [ -117.86198, 56.421713 ], [ -117.74091, 56.384461 ], [ -117.65709, 56.337894 ], [ -117.8061, 56.226136 ], [ -118.02962, 56.207509 ], [ -118.34627, 56.207509 ], [ -118.94231, 56.282015 ] ] ] } },
{ "type": "Feature", "properties": { "Density": "Heavy", "Start": "2023158 2340", "End": "2023159 0200" }, "geometry": { "type": "Polygon", "coordinates": [ [ [ -120.22754, 59.075983 ], [ -120.17166, 59.215682 ], [ -118.95163, 59.020104 ], [ -116.99585, 58.871092 ], [ -115.97139, 58.796586 ], [ -115.42191, 58.666201 ], [ -115.29153, 58.442684 ], [ -115.44054, 58.237793 ], [ -115.72925, 58.144661 ], [ -116.19491, 58.144661 ], [ -117.387, 58.330925 ], [ -118.45802, 58.48925 ], [ -119.23102, 58.712767 ], [ -119.88295, 58.899032 ], [ -120.22754, 59.075983 ] ] ] } },
{ "type": "Feature", "properties": { "Density": "Heavy", "Start": "2023158 2340", "End": "2023159 0200" }, "geometry": { "type": "Polygon", "coordinates": [ [ [ -124.73898, 56.06776 ], [ -124.47076, 56.164617 ], [ -124.09823, 56.239123 ], [ -123.80766, 56.246574 ], [ -123.64375, 56.20187 ], [ -123.59904, 56.06776 ], [ -123.80766, 56.037957 ], [ -124.07588, 56.030507 ], [ -124.3292, 56.023056 ], [ -124.63467, 55.985803 ], [ -124.64957, 55.985803 ], [ -124.73898, 56.06776 ] ] ] } },
{ "type": "Feature", "properties": { "Density": "Heavy", "Start": "2023158 2340", "End": "2023159 0200" }, "geometry": { "type": "Polygon", "coordinates": [ [ [ -116.73706, 54.953265 ], [ -116.30632, 55.127888 ], [ -115.74753, 55.244303 ], [ -115.45649, 55.255945 ], [ -115.30515, 55.255945 ], [ -115.20037, 55.058039 ], [ -115.5147, 54.953265 ], [ -115.95707, 54.941623 ], [ -116.41109, 54.929982 ], [ -116.63228, 54.895057 ], [ -116.73706, 54.953265 ] ] ] } },
{ "type": "Feature", "properties": { "Density": "Heavy", "Start": "2023158 2340", "End": "2023159 0200" }, "geometry": { "type": "Polygon", "coordinates": [ [ [ -120.00505, 60.116107 ], [ -119.88864, 60.162673 ], [ -118.41016, 59.720294 ], [ -118.00271, 59.522388 ], [ -118.06092, 59.38269 ], [ -118.14241, 59.38269 ], [ -118.45673, 59.38269 ], [ -118.77105, 59.464181 ], [ -119.20179, 59.662087 ], [ -119.64417, 59.859993 ], [ -120.00505, 60.116107 ] ] ] } }
]
}
