{"type":"FeatureCollection","features":[{"type":"Feature","properties":{"density":1},"geometry":{"type":"Polygon","coordinates":[[[-106.117,23.641],[-105.862,22.624],[-105.379,22.472],[-105.049,22.421],[-104.134,21.938],[-103.727,21.506],[-104.261,20.87],[-104.795,19.93],[-107.998,19.675],[-109.777,18.964],[-111.989,18.938],[-113.057,19.243],[-114.429,20.209],[-116.539,23.031],[-116.082,24.734],[-115.065,26.387],[-113.336,29.463],[-113.133,30.174],[-112.523,31.039],[-111.709,31.344],[-111.302,31.14],[-111.048,30.657],[-110.514,30.073],[-109.879,28.954],[-109.447,28.064],[-109.015,27.404],[-108.099,26.361],[-107.515,25.497],[-106.472,24.556],[-106.117,23.641]]]}},{"type":"Feature","properties":{"density":1},"geometry":{"type":"Polygon","coordinates":[[[-159.905,72.587],[-154.583,72.892],[-149.397,72.739],[-136.669,72.285],[-123.941,72.891],[-78.485,72.739],[-69.287,70.508],[-67.847,69.813],[-56.924,64.054],[-54.044,62.465],[-53.647,61.323],[-58.265,57.649],[-61.393,56.358],[-67.748,53.974],[-70.628,53.031],[-71.67,51.69],[-71.77,48.96],[-71.72,47.619],[-71.571,46.229],[-71.025,43.895],[-70.975,41.512],[-71.074,38.285],[-74.746,32.239],[-74.99,31.894],[-75.254,31.385],[-75.661,30.511],[-76.393,29.392],[-77.146,28.965],[-77.715,28.782],[-78.203,28.599],[-78.793,28.497],[-80.196,28.294],[-83.45,27.928],[-85.728,27.928],[-87.436,28.03],[-88.331,28.192],[-89.816,28.294],[-96.283,26.891],[-97.035,26.484],[-97.666,26.077],[-99.13,25.284],[-101.001,24.877],[-105.963,30.267],[-106.309,30.938],[-106.634,33.338],[-106.044,34.659],[-105.556,35.88],[-105.516,36.978],[-106.004,38.625],[-106.431,39.479],[-106.797,39.683],[-107.102,39.703],[-107.671,39.154],[-110.539,38.91],[-111.373,38.483],[-113.549,35.514],[-113.956,35.148],[-115.298,35.941],[-115.521,37.507],[-115.155,41.086],[-112.41,43.323],[-112.959,44.441],[-114.423,44.543],[-116.05,43.974],[-117.148,43.445],[-117.942,43.038],[-119.609,42.326],[-121.663,41.798],[-122.863,41.269],[-123.392,40.374],[-121.846,36.673],[-121.46,35.798],[-121.399,35.046],[-121.907,34.009],[-123.25,32.341],[-124.775,31.222],[-127.297,29.982],[-128.822,31.222],[-129.676,34.192],[-130.611,38.483],[-130.123,40.313],[-128.985,42.326],[-128.679,47.187],[-130.469,50.278],[-131.913,52.271],[-135.98,56.928],[-137.424,58.433],[-154.312,62.61],[-159.674,65.341],[-161.362,67.625],[-161.882,68.968],[-162.004,69.82],[-161.639,71.584],[-159.905,72.587]]]}},{"type":"Feature","properties":{"density":1},"geometry":{"type":"Polygon","coordinates":[[[-115.225,35.205],[-115.372,35.4],[-115.762,36.018],[-115.827,36.311],[-115.469,37.255],[-115.03,38.247],[-115.046,38.947],[-114.282,40.916],[-113.403,41.257],[-112.72,41.306],[-112.102,41.29],[-111.516,40.964],[-110.784,40.59],[-110.019,40.151],[-109.564,39.337],[-109.58,38.719],[-109.775,38.166],[-110.67,37.971],[-111.662,37.71],[-112.59,36.441],[-113.127,35.628],[-114.168,34.782],[-114.379,34.587],[-114.851,34.587],[-115.079,34.847],[-115.095,34.961],[-115.225,35.205]]]}},{"type":"Feature","properties":{"density":1},"geometry":{"type":"Polygon","coordinates":[[[-128.233,72.181],[-122.15,71.658],[-112.217,72.038],[-93.873,72.181],[-88.74,72.418],[-82.419,72.276],[-80.423,72.371],[-79.282,72.276],[-78.284,71.848],[-76.811,71.515],[-74.102,69.852],[-72.629,68.759],[-72.011,67.428],[-72.011,65.432],[-72.439,64.434],[-73.104,63.198],[-74.482,61.678],[-75.766,60.727],[-76.764,60.109],[-78.284,59.301],[-78.807,58.636],[-79.378,57.305],[-79.425,55.737],[-78.902,54.406],[-77.762,53.266],[-75.433,51.745],[-73.342,51.08],[-72.059,51.08],[-60.89,52.505],[-58.752,52.981],[-56.423,54.216],[-54.76,55.024],[-52.383,54.882],[-51.243,53.931],[-50.91,52.41],[-51.29,50.367],[-54.855,44.759],[-57.183,42.905],[-59.322,41.86],[-61.508,40.482],[-62.791,39.579],[-64.407,39.008],[-66.498,38.296],[-68.637,37.44],[-70.776,36.299],[-72.534,35.016],[-73.96,33.876],[-74.863,32.64],[-77.096,30.311],[-79.282,28.6],[-80.946,27.65],[-82.419,27.222],[-83.702,27.032],[-85.176,27.127],[-87.362,28.743],[-92.542,28.743],[-94.177,29.427],[-95.089,29.214],[-96.306,29.032],[-97.918,29.001],[-98.952,29.001],[-100.807,29.123],[-105.856,30.644],[-106.86,31.161],[-109.05,31.8],[-110.845,32.043],[-112.305,32.165],[-113.673,31.404],[-114.312,30.401],[-114.738,28.941],[-114.981,27.146],[-115.224,25.929],[-116.076,24.348],[-117.08,23.131],[-118.205,22.371],[-119.452,22.188],[-120.973,22.28],[-122.281,22.462],[-123.102,22.797],[-125.596,23.253],[-126.174,23.892],[-126.691,24.713],[-126.782,25.717],[-126.205,27.055],[-125.262,28.15],[-124.41,29.458],[-123.954,31.039],[-123.528,31.435],[-122.828,32.53],[-121.946,33.564],[-121.186,34.233],[-120.699,34.507],[-119.848,35.085],[-119.696,35.237],[-119.057,36.18],[-118.144,37.153],[-116.989,38.005],[-116.411,38.704],[-115.742,39.312],[-115.103,40.073],[-114.464,40.803],[-113.704,42.111],[-113.582,42.354],[-113.126,42.871],[-112.913,43.175],[-112.791,43.449],[-112.122,44.179],[-112.031,44.879],[-112.73,45.487],[-114.495,45.578],[-115.894,45.213],[-117.688,44.118],[-118.935,43.388],[-120.0,42.871],[-121.216,42.141],[-121.977,41.077],[-122.281,40.225],[-122.433,39.373],[-122.494,38.674],[-122.707,37.64],[-122.768,36.849],[-122.859,36.301],[-123.072,35.602],[-123.65,34.78],[-124.714,34.02],[-126.205,33.473],[-127.695,33.442],[-128.486,33.777],[-129.094,34.75],[-129.337,35.754],[-129.337,36.636],[-129.398,37.64],[-129.125,40.924],[-129.155,41.563],[-129.246,42.354],[-129.216,42.384],[-129.52,43.327],[-129.915,44.331],[-130.128,45.061],[-130.311,45.578],[-130.402,46.308],[-130.706,47.281],[-130.889,48.376],[-131.984,49.806],[-133.048,51.144],[-134.265,52.422],[-135.846,54.764],[-136.82,55.311],[-140.318,57.592],[-142.629,58.566],[-144.545,59.235],[-146.735,60.056],[-149.26,61.029],[-151.085,61.82],[-152.697,62.398],[-153.883,62.946],[-155.13,63.493],[-155.89,63.888],[-157.928,64.74],[-159.753,65.744],[-160.483,66.23],[-160.909,66.443],[-161.852,66.839],[-162.491,67.234],[-163.373,67.995],[-163.981,68.907],[-164.072,69.607],[-163.829,70.519],[-163.494,71.006],[-162.399,71.766],[-160.727,72.283],[-157.533,73.013],[-147.283,73.013],[-133.535,72.679],[-129.459,72.405],[-128.233,72.181]]]}},{"type":"Feature","properties":{"density":1},"geometry":{"type":"Polygon","coordinates":[[[-113.703,44.675],[-113.232,44.827],[-112.857,45.042],[-112.531,45.265],[-112.331,45.369],[-112.1,45.544],[-111.972,45.688],[-111.781,45.975],[-111.805,46.078],[-112.036,46.078],[-112.483,45.871],[-112.834,45.648],[-113.089,45.393],[-113.312,45.257],[-113.535,45.145],[-113.87,44.914],[-113.886,44.763],[-113.703,44.675]]]}},{"type":"Feature","properties":{"density":1},"geometry":{"type":"Polygon","coordinates":[[[-115.584,46.971],[-115.329,47.035],[-115.082,47.067],[-114.787,47.203],[-114.556,47.378],[-114.54,47.474],[-114.779,47.45],[-115.401,47.29],[-115.552,47.163],[-115.688,47.083],[-115.584,46.971]]]}},{"type":"Feature","properties":{"density":1},"geometry":{"type":"Polygon","coordinates":[[[-123.42,38.606],[-123.373,38.494],[-123.197,38.247],[-123.117,38.024],[-123.07,37.801],[-122.974,37.609],[-122.95,37.434],[-122.958,36.9],[-122.998,36.812],[-123.038,36.804],[-123.149,36.716],[-123.293,36.708],[-123.428,36.772],[-123.548,36.852],[-123.66,36.955],[-123.843,37.187],[-123.907,37.33],[-124.242,37.689],[-124.361,38.064],[-124.537,38.391],[-124.935,39.244],[-125.039,40.687],[-125.007,41.668],[-124.975,41.843],[-124.816,42.234],[-124.68,42.441],[-124.624,42.465],[-124.409,42.72],[-124.305,42.792],[-123.987,42.959],[-123.524,43.127],[-123.197,43.127],[-123.237,43.047],[-123.405,42.84],[-123.524,42.752],[-123.7,42.672],[-123.915,42.521],[-123.827,42.298],[-123.811,41.979],[-123.851,41.452],[-123.859,40.496],[-123.883,40.153],[-123.859,39.627],[-123.819,39.427],[-123.524,38.821],[-123.42,38.606]]]}},{"type":"Feature","properties":{"density":2},"geometry":{"type":"Polygon","coordinates":[[[-149.597,71.269],[-148.504,71.32],[-144.386,71.32],[-142.963,71.65],[-141.005,71.981],[-134.472,71.828],[-133.125,71.625],[-132.464,71.269],[-130.15,70.837],[-123.744,70.735],[-122.651,70.227],[-122.092,69.515],[-121.431,68.778],[-119.702,68.727],[-117.923,68.803],[-109.585,69.591],[-107.5,69.668],[-104.526,69.591],[-103.814,69.312],[-101.704,68.676],[-100.509,68.447],[-99.136,68.6],[-97.51,68.676],[-96.264,68.193],[-95.603,67.431],[-96.721,65.498],[-98.603,64.99],[-98.425,63.922],[-97.687,62.956],[-90.29,56.245],[-89.781,55.228],[-89.019,54.11],[-86.706,53.017],[-85.917,52.534],[-84.519,51.873],[-81.698,51.466],[-80.503,51.237],[-79.46,50.297],[-79.46,48.212],[-80.452,46.56],[-84.011,46.153],[-85.053,46.255],[-94.764,47.551],[-95.883,47.755],[-97.916,48.67],[-102.06,50.627],[-103.128,51.339],[-104.831,51.949],[-106.28,53.093],[-108.797,55.991],[-110.652,56.144],[-111.262,56.576],[-113.703,56.804],[-113.372,55.228],[-112.279,54.288],[-111.364,53.347],[-110.373,52.966],[-109.356,52.635],[-108.619,52.305],[-106.839,51.364],[-104.551,50.475],[-106.127,49.102],[-111.796,50.907],[-114.618,51.898],[-116.525,53.779],[-119.168,55.076],[-122.016,55.889],[-124.837,55.838],[-127.456,55.61],[-131.599,56.347],[-133.658,57.542],[-135.057,59.067],[-136.226,60.414],[-141.997,62.702],[-144.03,62.906],[-146.369,63.973],[-148.784,65.219],[-150.258,66.159],[-151.479,67.761],[-153.487,69.515],[-153.944,70.837],[-152.826,71.269],[-151.352,71.244],[-150.284,71.244],[-149.597,71.269]]]}},{"type":"Feature","properties":{"density":2},"geometry":{"type":"Polygon","coordinates":[[[-116.209,50.564],[-116.264,50.739],[-116.315,50.807],[-116.371,50.841],[-116.375,50.939],[-116.413,51.042],[-116.486,51.076],[-116.567,51.016],[-116.584,50.974],[-116.58,50.892],[-116.426,50.671],[-116.29,50.551],[-116.209,50.564]]]}},{"type":"Feature","properties":{"density":2},"geometry":{"type":"Polygon","coordinates":[[[-117.117,50.722],[-117.241,50.871],[-117.322,50.888],[-117.407,50.863],[-117.164,50.701],[-117.117,50.722]]]}},{"type":"Feature","properties":{"density":2},"geometry":{"type":"Polygon","coordinates":[[[-122.397,43.984],[-122.323,44.037],[-122.301,44.133],[-122.328,44.229],[-122.493,44.304],[-122.685,44.352],[-122.797,44.352],[-122.984,44.261],[-123.218,44.107],[-123.261,43.984],[-123.229,43.904],[-123.112,43.872],[-122.904,43.856],[-122.802,43.899],[-122.6,43.877],[-122.509,43.883],[-122.483,43.904],[-122.397,43.984]]]}},{"type":"Feature","properties":{"density":2},"geometry":{"type":"Polygon","coordinates":[[[-124.062,42.382],[-124.129,42.257],[-124.162,42.149],[-124.112,41.316],[-124.154,41.049],[-124.245,40.916],[-124.553,40.924],[-124.62,41.174],[-124.728,41.482],[-124.778,41.865],[-124.578,42.215],[-124.354,42.507],[-124.162,42.698],[-124.004,42.823],[-123.829,42.89],[-123.77,42.857],[-123.879,42.598],[-124.062,42.382]]]}},{"type":"Feature","properties":{"density":2},"geometry":{"type":"Polygon","coordinates":[[[-115.291,35.66],[-115.421,35.856],[-115.469,36.295],[-115.453,36.767],[-115.242,37.369],[-114.737,38.003],[-114.184,38.801],[-114.445,39.224],[-114.298,39.923],[-114.07,40.2],[-113.859,40.135],[-113.598,40.102],[-113.078,39.809],[-112.476,39.891],[-111.711,40.102],[-111.126,40.232],[-110.377,39.777],[-110.214,39.321],[-110.296,38.817],[-110.621,38.296],[-111.126,38.247],[-111.581,38.426],[-111.841,38.085],[-112.281,37.71],[-112.85,37.792],[-113.094,37.792],[-114.07,37.531],[-114.396,37.304],[-114.607,36.962],[-114.689,36.799],[-114.933,36.295],[-114.998,36.018],[-114.998,35.839],[-115.046,35.579],[-115.291,35.66]]]}},{"type":"Feature","properties":{"density":2},"geometry":{"type":"Polygon","coordinates":[[[-113.758,44.699],[-112.778,45.082],[-112.475,45.217],[-112.291,45.401],[-112.156,45.512],[-112.124,45.704],[-112.148,45.847],[-112.826,45.576],[-113.105,45.496],[-113.264,45.417],[-113.392,45.265],[-113.567,45.137],[-113.782,45.026],[-113.87,44.874],[-113.87,44.827],[-113.758,44.699]]]}},{"type":"Feature","properties":{"density":2},"geometry":{"type":"Polygon","coordinates":[[[-115.64,46.979],[-115.401,46.995],[-115.289,47.027],[-115.241,47.091],[-115.257,47.195],[-115.361,47.219],[-115.608,47.067],[-115.64,47.019],[-115.64,46.979]]]}},{"type":"Feature","properties":{"density":2},"geometry":{"type":"Polygon","coordinates":[[[-113.914,47.066],[-113.133,47.257],[-112.774,47.409],[-112.575,47.72],[-111.738,48.445],[-111.634,48.645],[-111.626,48.924],[-111.881,49.139],[-112.208,49.243],[-113.037,49.45],[-113.547,49.474],[-113.739,49.561],[-113.962,49.689],[-114.185,49.857],[-114.409,50.12],[-114.672,50.279],[-115.294,50.327],[-115.796,50.255],[-116.067,50.128],[-116.211,49.936],[-116.258,49.761],[-116.25,49.546],[-116.234,49.386],[-116.115,49.147],[-116.051,48.94],[-116.003,48.868],[-115.939,48.708],[-115.788,48.501],[-115.605,48.294],[-115.421,48.126],[-115.278,48.023],[-114.991,47.975],[-114.592,47.863],[-114.385,47.919],[-114.377,47.887],[-114.409,47.823],[-114.488,47.744],[-114.488,47.552],[-114.456,47.393],[-114.409,47.361],[-114.241,47.369],[-113.914,47.465],[-113.89,47.425],[-114.026,47.353],[-114.042,47.321],[-114.042,47.154],[-113.946,47.106],[-113.914,47.066]]]}},{"type":"Feature","properties":{"density":2},"geometry":{"type":"Polygon","coordinates":[[[-122.504,44.227],[-122.352,44.355],[-122.224,44.395],[-121.89,44.395],[-121.666,44.299],[-121.523,44.092],[-121.443,43.908],[-121.499,43.725],[-121.906,43.533],[-122.304,43.518],[-122.671,43.43],[-122.87,43.43],[-123.022,43.525],[-123.006,43.725],[-122.886,43.884],[-122.814,43.94],[-122.671,44.131],[-122.504,44.227]]]}},{"type":"Feature","properties":{"density":2},"geometry":{"type":"Polygon","coordinates":[[[-123.596,43.063],[-124.298,42.768],[-124.521,42.473],[-124.529,42.226],[-124.585,41.963],[-124.561,41.851],[-124.449,41.739],[-124.337,41.708],[-124.082,41.716],[-123.803,41.923],[-123.692,42.122],[-123.692,42.194],[-123.883,42.401],[-123.947,42.529],[-123.747,42.656],[-123.452,42.88],[-123.452,42.943],[-123.508,43.023],[-123.596,43.063]]]}},{"type":"Feature","properties":{"density":2},"geometry":{"type":"Polygon","coordinates":[[[-150.23,71.333],[-133.538,71.795],[-124.097,71.406],[-120.325,70.87],[-114.12,70.432],[-110.787,70.14],[-108.573,70.14],[-106.018,70.067],[-100.202,69.775],[-99.302,69.751],[-97.672,69.581],[-96.309,69.459],[-93.608,69.167],[-91.807,69.143],[-90.566,68.802],[-89.447,67.926],[-88.498,67.074],[-88.741,66.101],[-89.788,65.152],[-91.321,64.398],[-92.245,63.887],[-93.219,62.865],[-93.851,62.086],[-93.535,59.361],[-93.097,58.217],[-92.075,56.976],[-90.664,55.906],[-88.449,54.275],[-87.501,53.375],[-85.481,51.21],[-84.386,50.65],[-83.242,50.358],[-82.196,50.017],[-81.32,49.847],[-79.592,49.36],[-78.23,48.874],[-77.5,48.436],[-76.989,46.927],[-76.77,45.394],[-77.451,44.031],[-78.619,42.888],[-79.738,42.182],[-80.298,41.914],[-82.756,41.209],[-85.578,40.965],[-86.941,40.892],[-89.204,41.379],[-92.391,43.009],[-95.457,44.129],[-96.771,45.175],[-97.672,46.343],[-98.134,47.097],[-98.499,47.779],[-99.107,48.752],[-99.716,49.336],[-100.324,49.993],[-101.589,50.918],[-102.368,51.623],[-103.025,52.134],[-103.438,52.402],[-103.925,52.548],[-105.142,52.645],[-106.48,52.548],[-107.551,52.548],[-108.573,52.475],[-109.157,52.475],[-109.887,52.669],[-111.079,53.205],[-111.541,53.302],[-113.731,53.351],[-115.118,53.229],[-116.091,53.205],[-116.724,52.937],[-117.308,52.548],[-117.649,51.939],[-117.941,50.942],[-117.941,49.433],[-118.208,48.557],[-118.452,48.192],[-119.036,47.998],[-119.912,47.925],[-120.666,48.265],[-121.055,48.582],[-121.128,48.728],[-121.128,48.971],[-120.982,49.312],[-120.739,49.652],[-120.398,50.042],[-120.374,50.431],[-122.126,50.455],[-122.442,50.528],[-123.051,50.942],[-123.318,51.234],[-123.318,51.964],[-123.075,52.864],[-122.613,53.351],[-122.077,53.837],[-121.712,54.519],[-122.102,55.249],[-123.659,55.808],[-125.24,55.808],[-126.433,55.784],[-130.569,56.684],[-132.2,57.074],[-133.83,57.585],[-135.047,58.193],[-135.777,58.582],[-137.285,59.191],[-138.088,59.653],[-140.351,60.407],[-141.227,60.748],[-142.711,61.259],[-144.001,61.746],[-146.629,62.573],[-147.943,63.181],[-149.038,63.571],[-150.619,63.911],[-152.517,64.422],[-152.907,64.86],[-153.393,65.298],[-154.05,66.344],[-154.172,67.172],[-154.026,68.242],[-153.685,68.972],[-153.199,69.532],[-152.493,70.189],[-151.495,70.895],[-150.23,71.333]]]}},{"type":"Feature","properties":{"density":3},"geometry":{"type":"Polygon","coordinates":[[[-84.475,51.177],[-86.501,50.223],[-89.162,49.548],[-92.578,49.628],[-95.12,50.064],[-102.23,51.852],[-104.851,53.044],[-106.242,54.513],[-107.989,55.903],[-108.188,56.817],[-107.592,56.857],[-106.917,57.572],[-107.076,58.882],[-111.366,59.717],[-116.41,59.796],[-118.952,59.518],[-120.541,58.128],[-123.123,57.81],[-126.579,57.731],[-127.731,57.413],[-129.438,57.333],[-131.663,57.85],[-133.371,58.088],[-135.397,59.28],[-138.614,60.154],[-140.084,61.147],[-140.6,62.1],[-141.236,62.894],[-142.467,65.198],[-144.135,67.184],[-145.049,68.137],[-145.168,69.091],[-144.93,69.329],[-144.413,69.567],[-143.619,70.163],[-140.163,70.838],[-138.495,70.719],[-136.985,70.481],[-135.198,70.521],[-132.894,70.759],[-129.756,70.997],[-126.301,70.838],[-124.473,70.203],[-122.607,69.647],[-119.906,68.018],[-117.8,67.899],[-114.702,68.018],[-112.557,68.574],[-110.968,68.733],[-108.387,68.455],[-105.13,66.747],[-103.422,66.072],[-101.992,65.794],[-100.562,64.523],[-98.655,62.656],[-94.405,58.882],[-93.372,57.453],[-91.346,56.42],[-89.202,54.076],[-87.573,53.56],[-86.064,52.686],[-84.872,52.13],[-84.236,51.733],[-84.475,51.177]]]}},{"type":"Feature","properties":{"density":3},"geometry":{"type":"Polygon","coordinates":[[[-115.21,45.544],[-114.811,45.648],[-114.189,46.15],[-114.061,46.318],[-113.862,46.477],[-113.838,46.605],[-113.87,46.636],[-114.452,46.629],[-114.811,46.589],[-114.946,46.549],[-115.01,46.493],[-115.098,46.318],[-115.106,46.222],[-115.186,45.959],[-115.345,45.72],[-115.385,45.632],[-115.21,45.544]]]}},{"type":"Feature","properties":{"density":3},"geometry":{"type":"Polygon","coordinates":[[[-114.265,47.321],[-113.874,47.52],[-113.779,47.624],[-113.747,47.704],[-113.906,47.839],[-114.09,47.736],[-114.217,47.608],[-114.345,47.385],[-114.265,47.321]]]}},{"type":"Feature","properties":{"density":3},"geometry":{"type":"Polygon","coordinates":[[[-114.472,47.576],[-114.353,47.943],[-114.249,48.118],[-114.01,48.35],[-113.962,48.35],[-113.978,48.206],[-114.106,48.055],[-114.169,47.648],[-114.217,47.568],[-114.393,47.504],[-114.472,47.576]]]}},{"type":"Feature","properties":{"density":3},"geometry":{"type":"Polygon","coordinates":[[[-122.631,43.988],[-122.639,43.828],[-122.48,43.757],[-122.28,43.717],[-122.089,43.717],[-121.929,43.669],[-121.786,43.693],[-121.77,43.805],[-121.834,43.908],[-121.906,43.972],[-122.177,44.092],[-122.44,44.155],[-122.488,44.155],[-122.583,44.116],[-122.631,43.988]]]}},{"type":"Feature","properties":{"density":3},"geometry":{"type":"Polygon","coordinates":[[[-124.122,42.441],[-123.883,42.593],[-123.795,42.672],[-123.652,42.712],[-123.564,42.824],[-123.492,42.975],[-123.54,43.023],[-124.09,42.88],[-124.226,42.8],[-124.393,42.648],[-124.473,42.537],[-124.593,42.242],[-124.585,42.114],[-124.521,42.09],[-124.282,42.242],[-124.098,42.274],[-124.098,42.353],[-124.122,42.441]]]}},{"type":"Feature","properties":{"density":3},"geometry":{"type":"Polygon","coordinates":[[[-97.117,61.41],[-96.767,60.495],[-94.275,57.381],[-93.457,56.154],[-92.932,55.571],[-92.465,54.87],[-91.998,54.383],[-91.608,53.916],[-91.238,53.41],[-90.713,52.884],[-89.155,51.95],[-87.773,51.327],[-86.781,50.918],[-86.313,50.646],[-85.145,50.062],[-83.705,49.517],[-83.024,49.419],[-82.517,49.186],[-82.187,48.718],[-81.642,47.336],[-81.758,46.694],[-82.517,46.207],[-84.133,45.935],[-85.262,45.857],[-86.956,45.798],[-88.883,45.896],[-90.187,46.071],[-91.355,46.266],[-92.367,46.48],[-93.535,46.83],[-93.866,47.064],[-95.346,47.765],[-97.312,49.263],[-97.876,49.828],[-98.558,50.451],[-99.531,50.957],[-100.368,51.366],[-100.913,51.697],[-101.322,51.814],[-101.789,52.144],[-102.139,52.417],[-103.097,52.894],[-103.798,53.314],[-103.969,53.485],[-104.405,53.844],[-105.059,54.544],[-105.294,55.075],[-105.381,55.211],[-105.636,55.49],[-105.748,55.689],[-105.748,55.785],[-105.621,55.904],[-105.413,55.984],[-105.286,56.104],[-105.118,56.359],[-105.07,56.494],[-105.198,56.789],[-105.437,56.909],[-105.692,56.965],[-105.963,56.965],[-106.179,56.925],[-106.354,56.845],[-106.545,56.638],[-106.617,56.518],[-106.673,56.359],[-106.705,56.168],[-106.745,56.088],[-107.024,56.064],[-107.175,56.096],[-107.893,56.175],[-108.108,56.359],[-108.14,56.407],[-108.14,56.478],[-108.331,56.582],[-108.523,56.845],[-108.268,57.228],[-108.068,57.316],[-107.949,57.443],[-107.877,57.722],[-107.885,57.905],[-107.797,58.088],[-107.821,58.288],[-108.1,58.639],[-108.611,58.878],[-108.977,58.942],[-109.368,58.966],[-110.837,59.212],[-111.161,59.162],[-111.958,59.1],[-112.992,59.1],[-115.272,58.987],[-116.269,58.813],[-117.291,58.614],[-117.814,58.389],[-118.237,58.227],[-118.648,58.103],[-119.122,57.854],[-119.334,57.611],[-120.284,57.315],[-120.938,57.143],[-122.246,57.05],[-123.18,57.097],[-124.208,57.268],[-127.093,57.887],[-128.553,58.3],[-133.833,59.468],[-134.831,59.614],[-136.412,59.906],[-139.576,60.733],[-140.598,61.05],[-142.422,61.585],[-146.413,63.702],[-147.289,64.432],[-147.532,64.943],[-147.532,66.306],[-147.338,67.547],[-146.802,68.569],[-145.707,69.542],[-144.418,70.126],[-138.855,70.665],[-133.722,70.893],[-130.947,70.817],[-128.475,70.779],[-122.886,69.714],[-119.959,69.296],[-116.613,69.106],[-114.446,69.068],[-112.621,69.068],[-109.275,68.574],[-105.511,68.574],[-103.876,68.612],[-97.033,68.612],[-95.284,68.384],[-94.372,67.851],[-94.372,67.661],[-94.486,66.939],[-95.056,66.255],[-95.892,65.798],[-97.679,65.228],[-98.44,64.696],[-98.554,63.821],[-98.021,63.175],[-97.527,62.148],[-97.117,61.41]]]}}]}