{"type":"FeatureCollection","features":[{"type":"Feature","properties":{"density":1},"geometry":{"type":"Polygon","coordinates":[[[-123.647,54.436],[-123.666,54.522],[-123.564,54.686],[-123.367,54.89],[-123.275,55.051],[-123.239,55.388],[-123.029,55.491],[-122.955,55.487],[-122.746,55.355],[-122.68,55.137],[-122.68,55.01],[-122.737,54.845],[-122.935,54.685],[-123.159,54.555],[-123.44,54.432],[-123.519,54.382],[-123.582,54.387],[-123.647,54.436]]]}},{"type":"Feature","properties":{"density":1},"geometry":{"type":"Polygon","coordinates":[[[-126.017,53.085],[-125.963,53.163],[-125.869,53.204],[-125.277,53.677],[-124.78,53.965],[-123.64,54.311],[-122.886,54.279],[-122.091,54.191],[-121.36,53.974],[-121.2,53.669],[-121.304,53.42],[-121.681,53.067],[-122.179,52.802],[-122.581,52.698],[-122.894,52.706],[-123.183,52.826],[-123.239,53.067],[-123.464,53.26],[-123.953,53.404],[-124.523,53.396],[-125.037,53.364],[-125.495,53.219],[-125.941,53.016],[-126.031,53.004],[-126.052,53.029],[-126.017,53.085]]]}},{"type":"Feature","properties":{"density":1},"geometry":{"type":"Polygon","coordinates":[[[-113.734,46.214],[-113.81,46.18],[-114.018,46.167],[-114.05,46.191],[-113.723,46.225],[-113.734,46.214]]]}},{"type":"Feature","properties":{"density":1},"geometry":{"type":"Polygon","coordinates":[[[-114.957,46.496],[-115.168,46.414],[-115.367,46.283],[-115.399,46.296],[-115.244,46.401],[-114.999,46.52],[-114.965,46.52],[-114.957,46.496]]]}},{"type":"Feature","properties":{"density":1},"geometry":{"type":"Polygon","coordinates":[[[-122.191,44.277],[-122.653,44.368],[-123.115,44.568],[-123.406,44.769],[-123.727,44.749],[-124.259,44.468],[-124.379,44.558],[-124.369,44.96],[-124.249,45.471],[-124.118,46.525],[-123.867,46.816],[-123.516,46.916],[-123.215,46.916],[-122.774,46.957],[-121.88,47.288],[-121.63,47.639],[-121.499,47.93],[-121.339,48.111],[-121.154,48.284],[-121.135,48.418],[-121.238,48.476],[-121.225,48.566],[-121.057,48.697],[-121.036,48.788],[-121.139,48.837],[-121.221,48.829],[-121.459,48.644],[-121.706,48.599],[-121.899,48.627],[-122.323,48.615],[-122.656,48.475],[-122.795,48.352],[-122.836,48.204],[-122.935,48.052],[-123.408,47.674],[-123.638,47.657],[-123.811,47.707],[-124.375,48.303],[-124.927,49.067],[-125.408,49.268],[-125.89,49.509],[-126.219,49.565],[-126.396,49.429],[-126.637,49.043],[-126.878,48.152],[-127.134,46.747],[-127.11,45.768],[-127.335,43.873],[-127.351,42.838],[-127.52,41.529],[-127.64,40.903],[-127.536,40.293],[-127.311,39.931],[-126.773,39.683],[-126.051,39.763],[-125.424,40.261],[-124.983,41.24],[-124.758,41.842],[-124.614,42.003],[-124.132,42.46],[-123.626,42.733],[-123.273,42.862],[-122.904,43.068],[-122.719,43.134],[-122.514,43.273],[-122.324,43.592],[-122.195,43.679],[-122.046,43.715],[-121.661,43.751],[-121.378,43.725],[-121.209,43.766],[-121.173,43.89],[-121.378,43.936],[-121.553,43.997],[-121.769,44.013],[-121.964,43.972],[-122.211,43.972],[-122.277,44.008],[-122.298,44.064],[-122.164,44.131],[-122.057,44.136],[-121.99,44.177],[-121.995,44.244],[-122.191,44.277]]]}},{"type":"Feature","properties":{"density":1},"geometry":{"type":"Polygon","coordinates":[[[-114.856,48.534],[-114.856,48.56],[-114.827,48.589],[-114.754,48.61],[-114.83,48.526],[-114.856,48.534]]]}},{"type":"Feature","properties":{"density":1},"geometry":{"type":"Polygon","coordinates":[[[-113.515,47.739],[-113.481,47.829],[-113.454,47.839],[-113.502,47.726],[-113.515,47.739]]]}},{"type":"Feature","properties":{"density":1},"geometry":{"type":"Polygon","coordinates":[[[-113.67,48.039],[-113.675,47.973],[-113.699,47.942],[-113.773,47.957],[-113.796,47.984],[-113.786,48.015],[-113.68,48.063],[-113.67,48.039]]]}},{"type":"Feature","properties":{"density":1},"geometry":{"type":"Polygon","coordinates":[[[-113.875,48.402],[-113.87,48.339],[-113.894,48.294],[-113.97,48.273],[-114.057,48.328],[-114.072,48.407],[-114.062,48.478],[-113.928,48.499],[-113.875,48.439],[-113.875,48.402]]]}},{"type":"Feature","properties":{"density":1},"geometry":{"type":"Polygon","coordinates":[[[-115.051,50.262],[-114.988,50.351],[-114.985,50.454],[-114.917,50.507],[-114.869,50.485],[-114.809,50.22],[-114.819,49.999],[-114.862,49.699],[-114.898,49.686],[-114.919,49.702],[-114.941,49.954],[-114.996,49.999],[-114.972,50.072],[-115.088,50.241],[-115.051,50.262]]]}},{"type":"Feature","properties":{"density":1},"geometry":{"type":"Polygon","coordinates":[[[-117.574,51.496],[-117.588,51.535],[-117.561,51.575],[-117.509,51.565],[-117.37,51.575],[-117.17,51.542],[-117.002,51.433],[-116.867,51.253],[-116.877,51.184],[-117.153,51.414],[-117.232,51.45],[-117.354,51.493],[-117.436,51.46],[-117.535,51.473],[-117.574,51.496]]]}},{"type":"Feature","properties":{"density":1},"geometry":{"type":"Polygon","coordinates":[[[-119.8,51.068],[-119.735,51.105],[-119.666,51.115],[-119.636,51.101],[-119.702,50.976],[-119.787,50.99],[-119.8,51.016],[-119.8,51.068]]]}},{"type":"Feature","properties":{"density":1},"geometry":{"type":"Polygon","coordinates":[[[-119.63,51.026],[-119.61,51.049],[-119.557,51.049],[-119.498,51.026],[-119.218,50.98],[-119.094,50.927],[-119.028,50.625],[-119.103,50.391],[-119.182,50.286],[-119.297,50.24],[-119.353,50.296],[-119.403,50.661],[-119.383,50.753],[-119.472,50.845],[-119.689,50.944],[-119.669,50.99],[-119.63,51.026]]]}},{"type":"Feature","properties":{"density":1},"geometry":{"type":"Polygon","coordinates":[[[-120.445,50.463],[-120.383,50.424],[-120.336,50.329],[-120.323,50.217],[-120.346,50.141],[-120.419,50.154],[-120.488,50.332],[-120.468,50.447],[-120.445,50.463]]]}},{"type":"Feature","properties":{"density":1},"geometry":{"type":"Polygon","coordinates":[[[-120.106,49.197],[-120.06,49.234],[-119.962,49.26],[-119.764,49.214],[-119.804,49.184],[-119.916,49.181],[-119.899,49.119],[-119.952,48.872],[-120.027,48.816],[-120.07,48.882],[-120.064,49.017],[-120.103,49.128],[-120.106,49.197]]]}},{"type":"Feature","properties":{"density":1},"geometry":{"type":"Polygon","coordinates":[[[-121.379,49.188],[-121.412,49.201],[-121.428,49.227],[-121.395,49.247],[-121.376,49.214],[-121.379,49.188]]]}},{"type":"Feature","properties":{"density":1},"geometry":{"type":"Polygon","coordinates":[[[-122.967,50.92],[-122.832,50.97],[-122.658,50.957],[-122.658,50.901],[-122.704,50.861],[-122.914,50.835],[-122.984,50.865],[-122.977,50.881],[-122.967,50.92]]]}},{"type":"Feature","properties":{"density":1},"geometry":{"type":"Polygon","coordinates":[[[-122.267,50.743],[-122.286,50.71],[-122.329,50.684],[-122.362,50.677],[-122.402,50.697],[-122.408,50.726],[-122.375,50.756],[-122.267,50.763],[-122.267,50.743]]]}},{"type":"Feature","properties":{"density":1},"geometry":{"type":"Polygon","coordinates":[[[-93.044,31.109],[-92.687,31.251],[-92.444,31.301],[-92.362,31.284],[-92.411,31.247],[-92.613,31.21],[-92.921,31.111],[-93.028,31.091],[-93.044,31.109]]]}},{"type":"Feature","properties":{"density":1},"geometry":{"type":"Polygon","coordinates":[[[-93.947,29.707],[-93.692,30.06],[-93.318,30.434],[-92.389,31.034],[-91.47,31.522],[-90.648,31.843],[-90.269,31.83],[-90.141,31.663],[-90.231,31.432],[-91.207,30.899],[-92.087,30.539],[-93.358,29.968],[-93.879,29.68],[-93.919,29.687],[-93.947,29.707]]]}},{"type":"Feature","properties":{"density":1},"geometry":{"type":"Polygon","coordinates":[[[-92.576,18.403],[-92.654,18.395],[-92.786,18.423],[-92.926,18.526],[-92.938,18.592],[-92.901,18.637],[-92.798,18.633],[-92.642,18.543],[-92.56,18.46],[-92.543,18.395],[-92.576,18.403]]]}},{"type":"Feature","properties":{"density":1},"geometry":{"type":"Polygon","coordinates":[[[-97.303,20.894],[-98.001,20.91],[-98.812,21.215],[-99.366,21.528],[-99.775,21.536],[-100.145,21.656],[-100.289,22.194],[-100.233,22.628],[-100.424,22.736],[-100.777,23.599],[-100.875,23.677],[-103.05,23.383],[-103.658,23.677],[-104.638,25.088],[-105.363,26.734],[-106.108,29.439],[-106.284,31.027],[-105.853,33.085],[-105.148,34.084],[-104.599,35.201],[-104.226,36.397],[-104.52,37.632],[-105.069,38.259],[-105.481,39.435],[-105.5,40.199],[-105.128,41.336],[-104.462,42.159],[-103.697,42.453],[-102.266,42.806],[-99.993,42.904],[-98.444,42.688],[-97.464,42.198],[-96.583,41.454],[-96.328,40.023],[-96.524,39.141],[-96.269,37.789],[-95.818,36.985],[-94.093,36.181],[-92.702,35.613],[-91.428,35.652],[-90.879,35.927],[-90.33,36.515],[-90.252,37.338],[-90.075,38.024],[-89.487,38.533],[-89.037,38.847],[-87.665,39.121],[-86.489,39.317],[-85.724,39.827],[-85.489,40.219],[-85.411,40.787],[-85.724,41.042],[-86.9,41.336],[-87.763,41.689],[-88.115,42.218],[-87.88,43.12],[-87.508,43.414],[-86.646,43.629],[-85.489,43.668],[-82.863,43.453],[-81.628,43.237],[-80.942,42.786],[-80.236,42.159],[-79.825,41.728],[-79.217,41.297],[-78.257,41.101],[-76.709,40.866],[-75.16,41.219],[-72.789,42.238],[-71.417,43.668],[-69.104,45.099],[-66.438,46.256],[-62.508,46.655],[-59.509,46.557],[-56.569,47.263],[-53.924,47.929],[-50.053,48.198],[-44.32,47.929],[-36.027,47.46],[-27.238,46.358],[-20.194,45.347],[-19.49,43.969],[-20.868,42.223],[-27.329,39.927],[-33.271,39.804],[-37.497,39.957],[-40.375,39.345],[-45.888,37.569],[-52.736,37.8],[-59.794,36.664],[-63.375,35.059],[-65.808,34.155],[-68.944,32.788],[-73.749,30.606],[-76.22,29.891],[-78.979,28.536],[-80.986,27.959],[-84.58,26.593],[-86.352,26.107],[-87.261,25.887],[-88.202,26.154],[-89.253,26.687],[-89.801,27.597],[-90.836,28.349],[-91.777,28.6],[-93.502,28.553],[-94.835,28.224],[-95.383,27.612],[-95.807,26.891],[-95.822,25.982],[-96.058,23.849],[-96.308,22.328],[-96.497,21.497],[-96.779,21.058],[-97.303,20.894]]]}},{"type":"Feature","properties":{"density":1},"geometry":{"type":"Polygon","coordinates":[[[-97.198,70.225],[-95.177,70.439],[-90.767,70.133],[-88.868,69.766],[-86.97,69.123],[-83.662,68.847],[-80.631,69.031],[-77.201,69.061],[-73.097,69.0],[-71.106,69.061],[-67.921,69.214],[-65.471,69.245],[-63.205,69.613],[-62.103,70.164],[-61.092,71.389],[-60.357,72.124],[-59.316,72.338],[-57.877,71.971],[-56.835,70.929],[-56.468,69.582],[-56.56,68.602],[-57.417,67.377],[-58.612,66.397],[-60.296,65.54],[-62.256,65.08],[-65.839,64.713],[-67.523,64.713],[-70.586,64.345],[-71.596,63.733],[-72.423,62.6],[-72.668,61.742],[-71.719,60.517],[-71.504,59.598],[-71.933,58.435],[-73.771,56.26],[-75.547,53.657],[-77.292,52.677],[-78.272,52.279],[-78.732,52.494],[-79.069,52.708],[-80.141,52.83],[-82.407,52.004],[-84.489,50.993],[-85.561,50.748],[-86.602,50.748],[-87.215,50.779],[-88.409,50.258],[-88.991,50.289],[-89.175,50.84],[-90.228,52.751],[-90.385,53.143],[-90.934,53.613],[-92.09,54.652],[-92.188,55.103],[-92.031,55.377],[-90.777,55.534],[-90.365,55.926],[-90.013,56.337],[-89.542,56.533],[-88.837,56.494],[-88.288,56.553],[-88.033,56.631],[-88.033,56.769],[-88.209,56.925],[-88.758,57.239],[-89.523,57.729],[-89.934,58.356],[-90.169,58.631],[-90.424,58.807],[-90.875,58.944],[-91.757,59.14],[-94.618,59.14],[-98.264,59.258],[-99.597,58.964],[-100.224,58.729],[-101.106,58.493],[-101.321,58.493],[-101.596,58.572],[-101.576,58.787],[-101.243,59.258],[-101.027,59.728],[-101.106,60.061],[-101.439,60.453],[-103.654,61.179],[-104.359,61.786],[-104.555,62.766],[-104.477,64.099],[-104.575,65.471],[-104.732,66.51],[-104.575,67.529],[-104.046,68.313],[-102.556,69.058],[-100.675,69.489],[-97.198,70.225]]]}},{"type":"Feature","properties":{"density":1},"geometry":{"type":"Polygon","coordinates":[[[-96.547,54.535],[-96.629,54.511],[-96.781,54.56],[-96.884,54.515],[-97.085,54.47],[-97.311,54.527],[-97.842,54.725],[-98.269,55.213],[-98.577,55.315],[-98.773,55.413],[-99.071,55.608],[-99.492,55.726],[-99.826,55.896],[-99.939,56.045],[-100.057,56.441],[-100.011,56.692],[-99.913,56.929],[-99.795,57.078],[-99.523,57.299],[-99.22,57.607],[-99.076,57.643],[-98.922,57.581],[-98.87,57.499],[-98.721,57.432],[-98.5,57.401],[-98.295,57.314],[-98.238,57.206],[-98.223,56.641],[-97.956,56.343],[-97.509,56.235],[-96.887,56.317],[-96.615,56.379],[-96.419,56.369],[-96.276,56.312],[-96.245,56.179],[-96.281,56.102],[-96.949,55.644],[-97.072,55.49],[-97.113,55.274],[-97.061,55.051],[-96.966,54.85],[-96.806,54.702],[-96.699,54.653],[-96.522,54.538],[-96.547,54.535]]]}},{"type":"Feature","properties":{"density":1},"geometry":{"type":"Polygon","coordinates":[[[-101.662,57.385],[-101.53,57.648],[-101.287,57.848],[-101.119,57.927],[-100.731,58.065],[-100.596,58.046],[-100.534,57.96],[-100.54,57.904],[-100.846,57.602],[-101.221,57.434],[-101.56,57.339],[-101.648,57.355],[-101.662,57.385]]]}},{"type":"Feature","properties":{"density":1},"geometry":{"type":"Polygon","coordinates":[[[-101.328,57.24],[-101.222,57.371],[-101.086,57.469],[-100.978,57.503],[-100.92,57.498],[-100.93,57.434],[-101.143,57.282],[-101.249,57.234],[-101.306,57.229],[-101.328,57.24]]]}},{"type":"Feature","properties":{"density":1},"geometry":{"type":"Polygon","coordinates":[[[-105.97,51.698],[-106.158,51.246],[-106.296,50.632],[-106.447,50.193],[-106.647,49.791],[-107.262,48.838],[-107.751,48.65],[-108.14,48.888],[-108.805,49.854],[-109.42,50.556],[-109.658,51.071],[-110.285,51.786],[-110.511,52.526],[-110.85,53.416],[-110.824,54.169],[-110.335,55.022],[-109.967,56.03],[-109.104,56.54],[-107.889,56.579],[-107.184,56.383],[-106.517,56.05],[-106.145,55.56],[-105.949,54.717],[-105.812,53.757],[-105.733,53.365],[-105.97,51.698]]]}},{"type":"Feature","properties":{"density":1},"geometry":{"type":"Polygon","coordinates":[[[-176.199,64.23],[-175.525,65.7],[-173.167,66.68],[-172.432,66.649],[-170.778,67.323],[-168.542,68.058],[-164.133,69.559],[-160.58,69.926],[-156.568,70.171],[-152.128,69.681],[-146.003,69.161],[-141.011,69.038],[-137.979,69.314],[-131.977,69.038],[-128.547,68.854],[-126.618,68.609],[-125.76,68.395],[-125.699,68.089],[-125.975,67.782],[-126.618,67.568],[-127.445,67.415],[-127.659,67.231],[-127.567,66.649],[-126.403,66.404],[-123.923,65.914],[-121.044,65.547],[-117.4,65.333],[-115.387,65.612],[-114.133,65.299],[-112.565,64.946],[-111.271,64.221],[-110.683,63.221],[-110.174,61.967],[-110.135,61.477],[-110.35,61.32],[-111.291,61.183],[-111.938,61.124],[-114.329,60.636],[-114.956,60.385],[-115.546,59.883],[-116.135,59.582],[-119.371,58.491],[-120.174,58.127],[-121.14,57.964],[-122.909,58.127],[-123.887,58.315],[-128.39,59.82],[-129.645,60.046],[-131.1,60.586],[-131.589,61.225],[-132.091,62.467],[-133.069,63.684],[-134.474,64.11],[-136.795,64.587],[-137.861,64.901],[-140.658,65.126],[-143.568,65.227],[-145.939,65.202],[-147.658,65.302],[-150.267,65.302],[-152.136,65.227],[-154.13,64.8],[-156.46,64.034],[-158.514,63.516],[-160.615,63.14],[-162.309,62.575],[-165.131,61.838],[-169.6,60.866],[-172.83,60.756],[-175.621,61.729],[-176.185,62.56],[-176.199,64.23]]]}},{"type":"Feature","properties":{"density":1},"geometry":{"type":"Polygon","coordinates":[[[-42.65,45.061],[-43.968,41.938],[-55.001,40.62],[-65.687,36.526],[-73.528,32.64],[-80.668,29.584],[-88.329,26.864],[-92.992,25.144],[-97.266,24.588],[-100.652,25.81],[-100.541,28.641],[-96.322,32.027],[-95.878,33.526],[-96.989,34.081],[-101.874,31.694],[-103.761,31.86],[-104.261,33.137],[-103.539,34.913],[-99.768,37.11],[-98.436,37.776],[-97.636,38.486],[-96.437,40.662],[-95.905,41.861],[-95.771,43.194],[-96.082,44.393],[-98.169,45.991],[-100.345,46.169],[-102.211,45.725],[-103.943,45.236],[-105.186,45.014],[-106.518,45.059],[-107.451,45.458],[-108.117,46.169],[-108.472,48.567],[-108.472,51.098],[-107.984,53.23],[-107.54,54.74],[-107.184,55.317],[-107.096,56.294],[-107.096,57.138],[-107.273,58.026],[-107.806,58.781],[-108.739,58.959],[-110.87,59.048],[-114.512,58.426],[-117.221,58.159],[-119.663,57.982],[-120.329,58.204],[-120.374,58.426],[-120.138,58.852],[-119.319,59.011],[-118.569,59.238],[-118.591,59.42],[-119.114,59.511],[-120.592,59.625],[-121.797,59.625],[-124.185,59.375],[-124.958,59.352],[-125.322,59.443],[-125.595,59.693],[-125.617,59.875],[-124.253,61.08],[-124.094,61.467],[-124.094,61.944],[-124.821,62.763],[-125.708,64.104],[-125.754,64.582],[-125.969,65.001],[-126.469,65.092],[-127.129,65.274],[-129.584,65.137],[-132.153,64.887],[-138.042,65.387],[-138.634,65.706],[-138.747,66.183],[-138.793,66.82],[-138.747,67.707],[-138.338,68.366],[-137.11,69.093],[-133.995,69.275],[-129.516,68.957],[-126.436,68.538],[-123.071,67.879],[-120.979,67.515],[-119.365,67.56],[-117.455,67.992],[-114.089,69.311],[-110.793,70.971],[-109.474,71.585],[-107.815,72.258],[-105.872,72.536],[-104.276,72.397],[-102.493,72.767],[-100.807,72.674],[-97.406,73.299],[-94.839,73.438],[-91.786,73.646],[-86.929,73.646],[-82.28,73.021],[-75.41,71.772],[-70.067,70.315],[-64.932,70.523],[-53.691,72.813],[-51.193,72.605],[-49.528,70.87],[-50.708,67.331],[-54.802,65.458],[-58.34,64.348],[-64.988,62.762],[-68.239,61.443],[-69.877,60.761],[-71.65,59.328],[-73.219,57.668],[-74.674,55.327],[-75.675,54.008],[-76.743,53.007],[-77.948,51.166],[-78.422,49.253],[-78.377,48.232],[-78.688,46.633],[-79.621,45.523],[-81.175,44.59],[-83.129,44.146],[-85.438,44.146],[-87.57,44.635],[-89.257,45.434],[-90.456,47.832],[-91.812,54.394],[-92.285,55.041],[-92.96,55.681],[-93.493,56.427],[-93.92,56.853],[-94.524,57.102],[-95.234,56.889],[-95.838,56.249],[-96.115,54.994],[-96.024,54.849],[-96.042,54.594],[-96.151,54.376],[-96.369,54.194],[-96.733,53.83],[-96.733,53.575],[-96.57,53.321],[-95.678,53.011],[-95.46,52.83],[-95.096,52.629],[-94.714,52.466],[-94.623,52.338],[-94.605,52.102],[-94.805,51.993],[-95.606,51.702],[-96.224,51.502],[-96.661,51.465],[-97.315,51.483],[-99.283,52.372],[-100.423,51.736],[-100.867,50.792],[-100.867,49.96],[-100.201,48.849],[-99.48,48.072],[-97.981,47.85],[-95.76,47.739],[-94.095,46.795],[-91.431,44.631],[-90.043,42.799],[-87.989,41.022],[-84.991,39.746],[-80.883,39.135],[-76.387,39.135],[-74.333,39.635],[-71.669,40.689],[-67.006,43.52],[-64.161,46.587],[-58.818,48.6],[-53.475,49.016],[-45.217,47.836],[-42.65,45.061]]]}},{"type":"Feature","properties":{"density":1},"geometry":{"type":"Polygon","coordinates":[[[-114.977,50.358],[-114.482,50.358],[-114.336,50.169],[-114.336,49.936],[-114.38,49.747],[-114.511,49.558],[-114.744,49.427],[-114.86,49.252],[-114.933,48.845],[-115.035,48.612],[-115.195,48.495],[-115.384,48.495],[-115.501,48.612],[-115.515,48.83],[-115.501,49.165],[-115.384,49.456],[-115.21,49.66],[-115.079,49.892],[-115.079,49.994],[-115.137,50.14],[-115.34,50.183],[-115.588,50.213],[-115.704,50.3],[-115.719,50.373],[-115.442,50.445],[-114.977,50.358]]]}},{"type":"Feature","properties":{"density":1},"geometry":{"type":"Polygon","coordinates":[[[-114.002,48.452],[-113.594,48.452],[-113.463,48.394],[-113.449,48.103],[-113.332,48.001],[-113.274,47.928],[-113.26,47.739],[-113.391,47.579],[-113.623,47.579],[-114.045,47.855],[-114.118,48.073],[-114.118,48.219],[-114.045,48.335],[-114.002,48.452]]]}},{"type":"Feature","properties":{"density":1},"geometry":{"type":"Polygon","coordinates":[[[-116.49,47.826],[-116.461,47.608],[-116.534,47.564],[-116.767,47.477],[-116.999,47.462],[-117.058,47.52],[-117.145,47.666],[-117.13,47.753],[-116.767,47.928],[-116.505,47.855],[-116.49,47.826]]]}},{"type":"Feature","properties":{"density":1},"geometry":{"type":"Polygon","coordinates":[[[-119.968,48.99],[-120.332,48.801],[-120.565,48.743],[-120.637,48.816],[-120.666,48.917],[-120.652,49.034],[-120.332,49.223],[-120.186,49.252],[-120.026,49.238],[-119.881,49.194],[-119.968,48.99]]]}},{"type":"Feature","properties":{"density":1},"geometry":{"type":"Polygon","coordinates":[[[-121.147,48.655],[-121.307,48.568],[-121.612,48.539],[-121.787,48.612],[-121.889,48.714],[-121.903,48.903],[-121.932,48.976],[-122.194,49.048],[-122.296,49.208],[-122.296,49.267],[-122.151,49.354],[-121.729,49.383],[-121.38,49.281],[-121.161,49.15],[-121.19,48.99],[-121.263,48.961],[-121.161,48.859],[-121.147,48.655]]]}},{"type":"Feature","properties":{"density":1},"geometry":{"type":"Polygon","coordinates":[[[-122.073,44.154],[-122.209,43.853],[-122.209,43.737],[-122.427,43.621],[-122.966,43.533],[-123.431,43.533],[-123.868,43.402],[-124.275,43.024],[-124.581,42.5],[-124.683,41.903],[-124.581,40.943],[-124.814,40.492],[-125.92,39.575],[-126.706,39.531],[-127.68,39.662],[-128.437,40.172],[-128.83,40.841],[-129.277,42.585],[-128.026,46.422],[-126.08,47.651],[-124.799,48.277],[-121.641,49.296],[-121.263,49.15],[-121.074,48.495],[-121.307,48.219],[-125.265,46.385],[-125.745,45.76],[-125.818,45.309],[-125.716,44.916],[-125.439,44.712],[-124.461,44.538],[-123.783,44.917],[-123.205,44.988],[-122.675,44.762],[-122.156,44.41],[-122.073,44.154]]]}},{"type":"Feature","properties":{"density":1},"geometry":{"type":"Polygon","coordinates":[[[-119.804,51.08],[-119.187,51.057],[-119.036,50.952],[-118.966,50.812],[-118.955,50.638],[-119.106,50.428],[-119.234,50.428],[-119.42,50.475],[-119.606,50.638],[-119.63,50.754],[-119.746,50.929],[-119.804,51.08]]]}},{"type":"Feature","properties":{"density":1},"geometry":{"type":"Polygon","coordinates":[[[-119.886,49.031],[-120.258,48.868],[-120.445,48.81],[-120.538,48.822],[-120.701,48.892],[-120.678,49.008],[-120.538,49.148],[-120.293,49.252],[-120.072,49.276],[-119.886,49.264],[-119.851,49.183],[-119.886,49.031]]]}},{"type":"Feature","properties":{"density":1},"geometry":{"type":"Polygon","coordinates":[[[-116.533,47.797],[-116.638,47.529],[-116.754,47.436],[-116.964,47.436],[-117.115,47.529],[-117.127,47.634],[-117.069,47.786],[-116.964,47.902],[-116.789,47.949],[-116.626,47.949],[-116.533,47.797]]]}},{"type":"Feature","properties":{"density":1},"geometry":{"type":"Polygon","coordinates":[[[-113.762,46.144],[-113.96,45.993],[-114.123,45.946],[-114.298,45.981],[-114.321,46.028],[-114.321,46.121],[-114.205,46.214],[-114.042,46.249],[-113.786,46.272],[-113.762,46.144]]]}},{"type":"Feature","properties":{"density":1},"geometry":{"type":"Polygon","coordinates":[[[-113.704,44.619],[-113.728,44.433],[-113.786,44.386],[-113.89,44.398],[-113.914,44.491],[-113.879,44.596],[-113.786,44.677],[-113.704,44.619]]]}},{"type":"Feature","properties":{"density":1},"geometry":{"type":"Polygon","coordinates":[[[-117.48,51.498],[-117.05,51.498],[-116.992,51.545],[-117.015,51.626],[-117.271,51.673],[-117.48,51.638],[-117.562,51.58],[-117.48,51.498]]]}},{"type":"Feature","properties":{"density":1},"geometry":{"type":"Polygon","coordinates":[[[-121.949,50.272],[-122.135,50.338],[-122.163,50.403],[-122.153,50.477],[-121.902,50.505],[-121.79,50.468],[-121.716,50.403],[-121.734,50.3],[-121.949,50.272]]]}},{"type":"Feature","properties":{"density":1},"geometry":{"type":"Polygon","coordinates":[[[-122.312,50.71],[-122.535,50.785],[-122.759,50.831],[-123.029,50.841],[-123.141,50.971],[-123.141,51.045],[-123.01,51.157],[-122.926,51.185],[-122.796,51.176],[-122.396,50.934],[-122.302,50.85],[-122.265,50.785],[-122.312,50.71]]]}},{"type":"Feature","properties":{"density":1},"geometry":{"type":"Polygon","coordinates":[[[-126.028,53.011],[-125.022,53.02],[-123.737,53.169],[-122.265,53.635],[-120.486,54.491],[-120.281,54.855],[-120.337,55.106],[-120.561,55.348],[-120.896,55.469],[-121.604,55.516],[-121.995,55.451],[-122.88,55.097],[-123.373,54.752],[-123.616,54.529],[-123.588,54.426],[-123.644,54.305],[-124.007,54.044],[-124.957,53.784],[-125.478,53.662],[-125.627,53.588],[-125.627,53.523],[-125.497,53.495],[-125.497,53.439],[-125.655,53.364],[-125.907,53.309],[-126.158,53.197],[-126.186,53.15],[-126.028,53.011]]]}},{"type":"Feature","properties":{"density":1},"geometry":{"type":"Polygon","coordinates":[[[-115.007,46.45],[-115.186,46.338],[-115.23,46.331],[-115.26,46.361],[-115.245,46.398],[-115.141,46.458],[-115.007,46.51],[-115.007,46.45]]]}},{"type":"Feature","properties":{"density":1},"geometry":{"type":"Polygon","coordinates":[[[-115.521,46.696],[-115.715,46.629],[-115.789,46.629],[-115.804,46.689],[-115.648,46.741],[-115.581,46.733],[-115.521,46.696]]]}},{"type":"Feature","properties":{"density":1},"geometry":{"type":"Polygon","coordinates":[[[-115.558,46.994],[-115.767,46.912],[-115.841,46.92],[-115.841,46.979],[-115.685,47.039],[-115.588,47.024],[-115.558,46.994]]]}},{"type":"Feature","properties":{"density":1},"geometry":{"type":"Polygon","coordinates":[[[-135.136,65.256],[-143.18,65.199],[-146.278,64.375],[-150.186,64.098],[-154.733,64.56],[-157.575,64.666],[-160.844,64.666],[-165.143,64.169],[-168.411,62.677],[-172.887,60.332],[-174.948,59.444],[-176.867,58.662],[-178.714,58.378],[-180.1,59.053],[-180.419,60.083],[-180.135,61.682],[-179.069,62.854],[-176.582,64.24],[-173.491,65.412],[-170.33,65.768],[-166.848,66.229],[-162.833,67.189],[-159.529,69.036],[-155.159,69.889],[-140.949,69.711],[-135.122,69.285],[-134.127,68.681],[-133.204,67.153],[-133.488,65.839],[-135.136,65.256]]]}},{"type":"Feature","properties":{"density":1},"geometry":{"type":"Polygon","coordinates":[[[-114.789,32.716],[-114.865,32.796],[-114.888,32.872],[-114.831,32.857],[-114.785,32.792],[-114.747,32.697],[-114.762,32.716],[-114.789,32.716]]]}},{"type":"Feature","properties":{"density":2},"geometry":{"type":"Polygon","coordinates":[[[-96.926,54.504],[-97.311,54.615],[-97.589,54.744],[-97.768,54.874],[-97.762,54.912],[-97.719,54.946],[-97.677,54.935],[-97.282,54.723],[-97.014,54.653],[-96.897,54.556],[-96.89,54.527],[-96.926,54.504]]]}},{"type":"Feature","properties":{"density":2},"geometry":{"type":"Polygon","coordinates":[[[-96.575,54.533],[-96.684,54.565],[-96.741,54.605],[-96.726,54.617],[-96.69,54.611],[-96.566,54.546],[-96.575,54.533]]]}},{"type":"Feature","properties":{"density":2},"geometry":{"type":"Polygon","coordinates":[[[-99.322,57.449],[-99.269,57.528],[-99.151,57.58],[-99.019,57.587],[-98.966,57.505],[-98.934,57.373],[-98.743,57.36],[-98.621,57.321],[-98.585,57.278],[-98.628,57.192],[-98.736,57.133],[-99.137,56.729],[-99.292,56.637],[-99.384,56.643],[-99.453,56.699],[-99.506,56.804],[-99.473,57.044],[-99.374,57.353],[-99.322,57.449]]]}},{"type":"Feature","properties":{"density":2},"geometry":{"type":"Polygon","coordinates":[[[-98.664,56.087],[-98.706,55.842],[-98.774,55.716],[-98.828,55.682],[-98.896,55.668],[-98.978,55.697],[-99.157,55.954],[-99.154,56.082],[-99.102,56.181],[-99.022,56.221],[-98.938,56.219],[-98.691,56.129],[-98.664,56.087]]]}},{"type":"Feature","properties":{"density":2},"geometry":{"type":"Polygon","coordinates":[[[-101.641,57.389],[-101.599,57.441],[-101.368,57.591],[-101.294,57.631],[-101.268,57.597],[-101.268,57.57],[-101.331,57.518],[-101.499,57.423],[-101.625,57.386],[-101.641,57.389]]]}},{"type":"Feature","properties":{"density":2},"geometry":{"type":"Polygon","coordinates":[[[-101.273,58.569],[-101.244,58.645],[-101.181,58.724],[-101.094,58.785],[-101.033,58.792],[-101.015,58.753],[-101.096,58.656],[-101.265,58.561],[-101.273,58.569]]]}},{"type":"Feature","properties":{"density":2},"geometry":{"type":"Polygon","coordinates":[[[-107.83,54.17],[-107.862,53.843],[-107.933,53.573],[-108.087,53.194],[-108.248,52.963],[-108.395,52.912],[-108.652,52.899],[-108.864,52.931],[-109.23,53.201],[-109.641,53.547],[-109.738,53.747],[-109.667,54.055],[-109.217,55.102],[-108.89,55.282],[-108.537,55.307],[-108.248,55.166],[-107.92,54.928],[-107.83,54.556],[-107.83,54.17]]]}},{"type":"Feature","properties":{"density":2},"geometry":{"type":"Polygon","coordinates":[[[-120.474,58.236],[-120.424,58.293],[-120.415,58.259],[-120.436,58.234],[-120.47,58.228],[-120.474,58.236]]]}},{"type":"Feature","properties":{"density":2},"geometry":{"type":"Polygon","coordinates":[[[-120.18,58.495],[-120.127,58.565],[-119.893,58.727],[-119.586,58.862],[-119.178,58.978],[-118.786,59.046],[-118.226,59.115],[-117.987,59.172],[-117.874,59.178],[-117.889,59.125],[-118.315,59.007],[-118.952,58.894],[-119.386,58.799],[-120.049,58.428],[-120.123,58.42],[-120.123,58.473],[-120.165,58.483],[-120.18,58.495]]]}},{"type":"Feature","properties":{"density":2},"geometry":{"type":"Polygon","coordinates":[[[-119.347,58.636],[-119.113,58.717],[-119.134,58.688],[-119.326,58.631],[-119.347,58.636]]]}},{"type":"Feature","properties":{"density":2},"geometry":{"type":"Polygon","coordinates":[[[-116.995,60.841],[-116.76,60.885],[-116.747,60.867],[-116.8,60.843],[-116.968,60.825],[-116.995,60.841]]]}},{"type":"Feature","properties":{"density":2},"geometry":{"type":"Polygon","coordinates":[[[-116.908,60.796],[-116.792,60.835],[-116.582,60.872],[-116.476,60.885],[-116.466,60.872],[-116.487,60.846],[-116.776,60.764],[-116.905,60.775],[-116.908,60.796]]]}},{"type":"Feature","properties":{"density":2},"geometry":{"type":"Polygon","coordinates":[[[-116.963,60.68],[-116.863,60.725],[-116.397,60.83],[-115.481,60.919],[-115.129,60.889],[-115.037,60.824],[-115.077,60.801],[-115.208,60.774],[-115.813,60.695],[-116.195,60.708],[-116.912,60.649],[-116.964,60.666],[-116.963,60.68]]]}},{"type":"Feature","properties":{"density":2},"geometry":{"type":"Polygon","coordinates":[[[-116.149,59.681],[-115.998,59.822],[-115.781,59.927],[-115.725,59.924],[-115.705,59.904],[-115.755,59.838],[-115.873,59.773],[-116.116,59.681],[-116.149,59.681]]]}},{"type":"Feature","properties":{"density":2},"geometry":{"type":"Polygon","coordinates":[[[-118.329,60.041],[-118.308,60.078],[-118.09,60.141],[-118.095,60.109],[-118.284,60.044],[-118.329,60.041]]]}},{"type":"Feature","properties":{"density":2},"geometry":{"type":"Polygon","coordinates":[[[-112.517,59.83],[-112.393,59.925],[-112.307,59.958],[-112.294,59.933],[-112.311,59.91],[-112.515,59.805],[-112.517,59.83]]]}},{"type":"Feature","properties":{"density":2},"geometry":{"type":"Polygon","coordinates":[[[-112.614,60.106],[-112.528,60.184],[-112.488,60.19],[-112.494,60.165],[-112.606,60.102],[-112.614,60.106]]]}},{"type":"Feature","properties":{"density":2},"geometry":{"type":"Polygon","coordinates":[[[-112.025,59.786],[-111.949,59.925],[-111.852,60.03],[-111.81,60.036],[-111.821,59.948],[-111.859,59.887],[-111.907,59.828],[-112.019,59.761],[-112.025,59.786]]]}},{"type":"Feature","properties":{"density":2},"geometry":{"type":"Polygon","coordinates":[[[-124.086,63.15],[-123.993,63.199],[-123.911,63.207],[-123.911,63.184],[-123.976,63.146],[-124.044,63.117],[-124.086,63.129],[-124.086,63.15]]]}},{"type":"Feature","properties":{"density":2},"geometry":{"type":"Polygon","coordinates":[[[-112.401,62.898],[-112.578,62.668],[-112.866,62.343],[-113.194,62.138],[-113.371,62.109],[-113.503,62.105],[-113.663,62.171],[-113.716,62.245],[-113.799,62.29],[-113.77,62.339],[-113.503,62.52],[-112.845,63.096],[-112.545,63.28],[-112.303,63.334],[-112.183,63.289],[-112.183,63.186],[-112.266,63.067],[-112.401,62.898]]]}},{"type":"Feature","properties":{"density":2},"geometry":{"type":"Polygon","coordinates":[[[-115.139,62.697],[-114.991,62.812],[-114.921,62.894],[-114.378,63.153],[-113.984,63.379],[-113.593,63.523],[-113.342,63.56],[-113.137,63.47],[-113.038,63.268],[-113.125,63.1],[-113.647,62.812],[-114.107,62.734],[-114.37,62.754],[-114.834,62.59],[-115.139,62.537],[-115.167,62.582],[-115.139,62.697]]]}},{"type":"Feature","properties":{"density":2},"geometry":{"type":"Polygon","coordinates":[[[-114.748,63.449],[-114.637,63.531],[-114.325,63.646],[-113.819,63.819],[-113.725,63.811],[-113.762,63.757],[-113.897,63.692],[-114.374,63.548],[-114.666,63.441],[-114.756,63.441],[-114.748,63.449]]]}},{"type":"Feature","properties":{"density":2},"geometry":{"type":"Polygon","coordinates":[[[-115.353,64.488],[-115.168,64.577],[-114.911,64.657],[-114.63,64.625],[-114.534,64.448],[-114.574,64.32],[-114.743,64.175],[-115.995,63.573],[-116.099,63.373],[-116.043,63.1],[-116.131,62.875],[-117.143,62.658],[-119.037,62.674],[-119.351,62.754],[-120.908,63.413],[-121.518,63.541],[-122.53,63.509],[-123.212,63.533],[-123.453,63.557],[-125.147,63.605],[-125.291,63.621],[-125.347,63.67],[-125.259,63.71],[-125.195,63.774],[-125.259,63.83],[-125.572,63.87],[-125.837,63.935],[-126.223,64.183],[-127.019,64.556],[-127.491,64.646],[-128.284,64.766],[-130.12,64.857],[-132.83,64.746],[-136.693,64.736],[-137.024,64.827],[-137.646,65.037],[-139.774,65.368],[-143.336,65.439],[-145.183,65.519],[-145.855,65.559],[-147.33,65.73],[-149.327,65.72],[-150.89,65.642],[-152.629,65.436],[-154.274,65.035],[-155.86,64.553],[-157.716,64.021],[-159.171,63.8],[-159.984,63.75],[-163.215,63.108],[-164.39,62.787],[-165.303,62.416],[-167.671,61.974],[-170.171,61.687],[-172.582,61.902],[-173.17,62.784],[-173.17,64.254],[-172.131,65.528],[-170.799,65.999],[-169.25,66.234],[-168.309,66.077],[-167.016,66.136],[-166.271,66.214],[-164.742,66.508],[-163.684,66.743],[-161.881,67.155],[-161.077,67.39],[-160.136,67.469],[-159.627,67.469],[-158.745,67.645],[-157.608,68.076],[-156.902,68.253],[-154.786,68.115],[-153.433,67.802],[-152.199,67.449],[-150.67,67.155],[-149.376,67.057],[-147.083,67.116],[-144.437,67.331],[-139.4,68.057],[-138.459,68.351],[-137.734,68.292],[-137.146,67.9],[-136.264,67.547],[-134.775,67.41],[-132.834,67.39],[-130.737,67.743],[-128.993,68.115],[-128.072,68.096],[-127.738,67.88],[-127.797,67.665],[-128.326,67.488],[-129.444,67.351],[-129.777,67.214],[-130.11,66.979],[-130.012,66.743],[-129.287,66.606],[-127.327,66.312],[-125.563,65.999],[-124.25,65.665],[-122.544,65.352],[-120.291,65.234],[-117.018,65.145],[-116.807,64.974],[-116.666,64.663],[-116.426,64.061],[-116.195,63.911],[-115.803,64.041],[-115.502,64.222],[-115.462,64.282],[-115.353,64.488]]]}},{"type":"Feature","properties":{"density":2},"geometry":{"type":"Polygon","coordinates":[[[-79.36,55.538],[-79.203,54.852],[-79.556,53.95],[-80.203,53.264],[-81.242,52.657],[-82.888,52.069],[-83.668,51.584],[-84.593,51.177],[-85.283,51.02],[-86.349,50.989],[-86.773,51.067],[-87.18,51.036],[-88.466,50.44],[-88.748,50.502],[-88.952,51.051],[-89.611,51.82],[-89.799,52.87],[-90.113,53.576],[-91.194,54.062],[-91.602,54.375],[-91.743,54.705],[-91.539,54.987],[-91.006,55.112],[-90.52,55.253],[-90.05,55.787],[-89.971,56.131],[-89.642,56.382],[-88.294,56.429],[-87.729,56.508],[-87.604,56.774],[-87.729,57.072],[-88.372,57.637],[-89.187,58.405],[-89.517,58.938],[-89.689,59.518],[-89.909,59.769],[-90.395,59.957],[-90.834,60.287],[-91.978,60.6],[-92.245,60.898],[-92.229,61.274],[-91.994,61.494],[-91.696,61.823],[-91.728,62.152],[-92.214,62.576],[-93.264,62.874],[-94.017,62.952],[-94.66,62.764],[-95.647,62.341],[-96.306,62.043],[-96.682,61.792],[-98.517,61.651],[-99.52,62.137],[-99.677,62.968],[-99.959,63.579],[-101.292,64.269],[-102.954,64.975],[-103.926,66.104],[-104.24,66.997],[-103.738,68.079],[-102.029,68.801],[-99.395,69.522],[-97.576,69.851],[-95.35,70.024],[-91.187,69.655],[-89.599,68.675],[-88.835,67.774],[-88.541,66.421],[-88.893,65.637],[-89.031,64.324],[-88.602,63.487],[-87.799,63.123],[-86.494,63.211],[-85.93,63.161],[-85.554,62.91],[-84.914,62.596],[-84.212,62.646],[-83.798,62.722],[-82.982,62.947],[-82.543,63.173],[-82.468,63.562],[-82.618,63.838],[-82.669,64.152],[-82.167,64.503],[-81.678,64.741],[-80.373,65.08],[-78.993,64.992],[-78.354,64.603],[-78.191,63.963],[-78.216,63.6],[-78.053,63.098],[-77.526,62.395],[-77.4,61.555],[-77.551,60.639],[-77.225,60.602],[-76.648,60.715],[-76.209,60.752],[-75.845,60.564],[-75.983,60.075],[-76.535,59.761],[-76.836,58.858],[-77.225,58.507],[-77.726,58.218],[-78.441,57.554],[-79.257,56.726],[-79.558,56.362],[-79.558,56.111],[-79.36,55.538]]]}},{"type":"Feature","properties":{"density":2},"geometry":{"type":"Polygon","coordinates":[[[-123.433,54.455],[-123.483,54.418],[-123.531,54.41],[-123.63,54.45],[-123.52,54.547],[-123.457,54.566],[-123.404,54.552],[-123.407,54.494],[-123.433,54.455]]]}},{"type":"Feature","properties":{"density":2},"geometry":{"type":"Polygon","coordinates":[[[-126.036,53.052],[-125.914,53.17],[-125.838,53.177],[-125.621,53.308],[-125.598,53.279],[-125.638,53.219],[-125.786,53.117],[-125.983,53.039],[-126.036,53.052]]]}},{"type":"Feature","properties":{"density":2},"geometry":{"type":"Polygon","coordinates":[[[-122.326,50.706],[-122.395,50.739],[-122.319,50.745],[-122.326,50.706]]]}},{"type":"Feature","properties":{"density":2},"geometry":{"type":"Polygon","coordinates":[[[-122.777,50.89],[-122.813,50.867],[-122.855,50.864],[-122.915,50.867],[-122.948,50.893],[-122.892,50.946],[-122.78,50.933],[-122.777,50.89]]]}},{"type":"Feature","properties":{"density":2},"geometry":{"type":"Polygon","coordinates":[[[-119.61,51.039],[-119.563,51.039],[-119.545,51.002],[-119.205,50.952],[-119.213,50.902],[-119.303,50.871],[-119.397,50.873],[-119.647,50.942],[-119.655,50.972],[-119.61,51.039]]]}},{"type":"Feature","properties":{"density":2},"geometry":{"type":"Polygon","coordinates":[[[-117.556,51.526],[-117.483,51.558],[-117.401,51.558],[-117.372,51.539],[-117.388,51.508],[-117.435,51.484],[-117.533,51.489],[-117.556,51.526]]]}},{"type":"Feature","properties":{"density":2},"geometry":{"type":"Polygon","coordinates":[[[-115.659,50.295],[-115.657,50.265],[-115.68,50.265],[-115.686,50.293],[-115.665,50.335],[-115.623,50.356],[-115.575,50.356],[-115.577,50.333],[-115.623,50.335],[-115.659,50.295]]]}},{"type":"Feature","properties":{"density":2},"geometry":{"type":"Polygon","coordinates":[[[-115.015,50.171],[-115.036,50.198],[-115.026,50.249],[-114.914,50.385],[-114.874,50.368],[-114.885,50.295],[-114.857,50.16],[-114.91,50.0],[-114.939,50.017],[-114.939,50.086],[-114.967,50.124],[-115.015,50.171]]]}},{"type":"Feature","properties":{"density":2},"geometry":{"type":"Polygon","coordinates":[[[-113.889,48.396],[-113.925,48.322],[-113.969,48.308],[-113.996,48.318],[-114.049,48.404],[-113.965,48.428],[-113.881,48.417],[-113.889,48.396]]]}},{"type":"Feature","properties":{"density":2},"geometry":{"type":"Polygon","coordinates":[[[-113.696,48.002],[-113.687,47.979],[-113.698,47.965],[-113.759,47.983],[-113.752,48.007],[-113.71,48.032],[-113.696,48.002]]]}},{"type":"Feature","properties":{"density":2},"geometry":{"type":"Polygon","coordinates":[[[-116.566,47.83],[-116.688,47.763],[-116.715,47.761],[-116.736,47.786],[-116.713,47.849],[-116.675,47.87],[-116.562,47.868],[-116.566,47.83]]]}},{"type":"Feature","properties":{"density":2},"geometry":{"type":"Polygon","coordinates":[[[-120.084,49.18],[-120.076,49.219],[-120.005,49.23],[-119.944,49.174],[-119.926,49.114],[-119.971,49.074],[-120.028,49.093],[-120.068,49.14],[-120.084,49.18]]]}},{"type":"Feature","properties":{"density":2},"geometry":{"type":"Polygon","coordinates":[[[-121.118,48.722],[-121.267,48.659],[-121.546,48.454],[-121.646,48.443],[-121.896,48.501],[-122.115,48.469],[-122.18,48.425],[-122.167,48.393],[-122.028,48.383],[-121.978,48.356],[-121.975,48.335],[-122.101,48.288],[-122.225,48.193],[-122.288,48.033],[-122.33,47.983],[-122.422,47.964],[-122.583,48.059],[-122.701,48.188],[-122.701,48.33],[-122.606,48.401],[-122.257,48.535],[-122.132,48.565],[-121.882,48.588],[-121.616,48.519],[-121.508,48.539],[-121.238,48.707],[-121.159,48.736],[-121.123,48.726],[-121.118,48.722]]]}},{"type":"Feature","properties":{"density":2},"geometry":{"type":"Polygon","coordinates":[[[-114.973,46.496],[-115.028,46.483],[-114.968,46.514],[-114.965,46.504],[-114.973,46.496]]]}},{"type":"Feature","properties":{"density":2},"geometry":{"type":"Polygon","coordinates":[[[-122.132,44.223],[-122.306,44.151],[-122.707,44.151],[-123.056,44.177],[-123.375,44.25],[-123.457,44.342],[-123.368,44.391],[-122.701,44.259],[-122.119,44.24],[-122.132,44.223]]]}},{"type":"Feature","properties":{"density":2},"geometry":{"type":"Polygon","coordinates":[[[-122.349,43.753],[-122.642,43.701],[-122.987,43.671],[-123.112,43.635],[-123.618,43.296],[-123.973,43.043],[-124.243,42.826],[-124.559,42.609],[-124.924,42.27],[-125.062,42.178],[-125.177,42.149],[-125.279,42.159],[-125.354,42.284],[-125.302,42.583],[-124.634,43.803],[-124.197,44.263],[-123.931,44.483],[-123.783,44.5],[-123.694,44.467],[-123.664,44.405],[-123.431,44.234],[-123.381,44.155],[-123.316,44.105],[-123.217,44.079],[-122.704,44.079],[-122.379,44.059],[-122.356,44.03],[-122.379,43.997],[-122.457,43.951],[-122.569,43.934],[-122.589,43.882],[-122.576,43.852],[-122.484,43.803],[-122.382,43.803],[-122.326,43.783],[-122.349,43.753]]]}},{"type":"Feature","properties":{"density":2},"geometry":{"type":"Polygon","coordinates":[[[-93.028,31.104],[-92.828,31.174],[-92.813,31.163],[-92.952,31.121],[-93.028,31.104]]]}},{"type":"Feature","properties":{"density":2},"geometry":{"type":"Polygon","coordinates":[[[-93.904,29.718],[-93.679,30.004],[-93.552,30.12],[-93.376,30.203],[-93.429,30.095],[-93.539,29.985],[-93.827,29.74],[-93.904,29.706],[-93.904,29.718]]]}},{"type":"Feature","properties":{"density":2},"geometry":{"type":"Polygon","coordinates":[[[-92.573,18.418],[-92.668,18.455],[-92.755,18.518],[-92.755,18.549],[-92.721,18.549],[-92.629,18.497],[-92.565,18.421],[-92.573,18.418]]]}},{"type":"Feature","properties":{"density":2},"geometry":{"type":"Polygon","coordinates":[[[-67.153,68.719],[-68.61,65.805],[-69.928,64.417],[-72.01,62.96],[-73.953,62.266],[-75.063,62.058],[-76.173,61.503],[-76.59,60.809],[-76.729,60.115],[-77.284,58.797],[-79.088,56.784],[-82.488,54.078],[-83.39,53.454],[-84.153,53.037],[-84.5,51.858],[-84.292,50.956],[-84.431,50.4],[-85.125,50.054],[-86.096,49.984],[-87.206,50.123],[-89.01,50.956],[-91.161,51.996],[-91.439,53.801],[-90.745,54.841],[-90.051,55.466],[-89.01,56.16],[-88.386,56.784],[-88.316,57.548],[-88.386,58.727],[-88.733,60.878],[-87.276,62.335],[-86.165,62.821],[-85.333,64.278],[-84.639,65.388],[-83.112,66.429],[-81.516,66.568],[-80.059,66.915],[-77.769,67.886],[-76.59,68.442],[-74.786,69.066],[-71.316,69.829],[-69.928,69.829],[-69.026,69.552],[-67.153,68.719]]]}},{"type":"Feature","properties":{"density":2},"geometry":{"type":"Polygon","coordinates":[[[-113.14,64.254],[-108.12,64.472],[-107.028,64.617],[-105.791,64.817],[-104.663,64.89],[-104.354,64.781],[-104.1,64.454],[-103.972,63.781],[-103.972,63.453],[-104.191,62.635],[-104.191,61.616],[-104.136,60.834],[-104.354,60.288],[-104.773,59.87],[-105.609,59.506],[-106.737,59.27],[-107.919,59.27],[-109.975,59.233],[-112.412,59.306],[-114.177,59.506],[-115.614,59.542],[-115.996,59.579],[-116.159,59.742],[-116.469,59.833],[-117.506,59.997],[-119.252,60.106],[-119.998,60.397],[-119.852,60.506],[-119.761,60.652],[-119.907,60.779],[-120.179,60.798],[-120.489,60.779],[-120.471,60.798],[-120.216,60.87],[-120.289,60.943],[-120.507,60.979],[-121.198,60.979],[-121.362,61.07],[-121.362,61.179],[-121.125,61.234],[-119.87,61.234],[-117.742,61.38],[-115.614,61.471],[-113.504,61.525],[-112.212,61.525],[-112.012,61.652],[-112.012,61.743],[-112.522,61.907],[-113.067,61.962],[-113.467,62.053],[-113.649,62.18],[-113.631,62.471],[-113.813,62.689],[-114.231,62.744],[-114.959,62.744],[-115.341,62.762],[-115.414,62.835],[-115.414,62.998],[-115.177,63.199],[-114.995,63.271],[-115.068,63.508],[-115.286,63.562],[-115.778,63.617],[-115.887,63.672],[-115.923,63.835],[-115.596,64.053],[-115.159,64.181],[-114.377,64.217],[-114.031,64.254],[-113.14,64.254]]]}},{"type":"Feature","properties":{"density":2},"geometry":{"type":"Polygon","coordinates":[[[-122.731,44.731],[-122.307,44.479],[-122.179,44.386],[-122.121,44.223],[-122.156,44.13],[-122.296,44.119],[-122.435,44.2],[-122.622,44.351],[-122.761,44.328],[-122.761,44.235],[-122.715,44.142],[-122.587,44.072],[-122.366,44.025],[-122.284,43.932],[-122.237,43.781],[-122.494,43.653],[-122.633,43.664],[-122.994,43.851],[-123.367,44.165],[-123.46,44.305],[-123.565,44.526],[-123.576,44.677],[-123.53,44.817],[-123.448,44.898],[-123.274,44.91],[-123.087,44.875],[-122.731,44.731]]]}},{"type":"Feature","properties":{"density":2},"geometry":{"type":"Polygon","coordinates":[[[-125.925,53.085],[-125.106,53.085],[-124.146,53.187],[-124.025,53.262],[-123.997,53.383],[-124.193,53.495],[-124.444,53.504],[-125.031,53.43],[-125.599,53.309],[-125.869,53.271],[-125.99,53.206],[-126.046,53.122],[-125.925,53.085]]]}},{"type":"Feature","properties":{"density":2},"geometry":{"type":"Polygon","coordinates":[[[-77.586,52.83],[-77.768,52.102],[-78.154,51.648],[-78.472,51.102],[-78.586,50.306],[-78.859,49.624],[-79.177,49.306],[-79.837,48.919],[-80.746,48.669],[-81.838,48.396],[-82.042,48.487],[-82.11,48.828],[-81.815,49.169],[-81.133,49.351],[-80.519,49.715],[-80.269,50.079],[-80.223,50.761],[-80.041,51.466],[-79.768,52.011],[-79.246,52.557],[-78.586,52.944],[-78.109,53.057],[-78.018,53.057],[-77.586,52.83]]]}},{"type":"Feature","properties":{"density":2},"geometry":{"type":"Polygon","coordinates":[[[-129.767,67.927],[-126.265,67.813],[-124.378,67.518],[-122.309,67.404],[-121.263,67.177],[-121.013,66.949],[-120.945,66.654],[-121.263,66.495],[-121.763,66.404],[-123.082,66.358],[-124.742,66.426],[-126.811,66.586],[-128.334,66.745],[-129.585,67.063],[-129.949,67.336],[-130.153,67.609],[-130.176,67.7],[-129.767,67.927]]]}},{"type":"Feature","properties":{"density":2},"geometry":{"type":"Polygon","coordinates":[[[-133.564,67.04],[-132.063,66.836],[-131.313,66.176],[-131.222,65.653],[-131.79,65.38],[-132.836,65.312],[-135.542,65.585],[-140.544,65.79],[-140.726,66.017],[-140.613,66.54],[-140.294,66.881],[-140.226,67.063],[-140.34,67.29],[-140.749,67.427],[-140.931,67.427],[-140.954,67.54],[-140.772,67.791],[-140.112,68.041],[-139.476,68.109],[-138.589,68.041],[-137.134,67.7],[-135.815,67.336],[-134.724,67.199],[-133.564,67.04]]]}},{"type":"Feature","properties":{"density":2},"geometry":{"type":"Polygon","coordinates":[[[-144.263,67.615],[-142.594,67.402],[-142.416,66.975],[-142.984,66.443],[-144.121,66.158],[-146.466,66.016],[-149.521,65.732],[-154.175,65.519],[-157.941,65.235],[-160.89,65.27],[-164.123,64.702],[-165.97,64.275],[-166.681,64.524],[-166.716,65.057],[-165.793,65.945],[-164.123,66.478],[-162.204,66.833],[-160.712,67.615],[-159.54,68.148],[-156.485,68.254],[-154.211,67.97],[-151.582,67.828],[-148.669,67.97],[-147.248,68.112],[-144.263,67.615]]]}},{"type":"Feature","properties":{"density":2},"geometry":{"type":"Polygon","coordinates":[[[-124.498,43.975],[-124.927,43.481],[-125.094,42.89],[-125.219,42.086],[-125.368,41.996],[-125.583,42.044],[-125.666,42.414],[-125.672,43.093],[-125.541,43.641],[-125.356,43.904],[-125.088,44.124],[-124.737,44.232],[-124.599,44.208],[-124.54,44.154],[-124.498,43.975]]]}},{"type":"Feature","properties":{"density":2},"geometry":{"type":"Polygon","coordinates":[[[-94.801,52.26],[-95.104,52.237],[-95.395,52.132],[-95.581,52.097],[-95.721,52.132],[-95.721,52.214],[-95.674,52.295],[-95.488,52.377],[-95.139,52.447],[-94.918,52.435],[-94.836,52.412],[-94.801,52.26]]]}},{"type":"Feature","properties":{"density":2},"geometry":{"type":"Polygon","coordinates":[[[-96.843,54.505],[-96.489,54.533],[-96.182,54.682],[-96.126,54.738],[-96.145,54.784],[-96.396,54.812],[-96.694,54.71],[-96.862,54.598],[-96.843,54.505]]]}},{"type":"Feature","properties":{"density":2},"geometry":{"type":"Polygon","coordinates":[[[-103.747,56.628],[-104.635,54.23],[-104.99,51.743],[-104.99,50.144],[-105.035,48.634],[-105.523,47.258],[-106.1,47.124],[-106.767,47.258],[-107.388,48.856],[-107.388,51.432],[-107.122,53.608],[-106.1,56.495],[-105.523,57.649],[-104.679,58.093],[-103.969,58.271],[-103.391,58.049],[-102.859,57.472],[-103.747,56.628]]]}},{"type":"Feature","properties":{"density":3},"geometry":{"type":"Polygon","coordinates":[[[-78.475,53.174],[-78.295,53.303],[-78.186,53.354],[-78.109,53.341],[-78.096,53.29],[-78.019,53.271],[-77.916,53.315],[-77.768,53.399],[-77.518,53.598],[-77.229,53.778],[-77.03,53.881],[-76.786,53.9],[-76.747,53.836],[-76.76,53.765],[-77.132,53.418],[-77.248,53.288],[-77.489,53.123],[-77.916,52.748],[-78.049,52.676],[-78.193,52.63],[-78.342,52.62],[-78.445,52.666],[-78.507,52.712],[-78.558,52.897],[-78.532,53.01],[-78.475,53.174]]]}},{"type":"Feature","properties":{"density":3},"geometry":{"type":"Polygon","coordinates":[[[-96.911,54.504],[-97.012,54.523],[-97.141,54.575],[-97.147,54.624],[-97.122,54.653],[-97.088,54.657],[-96.911,54.539],[-96.913,54.516],[-96.911,54.504]]]}},{"type":"Feature","properties":{"density":3},"geometry":{"type":"Polygon","coordinates":[[[-99.479,56.814],[-99.476,56.949],[-99.328,57.396],[-99.282,57.482],[-99.16,57.547],[-99.068,57.554],[-98.999,57.485],[-99.055,57.252],[-99.276,56.66],[-99.384,56.686],[-99.453,56.742],[-99.479,56.814]]]}},{"type":"Feature","properties":{"density":3},"geometry":{"type":"Polygon","coordinates":[[[-120.152,58.486],[-120.152,58.505],[-120.081,58.57],[-119.781,58.741],[-119.545,58.841],[-119.458,58.833],[-119.479,58.786],[-119.976,58.531],[-120.068,58.447],[-120.097,58.452],[-120.1,58.499],[-120.131,58.505],[-120.152,58.486]]]}},{"type":"Feature","properties":{"density":3},"geometry":{"type":"Polygon","coordinates":[[[-116.899,60.793],[-116.662,60.839],[-116.652,60.809],[-116.77,60.776],[-116.882,60.77],[-116.899,60.793]]]}},{"type":"Feature","properties":{"density":3},"geometry":{"type":"Polygon","coordinates":[[[-116.941,60.678],[-116.885,60.704],[-116.701,60.743],[-116.106,60.826],[-115.794,60.822],[-115.761,60.789],[-116.902,60.678],[-116.941,60.678]]]}},{"type":"Feature","properties":{"density":3},"geometry":{"type":"Polygon","coordinates":[[[-112.0,59.801],[-111.941,59.908],[-111.884,59.963],[-111.863,59.958],[-111.918,59.853],[-112.004,59.786],[-112.0,59.801]]]}},{"type":"Feature","properties":{"density":3},"geometry":{"type":"Polygon","coordinates":[[[-77.382,59.116],[-77.727,58.489],[-78.166,58.081],[-79.577,56.654],[-80.549,55.87],[-81.286,55.368],[-82.384,54.726],[-83.12,54.145],[-83.418,53.816],[-83.356,53.612],[-83.262,53.456],[-83.293,53.111],[-83.418,52.593],[-84.014,51.825],[-84.422,51.543],[-85.127,51.417],[-85.551,51.292],[-87.26,51.119],[-87.683,50.931],[-88.122,50.696],[-88.452,50.555],[-88.671,50.618],[-88.812,50.9],[-88.891,51.104],[-89.204,51.543],[-89.471,51.841],[-89.659,52.609],[-89.8,53.534],[-89.816,54.334],[-89.753,55.102],[-89.486,55.619],[-89.533,55.792],[-89.675,55.902],[-89.769,56.043],[-89.722,56.184],[-89.518,56.309],[-89.047,56.356],[-88.248,56.372],[-87.636,56.435],[-87.417,56.56],[-87.37,56.701],[-87.495,56.952],[-87.95,57.501],[-88.326,57.877],[-88.922,58.316],[-89.251,58.693],[-89.439,59.132],[-89.549,59.586],[-89.784,59.869],[-90.145,59.947],[-90.741,60.37],[-91.478,60.543],[-91.979,60.747],[-92.168,60.888],[-92.168,61.107],[-91.964,61.201],[-91.682,61.248],[-91.07,61.092],[-89.753,60.872],[-88.734,60.856],[-87.715,61.154],[-87.119,61.405],[-86.476,61.593],[-86.335,61.499],[-86.507,61.28],[-86.507,61.17],[-86.178,61.029],[-85.88,60.966],[-85.582,60.856],[-85.441,60.825],[-85.127,60.527],[-85.206,60.339],[-85.441,60.323],[-86.272,60.323],[-86.586,60.214],[-87.009,60.417],[-87.464,60.245],[-87.574,60.025],[-87.464,59.79],[-87.182,59.539],[-86.382,59.382],[-84.751,59.257],[-84.155,59.179],[-83.544,58.881],[-82.885,58.536],[-82.65,58.489],[-82.556,58.583],[-82.603,58.787],[-82.728,59.006],[-83.042,59.32],[-83.481,59.649],[-83.622,60.135],[-83.952,61.06],[-84.014,61.609],[-84.014,62.315],[-83.779,62.628],[-83.199,62.754],[-82.54,63.004],[-82.399,63.114],[-82.039,63.287],[-82.133,63.632],[-82.274,63.851],[-82.133,64.259],[-81.448,64.628],[-80.517,64.824],[-79.243,64.8],[-78.581,64.432],[-78.385,63.697],[-78.469,63.506],[-78.406,63.205],[-78.205,62.892],[-77.954,62.603],[-77.641,62.101],[-77.603,61.549],[-77.628,61.198],[-78.017,60.997],[-78.506,60.872],[-79.071,60.671],[-79.071,60.508],[-78.933,60.433],[-78.82,60.257],[-78.87,59.906],[-79.02,59.605],[-79.02,59.279],[-78.757,59.128],[-78.531,59.103],[-78.218,59.116],[-77.866,59.229],[-77.641,59.241],[-77.553,59.204],[-77.382,59.116]]]}},{"type":"Feature","properties":{"density":3},"geometry":{"type":"Polygon","coordinates":[[[-89.356,64.283],[-89.09,63.812],[-89.325,63.342],[-89.576,63.154],[-90.078,63.028],[-90.517,63.013],[-91.019,63.075],[-91.818,63.075],[-93.073,63.201],[-94.06,63.656],[-94.405,64.408],[-94.609,64.769],[-95.095,65.051],[-97.537,64.849],[-98.628,64.649],[-100.912,64.606],[-102.107,64.9],[-103.462,66.364],[-103.537,66.954],[-103.222,67.834],[-100.909,68.756],[-98.361,69.383],[-95.813,69.598],[-94.069,69.579],[-92.207,69.481],[-91.09,69.069],[-90.404,68.599],[-89.384,67.697],[-89.012,67.148],[-88.992,66.423],[-89.424,65.306],[-89.502,64.757],[-89.356,64.283]]]}},{"type":"Feature","properties":{"density":3},"geometry":{"type":"Polygon","coordinates":[[[-157.976,64.098],[-159.569,63.883],[-160.671,63.761],[-162.264,63.393],[-164.193,62.995],[-165.204,62.566],[-167.47,62.23],[-169.374,62.092],[-170.354,62.738],[-170.726,63.366],[-170.863,64.816],[-170.726,65.424],[-170.295,65.718],[-169.001,66.012],[-167.943,65.972],[-166.257,65.992],[-165.277,66.266],[-163.984,66.482],[-161.416,67.129],[-159.848,67.305],[-158.849,67.54],[-158.124,67.834],[-157.222,68.109],[-156.908,68.187],[-155.497,68.071],[-154.431,67.962],[-153.49,67.711],[-152.941,67.585],[-151.703,67.225],[-150.009,66.958],[-148.426,66.942],[-145.352,67.099],[-142.044,67.507],[-139.927,67.899],[-139.197,68.015],[-138.845,68.165],[-138.319,68.278],[-137.88,68.191],[-137.315,67.839],[-136.375,67.456],[-134.808,67.295],[-132.894,67.257],[-131.392,67.501],[-130.009,67.874],[-129.052,68.031],[-128.137,67.966],[-127.968,67.87],[-128.088,67.669],[-128.739,67.501],[-129.831,67.411],[-130.402,66.981],[-130.183,66.632],[-128.276,66.269],[-126.844,66.136],[-125.966,65.948],[-124.146,65.481],[-122.905,65.28],[-121.6,65.13],[-120.27,65.08],[-119.242,65.08],[-118.526,65.055],[-117.678,65.112],[-117.441,65.112],[-117.107,65.061],[-116.991,65.016],[-116.92,64.888],[-116.831,64.772],[-116.747,64.489],[-116.6,64.255],[-116.277,63.64],[-116.108,63.198],[-116.123,63.049],[-116.283,62.941],[-117.171,62.844],[-118.036,62.837],[-118.781,62.94],[-119.34,63.081],[-119.629,63.229],[-119.937,63.434],[-120.156,63.543],[-120.526,63.635],[-121.405,63.578],[-121.59,63.604],[-122.453,63.645],[-123.286,63.794],[-123.892,63.697],[-124.585,63.661],[-124.796,63.671],[-124.986,63.758],[-125.115,63.861],[-125.418,63.938],[-125.777,63.964],[-125.901,64.118],[-127.095,64.671],[-128.252,64.838],[-130.44,64.918],[-131.802,64.882],[-132.947,64.872],[-134.411,64.914],[-135.659,64.902],[-136.703,64.939],[-137.966,65.196],[-139.13,65.397],[-142.158,65.587],[-143.814,65.562],[-145.61,65.632],[-146.955,65.853],[-150.798,65.763],[-152.003,65.622],[-152.936,65.482],[-153.498,65.321],[-154.752,65.02],[-156.679,64.418],[-157.271,64.298],[-157.976,64.098]]]}},{"type":"Feature","properties":{"density":3},"geometry":{"type":"Polygon","coordinates":[[[-124.079,63.131],[-124.039,63.163],[-123.999,63.167],[-123.997,63.15],[-124.041,63.14],[-124.079,63.131]]]}},{"type":"Feature","properties":{"density":3},"geometry":{"type":"Polygon","coordinates":[[[-115.998,63.913],[-115.497,64.127],[-115.155,64.299],[-114.933,64.369],[-114.773,64.39],[-114.716,64.32],[-114.769,64.225],[-115.007,64.127],[-115.698,63.79],[-116.093,63.683],[-116.134,63.703],[-115.978,63.782],[-115.969,63.823],[-115.998,63.913]]]}},{"type":"Feature","properties":{"density":3},"geometry":{"type":"Polygon","coordinates":[[[-114.907,62.883],[-114.183,63.122],[-113.674,63.356],[-113.263,63.459],[-113.197,63.352],[-113.312,63.241],[-114.216,62.908],[-114.34,62.9],[-114.405,62.929],[-114.857,62.855],[-114.894,62.875],[-114.907,62.883]]]}},{"type":"Feature","properties":{"density":3},"geometry":{"type":"Polygon","coordinates":[[[-115.137,62.682],[-114.796,62.818],[-114.578,62.842],[-114.59,62.752],[-114.681,62.69],[-114.866,62.624],[-115.129,62.6],[-115.137,62.62],[-115.137,62.682]]]}},{"type":"Feature","properties":{"density":3},"geometry":{"type":"Polygon","coordinates":[[[-114.751,63.447],[-114.52,63.558],[-114.307,63.623],[-114.319,63.578],[-114.672,63.451],[-114.734,63.442],[-114.751,63.447]]]}},{"type":"Feature","properties":{"density":3},"geometry":{"type":"Polygon","coordinates":[[[-114.076,62.834],[-113.287,63.204],[-113.139,63.196],[-113.361,63.048],[-113.682,62.896],[-113.961,62.809],[-114.089,62.801],[-114.076,62.834]]]}},{"type":"Feature","properties":{"density":3},"geometry":{"type":"Polygon","coordinates":[[[-113.739,62.324],[-113.353,62.518],[-113.106,62.686],[-112.938,62.838],[-112.724,62.916],[-112.564,62.9],[-112.56,62.801],[-112.626,62.653],[-112.765,62.509],[-113.176,62.185],[-113.238,62.156],[-113.279,62.181],[-113.365,62.176],[-113.485,62.127],[-113.653,62.205],[-113.698,62.275],[-113.748,62.292],[-113.739,62.324]]]}},{"type":"Feature","properties":{"density":3},"geometry":{"type":"Polygon","coordinates":[[[-123.488,54.431],[-123.523,54.423],[-123.599,54.455],[-123.583,54.466],[-123.517,54.458],[-123.473,54.476],[-123.446,54.46],[-123.467,54.442],[-123.488,54.431]]]}},{"type":"Feature","properties":{"density":3},"geometry":{"type":"Polygon","coordinates":[[[-126.019,53.052],[-125.954,53.131],[-125.838,53.157],[-125.687,53.259],[-125.658,53.229],[-125.802,53.137],[-125.954,53.065],[-126.019,53.052]]]}},{"type":"Feature","properties":{"density":3},"geometry":{"type":"Polygon","coordinates":[[[-122.941,50.906],[-122.901,50.923],[-122.806,50.913],[-122.806,50.883],[-122.905,50.877],[-122.941,50.906]]]}},{"type":"Feature","properties":{"density":3},"geometry":{"type":"Polygon","coordinates":[[[-119.763,51.06],[-119.739,51.044],[-119.739,51.015],[-119.763,51.007],[-119.763,51.021],[-119.763,51.06]]]}},{"type":"Feature","properties":{"density":3},"geometry":{"type":"Polygon","coordinates":[[[-119.631,50.971],[-119.618,51.026],[-119.566,51.023],[-119.576,51.0],[-119.547,50.978],[-119.468,50.978],[-119.4,50.947],[-119.442,50.929],[-119.597,50.95],[-119.631,50.971]]]}},{"type":"Feature","properties":{"density":3},"geometry":{"type":"Polygon","coordinates":[[[-117.554,51.524],[-117.498,51.542],[-117.409,51.534],[-117.422,51.508],[-117.47,51.492],[-117.525,51.503],[-117.554,51.524]]]}},{"type":"Feature","properties":{"density":3},"geometry":{"type":"Polygon","coordinates":[[[-115.002,50.183],[-115.032,50.211],[-115.011,50.249],[-114.967,50.278],[-114.931,50.282],[-114.922,50.219],[-114.954,50.162],[-114.973,50.154],[-115.002,50.183]]]}},{"type":"Feature","properties":{"density":3},"geometry":{"type":"Polygon","coordinates":[[[-113.906,48.375],[-113.933,48.335],[-113.956,48.335],[-114.032,48.379],[-114.024,48.411],[-113.908,48.392],[-113.906,48.375]]]}},{"type":"Feature","properties":{"density":3},"geometry":{"type":"Polygon","coordinates":[[[-113.693,47.986],[-113.717,47.977],[-113.742,48.0],[-113.706,48.011],[-113.693,47.986]]]}},{"type":"Feature","properties":{"density":3},"geometry":{"type":"Polygon","coordinates":[[[-116.576,47.828],[-116.627,47.83],[-116.621,47.862],[-116.572,47.855],[-116.576,47.828]]]}},{"type":"Feature","properties":{"density":3},"geometry":{"type":"Polygon","coordinates":[[[-120.076,49.182],[-120.05,49.214],[-120.018,49.214],[-119.992,49.143],[-120.013,49.127],[-120.044,49.14],[-120.076,49.182]]]}},{"type":"Feature","properties":{"density":3},"geometry":{"type":"Polygon","coordinates":[[[-121.147,48.718],[-121.267,48.661],[-121.534,48.476],[-121.618,48.465],[-121.805,48.503],[-121.974,48.518],[-122.146,48.49],[-122.155,48.505],[-122.115,48.53],[-122.018,48.552],[-121.774,48.543],[-121.597,48.507],[-121.496,48.535],[-121.241,48.69],[-121.151,48.728],[-121.147,48.718]]]}},{"type":"Feature","properties":{"density":3},"geometry":{"type":"Polygon","coordinates":[[[-122.392,43.999],[-122.741,43.934],[-122.897,43.868],[-123.037,43.773],[-123.193,43.625],[-123.793,43.235],[-124.097,42.988],[-124.381,42.791],[-124.681,42.557],[-124.981,42.355],[-125.162,42.318],[-125.248,42.409],[-125.17,42.618],[-124.509,43.864],[-124.225,44.102],[-124.044,44.213],[-123.83,44.258],[-123.654,44.258],[-123.51,44.205],[-123.456,44.147],[-123.485,44.012],[-123.448,43.991],[-123.325,43.971],[-123.156,43.962],[-123.016,44.036],[-122.873,44.049],[-122.53,44.062],[-122.418,44.056],[-122.372,44.029],[-122.392,43.999]]]}},{"type":"Feature","properties":{"density":3},"geometry":{"type":"Polygon","coordinates":[[[-122.135,44.21],[-122.536,44.174],[-122.589,44.184],[-122.563,44.207],[-122.451,44.223],[-122.244,44.243],[-122.129,44.236],[-122.135,44.21]]]}},{"type":"Feature","properties":{"density":3},"geometry":{"type":"Polygon","coordinates":[[[-93.899,29.721],[-93.667,29.977],[-93.606,30.002],[-93.593,29.977],[-93.625,29.926],[-93.79,29.782],[-93.881,29.724],[-93.899,29.721]]]}},{"type":"Feature","properties":{"density":3},"geometry":{"type":"Polygon","coordinates":[[[-69.812,65.875],[-71.988,64.41],[-73.054,63.61],[-74.075,63.255],[-75.274,63.122],[-76.296,62.9],[-76.784,62.189],[-76.917,61.434],[-76.784,60.413],[-77.361,58.681],[-79.227,57.26],[-81.403,55.217],[-83.445,53.618],[-84.245,53.53],[-85.133,53.53],[-86.021,53.13],[-86.199,52.419],[-85.888,51.886],[-85.888,51.442],[-86.376,50.998],[-86.909,51.131],[-87.442,51.709],[-87.842,52.419],[-88.153,53.13],[-88.286,54.018],[-88.153,54.507],[-87.22,55.128],[-86.376,55.484],[-85.621,55.75],[-85.444,56.15],[-85.311,56.771],[-85.621,57.66],[-86.421,58.903],[-86.376,59.702],[-85.488,60.546],[-84.6,60.679],[-82.824,60.457],[-81.98,60.768],[-80.426,61.523],[-79.271,62.367],[-79.004,63.388],[-78.827,64.188],[-78.516,65.387],[-77.85,66.186],[-76.606,66.985],[-74.963,67.607],[-73.098,67.918],[-70.966,68.229],[-69.679,68.051],[-69.057,67.474],[-69.812,65.875]]]}},{"type":"Feature","properties":{"density":3},"geometry":{"type":"Polygon","coordinates":[[[-107.919,64.17],[-106.493,64.344],[-105.751,64.475],[-105.184,64.519],[-104.834,64.286],[-104.66,63.602],[-104.587,62.205],[-104.776,61.143],[-105.417,60.052],[-106.188,59.761],[-107.454,59.644],[-110.248,59.499],[-112.3,59.644],[-115.997,59.666],[-116.081,59.722],[-116.174,59.843],[-116.742,60.047],[-117.403,60.122],[-118.111,60.094],[-119.285,60.215],[-119.508,60.271],[-119.843,60.383],[-119.862,60.429],[-119.676,60.653],[-119.704,60.82],[-119.881,60.904],[-120.672,61.063],[-121.25,61.053],[-121.259,61.109],[-121.026,61.146],[-119.368,61.156],[-117.748,61.268],[-116.258,61.342],[-115.401,61.314],[-113.445,61.361],[-112.355,61.407],[-112.085,61.482],[-111.853,61.668],[-111.918,61.873],[-112.244,62.003],[-112.933,62.078],[-113.296,62.143],[-113.529,62.311],[-113.585,62.553],[-113.79,62.748],[-114.907,62.823],[-115.308,62.823],[-115.364,62.916],[-115.28,63.028],[-115.075,63.13],[-114.926,63.298],[-115.038,63.568],[-115.261,63.68],[-115.671,63.745],[-115.848,63.801],[-115.885,63.894],[-115.69,64.006],[-114.656,64.071],[-113.473,64.173],[-111.582,64.201],[-110.335,64.285],[-109.701,64.127],[-107.919,64.17]]]}},{"type":"Feature","properties":{"density":3},"geometry":{"type":"Polygon","coordinates":[[[-125.897,53.113],[-125.106,53.141],[-124.603,53.178],[-124.305,53.225],[-124.249,53.271],[-124.212,53.392],[-124.379,53.448],[-124.789,53.42],[-125.32,53.327],[-125.646,53.253],[-125.888,53.178],[-125.897,53.113]]]}},{"type":"Feature","properties":{"density":3},"geometry":{"type":"Polygon","coordinates":[[[-129.767,67.768],[-126.674,67.54],[-123.832,67.245],[-122.832,67.177],[-122.491,67.018],[-122.423,66.79],[-122.991,66.586],[-124.424,66.563],[-126.129,66.676],[-128.789,67.04],[-129.585,67.313],[-129.858,67.495],[-129.767,67.768]]]}},{"type":"Feature","properties":{"density":3},"geometry":{"type":"Polygon","coordinates":[[[-138.43,67.739],[-136.042,67.114],[-132.546,66.659],[-131.864,65.977],[-131.95,65.75],[-132.859,65.636],[-135.048,65.835],[-139.112,66.063],[-140.107,66.063],[-140.334,66.205],[-140.135,66.688],[-139.879,67.029],[-140.163,67.427],[-140.362,67.597],[-140.249,67.768],[-139.453,67.853],[-138.43,67.796],[-138.43,67.739]]]}},{"type":"Feature","properties":{"density":3},"geometry":{"type":"Polygon","coordinates":[[[-122.285,44.239],[-122.842,44.463],[-122.999,44.613],[-122.964,44.72],[-122.842,44.727],[-122.506,44.575],[-122.261,44.351],[-122.163,44.22],[-122.285,44.239]]]}}]}