{"type":"FeatureCollection","features":[{"type":"Feature","properties":{"density":1},"geometry":{"type":"Polygon","coordinates":[[[-26.748,53.459],[-35.769,54.639],[-40.556,55.68],[-45.899,56.651],[-50.548,56.998],[-56.03,57.137],[-61.304,56.373],[-64.426,55.194],[-66.369,53.806],[-67.687,52.071],[-67.826,49.851],[-67.618,47.492],[-66.924,45.896],[-65.467,43.883],[-64.981,42.01],[-65.259,40.483],[-66.994,38.957],[-70.602,36.32],[-72.406,35.21],[-74.21,34.447],[-75.043,33.961],[-77.055,32.504],[-78.235,30.838],[-78.998,28.479],[-79.622,27.022],[-81.149,25.426],[-82.745,24.385],[-83.508,24.177],[-84.896,24.177],[-86.839,24.871],[-88.227,25.634],[-91.002,26.467],[-93.5,26.675],[-95.859,25.842],[-97.108,25.01],[-97.802,24.94],[-98.566,25.01],[-99.398,26.328],[-99.606,27.855],[-99.259,30.283],[-98.496,32.226],[-98.08,33.545],[-97.941,34.724],[-99.398,36.667],[-100.161,37.5],[-100.717,38.61],[-101.757,41.385],[-102.266,44.248],[-102.835,45.385],[-103.652,46.38],[-105.002,47.02],[-106.743,46.949],[-107.809,46.487],[-109.692,46.131],[-110.793,46.131],[-112.285,46.487],[-113.529,46.913],[-114.914,46.842],[-115.447,46.38],[-116.69,45.527],[-117.401,44.71],[-118.467,43.147],[-118.964,41.904],[-119.426,41.619],[-120.137,41.371],[-120.883,41.051],[-121.309,40.554],[-121.522,39.985],[-121.202,39.097],[-119.148,36.936],[-118.653,36.608],[-118.618,36.537],[-118.749,36.489],[-118.874,36.495],[-119.011,36.364],[-118.957,36.072],[-119.035,35.732],[-119.691,35.559],[-121.276,36.728],[-124.471,38.102],[-129.196,38.067],[-130.582,37.498],[-131.47,37.179],[-132.322,37.072],[-133.424,37.143],[-133.886,37.747],[-134.028,39.239],[-133.672,40.234],[-132.82,41.193],[-131.186,42.437],[-129.018,43.822],[-128.166,44.284],[-126.567,45.066],[-124.435,45.883],[-123.476,46.131],[-122.375,46.629],[-121.558,47.197],[-120.688,48.414],[-120.426,48.734],[-120.339,48.982],[-120.048,49.375],[-119.931,49.651],[-120.091,49.884],[-120.528,50.16],[-120.935,50.204],[-121.576,50.044],[-121.954,50.0],[-122.172,50.029],[-122.434,50.19],[-122.638,50.422],[-123.016,50.757],[-123.366,50.772],[-123.54,50.757],[-123.657,50.815],[-124.079,51.237],[-124.355,51.485],[-124.995,51.543],[-125.068,51.601],[-125.185,51.936],[-125.182,52.247],[-125.403,52.794],[-125.647,53.015],[-125.88,53.132],[-126.206,53.213],[-126.427,53.248],[-126.648,53.248],[-126.765,53.295],[-126.777,53.4],[-126.765,53.539],[-126.497,53.819],[-126.194,54.168],[-125.985,54.564],[-125.95,54.762],[-125.938,55.204],[-125.985,55.577],[-125.88,55.938],[-125.589,56.205],[-125.112,56.578],[-124.541,56.892],[-123.971,57.137],[-123.366,57.334],[-123.075,57.497],[-122.912,58.114],[-122.644,58.44],[-122.667,58.72],[-122.877,58.999],[-123.251,59.036],[-123.688,59.312],[-123.629,59.894],[-123.435,60.233],[-123.203,60.594],[-122.923,60.827],[-122.446,61.002],[-121.899,61.106],[-121.701,61.188],[-121.526,61.351],[-121.398,61.816],[-121.224,62.014],[-120.933,62.119],[-120.164,62.34],[-119.803,62.585],[-119.64,62.888],[-119.605,63.074],[-119.792,63.342],[-120.478,63.505],[-121.293,63.598],[-122.772,64.052],[-123.494,64.25],[-124.541,64.261],[-125.589,64.017],[-125.799,64.098],[-125.845,64.215],[-125.764,64.459],[-125.682,64.587],[-125.706,64.715],[-125.857,64.855],[-128.069,65.518],[-130.863,65.914],[-135.124,65.926],[-138.406,65.914],[-139.396,66.089],[-140.153,66.438],[-140.84,67.754],[-140.851,68.673],[-140.677,69.698],[-140.304,70.198],[-139.71,70.804],[-139.291,71.072],[-138.732,71.304],[-135.438,71.805],[-134.6,71.863],[-132.341,71.758],[-130.874,71.526],[-125.692,70.811],[-119.575,69.561],[-112.94,69.509],[-109.575,69.35],[-107.597,69.168],[-105.278,68.623],[-104.354,68.616],[-103.857,68.936],[-103.928,70.108],[-104.78,72.027],[-106.557,75.402],[-106.805,77.391],[-105.846,78.67],[-104.425,79.31],[-102.293,79.736],[-100.02,79.381],[-97.959,78.244],[-95.721,76.006],[-93.056,72.915],[-90.668,71.479],[-88.081,70.854],[-87.513,70.769],[-87.115,71.195],[-87.257,71.849],[-87.065,72.397],[-86.13,73.407],[-84.147,74.062],[-81.783,73.662],[-80.631,72.515],[-78.188,72.737],[-76.367,72.737],[-75.213,72.16],[-73.881,70.073],[-71.571,68.163],[-69.795,68.252],[-68.818,69.14],[-68.019,70.295],[-66.819,71.849],[-66.375,72.16],[-65.31,72.337],[-63.8,71.982],[-62.601,71.094],[-61.091,69.673],[-59.67,68.074],[-56.517,65.898],[-51.809,64.077],[-44.793,61.679],[-39.641,60.303],[-35.067,59.681],[-33.779,59.548],[-30.227,59.37],[-27.562,59.281],[-25.075,58.526],[-23.388,57.283],[-22.322,55.418],[-22.411,54.041],[-23.654,53.775],[-26.748,53.459]]]}},{"type":"Feature","properties":{"density":1},"geometry":{"type":"Polygon","coordinates":[[[-123.47,47.887],[-123.409,47.788],[-123.394,47.658],[-123.428,47.62],[-123.512,47.605],[-123.592,47.628],[-123.634,47.658],[-123.661,47.719],[-123.649,47.853],[-123.573,47.914],[-123.504,47.925],[-123.47,47.887]]]}},{"type":"Feature","properties":{"density":1},"geometry":{"type":"Polygon","coordinates":[[[-123.656,33.873],[-126.778,36.44],[-129.068,40.256],[-129.415,43.171],[-129.276,44.281],[-128.027,46.501],[-127.542,47.473],[-126.57,48.791],[-126.293,50.595],[-126.639,52.816],[-126.639,53.51],[-126.778,55.8],[-127.195,57.465],[-129.623,60.796],[-132.607,63.224],[-134.619,64.334],[-138.297,65.236],[-140.032,67.457],[-140.656,69.816],[-138.713,71.551],[-136.493,72.661],[-133.093,73.008],[-122.823,72.939],[-81.467,72.939],[-58.638,73.563],[-55.446,72.8],[-52.393,71.481],[-51.005,70.163],[-49.965,67.873],[-48.091,64.89],[-46.634,63.502],[-41.083,62.114],[-34.977,61.281],[-34.838,61.281],[-32.132,61.767],[-27.621,61.489],[-24.985,60.31],[-23.527,58.991],[-23.042,57.187],[-23.25,55.661],[-24.43,54.62],[-25.748,54.412],[-27.483,54.412],[-31.854,55.244],[-32.617,55.453],[-37.544,56.493],[-40.528,56.771],[-44.83,56.84],[-50.797,58.228],[-54.891,58.506],[-57.667,58.02],[-60.304,57.118],[-60.442,56.91],[-63.842,54.689],[-65.091,53.371],[-65.577,50.04],[-64.12,46.71],[-60.373,44.767],[-58.222,45.599],[-55.863,47.265],[-54.336,48.167],[-53.712,48.514],[-52.463,48.236],[-50.659,45.599],[-51.422,43.657],[-53.434,41.575],[-55.169,39.216],[-59.61,35.538],[-65.924,32.138],[-69.532,30.75],[-71.128,30.611],[-73.557,32.416],[-74.39,35.607],[-74.875,38.383],[-76.055,39.632],[-78.83,39.632],[-79.871,38.938],[-81.537,36.856],[-81.606,33.942],[-81.537,32.346],[-81.537,31.236],[-82.855,27.975],[-84.173,25.06],[-86.394,22.632],[-88.753,21.591],[-90.627,20.342],[-91.459,19.37],[-92.223,18.26],[-93.957,17.289],[-95.276,17.011],[-98.121,18.052],[-97.912,17.358],[-98.537,16.248],[-98.259,15.693],[-97.843,14.027],[-98.121,13.195],[-99.647,12.709],[-100.827,13.472],[-103.533,15.554],[-107.002,16.248],[-109.778,15.832],[-111.79,15.346],[-113.941,14.929],[-118.937,15.97],[-121.574,16.664],[-127.264,20.689],[-129.137,24.297],[-128.374,26.448],[-124.766,28.322],[-120.256,28.738],[-116.856,28.53],[-113.941,28.669],[-109.986,29.501],[-106.586,30.195],[-103.672,32.069],[-102.423,34.775],[-102.145,36.301],[-103.255,39.771],[-103.81,40.812],[-105.892,42.338],[-108.043,43.24],[-109.153,42.408],[-109.015,40.881],[-108.876,39.91],[-109.917,38.314],[-110.888,37.689],[-112.137,37.273],[-112.692,37.134],[-115.121,37.342],[-116.37,37.481],[-117.203,36.856],[-117.758,36.371],[-118.313,35.816],[-118.799,34.705],[-119.562,34.22],[-121.366,33.456],[-121.643,33.387],[-122.476,33.318],[-123.656,33.873]]]}},{"type":"Feature","properties":{"density":2},"geometry":{"type":"Polygon","coordinates":[[[-93.827,72.467],[-91.918,71.401],[-87.712,70.513],[-85.495,71.707],[-83.79,72.588],[-82.624,72.446],[-81.374,72.048],[-80.692,70.712],[-80.976,69.234],[-82.227,68.239],[-89.446,67.87],[-90.639,67.472],[-90.896,66.605],[-90.763,66.205],[-90.052,65.317],[-89.697,63.185],[-89.519,61.586],[-90.408,60.032],[-91.829,58.211],[-93.25,57.545],[-95.008,57.078],[-96.168,57.032],[-97.168,57.123],[-98.041,57.092],[-99.601,57.146],[-101.489,56.805],[-103.353,56.35],[-103.876,56.327],[-104.607,56.237],[-105.044,56.092],[-105.662,55.928],[-106.195,55.827],[-106.9,55.782],[-109.219,55.782],[-110.424,55.918],[-111.88,56.236],[-112.312,55.873],[-112.539,55.281],[-112.584,54.736],[-112.448,54.236],[-111.448,52.826],[-110.788,51.075],[-110.493,50.552],[-110.333,49.825],[-110.561,49.256],[-110.947,49.074],[-111.47,49.074],[-112.039,49.461],[-113.176,51.098],[-113.88,51.939],[-114.744,52.53],[-115.608,52.689],[-116.768,52.621],[-117.655,52.007],[-119.087,51.098],[-119.337,51.007],[-119.565,51.052],[-119.792,51.393],[-119.86,51.803],[-119.929,52.076],[-120.133,52.303],[-120.452,52.394],[-120.906,52.348],[-121.361,52.212],[-122.02,52.098],[-122.134,52.189],[-121.975,52.462],[-121.77,52.553],[-121.566,52.758],[-121.543,52.894],[-121.679,53.053],[-122.225,53.008],[-123.248,52.849],[-123.635,52.894],[-124.158,53.19],[-124.362,53.644],[-124.453,54.076],[-124.453,54.44],[-124.294,54.69],[-124.021,54.849],[-123.635,54.827],[-123.157,54.759],[-122.725,54.736],[-122.452,54.759],[-122.407,54.918],[-122.43,55.031],[-122.816,55.259],[-123.271,55.191],[-123.453,55.259],[-123.567,55.395],[-123.612,55.486],[-123.274,55.71],[-122.017,56.012],[-121.61,56.373],[-121.773,56.723],[-122.355,57.27],[-122.564,57.735],[-122.145,58.271],[-121.714,58.76],[-121.4,58.958],[-121.447,59.167],[-121.761,59.179],[-122.623,59.086],[-123.519,59.33],[-123.531,59.831],[-122.771,60.443],[-122.043,60.625],[-121.316,60.898],[-121.065,61.102],[-120.747,61.671],[-120.565,61.944],[-119.065,62.376],[-118.291,62.626],[-117.587,62.944],[-116.995,63.467],[-116.583,64.417],[-116.797,65.056],[-117.294,65.696],[-117.933,66.477],[-118.111,67.259],[-118.004,67.969],[-117.081,68.716],[-115.944,69.035],[-113.421,69.213],[-110.508,68.822],[-107.631,68.147],[-106.813,67.898],[-105.215,67.898],[-104.433,68.005],[-103.723,68.431],[-103.474,68.822],[-103.545,69.746],[-103.9,70.634],[-104.326,72.304],[-103.9,73.405],[-102.728,74.116],[-101.626,74.4],[-100.028,74.542],[-98.251,74.684],[-96.83,74.613],[-95.658,74.151],[-95.196,73.902],[-94.343,73.121],[-94.13,73.014],[-93.827,72.467]]]}},{"type":"Feature","properties":{"density":2},"geometry":{"type":"Polygon","coordinates":[[[-123.474,41.299],[-123.581,41.144],[-123.694,41.06],[-123.766,41.066],[-123.826,41.126],[-124.022,41.126],[-124.124,41.054],[-124.612,40.333],[-124.726,40.035],[-124.886,39.689],[-125.292,39.385],[-125.459,39.379],[-125.554,39.445],[-125.679,39.725],[-125.643,40.089],[-125.5,40.607],[-125.173,41.275],[-124.915,41.929],[-124.805,42.406],[-124.576,42.673],[-124.347,42.777],[-124.333,42.367],[-124.357,42.196],[-124.29,42.077],[-123.837,42.11],[-123.751,42.029],[-123.685,41.814],[-123.575,41.8],[-123.48,41.833],[-123.38,41.776],[-123.375,41.476],[-123.474,41.299]]]}},{"type":"Feature","properties":{"density":2},"geometry":{"type":"Polygon","coordinates":[[[-123.485,47.879],[-123.405,47.712],[-123.413,47.681],[-123.455,47.647],[-123.504,47.643],[-123.603,47.689],[-123.63,47.811],[-123.603,47.86],[-123.561,47.887],[-123.516,47.887],[-123.485,47.879]]]}},{"type":"Feature","properties":{"density":2},"geometry":{"type":"Polygon","coordinates":[[[-116.722,51.282],[-115.434,50.838],[-113.302,49.15],[-111.348,48.04],[-109.572,47.418],[-107.041,47.285],[-105.087,47.729],[-104.199,47.729],[-102.111,46.974],[-100.779,45.642],[-99.536,43.421],[-98.203,40.757],[-97.448,38.936],[-96.471,37.915],[-92.919,34.406],[-92.519,33.252],[-92.297,32.053],[-91.897,31.786],[-90.876,31.831],[-90.254,32.363],[-88.922,33.607],[-86.346,35.739],[-85.28,36.671],[-84.925,38.625],[-85.591,40.535],[-87.456,41.601],[-90.121,42.133],[-92.075,41.911],[-93.23,41.823],[-95.139,42.4],[-96.072,43.288],[-96.871,44.709],[-97.493,45.375],[-98.603,47.907],[-99.136,49.239],[-102.778,51.06],[-104.376,51.593],[-105.531,52.658],[-105.709,53.635],[-104.643,54.612],[-103.621,54.701],[-103.177,54.701],[-100.157,53.191],[-98.781,51.415],[-96.072,49.639],[-94.784,48.884],[-94.517,49.861],[-90.476,49.194],[-87.146,50.482],[-83.637,52.303],[-81.506,53.991],[-79.907,56.033],[-79.507,58.298],[-79.33,61.096],[-80.262,63.05],[-79.729,64.871],[-78.974,65.004],[-77.242,64.205],[-76.443,61.673],[-77.154,59.275],[-77.42,57.366],[-76.576,56.3],[-74.622,56.744],[-73.201,58.298],[-72.979,62.029],[-73.601,63.494],[-74.311,66.025],[-76.261,68.913],[-79.285,70.733],[-81.718,71.323],[-83.036,71.687],[-85.68,72.021],[-92.297,72.021],[-98.603,72.287],[-116.1,72.198],[-118.409,71.887],[-120.053,71.088],[-121.385,70.244],[-121.962,69.134],[-122.007,69.001],[-121.385,67.269],[-120.008,66.514],[-118.187,66.336],[-117.21,66.07],[-116.988,65.848],[-116.9,65.004],[-117.521,64.071],[-118.143,63.494],[-119.253,63.006],[-120.073,62.992],[-121.051,62.879],[-122.506,62.128],[-124.094,61.451],[-125.026,60.741],[-125.293,60.075],[-125.204,58.032],[-125.248,57.099],[-125.826,55.856],[-126.003,54.612],[-125.826,53.458],[-125.071,52.836],[-124.493,52.792],[-124.316,52.792],[-122.939,52.614],[-121.873,52.259],[-121.118,51.548],[-120.541,50.571],[-120.541,50.171],[-120.408,49.194],[-120.408,48.484],[-119.786,47.951],[-119.209,47.995],[-118.854,48.395],[-117.965,49.017],[-117.566,50.571],[-117.033,50.882],[-116.722,51.282]]]}},{"type":"Feature","properties":{"density":2},"geometry":{"type":"Polygon","coordinates":[[[-122.795,42.04],[-123.093,42.282],[-123.717,42.449],[-123.922,42.617],[-124.025,42.869],[-124.267,42.943],[-124.481,42.878],[-124.882,42.645],[-125.226,42.3],[-125.599,41.742],[-125.729,41.09],[-125.794,40.624],[-125.608,40.429],[-125.161,40.28],[-124.49,40.363],[-124.062,40.522],[-123.559,40.736],[-122.87,41.164],[-122.581,41.406],[-122.488,41.788],[-122.6,41.947],[-122.702,41.984],[-122.795,42.04]]]}},{"type":"Feature","properties":{"density":2},"geometry":{"type":"Polygon","coordinates":[[[-123.627,47.722],[-123.568,47.857],[-123.419,48.088],[-123.217,48.326],[-122.972,48.453],[-122.636,48.587],[-122.376,48.669],[-121.958,48.624],[-121.578,48.445],[-121.258,48.199],[-121.206,47.752],[-121.459,47.588],[-121.899,47.544],[-122.308,47.566],[-122.77,47.648],[-123.195,47.76],[-123.486,47.76],[-123.627,47.722]]]}},{"type":"Feature","properties":{"density":2},"geometry":{"type":"Polygon","coordinates":[[[-119.984,49.771],[-119.783,49.965],[-119.574,50.256],[-119.164,50.494],[-118.725,50.68],[-118.322,50.718],[-117.987,50.636],[-117.764,50.285],[-117.749,49.898],[-117.913,49.54],[-118.263,49.213],[-118.896,48.877],[-119.425,48.81],[-119.731,48.818],[-120.14,49.049],[-120.245,49.302],[-120.088,49.399],[-119.507,49.488],[-119.135,49.6],[-119.008,49.719],[-119.179,49.853],[-119.373,49.876],[-119.798,49.742],[-119.932,49.742],[-119.984,49.771]]]}},{"type":"Feature","properties":{"density":2},"geometry":{"type":"Polygon","coordinates":[[[-125.327,63.646],[-125.715,63.705],[-127.505,64.853],[-128.362,65.281],[-129.126,65.514],[-129.936,65.514],[-130.793,65.859],[-131.193,66.073],[-131.463,66.418],[-131.473,66.893],[-131.249,67.228],[-131.054,67.479],[-131.016,67.507],[-130.253,67.6],[-129.666,67.498],[-128.055,67.135],[-127.226,66.855],[-126.695,66.623],[-126.183,66.446],[-125.727,66.362],[-124.954,66.11],[-124.702,65.868],[-124.516,64.937],[-124.507,64.499],[-124.693,64.313],[-124.935,64.145],[-125.028,64.061],[-125.065,63.922],[-125.13,63.791],[-125.196,63.717],[-125.327,63.646]]]}},{"type":"Feature","properties":{"density":3},"geometry":{"type":"Polygon","coordinates":[[[-95.742,71.929],[-93.127,70.593],[-92.417,69.797],[-92.189,69.2],[-92.246,68.518],[-92.786,68.064],[-93.071,67.524],[-92.786,67.154],[-92.218,67.012],[-91.649,66.699],[-91.195,66.273],[-90.655,65.648],[-90.086,64.852],[-90.058,64.369],[-90.399,63.886],[-90.712,63.772],[-90.693,63.117],[-90.728,61.945],[-91.012,60.914],[-91.829,60.168],[-93.57,59.067],[-94.565,58.854],[-95.808,58.747],[-96.732,59.031],[-98.437,59.28],[-99.716,59.245],[-100.427,59.031],[-101.351,58.285],[-101.813,58.001],[-102.63,57.752],[-104.015,57.752],[-104.577,57.575],[-104.886,56.993],[-104.614,56.666],[-104.686,56.265],[-105.117,56.149],[-105.652,56.032],[-106.304,55.916],[-106.642,55.881],[-107.259,55.869],[-108.016,55.823],[-109.238,55.916],[-110.495,56.044],[-111.22,56.253],[-112.101,56.338],[-112.897,56.139],[-113.295,55.599],[-113.522,55.003],[-113.721,54.377],[-114.432,53.667],[-115.171,53.184],[-115.682,52.985],[-116.592,52.871],[-117.729,52.956],[-118.667,53.155],[-119.661,53.667],[-120.116,54.349],[-120.23,55.202],[-120.23,56.196],[-119.917,57.248],[-119.42,58.03],[-118.911,58.739],[-119.056,59.194],[-119.605,59.209],[-120.031,59.095],[-120.514,59.095],[-121.225,59.38],[-121.594,59.607],[-121.935,60.005],[-121.878,60.431],[-121.622,60.744],[-120.602,61.268],[-120.402,61.613],[-120.002,61.741],[-118.911,61.904],[-117.444,62.421],[-116.592,63.074],[-116.336,63.501],[-115.768,64.552],[-115.995,65.917],[-115.967,66.712],[-115.739,67.565],[-115.171,68.077],[-114.261,68.418],[-112.897,68.531],[-111.078,68.276],[-107.099,67.167],[-105.905,66.968],[-102.677,65.818],[-101.995,66.415],[-101.995,67.097],[-102.904,69.627],[-103.814,70.906],[-103.899,72.156],[-103.489,72.795],[-101.926,73.505],[-100.363,73.732],[-98.231,73.96],[-97.038,73.732],[-96.043,73.05],[-95.929,72.937],[-95.742,71.929]]]}},{"type":"Feature","properties":{"density":3},"geometry":{"type":"Polygon","coordinates":[[[-124.383,42.739],[-124.476,42.19],[-124.476,41.706],[-124.504,41.603],[-124.597,41.519],[-124.662,41.529],[-124.746,41.752],[-124.755,42.087],[-124.718,42.292],[-124.606,42.488],[-124.438,42.711],[-124.383,42.739]]]}},{"type":"Feature","properties":{"density":3},"geometry":{"type":"Polygon","coordinates":[[[-124.716,54.168],[-124.627,54.746],[-124.005,55.989],[-123.072,56.078],[-122.317,55.19],[-121.873,54.346],[-121.873,53.547],[-122.051,52.57],[-122.14,52.347],[-122.717,52.436],[-123.561,52.792],[-124.094,52.88],[-124.938,53.058],[-125.337,53.236],[-125.293,53.902],[-124.716,54.168]]]}},{"type":"Feature","properties":{"density":3},"geometry":{"type":"Polygon","coordinates":[[[-122.984,60.163],[-122.806,61.673],[-122.229,62.073],[-121.296,62.473],[-118.987,62.473],[-118.365,62.961],[-118.01,63.494],[-117.521,64.16],[-117.033,64.56],[-116.411,65.226],[-116.322,65.493],[-116.322,66.292],[-116.5,66.78],[-116.944,67.891],[-116.544,69.178],[-114.946,70.111],[-110.682,69.933],[-103.577,68.734],[-101.09,68.201],[-97.848,68.823],[-96.116,69.845],[-94.917,70.644],[-92.563,71.266],[-89.677,71.577],[-87.501,71.71],[-84.792,71.577],[-82.749,71.177],[-82.705,70.688],[-82.705,70.111],[-83.46,69.267],[-83.948,68.557],[-84.392,67.846],[-84.215,66.647],[-83.104,65.093],[-82.882,64.693],[-82.083,62.872],[-81.55,60.652],[-81.95,59.808],[-83.104,58.431],[-83.859,57.943],[-84.17,57.543],[-85.28,57.188],[-86.613,58.165],[-86.524,59.364],[-86.08,60.474],[-85.724,61.762],[-86.035,63.316],[-86.346,63.405],[-87.146,63.316],[-87.634,62.562],[-87.812,61.718],[-88.433,60.385],[-89.1,59.364],[-90.654,58.476],[-93.407,57.943],[-96.871,57.632],[-100.113,57.543],[-102.245,57.543],[-105.087,57.588],[-105.531,57.632],[-107.796,57.144],[-109.172,56.211],[-109.883,55.056],[-110.061,53.502],[-110.105,52.303],[-110.283,51.948],[-111.615,51.548],[-113.48,51.504],[-115.567,52.17],[-116.056,52.214],[-119.386,53.324],[-120.186,54.079],[-120.23,55.412],[-120.319,55.767],[-121.296,56.478],[-122.14,56.833],[-122.717,57.366],[-123.117,58.52],[-123.25,59.497],[-122.984,60.163]]]}},{"type":"Feature","properties":{"density":3},"geometry":{"type":"Polygon","coordinates":[[[-123.527,47.753],[-123.518,47.854],[-123.447,47.939],[-123.371,47.988],[-123.313,47.994],[-123.252,47.973],[-123.148,47.906],[-123.115,47.86],[-123.124,47.796],[-123.206,47.75],[-123.46,47.744],[-123.527,47.753]]]}},{"type":"Feature","properties":{"density":3},"geometry":{"type":"Polygon","coordinates":[[[-124.38,42.758],[-124.451,42.697],[-124.512,42.443],[-124.515,42.291],[-124.496,42.23],[-124.432,42.211],[-124.377,42.257],[-124.377,42.367],[-124.277,42.486],[-124.237,42.629],[-124.249,42.706],[-124.274,42.749],[-124.319,42.782],[-124.38,42.758]]]}},{"type":"Feature","properties":{"density":3},"geometry":{"type":"Polygon","coordinates":[[[-123.749,41.879],[-123.855,41.839],[-123.971,41.827],[-124.051,41.781],[-124.078,41.744],[-124.075,41.61],[-123.953,41.442],[-123.727,41.351],[-123.633,41.372],[-123.587,41.528],[-123.483,41.629],[-123.514,41.693],[-123.578,41.711],[-123.669,41.659],[-123.727,41.644],[-123.767,41.674],[-123.709,41.784],[-123.752,41.87],[-123.749,41.879]]]}},{"type":"Feature","properties":{"density":3},"geometry":{"type":"Polygon","coordinates":[[[-124.922,64.795],[-125.029,64.799],[-125.205,64.944],[-125.453,65.051],[-125.525,65.135],[-125.506,65.188],[-125.403,65.238],[-125.22,65.272],[-125.025,65.234],[-124.873,65.112],[-124.797,64.975],[-124.777,64.814],[-124.838,64.795],[-124.922,64.795]]]}},{"type":"Feature","properties":{"density":3},"geometry":{"type":"Polygon","coordinates":[[[-125.743,64.81],[-125.781,64.975],[-125.888,65.07],[-125.952,65.058],[-125.975,65.005],[-125.933,64.906],[-125.819,64.799],[-125.773,64.776],[-125.743,64.81]]]}}]}