{"type":"FeatureCollection","features":[{"type":"Feature","properties":{"density":1},"geometry":{"type":"Polygon","coordinates":[[[-112.032,35.825],[-112.104,35.622],[-112.271,35.336],[-112.569,35.086],[-112.867,34.931],[-113.242,34.776],[-113.671,34.651],[-114.255,34.561],[-114.822,34.496],[-114.917,34.597],[-115.06,34.901],[-114.977,35.241],[-114.583,35.73],[-114.047,36.057],[-113.169,36.376],[-112.803,36.407],[-112.459,36.212],[-112.11,35.956],[-112.044,35.885],[-112.032,35.825]]]}},{"type":"Feature","properties":{"density":1},"geometry":{"type":"Polygon","coordinates":[[[-117.23,33.82],[-117.369,33.854],[-117.476,33.908],[-117.474,33.974],[-117.396,33.957],[-117.242,33.839],[-117.23,33.82]]]}},{"type":"Feature","properties":{"density":1},"geometry":{"type":"Polygon","coordinates":[[[-117.059,33.839],[-117.149,33.881],[-117.181,33.947],[-117.154,33.966],[-117.059,33.859],[-117.059,33.839]]]}},{"type":"Feature","properties":{"density":1},"geometry":{"type":"Polygon","coordinates":[[[-118.973,37.355],[-119.153,37.377],[-119.287,37.3],[-119.382,37.313],[-119.424,37.371],[-119.412,37.511],[-119.275,37.624],[-119.092,37.633],[-119.0,37.572],[-118.945,37.505],[-118.924,37.425],[-118.939,37.383],[-118.973,37.355]]]}},{"type":"Feature","properties":{"density":1},"geometry":{"type":"Polygon","coordinates":[[[-119.546,37.755],[-119.669,37.578],[-119.873,37.499],[-120.12,37.563],[-120.169,37.615],[-120.227,37.734],[-120.311,38.027],[-120.245,38.375],[-120.135,38.651],[-119.936,39.323],[-119.864,39.645],[-119.745,39.836],[-119.572,40.193],[-119.531,40.527],[-119.435,40.634],[-119.221,40.694],[-118.857,40.73],[-118.452,40.593],[-118.19,40.33],[-118.077,39.988],[-118.163,39.75],[-118.325,39.502],[-119.21,38.302],[-119.366,38.153],[-119.492,37.989],[-119.526,37.863],[-119.546,37.755]]]}},{"type":"Feature","properties":{"density":1},"geometry":{"type":"Polygon","coordinates":[[[-123.625,42.113],[-123.826,41.837],[-123.93,41.435],[-123.997,40.98],[-124.005,40.302],[-123.93,39.855],[-123.811,38.797],[-123.841,38.373],[-124.005,38.201],[-124.288,38.172],[-124.526,38.514],[-124.779,39.148],[-124.884,39.826],[-125.018,40.548],[-125.048,41.122],[-124.973,41.569],[-124.735,41.964],[-124.332,42.344],[-124.273,42.493],[-124.079,42.672],[-123.528,43.119],[-122.269,44.303],[-121.196,45.078],[-119.73,45.91],[-118.202,46.515],[-116.563,46.888],[-115.157,46.99],[-114.291,46.897],[-113.974,46.841],[-113.406,46.366],[-113.034,45.5],[-113.22,45.118],[-113.667,44.979],[-114.254,44.885],[-116.666,45.006],[-118.221,45.118],[-119.143,45.053],[-119.953,44.885],[-120.875,44.41],[-121.797,43.87],[-122.133,43.554],[-122.561,43.107],[-123.343,42.445],[-123.625,42.113]]]}},{"type":"Feature","properties":{"density":1},"geometry":{"type":"Polygon","coordinates":[[[-96.062,71.795],[-92.368,70.41],[-87.252,68.918],[-82.669,68.171],[-77.588,67.745],[-72.259,67.212],[-67.072,67.603],[-58.137,68.519],[-51.032,68.685],[-43.316,68.352],[-38.32,68.297],[-31.769,67.742],[-28.605,67.408],[-24.497,66.631],[-20.112,64.522],[-19.113,62.246],[-19.613,60.192],[-19.202,57.2],[-17.259,54.202],[-12.651,52.87],[-7.988,51.871],[-6.212,50.316],[-6.767,45.542],[-7.711,41.268],[-9.043,36.494],[-10.264,33.885],[-11.763,31.776],[-13.706,30.776],[-16.926,30.776],[-26.252,33.441],[-30.204,36.725],[-33.179,39.345],[-37.576,41.299],[-41.928,42.676],[-43.438,42.72],[-44.415,42.099],[-45.214,41.166],[-45.214,39.345],[-45.658,37.436],[-47.124,35.304],[-48.856,33.661],[-54.451,29.398],[-56.716,28.154],[-59.247,27.133],[-61.734,26.733],[-63.91,27.71],[-66.22,28.998],[-67.463,30.508],[-67.996,32.773],[-68.929,36.103],[-68.129,40.633],[-66.797,43.253],[-65.109,47.383],[-64.532,49.382],[-65.198,50.758],[-65.909,51.513],[-68.573,52.357],[-69.906,52.712],[-71.416,52.845],[-72.837,52.179],[-73.991,50.891],[-76.878,46.406],[-78.654,43.12],[-79.32,41.832],[-79.986,40.589],[-79.986,39.789],[-80.164,38.901],[-80.297,38.013],[-80.697,36.459],[-81.408,35.704],[-81.852,34.771],[-82.029,33.927],[-81.718,33.261],[-81.23,33.083],[-80.253,32.817],[-79.942,32.417],[-79.853,31.751],[-81.185,30.33],[-82.74,29.575],[-84.427,28.909],[-88.113,29.042],[-89.89,29.042],[-92.021,29.398],[-93.398,29.398],[-95.219,28.953],[-96.285,28.421],[-97.084,27.532],[-97.306,25.312],[-97.617,23.58],[-97.572,22.647],[-97.262,21.049],[-96.329,20.027],[-95.219,19.45],[-93.62,19.006],[-92.776,18.695],[-92.288,18.34],[-92.154,17.762],[-92.377,17.452],[-93.043,17.274],[-96.107,16.697],[-98.86,15.453],[-101.48,14.032],[-102.901,13.499],[-104.545,13.322],[-107.964,13.721],[-108.985,14.254],[-110.362,14.698],[-111.206,14.876],[-112.139,14.565],[-113.293,13.677],[-114.803,12.567],[-115.158,12.433],[-116.846,12.167],[-118.578,12.167],[-119.599,13.41],[-121.553,16.164],[-122.219,19.761],[-121.154,22.559],[-119.688,24.868],[-118.045,26.289],[-115.691,27.222],[-114.093,27.31],[-113.027,27.399],[-111.916,27.31],[-110.14,27.932],[-109.252,28.643],[-108.941,29.797],[-109.119,30.774],[-109.43,31.44],[-110.451,31.574],[-112.183,31.662],[-114.625,31.307],[-116.713,31.307],[-118.267,31.84],[-119.599,32.773],[-119.732,33.439],[-119.555,34.149],[-118.755,34.549],[-115.371,35.935],[-113.56,36.432],[-112.814,36.396],[-112.21,36.006],[-111.073,34.798],[-110.433,34.016],[-109.296,33.838],[-108.515,33.519],[-107.769,33.519],[-107.094,34.052],[-106.241,34.94],[-105.602,35.935],[-105.175,36.823],[-104.749,38.492],[-104.82,39.096],[-105.175,39.594],[-105.069,40.127],[-105.069,40.624],[-105.282,41.122],[-105.602,41.37],[-107.236,41.654],[-108.053,42.116],[-109.19,42.614],[-109.581,43.147],[-109.865,44.035],[-110.469,44.71],[-112.103,46.095],[-114.519,47.872],[-115.265,47.978],[-116.544,48.085],[-117.183,48.369],[-117.539,48.795],[-117.503,49.577],[-117.645,49.897],[-118.391,50.11],[-118.96,50.074],[-120.274,50.074],[-121.127,49.968],[-121.376,49.855],[-121.522,49.892],[-121.631,49.946],[-121.904,50.419],[-122.039,50.593],[-122.249,50.628],[-122.412,50.616],[-122.982,50.838],[-123.273,51.129],[-123.623,51.35],[-124.053,51.431],[-124.321,51.361],[-124.589,51.257],[-125.229,50.709],[-128.966,47.233],[-131.836,44.874],[-133.456,43.566],[-136.185,42.003],[-139.311,41.094],[-141.755,41.463],[-142.807,42.572],[-143.518,44.675],[-143.859,48.398],[-142.295,54.168],[-140.533,59.681],[-139.283,64.428],[-138.999,66.105],[-138.913,67.299],[-138.345,68.379],[-137.208,69.061],[-127.118,71.96],[-121.519,73.153],[-115.181,74.12],[-110.293,74.432],[-105.035,73.58],[-101.738,72.784],[-96.062,71.795]]]}},{"type":"Feature","properties":{"density":1},"geometry":{"type":"Polygon","coordinates":[[[-93.187,29.801],[-93.174,29.877],[-93.14,29.948],[-92.914,30.153],[-92.802,30.225],[-92.757,30.218],[-92.764,30.16],[-93.0,29.986],[-93.126,29.836],[-93.14,29.798],[-93.163,29.781],[-93.177,29.805],[-93.187,29.801]]]}},{"type":"Feature","properties":{"density":1},"geometry":{"type":"Polygon","coordinates":[[[-92.976,29.846],[-92.976,29.877],[-92.914,29.982],[-92.826,30.095],[-92.757,30.146],[-92.621,30.163],[-92.56,30.126],[-92.512,29.914],[-92.444,29.853],[-92.358,29.812],[-92.317,29.747],[-92.331,29.685],[-92.389,29.641],[-92.508,29.641],[-92.716,29.767],[-92.798,29.846],[-92.969,29.812],[-92.972,29.839],[-92.976,29.846]]]}},{"type":"Feature","properties":{"density":1},"geometry":{"type":"Polygon","coordinates":[[[-94.505,30.384],[-94.44,30.425],[-94.14,30.418],[-93.976,30.486],[-93.792,30.616],[-93.72,30.646],[-93.621,30.646],[-93.553,30.544],[-93.536,30.448],[-93.539,30.309],[-93.591,30.162],[-93.666,30.066],[-93.741,30.025],[-93.922,30.019],[-94.235,30.155],[-94.481,30.319],[-94.505,30.38],[-94.505,30.384]]]}},{"type":"Feature","properties":{"density":1},"geometry":{"type":"Polygon","coordinates":[[[-98.146,25.897],[-98.828,26.508],[-99.005,26.777],[-99.05,26.91],[-99.036,27.023],[-98.964,27.047],[-98.889,27.023],[-98.767,26.934],[-98.487,26.6],[-98.357,26.439],[-98.18,26.071],[-98.125,25.9],[-98.146,25.897]]]}},{"type":"Feature","properties":{"density":1},"geometry":{"type":"Polygon","coordinates":[[[-98.869,26.218],[-99.121,26.347],[-99.237,26.453],[-99.326,26.586],[-99.36,26.685],[-99.34,26.815],[-99.306,26.873],[-99.231,26.852],[-99.169,26.811],[-98.862,26.235],[-98.869,26.218]]]}},{"type":"Feature","properties":{"density":1},"geometry":{"type":"Polygon","coordinates":[[[-107.625,32.105],[-107.659,32.126],[-107.684,32.118],[-107.731,32.071],[-107.74,32.011],[-107.727,31.964],[-107.684,31.939],[-107.646,31.939],[-107.616,31.994],[-107.616,32.088],[-107.625,32.105]]]}},{"type":"Feature","properties":{"density":1},"geometry":{"type":"Polygon","coordinates":[[[-108.367,33.568],[-108.397,33.615],[-108.491,33.67],[-108.567,33.67],[-108.738,33.627],[-108.815,33.534],[-108.84,33.427],[-108.84,32.89],[-108.823,32.693],[-108.738,32.561],[-108.648,32.484],[-108.431,32.472],[-108.337,32.642],[-108.277,32.962],[-108.354,33.551],[-108.367,33.568]]]}},{"type":"Feature","properties":{"density":1},"geometry":{"type":"Polygon","coordinates":[[[-109.207,33.807],[-109.254,33.828],[-109.348,33.811],[-109.518,33.734],[-109.646,33.581],[-109.77,33.41],[-109.817,33.29],[-109.83,33.18],[-109.796,33.073],[-109.702,33.009],[-109.629,33.0],[-109.527,33.086],[-109.241,33.478],[-109.186,33.7],[-109.194,33.789],[-109.207,33.807]]]}},{"type":"Feature","properties":{"density":1},"geometry":{"type":"Polygon","coordinates":[[[-112.018,35.815],[-111.898,35.781],[-111.766,35.794],[-111.732,35.884],[-111.736,35.952],[-111.817,36.012],[-111.851,36.076],[-111.856,36.169],[-111.911,36.246],[-111.966,36.289],[-112.12,36.272],[-112.21,36.208],[-112.278,36.131],[-112.35,36.093],[-112.512,36.101],[-112.61,36.161],[-112.7,36.186],[-112.819,36.169],[-112.943,36.063],[-112.909,35.722],[-112.913,35.559],[-112.96,35.308],[-112.913,35.193],[-112.798,35.124],[-112.602,35.133],[-112.465,35.205],[-112.372,35.286],[-112.316,35.397],[-112.316,35.606],[-112.303,35.645],[-112.239,35.645],[-112.188,35.577],[-112.133,35.568],[-111.817,35.628],[-111.809,35.67],[-111.86,35.717],[-112.005,35.794],[-112.018,35.815]]]}},{"type":"Feature","properties":{"density":1},"geometry":{"type":"Polygon","coordinates":[[[-122.24,45.257],[-121.808,45.161],[-121.691,45.145],[-121.264,45.14],[-121.211,45.108],[-121.232,45.049],[-121.483,45.033],[-121.92,45.049],[-122.208,45.156],[-122.245,45.23],[-122.24,45.257]]]}},{"type":"Feature","properties":{"density":1},"geometry":{"type":"Polygon","coordinates":[[[-114.946,46.39],[-114.96,46.483],[-114.86,46.59],[-114.613,46.763],[-114.14,47.03],[-114.013,47.07],[-113.86,47.056],[-113.807,47.003],[-113.833,46.917],[-113.953,46.77],[-114.24,46.57],[-114.746,46.363],[-114.94,46.37],[-114.946,46.39]]]}},{"type":"Feature","properties":{"density":1},"geometry":{"type":"Polygon","coordinates":[[[-110.461,42.312],[-110.335,42.358],[-109.742,42.365],[-108.895,42.238],[-108.429,42.058],[-107.336,41.479],[-107.256,41.419],[-107.196,41.285],[-107.343,41.252],[-109.582,41.819],[-110.421,42.198],[-110.461,42.238],[-110.461,42.325],[-110.461,42.312]]]}},{"type":"Feature","properties":{"density":1},"geometry":{"type":"Polygon","coordinates":[[[-108.289,40.093],[-108.196,40.113],[-108.002,40.099],[-107.862,40.059],[-107.729,39.966],[-107.703,39.873],[-107.709,39.813],[-107.809,39.786],[-107.976,39.866],[-108.109,39.899],[-108.269,39.993],[-108.296,40.033],[-108.289,40.073],[-108.289,40.093]]]}},{"type":"Feature","properties":{"density":1},"geometry":{"type":"Polygon","coordinates":[[[-124.97,49.956],[-123.083,49.112],[-119.657,48.913],[-117.77,49.161],[-115.089,48.814],[-112.557,47.076],[-110.174,45.289],[-107.989,43.7],[-105.755,42.409],[-103.173,40.969],[-102.13,40.125],[-101.882,39.827],[-102.081,38.139],[-102.13,36.203],[-102.379,34.068],[-103.173,33.372],[-105.01,33.124],[-106.649,33.273],[-108.784,34.217],[-109.826,35.507],[-111.117,36.898],[-112.607,37.394],[-115.089,36.898],[-116.877,37.096],[-118.466,37.791],[-120.203,38.486],[-121.395,38.586],[-122.14,37.891],[-122.289,35.905],[-121.097,34.365],[-119.806,32.926],[-117.671,31.436],[-116.529,30.542],[-114.692,30.046],[-112.408,29.003],[-110.819,27.563],[-110.571,27.166],[-110.075,26.471],[-109.826,25.13],[-109.777,23.591],[-109.826,22.648],[-109.379,20.314],[-108.138,17.832],[-106.152,15.647],[-103.372,13.512],[-100.74,13.016],[-98.208,13.363],[-94.931,14.753],[-92.995,16.094],[-90.81,17.435],[-89.023,18.279],[-87.583,19.52],[-86.739,21.456],[-87.781,21.854],[-89.619,21.605],[-90.413,20.86],[-90.909,19.719],[-92.101,18.974],[-93.988,18.775],[-95.527,19.272],[-97.066,20.86],[-97.662,23.293],[-97.463,25.18],[-96.768,26.868],[-95.477,28.06],[-94.137,28.904],[-92.3,29.202],[-91.505,29.202],[-90.363,28.805],[-88.824,28.209],[-86.5,27.594],[-81.975,27.263],[-78.492,27.594],[-74.376,31.138],[-73.681,33.025],[-72.837,34.812],[-71.297,38.586],[-71.297,46.877],[-71.148,48.119],[-70.602,49.41],[-69.709,50.75],[-68.666,51.346],[-66.978,52.091],[-64.247,52.438],[-62.41,51.892],[-55.707,50.8],[-53.82,50.204],[-51.239,49.608],[-49.799,49.062],[-45.529,48.317],[-42.649,46.48],[-38.23,43.551],[-35.698,41.019],[-32.62,37.295],[-32.024,36.6],[-31.031,35.358],[-28.449,34.117],[-25.023,33.075],[-21.796,32.379],[-19.015,32.181],[-15.49,32.181],[-11.866,34.068],[-9.532,38.437],[-8.886,42.558],[-7.695,48.516],[-7.745,49.41],[-8.191,50.701],[-9.532,52.289],[-11.319,53.431],[-14.894,54.921],[-17.128,56.659],[-18.171,58.545],[-18.668,61.425],[-18.568,63.51],[-18.072,65.447],[-17.675,67.482],[-17.277,70.164],[-17.873,71.107],[-19.263,71.405],[-21.647,71.057],[-28.101,70.511],[-31.329,69.866],[-35.201,69.369],[-42.152,66.837],[-44.536,65.447],[-47.167,64.354],[-48.458,64.057],[-50.444,64.255],[-52.976,64.801],[-53.82,65.0],[-59.481,67.83],[-64.446,69.568],[-66.829,70.362],[-69.212,70.958],[-71.546,71.256],[-73.631,71.355],[-76.511,72.001],[-80.532,72.497],[-89.42,71.901],[-92.002,71.752],[-96.123,71.653],[-105.308,72.1],[-112.954,72.597],[-116.926,72.547],[-121.296,72.745],[-126.211,73.093],[-132.318,72.845],[-134.602,72.348],[-137.73,71.107],[-142.546,66.936],[-143.539,65.447],[-143.787,64.354],[-143.39,63.064],[-141.851,61.673],[-139.716,59.836],[-136.092,58.198],[-132.715,55.616],[-130.084,53.978],[-128.197,52.339],[-127.055,51.396],[-125.168,50.105],[-124.97,49.956]]]}},{"type":"Feature","properties":{"density":1},"geometry":{"type":"Polygon","coordinates":[[[-124.463,42.526],[-124.306,42.799],[-123.903,43.216],[-122.966,44.4],[-122.237,44.973],[-121.612,45.402],[-120.623,45.936],[-119.608,46.248],[-119.139,46.443],[-118.332,46.6],[-117.642,46.678],[-116.848,46.717],[-115.651,46.495],[-115.0,46.248],[-114.636,45.832],[-114.506,45.311],[-114.506,45.194],[-114.896,44.608],[-115.599,44.348],[-117.382,44.009],[-120.389,43.085],[-121.937,42.721],[-122.471,42.539],[-122.927,42.304],[-123.096,41.875],[-123.239,41.563],[-123.265,40.86],[-123.369,40.118],[-123.356,39.519],[-123.2,38.972],[-123.005,38.4],[-122.77,37.905],[-122.692,37.632],[-122.64,37.254],[-122.849,36.812],[-123.135,36.382],[-123.76,35.992],[-124.228,35.94],[-124.723,36.525],[-124.749,37.033],[-124.632,38.126],[-124.515,39.038],[-124.463,40.547],[-124.463,41.328],[-124.502,41.758],[-124.502,42.461],[-124.463,42.526]]]}},{"type":"Feature","properties":{"density":2},"geometry":{"type":"Polygon","coordinates":[[[-112.058,35.83],[-112.161,35.822],[-112.183,35.838],[-112.136,35.859],[-112.038,35.842],[-112.058,35.83]]]}},{"type":"Feature","properties":{"density":2},"geometry":{"type":"Polygon","coordinates":[[[-119.539,37.783],[-119.563,37.754],[-119.614,37.754],[-119.623,37.785],[-119.604,37.807],[-119.584,37.815],[-119.551,37.797],[-119.539,37.783]]]}},{"type":"Feature","properties":{"density":2},"geometry":{"type":"Polygon","coordinates":[[[-118.38,45.32],[-119.248,45.234],[-119.825,45.101],[-120.097,44.991],[-120.769,44.562],[-121.146,44.29],[-121.847,43.937],[-122.19,43.651],[-122.705,43.146],[-122.862,43.084],[-123.067,42.965],[-123.215,42.831],[-123.311,42.769],[-123.454,42.631],[-123.649,42.526],[-123.721,42.469],[-123.725,42.383],[-123.64,42.297],[-123.654,42.149],[-123.702,42.044],[-123.902,42.001],[-124.002,41.896],[-124.15,41.849],[-124.25,41.896],[-124.312,42.006],[-124.35,42.173],[-124.312,42.283],[-124.245,42.383],[-124.245,42.45],[-124.212,42.516],[-123.811,42.76],[-123.334,43.098],[-122.839,43.594],[-122.128,44.2],[-121.804,44.452],[-121.389,44.638],[-120.941,44.939],[-120.302,45.334],[-119.677,45.582],[-119.281,45.664],[-118.909,45.692],[-118.433,45.683],[-118.051,45.625],[-117.956,45.54],[-117.98,45.435],[-118.065,45.382],[-118.28,45.33],[-118.38,45.32]]]}},{"type":"Feature","properties":{"density":2},"geometry":{"type":"Polygon","coordinates":[[[-136.158,61.813],[-136.13,61.187],[-136.243,60.591],[-136.499,60.164],[-137.38,59.738],[-138.034,59.511],[-138.517,59.226],[-138.943,58.573],[-139.284,57.663],[-139.853,56.043],[-140.308,53.94],[-140.478,52.775],[-140.791,51.609],[-141.246,50.87],[-141.7,50.87],[-141.7,51.24],[-141.274,53.57],[-140.706,57.18],[-139.733,59.665],[-139.097,60.893],[-138.574,62.257],[-137.187,63.849],[-136.709,64.622],[-136.618,65.441],[-137.141,66.145],[-138.119,67.191],[-137.983,67.896],[-137.664,68.328],[-134.686,68.383],[-132.321,68.383],[-130.207,68.724],[-127.614,69.633],[-125.636,70.384],[-123.567,71.361],[-120.702,72.271],[-117.269,72.998],[-113.699,73.317],[-110.357,73.294],[-105.299,72.491],[-101.258,70.359],[-97.527,68.583],[-95.174,67.206],[-93.086,66.718],[-90.555,65.519],[-89.667,64.542],[-89.889,63.52],[-90.599,62.81],[-92.243,62.455],[-93.442,61.7],[-94.596,60.678],[-95.706,59.746],[-96.106,58.769],[-97.35,57.303],[-99.037,56.06],[-100.103,55.393],[-102.235,54.861],[-103.123,54.727],[-103.567,54.461],[-103.611,53.972],[-103.078,53.306],[-101.124,52.152],[-96.417,48.954],[-94.612,47.867],[-92.906,47.389],[-90.974,47.116],[-88.154,47.253],[-86.699,48.049],[-86.176,48.89],[-85.835,49.254],[-84.653,49.868],[-84.016,50.754],[-83.698,51.641],[-83.607,52.619],[-83.561,53.915],[-83.811,54.529],[-84.493,55.461],[-85.176,56.007],[-86.062,56.439],[-87.586,56.666],[-88.873,56.987],[-88.759,57.499],[-86.214,59.115],[-82.439,60.114],[-79.497,60.78],[-75.667,61.557],[-70.726,62.668],[-66.474,63.095],[-59.946,63.806],[-55.771,64.472],[-50.753,64.517],[-47.778,63.895],[-46.135,62.651],[-43.896,57.695],[-43.648,56.061],[-44.287,55.351],[-48.018,54.214],[-53.773,53.219],[-57.077,53.077],[-61.66,52.579],[-68.126,53.112],[-70.826,54.249],[-72.567,54.001],[-74.279,51.621],[-76.166,48.901],[-77.859,45.815],[-79.053,43.294],[-80.691,40.264],[-82.19,37.293],[-83.429,36.027],[-84.714,35.058],[-86.334,34.015],[-87.453,33.42],[-88.647,32.988],[-89.643,32.68],[-90.165,32.578],[-90.714,32.448],[-91.142,32.196],[-91.534,32.122],[-92.279,32.075],[-92.856,32.159],[-93.314,32.329],[-93.508,32.531],[-93.48,32.774],[-93.285,33.044],[-92.735,33.425],[-92.567,33.677],[-92.567,33.807],[-92.679,34.059],[-93.08,34.375],[-93.918,34.832],[-94.987,35.073],[-97.501,35.527],[-98.316,35.829],[-98.956,36.365],[-99.701,37.215],[-99.725,37.774],[-99.515,38.286],[-98.956,39.101],[-98.491,39.648],[-98.304,40.055],[-98.246,40.416],[-98.328,40.637],[-98.537,40.824],[-99.143,41.138],[-101.168,41.476],[-101.89,41.429],[-102.682,41.417],[-103.438,41.429],[-104.533,41.522],[-104.917,41.569],[-105.18,41.673],[-105.318,41.749],[-105.533,41.768],[-105.708,41.825],[-106.384,41.941],[-106.896,41.999],[-108.293,42.349],[-109.084,42.907],[-109.224,43.303],[-109.189,43.583],[-109.061,43.699],[-109.049,43.978],[-109.212,44.211],[-109.399,44.328],[-109.783,44.77],[-110.179,46.19],[-110.388,47.017],[-110.761,47.343],[-111.564,47.401],[-112.169,47.506],[-112.752,47.971],[-114.405,49.182],[-114.736,49.287],[-115.022,49.264],[-115.217,49.195],[-115.621,49.31],[-115.953,49.566],[-116.023,49.857],[-115.999,50.067],[-116.081,50.393],[-116.593,50.859],[-116.849,50.975],[-116.948,50.916],[-117.036,50.777],[-116.896,50.498],[-116.826,49.927],[-116.733,49.543],[-116.593,49.275],[-116.372,48.961],[-116.314,48.728],[-116.314,48.658],[-116.407,48.728],[-116.791,49.38],[-116.966,49.788],[-117.082,50.253],[-117.199,50.486],[-117.583,50.637],[-117.711,50.649],[-117.792,50.498],[-117.804,50.44],[-117.769,50.23],[-117.788,50.145],[-117.85,50.172],[-117.932,50.265],[-118.316,50.346],[-119.562,50.463],[-120.225,50.568],[-120.831,50.696],[-121.106,50.679],[-121.203,50.451],[-121.355,50.311],[-121.448,50.183],[-121.494,49.962],[-121.576,49.916],[-121.634,49.951],[-121.634,50.183],[-121.832,50.602],[-122.041,50.696],[-122.402,50.672],[-122.449,50.742],[-122.391,50.952],[-122.321,51.068],[-122.367,51.231],[-122.484,51.371],[-123.008,51.592],[-123.427,51.662],[-123.951,51.674],[-124.253,51.639],[-124.323,51.557],[-124.335,51.441],[-124.371,51.38],[-124.439,51.374],[-124.509,51.405],[-124.528,51.647],[-124.575,51.703],[-124.64,51.721],[-124.752,51.675],[-124.983,51.64],[-125.083,51.755],[-125.217,51.842],[-125.599,52.038],[-125.757,52.103],[-125.934,52.364],[-126.167,52.662],[-126.316,53.062],[-126.689,53.481],[-126.866,53.928],[-126.726,54.359],[-126.149,54.776],[-125.422,55.372],[-125.385,55.521],[-125.441,55.642],[-125.814,55.747],[-125.813,55.893],[-125.784,56.081],[-125.82,56.188],[-126.065,56.294],[-126.186,56.424],[-126.428,56.704],[-126.475,56.946],[-126.81,57.272],[-127.918,57.756],[-130.377,58.296],[-131.299,58.613],[-131.886,58.762],[-132.286,59.088],[-132.742,59.33],[-133.357,60.131],[-133.906,60.55],[-134.363,60.802],[-134.707,60.904],[-135.164,61.081],[-135.415,61.37],[-135.48,61.807],[-135.452,62.115],[-135.48,62.254],[-135.583,62.31],[-135.806,62.273],[-135.974,62.133],[-136.158,61.813]]]}},{"type":"Feature","properties":{"density":2},"geometry":{"type":"Polygon","coordinates":[[[-122.974,50.888],[-122.926,50.979],[-122.901,50.961],[-122.91,50.924],[-122.959,50.863],[-122.974,50.888]]]}},{"type":"Feature","properties":{"density":2},"geometry":{"type":"Polygon","coordinates":[[[-117.095,48.464],[-117.126,48.483],[-117.147,48.577],[-117.111,48.635],[-117.013,48.617],[-116.918,48.626],[-116.912,48.596],[-116.937,48.556],[-117.059,48.449],[-117.095,48.464]]]}},{"type":"Feature","properties":{"density":2},"geometry":{"type":"Polygon","coordinates":[[[-112.227,35.743],[-112.316,35.751],[-112.401,35.73],[-112.419,35.679],[-112.41,35.636],[-112.444,35.598],[-112.491,35.606],[-112.568,35.568],[-112.568,35.478],[-112.525,35.423],[-112.508,35.368],[-112.551,35.299],[-112.649,35.286],[-112.768,35.393],[-112.794,35.508],[-112.777,35.7],[-112.785,35.854],[-112.683,35.824],[-112.623,35.854],[-112.773,36.101],[-112.768,36.144],[-112.709,36.157],[-112.487,35.888],[-112.431,35.871],[-112.227,35.913],[-112.197,35.994],[-112.192,36.093],[-112.103,36.174],[-111.996,36.191],[-111.89,36.131],[-111.907,35.969],[-111.843,35.943],[-111.792,35.884],[-111.856,35.803],[-111.988,35.785],[-112.039,35.747],[-112.03,35.713],[-112.052,35.658],[-112.137,35.649],[-112.201,35.683],[-112.227,35.743]]]}},{"type":"Feature","properties":{"density":2},"geometry":{"type":"Polygon","coordinates":[[[-124.314,42.405],[-124.308,42.543],[-124.244,42.698],[-124.106,42.847],[-123.994,42.922],[-123.658,43.028],[-123.333,43.183],[-123.082,43.434],[-123.034,43.503],[-122.895,43.62],[-122.778,43.657],[-122.714,43.636],[-122.693,43.54],[-122.815,43.428],[-122.949,43.22],[-123.13,43.055],[-123.322,42.932],[-123.477,42.789],[-123.647,42.687],[-123.78,42.65],[-123.946,42.554],[-123.924,42.527],[-123.85,42.543],[-123.759,42.522],[-123.7,42.453],[-123.636,42.33],[-123.642,42.143],[-123.674,42.026],[-123.594,41.968],[-123.546,41.866],[-123.503,41.69],[-123.599,41.184],[-123.684,41.115],[-123.839,41.125],[-124.02,41.322],[-124.207,41.792],[-124.282,42.058],[-124.34,42.17],[-124.319,42.378],[-124.314,42.405]]]}},{"type":"Feature","properties":{"density":2},"geometry":{"type":"Polygon","coordinates":[[[-108.27,40.072],[-108.089,40.092],[-107.908,40.065],[-107.826,40.0],[-107.795,39.932],[-107.799,39.874],[-107.819,39.843],[-107.966,39.87],[-107.983,39.935],[-108.038,39.973],[-108.068,39.946],[-108.205,40.0],[-108.27,40.048],[-108.27,40.072]]]}},{"type":"Feature","properties":{"density":2},"geometry":{"type":"Polygon","coordinates":[[[-109.123,45.684],[-112.259,48.615],[-113.848,50.254],[-114.841,51.793],[-116.033,52.289],[-117.919,52.091],[-118.962,51.495],[-119.756,50.85],[-121.047,49.956],[-122.884,50.005],[-125.069,50.85],[-127.254,52.438],[-128.495,53.829],[-128.843,54.822],[-129.289,56.212],[-128.495,56.659],[-126.906,57.006],[-126.012,57.95],[-126.261,58.992],[-126.906,59.737],[-128.992,59.439],[-130.233,59.489],[-132.467,60.233],[-134.155,61.276],[-134.999,62.12],[-134.999,62.964],[-134.801,64.106],[-133.857,65.745],[-132.219,66.738],[-131.623,67.284],[-129.19,68.029],[-125.367,69.121],[-121.991,70.015],[-117.473,70.015],[-110.67,70.511],[-106.251,71.256],[-103.322,71.256],[-100.095,70.61],[-97.761,69.915],[-96.669,69.369],[-94.534,68.922],[-93.541,69.121],[-92.796,69.121],[-91.456,69.071],[-90.562,68.823],[-89.42,67.83],[-89.072,66.589],[-89.37,65.596],[-88.874,65.0],[-87.484,64.305],[-85.895,63.461],[-83.66,62.666],[-81.476,62.666],[-78.745,62.617],[-76.262,62.617],[-73.184,63.312],[-71.198,64.206],[-69.609,64.652],[-67.772,65.546],[-66.581,65.993],[-65.19,66.738],[-63.204,67.234],[-61.814,67.234],[-60.573,66.986],[-57.147,65.397],[-54.962,63.51],[-53.324,62.319],[-52.43,61.177],[-51.437,59.985],[-50.196,58.694],[-48.359,57.453],[-46.82,56.162],[-44.685,54.971],[-44.287,54.722],[-42.5,53.531],[-41.954,52.984],[-41.06,52.041],[-40.961,51.694],[-40.961,50.8],[-42.351,49.757],[-44.635,49.608],[-48.111,50.303],[-52.083,51.495],[-60.275,53.282],[-62.211,53.779],[-65.339,54.524],[-67.226,55.616],[-67.872,55.765],[-69.411,56.013],[-71.049,55.914],[-72.141,55.765],[-73.134,55.467],[-73.383,52.587],[-73.383,51.098],[-74.028,46.977],[-74.624,44.941],[-75.269,42.955],[-76.014,40.324],[-76.114,38.983],[-77.901,35.954],[-80.779,33.771],[-83.809,32.23],[-87.384,32.131],[-93.342,34.018],[-98.474,36.065],[-101.179,39.075],[-103.152,40.946],[-105.348,42.414],[-107.398,43.927],[-109.123,45.684]]]}},{"type":"Feature","properties":{"density":3},"geometry":{"type":"Polygon","coordinates":[[[-119.553,37.772],[-119.583,37.76],[-119.607,37.807],[-119.58,37.809],[-119.556,37.787],[-119.553,37.772]]]}},{"type":"Feature","properties":{"density":3},"geometry":{"type":"Polygon","coordinates":[[[-121.061,44.448],[-121.342,44.228],[-121.586,44.161],[-121.729,44.209],[-121.714,44.262],[-121.61,44.343],[-121.3,44.5],[-121.109,44.519],[-121.047,44.49],[-121.061,44.448]]]}},{"type":"Feature","properties":{"density":3},"geometry":{"type":"Polygon","coordinates":[[[-124.056,42.541],[-123.975,42.551],[-123.926,42.509],[-123.86,42.504],[-123.831,42.48],[-123.821,42.434],[-123.787,42.397],[-123.79,42.358],[-123.968,42.348],[-124.166,42.104],[-124.222,42.055],[-124.21,42.123],[-124.124,42.314],[-124.114,42.424],[-124.08,42.507],[-124.056,42.541]]]}},{"type":"Feature","properties":{"density":3},"geometry":{"type":"Polygon","coordinates":[[[-89.283,32.914],[-89.711,32.755],[-89.981,32.709],[-90.233,32.709],[-90.447,32.653],[-90.791,32.504],[-91.043,32.355],[-91.313,32.262],[-91.667,32.187],[-91.909,32.169],[-92.207,32.187],[-92.71,32.336],[-93.213,32.653],[-93.269,32.709],[-93.25,32.821],[-93.138,32.997],[-93.036,33.081],[-92.468,33.389],[-92.254,33.584],[-92.133,33.752],[-92.142,33.873],[-92.198,34.124],[-92.384,34.245],[-93.101,34.655],[-93.539,35.009],[-93.967,35.493],[-94.163,36.062],[-94.275,36.574],[-94.386,37.319],[-94.489,37.673],[-94.796,38.278],[-95.066,38.958],[-95.346,39.479],[-95.755,40.038],[-96.351,40.55],[-96.789,40.765],[-97.432,41.025],[-98.959,41.398],[-101.008,41.957],[-102.21,42.46],[-103.318,42.748],[-104.491,43.317],[-106.009,44.555],[-107.006,45.207],[-107.984,45.645],[-108.747,46.092],[-109.282,46.64],[-109.651,46.949],[-110.489,47.778],[-111.187,48.057],[-112.333,48.076],[-112.892,48.253],[-113.385,48.7],[-113.749,49.063],[-114.307,49.454],[-114.512,49.826],[-114.559,50.581],[-114.782,50.991],[-115.229,51.512],[-115.583,51.512],[-115.825,51.596],[-116.412,51.643],[-116.682,51.577],[-116.878,51.456],[-116.803,51.279],[-116.207,51.019],[-115.909,50.646],[-115.751,50.329],[-115.639,49.864],[-115.425,49.566],[-115.304,49.351],[-115.406,49.342],[-115.499,49.389],[-115.77,49.687],[-115.891,49.985],[-115.984,50.367],[-116.282,50.655],[-116.72,51.019],[-117.073,51.289],[-117.306,51.279],[-117.474,51.158],[-117.735,51.019],[-117.753,50.758],[-117.781,50.637],[-117.884,50.469],[-118.256,50.441],[-118.796,50.45],[-119.271,50.609],[-119.458,50.842],[-119.718,51.028],[-120.063,51.186],[-120.24,51.391],[-120.715,51.456],[-120.929,51.372],[-121.395,51.13],[-121.59,51.177],[-121.823,51.335],[-121.944,51.326],[-122.047,51.233],[-121.86,51.009],[-121.823,50.776],[-121.879,50.758],[-121.954,50.925],[-122.0,51.074],[-122.252,51.307],[-122.494,51.466],[-122.978,51.68],[-123.257,51.754],[-123.863,51.745],[-124.114,51.698],[-124.338,51.708],[-124.375,51.503],[-124.422,51.456],[-124.459,51.456],[-124.487,51.726],[-124.626,51.792],[-124.831,51.68],[-124.897,51.68],[-125.12,51.875],[-125.642,52.108],[-125.977,52.471],[-126.238,53.077],[-126.61,53.496],[-126.722,53.84],[-126.696,54.225],[-126.45,54.478],[-126.018,54.754],[-125.839,54.888],[-125.742,54.911],[-125.505,55.01],[-124.952,55.079],[-124.586,55.25],[-124.458,55.527],[-124.544,55.665],[-124.783,55.779],[-125.135,55.774],[-125.698,55.736],[-125.779,55.789],[-125.765,55.851],[-125.608,55.889],[-125.441,55.865],[-125.279,55.898],[-125.24,55.97],[-125.279,56.08],[-125.336,56.17],[-125.298,56.237],[-125.217,56.261],[-124.934,56.554],[-124.941,56.777],[-124.994,56.897],[-125.105,57.053],[-125.247,57.195],[-125.493,57.336],[-126.212,57.539],[-129.259,58.267],[-130.327,58.904],[-130.805,59.404],[-130.85,59.881],[-130.919,60.222],[-131.032,60.654],[-131.26,60.768],[-132.124,60.814],[-132.533,60.95],[-133.01,61.246],[-133.761,61.405],[-134.761,61.837],[-135.463,62.356],[-135.719,62.402],[-136.01,62.309],[-136.452,61.96],[-136.778,61.762],[-137.675,60.912],[-138.094,60.912],[-138.21,61.133],[-138.268,61.424],[-137.838,62.321],[-137.302,62.74],[-136.022,63.857],[-135.358,64.102],[-134.823,64.276],[-134.636,64.393],[-134.613,64.602],[-134.904,65.15],[-135.521,65.534],[-135.94,65.953],[-136.22,66.29],[-136.348,66.768],[-136.394,67.373],[-136.077,67.616],[-135.349,67.725],[-133.508,67.416],[-132.097,67.212],[-131.253,67.168],[-129.958,67.488],[-127.542,68.536],[-125.68,69.511],[-124.931,70.195],[-122.884,71.014],[-118.6,72.166],[-114.123,72.735],[-108.155,72.45],[-104.602,71.527],[-97.763,67.756],[-94.832,66.157],[-92.256,65.713],[-90.116,64.749],[-90.045,64.074],[-90.72,63.293],[-91.501,62.867],[-93.313,62.369],[-95.213,60.856],[-95.895,59.991],[-96.373,59.332],[-96.668,58.514],[-97.487,57.672],[-98.374,56.899],[-99.533,56.172],[-100.215,55.694],[-101.216,55.444],[-102.716,55.308],[-104.058,55.262],[-104.649,54.967],[-105.013,54.58],[-105.194,54.324],[-105.281,54.077],[-105.296,53.742],[-105.281,53.131],[-105.383,52.884],[-106.038,52.782],[-106.809,52.957],[-107.1,53.277],[-108.497,53.99],[-108.774,54.252],[-109.181,54.79],[-109.632,55.329],[-110.025,55.969],[-110.651,56.886],[-110.738,57.526],[-110.942,58.05],[-111.146,58.239],[-111.495,58.792],[-111.902,59.199],[-112.092,59.214],[-112.237,59.185],[-112.31,58.675],[-111.917,57.992],[-111.815,57.511],[-111.8,56.9],[-111.597,56.231],[-111.277,56.042],[-110.84,55.576],[-110.214,54.994],[-109.632,54.208],[-109.399,53.597],[-109.007,52.898],[-108.745,52.36],[-108.163,51.676],[-107.406,50.977],[-106.198,50.046],[-105.15,49.406],[-103.098,48.562],[-101.352,47.965],[-100.101,47.354],[-98.063,46.757],[-96.492,46.626],[-94.891,46.656],[-93.145,46.772],[-92.097,46.626],[-91.399,46.35],[-91.166,46.03],[-91.035,45.724],[-91.137,45.142],[-91.646,44.516],[-92.024,44.08],[-92.054,43.614],[-91.777,43.527],[-91.428,43.309],[-90.264,42.988],[-89.041,42.974],[-88.75,43.061],[-88.445,43.629],[-88.386,44.371],[-88.241,44.895],[-86.8,45.855],[-85.17,46.525],[-83.555,47.587],[-82.014,48.678],[-80.922,49.587],[-80.649,50.201],[-80.695,50.792],[-82.548,53.794],[-83.173,55.016],[-83.969,55.783],[-85.276,56.579],[-86.243,56.835],[-87.408,56.92],[-88.403,57.034],[-88.403,57.403],[-88.09,57.716],[-86.925,58.199],[-84.196,58.767],[-80.028,59.547],[-75.253,60.08],[-65.106,61.644],[-54.306,62.326],[-49.588,62.013],[-47.883,60.251],[-48.508,58.261],[-51.577,56.727],[-58.711,54.709],[-66.328,53.089],[-68.119,53.401],[-68.062,54.879],[-67.636,56.613],[-68.176,57.75],[-70.137,57.522],[-71.956,56.187],[-73.888,55.618],[-75.033,54.037],[-75.614,51.502],[-76.416,49.723],[-77.354,48.046],[-78.32,45.943],[-79.201,43.839],[-79.883,42.589],[-80.77,41.019],[-81.439,39.505],[-81.847,38.516],[-82.283,37.803],[-82.865,37.337],[-83.898,36.289],[-84.626,35.751],[-86.561,34.194],[-87.435,33.67],[-88.395,33.277],[-89.283,32.914]]]}},{"type":"Feature","properties":{"density":3},"geometry":{"type":"Polygon","coordinates":[[[-122.391,50.705],[-122.413,50.732],[-122.401,50.766],[-122.367,50.754],[-122.37,50.729],[-122.391,50.705]]]}},{"type":"Feature","properties":{"density":3},"geometry":{"type":"Polygon","coordinates":[[[-121.641,49.988],[-121.571,50.058],[-121.528,50.064],[-121.513,50.036],[-121.519,49.994],[-121.555,49.972],[-121.574,49.978],[-121.641,49.988]]]}},{"type":"Feature","properties":{"density":3},"geometry":{"type":"Polygon","coordinates":[[[-117.095,48.455],[-117.117,48.553],[-117.104,48.596],[-117.077,48.608],[-117.071,48.467],[-117.095,48.455]]]}},{"type":"Feature","properties":{"density":3},"geometry":{"type":"Polygon","coordinates":[[[-111.941,36.02],[-112.018,36.029],[-112.094,35.952],[-112.252,35.879],[-112.256,35.811],[-112.201,35.726],[-112.124,35.709],[-112.018,35.734],[-111.996,35.773],[-112.03,35.79],[-112.043,35.841],[-111.975,35.854],[-111.949,35.892],[-111.945,36.007],[-111.941,36.02]]]}},{"type":"Feature","properties":{"density":3},"geometry":{"type":"Polygon","coordinates":[[[-123.962,42.517],[-123.759,42.501],[-123.679,42.421],[-123.668,42.287],[-123.711,42.191],[-123.78,42.122],[-123.876,42.143],[-124.026,42.298],[-124.132,42.378],[-124.17,42.453],[-124.17,42.554],[-124.148,42.623],[-124.042,42.714],[-124.004,42.767],[-124.01,42.821],[-123.978,42.884],[-123.914,42.932],[-123.743,42.975],[-123.434,43.098],[-123.343,43.188],[-123.274,43.215],[-123.226,43.199],[-123.237,43.146],[-123.354,43.002],[-123.455,42.922],[-123.482,42.778],[-123.604,42.687],[-123.764,42.65],[-123.946,42.559],[-123.951,42.533],[-123.962,42.517]]]}},{"type":"Feature","properties":{"density":3},"geometry":{"type":"Polygon","coordinates":[[[-108.251,40.073],[-108.175,40.075],[-107.996,40.04],[-107.926,40.009],[-107.909,39.981],[-107.922,39.952],[-107.981,39.952],[-108.256,40.044],[-108.256,40.068],[-108.251,40.073]]]}},{"type":"Feature","properties":{"density":3},"geometry":{"type":"Polygon","coordinates":[[[-109.871,48.518],[-105.462,44.347],[-102.364,42.441],[-101.053,41.805],[-99.742,41.448],[-97.915,41.05],[-93.705,40.653],[-91.153,40.583],[-88.174,39.888],[-87.479,39.54],[-86.833,39.342],[-86.287,38.945],[-86.089,38.498],[-87.33,37.654],[-89.961,37.008],[-91.103,36.412],[-91.649,35.568],[-91.55,34.774],[-90.805,34.377],[-89.167,34.228],[-85.691,34.774],[-82.762,35.568],[-79.932,37.405],[-77.797,40.533],[-76.059,46.541],[-75.761,48.329],[-75.066,50.265],[-74.718,51.854],[-73.974,53.343],[-72.484,54.684],[-71.044,55.23],[-69.406,55.478],[-66.725,55.478],[-63.497,54.883],[-61.114,54.783],[-58.234,55.031],[-55.404,55.627],[-53.369,56.223],[-51.581,56.869],[-50.191,57.514],[-49.546,58.308],[-49.546,59.351],[-50.39,60.94],[-51.085,61.486],[-52.376,62.132],[-56.646,63.72],[-59.277,63.969],[-62.504,63.72],[-63.646,63.522],[-67.817,63.273],[-77.251,60.592],[-79.237,60.592],[-82.116,60.344],[-85.145,60.245],[-90.259,58.805],[-92.344,57.762],[-93.635,56.869],[-93.933,55.876],[-94.132,54.883],[-94.231,54.088],[-93.784,53.244],[-91.997,53.194],[-90.061,53.294],[-86.287,54.287],[-84.202,54.783],[-82.166,55.031],[-80.925,55.131],[-78.492,55.23],[-77.896,52.996],[-79.038,50.91],[-80.875,49.173],[-82.961,46.442],[-84.4,45.548],[-87.181,44.853],[-89.316,44.853],[-91.649,44.704],[-95.175,44.555],[-98.6,45.697],[-104.261,48.924],[-106.942,51.258],[-108.878,53.89],[-109.623,55.131],[-109.027,55.478],[-107.24,54.585],[-106.147,53.89],[-104.31,53.294],[-102.672,52.797],[-100.934,52.748],[-98.253,55.329],[-96.813,57.464],[-95.82,58.706],[-95.026,59.5],[-94.231,60.543],[-92.791,61.784],[-91.302,62.678],[-89.564,64.167],[-89.812,65.458],[-91.451,67.345],[-93.586,68.437],[-96.763,69.381],[-104.608,69.778],[-107.687,69.43],[-110.963,69.232],[-112.751,69.678],[-116.127,69.877],[-119.156,69.678],[-122.88,69.48],[-124.568,69.182],[-126.802,69.182],[-128.391,68.983],[-130.129,68.636],[-131.072,68.288],[-132.909,68.04],[-134.647,67.246],[-136.037,66.054],[-136.534,64.862],[-136.136,64.267],[-135.64,63.075],[-135.143,62.231],[-133.555,60.94],[-132.115,59.997],[-130.129,57.961],[-128.788,56.571],[-127.845,55.528],[-127.199,54.138],[-126.603,53.244],[-125.412,52.152],[-124.022,52.152],[-122.83,52.201],[-121.638,52.102],[-119.603,51.755],[-117.815,51.258],[-116.723,51.159],[-115.78,50.861],[-113.893,50.513],[-112.105,49.719],[-110.765,49.024],[-109.871,48.518]]]}}]}