{"type":"FeatureCollection","features":[{"type":"Feature","properties":{"density":1},"geometry":{"type":"Polygon","coordinates":[[[-94.546,29.608],[-94.463,29.482],[-94.3,28.954],[-93.773,27.733],[-93.617,27.209],[-93.574,26.855],[-93.596,26.736],[-93.794,26.606],[-93.924,26.642],[-94.087,26.826],[-94.13,27.177],[-94.354,28.261],[-94.535,28.784],[-94.618,28.933],[-94.629,29.164],[-94.604,29.442],[-94.567,29.576],[-94.546,29.608]]]}},{"type":"Feature","properties":{"density":1},"geometry":{"type":"Polygon","coordinates":[[[-98.038,26.434],[-97.977,26.384],[-97.951,26.312],[-97.966,26.26],[-98.003,26.272],[-98.041,26.324],[-98.041,26.422],[-98.038,26.434]]]}},{"type":"Feature","properties":{"density":1},"geometry":{"type":"Polygon","coordinates":[[[-98.119,26.101],[-98.073,26.058],[-98.041,25.986],[-98.047,25.951],[-98.09,25.928],[-98.113,25.942],[-98.139,26.0],[-98.142,26.061],[-98.119,26.101]]]}},{"type":"Feature","properties":{"density":1},"geometry":{"type":"Polygon","coordinates":[[[-82.345,22.962],[-82.403,23.077],[-82.41,23.153],[-82.378,23.15],[-82.352,23.103],[-82.32,22.987],[-82.327,22.951],[-82.345,22.962]]]}},{"type":"Feature","properties":{"density":1},"geometry":{"type":"Polygon","coordinates":[[[-81.489,26.64],[-81.669,26.95],[-81.756,27.178],[-81.738,27.297],[-81.687,27.312],[-81.619,27.268],[-81.543,27.106],[-81.489,26.929],[-81.46,26.715],[-81.467,26.64],[-81.489,26.64]]]}},{"type":"Feature","properties":{"density":1},"geometry":{"type":"Polygon","coordinates":[[[-80.524,26.517],[-80.658,26.842],[-80.69,27.091],[-80.741,27.192],[-80.773,27.348],[-80.781,27.463],[-80.701,27.539],[-80.614,27.492],[-80.517,27.25],[-80.427,26.835],[-80.459,26.531],[-80.477,26.531],[-80.524,26.517]]]}},{"type":"Feature","properties":{"density":1},"geometry":{"type":"Polygon","coordinates":[[[-80.73,26.528],[-80.896,26.575],[-80.954,26.697],[-81.008,26.968],[-81.034,27.409],[-80.954,27.528],[-80.824,27.528],[-80.745,27.499],[-80.712,27.366],[-80.661,26.766],[-80.694,26.556],[-80.73,26.528]]]}},{"type":"Feature","properties":{"density":1},"geometry":{"type":"Polygon","coordinates":[[[-81.12,26.683],[-81.315,26.994],[-81.388,27.279],[-81.398,27.575],[-81.37,27.832],[-81.301,28.02],[-81.196,28.027],[-81.131,27.937],[-81.077,27.658],[-81.041,27.405],[-81.066,27.178],[-81.066,26.708],[-81.106,26.654],[-81.12,26.683]]]}},{"type":"Feature","properties":{"density":1},"geometry":{"type":"Polygon","coordinates":[[[-94.928,36.308],[-94.861,36.314],[-94.826,36.282],[-94.847,36.251],[-94.89,36.262],[-94.928,36.308]]]}},{"type":"Feature","properties":{"density":1},"geometry":{"type":"Polygon","coordinates":[[[-92.266,19.243],[-92.604,19.497],[-92.624,19.584],[-92.59,19.633],[-92.503,19.636],[-92.399,19.581],[-92.246,19.396],[-92.2,19.321],[-92.203,19.263],[-92.266,19.243]]]}},{"type":"Feature","properties":{"density":1},"geometry":{"type":"Polygon","coordinates":[[[-92.032,19.387],[-92.434,19.699],[-92.483,19.829],[-92.428,19.879],[-92.356,19.87],[-92.237,19.789],[-92.127,19.63],[-92.015,19.399],[-92.032,19.387]]]}},{"type":"Feature","properties":{"density":1},"geometry":{"type":"Polygon","coordinates":[[[-97.098,15.952],[-97.163,15.832],[-97.257,15.764],[-97.325,15.666],[-97.361,15.648],[-97.434,15.666],[-97.426,15.724],[-97.358,15.814],[-97.123,15.955],[-97.098,15.952]]]}},{"type":"Feature","properties":{"density":1},"geometry":{"type":"Polygon","coordinates":[[[-109.818,22.964],[-109.688,22.888],[-109.663,22.823],[-109.681,22.689],[-109.757,22.581],[-109.836,22.505],[-109.916,22.501],[-110.111,22.801],[-110.263,22.797],[-110.44,22.75],[-110.581,22.685],[-110.657,22.714],[-110.66,22.815],[-110.595,22.924],[-110.4,23.148],[-110.31,23.314],[-110.23,23.365],[-110.086,23.347],[-110.05,23.3],[-110.046,23.159],[-110.006,23.104],[-109.905,23.043],[-109.818,22.964]]]}},{"type":"Feature","properties":{"density":1},"geometry":{"type":"Polygon","coordinates":[[[-92.929,29.812],[-92.944,29.695],[-92.935,29.606],[-92.888,29.575],[-92.869,29.613],[-92.871,29.693],[-92.925,29.813],[-92.929,29.812]]]}},{"type":"Feature","properties":{"density":1},"geometry":{"type":"Polygon","coordinates":[[[-91.951,29.835],[-91.947,29.694],[-91.933,29.627],[-91.909,29.612],[-91.891,29.645],[-91.936,29.834],[-91.951,29.835]]]}},{"type":"Feature","properties":{"density":1},"geometry":{"type":"Polygon","coordinates":[[[-92.209,29.67],[-92.199,29.346],[-92.176,29.31],[-92.16,29.311],[-92.144,29.328],[-92.143,29.384],[-92.168,29.573],[-92.199,29.675],[-92.209,29.67]]]}},{"type":"Feature","properties":{"density":1},"geometry":{"type":"Polygon","coordinates":[[[-90.755,29.539],[-90.731,29.422],[-90.64,29.163],[-90.608,29.112],[-90.558,29.077],[-90.512,29.119],[-90.514,29.177],[-90.575,29.308],[-90.743,29.542],[-90.755,29.539]]]}},{"type":"Feature","properties":{"density":1},"geometry":{"type":"Polygon","coordinates":[[[-94.38,28.8],[-94.474,28.097],[-94.465,27.952],[-94.423,27.764],[-94.355,27.585],[-94.308,27.077],[-94.244,26.804],[-94.214,26.595],[-94.154,26.374],[-94.103,26.34],[-94.077,26.344],[-94.056,26.387],[-94.056,26.553],[-94.163,26.915],[-94.244,27.491],[-94.244,27.7],[-94.188,27.922],[-94.197,28.131],[-94.261,28.284],[-94.303,28.446],[-94.299,28.579],[-94.325,28.719],[-94.346,28.792],[-94.363,28.805],[-94.38,28.8]]]}},{"type":"Feature","properties":{"density":1},"geometry":{"type":"Polygon","coordinates":[[[-94.308,28.237],[-94.414,27.76],[-94.483,27.363],[-94.495,27.18],[-94.448,26.924],[-94.337,26.489],[-94.333,26.284],[-94.308,26.16],[-94.256,26.165],[-94.227,26.233],[-94.227,26.723],[-94.15,26.996],[-94.12,27.193],[-94.192,27.495],[-94.227,27.721],[-94.235,28.161],[-94.286,28.246],[-94.308,28.237]]]}},{"type":"Feature","properties":{"density":1},"geometry":{"type":"Polygon","coordinates":[[[-92.94,29.802],[-92.98,29.31],[-92.959,29.053],[-92.964,28.891],[-92.903,28.673],[-92.861,28.62],[-92.828,28.618],[-92.658,28.86],[-92.601,29.057],[-92.601,29.149],[-92.632,29.258],[-92.713,29.411],[-92.767,29.603],[-92.839,29.745],[-92.911,29.828],[-92.94,29.802]]]}},{"type":"Feature","properties":{"density":1},"geometry":{"type":"Polygon","coordinates":[[[-92.204,29.657],[-92.136,29.452],[-92.062,29.14],[-92.04,28.913],[-92.005,28.841],[-91.979,28.83],[-91.951,28.863],[-91.948,28.946],[-92.071,29.515],[-92.156,29.655],[-92.197,29.684],[-92.204,29.657]]]}},{"type":"Feature","properties":{"density":1},"geometry":{"type":"Polygon","coordinates":[[[-91.894,29.874],[-91.883,29.616],[-91.817,29.509],[-91.778,29.52],[-91.774,29.653],[-91.881,29.871],[-91.894,29.874]]]}},{"type":"Feature","properties":{"density":1},"geometry":{"type":"Polygon","coordinates":[[[-94.332,27.347],[-94.507,26.964],[-94.584,26.588],[-94.545,26.162],[-94.503,26.085],[-94.49,26.0],[-94.447,25.961],[-94.392,25.966],[-94.311,26.029],[-94.23,26.204],[-94.187,26.443],[-94.183,27.109],[-94.204,27.296],[-94.23,27.403],[-94.281,27.411],[-94.307,27.39],[-94.332,27.347]]]}},{"type":"Feature","properties":{"density":2},"geometry":{"type":"Polygon","coordinates":[[[-94.534,29.574],[-94.469,29.444],[-94.312,28.928],[-94.265,28.636],[-94.288,28.529],[-94.317,28.532],[-94.361,28.569],[-94.413,28.682],[-94.534,28.818],[-94.583,28.925],[-94.606,29.078],[-94.578,29.558],[-94.56,29.581],[-94.534,29.574]]]}},{"type":"Feature","properties":{"density":2},"geometry":{"type":"Polygon","coordinates":[[[-80.73,26.549],[-80.781,26.679],[-80.795,26.766],[-80.759,26.777],[-80.719,26.556],[-80.73,26.549]]]}},{"type":"Feature","properties":{"density":2},"geometry":{"type":"Polygon","coordinates":[[[-80.506,26.553],[-80.557,26.69],[-80.535,26.737],[-80.506,26.741],[-80.477,26.618],[-80.488,26.546],[-80.506,26.553]]]}},{"type":"Feature","properties":{"density":2},"geometry":{"type":"Polygon","coordinates":[[[-80.542,26.813],[-80.607,26.957],[-80.586,26.99],[-80.549,26.99],[-80.521,26.925],[-80.499,26.853],[-80.506,26.813],[-80.517,26.813],[-80.542,26.813]]]}},{"type":"Feature","properties":{"density":2},"geometry":{"type":"Polygon","coordinates":[[[-81.081,27.189],[-81.149,27.355],[-81.131,27.38],[-81.07,27.185],[-81.081,27.189]]]}},{"type":"Feature","properties":{"density":2},"geometry":{"type":"Polygon","coordinates":[[[-110.045,23.032],[-110.015,23.063],[-109.983,23.051],[-109.971,23.021],[-110.013,22.905],[-110.045,22.866],[-110.128,22.857],[-110.152,22.884],[-110.089,23.005],[-110.045,23.032]]]}},{"type":"Feature","properties":{"density":2},"geometry":{"type":"Polygon","coordinates":[[[-92.922,29.808],[-92.93,29.66],[-92.907,29.606],[-92.888,29.608],[-92.881,29.633],[-92.917,29.802],[-92.922,29.808]]]}},{"type":"Feature","properties":{"density":2},"geometry":{"type":"Polygon","coordinates":[[[-94.363,28.647],[-94.406,28.493],[-94.436,28.169],[-94.423,27.977],[-94.393,27.965],[-94.363,27.977],[-94.32,28.237],[-94.355,28.651],[-94.363,28.647]]]}},{"type":"Feature","properties":{"density":2},"geometry":{"type":"Polygon","coordinates":[[[-94.367,27.871],[-94.453,27.389],[-94.453,27.261],[-94.427,27.154],[-94.397,27.146],[-94.35,27.18],[-94.282,27.679],[-94.278,27.828],[-94.303,27.879],[-94.359,27.884],[-94.367,27.871]]]}},{"type":"Feature","properties":{"density":2},"geometry":{"type":"Polygon","coordinates":[[[-92.919,29.751],[-92.943,29.268],[-92.916,29.205],[-92.842,29.181],[-92.799,29.214],[-92.769,29.271],[-92.774,29.481],[-92.809,29.601],[-92.872,29.738],[-92.902,29.776],[-92.924,29.776],[-92.919,29.751]]]}},{"type":"Feature","properties":{"density":2},"geometry":{"type":"Polygon","coordinates":[[[-91.892,29.858],[-91.872,29.656],[-91.837,29.636],[-91.816,29.672],[-91.88,29.857],[-91.892,29.858]]]}},{"type":"Feature","properties":{"density":2},"geometry":{"type":"Polygon","coordinates":[[[-94.335,27.274],[-94.42,27.096],[-94.553,26.564],[-94.512,26.449],[-94.477,26.439],[-94.433,26.439],[-94.332,26.701],[-94.259,27.115],[-94.264,27.214],[-94.3,27.282],[-94.335,27.274]]]}},{"type":"Feature","properties":{"density":3},"geometry":{"type":"Polygon","coordinates":[[[-94.539,29.579],[-94.463,29.269],[-94.445,29.063],[-94.47,28.914],[-94.513,28.893],[-94.553,28.925],[-94.575,29.012],[-94.564,29.572],[-94.539,29.579]]]}},{"type":"Feature","properties":{"density":3},"geometry":{"type":"Polygon","coordinates":[[[-110.038,23.019],[-110.024,23.044],[-109.997,23.049],[-109.994,23.009],[-110.034,23.009],[-110.038,23.019]]]}}]}