{"type":"FeatureCollection","features":[{"type":"Feature","properties":{"density":1},"geometry":{"type":"Polygon","coordinates":[[[-80.865,26.647],[-80.743,26.908],[-80.691,26.96],[-80.637,26.962],[-80.606,26.925],[-80.7,26.699],[-80.764,26.647],[-80.865,26.624],[-80.865,26.647]]]}},{"type":"Feature","properties":{"density":1},"geometry":{"type":"Polygon","coordinates":[[[-80.924,26.499],[-80.881,26.551],[-80.813,26.593],[-80.851,26.525],[-80.912,26.471],[-80.924,26.485],[-80.924,26.499]]]}},{"type":"Feature","properties":{"density":1},"geometry":{"type":"Polygon","coordinates":[[[-80.519,26.502],[-80.383,26.737],[-80.303,26.784],[-80.284,26.762],[-80.317,26.704],[-80.451,26.525],[-80.5,26.487],[-80.519,26.502]]]}},{"type":"Feature","properties":{"density":1},"geometry":{"type":"Polygon","coordinates":[[[-92.263,19.241],[-92.52,19.256],[-92.811,19.337],[-92.88,19.329],[-92.983,19.212],[-93.02,19.105],[-93.123,18.955],[-93.259,18.848],[-93.398,18.888],[-93.575,19.197],[-93.6,19.561],[-93.729,20.479],[-93.703,20.714],[-93.519,20.883],[-93.321,20.909],[-93.137,20.879],[-92.932,20.798],[-92.682,20.67],[-92.575,20.486],[-92.561,20.317],[-92.579,19.954],[-92.531,19.741],[-92.421,19.612],[-92.271,19.487],[-92.182,19.377],[-92.168,19.311],[-92.208,19.289],[-92.263,19.241]]]}},{"type":"Feature","properties":{"density":1},"geometry":{"type":"Polygon","coordinates":[[[-92.355,16.182],[-92.493,16.217],[-92.572,16.267],[-92.558,16.358],[-92.487,16.402],[-92.411,16.355],[-92.355,16.282],[-92.317,16.191],[-92.355,16.182]]]}},{"type":"Feature","properties":{"density":1},"geometry":{"type":"Polygon","coordinates":[[[-102.319,33.674],[-101.827,33.738],[-101.555,33.74],[-101.421,33.695],[-101.411,33.641],[-101.444,33.594],[-101.757,33.573],[-102.046,33.594],[-102.274,33.632],[-102.328,33.655],[-102.319,33.674]]]}},{"type":"Feature","properties":{"density":1},"geometry":{"type":"Polygon","coordinates":[[[-109.51,33.699],[-109.498,33.661],[-109.526,33.647],[-109.592,33.663],[-109.618,33.694],[-109.582,33.727],[-109.545,33.724],[-109.51,33.699]]]}},{"type":"Feature","properties":{"density":1},"geometry":{"type":"Polygon","coordinates":[[[-81.159,26.658],[-81.224,26.681],[-81.265,26.772],[-81.254,26.81],[-81.086,26.845],[-80.88,26.845],[-80.815,26.887],[-80.48,27.314],[-80.056,27.585],[-79.999,27.653],[-79.69,27.825],[-79.621,27.844],[-79.549,27.84],[-79.434,27.749],[-79.366,27.669],[-79.366,27.52],[-79.438,27.409],[-79.556,27.291],[-80.003,27.005],[-80.266,26.768],[-80.239,26.639],[-80.239,26.524],[-80.27,26.436],[-80.388,26.36],[-80.449,26.337],[-80.548,26.333],[-80.655,26.421],[-80.945,26.452],[-81.04,26.524],[-81.086,26.62],[-81.159,26.658]]]}},{"type":"Feature","properties":{"density":1},"geometry":{"type":"Polygon","coordinates":[[[-99.823,33.673],[-99.591,33.852],[-99.388,33.977],[-99.12,34.007],[-98.87,33.989],[-98.846,33.864],[-98.888,33.792],[-98.87,33.774],[-99.067,33.655],[-99.204,33.601],[-99.376,33.554],[-99.621,33.548],[-99.877,33.589],[-99.883,33.631],[-99.823,33.673]]]}},{"type":"Feature","properties":{"density":1},"geometry":{"type":"Polygon","coordinates":[[[-90.911,19.347],[-91.109,19.871],[-91.738,20.243],[-92.273,20.464],[-92.716,20.488],[-93.333,20.441],[-94.055,20.208],[-94.497,19.987],[-94.904,19.545],[-95.033,19.195],[-95.056,18.881],[-95.044,18.602],[-94.788,18.253],[-94.52,18.206],[-93.857,18.194],[-93.682,18.148],[-93.31,17.95],[-92.821,17.915],[-92.541,17.67],[-92.11,17.496],[-91.202,17.344],[-91.086,17.368],[-91.028,17.496],[-90.97,17.682],[-90.946,17.938],[-90.842,18.183],[-90.702,18.404],[-90.655,18.625],[-90.562,18.928],[-90.725,19.172],[-90.9,19.219],[-90.911,19.347]]]}},{"type":"Feature","properties":{"density":1},"geometry":{"type":"Polygon","coordinates":[[[-99.589,48.474],[-99.627,48.388],[-99.641,48.183],[-99.589,48.102],[-99.474,48.083],[-99.417,48.106],[-99.412,48.173],[-99.427,48.24],[-99.546,48.455],[-99.589,48.474]]]}},{"type":"Feature","properties":{"density":2},"geometry":{"type":"Polygon","coordinates":[[[-102.307,33.67],[-102.086,33.67],[-102.055,33.662],[-102.055,33.648],[-102.291,33.662],[-102.307,33.67]]]}}]}