{"type":"FeatureCollection","features":[{"type":"Feature","properties":{"density":1},"geometry":{"type":"Polygon","coordinates":[[[-90.858,36.165],[-90.942,36.165],[-90.968,36.176],[-90.968,36.199],[-90.846,36.181],[-90.858,36.165]]]}},{"type":"Feature","properties":{"density":1},"geometry":{"type":"Polygon","coordinates":[[[-90.631,36.393],[-90.681,36.377],[-90.732,36.382],[-90.757,36.405],[-90.723,36.428],[-90.631,36.407],[-90.631,36.393]]]}},{"type":"Feature","properties":{"density":1},"geometry":{"type":"Polygon","coordinates":[[[-89.947,36.032],[-90.004,36.025],[-90.054,36.039],[-90.075,36.075],[-90.047,36.089],[-89.993,36.078],[-89.963,36.062],[-89.956,36.036],[-89.947,36.032]]]}},{"type":"Feature","properties":{"density":1},"geometry":{"type":"Polygon","coordinates":[[[-89.436,36.934],[-89.471,36.913],[-89.498,36.931],[-89.498,36.95],[-89.457,36.943],[-89.436,36.934]]]}},{"type":"Feature","properties":{"density":1},"geometry":{"type":"Polygon","coordinates":[[[-89.997,37.082],[-90.031,37.062],[-90.066,37.073],[-90.08,37.114],[-90.054,37.13],[-90.013,37.123],[-90.006,37.101],[-89.997,37.082]]]}},{"type":"Feature","properties":{"density":1},"geometry":{"type":"Polygon","coordinates":[[[-89.677,37.098],[-89.697,37.053],[-89.713,37.059],[-89.697,37.085],[-89.677,37.098]]]}},{"type":"Feature","properties":{"density":1},"geometry":{"type":"Polygon","coordinates":[[[-111.778,33.501],[-111.845,33.524],[-111.895,33.59],[-111.909,33.638],[-111.884,33.663],[-111.843,33.67],[-111.804,33.65],[-111.765,33.583],[-111.762,33.517],[-111.778,33.501]]]}},{"type":"Feature","properties":{"density":1},"geometry":{"type":"Polygon","coordinates":[[[-110.931,34.24],[-110.885,34.352],[-110.856,34.401],[-110.84,34.401],[-110.9,34.255],[-110.926,34.233],[-110.931,34.24]]]}},{"type":"Feature","properties":{"density":1},"geometry":{"type":"Polygon","coordinates":[[[-98.349,21.115],[-98.324,21.124],[-98.256,21.106],[-98.208,21.076],[-98.205,21.049],[-98.345,21.099],[-98.349,21.115]]]}},{"type":"Feature","properties":{"density":1},"geometry":{"type":"Polygon","coordinates":[[[-84.795,51.586],[-84.729,51.609],[-84.314,51.66],[-83.968,51.663],[-83.834,51.617],[-83.822,51.537],[-84.068,51.448],[-84.354,51.443],[-84.795,51.577],[-84.795,51.586]]]}},{"type":"Feature","properties":{"density":1},"geometry":{"type":"Polygon","coordinates":[[[-85.031,52.161],[-84.846,52.198],[-84.8,52.179],[-84.835,52.161],[-84.983,52.147],[-85.031,52.161]]]}},{"type":"Feature","properties":{"density":1},"geometry":{"type":"Polygon","coordinates":[[[-85.15,52.072],[-85.098,52.104],[-84.876,52.113],[-84.885,52.076],[-84.933,52.058],[-85.011,52.04],[-85.105,52.051],[-85.15,52.072]]]}},{"type":"Feature","properties":{"density":1},"geometry":{"type":"Polygon","coordinates":[[[-84.738,52.326],[-84.583,52.344],[-84.516,52.335],[-84.498,52.305],[-84.519,52.289],[-84.601,52.287],[-84.693,52.312],[-84.738,52.326]]]}},{"type":"Feature","properties":{"density":1},"geometry":{"type":"Polygon","coordinates":[[[-99.411,36.47],[-99.673,37.518],[-99.652,38.98],[-99.815,40.235],[-100.546,41.337],[-101.572,42.549],[-101.78,43.28],[-102.052,44.12],[-102.282,45.2],[-102.544,45.713],[-103.725,46.113],[-104.022,46.376],[-103.819,47.11],[-101.243,48.408],[-99.159,49.292],[-97.533,49.729],[-95.778,50.053],[-93.759,50.503],[-91.937,50.755],[-89.623,50.738],[-88.034,50.362],[-86.871,50.055],[-85.273,49.859],[-83.675,49.804],[-82.453,49.866],[-81.37,50.258],[-80.958,50.502],[-80.7,50.795],[-80.239,51.132],[-79.803,51.406],[-79.674,51.696],[-79.948,51.881],[-80.153,52.195],[-80.789,54.782],[-81.477,55.731],[-82.437,56.408],[-84.576,57.139],[-87.413,57.368],[-92.248,58.045],[-95.98,58.481],[-98.185,58.514],[-100.531,58.46],[-103.063,57.969],[-103.368,57.707],[-104.58,57.205],[-105.398,56.386],[-106.631,55.611],[-107.679,54.629],[-109.788,53.617],[-110.996,53.53],[-111.897,53.921],[-113.154,54.319],[-113.936,54.605],[-114.76,55.046],[-115.033,55.374],[-115.431,56.205],[-115.801,56.882],[-116.367,57.748],[-116.528,58.342],[-116.392,59.345],[-115.486,60.393],[-113.904,61.681],[-112.616,63.048],[-112.288,64.63],[-112.902,65.926],[-113.093,66.69],[-112.561,67.249],[-110.637,68.204],[-108.128,68.859],[-103.642,69.109],[-98.122,68.018],[-89.886,65.886],[-86.731,64.556],[-82.656,63.278],[-79.944,62.749],[-77.421,63.056],[-74.334,63.925],[-70.702,65.938],[-68.213,68.547],[-65.74,70.405],[-64.41,71.309],[-62.228,71.684],[-55.953,71.36],[-50.939,70.439],[-47.461,69.263],[-44.664,67.83],[-42.618,66.33],[-40.725,62.595],[-40.077,61.146],[-39.003,58.895],[-37.536,56.542],[-35.32,54.001],[-33.444,52.705],[-29.88,51.819],[-28.67,51.87],[-25.447,51.853],[-22.565,52.774],[-20.058,53.865],[-17.091,55.826],[-14.107,57.275],[-10.066,59.134],[-7.338,60.021],[-6.212,60.106],[-5.752,59.935],[-5.65,59.577],[-6.008,59.032],[-7.218,58.571],[-10.339,56.576],[-13.118,54.581],[-15.284,52.808],[-18.251,50.062],[-19.155,48.749],[-19.888,47.487],[-22.036,43.958],[-23.895,41.076],[-25.123,39.064],[-27.629,35.04],[-28.857,32.567],[-29.727,31.101],[-30.324,30.384],[-31.04,29.958],[-32.199,29.515],[-32.694,29.276],[-32.984,28.679],[-32.813,28.372],[-32.609,27.844],[-32.796,27.417],[-33.751,26.991],[-35.473,26.872],[-38.167,27.878],[-40.913,29.378],[-43.624,30.947],[-45.363,31.902],[-49.319,33.505],[-50.359,34.409],[-51.178,35.807],[-51.775,38.706],[-52.406,40.309],[-53.702,41.502],[-55.202,42.082],[-56.618,42.304],[-60.045,42.27],[-63.643,42.133],[-65.195,41.817],[-66.286,41.383],[-68.349,40.172],[-69.543,39.251],[-70.498,38.399],[-71.265,37.444],[-71.644,36.579],[-71.688,36.066],[-71.382,35.498],[-71.06,35.227],[-70.464,35.142],[-69.56,35.142],[-68.68,35.06],[-68.162,34.579],[-68.076,34.085],[-68.162,33.198],[-69.454,31.97],[-70.232,31.452],[-71.659,31.194],[-73.36,31.0],[-75.682,30.817],[-78.197,30.389],[-80.029,30.015],[-80.978,29.862],[-82.448,29.664],[-83.958,29.55],[-86.037,29.175],[-86.987,29.035],[-87.895,28.825],[-89.641,28.52],[-91.781,28.276],[-93.212,28.31],[-94.139,28.425],[-94.924,28.59],[-95.667,28.782],[-96.557,29.14],[-97.29,29.682],[-98.137,30.625],[-98.539,33.357],[-98.879,35.068],[-99.411,36.47]]]}},{"type":"Feature","properties":{"density":1},"geometry":{"type":"Polygon","coordinates":[[[-15.424,50.028],[-20.455,44.217],[-24.358,39.967],[-29.389,37.451],[-35.72,35.716],[-40.664,36.671],[-43.527,37.885],[-46.649,40.487],[-49.078,42.569],[-52.894,44.303],[-56.45,44.303],[-61.915,42.395],[-65.818,39.967],[-67.119,38.232],[-67.552,36.931],[-67.032,36.15],[-66.338,35.89],[-65.124,36.324],[-63.996,37.104],[-62.522,37.104],[-62.262,36.584],[-61.307,34.415],[-61.394,33.375],[-63.389,31.987],[-69.547,30.686],[-71.803,30.686],[-75.445,30.859],[-79.609,29.992],[-84.379,28.951],[-88.282,28.344],[-91.492,28.257],[-96.436,28.17],[-97.563,29.645],[-98.778,31.727],[-100.946,34.415],[-102.681,36.931],[-103.982,40.053],[-104.589,43.609],[-104.589,45.604],[-103.982,47.86],[-101.9,50.201],[-100.425,51.416],[-95.655,52.37],[-92.966,51.763],[-88.716,50.895],[-86.114,49.941],[-83.309,49.808],[-80.864,50.783],[-79.409,51.641],[-78.579,53.213],[-79.904,54.945],[-81.242,55.92],[-84.167,57.2],[-87.631,57.71],[-91.603,58.321],[-96.74,58.845],[-101.206,58.962],[-105.89,56.099],[-108.058,54.278],[-110.66,52.89],[-112.742,52.457],[-115.084,52.89],[-117.686,54.105],[-119.681,55.839],[-120.201,57.4],[-120.201,58.788],[-117.946,61.737],[-115.691,63.472],[-113.089,65.12],[-109.793,66.508],[-105.543,67.028],[-101.38,67.375],[-92.879,66.855],[-86.374,65.467],[-79.696,63.038],[-73.711,62.344],[-70.415,62.691],[-69.027,64.426],[-68.767,66.595],[-69.721,68.329],[-69.721,69.457],[-68.854,70.498],[-65.904,71.365],[-60.874,71.192],[-55.843,69.977],[-50.292,68.069],[-46.302,65.293],[-44.047,63.645],[-39.797,59.482],[-36.848,55.839],[-34.333,53.411],[-30.169,53.324],[-27.394,54.538],[-25.052,56.36],[-22.363,58.094],[-19.154,59.309],[-17.419,59.482],[-14.296,58.615],[-13.169,56.967],[-13.256,54.105],[-15.424,50.028]]]}},{"type":"Feature","properties":{"density":1},"geometry":{"type":"Polygon","coordinates":[[[-122.312,45.472],[-122.112,45.491],[-121.978,45.468],[-121.926,45.41],[-121.921,45.339],[-121.964,45.262],[-122.064,45.234],[-122.15,45.229],[-122.212,45.286],[-122.307,45.415],[-122.312,45.472]]]}},{"type":"Feature","properties":{"density":1},"geometry":{"type":"Polygon","coordinates":[[[-123.919,45.42],[-123.867,45.439],[-123.776,45.444],[-123.728,45.406],[-123.733,45.348],[-123.833,45.339],[-123.891,45.358],[-123.919,45.42]]]}},{"type":"Feature","properties":{"density":2},"geometry":{"type":"Polygon","coordinates":[[[-90.67,34.451],[-91.006,34.109],[-91.397,33.9],[-91.851,33.809],[-92.354,33.809],[-92.919,33.851],[-93.394,33.983],[-93.751,34.172],[-94.079,34.444],[-94.386,34.954],[-94.505,35.38],[-94.805,35.674],[-95.133,35.911],[-95.252,36.093],[-95.203,36.26],[-94.882,36.358],[-94.4,36.449],[-93.702,36.679],[-93.492,36.728],[-93.164,36.784],[-93.017,36.714],[-92.773,36.798],[-92.689,36.889],[-92.626,37.196],[-92.549,37.245],[-92.256,37.217],[-92.004,36.889],[-91.781,36.484],[-91.55,36.246],[-91.32,35.89],[-91.215,35.611],[-90.922,35.185],[-90.761,34.898],[-90.677,34.682],[-90.656,34.542],[-90.67,34.451]]]}},{"type":"Feature","properties":{"density":2},"geometry":{"type":"Polygon","coordinates":[[[-81.318,31.12],[-82.038,31.441],[-82.876,31.86],[-83.232,31.979],[-83.896,32.098],[-84.629,32.119],[-84.95,32.07],[-85.048,32.007],[-85.111,31.846],[-85.278,31.692],[-85.788,31.518],[-86.047,31.511],[-86.452,31.783],[-86.459,31.853],[-86.417,31.986],[-86.131,32.167],[-85.593,32.3],[-84.908,32.412],[-84.517,32.426],[-83.798,32.482],[-83.295,32.426],[-82.687,32.3],[-82.08,31.993],[-81.542,31.755],[-81.22,31.56],[-81.137,31.42],[-81.179,31.273],[-81.318,31.12]]]}},{"type":"Feature","properties":{"density":2},"geometry":{"type":"Polygon","coordinates":[[[-90.869,36.174],[-90.926,36.171],[-90.938,36.187],[-90.903,36.192],[-90.865,36.174],[-90.869,36.174]]]}},{"type":"Feature","properties":{"density":2},"geometry":{"type":"Polygon","coordinates":[[[-90.015,37.078],[-90.063,37.096],[-90.034,37.103],[-90.015,37.078]]]}},{"type":"Feature","properties":{"density":2},"geometry":{"type":"Polygon","coordinates":[[[-94.344,31.544],[-94.431,31.576],[-94.431,31.612],[-94.372,31.596],[-94.338,31.548],[-94.344,31.544]]]}},{"type":"Feature","properties":{"density":2},"geometry":{"type":"Polygon","coordinates":[[[-90.802,31.74],[-90.925,31.74],[-91.021,31.763],[-91.088,31.805],[-91.106,31.866],[-91.051,31.896],[-90.962,31.88],[-90.806,31.756],[-90.802,31.74]]]}},{"type":"Feature","properties":{"density":2},"geometry":{"type":"Polygon","coordinates":[[[-113.546,58.194],[-113.537,58.317],[-113.521,58.329],[-113.509,58.26],[-113.532,58.189],[-113.546,58.194]]]}},{"type":"Feature","properties":{"density":2},"geometry":{"type":"Polygon","coordinates":[[[-78.36,50.79],[-78.228,50.836],[-78.307,50.792],[-78.362,50.783],[-78.36,50.79]]]}},{"type":"Feature","properties":{"density":2},"geometry":{"type":"Polygon","coordinates":[[[-80.625,50.732],[-80.542,50.852],[-80.373,50.964],[-80.112,51.085],[-80.067,51.068],[-80.205,50.898],[-80.317,50.822],[-80.467,50.76],[-80.61,50.729],[-80.625,50.732]]]}},{"type":"Feature","properties":{"density":2},"geometry":{"type":"Polygon","coordinates":[[[-80.342,50.614],[-80.328,50.674],[-80.268,50.734],[-79.541,51.148],[-79.342,51.211],[-79.235,51.188],[-79.214,51.069],[-79.439,50.863],[-79.483,50.803],[-79.761,50.683],[-79.906,50.658],[-79.901,50.684],[-79.818,50.756],[-79.819,50.772],[-79.85,50.773],[-80.035,50.687],[-80.212,50.627],[-80.319,50.612],[-80.342,50.614]]]}},{"type":"Feature","properties":{"density":2},"geometry":{"type":"Polygon","coordinates":[[[-79.401,50.715],[-79.324,50.836],[-79.27,50.889],[-79.081,51.018],[-78.85,51.091],[-78.763,51.172],[-78.532,51.233],[-78.403,51.287],[-78.341,51.346],[-78.28,51.342],[-78.255,51.29],[-78.274,51.2],[-78.397,51.065],[-78.649,50.968],[-78.752,50.952],[-79.024,50.83],[-79.213,50.693],[-79.389,50.65],[-79.403,50.672],[-79.401,50.715]]]}},{"type":"Feature","properties":{"density":2},"geometry":{"type":"Polygon","coordinates":[[[-79.257,50.602],[-79.168,50.656],[-79.017,50.702],[-79.009,50.668],[-79.077,50.625],[-79.261,50.595],[-79.257,50.602]]]}},{"type":"Feature","properties":{"density":2},"geometry":{"type":"Polygon","coordinates":[[[-77.862,51.598],[-78.18,51.664],[-78.763,51.844],[-79.084,52.004],[-79.33,52.259],[-79.541,52.699],[-79.473,52.985],[-79.301,53.246],[-79.038,53.337],[-78.892,53.312],[-78.614,52.985],[-78.323,52.528],[-78.085,52.23],[-77.825,52.01],[-77.55,51.81],[-77.464,51.707],[-77.467,51.615],[-77.539,51.572],[-77.679,51.566],[-77.862,51.598]]]}},{"type":"Feature","properties":{"density":2},"geometry":{"type":"Polygon","coordinates":[[[-78.442,53.18],[-78.46,53.204],[-78.462,53.263],[-78.413,53.297],[-78.365,53.288],[-78.361,53.257],[-78.38,53.22],[-78.416,53.189],[-78.442,53.18]]]}},{"type":"Feature","properties":{"density":2},"geometry":{"type":"Polygon","coordinates":[[[-77.968,53.38],[-77.99,53.411],[-77.993,53.457],[-77.968,53.493],[-77.916,53.497],[-77.887,53.466],[-77.882,53.405],[-77.953,53.383],[-77.968,53.38]]]}},{"type":"Feature","properties":{"density":2},"geometry":{"type":"Polygon","coordinates":[[[-77.624,53.059],[-77.596,53.16],[-77.6,53.215],[-77.704,53.409],[-77.772,53.493],[-77.774,53.581],[-77.711,53.651],[-77.585,53.729],[-77.486,53.724],[-77.439,53.678],[-77.415,53.286],[-77.444,53.162],[-77.592,53.057],[-77.622,53.052],[-77.624,53.059]]]}},{"type":"Feature","properties":{"density":2},"geometry":{"type":"Polygon","coordinates":[[[-75.701,50.314],[-75.88,50.121],[-76.298,49.864],[-76.616,49.728],[-76.931,49.678],[-77.128,49.714],[-77.138,49.842],[-77.092,49.975],[-76.838,50.25],[-76.752,50.389],[-76.556,50.518],[-76.109,50.733],[-75.948,50.711],[-75.815,50.651],[-75.744,50.575],[-75.701,50.472],[-75.701,50.314]]]}},{"type":"Feature","properties":{"density":2},"geometry":{"type":"Polygon","coordinates":[[[-84.773,51.578],[-84.714,51.598],[-84.556,51.56],[-84.579,51.539],[-84.721,51.576],[-84.773,51.578]]]}},{"type":"Feature","properties":{"density":2},"geometry":{"type":"Polygon","coordinates":[[[-72.871,35.88],[-72.844,35.513],[-72.952,35.178],[-73.189,34.941],[-73.591,34.91],[-74.011,34.91],[-74.364,34.825],[-75.29,34.646],[-75.683,34.66],[-75.893,34.785],[-76.13,35.075],[-76.139,35.634],[-75.777,36.197],[-75.772,36.483],[-75.821,36.658],[-76.099,36.939],[-76.215,37.4],[-76.125,38.178],[-75.705,38.978],[-74.628,40.444],[-73.881,41.155],[-72.916,41.771],[-71.839,42.621],[-70.945,43.26],[-70.001,43.984],[-69.027,44.619],[-67.726,45.321],[-67.476,45.625],[-67.404,45.871],[-67.418,46.21],[-67.382,46.362],[-67.248,46.568],[-66.676,46.925],[-66.054,47.364],[-65.809,47.502],[-65.433,47.752],[-64.91,48.012],[-63.448,48.517],[-62.814,48.848],[-62.541,49.008],[-62.054,49.219],[-61.45,49.455],[-60.498,49.782],[-59.121,50.323],[-57.914,50.712],[-57.012,50.971],[-56.404,51.064],[-55.962,51.036],[-55.615,50.824],[-55.314,50.749],[-55.104,50.82],[-54.367,51.021],[-53.406,51.034],[-52.093,51.09],[-50.794,51.251],[-50.319,51.097],[-50.081,50.873],[-50.026,50.636],[-50.137,50.119],[-50.34,49.889],[-50.487,49.623],[-50.514,49.288],[-50.48,48.834],[-50.514,48.534],[-50.738,47.919],[-50.996,47.689],[-51.66,47.486],[-52.212,47.591],[-52.952,47.772],[-53.72,48.164],[-54.349,48.673],[-54.747,49.078],[-54.873,49.134],[-55.194,49.12],[-55.48,48.904],[-56.151,48.666],[-56.472,48.631],[-56.975,48.366],[-57.178,48.108],[-57.401,47.898],[-57.443,47.619],[-57.646,47.304],[-57.972,47.112],[-58.397,47.001],[-59.151,46.76],[-60.174,46.19],[-60.716,46.034],[-61.169,45.844],[-61.476,45.682],[-62.141,45.397],[-62.8,45.028],[-63.068,44.81],[-63.174,44.671],[-63.141,44.464],[-63.225,44.173],[-63.728,43.782],[-64.499,43.397],[-65.22,43.123],[-65.957,42.922],[-66.533,42.709],[-68.382,41.882],[-69.416,41.273],[-69.751,41.122],[-70.505,40.731],[-70.947,40.424],[-71.377,39.893],[-71.751,39.519],[-72.187,38.954],[-72.673,38.25],[-72.796,37.949],[-72.791,37.602],[-72.735,36.943],[-72.796,36.39],[-72.871,35.88]]]}},{"type":"Feature","properties":{"density":2},"geometry":{"type":"Polygon","coordinates":[[[-47.423,50.485],[-47.756,48.432],[-48.755,47.432],[-50.642,46.433],[-54.584,45.378],[-56.971,44.879],[-60.69,43.935],[-65.02,42.27],[-66.741,40.66],[-67.573,39.328],[-68.517,38.329],[-69.683,37.718],[-71.848,36.83],[-72.514,36.164],[-73.291,33.721],[-73.902,33.444],[-74.845,33.499],[-76.011,34.165],[-76.511,34.72],[-76.844,35.72],[-76.733,36.941],[-75.622,38.384],[-73.569,39.827],[-71.126,41.937],[-69.516,43.547],[-66.352,45.267],[-61.134,47.377],[-57.526,49.098],[-53.307,50.874],[-50.864,51.929],[-48.533,52.484],[-47.478,52.151],[-47.312,51.873],[-47.423,50.485]]]}},{"type":"Feature","properties":{"density":2},"geometry":{"type":"Polygon","coordinates":[[[-79.074,51.118],[-77.779,51.088],[-76.848,51.016],[-76.644,50.856],[-76.557,50.579],[-76.586,50.143],[-76.804,49.895],[-77.372,49.677],[-77.866,49.619],[-78.507,49.837],[-79.06,50.07],[-80.035,50.361],[-80.267,50.506],[-80.34,50.652],[-80.267,50.754],[-80.049,50.841],[-79.467,50.87],[-79.06,50.87],[-79.03,50.943],[-79.045,51.03],[-79.074,51.118]]]}},{"type":"Feature","properties":{"density":2},"geometry":{"type":"Polygon","coordinates":[[[-90.253,37.133],[-90.074,37.139],[-89.919,37.115],[-89.824,37.068],[-89.651,36.937],[-89.627,36.865],[-89.633,36.817],[-89.687,36.722],[-89.854,36.555],[-89.877,36.418],[-89.871,36.341],[-89.907,36.221],[-90.122,35.959],[-90.289,35.84],[-90.277,35.768],[-90.205,35.745],[-90.122,35.768],[-90.044,35.745],[-90.008,35.625],[-90.068,35.542],[-90.587,35.262],[-90.557,35.232],[-90.491,35.232],[-90.414,35.208],[-90.432,35.131],[-90.706,35.041],[-90.897,35.077],[-91.391,34.91],[-91.934,34.421],[-92.405,34.374],[-92.53,34.529],[-92.56,34.719],[-92.512,34.97],[-92.387,35.286],[-92.184,35.435],[-92.041,35.512],[-91.958,35.536],[-91.904,35.625],[-91.88,35.745],[-91.82,35.864],[-91.487,36.049],[-91.409,36.12],[-91.326,36.293],[-91.236,36.621],[-91.177,36.716],[-91.004,36.847],[-90.849,36.895],[-90.706,36.978],[-90.253,37.133]]]}},{"type":"Feature","properties":{"density":2},"geometry":{"type":"Polygon","coordinates":[[[-94.058,29.776],[-94.377,29.647],[-94.792,29.58],[-95.083,29.547],[-95.14,29.595],[-95.15,29.638],[-95.14,29.661],[-94.93,29.728],[-94.434,29.771],[-94.172,29.876],[-94.115,29.847],[-94.058,29.776]]]}},{"type":"Feature","properties":{"density":3},"geometry":{"type":"Polygon","coordinates":[[[-80.592,50.766],[-80.544,50.837],[-80.452,50.883],[-80.449,50.849],[-80.518,50.789],[-80.569,50.774],[-80.592,50.766]]]}},{"type":"Feature","properties":{"density":3},"geometry":{"type":"Polygon","coordinates":[[[-80.335,50.628],[-80.303,50.691],[-80.157,50.777],[-79.751,50.983],[-79.691,51.003],[-79.654,50.977],[-79.691,50.912],[-79.763,50.854],[-79.886,50.809],[-80.049,50.697],[-80.269,50.62],[-80.332,50.62],[-80.335,50.628]]]}},{"type":"Feature","properties":{"density":3},"geometry":{"type":"Polygon","coordinates":[[[-79.894,50.674],[-79.677,50.854],[-79.545,50.917],[-79.465,50.975],[-79.408,50.966],[-79.474,50.832],[-79.534,50.789],[-79.708,50.706],[-79.874,50.671],[-79.894,50.674]]]}},{"type":"Feature","properties":{"density":3},"geometry":{"type":"Polygon","coordinates":[[[-79.388,50.697],[-79.345,50.771],[-79.259,50.854],[-79.156,50.915],[-79.059,50.935],[-79.007,50.923],[-79.036,50.854],[-79.125,50.763],[-79.219,50.697],[-79.334,50.668],[-79.394,50.676],[-79.388,50.697]]]}},{"type":"Feature","properties":{"density":3},"geometry":{"type":"Polygon","coordinates":[[[-79.243,50.606],[-79.124,50.654],[-79.106,50.633],[-79.216,50.608],[-79.243,50.606]]]}},{"type":"Feature","properties":{"density":3},"geometry":{"type":"Polygon","coordinates":[[[-78.747,50.983],[-78.575,51.153],[-78.506,51.164],[-78.486,51.127],[-78.547,51.031],[-78.743,50.971],[-78.747,50.983]]]}},{"type":"Feature","properties":{"density":3},"geometry":{"type":"Polygon","coordinates":[[[-77.651,53.354],[-77.662,53.404],[-77.631,53.449],[-77.574,53.449],[-77.558,53.418],[-77.574,53.378],[-77.638,53.36],[-77.651,53.354]]]}},{"type":"Feature","properties":{"density":3},"geometry":{"type":"Polygon","coordinates":[[[-54.822,50.03],[-55.856,49.583],[-56.342,49.438],[-56.984,49.393],[-57.593,49.471],[-57.621,49.555],[-57.532,49.701],[-57.314,49.812],[-57.135,49.935],[-56.956,50.108],[-56.906,50.265],[-56.878,50.455],[-56.822,50.645],[-56.727,50.717],[-56.42,50.768],[-56.062,50.768],[-55.716,50.639],[-55.403,50.494],[-55.275,50.365],[-54.878,50.265],[-54.772,50.192],[-54.755,50.12],[-54.822,50.03]]]}},{"type":"Feature","properties":{"density":3},"geometry":{"type":"Polygon","coordinates":[[[-58.018,47.136],[-58.622,46.991],[-59.209,46.807],[-59.544,46.594],[-59.918,46.438],[-60.544,46.304],[-60.997,46.265],[-61.449,46.192],[-61.578,46.108],[-61.65,45.957],[-61.891,45.806],[-62.036,45.784],[-62.209,45.79],[-63.019,45.466],[-63.623,45.292],[-64.114,45.097],[-64.394,45.041],[-64.578,45.086],[-64.673,45.141],[-64.953,45.147],[-65.724,44.851],[-66.299,44.655],[-66.556,44.482],[-67.037,44.102],[-67.176,43.901],[-67.171,43.745],[-67.093,43.672],[-66.729,43.823],[-66.523,43.784],[-66.394,43.677],[-66.361,43.426],[-66.444,43.303],[-66.629,43.124],[-66.964,42.828],[-67.199,42.655],[-67.612,42.471],[-68.663,42.091],[-68.948,42.124],[-69.233,42.074],[-69.417,41.929],[-70.216,41.733],[-70.702,41.515],[-70.976,41.359],[-71.093,41.336],[-71.071,41.403],[-70.59,41.839],[-70.032,42.241],[-69.568,42.605],[-69.093,42.823],[-68.931,43.063],[-69.138,43.108],[-69.339,43.091],[-69.791,42.856],[-71.037,41.794],[-71.535,41.398],[-72.172,40.845],[-72.574,40.571],[-72.809,40.476],[-73.105,40.252],[-73.239,40.079],[-73.211,39.995],[-73.027,40.085],[-72.73,40.291],[-72.574,40.465],[-72.401,40.56],[-72.138,40.75],[-71.92,40.873],[-71.825,40.889],[-71.959,40.649],[-72.641,39.738],[-72.831,39.381],[-73.155,38.61],[-73.161,38.42],[-73.021,37.783],[-72.959,37.235],[-72.932,36.548],[-73.066,35.732],[-73.25,35.296],[-73.524,35.084],[-73.77,35.117],[-74.496,35.704],[-74.854,36.09],[-75.563,36.928],[-76.005,37.118],[-76.083,37.369],[-76.044,37.933],[-75.535,39.034],[-74.971,39.822],[-74.569,40.347],[-74.105,40.772],[-72.591,41.873],[-71.591,42.638],[-70.842,43.158],[-68.802,44.482],[-67.741,45.019],[-66.333,45.549],[-65.589,45.851],[-64.64,46.17],[-63.086,46.488],[-62.46,46.522],[-61.818,46.617],[-61.181,46.756],[-59.778,47.321],[-59.225,47.455],[-58.611,47.538],[-58.085,47.572],[-57.951,47.511],[-57.918,47.382],[-57.94,47.242],[-57.974,47.186],[-58.018,47.136]]]}},{"type":"Feature","properties":{"density":3},"geometry":{"type":"Polygon","coordinates":[[[-58.337,48.539],[-58.538,48.371],[-59.292,47.913],[-60.142,47.55],[-60.957,47.226],[-61.835,46.907],[-62.483,46.628],[-62.952,46.605],[-63.226,46.739],[-63.5,46.622],[-64.07,46.488],[-64.405,46.572],[-64.539,46.846],[-64.478,46.935],[-64.042,47.209],[-63.064,47.717],[-62.12,48.142],[-61.315,48.472],[-59.79,48.785],[-59.393,48.852],[-58.611,48.868],[-58.359,48.801],[-58.275,48.706],[-58.337,48.539]]]}},{"type":"Feature","properties":{"density":3},"geometry":{"type":"Polygon","coordinates":[[[-51.098,50.874],[-50.165,49.675],[-50.565,48.876],[-52.163,47.765],[-54.739,46.7],[-60.068,45.323],[-64.154,43.591],[-66.641,41.859],[-68.284,40.394],[-69.261,39.417],[-69.705,39.195],[-71.082,38.928],[-72.592,38.218],[-73.391,37.773],[-74.146,37.773],[-74.235,38.129],[-73.657,39.195],[-72.592,40.349],[-69.749,42.481],[-66.685,44.39],[-64.198,45.589],[-62.377,46.788],[-59.846,47.721],[-55.094,48.964],[-53.718,49.764],[-53.007,50.652],[-52.297,51.141],[-51.586,51.274],[-51.098,50.874]]]}},{"type":"Feature","properties":{"density":3},"geometry":{"type":"Polygon","coordinates":[[[-79.009,51.068],[-77.303,50.964],[-77.064,50.867],[-76.896,50.5],[-77.02,50.019],[-77.291,50.004],[-77.792,50.314],[-78.064,50.243],[-78.121,49.928],[-78.231,49.88],[-78.956,50.071],[-79.766,50.343],[-80.082,50.539],[-80.246,50.621],[-80.216,50.651],[-79.888,50.755],[-79.59,50.8],[-79.262,50.785],[-79.076,50.83],[-78.934,50.875],[-78.934,50.994],[-79.009,51.068]]]}},{"type":"Feature","properties":{"density":3},"geometry":{"type":"Polygon","coordinates":[[[-94.105,29.79],[-94.458,29.652],[-94.878,29.599],[-94.959,29.599],[-94.973,29.633],[-94.964,29.671],[-94.415,29.752],[-94.263,29.804],[-94.134,29.828],[-94.105,29.79]]]}}]}