{"type":"FeatureCollection","features":[{"type":"Feature","properties":{"density":1},"geometry":{"type":"Polygon","coordinates":[[[-89.034,20.981],[-89.151,20.967],[-89.305,20.993],[-89.348,21.035],[-89.345,21.081],[-89.311,21.101],[-89.24,21.084],[-89.023,20.984],[-89.034,20.981]]]}},{"type":"Feature","properties":{"density":1},"geometry":{"type":"Polygon","coordinates":[[[-150.143,63.918],[-150.535,63.896],[-151.797,64.081],[-153.43,64.43],[-155.923,64.865],[-158.187,65.507],[-159.732,66.443],[-160.07,67.554],[-159.95,68.707],[-159.232,69.643],[-157.784,70.569],[-155.327,71.555],[-152.252,72.317],[-147.109,73.011],[-139.897,73.31],[-128.958,73.405],[-126.033,73.324],[-124.923,72.975],[-124.553,72.551],[-124.563,71.397],[-124.237,70.591],[-123.41,70.004],[-121.929,69.351],[-119.67,69.115],[-118.309,69.115],[-117.204,68.945],[-116.553,68.726],[-116.145,68.352],[-116.043,68.046],[-116.17,67.517],[-116.727,67.273],[-117.224,67.265],[-117.354,67.212],[-117.494,67.117],[-117.581,66.89],[-117.511,66.62],[-117.006,66.551],[-116.031,66.315],[-115.456,66.019],[-115.01,65.82],[-114.488,65.726],[-114.131,65.584],[-113.043,64.948],[-112.39,64.269],[-111.597,63.555],[-111.2,63.152],[-110.966,62.684],[-110.598,62.175],[-109.618,61.663],[-108.53,61.402],[-107.463,61.293],[-106.233,61.315],[-104.611,61.413],[-102.445,61.718],[-100.497,62.24],[-98.614,63.165],[-97.374,64.088],[-96.065,65.023],[-94.585,65.857],[-91.83,66.656],[-88.691,67.287],[-86.086,67.526],[-82.207,67.819],[-79.363,67.951],[-77.184,68.084],[-72.56,68.802],[-71.47,69.174],[-68.893,70.157],[-67.351,70.795],[-65.518,71.167],[-62.94,71.512],[-60.974,71.114],[-59.937,70.795],[-59.22,69.758],[-59.06,68.589],[-59.326,67.553],[-59.831,66.702],[-60.92,65.055],[-62.249,63.779],[-63.684,62.902],[-65.451,61.348],[-66.097,60.531],[-66.539,59.936],[-67.118,59.018],[-67.509,58.49],[-68.529,56.858],[-69.38,56.041],[-70.638,55.48],[-71.642,54.987],[-72.951,54.273],[-73.393,53.813],[-73.826,52.763],[-73.731,51.729],[-72.955,50.94],[-71.309,50.26],[-69.575,50.273],[-68.176,50.542],[-66.792,50.627],[-65.037,50.369],[-60.669,49.525],[-58.995,49.049],[-57.444,48.654],[-55.526,48.273],[-52.519,47.443],[-49.607,46.382],[-47.469,45.418],[-45.854,44.547],[-44.791,42.844],[-45.213,40.042],[-46.993,37.557],[-49.561,35.89],[-53.014,35.329],[-55.513,35.629],[-59.595,37.181],[-63.932,37.543],[-67.461,36.985],[-70.118,35.922],[-73.371,34.391],[-76.314,33.436],[-77.026,32.945],[-77.448,32.4],[-77.843,31.584],[-77.992,30.809],[-78.264,30.155],[-79.176,28.169],[-79.747,27.217],[-80.591,26.672],[-81.135,26.482],[-82.169,26.21],[-83.231,26.21],[-84.891,25.938],[-87.748,25.815],[-90.455,25.543],[-90.954,25.813],[-91.093,26.361],[-91.111,26.814],[-91.224,27.45],[-91.702,28.512],[-92.608,28.958],[-93.674,29.013],[-95.039,28.895],[-96.307,27.913],[-96.446,27.279],[-96.92,25.816],[-97.248,23.566],[-97.09,22.14],[-96.99,21.621],[-96.873,21.214],[-96.667,20.752],[-96.522,20.345],[-96.539,20.016],[-96.661,19.921],[-96.923,19.882],[-97.765,20.122],[-98.545,20.925],[-99.511,22.042],[-99.598,22.597],[-99.576,22.716],[-99.402,23.141],[-99.326,23.761],[-99.598,24.338],[-99.821,25.251],[-100.188,25.931],[-101.027,26.837],[-101.507,27.526],[-103.581,29.526],[-104.974,29.94],[-106.28,29.972],[-107.696,29.885],[-109.252,29.82],[-110.711,29.679],[-111.892,29.268],[-112.686,28.892],[-114.072,27.259],[-116.56,25.41],[-119.6,24.113],[-122.172,23.73],[-124.298,23.751],[-125.659,24.517],[-126.233,25.792],[-126.126,27.047],[-125.234,28.811],[-123.129,30.958],[-122.257,32.862],[-122.191,34.935],[-123.305,37.626],[-124.089,38.279],[-124.751,39.481],[-125.143,40.857],[-124.738,42.016],[-124.504,42.362],[-124.231,42.618],[-124.12,42.579],[-124.003,42.512],[-123.947,42.367],[-123.551,42.083],[-123.089,41.921],[-122.598,41.531],[-122.013,40.957],[-121.55,40.211],[-121.567,39.965],[-121.651,39.793],[-122.152,39.776],[-122.676,39.804],[-123.183,39.759],[-123.412,39.519],[-123.434,39.191],[-123.15,38.544],[-122.36,37.461],[-122.074,37.036],[-121.301,36.193],[-119.608,34.103],[-119.009,32.954],[-117.999,32.194],[-116.432,31.832],[-115.435,31.846],[-113.204,32.389],[-111.341,32.964],[-109.8,33.469],[-109.329,33.661],[-108.781,34.061],[-108.433,34.357],[-108.041,35.324],[-108.18,35.724],[-107.84,36.256],[-106.761,36.691],[-105.777,37.17],[-105.115,37.806],[-105.158,38.049],[-105.411,38.276],[-105.951,38.476],[-106.203,38.807],[-106.404,39.225],[-106.36,39.451],[-106.108,39.617],[-105.733,39.782],[-105.576,40.139],[-105.864,40.749],[-106.395,40.94],[-107.17,40.958],[-108.311,40.879],[-109.826,40.923],[-110.843,41.154],[-111.602,41.627],[-114.505,42.032],[-115.489,42.006],[-116.752,41.893],[-118.642,41.588],[-119.521,41.675],[-120.488,42.198],[-121.245,42.781],[-122.404,42.999],[-123.266,43.121],[-123.975,43.312],[-124.476,43.715],[-124.857,44.912],[-124.639,47.742],[-125.51,51.084],[-125.913,51.976],[-126.163,52.488],[-127.371,53.925],[-128.667,55.133],[-128.966,55.526],[-128.959,56.083],[-128.548,56.418],[-127.782,56.411],[-125.894,56.007],[-125.706,56.055],[-125.524,56.376],[-125.409,56.64],[-125.618,57.223],[-127.081,58.303],[-128.213,59.017],[-129.145,59.496],[-130.538,60.323],[-130.879,60.342],[-131.486,60.314],[-132.3,60.186],[-132.969,60.225],[-133.43,60.496],[-133.921,60.819],[-134.453,61.142],[-135.305,61.793],[-135.453,61.96],[-135.468,62.202],[-135.412,62.241],[-134.743,62.175],[-134.636,62.299],[-134.806,62.808],[-135.109,62.982],[-135.604,63.204],[-136.415,63.352],[-136.919,63.468],[-137.254,63.619],[-137.512,63.655],[-138.015,63.683],[-138.718,63.781],[-140.379,63.692],[-141.047,63.854],[-141.861,63.882],[-143.026,63.804],[-144.898,63.636],[-145.996,63.597],[-146.949,63.681],[-147.579,63.865],[-148.264,64.105],[-148.51,64.249],[-148.911,64.333],[-149.134,64.266],[-149.769,63.943],[-150.143,63.918]]]}},{"type":"Feature","properties":{"density":1},"geometry":{"type":"Polygon","coordinates":[[[-134.33,73.58],[-131.531,74.085],[-128.024,73.795],[-123.901,73.092],[-120.582,72.084],[-118.548,71.384],[-116.628,69.822],[-115.197,68.455],[-114.546,67.512],[-113.586,66.227],[-112.935,65.153],[-111.373,62.924],[-110.586,61.243],[-110.348,60.687],[-109.275,59.774],[-107.409,59.059],[-105.383,58.86],[-103.595,58.9],[-102.095,59.055],[-100.577,59.376],[-99.425,60.488],[-98.67,62.117],[-98.193,63.547],[-96.922,64.699],[-95.292,65.822],[-91.957,66.884],[-89.018,66.923],[-84.808,66.407],[-81.772,66.277],[-78.969,66.129],[-75.791,66.685],[-72.653,67.44],[-69.475,68.155],[-66.695,68.472],[-64.471,68.83],[-63.08,68.989],[-61.412,69.028],[-60.062,69.028],[-58.83,68.79],[-57.678,67.996],[-57.48,66.844],[-57.639,65.612],[-58.791,64.302],[-60.538,63.309],[-63.111,61.689],[-65.991,59.33],[-68.22,58.077],[-72.45,57.671],[-75.632,57.073],[-76.423,56.53],[-76.839,56.101],[-77.386,55.189],[-77.36,54.591],[-77.087,53.914],[-76.709,53.367],[-76.319,52.495],[-75.668,51.454],[-75.03,50.751],[-74.262,49.723],[-73.234,48.903],[-71.382,47.857],[-68.757,47.094],[-66.231,47.289],[-63.98,48.525],[-61.871,48.877],[-59.268,48.408],[-55.741,47.406],[-52.07,46.586],[-48.83,46.365],[-46.12,46.626],[-44.809,46.388],[-43.101,45.832],[-41.274,44.958],[-40.678,44.124],[-40.162,42.813],[-40.519,40.549],[-41.87,38.92],[-43.688,37.41],[-45.159,36.928],[-46.799,36.668],[-49.806,36.915],[-51.914,37.28],[-55.534,38.126],[-58.91,38.364],[-62.275,38.386],[-64.605,37.814],[-66.518,37.267],[-69.108,36.33],[-70.349,36.021],[-71.932,35.588],[-73.128,35.021],[-74.124,34.35],[-75.121,33.578],[-75.812,32.866],[-76.605,32.012],[-77.217,30.863],[-77.776,30.199],[-78.518,29.458],[-79.229,29.063],[-79.798,28.9],[-80.571,29.002],[-81.791,29.592],[-82.201,31.027],[-81.962,31.98],[-81.343,33.544],[-80.334,34.88],[-78.904,36.35],[-77.792,37.899],[-76.799,40.004],[-76.6,40.679],[-75.785,42.655],[-75.798,44.517],[-76.709,45.948],[-77.998,47.25],[-80.145,48.135],[-82.598,48.345],[-84.974,47.823],[-86.874,47.12],[-89.178,46.625],[-92.053,46.204],[-93.146,45.925],[-94.341,45.467],[-95.129,44.857],[-96.756,43.662],[-97.823,42.366],[-98.764,41.273],[-99.679,40.739],[-100.645,40.586],[-102.116,40.716],[-104.029,41.445],[-105.994,43.202],[-107.257,44.764],[-107.814,46.738],[-108.5,47.45],[-109.492,47.907],[-110.305,48.136],[-111.805,48.136],[-113.543,47.653],[-115.053,46.833],[-116.068,46.144],[-117.042,45.696],[-118.16,45.264],[-119.787,44.73],[-120.804,44.221],[-121.592,43.611],[-122.406,42.747],[-123.168,42.188],[-123.55,41.323],[-124.007,40.459],[-124.236,39.595],[-124.363,39.264],[-124.643,38.908],[-125.1,38.985],[-125.304,39.468],[-125.405,40.739],[-125.456,41.628],[-125.456,42.239],[-125.14,43.371],[-124.958,44.894],[-125.202,46.535],[-125.126,47.958],[-125.431,49.484],[-125.965,51.797],[-126.321,53.195],[-126.397,54.39],[-126.321,57.618],[-126.651,58.178],[-127.159,58.889],[-128.125,59.932],[-128.867,60.403],[-129.401,61.092],[-129.999,61.561],[-130.988,61.991],[-132.002,62.275],[-134.512,62.806],[-136.626,63.212],[-138.01,63.535],[-139.833,63.764],[-141.306,63.978],[-142.985,64.069],[-144.586,63.991],[-146.148,63.965],[-147.41,63.848],[-149.18,63.627],[-150.615,63.428],[-151.608,63.249],[-152.324,63.249],[-153.056,63.347],[-153.967,63.542],[-154.976,63.851],[-155.805,63.916],[-156.765,64.144],[-157.758,64.697],[-158.327,65.38],[-159.059,66.113],[-159.694,66.861],[-160.426,68.13],[-160.703,69.155],[-160.166,70.066],[-159.417,70.522],[-158.034,70.88],[-156.521,71.124],[-154.634,71.335],[-153.023,71.661],[-151.234,71.823],[-149.005,71.953],[-146.76,72.165],[-144.498,72.344],[-142.432,72.425],[-140.593,72.572],[-139.585,72.734],[-136.542,73.271],[-134.33,73.58]]]}},{"type":"Feature","properties":{"density":1},"geometry":{"type":"Polygon","coordinates":[[[-112.056,36.566],[-111.61,36.526],[-110.89,36.613],[-109.757,36.913],[-109.217,37.213],[-109.144,37.286],[-109.137,37.499],[-109.271,37.606],[-109.604,37.586],[-110.277,37.333],[-110.93,37.059],[-111.603,36.866],[-112.003,36.706],[-112.096,36.633],[-112.056,36.566]]]}},{"type":"Feature","properties":{"density":1},"geometry":{"type":"Polygon","coordinates":[[[-106.789,37.357],[-106.395,37.436],[-106.157,37.456],[-106.125,37.511],[-106.151,37.584],[-106.221,37.62],[-106.343,37.623],[-106.689,37.503],[-106.828,37.434],[-106.84,37.382],[-106.829,37.374],[-106.789,37.357]]]}},{"type":"Feature","properties":{"density":1},"geometry":{"type":"Polygon","coordinates":[[[-106.798,36.084],[-106.52,36.095],[-106.223,36.047],[-105.747,36.152],[-105.687,36.206],[-105.659,36.295],[-105.671,36.355],[-105.747,36.437],[-105.897,36.465],[-106.292,36.378],[-106.417,36.316],[-106.641,36.247],[-106.765,36.192],[-106.826,36.149],[-106.838,36.112],[-106.817,36.091],[-106.798,36.084]]]}},{"type":"Feature","properties":{"density":1},"geometry":{"type":"Polygon","coordinates":[[[-109.507,33.624],[-109.244,33.736],[-108.879,33.781],[-108.565,33.794],[-107.924,33.743],[-107.596,33.764],[-107.405,33.801],[-107.224,33.805],[-106.996,33.76],[-106.798,33.651],[-106.757,33.542],[-106.767,33.385],[-106.873,33.228],[-107.262,32.941],[-107.514,32.901],[-107.996,32.986],[-108.402,33.027],[-108.439,33.078],[-108.446,33.289],[-108.501,33.395],[-108.75,33.593],[-108.91,33.634],[-109.115,33.617],[-109.439,33.549],[-109.504,33.593],[-109.507,33.624]]]}},{"type":"Feature","properties":{"density":1},"geometry":{"type":"Polygon","coordinates":[[[-102.529,36.003],[-101.071,36.511],[-99.757,37.031],[-98.741,37.031],[-97.427,36.758],[-96.021,36.68],[-94.772,36.953],[-93.418,36.888],[-92.546,36.68],[-92.168,36.446],[-91.635,36.172],[-91.075,35.613],[-90.685,34.754],[-90.567,33.465],[-90.724,32.723],[-91.83,31.487],[-92.533,30.901],[-93.158,30.641],[-93.926,30.693],[-94.589,30.888],[-95.852,31.591],[-97.908,32.463],[-99.236,32.463],[-100.16,32.203],[-100.902,31.734],[-102.125,31.161],[-103.362,30.758],[-104.611,31.187],[-105.08,31.851],[-105.34,32.32],[-105.379,32.801],[-105.08,33.4],[-104.572,34.064],[-104.104,34.819],[-103.518,35.456],[-102.711,35.899],[-102.529,36.003]]]}},{"type":"Feature","properties":{"density":1},"geometry":{"type":"Polygon","coordinates":[[[-92.03,19.351],[-92.713,19.398],[-93.091,19.452],[-93.47,19.638],[-93.976,20.23],[-94.232,20.561],[-94.296,20.913],[-94.205,21.35],[-93.875,21.675],[-93.48,21.766],[-93.304,21.68],[-93.182,21.344],[-93.177,20.971],[-93.07,20.753],[-92.867,20.534],[-92.404,19.916],[-92.004,19.436],[-92.03,19.351]]]}},{"type":"Feature","properties":{"density":1},"geometry":{"type":"Polygon","coordinates":[[[-96.327,22.799],[-97.025,22.528],[-97.306,22.237],[-97.473,21.664],[-97.358,21.081],[-96.848,20.394],[-96.64,19.988],[-96.546,19.373],[-96.535,18.905],[-96.411,18.426],[-96.129,17.791],[-95.442,17.01],[-94.817,16.625],[-94.411,16.604],[-93.776,16.718],[-93.568,16.864],[-93.412,17.218],[-93.297,18.124],[-92.995,18.54],[-92.152,18.874],[-91.787,19.207],[-91.777,19.478],[-91.954,19.863],[-92.131,20.404],[-92.121,21.248],[-92.35,21.852],[-92.797,22.341],[-93.485,22.872],[-93.995,23.132],[-95.005,23.226],[-95.671,23.039],[-96.036,22.903],[-96.327,22.799]]]}},{"type":"Feature","properties":{"density":1},"geometry":{"type":"Polygon","coordinates":[[[-114.474,31.492],[-113.901,31.765],[-113.081,31.765],[-112.17,31.401],[-111.636,30.698],[-111.064,29.735],[-110.374,28.798],[-109.749,28.095],[-108.916,26.82],[-108.434,25.284],[-108.226,24.334],[-108.786,23.123],[-109.072,22.928],[-109.463,22.811],[-109.957,22.798],[-110.699,22.967],[-111.649,23.461],[-112.066,23.8],[-113.042,24.19],[-114.63,24.425],[-116.035,24.086],[-116.777,24.008],[-117.428,24.19],[-118.378,24.724],[-119.198,25.531],[-119.654,26.351],[-119.719,27.158],[-119.446,28.03],[-118.847,28.772],[-117.988,29.358],[-116.895,29.566],[-115.645,30.138],[-115.02,30.958],[-114.708,31.401],[-114.474,31.492]]]}},{"type":"Feature","properties":{"density":1},"geometry":{"type":"Polygon","coordinates":[[[-83.512,24.024],[-84.07,23.758],[-84.745,23.341],[-85.028,23.1],[-85.745,22.358],[-86.069,21.834],[-86.011,21.475],[-85.82,21.275],[-85.153,21.217],[-84.495,21.409],[-83.895,21.767],[-83.52,22.275],[-83.229,22.608],[-82.896,22.9],[-82.596,23.25],[-82.529,23.733],[-82.737,24.024],[-83.137,24.166],[-83.446,24.066],[-83.512,24.024]]]}},{"type":"Feature","properties":{"density":1},"geometry":{"type":"Polygon","coordinates":[[[-112.506,38.121],[-111.818,38.057],[-111.157,38.051],[-110.437,38.259],[-110.32,38.398],[-110.32,38.552],[-110.517,38.686],[-110.746,38.707],[-111.695,38.542],[-112.415,38.323],[-112.548,38.259],[-112.506,38.121]]]}},{"type":"Feature","properties":{"density":1},"geometry":{"type":"Polygon","coordinates":[[[-106.792,36.094],[-105.863,36.009],[-105.521,36.043],[-105.121,36.043],[-104.464,36.081],[-104.191,36.022],[-103.986,36.017],[-103.773,36.064],[-103.7,36.265],[-103.781,36.469],[-104.118,36.597],[-104.549,36.619],[-105.15,36.542],[-105.637,36.422],[-106.029,36.363],[-106.49,36.26],[-106.788,36.158],[-106.792,36.094]]]}},{"type":"Feature","properties":{"density":2},"geometry":{"type":"Polygon","coordinates":[[[-71.876,47.077],[-70.671,46.659],[-70.037,46.394],[-69.814,46.262],[-69.717,46.06],[-69.773,45.844],[-70.114,45.656],[-70.769,45.565],[-71.626,45.551],[-72.273,45.656],[-73.444,45.886],[-74.37,46.13],[-75.401,46.178],[-75.805,46.171],[-76.251,46.248],[-76.809,46.499],[-76.892,46.617],[-76.878,46.722],[-76.662,46.763],[-76.154,46.896],[-75.959,47.098],[-75.931,47.293],[-76.042,47.418],[-76.398,47.725],[-76.76,47.969],[-77.226,48.073],[-77.679,48.115],[-78.188,48.205],[-78.564,48.331],[-78.543,48.421],[-78.376,48.463],[-77.728,48.547],[-77.408,48.644],[-77.101,48.714],[-76.969,48.846],[-77.038,49.111],[-77.199,49.39],[-77.631,50.031],[-77.944,50.539],[-78.097,50.658],[-78.418,50.748],[-78.53,50.822],[-78.55,50.922],[-78.543,51.069],[-78.564,51.264],[-78.871,51.772],[-79.477,52.497],[-79.644,53.207],[-79.818,53.535],[-79.982,53.788],[-79.968,53.852],[-79.893,53.867],[-79.56,53.681],[-79.114,53.5],[-78.836,53.465],[-78.453,53.472],[-77.965,53.421],[-77.547,53.449],[-77.369,53.438],[-77.341,53.41],[-77.391,53.349],[-77.469,53.31],[-77.475,53.254],[-77.26,53.163],[-77.218,53.067],[-77.232,52.967],[-77.66,52.671],[-77.717,52.596],[-77.713,52.475],[-77.631,52.318],[-77.392,52.115],[-77.132,51.947],[-77.139,51.897],[-77.271,51.897],[-77.478,51.972],[-77.728,52.029],[-77.874,52.036],[-77.892,51.958],[-77.853,51.819],[-77.639,51.494],[-77.585,51.448],[-77.457,51.398],[-77.364,51.419],[-77.189,51.515],[-77.007,51.544],[-76.633,51.508],[-76.472,51.458],[-76.444,51.387],[-76.446,51.243],[-76.49,51.156],[-76.545,51.133],[-76.643,51.122],[-77.06,51.129],[-77.09,51.097],[-77.097,51.047],[-77.074,51.017],[-76.469,50.588],[-75.791,49.957],[-74.935,48.694],[-74.621,48.191],[-74.386,47.895],[-74.09,47.695],[-73.597,47.464],[-72.42,47.239],[-72.121,47.168],[-71.876,47.077]]]}},{"type":"Feature","properties":{"density":2},"geometry":{"type":"Polygon","coordinates":[[[-76.413,53.301],[-76.379,53.31],[-76.365,53.287],[-76.379,53.25],[-76.447,53.184],[-76.482,53.161],[-76.5,53.168],[-76.507,53.198],[-76.436,53.287],[-76.413,53.301]]]}},{"type":"Feature","properties":{"density":2},"geometry":{"type":"Polygon","coordinates":[[[-76.746,53.095],[-76.73,52.983],[-76.742,52.869],[-76.778,52.767],[-76.849,52.73],[-76.915,52.767],[-76.954,52.892],[-76.936,53.015],[-76.918,53.066],[-76.854,53.111],[-76.787,53.118],[-76.746,53.095]]]}},{"type":"Feature","properties":{"density":2},"geometry":{"type":"Polygon","coordinates":[[[-107.822,33.538],[-107.919,33.571],[-107.808,33.562],[-107.766,33.542],[-107.762,33.518],[-107.806,33.531],[-107.822,33.538]]]}},{"type":"Feature","properties":{"density":2},"geometry":{"type":"Polygon","coordinates":[[[-108.282,33.354],[-108.184,33.282],[-108.134,33.167],[-108.127,33.085],[-108.144,33.03],[-108.286,32.945],[-108.264,32.808],[-108.297,32.775],[-108.399,32.788],[-108.527,32.928],[-108.624,33.074],[-108.637,33.131],[-108.598,33.155],[-108.465,33.164],[-108.388,33.204],[-108.441,33.335],[-108.5,33.388],[-108.503,33.434],[-108.538,33.483],[-108.613,33.518],[-108.701,33.589],[-108.686,33.639],[-108.662,33.666],[-108.628,33.671],[-108.571,33.653],[-108.529,33.606],[-108.514,33.542],[-108.469,33.604],[-108.432,33.613],[-108.388,33.586],[-108.35,33.516],[-108.312,33.381],[-108.282,33.354]]]}},{"type":"Feature","properties":{"density":2},"geometry":{"type":"Polygon","coordinates":[[[-107.92,35.856],[-107.59,36.128],[-107.224,36.306],[-106.649,36.556],[-106.034,36.859],[-105.833,36.931],[-105.544,36.904],[-105.499,36.868],[-105.486,36.685],[-105.619,36.489],[-105.914,36.293],[-106.944,35.713],[-107.434,35.504],[-107.724,35.419],[-107.875,35.473],[-107.929,35.566],[-107.951,35.771],[-107.92,35.856]]]}},{"type":"Feature","properties":{"density":2},"geometry":{"type":"Polygon","coordinates":[[[-107.263,36.831],[-107.216,36.871],[-107.176,36.876],[-107.254,36.827],[-107.263,36.831]]]}},{"type":"Feature","properties":{"density":2},"geometry":{"type":"Polygon","coordinates":[[[-107.468,36.971],[-107.503,36.977],[-107.512,37.011],[-107.428,37.108],[-107.393,37.212],[-107.433,37.289],[-107.367,37.32],[-107.316,37.38],[-107.302,37.369],[-107.329,37.265],[-107.333,37.145],[-107.362,37.075],[-107.448,36.975],[-107.468,36.971]]]}},{"type":"Feature","properties":{"density":2},"geometry":{"type":"Polygon","coordinates":[[[-107.078,38.725],[-107.053,38.77],[-107.014,38.777],[-106.977,38.743],[-106.98,38.706],[-107.025,38.752],[-107.053,38.736],[-107.078,38.725]]]}},{"type":"Feature","properties":{"density":2},"geometry":{"type":"Polygon","coordinates":[[[-124.083,42.461],[-124.133,42.417],[-124.197,42.325],[-124.312,42.233],[-124.337,42.242],[-124.2,42.373],[-124.111,42.49],[-124.079,42.511],[-124.073,42.492],[-124.083,42.461]]]}},{"type":"Feature","properties":{"density":2},"geometry":{"type":"Polygon","coordinates":[[[-99.739,56.219],[-99.671,55.307],[-99.399,54.668],[-98.623,53.974],[-98.283,53.43],[-98.079,53.171],[-98.079,52.804],[-98.365,52.763],[-98.814,52.749],[-100.134,53.321],[-100.487,53.674],[-100.433,54.028],[-100.351,54.232],[-100.147,54.572],[-100.079,54.981],[-100.147,55.443],[-100.324,56.028],[-100.297,56.45],[-100.106,56.668],[-99.916,56.654],[-99.807,56.573],[-99.739,56.219]]]}},{"type":"Feature","properties":{"density":2},"geometry":{"type":"Polygon","coordinates":[[[-101.181,53.443],[-100.95,53.157],[-100.828,52.845],[-100.896,52.3],[-101.045,51.947],[-101.304,51.77],[-101.399,51.443],[-101.399,51.185],[-101.331,50.953],[-101.1,50.736],[-100.841,50.627],[-99.984,49.933],[-99.889,49.756],[-100.025,49.443],[-100.283,49.035],[-100.896,48.695],[-102.311,48.205],[-102.896,48.028],[-103.671,47.892],[-104.079,47.756],[-104.474,47.701],[-104.801,47.742],[-105.141,47.865],[-105.29,48.001],[-105.522,48.286],[-105.539,48.554],[-105.679,48.749],[-106.508,49.098],[-107.441,49.425],[-108.169,49.564],[-109.029,49.564],[-109.769,49.673],[-111.26,49.716],[-111.88,49.586],[-112.425,49.401],[-113.241,49.063],[-114.721,48.824],[-116.071,48.541],[-116.877,48.301],[-118.085,48.171],[-120.044,48.171],[-120.915,48.41],[-121.437,48.672],[-121.501,48.738],[-121.49,48.927],[-121.358,49.034],[-121.341,49.219],[-121.46,49.629],[-121.989,50.269],[-122.47,50.737],[-122.572,50.783],[-122.803,50.826],[-123.0,50.84],[-123.049,50.886],[-122.974,51.083],[-122.863,51.146],[-122.757,51.266],[-122.592,51.399],[-122.569,51.531],[-122.646,51.707],[-122.78,51.884],[-122.991,52.038],[-123.205,52.067],[-123.311,52.124],[-123.796,52.666],[-124.09,52.812],[-124.381,52.983],[-124.672,53.208],[-124.843,53.579],[-125.08,53.736],[-125.425,53.907],[-125.997,54.01],[-126.408,54.164],[-127.149,54.477],[-127.587,54.785],[-127.659,55.012],[-127.543,55.172],[-127.231,55.253],[-126.803,55.177],[-126.308,55.132],[-125.197,54.834],[-124.649,54.704],[-123.94,54.66],[-123.106,54.557],[-122.638,54.526],[-122.074,54.613],[-121.795,54.621],[-121.778,54.593],[-121.84,54.564],[-122.183,54.481],[-122.314,54.407],[-122.303,54.362],[-121.064,54.008],[-120.747,53.894],[-120.742,53.845],[-120.776,53.828],[-120.927,53.834],[-121.053,53.7],[-121.07,53.628],[-121.127,53.588],[-121.372,53.651],[-121.646,53.697],[-122.131,53.705],[-122.24,53.64],[-122.283,53.548],[-122.069,53.314],[-121.715,53.146],[-121.455,52.975],[-121.287,52.638],[-121.27,52.504],[-121.321,52.273],[-121.381,51.865],[-121.335,51.631],[-121.175,51.388],[-120.964,51.197],[-120.97,50.955],[-120.896,50.826],[-120.688,50.783],[-120.462,50.858],[-120.365,51.0],[-120.376,51.157],[-120.533,51.357],[-120.762,51.443],[-120.907,51.657],[-120.967,52.002],[-120.754,52.474],[-120.426,52.702],[-119.484,53.159],[-119.156,53.298],[-118.764,53.334],[-118.567,53.284],[-118.061,52.988],[-116.357,52.391],[-115.695,52.409],[-115.39,52.452],[-115.077,53.105],[-114.963,53.793],[-115.004,54.416],[-115.249,55.042],[-115.562,55.627],[-116.487,56.457],[-117.875,57.219],[-118.991,57.681],[-119.511,57.99],[-119.979,58.153],[-120.175,58.088],[-120.12,57.762],[-120.24,57.457],[-120.425,57.359],[-121.361,57.217],[-122.101,57.435],[-122.439,57.87],[-122.46,58.262],[-122.406,58.524],[-122.547,58.796],[-123.103,59.046],[-124.115,59.166],[-124.812,59.318],[-125.367,59.851],[-125.628,60.548],[-125.813,60.886],[-126.531,61.386],[-126.836,61.691],[-127.467,62.137],[-127.718,62.551],[-127.881,63.237],[-128.284,63.65],[-128.741,63.988],[-129.644,64.162],[-130.798,64.238],[-131.647,64.325],[-132.562,64.14],[-132.888,63.966],[-132.964,63.835],[-132.953,63.672],[-133.095,63.487],[-133.443,63.52],[-133.846,63.509],[-133.966,63.411],[-134.031,63.237],[-133.966,63.139],[-133.824,63.095],[-133.89,62.975],[-134.085,62.932],[-134.39,62.943],[-134.488,62.997],[-134.771,62.954],[-134.891,63.095],[-134.847,63.226],[-134.51,63.258],[-134.488,63.454],[-134.553,63.716],[-134.804,63.814],[-134.945,63.748],[-135.032,63.574],[-135.196,63.411],[-135.62,63.454],[-136.034,63.596],[-136.404,63.563],[-136.785,63.585],[-136.959,63.803],[-137.307,63.944],[-137.503,63.89],[-137.645,63.726],[-137.993,63.77],[-138.102,63.933],[-138.287,64.086],[-138.243,64.347],[-138.102,64.445],[-138.069,64.859],[-138.799,65.348],[-139.463,65.37],[-139.985,65.327],[-140.123,65.405],[-140.068,65.611],[-139.889,65.784],[-139.711,66.001],[-139.756,66.257],[-139.984,66.469],[-140.168,66.525],[-140.53,66.508],[-141.121,66.347],[-142.202,66.174],[-142.648,66.241],[-142.704,66.397],[-142.603,66.737],[-142.72,66.854],[-143.757,66.714],[-144.649,66.659],[-145.267,66.648],[-146.755,66.503],[-147.201,66.347],[-147.402,66.101],[-147.346,65.962],[-147.045,65.739],[-145.758,65.154],[-145.184,64.641],[-145.044,64.29],[-145.05,63.967],[-145.167,63.722],[-145.741,63.705],[-147.067,63.816],[-147.586,63.939],[-148.132,64.117],[-148.511,64.346],[-148.767,64.385],[-149.118,64.34],[-149.698,63.995],[-150.166,63.961],[-150.985,64.078],[-151.793,64.43],[-152.579,64.814],[-153.387,64.959],[-154.468,65.215],[-155.475,65.548],[-156.224,65.993],[-156.389,66.306],[-156.424,66.977],[-156.424,67.412],[-156.154,67.734],[-155.701,67.917],[-153.942,68.291],[-151.313,69.31],[-150.477,69.484],[-149.676,69.484],[-148.204,69.232],[-146.924,69.058],[-146.158,68.927],[-144.712,68.901],[-140.576,69.136],[-139.635,69.354],[-138.625,69.789],[-137.885,70.503],[-137.598,70.974],[-136.962,72.097],[-136.248,72.532],[-134.08,72.811],[-130.919,72.933],[-128.559,72.941],[-126.086,72.741],[-125.389,72.593],[-125.067,72.341],[-125.058,72.01],[-125.381,71.54],[-125.581,71.209],[-125.729,70.904],[-125.633,70.521],[-125.128,70.164],[-124.405,69.902],[-123.874,69.615],[-123.743,69.38],[-123.891,69.058],[-124.266,68.831],[-124.457,68.492],[-124.24,67.987],[-123.874,67.691],[-123.543,67.334],[-123.247,66.837],[-122.829,66.637],[-122.298,66.715],[-122.054,66.802],[-121.889,67.081],[-121.514,67.36],[-120.199,67.778],[-119.372,68.022],[-118.702,68.143],[-118.196,68.065],[-118.04,67.821],[-118.014,67.403],[-117.918,66.707],[-117.596,66.419],[-116.076,65.997],[-115.652,65.906],[-115.54,65.838],[-115.498,65.761],[-115.495,65.707],[-115.733,65.576],[-115.74,65.537],[-115.615,65.508],[-115.352,65.497],[-114.891,65.576],[-114.588,65.651],[-114.403,65.64],[-114.249,65.569],[-114.274,65.515],[-114.816,65.33],[-115.059,65.169],[-115.113,65.12],[-115.153,65.039],[-115.121,64.91],[-114.921,64.759],[-114.569,64.549],[-114.399,64.469],[-113.686,64.295],[-113.0,64.159],[-112.979,64.122],[-113.148,64.102],[-113.178,64.052],[-112.735,63.709],[-112.567,63.453],[-112.509,63.313],[-112.569,63.202],[-112.561,63.122],[-112.512,63.03],[-112.427,62.993],[-112.315,62.976],[-112.053,63.033],[-112.007,63.008],[-111.933,62.999],[-111.799,63.028],[-111.753,62.999],[-111.788,62.959],[-112.17,62.722],[-112.455,62.648],[-112.598,62.58],[-112.703,62.463],[-112.664,62.288],[-112.509,62.06],[-112.41,61.869],[-112.227,61.353],[-112.101,61.301],[-111.688,61.421],[-111.397,61.472],[-111.308,61.45],[-111.265,61.384],[-111.433,61.169],[-111.419,61.139],[-111.308,61.137],[-111.324,61.089],[-111.378,61.062],[-111.454,60.934],[-111.805,60.758],[-111.817,60.71],[-111.773,60.703],[-111.353,60.852],[-111.285,60.856],[-111.221,60.788],[-111.252,60.686],[-111.343,60.631],[-111.352,60.58],[-111.289,60.452],[-111.2,60.4],[-110.778,60.338],[-110.156,60.312],[-109.306,60.335],[-107.384,60.289],[-106.506,60.191],[-105.859,60.035],[-105.284,59.875],[-104.47,59.609],[-104.115,59.177],[-104.143,58.815],[-104.345,58.188],[-104.47,57.728],[-104.3,56.834],[-103.979,56.409],[-103.081,55.775],[-102.398,55.106],[-101.632,54.124],[-101.181,53.443]]]}},{"type":"Feature","properties":{"density":2},"geometry":{"type":"Polygon","coordinates":[[[-111.986,63.56],[-112.315,63.432],[-112.377,63.441],[-111.986,63.573],[-111.986,63.56]]]}},{"type":"Feature","properties":{"density":2},"geometry":{"type":"Polygon","coordinates":[[[-74.582,64.01],[-74.843,63.161],[-74.985,62.813],[-74.658,62.301],[-74.299,61.964],[-73.776,61.333],[-73.82,60.974],[-73.994,60.788],[-74.266,60.745],[-74.506,60.876],[-74.767,61.246],[-75.18,61.67],[-75.638,61.801],[-76.051,61.779],[-76.857,61.986],[-77.63,62.236],[-78.261,62.247],[-78.87,62.073],[-79.48,61.921],[-81.701,61.267],[-82.539,61.257],[-83.79,61.126],[-84.857,61.126],[-86.098,61.278],[-86.729,61.507],[-87.219,62.084],[-87.176,62.312],[-86.773,62.53],[-86.272,62.726],[-85.401,62.944],[-84.128,63.14],[-83.409,63.401],[-83.094,63.684],[-82.778,63.912],[-81.973,64.185],[-81.276,64.348],[-80.035,64.729],[-79.306,65.066],[-78.294,65.458],[-76.726,65.676],[-75.257,65.687],[-74.767,65.567],[-74.408,65.208],[-74.375,64.914],[-74.582,64.01]]]}},{"type":"Feature","properties":{"density":2},"geometry":{"type":"Polygon","coordinates":[[[-78.195,51.717],[-78.497,51.415],[-78.57,51.155],[-78.57,50.874],[-78.497,50.749],[-78.153,50.364],[-77.799,50.176],[-77.602,49.999],[-77.227,49.583],[-76.8,49.062],[-76.061,48.021],[-75.79,47.677],[-75.103,46.719],[-74.467,46.157],[-73.77,45.813],[-73.187,45.584],[-72.125,45.366],[-71.042,45.116],[-70.042,44.824],[-69.22,44.449],[-68.564,44.241],[-67.918,44.127],[-67.72,44.158],[-67.533,44.335],[-67.366,44.533],[-67.387,44.762],[-67.647,44.98],[-68.189,45.251],[-69.636,45.626],[-70.479,45.928],[-71.604,46.501],[-73.145,47.177],[-74.009,48.437],[-74.644,49.187],[-74.915,49.791],[-75.061,50.239],[-75.3,50.624],[-75.821,50.988],[-76.654,51.509],[-77.143,51.696],[-77.904,51.821],[-78.029,51.801],[-78.195,51.717]]]}},{"type":"Feature","properties":{"density":2},"geometry":{"type":"Polygon","coordinates":[[[-88.503,64.991],[-87.345,64.665],[-85.132,64.119],[-84.0,64.079],[-82.269,64.34],[-80.993,64.509],[-77.284,65.251],[-75.839,65.667],[-74.069,66.292],[-71.661,66.774],[-70.815,66.722],[-70.346,66.552],[-69.709,66.175],[-69.214,65.732],[-68.837,65.095],[-68.68,64.34],[-68.72,63.871],[-69.227,63.429],[-69.748,63.103],[-70.425,62.44],[-71.349,61.893],[-71.999,61.711],[-73.093,61.828],[-75.514,61.541],[-76.737,61.476],[-78.442,61.607],[-79.705,61.685],[-80.759,61.541],[-82.347,61.268],[-83.727,60.956],[-84.846,60.747],[-85.718,60.617],[-86.655,60.188],[-87.566,60.084],[-88.217,60.045],[-89.206,60.344],[-90.43,61.125],[-91.158,61.867],[-91.354,62.127],[-91.497,62.479],[-91.874,63.598],[-91.809,64.184],[-91.718,64.691],[-91.445,65.056],[-91.093,65.277],[-90.638,65.381],[-89.896,65.316],[-89.206,65.225],[-88.816,65.121],[-88.503,64.991]]]}},{"type":"Feature","properties":{"density":2},"geometry":{"type":"Polygon","coordinates":[[[-136.084,72.575],[-134.62,73.031],[-132.359,73.259],[-130.162,73.275],[-127.626,72.63],[-125.58,71.757],[-124.889,70.537],[-124.319,68.707],[-122.558,67.663],[-120.202,67.52],[-117.847,66.843],[-116.792,66.453],[-115.877,65.755],[-114.606,64.703],[-113.607,63.422],[-113.109,62.392],[-112.263,61.746],[-111.472,61.329],[-111.201,60.882],[-111.097,59.767],[-110.702,58.934],[-109.671,58.32],[-107.366,57.758],[-105.586,57.148],[-103.425,56.36],[-102.104,55.852],[-100.782,55.47],[-99.816,54.657],[-98.723,53.767],[-98.011,52.801],[-97.604,51.937],[-97.375,50.869],[-97.502,49.903],[-97.934,49.064],[-98.799,48.301],[-100.172,47.895],[-102.764,47.463],[-104.646,47.946],[-106.552,48.632],[-108.001,49.547],[-109.323,50.742],[-110.34,51.911],[-111.357,52.801],[-112.602,53.716],[-114.101,54.957],[-115.468,55.477],[-117.297,55.488],[-117.664,55.102],[-117.745,54.369],[-116.262,52.236],[-115.246,51.072],[-115.017,50.462],[-114.916,49.318],[-115.068,48.454],[-115.882,47.818],[-117.56,47.641],[-118.246,47.437],[-119.009,46.878],[-119.314,46.42],[-119.771,46.166],[-120.585,45.759],[-121.169,45.734],[-121.881,45.378],[-122.491,45.149],[-122.669,45.124],[-123.356,45.658],[-123.635,46.369],[-123.813,47.539],[-123.813,48.429],[-123.712,49.344],[-123.427,50.51],[-122.76,51.389],[-122.077,51.893],[-121.279,52.511],[-119.23,53.434],[-118.294,54.247],[-118.201,55.073],[-118.734,55.802],[-119.88,56.481],[-121.865,57.831],[-123.72,58.677],[-124.794,59.767],[-125.161,61.241],[-125.644,62.258],[-127.093,63.834],[-128.491,64.469],[-131.084,65.232],[-132.075,65.334],[-132.406,65.232],[-133.143,64.622],[-133.473,64.037],[-133.753,63.478],[-134.329,62.237],[-134.993,61.924],[-136.021,62.406],[-137.062,63.07],[-138.286,63.681],[-139.275,64.033],[-140.876,64.488],[-143.011,65.126],[-144.794,65.608],[-146.447,65.725],[-148.048,65.061],[-149.609,63.994],[-150.377,64.007],[-151.939,64.736],[-153.97,65.569],[-155.414,65.998],[-156.872,66.467],[-159.753,67.912],[-160.303,68.787],[-160.16,69.417],[-159.387,69.681],[-158.228,69.925],[-155.056,69.824],[-153.774,70.088],[-152.514,70.434],[-151.009,70.515],[-148.853,70.556],[-147.083,70.2],[-145.457,70.088],[-143.891,70.251],[-142.731,70.149],[-141.288,70.068],[-139.884,69.946],[-138.522,70.068],[-137.485,70.698],[-137.008,71.577],[-136.084,72.575]]]}},{"type":"Feature","properties":{"density":2},"geometry":{"type":"Polygon","coordinates":[[[-112.036,36.58],[-111.377,36.626],[-110.943,36.7],[-110.19,36.906],[-109.917,37.033],[-109.837,37.106],[-109.79,37.199],[-109.804,37.273],[-109.884,37.293],[-110.237,37.246],[-110.723,37.066],[-111.27,36.906],[-111.81,36.773],[-112.016,36.673],[-112.05,36.626],[-112.036,36.58]]]}},{"type":"Feature","properties":{"density":2},"geometry":{"type":"Polygon","coordinates":[[[-112.509,38.132],[-112.243,38.139],[-111.93,38.199],[-111.903,38.252],[-111.923,38.326],[-112.01,38.359],[-112.156,38.346],[-112.376,38.286],[-112.516,38.206],[-112.509,38.132]]]}},{"type":"Feature","properties":{"density":2},"geometry":{"type":"Polygon","coordinates":[[[-106.804,37.366],[-106.565,37.436],[-106.487,37.493],[-106.506,37.51],[-106.544,37.511],[-106.73,37.459],[-106.808,37.423],[-106.819,37.378],[-106.804,37.366]]]}},{"type":"Feature","properties":{"density":2},"geometry":{"type":"Polygon","coordinates":[[[-106.784,36.098],[-106.622,36.096],[-106.402,36.063],[-106.265,36.091],[-106.009,36.164],[-105.937,36.208],[-105.902,36.287],[-105.947,36.358],[-106.057,36.374],[-106.318,36.295],[-106.596,36.255],[-106.744,36.194],[-106.824,36.145],[-106.828,36.126],[-106.784,36.098]]]}},{"type":"Feature","properties":{"density":2},"geometry":{"type":"Polygon","coordinates":[[[-108.412,33.023],[-107.74,33.098],[-107.327,33.187],[-107.194,33.293],[-107.112,33.433],[-107.074,33.573],[-107.184,33.716],[-107.453,33.815],[-107.767,33.856],[-108.159,33.788],[-108.507,33.702],[-108.606,33.637],[-108.637,33.552],[-108.589,33.501],[-108.521,33.47],[-108.466,33.419],[-108.374,33.283],[-108.436,33.092],[-108.436,33.051],[-108.412,33.023]]]}},{"type":"Feature","properties":{"density":2},"geometry":{"type":"Polygon","coordinates":[[[-112.5,38.142],[-112.063,38.121],[-111.669,38.078],[-111.274,38.137],[-110.613,38.398],[-110.56,38.531],[-110.826,38.622],[-111.258,38.558],[-112.319,38.302],[-112.474,38.254],[-112.527,38.206],[-112.5,38.142]]]}},{"type":"Feature","properties":{"density":2},"geometry":{"type":"Polygon","coordinates":[[[-106.766,36.101],[-106.121,36.053],[-105.497,36.064],[-105.006,36.122],[-104.836,36.186],[-104.66,36.229],[-104.607,36.352],[-104.767,36.485],[-105.342,36.474],[-105.811,36.41],[-106.286,36.304],[-106.707,36.17],[-106.792,36.128],[-106.766,36.101]]]}},{"type":"Feature","properties":{"density":3},"geometry":{"type":"Polygon","coordinates":[[[-77.272,52.986],[-77.446,52.889],[-77.475,52.9],[-77.432,52.943],[-77.338,52.989],[-77.264,53.006],[-77.272,52.986]]]}},{"type":"Feature","properties":{"density":3},"geometry":{"type":"Polygon","coordinates":[[[-77.341,53.154],[-77.355,53.12],[-77.383,53.12],[-77.383,53.14],[-77.352,53.169],[-77.341,53.154]]]}},{"type":"Feature","properties":{"density":3},"geometry":{"type":"Polygon","coordinates":[[[-77.509,53.174],[-77.577,53.14],[-77.914,53.072],[-77.92,53.032],[-77.883,52.989],[-77.846,52.977],[-77.846,52.9],[-77.894,52.832],[-78.0,52.775],[-78.234,52.781],[-78.339,52.829],[-78.359,52.88],[-78.274,52.997],[-78.268,53.103],[-78.328,53.189],[-78.371,53.3],[-78.356,53.403],[-78.336,53.42],[-78.259,53.44],[-77.957,53.388],[-77.381,53.431],[-77.372,53.4],[-77.455,53.354],[-78.011,53.254],[-78.071,53.24],[-78.085,53.209],[-78.074,53.183],[-78.023,53.154],[-77.897,53.137],[-77.777,53.143],[-77.58,53.18],[-77.523,53.174],[-77.509,53.174]]]}},{"type":"Feature","properties":{"density":3},"geometry":{"type":"Polygon","coordinates":[[[-76.81,53.094],[-76.824,53.057],[-76.87,53.035],[-76.873,53.063],[-76.827,53.106],[-76.81,53.094]]]}},{"type":"Feature","properties":{"density":3},"geometry":{"type":"Polygon","coordinates":[[[-79.436,53.456],[-79.112,53.242],[-78.844,52.96],[-78.277,52.207],[-78.006,51.922],[-77.771,51.487],[-77.567,51.212],[-77.186,50.906],[-76.761,50.645],[-76.326,50.353],[-76.102,50.085],[-75.77,49.743],[-75.525,49.324],[-75.181,48.874],[-74.896,48.468],[-74.678,48.103],[-74.544,47.804],[-74.513,47.648],[-74.513,47.554],[-74.566,47.519],[-74.735,47.621],[-75.092,47.889],[-75.685,48.535],[-76.02,48.825],[-76.131,48.847],[-76.193,48.781],[-76.127,48.625],[-75.904,48.237],[-75.377,47.711],[-74.883,47.363],[-74.227,47.024],[-73.706,46.792],[-73.398,46.694],[-72.965,46.658],[-71.891,46.618],[-71.155,46.551],[-70.919,46.458],[-70.54,46.244],[-70.353,46.03],[-70.335,45.914],[-70.46,45.847],[-70.839,45.811],[-72.27,45.78],[-73.077,45.932],[-73.634,46.016],[-74.566,46.337],[-75.534,47.019],[-76.015,47.679],[-76.63,48.642],[-76.938,49.164],[-77.5,49.971],[-77.905,50.707],[-78.07,50.765],[-78.423,50.796],[-78.489,50.863],[-78.498,50.912],[-78.44,50.952],[-78.316,50.943],[-78.267,50.956],[-78.24,51.028],[-78.423,51.42],[-78.699,51.705],[-79.261,52.432],[-79.457,52.847],[-79.546,53.199],[-79.683,53.496],[-79.676,53.589],[-79.631,53.587],[-79.542,53.529],[-79.436,53.456]]]}},{"type":"Feature","properties":{"density":3},"geometry":{"type":"Polygon","coordinates":[[[-77.195,51.494],[-77.081,51.526],[-76.82,51.516],[-76.556,51.458],[-76.517,51.409],[-76.528,51.373],[-77.195,51.466],[-77.195,51.494]]]}},{"type":"Feature","properties":{"density":3},"geometry":{"type":"Polygon","coordinates":[[[-77.853,52.23],[-77.787,52.257],[-77.78,52.234],[-77.845,52.217],[-77.853,52.23]]]}},{"type":"Feature","properties":{"density":3},"geometry":{"type":"Polygon","coordinates":[[[-77.82,52.175],[-77.792,52.203],[-77.769,52.203],[-77.772,52.179],[-77.818,52.164],[-77.82,52.175]]]}},{"type":"Feature","properties":{"density":3},"geometry":{"type":"Polygon","coordinates":[[[-108.664,33.584],[-108.648,33.648],[-108.602,33.65],[-108.558,33.606],[-108.562,33.573],[-108.529,33.529],[-108.503,33.516],[-108.491,33.525],[-108.45,33.6],[-108.401,33.565],[-108.385,33.523],[-108.392,33.489],[-108.438,33.48],[-108.472,33.434],[-108.487,33.434],[-108.531,33.494],[-108.646,33.555],[-108.664,33.584]]]}},{"type":"Feature","properties":{"density":3},"geometry":{"type":"Polygon","coordinates":[[[-108.476,33.407],[-108.439,33.425],[-108.405,33.414],[-108.235,33.301],[-108.164,33.193],[-108.149,33.127],[-108.16,33.069],[-108.193,33.018],[-108.348,33.01],[-108.33,32.959],[-108.37,32.928],[-108.502,32.979],[-108.584,33.06],[-108.607,33.114],[-108.586,33.133],[-108.469,33.109],[-108.346,33.118],[-108.321,33.153],[-108.332,33.197],[-108.425,33.31],[-108.427,33.343],[-108.474,33.381],[-108.476,33.407]]]}},{"type":"Feature","properties":{"density":3},"geometry":{"type":"Polygon","coordinates":[[[-107.393,37.28],[-107.382,37.305],[-107.36,37.304],[-107.345,37.262],[-107.355,37.169],[-107.422,37.032],[-107.451,37.013],[-107.459,37.039],[-107.413,37.101],[-107.389,37.165],[-107.389,37.247],[-107.393,37.28]]]}},{"type":"Feature","properties":{"density":3},"geometry":{"type":"Polygon","coordinates":[[[-100.722,49.138],[-101.987,48.513],[-102.573,48.329],[-103.163,48.19],[-103.57,48.173],[-104.361,48.329],[-104.975,48.569],[-105.537,48.853],[-107.098,49.45],[-107.822,49.778],[-108.948,50.982],[-109.695,51.679],[-110.163,52.208],[-110.993,52.977],[-111.478,53.373],[-112.247,53.78],[-112.639,53.95],[-112.931,54.032],[-113.27,54.103],[-113.367,54.2],[-113.284,54.281],[-113.106,54.32],[-112.353,54.259],[-110.202,53.875],[-110.04,53.791],[-109.907,53.646],[-109.678,53.05],[-109.344,52.693],[-108.926,52.381],[-108.124,51.999],[-107.506,51.731],[-106.729,51.517],[-106.076,51.467],[-105.73,51.596],[-105.47,51.97],[-105.291,52.402],[-105.227,52.662],[-105.095,53.015],[-104.831,53.179],[-104.293,53.29],[-103.672,53.483],[-103.052,53.722],[-102.666,53.818],[-102.285,53.757],[-101.229,53.106],[-101.079,52.899],[-101.051,52.665],[-101.335,52.236],[-101.575,51.907],[-101.86,51.589],[-102.053,51.253],[-102.099,51.089],[-102.071,50.949],[-101.987,50.743],[-101.678,50.672],[-101.293,50.615],[-100.972,50.526],[-100.612,50.226],[-100.382,49.834],[-100.382,49.556],[-100.512,49.267],[-100.722,49.138]]]}},{"type":"Feature","properties":{"density":3},"geometry":{"type":"Polygon","coordinates":[[[-104.712,56.831],[-104.857,56.664],[-105.152,56.553],[-105.52,56.491],[-105.776,56.419],[-106.317,56.424],[-106.796,56.541],[-107.27,56.625],[-108.15,56.898],[-108.73,57.294],[-109.187,57.78],[-109.633,58.091],[-110.434,58.391],[-111.472,58.502],[-112.621,58.725],[-115.241,59.582],[-115.882,59.993],[-116.188,60.343],[-116.398,60.784],[-116.442,61.618],[-116.487,62.131],[-116.598,62.478],[-117.009,63.085],[-117.04,63.392],[-117.084,63.49],[-117.575,63.687],[-117.981,63.749],[-118.324,63.927],[-118.328,63.994],[-118.297,64.066],[-118.239,64.079],[-117.633,64.061],[-117.361,64.026],[-116.982,63.901],[-116.652,63.847],[-116.344,63.932],[-116.211,64.043],[-116.215,64.133],[-116.42,64.454],[-116.572,64.605],[-116.808,64.725],[-117.918,64.935],[-118.462,65.078],[-118.725,65.287],[-118.837,65.617],[-119.287,66.232],[-119.51,66.411],[-119.875,66.803],[-119.898,66.928],[-119.866,67.035],[-119.791,67.053],[-119.679,67.039],[-119.456,66.964],[-119.189,66.808],[-118.471,66.718],[-118.208,66.669],[-117.891,66.46],[-117.334,66.25],[-116.835,66.014],[-116.804,65.974],[-116.879,65.916],[-117.24,66.01],[-117.508,66.134],[-117.851,66.219],[-117.958,66.188],[-117.963,66.157],[-117.767,66.018],[-117.468,65.894],[-116.781,65.778],[-116.465,65.746],[-116.224,65.68],[-116.081,65.59],[-116.126,65.532],[-116.331,65.613],[-116.621,65.613],[-117.102,65.675],[-117.495,65.746],[-117.566,65.724],[-117.553,65.657],[-117.405,65.582],[-116.719,65.296],[-116.237,65.269],[-116.121,65.229],[-115.738,65.029],[-115.72,64.859],[-115.676,64.832],[-115.198,64.779],[-114.811,64.618],[-114.476,64.436],[-114.12,64.387],[-113.794,64.275],[-113.486,64.213],[-112.877,63.772],[-112.706,63.529],[-112.681,63.376],[-112.724,63.362],[-113.131,63.436],[-113.484,63.447],[-113.562,63.39],[-113.58,63.294],[-113.512,63.148],[-113.42,63.083],[-113.159,62.745],[-112.956,62.441],[-112.482,61.867],[-112.325,61.403],[-112.246,61.264],[-112.107,61.25],[-111.75,61.364],[-111.451,61.432],[-111.319,61.414],[-111.305,61.375],[-111.329,61.318],[-111.436,61.229],[-111.561,61.154],[-111.654,61.057],[-111.593,61.011],[-111.515,60.983],[-111.497,60.936],[-111.886,60.74],[-111.875,60.69],[-111.825,60.672],[-111.757,60.672],[-111.358,60.829],[-111.283,60.829],[-111.251,60.776],[-111.287,60.704],[-111.401,60.629],[-111.394,60.544],[-111.326,60.462],[-111.305,60.362],[-111.093,60.312],[-110.681,60.256],[-110.073,60.228],[-109.159,60.217],[-108.222,60.163],[-107.47,60.141],[-105.647,59.856],[-105.029,59.661],[-104.505,59.176],[-104.377,59.004],[-104.399,58.407],[-104.533,58.201],[-104.644,57.722],[-104.572,57.159],[-104.712,56.831]]]}},{"type":"Feature","properties":{"density":3},"geometry":{"type":"Polygon","coordinates":[[[-107.995,56.203],[-107.906,56.239],[-107.788,56.207],[-107.663,56.146],[-107.304,56.058],[-106.872,55.982],[-106.31,55.71],[-105.561,55.412],[-104.928,55.104],[-104.593,54.845],[-104.345,54.692],[-104.289,54.597],[-104.345,54.502],[-104.623,54.418],[-105.225,54.329],[-106.429,54.324],[-107.432,54.53],[-107.995,54.742],[-108.313,54.937],[-108.513,55.154],[-108.58,55.449],[-108.469,55.633],[-108.201,55.684],[-108.022,55.78],[-107.854,55.994],[-107.9,56.108],[-107.99,56.161],[-107.99,56.19],[-107.995,56.203]]]}},{"type":"Feature","properties":{"density":3},"geometry":{"type":"Polygon","coordinates":[[[-116.914,60.708],[-117.962,60.913],[-118.318,61.047],[-118.457,61.171],[-118.394,61.31],[-118.278,61.381],[-118.109,61.381],[-117.785,61.269],[-117.345,61.066],[-116.894,60.818],[-116.846,60.741],[-116.914,60.708]]]}},{"type":"Feature","properties":{"density":3},"geometry":{"type":"Polygon","coordinates":[[[-117.69,57.6],[-118.573,57.752],[-119.505,58.157],[-119.79,58.331],[-120.018,58.403],[-120.143,58.38],[-120.416,58.195],[-120.468,58.198],[-120.479,58.252],[-120.348,58.372],[-120.362,58.426],[-120.408,58.434],[-120.747,58.252],[-121.018,58.174],[-121.086,58.117],[-121.111,58.014],[-121.076,57.899],[-121.086,57.782],[-121.165,57.735],[-121.268,57.853],[-121.372,58.046],[-121.389,58.292],[-121.368,58.481],[-121.254,58.648],[-121.097,58.78],[-120.961,58.841],[-120.865,58.805],[-120.801,58.609],[-120.719,58.588],[-120.63,58.606],[-120.526,58.698],[-120.284,58.759],[-120.023,58.738],[-119.777,58.681],[-118.918,58.709],[-118.868,58.666],[-118.896,58.645],[-119.117,58.609],[-119.338,58.598],[-119.467,58.538],[-119.453,58.484],[-119.392,58.452],[-119.157,58.409],[-118.743,58.263],[-118.5,58.21],[-118.176,58.074],[-117.634,57.792],[-117.562,57.696],[-117.569,57.621],[-117.69,57.6]]]}},{"type":"Feature","properties":{"density":3},"geometry":{"type":"Polygon","coordinates":[[[-121.754,58.434],[-121.69,58.403],[-121.706,58.377],[-121.744,58.383],[-121.757,58.419],[-121.754,58.434]]]}},{"type":"Feature","properties":{"density":3},"geometry":{"type":"Polygon","coordinates":[[[-120.611,52.29],[-120.53,52.392],[-120.307,52.562],[-120.027,52.704],[-119.737,52.807],[-119.42,53.061],[-119.023,53.141],[-118.899,53.079],[-118.867,52.918],[-118.76,52.793],[-118.457,52.624],[-118.167,52.544],[-117.672,52.258],[-116.848,51.603],[-116.42,51.188],[-115.974,50.894],[-115.769,50.702],[-115.631,50.518],[-115.592,50.322],[-115.624,50.24],[-115.681,49.976],[-115.674,49.719],[-115.738,49.655],[-115.806,49.684],[-115.835,49.823],[-115.952,49.963],[-116.034,50.199],[-116.127,50.313],[-116.28,50.377],[-116.384,50.348],[-116.526,50.259],[-116.987,49.885],[-117.629,49.568],[-118.603,49.213],[-119.124,49.092],[-119.949,49.038],[-120.319,49.038],[-121.181,49.281],[-121.281,49.4],[-121.264,49.566],[-121.221,49.677],[-121.068,49.91],[-120.953,50.005],[-120.727,50.099],[-120.491,50.253],[-120.448,50.356],[-120.471,50.441],[-120.413,50.544],[-120.448,50.65],[-120.416,50.752],[-120.285,50.827],[-120.191,50.801],[-119.994,50.792],[-119.891,50.832],[-119.829,50.895],[-119.814,50.946],[-119.849,50.986],[-119.914,51.003],[-119.928,51.043],[-119.903,51.18],[-119.991,51.275],[-119.943,51.332],[-119.854,51.369],[-119.786,51.457],[-119.86,51.537],[-120.02,51.537],[-120.08,51.469],[-120.122,51.314],[-120.168,51.263],[-120.214,51.249],[-120.265,51.26],[-120.362,51.426],[-120.433,51.6],[-120.451,51.694],[-120.645,52.079],[-120.653,52.205],[-120.611,52.29]]]}},{"type":"Feature","properties":{"density":3},"geometry":{"type":"Polygon","coordinates":[[[-121.146,48.728],[-121.248,48.783],[-121.204,48.803],[-121.171,48.779],[-121.155,48.737],[-121.146,48.728]]]}},{"type":"Feature","properties":{"density":3},"geometry":{"type":"Polygon","coordinates":[[[-121.903,50.316],[-121.893,50.342],[-121.843,50.344],[-121.705,50.307],[-121.696,50.325],[-121.738,50.389],[-121.753,50.474],[-121.786,50.518],[-121.789,50.563],[-121.769,50.573],[-121.747,50.561],[-121.665,50.42],[-121.58,50.32],[-121.553,50.271],[-121.541,50.199],[-121.558,50.174],[-121.596,50.18],[-121.69,50.265],[-121.783,50.293],[-121.893,50.301],[-121.903,50.316]]]}},{"type":"Feature","properties":{"density":3},"geometry":{"type":"Polygon","coordinates":[[[-126.146,53.056],[-126.06,53.161],[-126.0,53.211],[-125.923,53.246],[-125.815,53.259],[-125.713,53.246],[-125.594,53.296],[-125.532,53.305],[-125.507,53.239],[-125.516,53.166],[-125.626,53.038],[-125.683,53.02],[-125.811,53.008],[-126.016,53.027],[-126.153,53.013],[-126.178,53.04],[-126.146,53.056]]]}},{"type":"Feature","properties":{"density":3},"geometry":{"type":"Polygon","coordinates":[[[-124.516,53.782],[-124.395,53.771],[-124.313,53.711],[-124.163,53.645],[-123.733,53.593],[-123.369,53.595],[-122.809,53.466],[-122.332,53.267],[-121.932,53.035],[-121.604,52.874],[-121.468,52.778],[-121.379,52.596],[-121.344,52.414],[-121.468,52.161],[-121.558,51.858],[-121.593,51.687],[-121.607,51.491],[-121.65,51.341],[-121.747,51.252],[-121.832,51.266],[-121.964,51.341],[-122.339,51.462],[-122.496,51.59],[-122.827,51.983],[-123.031,52.1],[-123.273,52.157],[-123.341,52.293],[-123.369,52.461],[-123.591,52.735],[-123.822,52.956],[-124.051,53.031],[-124.293,53.063],[-124.454,53.156],[-124.6,53.288],[-124.639,53.427],[-124.571,53.524],[-124.625,53.727],[-124.607,53.773],[-124.516,53.782]]]}},{"type":"Feature","properties":{"density":3},"geometry":{"type":"Polygon","coordinates":[[[-121.185,53.637],[-122.152,53.917],[-122.812,54.145],[-123.512,54.216],[-124.395,54.279],[-124.93,54.292],[-125.282,54.381],[-125.345,54.466],[-125.349,54.559],[-125.224,54.613],[-124.386,54.537],[-124.186,54.586],[-123.811,54.568],[-123.593,54.551],[-122.919,54.43],[-122.536,54.337],[-121.974,54.167],[-121.354,54.016],[-121.123,53.909],[-121.007,53.806],[-121.042,53.766],[-121.123,53.788],[-121.207,53.788],[-121.225,53.752],[-121.145,53.703],[-121.105,53.659],[-121.123,53.632],[-121.185,53.637]]]}},{"type":"Feature","properties":{"density":3},"geometry":{"type":"Polygon","coordinates":[[[-121.796,54.603],[-122.022,54.529],[-122.224,54.534],[-122.241,54.557],[-121.985,54.594],[-121.93,54.62],[-121.813,54.623],[-121.796,54.603]]]}},{"type":"Feature","properties":{"density":3},"geometry":{"type":"Polygon","coordinates":[[[-124.682,55.829],[-124.678,55.856],[-124.645,55.865],[-124.596,55.926],[-124.58,55.898],[-124.592,55.869],[-124.638,55.827],[-124.673,55.823],[-124.682,55.829]]]}},{"type":"Feature","properties":{"density":3},"geometry":{"type":"Polygon","coordinates":[[[-134.083,63.057],[-134.204,63.007],[-134.307,63.003],[-134.536,63.053],[-134.728,63.021],[-134.753,63.114],[-134.693,63.146],[-134.336,63.206],[-134.279,63.36],[-134.225,63.406],[-134.15,63.399],[-134.068,63.099],[-134.097,63.035],[-134.083,63.057]]]}},{"type":"Feature","properties":{"density":3},"geometry":{"type":"Polygon","coordinates":[[[-133.894,63.56],[-133.933,63.538],[-134.015,63.574],[-134.008,63.595],[-133.976,63.609],[-133.915,63.602],[-133.89,63.577],[-133.894,63.56]]]}},{"type":"Feature","properties":{"density":3},"geometry":{"type":"Polygon","coordinates":[[[-133.847,63.749],[-134.079,63.852],[-134.229,63.988],[-134.364,64.162],[-134.3,64.305],[-134.129,64.383],[-133.919,64.362],[-133.73,64.309],[-133.095,63.97],[-133.009,63.799],[-133.055,63.613],[-133.091,63.574],[-133.234,63.556],[-133.537,63.631],[-133.847,63.749]]]}},{"type":"Feature","properties":{"density":3},"geometry":{"type":"Polygon","coordinates":[[[-132.777,63.14],[-132.829,63.152],[-132.843,63.195],[-132.793,63.181],[-132.777,63.14]]]}},{"type":"Feature","properties":{"density":3},"geometry":{"type":"Polygon","coordinates":[[[-135.878,63.993],[-135.985,63.951],[-136.049,63.944],[-136.096,63.979],[-136.139,64.047],[-136.078,64.19],[-135.999,64.222],[-135.9,64.204],[-135.878,64.115],[-135.843,64.083],[-135.843,64.022],[-135.878,63.993]]]}},{"type":"Feature","properties":{"density":3},"geometry":{"type":"Polygon","coordinates":[[[-134.926,64.158],[-135.04,64.207],[-135.079,64.257],[-135.079,64.329],[-135.022,64.379],[-134.947,64.379],[-134.865,64.286],[-134.862,64.179],[-134.926,64.158]]]}},{"type":"Feature","properties":{"density":3},"geometry":{"type":"Polygon","coordinates":[[[-135.133,61.782],[-135.293,61.85],[-135.307,61.889],[-135.279,61.935],[-135.183,61.925],[-135.108,61.861],[-135.086,61.818],[-135.09,61.793],[-135.133,61.782]]]}},{"type":"Feature","properties":{"density":3},"geometry":{"type":"Polygon","coordinates":[[[-137.772,63.801],[-137.858,63.815],[-137.95,63.862],[-137.958,63.908],[-138.008,63.958],[-138.015,64.011],[-137.997,64.072],[-137.893,64.165],[-137.843,64.168],[-137.797,64.143],[-137.797,64.065],[-137.772,63.961],[-137.694,63.844],[-137.704,63.812],[-137.772,63.801]]]}},{"type":"Feature","properties":{"density":3},"geometry":{"type":"Polygon","coordinates":[[[-136.64,63.783],[-136.709,63.824],[-136.752,63.879],[-136.736,63.918],[-136.702,63.909],[-136.649,63.799],[-136.64,63.783]]]}},{"type":"Feature","properties":{"density":3},"geometry":{"type":"Polygon","coordinates":[[[-142.613,66.369],[-142.659,66.409],[-142.63,66.429],[-142.573,66.431],[-142.516,66.457],[-142.468,66.417],[-142.502,66.386],[-142.556,66.374],[-142.613,66.369]]]}},{"type":"Feature","properties":{"density":3},"geometry":{"type":"Polygon","coordinates":[[[-142.448,66.78],[-142.522,66.814],[-142.556,66.865],[-142.516,66.871],[-142.428,66.808],[-142.436,66.777],[-142.448,66.78]]]}},{"type":"Feature","properties":{"density":3},"geometry":{"type":"Polygon","coordinates":[[[-145.671,64.304],[-145.845,64.095],[-146.061,63.942],[-146.959,63.907],[-147.656,64.074],[-148.067,64.213],[-148.596,64.422],[-148.917,64.443],[-149.272,64.325],[-149.523,64.102],[-149.697,64.025],[-150.108,64.011],[-150.498,64.039],[-151.097,64.171],[-152.305,64.831],[-153.05,65.068],[-154.04,65.228],[-155.168,65.521],[-155.753,65.785],[-156.143,66.113],[-156.283,66.51],[-156.269,67.36],[-156.025,67.673],[-155.593,67.792],[-154.144,68.008],[-152.493,68.537],[-151.622,68.899],[-151.093,69.053],[-150.598,69.234],[-150.152,69.296],[-149.275,69.136],[-147.937,68.92],[-146.467,68.732],[-143.313,68.708],[-142.164,68.855],[-140.666,68.82],[-139.551,68.978],[-139.104,69.098],[-138.168,69.403],[-137.112,69.773],[-136.438,70.328],[-136.122,70.883],[-136.013,71.373],[-135.61,71.928],[-135.12,72.277],[-132.791,72.483],[-131.311,72.516],[-129.319,72.462],[-128.111,72.483],[-127.196,72.407],[-126.587,72.277],[-126.238,72.07],[-126.271,71.515],[-126.423,71.264],[-126.968,70.916],[-127.643,70.655],[-128.121,70.502],[-128.317,70.285],[-128.415,70.045],[-128.274,69.838],[-128.089,69.61],[-127.599,69.272],[-127.262,69.142],[-126.456,69.196],[-125.629,69.338],[-125.193,69.359],[-124.91,69.349],[-124.66,69.12],[-124.856,68.761],[-125.27,68.521],[-126.13,68.14],[-126.325,67.868],[-126.325,67.64],[-125.999,67.378],[-125.346,67.117],[-124.769,66.834],[-123.234,65.92],[-122.363,65.506],[-121.608,65.064],[-121.19,64.846],[-120.45,64.237],[-120.049,63.8],[-119.308,63.094],[-119.273,62.586],[-119.357,62.245],[-119.621,62.022],[-119.865,61.848],[-119.928,61.52],[-119.886,61.276],[-119.593,60.907],[-118.388,60.266],[-117.155,59.681],[-116.925,59.465],[-116.87,59.117],[-116.897,58.957],[-117.051,58.741],[-117.545,58.532],[-118.04,58.72],[-118.737,58.915],[-119.656,58.957],[-119.97,58.943],[-120.401,58.963],[-121.008,59.054],[-121.628,59.249],[-122.289,59.493],[-123.174,59.723],[-124.351,60.399],[-124.533,60.768],[-124.546,61.158],[-124.735,61.687],[-125.048,62.077],[-125.466,62.426],[-125.466,62.76],[-125.926,63.373],[-126.351,63.533],[-126.859,63.791],[-128.218,64.209],[-130.126,64.537],[-130.524,64.648],[-131.318,64.606],[-132.69,64.397],[-133.073,64.397],[-134.042,64.537],[-135.748,64.864],[-136.159,65.115],[-136.877,65.324],[-137.197,65.54],[-137.587,65.714],[-137.754,65.712],[-139.082,65.525],[-139.237,65.534],[-139.304,65.685],[-139.198,66.119],[-139.281,66.253],[-140.0,66.626],[-140.29,66.626],[-140.574,66.576],[-141.182,66.364],[-141.739,66.275],[-141.962,66.387],[-142.034,66.493],[-141.995,66.548],[-141.756,66.61],[-140.825,66.743],[-140.123,66.944],[-139.906,67.022],[-139.827,67.111],[-139.777,67.223],[-139.928,67.323],[-140.128,67.351],[-142.419,67.011],[-142.787,66.922],[-143.979,66.749],[-144.403,66.716],[-145.194,66.704],[-145.941,66.632],[-146.66,66.599],[-147.162,66.431],[-147.34,66.292],[-147.507,66.058],[-147.318,65.768],[-146.153,65.189],[-145.891,65.077],[-145.601,64.86],[-145.534,64.637],[-145.545,64.648],[-145.671,64.304]]]}},{"type":"Feature","properties":{"density":3},"geometry":{"type":"Polygon","coordinates":[[[-118.893,64.72],[-118.87,64.811],[-118.886,64.868],[-118.947,64.9],[-119.064,64.909],[-119.132,64.955],[-119.125,65.003],[-118.925,65.001],[-118.774,64.896],[-118.774,64.754],[-118.813,64.722],[-118.893,64.72]]]}},{"type":"Feature","properties":{"density":3},"geometry":{"type":"Polygon","coordinates":[[[-118.904,64.391],[-119.084,64.487],[-119.078,64.512],[-119.039,64.526],[-118.995,64.51],[-118.895,64.448],[-118.886,64.428],[-118.899,64.412],[-118.904,64.391]]]}},{"type":"Feature","properties":{"density":3},"geometry":{"type":"Polygon","coordinates":[[[-119.53,64.526],[-119.621,64.544],[-119.726,64.53],[-119.931,64.537],[-120.13,64.507],[-120.317,64.514],[-120.342,64.567],[-120.294,64.603],[-120.189,64.622],[-120.018,64.651],[-119.797,64.66],[-119.543,64.606],[-119.511,64.59],[-119.518,64.544],[-119.53,64.526]]]}},{"type":"Feature","properties":{"density":3},"geometry":{"type":"Polygon","coordinates":[[[-119.801,64.845],[-119.897,64.827],[-119.972,64.877],[-119.97,64.891],[-119.89,64.966],[-119.817,64.982],[-119.756,64.966],[-119.726,64.93],[-119.728,64.886],[-119.742,64.877],[-119.801,64.845]]]}},{"type":"Feature","properties":{"density":3},"geometry":{"type":"Polygon","coordinates":[[[-121.799,66.07],[-121.746,66.081],[-121.703,66.173],[-121.646,66.205],[-121.578,66.188],[-121.557,66.123],[-121.635,66.045],[-121.707,66.038],[-121.799,66.07]]]}},{"type":"Feature","properties":{"density":3},"geometry":{"type":"Polygon","coordinates":[[[-115.522,65.707],[-115.59,65.694],[-115.794,65.71],[-115.864,65.756],[-115.847,65.851],[-115.754,65.902],[-115.69,65.904],[-115.601,65.865],[-115.5,65.723],[-115.522,65.707]]]}},{"type":"Feature","properties":{"density":3},"geometry":{"type":"Polygon","coordinates":[[[-113.124,64.15],[-113.17,64.128],[-113.307,64.123],[-113.376,64.137],[-113.31,64.163],[-113.146,64.159],[-113.124,64.15]]]}},{"type":"Feature","properties":{"density":3},"geometry":{"type":"Polygon","coordinates":[[[-111.8,62.975],[-112.037,62.838],[-112.061,62.855],[-112.043,62.889],[-111.997,62.92],[-111.889,62.973],[-111.805,62.988],[-111.8,62.975]]]}},{"type":"Feature","properties":{"density":3},"geometry":{"type":"Polygon","coordinates":[[[-112.037,63.002],[-112.081,62.948],[-112.162,62.889],[-112.324,62.805],[-112.47,62.756],[-112.644,62.732],[-112.691,62.756],[-112.677,62.785],[-112.487,62.871],[-112.065,63.012],[-112.037,63.002]]]}},{"type":"Feature","properties":{"density":3},"geometry":{"type":"Polygon","coordinates":[[[-112.22,62.754],[-112.614,62.619],[-112.614,62.645],[-112.578,62.666],[-112.348,62.749],[-112.231,62.769],[-112.22,62.754]]]}},{"type":"Feature","properties":{"density":3},"geometry":{"type":"Polygon","coordinates":[[[-76.437,63.901],[-76.41,63.762],[-76.48,63.553],[-76.715,63.24],[-77.133,62.987],[-77.917,62.708],[-78.204,62.473],[-78.805,62.247],[-79.719,62.038],[-80.442,61.933],[-81.113,61.881],[-81.687,61.777],[-82.332,61.82],[-82.445,61.942],[-82.375,62.047],[-82.166,62.134],[-81.391,62.282],[-80.338,62.43],[-78.892,62.752],[-78.648,62.883],[-78.596,63.057],[-78.718,63.179],[-78.936,63.266],[-79.232,63.301],[-79.58,63.283],[-80.137,63.396],[-80.747,63.414],[-81.069,63.362],[-81.661,63.126],[-82.227,62.935],[-82.567,62.883],[-82.793,62.883],[-83.011,62.961],[-83.307,62.978],[-83.638,62.944],[-83.795,62.944],[-83.934,62.987],[-83.899,63.1],[-83.412,63.283],[-83.133,63.318],[-82.55,63.492],[-81.844,63.666],[-81.383,63.806],[-80.338,64.006],[-80.033,64.154],[-79.85,64.346],[-79.336,64.694],[-78.614,65.121],[-78.082,65.321],[-77.508,65.373],[-77.368,65.199],[-77.586,64.885],[-77.673,64.729],[-77.691,64.598],[-77.56,64.494],[-77.264,64.328],[-76.689,64.241],[-76.558,64.11],[-76.437,63.901]]]}},{"type":"Feature","properties":{"density":3},"geometry":{"type":"Polygon","coordinates":[[[-78.19,51.59],[-78.473,51.324],[-78.565,51.19],[-78.548,50.882],[-78.457,50.674],[-78.298,50.516],[-77.915,50.382],[-77.657,50.232],[-77.582,50.157],[-77.216,49.924],[-76.999,49.807],[-76.624,49.674],[-76.366,49.558],[-75.916,49.483],[-75.766,49.533],[-75.674,49.641],[-75.674,49.741],[-75.741,49.874],[-75.949,50.149],[-75.858,50.516],[-75.841,50.749],[-75.866,50.899],[-75.949,50.999],[-76.383,51.29],[-76.807,51.457],[-77.007,51.507],[-77.174,51.507],[-77.49,51.54],[-77.765,51.615],[-78.065,51.623],[-78.19,51.59]]]}},{"type":"Feature","properties":{"density":3},"geometry":{"type":"Polygon","coordinates":[[[-78.072,53.398],[-77.896,53.414],[-77.757,53.472],[-77.587,53.664],[-77.512,53.712],[-77.32,53.755],[-77.182,53.739],[-77.016,53.616],[-76.92,53.499],[-76.867,53.238],[-76.915,53.126],[-77.07,53.04],[-77.224,52.993],[-77.411,52.993],[-77.747,53.046],[-78.173,53.19],[-78.221,53.27],[-78.189,53.344],[-78.157,53.376],[-78.072,53.398]]]}},{"type":"Feature","properties":{"density":3},"geometry":{"type":"Polygon","coordinates":[[[-109.069,51.094],[-108.011,49.961],[-107.486,49.644],[-106.995,49.236],[-106.687,49.111],[-106.279,48.969],[-105.104,48.794],[-104.438,48.803],[-104.054,48.786],[-103.846,48.844],[-103.763,49.019],[-103.838,49.161],[-104.029,49.253],[-104.438,49.294],[-105.246,49.444],[-105.829,49.611],[-106.52,49.886],[-106.953,50.161],[-107.57,50.602],[-108.003,50.835],[-108.269,51.044],[-108.669,51.302],[-108.977,51.418],[-109.136,51.402],[-109.177,51.26],[-109.152,51.202],[-109.069,51.094]]]}},{"type":"Feature","properties":{"density":3},"geometry":{"type":"Polygon","coordinates":[[[-106.001,56.422],[-105.26,56.122],[-104.302,55.947],[-103.719,55.805],[-103.161,55.597],[-102.877,55.397],[-102.661,55.064],[-102.627,54.664],[-102.794,54.381],[-103.335,54.323],[-103.71,54.381],[-104.26,54.556],[-104.777,54.772],[-105.376,55.097],[-106.218,55.889],[-106.434,56.147],[-106.509,56.38],[-106.426,56.53],[-106.193,56.505],[-106.084,56.463],[-106.001,56.422]]]}},{"type":"Feature","properties":{"density":3},"geometry":{"type":"Polygon","coordinates":[[[-111.257,61.078],[-111.226,60.797],[-111.216,60.484],[-111.257,59.995],[-111.455,59.662],[-111.934,59.339],[-112.382,59.287],[-113.465,59.235],[-113.912,59.235],[-114.319,59.204],[-114.975,59.443],[-115.287,59.641],[-115.526,59.683],[-116.068,59.62],[-116.724,59.589],[-117.088,59.641],[-117.421,59.839],[-117.723,60.11],[-118.057,60.474],[-118.182,60.724],[-118.088,60.953],[-117.942,61.078],[-117.578,61.078],[-116.932,60.922],[-115.87,60.703],[-114.131,60.453],[-113.475,60.641],[-112.788,60.797],[-112.205,60.984],[-111.643,61.422],[-111.424,61.422],[-111.236,61.359],[-111.247,61.224],[-111.257,61.078]]]}},{"type":"Feature","properties":{"density":3},"geometry":{"type":"Polygon","coordinates":[[[-113.34,62.112],[-113.493,61.999],[-113.593,61.792],[-113.607,61.619],[-113.573,61.486],[-113.613,61.359],[-113.813,61.092],[-113.96,60.952],[-114.073,60.946],[-114.4,60.999],[-114.633,61.112],[-114.92,61.212],[-115.233,61.286],[-115.459,61.412],[-115.579,61.565],[-115.693,61.792],[-115.679,61.965],[-115.526,62.045],[-115.199,62.045],[-114.413,61.985],[-114.193,62.019],[-113.927,62.145],[-113.547,62.265],[-113.427,62.265],[-113.34,62.219],[-113.34,62.112]]]}},{"type":"Feature","properties":{"density":3},"geometry":{"type":"Polygon","coordinates":[[[-119.618,64.538],[-119.884,64.664],[-120.104,64.791],[-120.244,64.957],[-120.251,65.191],[-119.991,65.297],[-119.178,65.304],[-118.745,65.277],[-118.611,65.231],[-118.498,65.004],[-118.531,64.798],[-118.698,64.544],[-118.931,64.378],[-119.371,64.464],[-119.618,64.538]]]}},{"type":"Feature","properties":{"density":3},"geometry":{"type":"Polygon","coordinates":[[[-117.047,65.861],[-117.796,66.111],[-118.129,66.298],[-118.265,66.444],[-118.296,66.663],[-118.265,66.829],[-118.057,66.902],[-117.765,66.798],[-117.401,66.621],[-116.776,66.455],[-116.672,66.35],[-116.599,66.132],[-116.62,65.934],[-116.755,65.809],[-116.922,65.799],[-117.047,65.861]]]}},{"type":"Feature","properties":{"density":3},"geometry":{"type":"Polygon","coordinates":[[[-119.8,52.34],[-119.3,52.381],[-118.7,52.248],[-118.059,52.015],[-117.359,51.682],[-116.842,51.398],[-116.584,51.223],[-116.359,51.04],[-116.209,50.799],[-116.134,50.524],[-116.259,50.332],[-116.601,50.091],[-118.034,49.566],[-118.225,49.516],[-118.908,49.274],[-119.2,49.241],[-119.35,49.249],[-119.641,49.407],[-119.7,49.616],[-119.6,49.899],[-119.541,50.59],[-119.733,50.84],[-119.9,50.957],[-120.133,51.182],[-120.291,51.49],[-120.308,51.798],[-120.199,52.115],[-120.099,52.248],[-119.991,52.306],[-119.8,52.34]]]}},{"type":"Feature","properties":{"density":3},"geometry":{"type":"Polygon","coordinates":[[[-135.342,69.918],[-134.787,70.359],[-133.936,70.798],[-132.69,71.877],[-131.65,72.384],[-130.733,72.673],[-130.042,72.673],[-129.231,72.597],[-128.516,72.388],[-127.723,71.941],[-127.276,70.962],[-127.052,70.21],[-126.889,69.152],[-126.299,68.257],[-125.364,67.711],[-124.306,67.345],[-122.619,66.43],[-122.232,66.206],[-121.663,65.919],[-121.215,65.349],[-121.012,64.576],[-120.89,63.641],[-121.032,62.624],[-121.358,61.709],[-121.866,61.078],[-122.456,60.733],[-123.371,60.834],[-123.839,61.546],[-124.184,61.912],[-124.998,63.356],[-125.71,63.946],[-126.36,64.332],[-126.584,64.414],[-127.235,64.719],[-127.987,64.963],[-129.086,65.227],[-130.611,65.532],[-131.973,65.837],[-133.478,66.081],[-134.821,66.59],[-135.37,66.752],[-136.346,66.874],[-137.424,67.139],[-139.01,67.383],[-139.737,67.546],[-140.259,67.69],[-141.128,67.876],[-142.221,67.93],[-142.957,67.993],[-144.588,67.834],[-146.329,67.82],[-148.061,67.995],[-148.936,67.845],[-149.427,67.462],[-149.561,66.862],[-149.411,66.071],[-149.103,65.263],[-149.078,64.721],[-149.261,64.238],[-149.585,64.088],[-150.297,64.129],[-151.212,64.332],[-151.802,64.637],[-152.595,65.227],[-153.083,65.614],[-153.47,66.183],[-153.571,66.976],[-153.612,67.566],[-153.612,68.115],[-153.49,68.522],[-153.103,69.152],[-152.371,69.62],[-151.395,70.128],[-150.541,70.352],[-150.073,70.413],[-149.585,70.413],[-148.7,70.346],[-148.162,70.352],[-146.422,70.047],[-145.251,70.112],[-143.299,70.06],[-141.359,69.916],[-140.058,69.513],[-138.743,69.305],[-137.728,69.266],[-136.875,69.345],[-136.115,69.611],[-135.342,69.918]]]}},{"type":"Feature","properties":{"density":3},"geometry":{"type":"Polygon","coordinates":[[[-112.023,36.573],[-111.663,36.646],[-111.21,36.68],[-110.99,36.733],[-110.517,36.906],[-110.497,36.979],[-110.53,37.013],[-110.637,37.013],[-110.95,36.946],[-111.736,36.726],[-112.043,36.613],[-112.023,36.573]]]}},{"type":"Feature","properties":{"density":3},"geometry":{"type":"Polygon","coordinates":[[[-112.476,38.166],[-112.13,38.199],[-112.043,38.232],[-112.016,38.292],[-112.05,38.332],[-112.183,38.312],[-112.509,38.192],[-112.476,38.166]]]}},{"type":"Feature","properties":{"density":3},"geometry":{"type":"Polygon","coordinates":[[[-106.791,36.115],[-106.632,36.119],[-106.447,36.091],[-106.271,36.098],[-106.009,36.198],[-105.984,36.262],[-106.045,36.334],[-106.157,36.341],[-106.297,36.273],[-106.617,36.26],[-106.8,36.163],[-106.812,36.126],[-106.791,36.115]]]}},{"type":"Feature","properties":{"density":3},"geometry":{"type":"Polygon","coordinates":[[[-137.875,62.668],[-138.096,63.023],[-138.103,63.143],[-138.018,63.225],[-137.892,63.211],[-137.827,63.143],[-137.82,62.89],[-137.837,62.703],[-137.875,62.668]]]}},{"type":"Feature","properties":{"density":3},"geometry":{"type":"Polygon","coordinates":[[[-140.294,63.931],[-140.563,64.043],[-140.615,64.084],[-140.601,64.129],[-140.557,64.139],[-140.481,64.115],[-140.273,63.982],[-140.263,63.955],[-140.294,63.931]]]}},{"type":"Feature","properties":{"density":3},"geometry":{"type":"Polygon","coordinates":[[[-141.15,64.112],[-141.372,64.265],[-141.502,64.323],[-141.57,64.391],[-141.56,64.456],[-141.508,64.494],[-141.433,64.48],[-141.3,64.385],[-141.14,64.132],[-141.15,64.112]]]}},{"type":"Feature","properties":{"density":3},"geometry":{"type":"Polygon","coordinates":[[[-140.335,64.555],[-140.372,64.613],[-140.734,64.774],[-140.761,64.849],[-140.734,64.914],[-140.686,64.931],[-140.325,64.671],[-140.297,64.617],[-140.307,64.559],[-140.335,64.555]]]}},{"type":"Feature","properties":{"density":3},"geometry":{"type":"Polygon","coordinates":[[[-141.201,65.323],[-141.307,65.442],[-141.324,65.49],[-141.328,65.599],[-141.28,65.627],[-141.222,65.627],[-141.195,65.592],[-141.14,65.429],[-141.137,65.326],[-141.201,65.323]]]}},{"type":"Feature","properties":{"density":3},"geometry":{"type":"Polygon","coordinates":[[[-135.145,61.798],[-135.213,61.959],[-135.312,62.368],[-135.319,62.624],[-135.258,62.75],[-135.073,62.75],[-134.937,62.668],[-134.92,62.546],[-134.917,62.31],[-134.978,62.075],[-135.077,61.839],[-135.145,61.798]]]}},{"type":"Feature","properties":{"density":3},"geometry":{"type":"Polygon","coordinates":[[[-134.705,62.01],[-134.835,62.324],[-134.872,62.501],[-134.876,62.672],[-134.63,62.9],[-134.333,62.948],[-134.162,62.924],[-133.93,62.856],[-133.948,62.743],[-134.06,62.648],[-134.224,62.464],[-134.487,62.109],[-134.569,62.01],[-134.603,62.0],[-134.705,62.01]]]}},{"type":"Feature","properties":{"density":3},"geometry":{"type":"Polygon","coordinates":[[[-134.183,63.081],[-134.217,63.228],[-134.18,63.402],[-134.064,63.535],[-133.791,63.634],[-133.023,63.825],[-132.412,63.88],[-132.276,63.829],[-132.303,63.692],[-132.497,63.556],[-132.805,63.443],[-133.204,63.388],[-133.497,63.324],[-133.726,63.214],[-133.934,63.15],[-134.064,63.085],[-134.183,63.081]]]}},{"type":"Feature","properties":{"density":3},"geometry":{"type":"Polygon","coordinates":[[[-132.968,63.927],[-132.948,64.146],[-132.873,64.299],[-132.402,64.453],[-132.221,64.463],[-132.091,64.453],[-131.931,64.398],[-131.89,64.31],[-131.921,64.146],[-132.163,64.095],[-132.716,64.05],[-132.869,63.979],[-132.903,63.941],[-132.968,63.927]]]}},{"type":"Feature","properties":{"density":3},"geometry":{"type":"Polygon","coordinates":[[[-139.129,66.238],[-139.251,66.457],[-139.321,66.734],[-139.262,66.894],[-139.166,66.985],[-138.915,66.996],[-138.622,66.974],[-138.372,66.878],[-138.286,66.809],[-138.366,66.612],[-138.713,66.446],[-138.857,66.249],[-139.129,66.238]]]}},{"type":"Feature","properties":{"density":3},"geometry":{"type":"Polygon","coordinates":[[[-137.487,65.983],[-137.684,66.143],[-137.812,66.441],[-137.732,66.713],[-137.412,66.878],[-137.204,67.012],[-137.119,67.347],[-137.028,67.561],[-136.602,67.593],[-136.074,67.465],[-135.439,67.155],[-134.224,66.207],[-134.096,65.967],[-134.379,65.476],[-134.688,65.327],[-134.997,65.327],[-135.727,64.991],[-136.053,65.039],[-136.149,65.263],[-136.266,65.306],[-136.367,65.258],[-136.495,65.306],[-136.554,65.449],[-136.666,65.519],[-136.735,65.439],[-136.874,65.423],[-136.986,65.551],[-137.199,65.721],[-137.305,65.828],[-137.487,65.983]]]}},{"type":"Feature","properties":{"density":3},"geometry":{"type":"Polygon","coordinates":[[[-135.994,62.667],[-136.18,63.157],[-136.165,63.349],[-135.887,63.493],[-135.669,63.552],[-135.514,63.562],[-135.37,63.424],[-135.498,63.237],[-135.738,62.992],[-135.935,62.699],[-135.994,62.667]]]}},{"type":"Feature","properties":{"density":3},"geometry":{"type":"Polygon","coordinates":[[[-137.865,63.797],[-138.137,63.978],[-138.59,64.202],[-139.47,64.495],[-139.704,64.628],[-139.848,64.778],[-139.859,64.954],[-139.646,65.103],[-139.07,64.996],[-138.42,64.724],[-137.961,64.426],[-137.801,64.138],[-137.743,63.839],[-137.764,63.813],[-137.865,63.797]]]}},{"type":"Feature","properties":{"density":3},"geometry":{"type":"Polygon","coordinates":[[[-134.864,63.088],[-135.21,63.269],[-135.557,63.328],[-136.186,63.328],[-136.767,63.434],[-137.231,63.589],[-137.673,63.85],[-137.78,64.042],[-137.775,64.191],[-137.577,64.517],[-137.14,64.692],[-136.602,64.948],[-135.53,64.975],[-134.981,64.906],[-134.517,64.954],[-134.048,64.852],[-133.877,64.623],[-133.931,64.245],[-133.936,63.898],[-134.032,63.573],[-134.293,63.322],[-134.709,63.082],[-134.794,63.061],[-134.864,63.088]]]}},{"type":"Feature","properties":{"density":3},"geometry":{"type":"Polygon","coordinates":[[[-134.976,64.218],[-135.226,64.549],[-135.274,65.071],[-135.274,65.428],[-135.024,65.721],[-134.533,65.86],[-134.181,65.833],[-133.813,65.679],[-133.611,65.433],[-133.664,65.06],[-134.005,64.719],[-134.464,64.485],[-134.73,64.229],[-134.885,64.154],[-134.976,64.218]]]}},{"type":"Feature","properties":{"density":3},"geometry":{"type":"Polygon","coordinates":[[[-133.408,65.386],[-133.483,65.647],[-133.483,66.079],[-133.28,66.281],[-133.008,66.238],[-132.854,66.111],[-132.896,65.967],[-133.088,65.743],[-133.259,65.513],[-133.366,65.407],[-133.408,65.386]]]}},{"type":"Feature","properties":{"density":3},"geometry":{"type":"Polygon","coordinates":[[[-145.189,63.759],[-145.482,64.052],[-145.583,64.233],[-145.552,64.35],[-145.402,64.398],[-145.173,64.228],[-145.072,64.004],[-145.082,63.796],[-145.104,63.737],[-145.189,63.759]]]}},{"type":"Feature","properties":{"density":3},"geometry":{"type":"Polygon","coordinates":[[[-146.633,63.959],[-146.933,64.275],[-147.15,64.575],[-147.183,65.067],[-147.05,65.691],[-146.716,65.875],[-146.367,65.85],[-146.008,65.55],[-145.675,64.942],[-145.683,64.434],[-145.908,64.1],[-146.092,63.975],[-146.308,63.992],[-146.5,63.967],[-146.633,63.959]]]}},{"type":"Feature","properties":{"density":3},"geometry":{"type":"Polygon","coordinates":[[[-121.767,64.918],[-122.054,65.686],[-121.989,66.337],[-121.455,66.818],[-120.739,67.144],[-119.776,67.157],[-118.344,66.766],[-117.03,66.623],[-116.106,66.493],[-115.143,66.467],[-114.739,66.428],[-114.244,65.829],[-114.192,64.879],[-114.336,63.942],[-114.401,63.252],[-113.867,62.745],[-113.503,62.432],[-113.307,62.094],[-113.398,61.625],[-113.333,61.0],[-113.424,60.857],[-113.815,60.805],[-114.752,60.935],[-115.39,61.209],[-115.884,61.912],[-116.093,62.901],[-117.03,63.278],[-118.071,63.565],[-119.19,64.254],[-119.841,64.554],[-120.882,64.775],[-121.611,64.801],[-121.767,64.918]]]}},{"type":"Feature","properties":{"density":3},"geometry":{"type":"Polygon","coordinates":[[[-112.479,38.158],[-112.148,38.158],[-111.706,38.099],[-111.189,38.195],[-111.034,38.307],[-110.97,38.377],[-111.061,38.515],[-111.413,38.526],[-112.516,38.201],[-112.479,38.158]]]}},{"type":"Feature","properties":{"density":3},"geometry":{"type":"Polygon","coordinates":[[[-106.766,36.085],[-106.281,36.122],[-105.801,36.09],[-105.321,36.096],[-104.857,36.234],[-104.772,36.309],[-104.889,36.442],[-105.161,36.474],[-106.009,36.352],[-106.547,36.24],[-106.776,36.138],[-106.766,36.085]]]}}]}