{"type":"FeatureCollection","features":[{"type":"Feature","properties":{"density":1},"geometry":{"type":"Polygon","coordinates":[[[-82.934,35.971],[-82.985,35.986],[-83.086,36.052],[-83.386,36.129],[-83.519,36.204],[-83.616,36.329],[-83.63,36.395],[-83.575,36.456],[-83.38,36.518],[-83.197,36.522],[-83.122,36.493],[-83.029,36.423],[-82.967,36.264],[-82.908,36.16],[-82.845,36.086],[-82.865,36.023],[-82.91,35.977],[-82.934,35.971]]]}},{"type":"Feature","properties":{"density":1},"geometry":{"type":"Polygon","coordinates":[[[-82.692,35.965],[-82.722,35.97],[-82.778,36.028],[-82.784,36.059],[-82.768,36.082],[-82.722,36.094],[-82.67,36.06],[-82.649,36.028],[-82.666,35.974],[-82.692,35.965]]]}},{"type":"Feature","properties":{"density":1},"geometry":{"type":"Polygon","coordinates":[[[-82.314,36.713],[-82.375,36.736],[-82.392,36.78],[-82.383,36.816],[-82.282,36.814],[-82.237,36.788],[-82.222,36.743],[-82.265,36.711],[-82.314,36.713]]]}},{"type":"Feature","properties":{"density":1},"geometry":{"type":"Polygon","coordinates":[[[-83.198,37.113],[-83.275,37.039],[-83.345,37.005],[-83.413,37.001],[-83.425,37.06],[-83.401,37.103],[-83.328,37.147],[-83.264,37.152],[-83.191,37.134],[-83.198,37.113]]]}},{"type":"Feature","properties":{"density":1},"geometry":{"type":"Polygon","coordinates":[[[-84.401,36.208],[-84.455,36.232],[-84.444,36.267],[-84.41,36.296],[-84.369,36.302],[-84.352,36.249],[-84.369,36.208],[-84.401,36.208]]]}},{"type":"Feature","properties":{"density":1},"geometry":{"type":"Polygon","coordinates":[[[-92.882,38.265],[-92.955,38.353],[-92.982,38.439],[-92.963,38.502],[-92.889,38.512],[-92.821,38.485],[-92.753,38.434],[-92.741,38.407],[-92.809,38.297],[-92.877,38.27],[-92.882,38.265]]]}},{"type":"Feature","properties":{"density":1},"geometry":{"type":"Polygon","coordinates":[[[-109.39,33.677],[-109.554,33.629],[-109.623,33.64],[-109.627,33.67],[-109.578,33.699],[-109.41,33.718],[-109.379,33.699],[-109.39,33.677]]]}},{"type":"Feature","properties":{"density":1},"geometry":{"type":"Polygon","coordinates":[[[-109.775,33.851],[-109.939,33.804],[-109.963,33.82],[-109.75,33.92],[-109.734,33.906],[-109.754,33.877],[-109.775,33.851]]]}},{"type":"Feature","properties":{"density":1},"geometry":{"type":"Polygon","coordinates":[[[-109.767,34.093],[-109.943,34.076],[-109.994,34.086],[-109.998,34.132],[-109.969,34.156],[-109.851,34.175],[-109.787,34.162],[-109.754,34.14],[-109.754,34.119],[-109.767,34.093]]]}},{"type":"Feature","properties":{"density":1},"geometry":{"type":"Polygon","coordinates":[[[-82.866,39.834],[-81.916,40.04],[-81.001,40.177],[-79.697,40.452],[-78.908,40.498],[-77.466,40.486],[-76.826,40.326],[-76.403,39.983],[-76.22,39.171],[-76.323,38.462],[-76.471,37.672],[-76.792,37.18],[-77.203,36.826],[-77.798,36.506],[-78.427,36.277],[-79.297,36.151],[-80.315,36.483],[-80.738,37.02],[-81.31,37.421],[-81.539,37.512],[-82.545,37.558],[-83.403,37.73],[-84.01,38.038],[-84.467,38.519],[-84.673,39.056],[-84.547,39.422],[-83.93,39.674],[-82.866,39.834]]]}},{"type":"Feature","properties":{"density":1},"geometry":{"type":"Polygon","coordinates":[[[-83.47,37.555],[-83.527,37.431],[-83.527,37.386],[-83.493,37.397],[-83.442,37.538],[-83.47,37.555]]]}},{"type":"Feature","properties":{"density":1},"geometry":{"type":"Polygon","coordinates":[[[-83.21,37.323],[-83.204,37.188],[-83.266,37.086],[-83.289,37.086],[-83.312,37.188],[-83.295,37.255],[-83.244,37.329],[-83.21,37.323]]]}},{"type":"Feature","properties":{"density":1},"geometry":{"type":"Polygon","coordinates":[[[-83.193,37.12],[-83.176,36.905],[-83.193,36.877],[-83.255,36.837],[-83.278,36.854],[-83.3,36.973],[-83.249,37.12],[-83.193,37.12]]]}},{"type":"Feature","properties":{"density":1},"geometry":{"type":"Polygon","coordinates":[[[-82.107,37.419],[-82.203,37.363],[-82.22,37.238],[-82.152,37.227],[-82.107,37.255],[-81.988,37.25],[-81.954,37.289],[-81.887,37.431],[-81.932,37.499],[-81.977,37.499],[-82.068,37.442],[-82.107,37.419]]]}},{"type":"Feature","properties":{"density":1},"geometry":{"type":"Polygon","coordinates":[[[-82.294,36.741],[-82.396,36.713],[-82.424,36.65],[-82.407,36.616],[-82.282,36.599],[-82.181,36.628],[-82.158,36.679],[-82.215,36.718],[-82.265,36.73],[-82.294,36.741]]]}},{"type":"Feature","properties":{"density":1},"geometry":{"type":"Polygon","coordinates":[[[-82.95,35.972],[-82.961,35.796],[-82.905,35.706],[-82.808,35.695],[-82.678,35.768],[-82.673,35.881],[-82.78,35.932],[-82.831,36.107],[-82.888,36.074],[-82.905,36.034],[-82.95,35.972]]]}},{"type":"Feature","properties":{"density":1},"geometry":{"type":"Polygon","coordinates":[[[-81.4,36.124],[-81.513,36.119],[-81.626,36.136],[-81.666,36.102],[-81.513,36.068],[-81.395,36.079],[-81.4,36.124]]]}},{"type":"Feature","properties":{"density":1},"geometry":{"type":"Polygon","coordinates":[[[-89.555,37.866],[-89.544,37.996],[-89.572,38.042],[-89.498,38.262],[-89.589,38.273],[-89.657,38.217],[-89.702,38.149],[-89.725,38.042],[-89.708,37.957],[-89.668,37.889],[-89.612,37.849],[-89.555,37.866]]]}},{"type":"Feature","properties":{"density":1},"geometry":{"type":"Polygon","coordinates":[[[-92.852,38.273],[-92.484,38.545],[-92.366,38.664],[-92.253,38.788],[-92.179,38.941],[-92.185,38.992],[-92.428,38.85],[-92.66,38.635],[-92.795,38.477],[-92.875,38.29],[-92.852,38.273]]]}},{"type":"Feature","properties":{"density":1},"geometry":{"type":"Polygon","coordinates":[[[-92.501,38.358],[-92.27,38.517],[-92.168,38.613],[-92.111,38.726],[-92.117,38.765],[-92.281,38.669],[-92.439,38.5],[-92.496,38.364],[-92.501,38.358]]]}},{"type":"Feature","properties":{"density":1},"geometry":{"type":"Polygon","coordinates":[[[-94.922,37.374],[-94.673,37.804],[-94.566,37.928],[-94.402,38.03],[-94.334,38.013],[-94.334,37.957],[-94.413,37.849],[-94.696,37.533],[-94.894,37.374],[-94.922,37.374]]]}},{"type":"Feature","properties":{"density":1},"geometry":{"type":"Polygon","coordinates":[[[-94.492,37.238],[-94.011,37.736],[-93.96,37.872],[-93.983,37.945],[-94.13,37.883],[-94.221,37.804],[-94.288,37.691],[-94.317,37.6],[-94.537,37.284],[-94.492,37.238]]]}},{"type":"Feature","properties":{"density":1},"geometry":{"type":"Polygon","coordinates":[[[-94.288,38.545],[-94.254,38.731],[-94.124,38.845],[-94.09,38.799],[-94.09,38.72],[-94.187,38.596],[-94.243,38.562],[-94.288,38.545]]]}},{"type":"Feature","properties":{"density":1},"geometry":{"type":"Polygon","coordinates":[[[-92.682,40.287],[-91.958,40.914],[-91.704,41.35],[-91.664,41.486],[-91.681,41.519],[-91.902,41.412],[-92.111,41.214],[-92.694,40.315],[-92.682,40.287]]]}},{"type":"Feature","properties":{"density":1},"geometry":{"type":"Polygon","coordinates":[[[-96.517,41.163],[-96.454,41.061],[-96.353,40.796],[-96.443,40.892],[-96.539,41.186],[-96.517,41.163]]]}},{"type":"Feature","properties":{"density":1},"geometry":{"type":"Polygon","coordinates":[[[-108.752,34.968],[-109.009,35.127],[-109.265,35.206],[-109.45,35.286],[-110.087,35.427],[-110.228,35.427],[-110.272,35.383],[-110.263,35.251],[-109.945,35.145],[-109.698,35.109],[-109.318,34.968],[-109.079,34.924],[-108.761,34.906],[-108.752,34.968]]]}},{"type":"Feature","properties":{"density":1},"geometry":{"type":"Polygon","coordinates":[[[-109.539,34.04],[-109.645,34.084],[-109.83,34.208],[-109.945,34.482],[-110.193,34.835],[-110.581,35.021],[-110.988,35.039],[-111.571,35.039],[-111.783,34.986],[-111.836,34.906],[-111.845,34.765],[-111.642,34.623],[-111.067,34.42],[-110.953,34.323],[-110.687,33.996],[-110.493,33.89],[-110.193,33.81],[-109.751,33.784],[-109.662,33.801],[-109.521,33.996],[-109.539,34.04]]]}},{"type":"Feature","properties":{"density":1},"geometry":{"type":"Polygon","coordinates":[[[-109.38,33.642],[-109.601,33.581],[-109.927,33.536],[-110.254,33.457],[-110.528,33.413],[-110.617,33.413],[-110.687,33.466],[-110.705,33.501],[-110.387,33.607],[-110.307,33.616],[-110.148,33.704],[-109.981,33.748],[-109.724,33.775],[-109.415,33.74],[-109.38,33.642]]]}},{"type":"Feature","properties":{"density":1},"geometry":{"type":"Polygon","coordinates":[[[-113.011,35.869],[-113.215,36.028],[-113.259,36.081],[-113.285,36.117],[-113.303,36.214],[-113.391,36.346],[-113.559,36.382],[-113.656,36.346],[-113.683,36.17],[-113.639,36.072],[-113.515,35.975],[-113.064,35.843],[-113.011,35.869]]]}},{"type":"Feature","properties":{"density":1},"geometry":{"type":"Polygon","coordinates":[[[-121.404,38.979],[-121.404,39.127],[-121.432,39.233],[-121.461,39.53],[-121.538,39.636],[-121.644,39.735],[-121.828,39.869],[-121.934,40.011],[-122.245,40.286],[-122.394,40.293],[-122.613,40.209],[-122.676,40.138],[-122.676,39.869],[-122.507,39.389],[-122.394,39.198],[-122.111,39.014],[-121.694,38.901],[-121.453,38.88],[-121.404,38.979]]]}},{"type":"Feature","properties":{"density":2},"geometry":{"type":"Polygon","coordinates":[[[-82.939,35.983],[-82.958,36.052],[-82.928,36.069],[-82.907,36.061],[-82.902,36.033],[-82.926,35.975],[-82.939,35.983]]]}},{"type":"Feature","properties":{"density":2},"geometry":{"type":"Polygon","coordinates":[[[-82.671,35.988],[-82.687,35.972],[-82.717,35.979],[-82.708,35.999],[-82.676,36.006],[-82.671,35.988]]]}},{"type":"Feature","properties":{"density":2},"geometry":{"type":"Polygon","coordinates":[[[-84.399,36.224],[-84.43,36.228],[-84.422,36.249],[-84.371,36.257],[-84.375,36.232],[-84.399,36.224]]]}},{"type":"Feature","properties":{"density":2},"geometry":{"type":"Polygon","coordinates":[[[-82.927,35.977],[-82.944,35.91],[-82.916,35.842],[-82.865,35.836],[-82.831,35.859],[-82.831,35.949],[-82.899,35.994],[-82.927,35.977]]]}},{"type":"Feature","properties":{"density":2},"geometry":{"type":"Polygon","coordinates":[[[-109.733,34.111],[-110.06,34.349],[-110.131,34.385],[-110.378,34.632],[-110.511,34.703],[-110.696,34.765],[-110.899,34.773],[-111.112,34.773],[-111.209,34.729],[-111.218,34.632],[-111.103,34.553],[-110.793,34.385],[-110.652,34.27],[-110.564,34.173],[-110.475,34.04],[-110.272,33.907],[-110.193,33.89],[-109.989,33.89],[-109.742,33.863],[-109.636,33.872],[-109.618,33.934],[-109.707,34.067],[-109.733,34.111]]]}},{"type":"Feature","properties":{"density":2},"geometry":{"type":"Polygon","coordinates":[[[-109.415,33.704],[-109.53,33.625],[-109.857,33.572],[-109.848,33.642],[-109.795,33.669],[-109.459,33.74],[-109.415,33.704]]]}}]}