{"type":"FeatureCollection","features":[{"type":"Feature","properties":{"density":1},"geometry":{"type":"Polygon","coordinates":[[[-115.531,45.45],[-115.349,46.068],[-114.676,46.45],[-113.839,46.668],[-113.348,46.705],[-112.202,46.559],[-111.056,46.523],[-110.256,46.687],[-109.855,46.65],[-108.946,46.323],[-108.273,46.195],[-107.254,45.904],[-105.581,44.849],[-103.962,43.94],[-99.433,41.648],[-98.323,41.302],[-96.726,41.084],[-95.02,41.141],[-93.798,41.538],[-91.866,42.277],[-91.041,42.874],[-89.905,43.5],[-87.972,45.319],[-86.38,46.541],[-84.352,48.83],[-83.952,49.94],[-83.774,51.095],[-83.819,51.938],[-84.663,52.915],[-85.195,53.448],[-85.373,54.159],[-85.329,54.781],[-84.663,54.958],[-83.641,54.869],[-81.9,53.609],[-81.1,52.365],[-80.843,50.917],[-80.843,49.451],[-80.222,48.164],[-79.511,46.92],[-78.312,46.298],[-77.468,46.298],[-76.847,46.876],[-76.491,47.72],[-75.603,48.119],[-74.893,48.119],[-74.315,47.231],[-74.271,46.52],[-74.404,45.81],[-75.325,44.577],[-75.825,43.634],[-76.847,42.302],[-77.497,40.973],[-79.19,38.836],[-79.866,38.172],[-80.976,36.86],[-82.158,36.15],[-83.486,35.677],[-84.523,35.241],[-85.869,34.622],[-86.972,34.431],[-88.393,34.264],[-90.658,34.264],[-91.946,34.441],[-95.321,35.152],[-97.275,35.685],[-99.007,36.129],[-100.339,36.528],[-103.579,37.686],[-103.939,37.9],[-104.233,38.226],[-104.143,38.977],[-104.119,39.476],[-104.448,39.879],[-105.341,40.187],[-106.023,40.13],[-106.99,39.817],[-107.558,39.505],[-108.354,38.197],[-108.752,38.055],[-109.945,38.524],[-110.6,38.997],[-110.764,39.525],[-111.054,40.357],[-111.025,40.613],[-110.4,40.727],[-109.434,40.698],[-108.467,40.84],[-107.246,40.987],[-106.967,41.164],[-106.939,41.378],[-107.097,41.537],[-108.126,42.126],[-108.809,42.546],[-109.263,43.086],[-109.547,43.341],[-110.664,43.614],[-110.738,43.837],[-110.636,44.014],[-110.002,44.166],[-109.746,44.251],[-109.519,44.592],[-109.604,44.876],[-110.173,45.16],[-110.883,45.359],[-111.423,45.388],[-111.935,45.217],[-112.39,45.104],[-113.384,44.592],[-113.953,44.507],[-114.521,44.535],[-114.806,44.706],[-115.289,44.62],[-115.687,44.194],[-115.77,44.07],[-115.915,44.07],[-116.075,44.216],[-116.075,44.405],[-115.901,44.594],[-115.741,44.842],[-115.595,45.147],[-115.566,45.351],[-115.531,45.45]]]}},{"type":"Feature","properties":{"density":1},"geometry":{"type":"Polygon","coordinates":[[[-121.868,43.607],[-122.017,43.52],[-122.109,43.512],[-122.158,43.562],[-122.196,43.562],[-122.261,43.52],[-122.402,43.501],[-122.483,43.562],[-122.578,43.741],[-122.593,43.825],[-122.681,43.882],[-122.742,43.947],[-122.761,44.004],[-122.761,44.081],[-122.532,44.176],[-122.387,44.21],[-122.132,44.325],[-121.926,44.382],[-121.887,44.369],[-121.845,44.203],[-121.788,44.119],[-121.693,44.05],[-121.556,44.05],[-121.441,44.142],[-121.304,44.206],[-121.227,44.193],[-121.197,44.157],[-121.216,44.096],[-121.361,43.936],[-121.525,43.871],[-121.632,43.791],[-121.723,43.684],[-121.819,43.63],[-121.868,43.607]]]}},{"type":"Feature","properties":{"density":1},"geometry":{"type":"Polygon","coordinates":[[[-119.726,44.349],[-119.75,44.413],[-119.702,44.517],[-119.695,44.6],[-119.665,44.667],[-119.515,44.777],[-119.464,44.792],[-119.403,44.773],[-119.384,44.694],[-119.403,44.606],[-119.607,44.435],[-119.677,44.331],[-119.726,44.349]]]}},{"type":"Feature","properties":{"density":1},"geometry":{"type":"Polygon","coordinates":[[[-110.458,43.753],[-110.376,44.371],[-110.523,44.762],[-110.637,44.827],[-111.092,44.875],[-111.532,44.827],[-112.166,44.713],[-112.963,44.501],[-113.647,44.111],[-114.232,43.883],[-114.802,43.785],[-115.225,43.834],[-115.794,43.932],[-116.071,44.111],[-116.25,44.696],[-116.404,44.709],[-116.582,45.09],[-116.938,45.141],[-117.548,45.09],[-118.695,44.328],[-120.222,43.599],[-121.234,43.31],[-122.235,43.065],[-122.653,43.193],[-122.952,43.454],[-123.097,44.243],[-122.806,44.509],[-120.974,45.041],[-119.485,46.353],[-118.964,47.321],[-117.767,49.289],[-116.125,49.462],[-114.93,49.386],[-114.015,49.208],[-112.006,48.217],[-111.142,47.988],[-108.625,47.912],[-106.516,47.556],[-105.855,47.327],[-103.745,46.107],[-102.499,44.861],[-100.592,43.92],[-98.368,42.068],[-96.493,40.956],[-94.746,40.161],[-93.633,39.939],[-91.921,39.942],[-89.498,40.935],[-88.306,41.849],[-87.087,42.64],[-84.386,43.657],[-82.003,45.055],[-80.16,46.23],[-77.713,46.453],[-76.379,46.04],[-75.425,44.61],[-76.22,43.593],[-76.665,42.671],[-77.459,41.528],[-77.713,39.399],[-77.491,38.032],[-77.523,36.888],[-78.158,35.554],[-79.366,34.092],[-81.241,32.757],[-83.814,31.931],[-87.786,30.914],[-90.265,30.12],[-92.712,28.849],[-94.078,27.864],[-95.858,26.879],[-97.86,27.069],[-98.876,27.864],[-100.592,30.406],[-101.577,32.185],[-101.927,33.774],[-102.658,35.045],[-103.802,36.189],[-104.596,37.206],[-105.168,37.969],[-105.645,38.668],[-105.994,39.144],[-106.566,39.144],[-106.789,38.858],[-106.916,38.541],[-107.361,38.032],[-108.441,37.969],[-109.363,37.873],[-110.348,38.096],[-110.602,38.699],[-111.047,39.303],[-111.079,40.002],[-111.333,40.606],[-111.365,40.956],[-111.11,41.146],[-110.443,41.369],[-109.998,41.369],[-109.14,41.337],[-108.664,41.432],[-108.314,41.75],[-108.314,41.877],[-108.664,42.068],[-109.108,42.131],[-109.585,42.449],[-109.808,42.671],[-110.062,43.053],[-110.252,43.212],[-110.458,43.753]]]}},{"type":"Feature","properties":{"density":1},"geometry":{"type":"Polygon","coordinates":[[[-118.695,36.831],[-118.8,36.807],[-118.858,36.899],[-118.858,36.944],[-118.78,37.002],[-118.667,37.039],[-118.545,37.049],[-118.504,36.991],[-118.545,36.862],[-118.65,36.841],[-118.695,36.831]]]}},{"type":"Feature","properties":{"density":1},"geometry":{"type":"Polygon","coordinates":[[[-122.439,58.976],[-122.706,58.956],[-123.339,58.956],[-123.812,59.149],[-123.959,59.242],[-124.199,59.482],[-124.179,59.729],[-124.052,59.915],[-123.592,60.055],[-123.139,60.089],[-122.439,60.029],[-121.153,60.149],[-120.274,60.155],[-120.007,60.069],[-119.76,59.855],[-119.634,59.516],[-119.634,59.129],[-119.767,58.976],[-120.347,58.876],[-120.647,58.962],[-121.313,58.956],[-121.833,59.002],[-122.326,58.996],[-122.439,58.976]]]}},{"type":"Feature","properties":{"density":1},"geometry":{"type":"Polygon","coordinates":[[[-117.084,60.267],[-116.999,60.433],[-116.855,60.491],[-116.679,60.529],[-116.509,60.491],[-116.407,60.395],[-116.402,60.31],[-116.439,60.23],[-116.514,60.193],[-116.61,60.075],[-116.727,59.969],[-116.914,59.884],[-117.095,59.852],[-117.202,59.873],[-117.26,60.022],[-117.25,60.187],[-117.218,60.267],[-117.132,60.305],[-117.084,60.267]]]}},{"type":"Feature","properties":{"density":1},"geometry":{"type":"Polygon","coordinates":[[[-115.91,31.388],[-115.681,31.454],[-115.515,31.418],[-115.437,31.364],[-115.372,31.278],[-115.36,31.138],[-115.396,31.081],[-115.47,31.025],[-115.79,30.934],[-115.928,30.927],[-116.093,30.986],[-116.135,31.086],[-116.106,31.219],[-115.926,31.376],[-115.91,31.388]]]}},{"type":"Feature","properties":{"density":2},"geometry":{"type":"Polygon","coordinates":[[[-115.283,45.252],[-115.134,45.559],[-115.004,45.736],[-114.799,45.96],[-114.473,46.099],[-113.812,46.183],[-113.476,46.202],[-113.095,46.183],[-112.526,46.183],[-111.968,46.276],[-110.953,46.36],[-110.58,46.36],[-110.31,46.276],[-110.18,46.146],[-110.133,45.932],[-110.217,45.736],[-110.45,45.699],[-110.915,45.69],[-111.278,45.708],[-111.614,45.755],[-111.875,45.82],[-112.061,45.82],[-112.331,45.513],[-112.61,45.298],[-112.899,45.252],[-113.253,45.317],[-113.43,45.326],[-113.653,45.233],[-113.812,45.131],[-114.11,45.094],[-114.343,45.019],[-114.622,44.926],[-115.041,44.73],[-115.153,44.879],[-115.218,45.047],[-115.265,45.103],[-115.283,45.252]]]}},{"type":"Feature","properties":{"density":2},"geometry":{"type":"Polygon","coordinates":[[[-109.811,43.605],[-109.491,43.445],[-109.069,43.096],[-108.792,42.746],[-108.356,42.557],[-107.978,42.484],[-107.468,42.222],[-106.944,42.062],[-106.348,42.019],[-105.722,41.888],[-104.878,41.815],[-103.801,41.626],[-103.088,41.466],[-102.404,41.378],[-101.007,40.884],[-100.658,40.709],[-99.858,40.534],[-99.523,40.52],[-99.377,40.578],[-99.29,40.753],[-99.363,40.869],[-99.727,41.175],[-100.469,41.393],[-101.473,41.713],[-102.681,42.004],[-103.379,42.208],[-104.18,42.382],[-105.315,42.484],[-105.722,42.659],[-107.032,43.11],[-107.585,43.256],[-108.181,43.299],[-108.807,43.387],[-109.142,43.459],[-109.791,43.654],[-109.949,43.687],[-110.368,43.687],[-110.392,43.654],[-110.368,43.601],[-110.139,43.554],[-110.039,43.554],[-109.925,43.597],[-109.844,43.601],[-109.811,43.605]]]}},{"type":"Feature","properties":{"density":2},"geometry":{"type":"Polygon","coordinates":[[[-110.79,40.336],[-110.389,40.026],[-110.153,39.79],[-109.88,39.444],[-109.789,39.135],[-109.516,38.789],[-109.189,38.626],[-108.992,38.548],[-108.746,38.489],[-108.635,38.489],[-108.53,38.548],[-108.351,38.906],[-108.046,39.263],[-107.867,39.524],[-107.383,39.919],[-107.182,40.12],[-107.167,40.381],[-107.331,40.612],[-107.666,40.672],[-108.091,40.672],[-108.396,40.545],[-108.515,40.388],[-108.754,40.344],[-109.082,40.403],[-109.409,40.508],[-109.946,40.545],[-110.497,40.545],[-110.945,40.515],[-110.933,40.447],[-110.818,40.356],[-110.79,40.336]]]}},{"type":"Feature","properties":{"density":2},"geometry":{"type":"Polygon","coordinates":[[[-122.254,43.882],[-122.276,43.916],[-122.269,43.962],[-122.212,43.978],[-122.059,44.084],[-121.956,44.115],[-121.91,44.092],[-121.906,44.065],[-121.937,43.997],[-122.196,43.882],[-122.254,43.882]]]}},{"type":"Feature","properties":{"density":2},"geometry":{"type":"Polygon","coordinates":[[[-111.101,40.49],[-110.722,40.27],[-110.475,39.93],[-110.055,39.71],[-109.682,39.431],[-109.169,39.184],[-108.796,39.117],[-108.069,39.211],[-107.383,39.604],[-107.016,39.864],[-106.697,40.317],[-106.73,40.537],[-106.83,40.637],[-107.07,40.683],[-107.476,40.543],[-107.836,40.39],[-108.422,40.244],[-108.776,40.21],[-109.342,40.277],[-109.922,40.443],[-110.435,40.55],[-110.608,40.623],[-110.795,40.643],[-110.988,40.623],[-111.101,40.49]]]}},{"type":"Feature","properties":{"density":2},"geometry":{"type":"Polygon","coordinates":[[[-110.241,43.593],[-110.046,43.697],[-109.837,44.191],[-109.512,44.608],[-109.108,44.803],[-109.017,44.803],[-108.744,44.491],[-108.38,44.165],[-107.846,43.892],[-107.638,43.918],[-107.416,44.061],[-107.364,44.283],[-107.364,44.426],[-107.455,44.53],[-108.197,44.959],[-109.03,45.389],[-109.968,45.766],[-110.592,45.779],[-111.009,45.675],[-111.529,45.597],[-111.907,45.441],[-112.193,45.233],[-112.727,44.92],[-112.987,44.829],[-113.104,44.803],[-113.794,44.816],[-113.976,44.868],[-114.341,44.816],[-114.757,44.673],[-115.044,44.543],[-115.369,44.452],[-115.812,44.244],[-115.929,44.231],[-115.994,44.4],[-115.942,44.608],[-115.746,44.998],[-115.616,45.077],[-115.317,45.48],[-114.9,45.766],[-114.588,46.105],[-114.106,46.352],[-113.495,46.625],[-112.558,46.795],[-111.334,46.886],[-109.577,46.612],[-108.731,46.56],[-107.846,46.404],[-106.831,46.079],[-105.92,45.675],[-105.23,45.402],[-105.074,45.116],[-105.113,44.66],[-106.076,44.374],[-106.206,44.074],[-106.167,43.697],[-105.868,43.476],[-104.852,43.345],[-103.837,43.176],[-103.121,42.812],[-102.757,42.421],[-102.783,41.979],[-102.952,41.706],[-103.303,41.575],[-104.084,41.64],[-104.722,41.927],[-105.087,42.044],[-105.724,42.408],[-106.232,42.63],[-106.818,42.708],[-107.39,42.877],[-107.963,43.124],[-108.757,43.241],[-109.174,43.332],[-109.759,43.385],[-110.085,43.398],[-110.241,43.593]]]}},{"type":"Feature","properties":{"density":2},"geometry":{"type":"Polygon","coordinates":[[[-122.265,43.923],[-121.57,44.183],[-121.31,44.213],[-121.165,44.213],[-121.088,44.179],[-121.071,44.085],[-121.173,44.017],[-121.365,43.974],[-121.911,43.948],[-122.163,43.893],[-122.265,43.923]]]}},{"type":"Feature","properties":{"density":2},"geometry":{"type":"Polygon","coordinates":[[[-119.766,44.366],[-119.646,44.447],[-119.463,44.524],[-119.054,44.652],[-118.883,44.656],[-118.819,44.592],[-118.836,44.507],[-118.891,44.452],[-119.015,44.405],[-119.361,44.332],[-119.655,44.302],[-119.766,44.366]]]}},{"type":"Feature","properties":{"density":2},"geometry":{"type":"Polygon","coordinates":[[[-115.667,31.306],[-115.751,31.269],[-115.821,31.173],[-115.817,31.116],[-115.798,31.093],[-115.69,31.074],[-115.603,31.089],[-115.554,31.13],[-115.536,31.164],[-115.545,31.226],[-115.617,31.302],[-115.667,31.306]]]}},{"type":"Feature","properties":{"density":3},"geometry":{"type":"Polygon","coordinates":[[[-107.616,44.873],[-107.433,44.958],[-107.343,44.958],[-107.317,44.911],[-107.322,44.822],[-107.398,44.758],[-107.48,44.732],[-107.535,44.732],[-107.659,44.801],[-107.616,44.873]]]}},{"type":"Feature","properties":{"density":3},"geometry":{"type":"Polygon","coordinates":[[[-110.145,43.576],[-110.039,43.64],[-109.957,43.777],[-109.74,44.046],[-109.608,44.071],[-109.531,44.041],[-109.416,43.871],[-109.335,43.709],[-109.339,43.606],[-109.697,43.508],[-110.039,43.5],[-110.145,43.576]]]}},{"type":"Feature","properties":{"density":3},"geometry":{"type":"Polygon","coordinates":[[[-114.435,45.146],[-114.517,45.105],[-114.561,45.05],[-114.565,44.999],[-114.524,44.968],[-114.152,44.972],[-113.913,45.04],[-113.487,45.023],[-113.319,45.057],[-113.302,45.122],[-113.313,45.221],[-113.405,45.299],[-113.688,45.391],[-113.845,45.378],[-114.009,45.34],[-114.179,45.289],[-114.374,45.207],[-114.435,45.146]]]}},{"type":"Feature","properties":{"density":3},"geometry":{"type":"Polygon","coordinates":[[[-115.39,45.149],[-115.295,45.265],[-115.152,45.33],[-115.032,45.415],[-114.933,45.449],[-114.855,45.429],[-114.834,45.368],[-114.93,45.286],[-115.036,45.217],[-115.244,45.153],[-115.39,45.149]]]}}]}