{"type":"FeatureCollection","features":[{"type":"Feature","properties":{"density":1},"geometry":{"type":"Polygon","coordinates":[[[-93.97,32.621],[-93.869,32.578],[-93.833,32.511],[-93.845,32.486],[-93.924,32.483],[-93.985,32.556],[-94.022,32.621],[-94.013,32.672],[-93.982,32.654],[-93.97,32.621]]]}},{"type":"Feature","properties":{"density":1},"geometry":{"type":"Polygon","coordinates":[[[-96.312,34.009],[-96.253,34.187],[-96.282,34.23],[-96.298,34.216],[-96.327,34.005],[-96.312,34.009]]]}},{"type":"Feature","properties":{"density":1},"geometry":{"type":"Polygon","coordinates":[[[-94.25,16.324],[-94.333,16.334],[-94.428,16.314],[-94.609,16.226],[-94.772,16.085],[-94.999,15.809],[-95.06,15.675],[-95.102,15.479],[-95.087,15.406],[-95.058,15.362],[-94.999,15.345],[-94.921,15.365],[-94.807,15.45],[-94.533,15.97],[-94.374,16.187],[-94.284,16.283],[-94.24,16.307],[-94.25,16.324]]]}},{"type":"Feature","properties":{"density":1},"geometry":{"type":"Polygon","coordinates":[[[-93.968,16.236],[-94.028,16.234],[-94.143,16.184],[-94.266,16.063],[-94.263,16.033],[-94.22,16.016],[-94.149,16.037],[-94.022,16.143],[-93.979,16.213],[-93.968,16.236]]]}},{"type":"Feature","properties":{"density":1},"geometry":{"type":"Polygon","coordinates":[[[-89.716,15.315],[-89.809,15.284],[-89.924,15.279],[-89.97,15.283],[-89.988,15.306],[-89.903,15.34],[-89.713,15.334],[-89.716,15.315]]]}},{"type":"Feature","properties":{"density":1},"geometry":{"type":"Polygon","coordinates":[[[-79.42,21.678],[-79.498,21.746],[-79.515,21.783],[-79.515,21.832],[-79.491,21.873],[-79.425,21.851],[-79.374,21.786],[-79.383,21.7],[-79.41,21.681],[-79.42,21.678]]]}},{"type":"Feature","properties":{"density":1},"geometry":{"type":"Polygon","coordinates":[[[-76.396,20.677],[-76.485,20.716],[-76.619,20.692],[-76.756,20.619],[-76.769,20.515],[-76.708,20.487],[-76.585,20.515],[-76.5,20.542],[-76.387,20.628],[-76.396,20.677]]]}},{"type":"Feature","properties":{"density":1},"geometry":{"type":"Polygon","coordinates":[[[-76.872,20.506],[-77.007,20.487],[-77.403,20.344],[-77.492,20.301],[-77.519,20.259],[-77.495,20.213],[-77.297,20.133],[-77.181,20.133],[-77.068,20.191],[-76.985,20.21],[-76.833,20.307],[-76.732,20.35],[-76.695,20.384],[-76.695,20.408],[-76.72,20.436],[-76.854,20.524],[-76.872,20.506]]]}},{"type":"Feature","properties":{"density":1},"geometry":{"type":"Polygon","coordinates":[[[-72.129,18.862],[-72.074,18.835],[-72.02,18.874],[-72.01,18.898],[-72.018,18.935],[-72.117,19.005],[-72.15,18.95],[-72.074,18.933],[-72.131,18.874],[-72.129,18.862]]]}},{"type":"Feature","properties":{"density":1},"geometry":{"type":"Polygon","coordinates":[[[-93.958,32.623],[-93.935,32.742],[-93.965,32.906],[-94.047,33.152],[-94.159,33.368],[-94.338,33.525],[-94.367,33.525],[-94.397,33.45],[-94.353,33.271],[-94.174,32.876],[-94.01,32.616],[-93.958,32.623]]]}},{"type":"Feature","properties":{"density":1},"geometry":{"type":"Polygon","coordinates":[[[-75.966,20.495],[-76.019,20.393],[-75.988,20.407],[-75.956,20.485],[-75.966,20.495]]]}},{"type":"Feature","properties":{"density":1},"geometry":{"type":"Polygon","coordinates":[[[-75.931,20.424],[-75.951,20.258],[-75.99,20.127],[-76.017,20.127],[-76.027,20.2],[-75.99,20.373],[-75.956,20.429],[-75.931,20.424]]]}},{"type":"Feature","properties":{"density":1},"geometry":{"type":"Polygon","coordinates":[[[-76.388,20.644],[-76.41,20.495],[-76.452,20.381],[-76.701,20.11],[-76.864,20.002],[-77.404,19.777],[-77.653,19.707],[-77.914,19.69],[-77.99,19.709],[-78.07,19.756],[-78.129,19.821],[-78.168,19.922],[-78.146,20.048],[-78.085,20.149],[-78.004,20.241],[-77.88,20.322],[-77.631,20.366],[-77.418,20.366],[-77.191,20.41],[-76.781,20.578],[-76.556,20.652],[-76.4,20.666],[-76.388,20.644]]]}},{"type":"Feature","properties":{"density":1},"geometry":{"type":"Polygon","coordinates":[[[-72.101,18.857],[-72.101,18.824],[-72.152,18.74],[-72.213,18.724],[-72.23,18.75],[-72.219,18.785],[-72.125,18.865],[-72.101,18.857]]]}},{"type":"Feature","properties":{"density":1},"geometry":{"type":"Polygon","coordinates":[[[-79.101,21.304],[-79.15,21.246],[-79.153,21.176],[-79.113,21.103],[-78.771,20.676],[-78.674,20.615],[-78.493,20.538],[-78.396,20.52],[-78.255,20.541],[-78.143,20.633],[-78.097,20.703],[-78.045,20.834],[-78.069,20.886],[-78.176,20.987],[-78.258,21.103],[-78.329,21.173],[-78.381,21.198],[-78.82,21.295],[-79.076,21.317],[-79.101,21.304]]]}},{"type":"Feature","properties":{"density":1},"geometry":{"type":"Polygon","coordinates":[[[-82.034,22.773],[-81.973,22.718],[-81.927,22.718],[-81.921,22.755],[-82.003,22.789],[-82.034,22.773]]]}},{"type":"Feature","properties":{"density":1},"geometry":{"type":"Polygon","coordinates":[[[-82.064,22.688],[-82.012,22.649],[-81.948,22.639],[-81.939,22.651],[-81.967,22.7],[-82.025,22.706],[-82.06,22.692],[-82.064,22.688]]]}},{"type":"Feature","properties":{"density":1},"geometry":{"type":"Polygon","coordinates":[[[-81.34,22.801],[-81.231,22.738],[-81.18,22.73],[-81.168,22.742],[-81.16,22.777],[-81.199,22.814],[-81.291,22.826],[-81.34,22.812],[-81.34,22.801]]]}}]}