{"type":"FeatureCollection","features":[{"type":"Feature","properties":{"density":1},"geometry":{"type":"Polygon","coordinates":[[[-92.338,36.656],[-92.378,36.659],[-92.417,36.631],[-92.451,36.555],[-92.442,36.522],[-92.39,36.522],[-92.335,36.598],[-92.326,36.644],[-92.338,36.656]]]}},{"type":"Feature","properties":{"density":1},"geometry":{"type":"Polygon","coordinates":[[[-47.829,49.155],[-49.676,49.759],[-50.742,50.363],[-51.453,50.931],[-52.092,52.424],[-52.128,53.312],[-51.844,54.271],[-51.097,55.195],[-49.925,56.367],[-48.575,56.829],[-46.799,56.829],[-45.022,56.793],[-43.317,56.58],[-41.576,56.189],[-38.698,55.905],[-35.537,55.443],[-31.167,55.372],[-29.461,55.372],[-27.259,55.763],[-26.086,56.118],[-24.985,56.367],[-23.671,56.261],[-22.782,55.443],[-22.178,54.058],[-22.001,52.21],[-22.001,51.074],[-22.427,49.581],[-22.96,48.16],[-23.884,47.13],[-26.335,46.171],[-28.36,45.78],[-31.025,45.354],[-35.785,45.744],[-38.983,46.242],[-41.683,46.597],[-43.957,47.166],[-47.58,48.871],[-47.829,49.155]]]}},{"type":"Feature","properties":{"density":1},"geometry":{"type":"Polygon","coordinates":[[[-113.52,26.45],[-113.793,25.631],[-114.157,25.067],[-114.812,24.522],[-115.43,24.14],[-116.194,23.703],[-117.831,23.758],[-118.959,24.121],[-120.25,24.576],[-120.923,25.104],[-121.797,26.068],[-122.274,26.89],[-122.94,28.833],[-122.94,29.999],[-122.107,32.774],[-120.442,34.773],[-117.999,36.938],[-117.5,37.992],[-116.667,39.491],[-116.279,40.379],[-116.057,41.323],[-116.057,42.211],[-116.112,42.822],[-116.501,43.155],[-117.111,43.266],[-117.389,43.155],[-117.777,42.544],[-118.666,42.1],[-120.386,41.712],[-121.83,41.212],[-123.939,41.379],[-124.883,42.267],[-125.771,44.154],[-126.937,46.763],[-127.159,50.038],[-126.881,51.315],[-126.881,52.536],[-127.214,53.647],[-127.048,54.812],[-126.382,55.867],[-125.549,57.532],[-125.382,58.532],[-125.771,59.42],[-126.326,60.53],[-126.604,62.251],[-125.771,63.639],[-122.995,65.637],[-119.887,66.636],[-114.336,66.525],[-109.839,66.47],[-104.51,66.692],[-100.846,66.692],[-96.961,66.248],[-94.518,65.359],[-91.576,63.25],[-89.578,61.918],[-88.079,60.363],[-86.469,58.365],[-85.248,57.033],[-83.749,54.424],[-83.471,52.481],[-83.583,50.371],[-84.027,48.206],[-84.748,45.708],[-84.859,44.321],[-84.748,43.655],[-84.36,43.155],[-83.638,42.877],[-82.195,42.822],[-80.363,43.155],[-78.198,43.099],[-77.032,42.6],[-76.533,41.268],[-76.699,40.49],[-77.698,39.88],[-81.584,38.325],[-85.359,37.382],[-89.411,36.716],[-94.13,37.604],[-94.796,38.159],[-95.628,38.27],[-96.961,37.437],[-97.46,36.66],[-97.793,35.328],[-97.349,34.218],[-96.017,33.107],[-94.407,32.33],[-92.298,31.054],[-91.077,30.165],[-90.577,29.444],[-90.577,29.0],[-90.91,28.722],[-92.631,28.5],[-94.518,28.667],[-96.239,27.889],[-96.683,26.946],[-96.961,25.669],[-97.127,24.503],[-97.349,23.726],[-97.738,23.115],[-98.404,22.671],[-99.015,22.56],[-100.458,23.393],[-101.235,25.169],[-101.901,29.333],[-102.234,29.888],[-103.067,30.831],[-103.622,31.553],[-104.344,32.663],[-104.621,33.496],[-104.455,34.717],[-104.122,35.994],[-104.177,37.104],[-105.121,38.936],[-105.787,40.268],[-106.342,41.101],[-106.675,41.268],[-106.897,41.323],[-107.397,41.212],[-108.285,40.546],[-109.451,39.713],[-109.784,39.491],[-110.783,39.103],[-111.449,38.492],[-111.893,37.992],[-112.171,37.604],[-112.393,37.326],[-112.726,36.605],[-113.114,35.716],[-113.336,35.106],[-113.559,34.162],[-113.67,33.44],[-113.781,33.052],[-114.169,31.442],[-114.28,30.776],[-114.225,30.165],[-113.947,29.555],[-113.559,28.278],[-113.538,27.232],[-113.52,26.45]]]}},{"type":"Feature","properties":{"density":1},"geometry":{"type":"Polygon","coordinates":[[[-125.938,61.355],[-125.961,61.402],[-125.938,61.426],[-125.938,61.45],[-125.961,61.462],[-125.991,61.432],[-126.021,61.426],[-126.051,61.444],[-126.033,61.587],[-125.979,61.659],[-125.765,61.706],[-125.538,61.688],[-125.3,61.641],[-125.145,61.593],[-125.091,61.527],[-125.073,61.462],[-125.115,61.426],[-125.187,61.402],[-125.353,61.426],[-125.592,61.426],[-125.693,61.414],[-125.765,61.378],[-125.902,61.343],[-125.938,61.355]]]}},{"type":"Feature","properties":{"density":1},"geometry":{"type":"Polygon","coordinates":[[[-118.737,36.363],[-118.78,36.367],[-118.909,36.434],[-118.923,36.491],[-118.842,36.534],[-118.727,36.549],[-118.618,36.534],[-118.599,36.515],[-118.646,36.41],[-118.708,36.367],[-118.737,36.363]]]}},{"type":"Feature","properties":{"density":1},"geometry":{"type":"Polygon","coordinates":[[[-81.751,32.329],[-85.307,30.594],[-88.429,29.38],[-92.419,27.558],[-93.634,26.431],[-94.935,25.737],[-97.103,25.216],[-99.098,25.216],[-100.746,27.558],[-101.266,30.42],[-102.047,32.502],[-103.001,33.977],[-104.823,34.671],[-106.124,34.844],[-107.772,34.671],[-108.465,34.497],[-110.113,33.283],[-111.241,32.589],[-112.282,31.895],[-113.67,30.247],[-115.144,28.859],[-116.705,27.732],[-117.659,27.558],[-118.614,27.298],[-121.216,27.905],[-121.823,29.033],[-122.17,31.895],[-122.17,33.977],[-122.603,35.885],[-121.476,37.359],[-119.654,38.053],[-118.7,38.574],[-118.527,39.354],[-118.7,40.048],[-120.088,41.002],[-121.476,41.523],[-122.343,41.436],[-124.078,40.742],[-125.292,40.916],[-128.848,42.303],[-130.149,45.686],[-129.976,51.064],[-128.848,53.319],[-126.854,54.88],[-125.379,57.135],[-125.119,59.737],[-125.899,60.518],[-127.2,62.253],[-126.333,64.074],[-125.379,64.681],[-124.251,65.202],[-122.603,65.635],[-119.915,65.375],[-114.277,65.115],[-109.68,65.028],[-105.43,65.722],[-100.312,65.722],[-95.282,65.635],[-93.026,65.202],[-89.904,63.467],[-88.776,62.686],[-88.169,61.472],[-86.868,59.39],[-85.22,56.094],[-84.786,55.487],[-82.531,52.191],[-82.011,51.15],[-80.797,48.982],[-79.322,46.9],[-78.368,45.686],[-77.327,44.992],[-76.373,44.905],[-74.899,44.732],[-73.164,44.819],[-72.036,45.339],[-69.434,46.12],[-67.266,46.9],[-65.705,47.508],[-63.536,47.508],[-62.755,46.467],[-62.755,45.079],[-63.102,43.431],[-63.883,42.13],[-65.097,41.262],[-69.955,38.66],[-72.904,37.186],[-77.24,35.278],[-79.149,34.063],[-80.363,33.37],[-81.751,32.329]]]}},{"type":"Feature","properties":{"density":2},"geometry":{"type":"Polygon","coordinates":[[[-122.961,41.982],[-122.108,42.017],[-121.185,42.266],[-120.971,42.479],[-120.829,42.728],[-120.652,42.977],[-120.403,43.083],[-119.799,43.119],[-119.017,42.977],[-118.129,42.55],[-117.667,42.657],[-117.419,43.083],[-117.419,43.403],[-117.952,43.971],[-118.165,44.362],[-118.165,44.646],[-117.738,44.931],[-116.921,45.037],[-115.252,44.469],[-113.582,43.936],[-112.125,43.687],[-110.065,43.19],[-108.75,42.657],[-108.04,42.444],[-106.157,41.52],[-105.41,41.342],[-104.7,41.236],[-104.274,41.342],[-103.812,41.733],[-103.67,42.408],[-103.705,42.87],[-104.06,43.652],[-106.05,46.316],[-106.761,47.24],[-107.436,47.773],[-109.141,48.306],[-111.521,48.128],[-113.404,47.95],[-114.328,48.235],[-115.429,48.839],[-115.642,49.762],[-115.18,51.254],[-113.973,52.143],[-114.044,52.498],[-113.866,52.924],[-113.369,53.386],[-112.587,53.741],[-111.841,53.883],[-110.42,53.777],[-109.532,53.564],[-108.572,52.96],[-107.08,52.64],[-103.847,52.64],[-102.106,52.356],[-100.366,51.752],[-98.945,51.148],[-97.843,50.331],[-96.529,49.229],[-95.818,48.448],[-95.569,47.631],[-95.676,46.743],[-96.102,46.139],[-97.133,45.783],[-99.229,46.671],[-100.152,47.169],[-102.497,48.803],[-103.741,49.443],[-104.913,48.874],[-105.375,48.199],[-105.517,47.418],[-105.197,46.778],[-104.664,46.494],[-103.599,46.174],[-102.178,45.819],[-100.508,45.144],[-99.158,44.042],[-96.991,42.444],[-95.179,40.454],[-93.829,38.607],[-92.585,37.683],[-91.733,37.505],[-88.286,37.434],[-84.947,37.861],[-82.638,38.394],[-80.328,39.282],[-80.364,40.028],[-80.577,40.845],[-80.968,41.52],[-82.105,41.982],[-83.384,42.017],[-84.449,42.337],[-85.053,43.474],[-85.657,44.789],[-86.19,47.524],[-86.865,49.052],[-87.754,49.798],[-89.672,50.224],[-90.915,50.224],[-91.555,49.798],[-92.052,49.443],[-92.905,49.229],[-93.615,49.336],[-95.818,50.899],[-98.092,52.285],[-99.193,53.208],[-99.3,53.422],[-99.158,53.599],[-98.874,53.777],[-98.412,54.239],[-97.488,55.376],[-97.275,56.37],[-97.026,58.324],[-97.168,59.852],[-97.559,61.273],[-98.127,62.197],[-99.513,63.618],[-101.645,64.506],[-105.695,65.252],[-109.922,65.572],[-115.323,65.892],[-119.053,65.678],[-121.611,65.288],[-123.279,64.854],[-124.273,64.25],[-124.913,64.037],[-125.41,63.539],[-125.765,63.255],[-126.05,62.971],[-126.298,62.509],[-126.369,62.189],[-126.263,61.692],[-125.768,60.456],[-124.666,60.385],[-124.666,60.136],[-124.986,59.781],[-125.306,59.568],[-125.126,59.134],[-125.126,58.068],[-125.197,57.393],[-125.765,56.221],[-126.014,55.794],[-126.831,54.764],[-126.938,53.343],[-125.981,52.178],[-125.306,51.752],[-124.915,50.97],[-124.382,50.011],[-123.991,48.981],[-123.885,48.128],[-123.885,46.103],[-123.671,45.428],[-123.529,44.54],[-123.494,44.078],[-123.494,43.19],[-123.6,42.906],[-123.671,42.621],[-123.671,42.373],[-123.529,42.053],[-123.174,41.982],[-122.961,41.982]]]}},{"type":"Feature","properties":{"density":2},"geometry":{"type":"Polygon","coordinates":[[[-117.02,34.098],[-116.906,34.188],[-116.896,34.241],[-116.987,34.274],[-117.235,34.241],[-117.545,34.26],[-117.678,34.179],[-117.702,34.14],[-117.702,34.069],[-117.678,34.007],[-117.616,33.993],[-117.435,33.974],[-117.24,34.002],[-117.049,34.064],[-117.02,34.098]]]}},{"type":"Feature","properties":{"density":2},"geometry":{"type":"Polygon","coordinates":[[[-117.723,43.35],[-119.189,43.261],[-120.343,42.995],[-121.054,42.551],[-121.543,42.373],[-122.564,42.151],[-123.674,42.062],[-124.829,43.261],[-125.228,45.57],[-125.006,47.302],[-126.65,49.567],[-126.694,50.322],[-126.117,52.099],[-124.385,53.964],[-122.342,55.518],[-120.654,56.095],[-118.745,56.628],[-116.08,57.028],[-112.75,57.472],[-110.84,57.294],[-108.351,57.187],[-106.113,57.187],[-104.159,57.933],[-102.489,58.821],[-100.677,59.71],[-98.936,60.278],[-97.053,60.243],[-94.779,59.71],[-93.998,58.573],[-93.785,57.614],[-94.282,56.37],[-95.597,55.375],[-96.733,54.238],[-97.48,53.279],[-97.48,52.604],[-96.591,51.574],[-95.277,50.402],[-93.678,48.803],[-91.866,47.133],[-89.912,45.534],[-88.456,44.788],[-87.638,45.783],[-87.887,46.565],[-88.527,46.92],[-88.917,47.453],[-87.816,47.986],[-85.898,47.062],[-84.938,45.215],[-82.878,41.662],[-82.203,40.552],[-81.315,40.241],[-80.426,39.974],[-79.938,39.886],[-79.05,39.841],[-78.295,39.974],[-77.318,40.063],[-77.14,39.131],[-77.185,38.642],[-77.762,38.109],[-78.695,37.621],[-80.426,37.31],[-81.848,36.955],[-83.18,36.866],[-85.889,36.422],[-88.82,36.333],[-90.596,36.51],[-92.994,37.221],[-93.794,37.798],[-95.348,39.441],[-96.369,40.951],[-97.657,42.106],[-98.989,43.172],[-100.011,44.504],[-100.899,45.881],[-100.943,46.502],[-100.455,46.813],[-99.878,46.947],[-98.901,46.591],[-98.19,46.192],[-97.391,46.414],[-97.302,47.035],[-98.057,48.146],[-98.279,49.256],[-98.723,50.1],[-99.389,50.943],[-101.565,51.965],[-103.119,51.965],[-105.962,52.142],[-107.694,52.142],[-108.226,51.743],[-108.582,51.343],[-108.493,50.721],[-107.605,49.922],[-106.583,49.522],[-105.029,48.989],[-104.052,48.856],[-103.031,48.412],[-102.453,46.947],[-102.187,46.769],[-103.253,46.414],[-103.919,46.325],[-104.585,45.836],[-104.496,45.348],[-103.031,43.438],[-103.297,42.683],[-103.963,42.284],[-105.34,42.55],[-106.85,43.083],[-109.115,44.149],[-111.069,44.637],[-111.602,44.682],[-112.401,44.682],[-113.289,44.371],[-114.533,43.66],[-115.51,43.571],[-116.131,43.571],[-117.723,43.35]]]}},{"type":"Feature","properties":{"density":2},"geometry":{"type":"Polygon","coordinates":[[[-89.531,36.438],[-89.728,35.931],[-89.847,35.716],[-90.02,35.472],[-90.241,35.234],[-90.372,34.977],[-90.64,34.679],[-90.813,34.614],[-91.111,34.602],[-91.26,34.81],[-91.236,35.198],[-91.135,35.484],[-91.051,35.651],[-90.872,35.895],[-90.252,36.467],[-89.811,36.706],[-89.627,36.694],[-89.561,36.563],[-89.531,36.438]]]}},{"type":"Feature","properties":{"density":3},"geometry":{"type":"Polygon","coordinates":[[[-123.096,42.199],[-122.3,42.199],[-121.937,42.336],[-121.55,42.449],[-121.459,42.517],[-121.414,42.586],[-121.32,42.827],[-121.216,42.917],[-120.806,43.14],[-120.65,43.252],[-120.413,43.313],[-119.958,43.336],[-119.595,43.336],[-118.981,43.063],[-118.481,43.063],[-118.162,43.086],[-117.98,43.268],[-117.98,43.427],[-118.162,43.654],[-118.549,43.7],[-119.094,43.791],[-119.322,43.859],[-119.64,44.268],[-119.936,44.814],[-119.936,44.996],[-119.799,45.314],[-119.14,45.564],[-118.162,45.61],[-117.73,45.564],[-116.98,45.451],[-116.207,45.2],[-115.297,44.928],[-114.501,44.768],[-113.069,44.746],[-112.251,44.814],[-111.796,45.155],[-111.182,45.496],[-110.75,45.678],[-110.295,45.701],[-109.886,45.61],[-109.363,45.337],[-109.135,45.064],[-109.067,44.723],[-109.226,44.291],[-109.363,44.155],[-109.363,43.927],[-109.477,43.791],[-109.658,43.791],[-110.204,44.018],[-110.522,44.041],[-110.613,43.882],[-110.613,43.632],[-110.432,43.586],[-109.749,43.359],[-109.386,43.359],[-109.135,43.381],[-108.749,43.677],[-108.681,44.064],[-108.362,44.132],[-107.908,44.041],[-107.498,43.927],[-107.362,43.518],[-107.362,42.904],[-107.089,42.245],[-106.657,42.176],[-105.998,41.972],[-105.543,41.813],[-105.247,41.835],[-105.361,42.04],[-105.816,42.29],[-106.566,42.949],[-105.998,43.654],[-105.952,44.064],[-106.02,44.245],[-107.18,44.655],[-107.817,45.019],[-107.885,45.814],[-107.817,46.61],[-107.794,47.383],[-108.021,47.906],[-108.385,48.088],[-109.727,48.134],[-111.227,47.997],[-112.864,47.77],[-113.66,47.793],[-115.07,48.202],[-115.866,48.657],[-116.161,49.43],[-115.934,50.453],[-115.616,51.271],[-115.434,52.272],[-115.297,52.931],[-114.843,53.977],[-114.411,54.341],[-113.865,54.545],[-113.433,54.682],[-112.478,54.682],[-111.614,54.455],[-110.909,54.113],[-110.09,53.591],[-107.976,52.886],[-106.248,52.658],[-104.292,52.681],[-103.61,52.908],[-102.837,52.999],[-101.973,53.136],[-100.95,53.09],[-99.904,52.636],[-99.449,52.067],[-98.949,51.362],[-97.653,49.771],[-96.607,49.316],[-95.948,48.793],[-95.243,48.27],[-95.061,48.247],[-95.061,47.565],[-95.311,46.86],[-95.766,46.383],[-95.971,46.224],[-96.061,45.883],[-96.016,45.405],[-95.607,44.905],[-94.561,44.177],[-93.424,43.677],[-92.605,43.427],[-92.06,43.336],[-91.696,43.359],[-91.241,43.495],[-90.991,43.813],[-90.9,44.177],[-91.014,44.587],[-91.173,45.269],[-90.9,46.451],[-90.9,46.792],[-91.764,47.747],[-93.606,48.634],[-95.107,49.771],[-96.084,50.817],[-97.767,51.703],[-98.699,52.499],[-99.404,53.386],[-99.995,54.25],[-100.677,54.727],[-101.45,55.614],[-101.609,56.615],[-101.405,57.638],[-100.996,58.411],[-100.973,58.934],[-101.041,59.57],[-101.223,59.866],[-101.518,60.139],[-101.905,60.321],[-102.633,60.412],[-103.565,60.253],[-104.793,59.798],[-105.588,59.025],[-106.225,58.161],[-106.703,57.547],[-106.725,57.274],[-106.498,57.047],[-106.111,57.342],[-105.748,58.047],[-105.27,58.752],[-104.656,59.161],[-104.179,59.229],[-103.792,59.093],[-103.679,59.002],[-103.61,58.797],[-103.656,58.274],[-103.906,57.479],[-104.247,56.774],[-104.906,56.023],[-106.089,55.546],[-107.476,55.591],[-108.772,55.932],[-110.522,56.478],[-110.818,56.637],[-112.16,57.501],[-113.296,57.501],[-114.32,57.456],[-115.411,57.206],[-118.802,55.723],[-119.797,55.119],[-120.401,54.622],[-120.863,54.196],[-121.893,53.343],[-122.603,52.846],[-123.314,52.064],[-123.776,51.247],[-124.06,50.679],[-123.954,49.932],[-123.811,49.506],[-123.669,49.222],[-123.563,48.902],[-123.563,48.263],[-123.634,47.268],[-123.492,46.131],[-122.119,44.791],[-122.119,44.564],[-122.255,44.177],[-122.596,43.882],[-122.914,43.518],[-123.142,43.336],[-123.369,43.063],[-123.369,42.904],[-123.437,42.586],[-123.346,42.358],[-123.096,42.199]]]}},{"type":"Feature","properties":{"density":3},"geometry":{"type":"Polygon","coordinates":[[[-99.586,45.155],[-99.586,45.473],[-99.358,45.723],[-98.995,45.837],[-98.153,45.655],[-97.289,44.996],[-96.539,44.496],[-96.039,43.745],[-95.652,42.995],[-94.788,42.063],[-93.947,41.562],[-92.742,41.062],[-91.673,40.789],[-90.627,40.607],[-90.013,40.767],[-89.627,41.176],[-89.536,41.835],[-89.718,42.563],[-89.763,42.995],[-89.49,43.723],[-89.104,44.632],[-88.831,45.223],[-88.581,45.405],[-88.172,45.246],[-87.49,44.677],[-87.194,43.973],[-86.989,43.245],[-86.807,42.176],[-86.603,41.494],[-86.148,41.176],[-85.398,41.267],[-84.784,41.517],[-84.329,41.54],[-83.874,41.358],[-83.601,40.835],[-83.488,40.153],[-83.488,39.357],[-83.761,38.72],[-84.42,38.175],[-85.58,37.924],[-89.195,38.061],[-92.31,38.607],[-93.288,39.084],[-93.765,39.562],[-94.243,40.517],[-94.993,41.335],[-95.993,41.813],[-96.835,42.495],[-97.653,43.109],[-98.108,43.518],[-98.654,43.95],[-99.017,44.382],[-99.472,44.859],[-99.586,45.155]]]}},{"type":"Feature","properties":{"density":3},"geometry":{"type":"Polygon","coordinates":[[[-122.528,43.39],[-122.486,43.462],[-122.524,43.611],[-122.516,43.63],[-122.295,43.725],[-122.017,43.683],[-121.597,43.534],[-121.525,43.466],[-121.509,43.397],[-121.555,43.309],[-121.669,43.241],[-121.814,43.206],[-121.94,43.199],[-122.326,43.359],[-122.459,43.386],[-122.528,43.39]]]}},{"type":"Feature","properties":{"density":3},"geometry":{"type":"Polygon","coordinates":[[[-121.174,43.508],[-121.093,43.447],[-120.853,43.397],[-120.685,43.409],[-120.479,43.481],[-120.254,43.626],[-120.144,43.828],[-120.067,43.897],[-120.029,44.023],[-120.044,44.213],[-120.079,44.305],[-120.22,44.37],[-120.479,44.336],[-120.598,44.244],[-120.59,44.103],[-120.624,44.034],[-120.746,43.935],[-120.979,43.84],[-121.177,43.702],[-121.212,43.63],[-121.208,43.569],[-121.174,43.508]]]}},{"type":"Feature","properties":{"density":3},"geometry":{"type":"Polygon","coordinates":[[[-116.307,44.359],[-116.357,44.523],[-116.341,44.793],[-116.273,45.259],[-116.074,45.606],[-115.891,45.705],[-115.765,45.747],[-115.621,45.732],[-115.426,45.656],[-115.353,45.575],[-115.296,45.438],[-115.312,45.301],[-115.498,44.877],[-115.628,44.721],[-115.807,44.637],[-116.132,44.439],[-116.288,44.362],[-116.307,44.359]]]}},{"type":"Feature","properties":{"density":3},"geometry":{"type":"Polygon","coordinates":[[[-110.252,43.724],[-110.007,43.83],[-109.864,43.855],[-109.577,43.858],[-109.428,43.818],[-109.321,43.751],[-109.29,43.681],[-109.309,43.611],[-109.434,43.58],[-109.66,43.592],[-109.965,43.684],[-110.166,43.644],[-110.267,43.687],[-110.252,43.724]]]}},{"type":"Feature","properties":{"density":3},"geometry":{"type":"Polygon","coordinates":[[[-109.161,55.461],[-109.206,55.536],[-109.288,55.782],[-109.25,55.946],[-109.131,56.072],[-108.96,56.132],[-108.826,56.132],[-108.617,55.975],[-108.602,55.864],[-108.885,55.573],[-109.005,55.484],[-109.161,55.461]]]}},{"type":"Feature","properties":{"density":3},"geometry":{"type":"Polygon","coordinates":[[[-107.537,56.005],[-107.47,56.117],[-107.38,56.326],[-107.388,56.445],[-107.172,56.579],[-106.896,56.601],[-106.598,56.646],[-106.464,56.586],[-106.389,56.527],[-106.375,56.46],[-106.434,56.37],[-106.583,56.318],[-106.747,56.318],[-106.769,56.288],[-106.71,56.251],[-106.397,56.184],[-106.345,56.095],[-106.434,56.028],[-106.747,55.931],[-107.142,55.894],[-107.336,55.923],[-107.433,55.916],[-107.537,56.005]]]}},{"type":"Feature","properties":{"density":3},"geometry":{"type":"Polygon","coordinates":[[[-103.625,55.817],[-103.404,55.919],[-103.202,55.877],[-102.886,55.877],[-102.641,55.931],[-102.051,56.193],[-101.753,56.288],[-101.378,56.342],[-101.157,56.306],[-101.086,56.115],[-101.187,55.931],[-101.39,55.788],[-101.849,55.621],[-102.319,55.513],[-102.612,55.466],[-102.993,55.46],[-103.309,55.555],[-103.595,55.668],[-103.649,55.758],[-103.625,55.817]]]}}]}