{"type":"FeatureCollection","features":[{"type":"Feature","properties":{"density":1},"geometry":{"type":"Polygon","coordinates":[[[-115.064,41.551],[-119.401,41.551],[-122.87,41.442],[-125.364,41.442],[-126.123,42.526],[-125.906,44.044],[-124.171,46.972],[-119.184,48.273],[-117.883,48.489],[-116.365,49.791],[-115.606,51.959],[-117.991,55.754],[-120.918,56.946],[-122.653,58.139],[-125.689,60.741],[-124.822,62.584],[-123.304,63.777],[-121.244,64.644],[-119.075,65.078],[-114.63,64.319],[-107.366,62.584],[-99.777,60.199],[-95.657,60.09],[-93.163,60.741],[-88.609,63.343],[-85.031,65.511],[-80.044,67.246],[-74.515,65.728],[-73.973,64.536],[-73.647,61.825],[-72.888,57.055],[-73.322,52.393],[-73.322,50.007],[-73.973,48.056],[-73.973,45.128],[-73.214,42.96],[-73.43,41.767],[-73.43,41.334],[-77.659,34.829],[-80.261,33.202],[-82.538,31.684],[-84.272,30.275],[-86.441,29.408],[-88.718,28.323],[-93.054,26.697],[-94.247,24.962],[-95.331,23.336],[-96.09,21.927],[-96.632,20.842],[-97.283,20.517],[-99.451,22.469],[-101.837,24.854],[-104.655,28.54],[-104.439,34.178],[-100.102,36.997],[-96.632,38.84],[-95.873,40.358],[-95.331,41.551],[-95.331,42.96],[-95.657,44.695],[-97.717,45.562],[-101.403,46.429],[-107.583,45.237],[-110.076,44.044],[-112.245,42.743],[-114.63,41.551],[-114.847,41.551],[-115.064,41.551]]]}},{"type":"Feature","properties":{"density":1},"geometry":{"type":"Polygon","coordinates":[[[-121.636,43.802],[-121.547,43.831],[-121.517,43.921],[-121.541,44.04],[-121.618,44.135],[-121.856,44.112],[-122.113,44.064],[-122.232,44.01],[-122.441,43.831],[-122.53,43.718],[-122.554,43.641],[-122.512,43.563],[-122.423,43.581],[-122.298,43.635],[-122.166,43.718],[-121.827,43.843],[-121.69,43.82],[-121.69,43.802],[-121.636,43.802]]]}},{"type":"Feature","properties":{"density":1},"geometry":{"type":"Polygon","coordinates":[[[-123.734,43.384],[-123.853,43.289],[-124.008,43.194],[-124.157,43.128],[-124.247,43.045],[-124.318,43.003],[-124.324,42.925],[-124.253,42.884],[-124.151,42.931],[-124.11,43.003],[-123.835,43.235],[-123.746,43.289],[-123.728,43.343],[-123.734,43.384]]]}},{"type":"Feature","properties":{"density":1},"geometry":{"type":"Polygon","coordinates":[[[-119.619,44.415],[-119.783,44.43],[-119.84,44.373],[-119.832,44.289],[-119.775,44.167],[-119.71,44.106],[-119.653,44.125],[-119.58,44.293],[-119.607,44.388],[-119.619,44.415]]]}},{"type":"Feature","properties":{"density":1},"geometry":{"type":"Polygon","coordinates":[[[-124.872,64.407],[-126.932,59.528],[-128.125,54.866],[-126.607,49.987],[-123.138,48.794],[-118.801,48.903],[-114.898,49.77],[-109.26,50.746],[-103.622,49.987],[-99.719,48.361],[-97.55,45.867],[-97.008,42.181],[-97.442,39.253],[-96.792,34.7],[-95.165,31.881],[-89.376,27.218],[-84.757,25.918],[-80.962,26.894],[-74.457,29.496],[-71.421,35.025],[-70.987,40.121],[-72.831,46.084],[-75.975,48.794],[-83.044,52.371],[-88.682,56.274],[-93.973,59.42],[-99.827,64.624],[-108.392,67.443],[-120.969,66.142],[-124.547,64.624],[-124.872,64.407]]]}},{"type":"Feature","properties":{"density":2},"geometry":{"type":"Polygon","coordinates":[[[-121.678,43.802],[-121.755,43.82],[-121.874,43.802],[-121.88,43.831],[-121.868,43.933],[-121.785,43.969],[-121.713,44.052],[-121.594,43.992],[-121.588,43.939],[-121.547,43.849],[-121.588,43.825],[-121.66,43.814],[-121.678,43.802]]]}},{"type":"Feature","properties":{"density":2},"geometry":{"type":"Polygon","coordinates":[[[-119.634,44.384],[-119.687,44.399],[-119.779,44.392],[-119.844,44.361],[-119.802,44.315],[-119.592,44.277],[-119.596,44.319],[-119.626,44.357],[-119.634,44.384]]]}},{"type":"Feature","properties":{"density":2},"geometry":{"type":"Polygon","coordinates":[[[-115.955,43.503],[-115.94,43.576],[-115.873,43.625],[-115.806,43.64],[-115.751,43.616],[-115.705,43.573],[-115.702,43.518],[-115.763,43.457],[-115.842,43.454],[-115.952,43.506],[-115.955,43.503]]]}}]}