{"type":"FeatureCollection","features":[{"type":"Feature","properties":{"density":1},"geometry":{"type":"Polygon","coordinates":[[[-99.011,23.082],[-98.792,23.499],[-98.792,23.79],[-98.897,24.571],[-98.876,24.8],[-98.782,25.123],[-98.605,25.519],[-98.449,25.821],[-98.293,26.372],[-98.126,26.789],[-98.001,27.185],[-97.72,27.653],[-97.533,27.809],[-97.189,27.955],[-96.887,27.986],[-96.231,27.986],[-95.086,27.601],[-93.305,27.195],[-91.348,27.185],[-90.275,27.393],[-89.026,27.695],[-88.453,27.747],[-87.766,27.768],[-87.328,27.757],[-86.693,27.653],[-86.1,27.476],[-85.641,27.31],[-85.017,26.987],[-84.548,26.789],[-84.09,26.508],[-83.434,26.237],[-82.768,26.05],[-82.424,25.914],[-82.174,25.748],[-81.851,25.487],[-81.695,25.165],[-81.653,24.873],[-81.685,24.675],[-81.768,24.436],[-82.403,23.884],[-82.965,23.592],[-83.455,23.28],[-83.913,23.072],[-85.006,22.905],[-85.631,22.728],[-86.443,22.614],[-87.13,22.561],[-87.849,22.395],[-88.38,22.228],[-88.869,22.02],[-89.286,21.781],[-89.577,21.51],[-89.796,21.135],[-90.004,20.708],[-90.108,20.312],[-90.171,20.0],[-90.213,19.677],[-90.369,18.875],[-90.4,18.573],[-90.202,18.136],[-89.931,17.793],[-89.682,17.574],[-89.338,17.428],[-88.859,17.345],[-88.515,17.334],[-87.963,17.428],[-87.203,17.491],[-86.745,17.376],[-86.516,17.272],[-86.193,17.022],[-85.975,16.637],[-85.954,16.179],[-85.943,15.773],[-86.1,14.877],[-86.35,14.023],[-86.839,13.065],[-87.026,12.649],[-87.557,11.764],[-87.766,11.545],[-88.213,11.181],[-88.682,10.827],[-89.119,10.525],[-90.848,9.921],[-91.629,9.744],[-92.378,9.619],[-92.837,9.577],[-94.138,9.546],[-94.877,9.577],[-96.377,9.754],[-97.012,9.785],[-97.949,9.973],[-98.876,10.202],[-99.813,10.525],[-100.74,10.983],[-101.354,11.451],[-101.739,11.972],[-101.927,12.17],[-102.083,12.555],[-102.208,12.795],[-102.249,13.294],[-102.145,13.68],[-101.687,14.669],[-101.468,15.075],[-101.073,15.596],[-100.656,15.908],[-100.313,16.064],[-99.875,16.22],[-99.428,16.324],[-99.011,16.324],[-98.282,16.252],[-96.814,15.908],[-96.346,15.845],[-95.898,15.908],[-95.658,16.002],[-95.533,16.22],[-95.471,16.418],[-95.419,16.699],[-95.565,17.053],[-95.825,17.407],[-96.158,17.782],[-96.418,18.001],[-96.679,18.428],[-96.835,18.813],[-97.033,19.625],[-97.522,20.167],[-98.022,20.573],[-98.355,20.75],[-98.678,21.0],[-98.865,21.197],[-99.219,21.52],[-99.396,21.801],[-99.469,22.041],[-99.469,22.395],[-99.428,22.603],[-99.324,22.749],[-99.074,22.988],[-98.938,23.176],[-99.011,23.082]]]}},{"type":"Feature","properties":{"density":1},"geometry":{"type":"Polygon","coordinates":[[[-96.801,38.769],[-96.833,38.457],[-96.828,38.426],[-96.777,38.407],[-96.759,38.431],[-96.754,38.701],[-96.795,38.769],[-96.801,38.769]]]}},{"type":"Feature","properties":{"density":1},"geometry":{"type":"Polygon","coordinates":[[[-102.886,23.212],[-102.61,23.29],[-102.553,23.332],[-102.519,23.419],[-102.54,23.441],[-102.596,23.426],[-102.891,23.227],[-102.886,23.212]]]}},{"type":"Feature","properties":{"density":1},"geometry":{"type":"Polygon","coordinates":[[[-105.428,23.161],[-105.531,23.181],[-105.543,23.205],[-105.534,23.223],[-105.485,23.231],[-105.427,23.202],[-105.42,23.165],[-105.428,23.161]]]}},{"type":"Feature","properties":{"density":1},"geometry":{"type":"Polygon","coordinates":[[[-103.008,19.59],[-102.886,19.676],[-102.884,19.725],[-102.904,19.746],[-102.943,19.736],[-103.021,19.597],[-103.008,19.59]]]}},{"type":"Feature","properties":{"density":1},"geometry":{"type":"Polygon","coordinates":[[[-102.077,19.088],[-102.141,18.984],[-102.174,18.964],[-102.186,18.984],[-102.17,19.024],[-102.097,19.089],[-102.077,19.091],[-102.077,19.088]]]}},{"type":"Feature","properties":{"density":1},"geometry":{"type":"Polygon","coordinates":[[[-98.834,18.056],[-98.64,18.087],[-98.577,18.135],[-98.572,18.168],[-98.605,18.192],[-98.675,18.205],[-98.771,18.19],[-98.819,18.152],[-98.865,18.085],[-98.834,18.056]]]}},{"type":"Feature","properties":{"density":1},"geometry":{"type":"Polygon","coordinates":[[[-98.651,19.145],[-98.461,19.118],[-98.381,19.131],[-98.266,19.185],[-98.238,19.234],[-98.231,19.309],[-98.173,19.468],[-98.082,19.536],[-98.061,19.627],[-98.081,19.656],[-98.131,19.67],[-98.25,19.66],[-98.599,19.311],[-98.613,19.27],[-98.559,19.227],[-98.561,19.194],[-98.669,19.159],[-98.651,19.145]]]}},{"type":"Feature","properties":{"density":1},"geometry":{"type":"Polygon","coordinates":[[[-81.719,22.364],[-81.5,22.364],[-81.219,22.239],[-80.802,22.114],[-80.407,22.041],[-79.751,21.864],[-79.282,21.614],[-78.887,21.333],[-78.46,21.208],[-77.783,21.083],[-77.137,20.781],[-76.846,20.417],[-76.929,20.021],[-77.387,19.865],[-78.137,19.761],[-78.574,19.5],[-78.959,19.313],[-79.428,19.355],[-80.126,19.553],[-80.802,19.907],[-81.386,20.396],[-81.927,20.812],[-82.26,21.375],[-82.312,21.75],[-81.948,22.343],[-81.781,22.374],[-81.719,22.364]]]}},{"type":"Feature","properties":{"density":1},"geometry":{"type":"Polygon","coordinates":[[[-96.382,36.579],[-96.415,36.516],[-96.56,36.35],[-96.59,36.327],[-96.651,36.319],[-96.656,36.362],[-96.639,36.39],[-96.544,36.453],[-96.401,36.59],[-96.384,36.59],[-96.382,36.579]]]}},{"type":"Feature","properties":{"density":1},"geometry":{"type":"Polygon","coordinates":[[[-97.153,36.357],[-97.226,36.287],[-97.292,36.266],[-97.277,36.305],[-97.163,36.363],[-97.153,36.357]]]}},{"type":"Feature","properties":{"density":1},"geometry":{"type":"Polygon","coordinates":[[[-78.149,21.487],[-78.153,21.597],[-78.093,21.617],[-78.061,21.563],[-78.074,21.515],[-78.089,21.487],[-78.145,21.482],[-78.149,21.487]]]}},{"type":"Feature","properties":{"density":1},"geometry":{"type":"Polygon","coordinates":[[[-80.775,22.767],[-80.953,22.924],[-80.988,23.013],[-80.967,23.072],[-80.935,23.085],[-80.899,23.078],[-80.864,23.036],[-80.766,22.858],[-80.757,22.762],[-80.775,22.767]]]}},{"type":"Feature","properties":{"density":1},"geometry":{"type":"Polygon","coordinates":[[[-80.972,26.691],[-80.741,26.92],[-80.621,26.97],[-80.573,26.957],[-80.599,26.889],[-80.791,26.787],[-80.907,26.697],[-80.957,26.682],[-80.972,26.691]]]}},{"type":"Feature","properties":{"density":1},"geometry":{"type":"Polygon","coordinates":[[[-80.659,28.424],[-80.412,28.47],[-80.269,28.557],[-80.089,28.614],[-80.053,28.677],[-80.075,28.742],[-80.154,28.783],[-80.244,28.775],[-80.381,28.709],[-80.681,28.467],[-80.684,28.434],[-80.659,28.424]]]}},{"type":"Feature","properties":{"density":1},"geometry":{"type":"Polygon","coordinates":[[[-97.137,36.339],[-97.192,36.006],[-97.244,35.883],[-97.263,35.859],[-97.38,35.84],[-97.41,35.878],[-97.427,35.957],[-97.159,36.358],[-97.137,36.339]]]}},{"type":"Feature","properties":{"density":1},"geometry":{"type":"Polygon","coordinates":[[[-96.108,36.74],[-96.085,36.634],[-96.087,36.454],[-96.156,36.436],[-96.174,36.527],[-96.127,36.752],[-96.108,36.74]]]}},{"type":"Feature","properties":{"density":1},"geometry":{"type":"Polygon","coordinates":[[[-96.385,36.581],[-96.368,36.485],[-96.38,36.384],[-96.405,36.317],[-96.436,36.317],[-96.446,36.449],[-96.403,36.576],[-96.385,36.581]]]}},{"type":"Feature","properties":{"density":1},"geometry":{"type":"Polygon","coordinates":[[[-96.296,36.286],[-96.284,36.185],[-96.312,36.075],[-96.343,36.057],[-96.364,36.069],[-96.377,36.106],[-96.307,36.279],[-96.296,36.286]]]}},{"type":"Feature","properties":{"density":1},"geometry":{"type":"Polygon","coordinates":[[[-96.226,37.687],[-96.188,37.456],[-96.204,37.416],[-96.228,37.409],[-96.272,37.442],[-96.244,37.687],[-96.226,37.687]]]}},{"type":"Feature","properties":{"density":1},"geometry":{"type":"Polygon","coordinates":[[[-99.157,37.389],[-99.135,37.162],[-99.168,36.989],[-99.209,36.895],[-99.231,36.88],[-99.312,36.887],[-99.327,36.95],[-99.323,37.053],[-99.227,37.352],[-99.179,37.389],[-99.157,37.389]]]}},{"type":"Feature","properties":{"density":1},"geometry":{"type":"Polygon","coordinates":[[[-98.048,37.699],[-98.078,37.409],[-98.04,37.3],[-97.98,37.289],[-97.958,37.3],[-97.936,37.382],[-97.958,37.497],[-98.029,37.704],[-98.048,37.699]]]}},{"type":"Feature","properties":{"density":1},"geometry":{"type":"Polygon","coordinates":[[[-97.914,37.568],[-97.928,37.437],[-97.914,37.368],[-97.862,37.344],[-97.827,37.396],[-97.887,37.578],[-97.914,37.568]]]}},{"type":"Feature","properties":{"density":1},"geometry":{"type":"Polygon","coordinates":[[[-90.529,16.282],[-90.639,16.352],[-90.735,16.462],[-90.732,16.54],[-90.681,16.547],[-90.634,16.509],[-90.503,16.338],[-90.515,16.291],[-90.529,16.282]]]}},{"type":"Feature","properties":{"density":1},"geometry":{"type":"Polygon","coordinates":[[[-90.54,16.518],[-90.694,16.61],[-90.755,16.699],[-90.755,16.729],[-90.699,16.736],[-90.645,16.696],[-90.561,16.603],[-90.526,16.519],[-90.54,16.518]]]}},{"type":"Feature","properties":{"density":1},"geometry":{"type":"Polygon","coordinates":[[[-96.05,37.217],[-96.089,37.022],[-96.084,36.955],[-96.064,36.927],[-96.039,36.929],[-96.023,36.962],[-96.025,37.218],[-96.05,37.217]]]}},{"type":"Feature","properties":{"density":1},"geometry":{"type":"Polygon","coordinates":[[[-96.924,38.857],[-96.575,38.988],[-95.542,39.105],[-94.785,39.119],[-92.849,39.032],[-91.816,38.755],[-91.191,38.479],[-90.521,38.13],[-89.532,37.809],[-88.397,37.606],[-87.785,37.446],[-86.752,37.14],[-86.432,36.995],[-86.185,36.703],[-86.228,36.354],[-86.505,36.194],[-87.654,35.918],[-88.353,35.685],[-89.139,35.51],[-90.033,35.219],[-91.163,35.023],[-94.465,34.55],[-95.338,34.375],[-96.589,34.055],[-97.404,33.866],[-98.03,33.735],[-98.714,33.633],[-99.369,33.924],[-99.776,34.448],[-99.951,35.176],[-99.965,35.83],[-99.776,36.893],[-99.441,37.402],[-98.321,38.406],[-98.03,38.537],[-97.317,38.755],[-96.924,38.857]]]}},{"type":"Feature","properties":{"density":1},"geometry":{"type":"Polygon","coordinates":[[[-96.164,28.015],[-94.288,28.299],[-91.076,28.64],[-89.03,28.726],[-87.467,28.555],[-85.818,28.527],[-83.012,29.052],[-80.51,30.047],[-78.265,30.701],[-76.105,31.354],[-71.796,32.158],[-69.142,32.179],[-67.778,31.923],[-66.726,31.127],[-66.47,30.246],[-66.783,29.223],[-67.323,28.427],[-69.426,27.29],[-72.467,26.608],[-75.537,26.21],[-78.208,25.784],[-79.601,25.528],[-80.397,25.158],[-80.653,24.704],[-80.613,24.121],[-80.213,23.321],[-79.776,22.994],[-78.903,22.812],[-77.975,22.757],[-77.43,22.521],[-77.211,22.212],[-76.957,22.23],[-76.829,22.302],[-76.302,22.284],[-75.174,21.702],[-74.683,21.247],[-74.574,20.847],[-74.719,20.265],[-74.992,19.81],[-75.21,19.683],[-75.774,19.701],[-76.229,19.901],[-76.538,19.847],[-77.12,19.792],[-77.903,20.029],[-78.812,20.847],[-79.612,20.975],[-80.449,20.847],[-81.559,21.393],[-83.632,22.121],[-84.196,22.412],[-84.687,22.975],[-85.233,23.503],[-85.997,23.539],[-86.506,23.412],[-87.325,22.866],[-88.162,22.157],[-89.094,21.752],[-89.685,21.161],[-89.981,20.502],[-90.458,19.297],[-90.481,18.774],[-90.481,17.455],[-90.822,16.204],[-90.458,15.499],[-89.89,14.886],[-88.935,14.408],[-87.843,14.044],[-87.002,13.612],[-86.229,12.589],[-85.524,11.702],[-85.433,10.634],[-85.706,10.088],[-86.07,9.724],[-86.979,9.542],[-99.803,9.474],[-100.713,9.633],[-101.463,10.202],[-101.827,10.702],[-102.145,11.452],[-102.122,12.862],[-102.031,14.431],[-101.167,15.75],[-100.099,16.682],[-99.098,17.091],[-98.302,17.0],[-97.552,16.773],[-97.097,16.773],[-97.086,17.052],[-97.341,18.445],[-97.455,18.985],[-97.825,19.582],[-98.251,19.923],[-98.962,20.747],[-99.53,21.486],[-99.615,22.197],[-99.7,23.333],[-99.644,24.698],[-98.905,26.346],[-98.592,26.574],[-97.881,27.313],[-97.199,27.739],[-96.602,27.966],[-96.164,28.015]]]}},{"type":"Feature","properties":{"density":1},"geometry":{"type":"Polygon","coordinates":[[[-120.472,43.872],[-120.81,44.009],[-120.886,44.091],[-120.895,44.144],[-120.86,44.183],[-120.811,44.195],[-120.731,44.183],[-120.606,44.109],[-120.444,43.974],[-120.429,43.921],[-120.466,43.866],[-120.472,43.872]]]}},{"type":"Feature","properties":{"density":1},"geometry":{"type":"Polygon","coordinates":[[[-117.769,47.227],[-117.841,47.369],[-117.922,47.476],[-117.986,47.513],[-118.019,47.494],[-118.025,47.456],[-118.005,47.407],[-117.927,47.283],[-117.824,47.203],[-117.771,47.204],[-117.769,47.227]]]}},{"type":"Feature","properties":{"density":2},"geometry":{"type":"Polygon","coordinates":[[[-105.44,23.162],[-105.506,23.184],[-105.521,23.211],[-105.48,23.221],[-105.455,23.21],[-105.423,23.178],[-105.434,23.164],[-105.44,23.162]]]}},{"type":"Feature","properties":{"density":2},"geometry":{"type":"Polygon","coordinates":[[[-98.841,18.059],[-98.743,18.105],[-98.729,18.154],[-98.783,18.17],[-98.815,18.16],[-98.861,18.097],[-98.847,18.083],[-98.841,18.059]]]}},{"type":"Feature","properties":{"density":2},"geometry":{"type":"Polygon","coordinates":[[[-80.655,28.431],[-80.512,28.475],[-80.437,28.517],[-80.409,28.574],[-80.453,28.595],[-80.659,28.45],[-80.655,28.431]]]}},{"type":"Feature","properties":{"density":2},"geometry":{"type":"Polygon","coordinates":[[[-88.12,37.012],[-88.034,36.874],[-87.6,36.64],[-87.242,36.631],[-87.013,36.736],[-86.985,36.769],[-87.033,36.841],[-87.209,36.998],[-87.352,37.046],[-87.519,37.017],[-87.691,37.041],[-87.977,37.031],[-88.101,37.06],[-88.12,37.012]]]}},{"type":"Feature","properties":{"density":2},"geometry":{"type":"Polygon","coordinates":[[[-89.031,36.974],[-88.731,37.007],[-88.64,36.993],[-88.292,36.864],[-88.168,36.783],[-88.097,36.673],[-88.125,36.645],[-88.24,36.669],[-88.368,36.754],[-88.454,36.764],[-88.521,36.75],[-88.607,36.688],[-88.659,36.683],[-89.06,36.912],[-89.041,36.945],[-89.031,36.974]]]}},{"type":"Feature","properties":{"density":2},"geometry":{"type":"Polygon","coordinates":[[[-93.027,36.635],[-91.706,35.257],[-91.659,35.138],[-91.549,35.052],[-91.406,35.019],[-91.272,35.033],[-91.115,35.147],[-90.986,35.271],[-91.062,35.443],[-91.158,35.51],[-92.174,36.149],[-92.474,36.397],[-92.717,36.535],[-92.87,36.673],[-92.97,36.707],[-93.027,36.692],[-93.037,36.673],[-93.027,36.635]]]}},{"type":"Feature","properties":{"density":2},"geometry":{"type":"Polygon","coordinates":[[[-94.416,36.147],[-94.23,35.995],[-94.106,35.733],[-93.963,35.489],[-93.815,35.375],[-93.739,35.222],[-93.696,35.089],[-93.772,34.865],[-93.82,34.798],[-93.896,34.788],[-94.011,34.836],[-94.058,34.955],[-94.096,35.117],[-94.435,35.976],[-94.468,36.157],[-94.416,36.147]]]}},{"type":"Feature","properties":{"density":2},"geometry":{"type":"Polygon","coordinates":[[[-96.066,37.211],[-96.142,37.063],[-96.132,36.891],[-96.218,36.672],[-96.032,35.585],[-95.989,35.437],[-95.846,35.294],[-95.598,35.227],[-95.493,35.26],[-95.389,35.346],[-95.25,35.499],[-95.136,35.651],[-95.126,35.766],[-95.327,36.071],[-95.603,36.371],[-95.885,36.801],[-95.975,36.963],[-96.013,37.196],[-96.066,37.211]]]}},{"type":"Feature","properties":{"density":2},"geometry":{"type":"Polygon","coordinates":[[[-96.352,36.596],[-96.214,36.362],[-96.204,36.248],[-96.07,35.623],[-96.128,35.47],[-96.175,35.408],[-96.261,35.389],[-96.38,35.465],[-96.504,35.623],[-96.519,35.756],[-96.481,36.19],[-96.523,36.4],[-96.681,36.534],[-96.714,36.658],[-96.714,36.743],[-96.652,36.777],[-96.571,36.701],[-96.566,36.624],[-96.471,36.624],[-96.419,36.6],[-96.352,36.596]]]}},{"type":"Feature","properties":{"density":2},"geometry":{"type":"Polygon","coordinates":[[[-97.325,36.119],[-97.401,36.009],[-97.449,35.866],[-97.434,35.814],[-97.367,35.823],[-97.234,35.966],[-97.234,36.038],[-97.253,36.09],[-97.301,36.143],[-97.325,36.119]]]}},{"type":"Feature","properties":{"density":2},"geometry":{"type":"Polygon","coordinates":[[[-97.768,35.361],[-97.82,35.208],[-97.902,35.103],[-98.011,35.027],[-98.087,34.946],[-98.092,34.745],[-97.992,34.693],[-97.916,34.683],[-97.568,34.798],[-97.458,34.889],[-97.348,35.036],[-97.315,35.218],[-97.415,35.332],[-97.582,35.48],[-97.663,35.48],[-97.739,35.442],[-97.763,35.394],[-97.768,35.361]]]}},{"type":"Feature","properties":{"density":2},"geometry":{"type":"Polygon","coordinates":[[[-99.175,36.505],[-99.237,36.405],[-99.199,36.281],[-99.113,36.2],[-98.974,36.138],[-98.803,36.143],[-98.684,36.233],[-98.622,36.324],[-98.722,36.438],[-98.865,36.529],[-99.022,36.553],[-99.108,36.515],[-99.175,36.505]]]}},{"type":"Feature","properties":{"density":2},"geometry":{"type":"Polygon","coordinates":[[[-91.742,15.278],[-92.356,15.46],[-93.106,15.164],[-93.243,14.8],[-93.311,14.232],[-93.243,13.618],[-92.743,13.163],[-92.22,12.868],[-91.606,12.822],[-90.969,13.163],[-90.56,13.481],[-90.219,14.05],[-90.241,14.3],[-91.06,15.028],[-91.356,15.232],[-91.742,15.278]]]}},{"type":"Feature","properties":{"density":3},"geometry":{"type":"Polygon","coordinates":[[[-88.104,37.008],[-88.102,37.024],[-88.055,37.027],[-87.873,37.003],[-87.837,36.911],[-87.848,36.876],[-87.88,36.866],[-87.964,36.909],[-88.085,37.001],[-88.104,37.008]]]}}]}