{"type":"FeatureCollection","features":[{"type":"Feature","properties":{"density":1},"geometry":{"type":"Polygon","coordinates":[[[-136.896,70.347],[-128.135,70.197],[-122.442,69.423],[-118.59,68.784],[-114.665,68.223],[-110.58,67.583],[-105.894,65.941],[-102.103,64.886],[-96.158,63.556],[-93.655,63.556],[-89.587,63.243],[-77.228,63.243],[-73.316,63.321],[-69.562,62.852],[-66.276,61.991],[-62.912,60.349],[-56.482,59.256],[-53.439,58.135],[-48.833,57.734],[-45.188,58.375],[-42.825,58.936],[-40.021,59.737],[-36.697,60.898],[-32.452,61.179],[-30.169,59.897],[-29.848,58.255],[-29.768,56.172],[-30.649,54.13],[-31.651,52.247],[-32.412,51.326],[-32.572,50.084],[-32.532,48.042],[-33.493,46.24],[-35.696,43.796],[-37.658,42.835],[-42.865,41.433],[-47.311,41.193],[-51.356,40.032],[-55.721,39.992],[-58.805,40.592],[-61.849,41.714],[-64.012,42.395],[-65.574,42.675],[-67.496,42.675],[-69.579,42.355],[-71.622,41.073],[-72.102,39.07],[-71.702,37.629],[-69.94,36.227],[-69.699,35.105],[-70.661,32.983],[-73.304,31.1],[-75.667,30.459],[-76.628,30.499],[-77.87,30.58],[-79.952,32.142],[-81.154,34.264],[-82.235,35.466],[-84.438,36.988],[-86.677,39.229],[-87.718,38.147],[-88.399,35.504],[-91.163,33.181],[-95.488,31.419],[-98.452,27.414],[-104.66,25.371],[-108.665,22.808],[-112.47,22.167],[-115.954,24.29],[-116.835,28.655],[-115.714,32.981],[-112.91,34.863],[-110.427,34.543],[-108.705,34.823],[-107.072,36.263],[-105.862,38.067],[-106.559,38.641],[-109.081,37.862],[-112.157,36.55],[-113.572,36.119],[-114.997,35.185],[-119.158,34.623],[-121.322,36.045],[-122.723,37.146],[-124.085,38.428],[-125.05,40.753],[-125.01,42.274],[-125.17,44.397],[-125.37,46.039],[-125.931,47.281],[-125.581,49.32],[-125.183,52.125],[-122.903,55.635],[-124.851,56.229],[-127.784,58.232],[-129.586,59.433],[-131.038,59.984],[-132.09,60.535],[-132.74,60.935],[-133.041,61.886],[-133.141,62.787],[-133.541,63.388],[-133.842,64.139],[-135.968,66.656],[-138.158,68.064],[-146.294,68.768],[-146.294,69.629],[-145.355,70.176],[-136.896,70.347]]]}},{"type":"Feature","properties":{"density":1},"geometry":{"type":"Polygon","coordinates":[[[-126.261,73.91],[-117.63,73.425],[-112.491,72.747],[-110.163,71.971],[-108.127,71.583],[-106.187,70.807],[-104.345,70.419],[-103.569,70.128],[-101.727,69.643],[-100.757,69.256],[-96.684,68.189],[-95.132,67.607],[-92.417,66.54],[-91.738,66.152],[-89.993,65.086],[-89.12,64.601],[-86.696,64.019],[-84.077,63.825],[-81.847,63.728],[-77.58,63.728],[-73.313,64.116],[-71.277,64.116],[-65.458,63.922],[-63.325,63.631],[-60.707,63.34],[-59.058,63.825],[-56.44,62.467],[-54.5,60.528],[-51.203,58.491],[-50.33,57.522],[-49.555,56.94],[-48.876,56.552],[-48.488,56.358],[-46.451,55.194],[-44.027,54.516],[-41.506,54.225],[-35.396,54.225],[-32.972,54.806],[-30.451,55.291],[-25.505,56.067],[-21.141,56.067],[-20.365,55.582],[-19.396,54.031],[-19.105,49.376],[-21.626,47.242],[-26.087,45.109],[-29.384,43.848],[-31.323,43.073],[-36.075,42.685],[-40.633,42.491],[-47.712,42.394],[-56.925,42.394],[-60.61,42.2],[-63.034,41.618],[-63.907,41.521],[-64.586,41.133],[-65.846,40.454],[-66.428,39.388],[-66.622,37.933],[-67.592,35.315],[-68.174,33.86],[-69.24,32.018],[-70.307,30.951],[-71.665,29.981],[-74.283,28.72],[-75.35,28.139],[-77.677,27.848],[-79.423,27.945],[-81.692,28.894],[-82.157,29.282],[-84.252,30.834],[-84.329,31.609],[-84.795,32.773],[-85.338,34.325],[-85.803,35.488],[-86.114,36.109],[-86.812,36.419],[-91.482,33.425],[-92.475,32.829],[-95.107,31.042],[-95.554,30.794],[-96.249,30.248],[-96.696,29.95],[-97.49,29.304],[-97.887,28.957],[-99.377,28.261],[-101.015,27.666],[-101.81,27.864],[-103.249,28.659],[-103.845,29.254],[-104.441,30.446],[-104.689,31.439],[-104.888,33.177],[-104.938,33.475],[-105.186,34.567],[-105.384,35.759],[-105.583,36.752],[-105.881,37.546],[-106.377,38.241],[-107.023,38.738],[-108.562,39.383],[-108.959,39.483],[-110.201,39.334],[-111.889,38.539],[-112.534,37.993],[-113.18,37.546],[-113.825,36.95],[-114.719,36.255],[-115.017,36.057],[-115.563,35.759],[-116.109,35.411],[-116.556,35.213],[-117.946,34.766],[-118.492,34.766],[-118.691,34.865],[-118.989,35.957],[-119.088,36.255],[-119.088,36.901],[-118.889,37.546],[-118.641,37.745],[-118.492,38.142],[-118.641,38.936],[-119.336,39.234],[-119.684,39.085],[-120.329,38.192],[-120.727,37.497],[-121.223,36.801],[-121.471,36.355],[-122.067,35.759],[-122.464,35.61],[-123.06,35.461],[-123.706,35.461],[-124.699,35.908],[-125.989,37.745],[-126.089,39.582],[-126.238,40.674],[-126.238,42.946],[-125.989,44.125],[-125.617,45.18],[-125.245,46.173],[-124.996,47.104],[-124.81,48.159],[-124.81,48.407],[-124.624,50.145],[-124.128,51.759],[-123.755,53.372],[-123.693,55.172],[-123.693,55.979],[-124.003,57.158],[-124.624,58.089],[-125.617,59.02],[-126.858,60.323],[-127.169,60.696],[-128.596,62.061],[-130.148,63.489],[-132.692,64.606],[-135.671,65.537],[-138.278,65.847],[-141.816,66.095],[-144.857,66.095],[-147.65,66.406],[-149.822,66.964],[-150.38,67.771],[-150.567,70.254],[-148.767,71.867],[-145.539,72.86],[-142.374,73.233],[-139.333,73.419],[-136.664,73.543],[-128.969,73.853],[-126.261,73.91]]]}},{"type":"Feature","properties":{"density":2},"geometry":{"type":"Polygon","coordinates":[[[-124.798,67.198],[-122.795,67.158],[-120.552,67.398],[-118.43,67.558],[-116.147,67.278],[-113.543,66.397],[-110.58,65.275],[-108.537,64.955],[-107.736,64.675],[-104.972,62.912],[-102.289,61.551],[-99.766,60.629],[-95.761,61.23],[-92.476,62.271],[-88.792,62.752],[-85.147,62.832],[-83.185,62.752],[-74.734,61.03],[-72.211,60.709],[-69.808,59.989],[-68.246,59.388],[-65.682,57.866],[-64.721,56.784],[-64.2,55.343],[-64.521,54.502],[-66.563,53.06],[-68.726,52.139],[-72.611,51.177],[-75.134,50.176],[-75.88,48.544],[-75.816,47.166],[-75.079,45.019],[-75.303,43.962],[-77.77,43.193],[-80.942,44.218],[-81.743,45.5],[-81.302,46.331],[-81.583,47.172],[-82.183,47.613],[-83.545,47.453],[-85.227,47.212],[-88.351,47.132],[-92.557,45.971],[-95.881,44.208],[-96.962,42.887],[-98.284,41.966],[-99.886,41.565],[-101.087,41.325],[-101.688,41.245],[-103.01,40.604],[-103.931,40.323],[-105.184,40.114],[-106.728,40.114],[-107.212,40.208],[-107.722,39.811],[-108.26,39.146],[-108.844,38.958],[-109.711,38.595],[-111.078,37.82],[-112.39,37.348],[-113.047,36.815],[-114.822,35.972],[-115.847,35.705],[-117.057,35.315],[-118.492,35.09],[-118.615,35.664],[-118.205,36.136],[-117.98,36.587],[-118.123,37.325],[-117.16,38.022],[-115.986,38.801],[-115.426,39.202],[-115.226,39.803],[-116.267,39.723],[-118.029,39.362],[-118.67,39.002],[-119.992,38.561],[-120.512,38.361],[-121.073,37.96],[-121.514,37.6],[-122.234,37.44],[-122.435,39.082],[-122.755,40.083],[-122.515,40.964],[-121.994,41.485],[-122.194,42.166],[-122.835,42.927],[-123.276,44.248],[-122.875,45.41],[-121.994,46.051],[-121.714,47.292],[-121.514,48.774],[-121.594,49.735],[-121.473,51.658],[-120.592,52.339],[-119.751,52.779],[-118.67,53.22],[-117.148,53.781],[-116.387,54.381],[-115.706,54.742],[-115.986,55.423],[-117.829,56.023],[-118.71,56.023],[-120.312,56.104],[-120.793,56.104],[-121.113,56.424],[-121.113,57.025],[-120.833,57.626],[-120.552,57.826],[-120.312,57.946],[-119.671,57.986],[-119.311,58.106],[-117.629,58.346],[-117.148,58.707],[-116.667,58.827],[-116.547,59.508],[-116.547,60.149],[-116.988,60.87],[-118.149,62.231],[-119.11,63.233],[-121.714,65.075],[-122.715,65.476],[-124.277,65.756],[-125.118,66.116],[-125.439,66.397],[-125.439,66.957],[-125.198,67.238],[-124.798,67.198]]]}},{"type":"Feature","properties":{"density":2},"geometry":{"type":"Polygon","coordinates":[[[-121.285,37.934],[-120.42,39.053],[-120.09,39.332],[-119.2,39.663],[-118.692,39.815],[-118.209,39.892],[-117.751,39.942],[-117.472,40.044],[-117.014,40.146],[-116.531,40.222],[-116.124,40.375],[-115.972,40.451],[-115.54,40.553],[-115.311,40.476],[-115.133,40.273],[-115.133,39.79],[-115.336,39.307],[-115.794,38.748],[-116.15,38.468],[-117.37,37.909],[-118.183,37.248],[-118.285,37.044],[-118.31,36.866],[-118.412,36.536],[-118.539,36.231],[-118.692,35.951],[-118.692,35.697],[-118.641,35.57],[-118.082,35.545],[-117.141,35.799],[-116.455,36.282],[-116.099,36.612],[-115.438,37.07],[-115.006,37.426],[-113.48,38.443],[-112.004,40.094],[-110.932,40.849],[-110.098,41.365],[-109.383,41.524],[-107.198,41.524],[-106.285,41.325],[-103.901,41.047],[-102.829,40.968],[-102.154,40.968],[-101.399,41.166],[-99.621,43.192],[-98.976,43.639],[-98.48,44.234],[-97.635,45.029],[-97.04,45.773],[-95.513,47.182],[-93.527,48.175],[-92.224,48.671],[-91.106,48.92],[-90.3,49.168],[-88.934,49.416],[-87.941,49.727],[-86.017,50.409],[-84.341,51.402],[-83.348,52.519],[-82.107,53.326],[-81.362,54.381],[-80.928,55.871],[-80.866,57.112],[-81.611,58.105],[-85.521,57.795],[-87.879,56.988],[-89.12,56.616],[-91.106,55.871],[-93.775,55.561],[-94.023,55.498],[-95.203,55.498],[-97.251,55.685],[-97.995,56.057],[-99.423,56.864],[-100.602,57.671],[-101.223,58.664],[-101.223,59.781],[-99.857,60.526],[-99.051,61.022],[-98.244,61.829],[-97.685,62.884],[-98.492,63.939],[-104.574,66.173],[-109.105,67.415],[-112.146,67.973],[-114.318,68.532],[-116.552,69.028],[-117.98,69.463],[-120.276,69.773],[-123.007,70.27],[-123.441,70.394],[-126.483,71.014],[-128.841,71.263],[-131.572,71.387],[-132.751,70.952],[-132.689,70.021],[-131.82,69.339],[-130.889,68.966],[-128.965,68.47],[-126.855,68.221],[-124.372,67.415],[-123.255,66.918],[-121.828,66.484],[-119.531,64.684],[-117.856,63.815],[-117.049,63.318],[-116.18,62.325],[-116.304,61.457],[-116.863,61.146],[-118.849,60.65],[-119.966,60.588],[-121.704,60.215],[-122.573,59.843],[-123.069,59.471],[-123.131,59.408],[-123.131,59.284],[-122.51,57.981],[-121.517,57.236],[-120.276,56.802],[-117.98,56.554],[-116.304,56.554],[-114.815,56.491],[-113.822,56.491],[-113.387,56.429],[-112.829,56.181],[-111.587,55.685],[-111.277,55.374],[-111.277,54.568],[-111.96,53.823],[-113.077,52.892],[-113.946,52.271],[-115.87,52.085],[-116.428,51.961],[-117.67,51.961],[-118.725,51.713],[-119.345,51.464],[-120.4,50.658],[-120.711,49.789],[-120.4,49.292],[-120.028,48.982],[-119.531,48.734],[-119.283,48.361],[-118.663,47.989],[-118.228,47.865],[-117.483,47.616],[-116.863,47.306],[-116.428,46.996],[-116.428,46.81],[-116.614,46.499],[-117.545,46.003],[-118.414,46.003],[-119.221,45.879],[-120.649,45.444],[-121.828,44.886],[-122.51,43.52],[-122.51,43.458],[-122.138,43.272],[-122.026,43.035],[-121.772,43.067],[-121.168,42.94],[-120.501,42.59],[-120.119,42.241],[-120.246,42.082],[-120.882,41.637],[-121.327,41.541],[-121.867,41.478],[-122.217,41.224],[-122.534,40.938],[-122.534,40.715],[-122.63,39.953],[-122.725,39.603],[-122.725,39.444],[-122.788,38.936],[-122.788,38.427],[-122.757,38.141],[-122.661,37.728],[-122.566,37.633],[-122.407,37.601],[-122.248,37.601],[-121.931,37.728],[-121.285,37.934]]]}},{"type":"Feature","properties":{"density":3},"geometry":{"type":"Polygon","coordinates":[[[-121.696,37.954],[-121.053,38.203],[-120.803,38.61],[-120.2,38.833],[-119.425,39.489],[-119.32,39.62],[-118.743,39.699],[-118.179,39.896],[-117.483,40.303],[-116.866,40.618],[-115.226,41.208],[-114.058,41.773],[-113.402,42.35],[-112.457,42.81],[-111.564,43.151],[-110.987,43.44],[-110.344,43.702],[-110.068,43.938],[-109.648,44.686],[-109.648,45.106],[-109.955,45.793],[-110.007,46.329],[-109.472,46.896],[-108.453,47.63],[-107.918,48.449],[-107.981,48.953],[-108.548,49.415],[-110.228,50.213],[-111.078,50.276],[-111.477,49.919],[-111.645,49.436],[-111.341,48.974],[-111.525,47.81],[-111.997,47.482],[-113.126,46.563],[-114.018,45.999],[-115.777,45.224],[-116.564,44.988],[-117.011,45.356],[-117.011,45.867],[-116.761,46.196],[-116.617,46.734],[-116.814,47.324],[-117.68,47.731],[-118.113,48.164],[-118.297,49.201],[-118.27,49.66],[-118.113,50.041],[-117.759,50.566],[-117.168,51.012],[-117.168,52.009],[-118.205,52.548],[-119.189,52.561],[-119.963,52.443],[-120.567,51.786],[-120.882,51.353],[-121.21,50.75],[-121.342,50.12],[-121.315,49.28],[-121.132,48.755],[-120.935,48.309],[-120.685,47.862],[-120.541,47.534],[-120.436,47.206],[-120.475,46.852],[-120.712,46.589],[-120.621,46.235],[-120.864,45.554],[-121.561,44.572],[-121.679,44.303],[-121.839,43.774],[-121.906,43.438],[-121.813,43.244],[-121.36,42.732],[-121.108,42.388],[-121.032,41.901],[-121.175,41.674],[-121.477,41.321],[-121.679,41.136],[-121.973,40.977],[-122.074,40.725],[-122.141,40.464],[-122.141,40.237],[-122.107,40.078],[-122.107,39.902],[-121.839,39.381],[-121.763,39.095],[-121.771,38.81],[-121.839,38.591],[-121.855,38.255],[-121.872,38.188],[-121.696,37.954]]]}},{"type":"Feature","properties":{"density":3},"geometry":{"type":"Polygon","coordinates":[[[-121.902,40.353],[-121.755,40.76],[-121.658,40.955],[-121.56,41.086],[-121.3,41.265],[-121.088,41.346],[-120.926,41.568],[-120.844,41.617],[-120.779,41.714],[-120.714,41.779],[-120.519,41.926],[-120.275,42.056],[-119.917,42.284],[-119.738,42.479],[-119.64,42.69],[-119.494,42.902],[-119.347,43.162],[-119.055,43.585],[-118.697,43.959],[-117.948,44.61],[-117.379,44.903],[-117.037,44.903],[-116.744,44.838],[-116.305,44.61],[-115.394,43.976],[-115.378,43.976],[-115.378,44.04],[-115.251,43.913],[-114.666,43.887],[-113.852,43.887],[-113.293,44.065],[-112.632,44.446],[-111.717,44.904],[-111.259,45.107],[-110.853,45.234],[-110.497,45.234],[-110.548,44.701],[-110.98,44.218],[-111.412,43.862],[-111.997,43.455],[-112.429,43.023],[-113.039,42.616],[-113.547,42.387],[-114.996,42.006],[-115.81,41.548],[-117.335,40.811],[-117.869,40.633],[-118.377,40.404],[-118.835,40.252],[-119.572,40.074],[-120.182,39.845],[-120.462,39.667],[-120.665,39.438],[-120.894,39.108],[-121.53,38.955],[-121.682,39.032],[-121.555,39.388],[-121.275,39.743],[-121.174,40.15],[-121.453,40.176],[-121.631,40.252],[-121.902,40.353]]]}},{"type":"Feature","properties":{"density":3},"geometry":{"type":"Polygon","coordinates":[[[-121.021,59.659],[-118.359,60.334],[-117.366,60.533],[-116.334,60.533],[-115.817,60.89],[-115.301,61.208],[-114.705,62.042],[-114.03,62.598],[-113.752,62.757],[-113.275,62.995],[-112.957,63.114],[-111.011,63.472],[-110.336,63.829],[-109.581,63.988],[-108.827,64.068],[-108.509,63.988],[-107.873,63.631],[-107.516,62.717],[-107.476,62.32],[-107.595,61.724],[-108.509,61.287],[-108.946,61.128],[-109.263,61.049],[-109.74,60.89],[-110.376,60.811],[-113.831,60.811],[-114.546,60.413],[-115.341,60.056],[-115.857,59.698],[-116.612,59.42],[-117.208,59.262],[-118.042,59.142],[-118.439,59.142],[-119.313,59.103],[-119.988,59.142],[-120.504,59.341],[-121.021,59.659]]]}},{"type":"Feature","properties":{"density":3},"geometry":{"type":"Polygon","coordinates":[[[-118.559,35.602],[-118.039,35.81],[-117.922,35.888],[-117.531,36.083],[-117.388,36.135],[-116.997,36.422],[-116.659,36.604],[-116.555,36.643],[-116.477,36.513],[-116.477,36.37],[-116.555,36.291],[-116.815,36.174],[-116.893,36.122],[-117.18,36.031],[-117.271,36.018],[-117.687,35.706],[-117.804,35.589],[-117.856,35.471],[-117.909,35.445],[-118.0,35.432],[-118.442,35.458],[-118.559,35.602]]]}}]}