{"type":"FeatureCollection","features":[{"type":"Feature","properties":{"density":1},"geometry":{"type":"Polygon","coordinates":[[[-95.14,18.732],[-95.289,19.105],[-95.364,19.343],[-95.386,19.731],[-95.341,20.103],[-95.267,20.252],[-95.11,20.439],[-95.014,20.595],[-94.976,20.826],[-94.969,21.064],[-94.835,21.385],[-94.738,21.407],[-94.656,21.377],[-94.529,21.221],[-94.5,20.997],[-94.336,20.834],[-94.134,20.67],[-93.531,20.245],[-93.412,20.036],[-93.36,19.895],[-93.345,19.686],[-93.434,19.328],[-93.516,18.688],[-93.298,16.612],[-93.036,15.957],[-92.73,15.491],[-92.57,15.156],[-92.541,14.822],[-92.541,14.24],[-92.978,13.687],[-93.618,13.192],[-94.258,12.522],[-94.898,11.999],[-95.975,11.577],[-97.456,11.317],[-98.562,11.186],[-100.963,11.011],[-102.477,10.982],[-103.743,11.069],[-106.503,12.105],[-108.572,12.856],[-110.004,13.31],[-110.732,13.856],[-111.278,14.311],[-112.096,15.266],[-112.369,15.925],[-113.188,16.994],[-113.235,18.357],[-113.019,19.207],[-112.846,19.768],[-112.642,20.086],[-112.324,20.473],[-111.619,21.041],[-110.004,22.292],[-109.368,22.86],[-108.822,23.542],[-108.208,24.224],[-107.844,24.429],[-107.617,24.429],[-107.003,23.906],[-106.776,23.269],[-106.662,22.724],[-106.73,21.678],[-106.676,20.711],[-106.11,19.809],[-105.037,19.325],[-104.299,19.161],[-103.494,18.543],[-102.973,18.319],[-101.907,17.939],[-101.293,17.417],[-101.304,17.01],[-101.724,16.16],[-101.654,15.438],[-101.296,14.993],[-100.318,14.47],[-99.659,14.083],[-98.499,14.061],[-97.317,14.061],[-96.612,14.334],[-95.907,14.811],[-95.225,15.311],[-94.861,16.175],[-94.793,17.812],[-94.952,18.449],[-95.066,18.608],[-95.14,18.732]]]}},{"type":"Feature","properties":{"density":1},"geometry":{"type":"Polygon","coordinates":[[[-80.428,26.438],[-80.465,26.318],[-80.533,26.272],[-80.597,26.289],[-80.675,26.391],[-80.709,26.411],[-80.797,26.396],[-80.851,26.411],[-80.878,26.46],[-81.136,26.649],[-81.167,26.762],[-81.136,26.819],[-81.044,26.86],[-80.971,26.849],[-80.88,26.802],[-80.802,26.796],[-80.699,26.87],[-80.69,26.933],[-80.808,27.162],[-80.796,27.198],[-80.741,27.202],[-80.667,27.174],[-80.521,27.063],[-80.496,27.015],[-80.548,26.865],[-80.428,26.474],[-80.428,26.438]]]}},{"type":"Feature","properties":{"density":1},"geometry":{"type":"Polygon","coordinates":[[[-115.59,33.228],[-115.502,33.193],[-115.445,33.203],[-115.459,33.239],[-115.585,33.238],[-115.59,33.228]]]}},{"type":"Feature","properties":{"density":1},"geometry":{"type":"Polygon","coordinates":[[[-81.878,29.701],[-81.758,29.759],[-81.753,29.808],[-81.773,29.821],[-81.818,29.808],[-81.883,29.711],[-81.878,29.701]]]}},{"type":"Feature","properties":{"density":1},"geometry":{"type":"Polygon","coordinates":[[[-84.17,32.281],[-83.98,32.274],[-83.956,32.305],[-83.963,32.326],[-84.018,32.351],[-84.178,32.294],[-84.17,32.281]]]}},{"type":"Feature","properties":{"density":1},"geometry":{"type":"Polygon","coordinates":[[[-86.698,30.518],[-86.488,30.457],[-86.437,30.457],[-86.386,30.488],[-86.371,30.537],[-86.386,30.584],[-86.422,30.623],[-86.495,30.63],[-86.703,30.562],[-86.698,30.518]]]}},{"type":"Feature","properties":{"density":1},"geometry":{"type":"Polygon","coordinates":[[[-88.243,31.542],[-88.098,31.661],[-88.085,31.727],[-88.105,31.744],[-88.159,31.739],[-88.255,31.558],[-88.243,31.542]]]}},{"type":"Feature","properties":{"density":1},"geometry":{"type":"Polygon","coordinates":[[[-115.584,33.219],[-115.36,33.192],[-115.262,33.221],[-115.262,33.255],[-115.296,33.302],[-115.367,33.309],[-115.482,33.292],[-115.577,33.241],[-115.584,33.219]]]}},{"type":"Feature","properties":{"density":1},"geometry":{"type":"Polygon","coordinates":[[[-80.486,27.029],[-80.667,27.107],[-80.786,27.105],[-80.828,27.08],[-80.901,26.946],[-80.911,26.804],[-80.957,26.775],[-81.143,26.765],[-81.16,26.729],[-81.167,26.612],[-81.14,26.56],[-81.052,26.458],[-80.799,26.299],[-80.676,26.289],[-80.586,26.338],[-80.466,26.375],[-80.42,26.487],[-80.442,26.555],[-80.484,26.595],[-80.51,26.66],[-80.542,26.878],[-80.479,27.002],[-80.486,27.029]]]}},{"type":"Feature","properties":{"density":1},"geometry":{"type":"Polygon","coordinates":[[[-85.302,31.799],[-85.114,31.735],[-85.02,31.674],[-84.864,31.672],[-84.755,31.735],[-84.729,31.873],[-84.774,31.932],[-84.899,31.969],[-85.03,31.983],[-85.118,31.973],[-85.247,31.918],[-85.309,31.815],[-85.302,31.799]]]}},{"type":"Feature","properties":{"density":1},"geometry":{"type":"Polygon","coordinates":[[[-85.727,32.098],[-85.487,32.168],[-85.45,32.217],[-85.444,32.262],[-85.485,32.305],[-85.573,32.321],[-85.643,32.307],[-85.718,32.233],[-85.749,32.16],[-85.749,32.1],[-85.727,32.098]]]}},{"type":"Feature","properties":{"density":1},"geometry":{"type":"Polygon","coordinates":[[[-84.187,32.306],[-83.796,32.446],[-83.635,32.46],[-83.608,32.443],[-83.63,32.382],[-83.667,32.372],[-84.101,32.272],[-84.179,32.27],[-84.182,32.302],[-84.187,32.306]]]}},{"type":"Feature","properties":{"density":1},"geometry":{"type":"Polygon","coordinates":[[[-86.755,30.518],[-86.759,30.618],[-86.685,30.713],[-86.551,30.777],[-86.356,30.814],[-85.953,30.832],[-85.751,30.792],[-85.526,30.572],[-85.44,30.414],[-85.407,30.301],[-85.407,30.093],[-85.48,29.993],[-85.651,29.965],[-85.88,30.054],[-86.264,30.341],[-86.456,30.432],[-86.514,30.457],[-86.569,30.46],[-86.716,30.429],[-86.755,30.453],[-86.768,30.49],[-86.755,30.518]]]}},{"type":"Feature","properties":{"density":1},"geometry":{"type":"Polygon","coordinates":[[[-96.464,19.553],[-96.509,20.371],[-96.214,20.849],[-95.395,20.985],[-94.327,21.053],[-93.576,21.19],[-92.78,21.303],[-91.962,21.053],[-91.166,20.553],[-91.098,20.098],[-91.121,19.598],[-91.416,18.757],[-92.03,18.075],[-92.644,17.734],[-93.986,17.12],[-94.236,16.733],[-93.576,15.824],[-92.121,15.051],[-91.121,14.391],[-90.188,14.05],[-89.597,13.664],[-89.37,12.868],[-90.075,12.209],[-91.234,11.958],[-92.599,11.617],[-93.554,11.276],[-94.213,10.89],[-96.373,10.685],[-99.761,10.594],[-102.353,10.594],[-104.945,11.254],[-106.9,12.368],[-107.651,13.868],[-108.242,14.96],[-109.151,15.642],[-109.788,15.869],[-111.243,16.301],[-112.63,16.665],[-114.449,17.734],[-114.904,18.507],[-115.109,19.416],[-115.222,20.303],[-114.927,20.962],[-114.313,21.463],[-112.926,22.008],[-111.061,22.236],[-109.815,22.311],[-108.497,23.106],[-107.769,23.743],[-107.382,23.97],[-106.882,24.016],[-106.177,23.584],[-105.45,22.97],[-105.2,22.583],[-104.927,22.038],[-104.381,20.81],[-102.994,19.15],[-101.766,18.241],[-100.402,17.399],[-98.151,16.808],[-97.082,16.308],[-96.287,16.126],[-95.286,16.103],[-94.831,16.285],[-94.74,16.376],[-95.423,16.854],[-96.014,17.104],[-96.628,17.536],[-96.81,18.15],[-97.014,18.741],[-96.991,19.196],[-96.855,19.309],[-96.741,19.355],[-96.464,19.553]]]}}]}