{"type":"FeatureCollection","features":[{"type":"Feature","properties":{"density":1},"geometry":{"type":"Polygon","coordinates":[[[-77.748,45.481],[-79.169,44.016],[-84.854,42.062],[-90.671,40.774],[-92.759,40.774],[-93.247,41.307],[-93.247,41.706],[-92.092,42.595],[-89.472,43.35],[-85.564,44.815],[-83.61,45.792],[-81.878,46.68],[-79.969,47.036],[-78.681,46.769],[-77.837,46.281],[-77.437,45.614],[-77.748,45.481]]]}},{"type":"Feature","properties":{"density":1},"geometry":{"type":"Polygon","coordinates":[[[-109.3,33.407],[-109.29,33.183],[-109.421,32.988],[-109.588,32.923],[-109.905,32.941],[-110.268,33.1],[-110.52,33.146],[-110.818,33.025],[-111.125,32.839],[-111.498,32.792],[-111.945,32.951],[-112.42,33.379],[-112.932,34.087],[-113.053,34.357],[-113.053,34.543],[-112.885,34.757],[-112.643,34.934],[-112.494,34.925],[-112.354,34.729],[-112.289,34.422],[-112.159,34.199],[-111.972,34.115],[-111.749,34.18],[-111.553,34.32],[-111.293,34.431],[-111.172,34.394],[-111.162,34.273],[-111.218,34.012],[-111.209,33.863],[-111.041,33.724],[-110.482,33.677],[-110.277,33.5],[-110.063,33.444],[-109.942,33.463],[-109.737,33.565],[-109.486,33.621],[-109.393,33.565],[-109.328,33.491],[-109.3,33.407]]]}},{"type":"Feature","properties":{"density":1},"geometry":{"type":"Polygon","coordinates":[[[-115.495,57.553],[-115.356,57.686],[-115.347,57.72],[-115.39,57.748],[-115.504,57.629],[-115.518,57.562],[-115.495,57.553]]]}},{"type":"Feature","properties":{"density":1},"geometry":{"type":"Polygon","coordinates":[[[-119.217,56.671],[-118.947,56.411],[-118.938,56.234],[-119.012,56.131],[-119.208,56.057],[-119.562,56.02],[-119.832,55.861],[-119.981,55.694],[-120.167,55.656],[-120.679,55.666],[-121.145,55.833],[-121.638,56.038],[-122.002,56.215],[-122.197,56.56],[-122.225,56.848],[-122.058,57.156],[-121.871,57.295],[-121.471,57.407],[-120.847,57.342],[-120.232,57.063],[-119.636,56.951],[-119.217,56.671]]]}},{"type":"Feature","properties":{"density":1},"geometry":{"type":"Polygon","coordinates":[[[-63.844,33.067],[-65.869,32.037],[-69.493,31.717],[-74.371,29.625],[-77.146,28.168],[-79.436,26.225],[-79.297,24.768],[-78.326,23.241],[-76.452,21.853],[-75.62,20.188],[-75.758,19.563],[-76.799,19.147],[-78.603,18.939],[-80.893,17.898],[-83.183,17.551],[-84.085,17.551],[-85.195,18.314],[-85.074,19.331],[-84.222,20.965],[-84.257,21.995],[-84.987,23.449],[-86.583,23.796],[-89.081,22.2],[-88.526,18.384],[-87.138,16.649],[-85.403,15.678],[-84.085,15.053],[-83.322,13.249],[-83.322,11.931],[-84.64,10.404],[-86.93,9.016],[-94.285,7.906],[-100.877,7.49],[-102.473,7.837],[-104.138,8.808],[-105.596,12.208],[-106.983,13.249],[-108.857,13.18],[-110.383,13.18],[-110.73,13.735],[-110.8,14.984],[-110.8,15.886],[-113.09,16.649],[-114.408,18.384],[-114.408,19.286],[-113.298,20.327],[-111.979,20.882],[-108.51,20.951],[-105.457,21.09],[-103.861,21.784],[-102.889,22.616],[-101.432,23.519],[-99.559,25.323],[-98.31,26.849],[-94.424,28.861],[-87.416,31.359],[-77.146,36.286],[-73.885,37.396],[-71.109,37.813],[-67.709,37.882],[-65.087,38.609],[-62.991,38.289],[-62.387,36.833],[-62.352,34.772],[-63.844,33.067]]]}},{"type":"Feature","properties":{"density":1},"geometry":{"type":"Polygon","coordinates":[[[-80.624,26.754],[-80.528,27.209],[-80.585,27.238],[-80.663,27.213],[-80.724,27.155],[-80.799,27.145],[-80.873,27.079],[-80.951,26.964],[-80.987,26.789],[-81.0,26.63],[-80.99,26.608],[-80.968,26.618],[-80.917,26.723],[-80.88,26.872],[-80.853,26.911],[-80.838,26.725],[-80.821,26.684],[-80.807,26.691],[-80.763,26.906],[-80.729,26.964],[-80.69,26.952],[-80.651,26.793],[-80.624,26.754]]]}},{"type":"Feature","properties":{"density":1},"geometry":{"type":"Polygon","coordinates":[[[-96.844,47.506],[-96.771,47.46],[-96.703,47.445],[-96.673,47.472],[-96.719,47.509],[-96.819,47.515],[-96.844,47.506]]]}},{"type":"Feature","properties":{"density":1},"geometry":{"type":"Polygon","coordinates":[[[-96.193,45.334],[-96.076,45.254],[-96.032,45.268],[-96.034,45.293],[-96.173,45.332],[-96.193,45.334]]]}},{"type":"Feature","properties":{"density":1},"geometry":{"type":"Polygon","coordinates":[[[-94.112,44.352],[-94.015,44.291],[-93.912,44.276],[-93.888,44.286],[-93.88,44.311],[-93.922,44.34],[-94.061,44.354],[-94.112,44.352]]]}},{"type":"Feature","properties":{"density":1},"geometry":{"type":"Polygon","coordinates":[[[-95.123,43.4],[-95.028,43.266],[-94.979,43.244],[-94.957,43.258],[-94.972,43.297],[-95.091,43.41],[-95.123,43.4]]]}},{"type":"Feature","properties":{"density":1},"geometry":{"type":"Polygon","coordinates":[[[-94.552,43.466],[-94.5,43.427],[-94.471,43.429],[-94.466,43.463],[-94.488,43.478],[-94.542,43.476],[-94.552,43.466]]]}},{"type":"Feature","properties":{"density":1},"geometry":{"type":"Polygon","coordinates":[[[-96.405,44.362],[-96.153,44.103],[-95.973,43.944],[-95.807,43.83],[-95.526,43.732],[-95.413,43.732],[-95.311,43.761],[-95.257,43.842],[-95.316,43.917],[-95.44,43.986],[-95.662,44.071],[-95.736,44.076],[-96.043,44.181],[-96.329,44.337],[-96.405,44.362]]]}},{"type":"Feature","properties":{"density":1},"geometry":{"type":"Polygon","coordinates":[[[-95.247,43.996],[-95.077,43.878],[-95.02,43.869],[-95.008,43.886],[-95.04,43.917],[-95.201,43.986],[-95.247,43.996]]]}},{"type":"Feature","properties":{"density":1},"geometry":{"type":"Polygon","coordinates":[[[-93.433,42.936],[-93.292,42.814],[-93.231,42.787],[-93.182,42.818],[-93.224,42.879],[-93.3,42.921],[-93.414,42.943],[-93.433,42.936]]]}},{"type":"Feature","properties":{"density":1},"geometry":{"type":"Polygon","coordinates":[[[-94.543,42.159],[-94.275,41.994],[-94.174,41.918],[-94.162,41.887],[-94.196,41.872],[-94.266,41.896],[-94.54,42.131],[-94.543,42.159]]]}},{"type":"Feature","properties":{"density":1},"geometry":{"type":"Polygon","coordinates":[[[-94.839,41.957],[-94.54,41.735],[-94.379,41.591],[-94.366,41.548],[-94.385,41.53],[-94.443,41.536],[-94.513,41.591],[-94.662,41.725],[-94.82,41.905],[-94.839,41.957]]]}},{"type":"Feature","properties":{"density":1},"geometry":{"type":"Polygon","coordinates":[[[-93.493,41.881],[-93.312,41.708],[-93.224,41.654],[-93.175,41.671],[-93.161,41.698],[-93.195,41.742],[-93.322,41.825],[-93.459,41.888],[-93.493,41.881]]]}},{"type":"Feature","properties":{"density":1},"geometry":{"type":"Polygon","coordinates":[[[-93.963,40.164],[-93.835,40.014],[-93.81,40.026],[-93.816,40.06],[-93.917,40.154],[-93.963,40.164]]]}},{"type":"Feature","properties":{"density":1},"geometry":{"type":"Polygon","coordinates":[[[-96.739,37.035],[-96.64,36.867],[-96.59,36.657],[-96.598,36.634],[-96.659,36.623],[-96.697,36.68],[-96.743,36.985],[-96.739,37.035]]]}},{"type":"Feature","properties":{"density":1},"geometry":{"type":"Polygon","coordinates":[[[-96.278,38.726],[-96.054,38.454],[-96.073,38.407],[-96.121,38.402],[-96.178,38.445],[-96.283,38.669],[-96.278,38.726]]]}},{"type":"Feature","properties":{"density":1},"geometry":{"type":"Polygon","coordinates":[[[-96.836,38.912],[-96.683,38.759],[-96.631,38.626],[-96.678,38.626],[-96.764,38.702],[-96.855,38.903],[-96.836,38.912]]]}},{"type":"Feature","properties":{"density":1},"geometry":{"type":"Polygon","coordinates":[[[-98.695,38.163],[-98.576,38.087],[-98.529,38.025],[-98.543,38.001],[-98.586,38.001],[-98.691,38.125],[-98.695,38.163]]]}},{"type":"Feature","properties":{"density":1},"geometry":{"type":"Polygon","coordinates":[[[-98.899,41.772],[-98.835,41.763],[-98.826,41.788],[-98.841,41.809],[-98.875,41.812],[-98.899,41.791],[-98.899,41.772]]]}},{"type":"Feature","properties":{"density":1},"geometry":{"type":"Polygon","coordinates":[[[-97.662,44.059],[-97.528,43.983],[-97.482,44.009],[-97.486,44.036],[-97.513,44.055],[-97.631,44.059],[-97.662,44.059]]]}},{"type":"Feature","properties":{"density":1},"geometry":{"type":"Polygon","coordinates":[[[-98.494,49.229],[-98.203,49.152],[-98.045,49.171],[-98.012,49.205],[-98.05,49.252],[-98.479,49.248],[-98.494,49.229]]]}},{"type":"Feature","properties":{"density":1},"geometry":{"type":"Polygon","coordinates":[[[-98.853,37.265],[-98.747,37.133],[-98.535,36.479],[-98.393,36.284],[-98.314,36.222],[-98.164,36.231],[-98.19,36.514],[-98.208,36.549],[-98.19,36.912],[-98.217,37.062],[-98.305,37.177],[-98.358,37.212],[-98.605,37.247],[-98.853,37.318],[-98.853,37.265]]]}},{"type":"Feature","properties":{"density":1},"geometry":{"type":"Polygon","coordinates":[[[-97.298,38.9],[-97.059,38.697],[-97.015,38.626],[-96.944,38.564],[-96.891,38.529],[-96.838,38.52],[-96.767,38.538],[-96.785,38.661],[-96.82,38.723],[-97.262,38.962],[-97.298,38.9]]]}},{"type":"Feature","properties":{"density":1},"geometry":{"type":"Polygon","coordinates":[[[-96.82,38.865],[-96.6,38.546],[-96.555,38.502],[-96.502,38.485],[-96.432,38.502],[-96.423,38.564],[-96.449,38.652],[-96.75,38.873],[-96.82,38.865]]]}},{"type":"Feature","properties":{"density":1},"geometry":{"type":"Polygon","coordinates":[[[-96.379,39.571],[-95.893,39.395],[-95.769,39.253],[-95.787,39.165],[-95.866,39.13],[-95.937,39.13],[-96.122,39.227],[-96.22,39.324],[-96.387,39.439],[-96.44,39.501],[-96.582,39.589],[-96.582,39.607],[-96.52,39.624],[-96.467,39.589],[-96.379,39.571]]]}},{"type":"Feature","properties":{"density":1},"geometry":{"type":"Polygon","coordinates":[[[-96.723,39.342],[-96.573,39.289],[-96.467,39.227],[-96.37,39.227],[-96.361,39.253],[-96.361,39.289],[-96.741,39.412],[-96.723,39.342]]]}},{"type":"Feature","properties":{"density":1},"geometry":{"type":"Polygon","coordinates":[[[-96.67,39.457],[-96.476,39.377],[-96.432,39.368],[-96.396,39.386],[-96.529,39.465],[-96.617,39.465],[-96.67,39.457]]]}},{"type":"Feature","properties":{"density":1},"geometry":{"type":"Polygon","coordinates":[[[-96.034,38.803],[-95.91,38.555],[-95.875,38.387],[-95.822,38.308],[-95.769,38.264],[-95.689,38.264],[-95.654,38.343],[-95.654,38.432],[-95.681,38.511],[-95.725,38.591],[-95.999,38.829],[-96.034,38.803]]]}},{"type":"Feature","properties":{"density":1},"geometry":{"type":"Polygon","coordinates":[[[-92.98,46.38],[-92.326,46.221],[-91.46,45.858],[-91.001,45.549],[-90.621,45.346],[-90.311,45.143],[-90.055,44.93],[-89.852,44.604],[-89.649,44.232],[-89.49,43.861],[-89.348,43.614],[-88.593,42.665],[-88.01,42.147],[-86.737,41.607],[-84.839,41.349],[-84.386,41.047],[-84.321,40.852],[-84.364,40.399],[-84.666,39.774],[-85.033,39.17],[-85.896,38.285],[-86.284,37.983],[-86.716,37.616],[-87.341,37.401],[-87.665,37.271],[-88.398,36.926],[-89.412,36.538],[-90.513,36.15],[-91.742,35.308],[-92.584,34.79],[-93.037,34.251],[-93.339,33.561],[-93.446,32.612],[-93.619,31.403],[-93.835,30.843],[-94.223,30.109],[-94.655,29.527],[-95.474,29.052],[-96.057,28.923],[-96.575,28.772],[-97.265,28.707],[-98.538,28.901],[-98.969,29.419],[-99.401,30.239],[-99.918,30.843],[-100.458,31.835],[-100.76,32.288],[-101.752,33.302],[-101.946,33.625],[-103.046,34.532],[-103.715,35.028],[-103.952,35.589],[-104.082,36.085],[-104.254,36.646],[-104.578,37.573],[-104.923,38.825],[-104.902,39.278],[-104.621,40.205],[-104.362,40.939],[-103.974,41.543],[-103.348,42.255],[-102.011,43.592],[-101.148,44.218],[-100.005,44.994],[-99.077,45.491],[-98.365,45.9],[-98.063,46.03],[-97.33,46.181],[-96.121,46.353],[-95.0,46.332],[-93.554,46.415],[-92.98,46.38]]]}},{"type":"Feature","properties":{"density":1},"geometry":{"type":"Polygon","coordinates":[[[-96.541,36.66],[-96.621,36.545],[-96.665,36.43],[-96.691,36.35],[-96.682,36.236],[-96.638,36.121],[-96.612,35.935],[-96.506,35.635],[-96.435,35.529],[-96.32,35.476],[-96.241,35.511],[-96.214,35.688],[-96.232,35.82],[-96.232,36.297],[-96.285,36.395],[-96.514,36.677],[-96.541,36.66]]]}},{"type":"Feature","properties":{"density":1},"geometry":{"type":"Polygon","coordinates":[[[-96.276,37.066],[-96.276,36.863],[-96.241,36.616],[-96.126,36.404],[-96.002,36.121],[-95.914,35.979],[-95.869,35.953],[-95.763,35.926],[-95.666,35.953],[-95.666,36.068],[-95.719,36.191],[-96.223,37.093],[-96.276,37.066]]]}},{"type":"Feature","properties":{"density":1},"geometry":{"type":"Polygon","coordinates":[[[-95.003,36.032],[-94.959,35.573],[-94.95,35.211],[-94.889,35.131],[-94.836,35.166],[-94.818,35.502],[-94.977,36.05],[-95.003,36.032]]]}},{"type":"Feature","properties":{"density":1},"geometry":{"type":"Polygon","coordinates":[[[-96.152,38.047],[-95.949,37.861],[-95.878,37.729],[-95.861,37.57],[-95.922,37.588],[-96.099,37.755],[-96.294,38.047],[-96.249,38.109],[-96.152,38.047]]]}},{"type":"Feature","properties":{"density":1},"geometry":{"type":"Polygon","coordinates":[[[-95.781,39.258],[-95.569,39.116],[-95.154,38.674],[-95.136,38.542],[-95.171,38.48],[-95.251,38.462],[-95.693,38.895],[-95.746,38.975],[-95.843,39.249],[-95.781,39.258]]]}},{"type":"Feature","properties":{"density":1},"geometry":{"type":"Polygon","coordinates":[[[-97.875,42.642],[-97.699,42.713],[-97.522,42.757],[-97.38,42.757],[-97.327,42.713],[-97.186,42.651],[-96.744,42.607],[-96.47,42.757],[-96.417,42.925],[-96.417,43.031],[-96.709,43.154],[-96.841,43.181],[-97.009,43.181],[-97.239,43.146],[-97.451,43.04],[-97.557,42.969],[-97.911,42.686],[-97.875,42.642]]]}},{"type":"Feature","properties":{"density":1},"geometry":{"type":"Polygon","coordinates":[[[-99.218,41.908],[-98.679,42.341],[-98.52,42.501],[-98.388,42.589],[-98.308,42.589],[-98.255,42.562],[-98.291,42.465],[-98.37,42.359],[-98.679,42.112],[-99.174,41.926],[-99.218,41.908]]]}},{"type":"Feature","properties":{"density":1},"geometry":{"type":"Polygon","coordinates":[[[-98.626,41.811],[-98.326,41.882],[-97.69,42.165],[-97.584,42.28],[-97.575,42.403],[-97.84,42.412],[-98.008,42.333],[-98.202,42.2],[-98.609,41.847],[-98.626,41.811]]]}},{"type":"Feature","properties":{"density":1},"geometry":{"type":"Polygon","coordinates":[[[-100.994,42.704],[-100.508,43.057],[-100.173,43.402],[-99.908,43.623],[-99.634,43.799],[-99.245,44.1],[-99.148,44.188],[-99.112,44.356],[-99.21,44.427],[-99.404,44.4],[-99.696,44.241],[-100.031,43.985],[-100.296,43.764],[-100.57,43.375],[-101.056,42.739],[-100.994,42.704]]]}},{"type":"Feature","properties":{"density":1},"geometry":{"type":"Polygon","coordinates":[[[-93.466,45.399],[-93.121,45.257],[-92.83,45.107],[-92.653,45.072],[-92.476,45.063],[-92.335,45.063],[-92.194,45.107],[-92.211,45.187],[-92.37,45.275],[-92.715,45.39],[-92.936,45.425],[-93.272,45.452],[-93.466,45.434],[-93.466,45.399]]]}},{"type":"Feature","properties":{"density":1},"geometry":{"type":"Polygon","coordinates":[[[-93.811,45.496],[-93.634,45.461],[-93.395,45.363],[-93.236,45.346],[-93.183,45.363],[-93.219,45.434],[-93.342,45.478],[-93.766,45.54],[-93.811,45.496]]]}},{"type":"Feature","properties":{"density":1},"geometry":{"type":"Polygon","coordinates":[[[-98.061,43.676],[-97.539,44.003],[-96.992,44.303],[-96.947,44.409],[-97.08,44.4],[-97.425,44.206],[-98.105,43.72],[-98.061,43.676]]]}},{"type":"Feature","properties":{"density":1},"geometry":{"type":"Polygon","coordinates":[[[-98.671,40.0],[-98.335,40.159],[-98.087,40.256],[-97.752,40.451],[-97.752,40.504],[-97.893,40.486],[-98.229,40.327],[-98.671,40.009],[-98.671,40.0]]]}},{"type":"Feature","properties":{"density":1},"geometry":{"type":"Polygon","coordinates":[[[-95.852,37.632],[-95.781,37.526],[-95.64,37.375],[-95.569,37.234],[-95.551,37.075],[-95.578,36.987],[-95.64,36.943],[-95.755,37.075],[-95.861,37.349],[-95.905,37.641],[-95.852,37.632]]]}},{"type":"Feature","properties":{"density":1},"geometry":{"type":"Polygon","coordinates":[[[-96.435,38.462],[-96.258,38.365],[-96.126,38.215],[-96.09,38.162],[-96.073,37.968],[-96.205,38.012],[-96.285,38.091],[-96.391,38.259],[-96.461,38.445],[-96.435,38.462]]]}},{"type":"Feature","properties":{"density":1},"geometry":{"type":"Polygon","coordinates":[[[-92.494,37.8],[-92.467,37.632],[-92.388,37.446],[-92.291,37.367],[-92.273,37.411],[-92.326,37.57],[-92.45,37.808],[-92.494,37.8]]]}},{"type":"Feature","properties":{"density":1},"geometry":{"type":"Polygon","coordinates":[[[-63.613,34.35],[-66.647,33.912],[-68.905,33.642],[-70.86,33.271],[-73.354,32.867],[-74.838,32.125],[-77.366,30.642],[-79.017,29.597],[-81.141,27.844],[-82.017,27.271],[-83.972,26.833],[-86.197,26.631],[-87.748,26.563],[-89.703,26.125],[-91.388,25.687],[-93.141,25.114],[-94.152,24.709],[-95.467,24.035],[-96.073,23.9],[-96.68,23.732],[-98.028,23.091],[-98.736,22.619],[-99.512,22.282],[-100.59,21.945],[-103.658,21.035],[-105.343,20.664],[-106.287,20.496],[-108.073,20.327],[-109.017,20.091],[-110.871,19.754],[-112.287,19.08],[-115.152,16.215],[-115.287,15.777],[-114.511,14.429],[-113.702,13.653],[-112.826,13.047],[-109.86,12.507],[-107.568,12.507],[-107.096,12.103],[-106.624,11.327],[-105.478,10.114],[-103.927,9.474],[-101.871,9.002],[-93.107,9.17],[-91.927,9.204],[-90.748,9.271],[-89.096,9.339],[-88.085,9.608],[-86.804,10.62],[-86.5,10.99],[-85.793,11.631],[-84.984,12.271],[-84.545,12.979],[-84.208,13.721],[-84.276,14.766],[-85.321,15.777],[-85.725,16.046],[-86.332,16.653],[-86.602,16.957],[-86.669,17.159],[-86.703,17.563],[-86.534,17.934],[-85.995,18.002],[-85.22,17.766],[-84.242,17.26],[-82.961,17.125],[-81.512,17.091],[-80.399,17.429],[-79.051,17.968],[-76.759,18.743],[-76.051,19.181],[-75.781,19.721],[-75.781,20.024],[-75.815,20.226],[-75.984,20.496],[-76.22,20.698],[-76.793,21.44],[-77.77,22.384],[-78.073,23.395],[-77.905,24.44],[-76.961,25.316],[-75.579,26.226],[-73.793,27.17],[-71.77,28.08],[-69.343,29.058],[-68.399,29.496],[-65.972,30.103],[-65.332,30.305],[-63.377,30.642],[-61.119,30.912],[-59.905,31.417],[-59.062,31.788],[-58.152,32.327],[-57.546,33.237],[-57.512,33.81],[-57.815,34.181],[-58.557,34.417],[-59.399,34.451],[-60.444,34.451],[-62.062,34.485],[-63.613,34.35]]]}},{"type":"Feature","properties":{"density":1},"geometry":{"type":"Polygon","coordinates":[[[-95.992,42.327],[-95.727,42.349],[-95.119,42.217],[-94.976,42.217],[-94.71,42.272],[-94.666,42.349],[-94.733,42.427],[-95.064,42.493],[-95.307,42.504],[-95.395,42.504],[-95.992,42.405],[-95.992,42.327]]]}},{"type":"Feature","properties":{"density":1},"geometry":{"type":"Polygon","coordinates":[[[-95.34,43.818],[-95.13,43.73],[-94.788,43.642],[-94.412,43.631],[-94.28,43.642],[-94.258,43.664],[-94.28,43.73],[-94.865,43.851],[-95.351,43.907],[-95.34,43.818]]]}},{"type":"Feature","properties":{"density":1},"geometry":{"type":"Polygon","coordinates":[[[-94.346,43.995],[-93.683,43.73],[-93.495,43.697],[-93.451,43.763],[-93.495,43.84],[-93.584,43.896],[-93.75,43.951],[-93.882,43.984],[-94.335,44.039],[-94.346,43.995]]]}},{"type":"Feature","properties":{"density":1},"geometry":{"type":"Polygon","coordinates":[[[-94.744,43.531],[-94.236,43.288],[-94.18,43.233],[-94.048,43.167],[-93.959,43.1],[-93.661,43.001],[-93.418,42.979],[-93.241,43.034],[-93.208,43.167],[-93.252,43.321],[-93.363,43.421],[-93.904,43.564],[-94.125,43.597],[-94.302,43.597],[-94.677,43.564],[-94.744,43.531]]]}},{"type":"Feature","properties":{"density":1},"geometry":{"type":"Polygon","coordinates":[[[-97.737,41.002],[-97.35,41.002],[-96.997,41.035],[-96.71,41.134],[-96.643,41.19],[-96.964,41.201],[-97.715,41.013],[-97.737,41.002]]]}},{"type":"Feature","properties":{"density":1},"geometry":{"type":"Polygon","coordinates":[[[-92.457,43.719],[-92.292,43.631],[-92.082,43.553],[-92.049,43.553],[-92.038,43.631],[-92.424,43.741],[-92.457,43.719]]]}},{"type":"Feature","properties":{"density":1},"geometry":{"type":"Polygon","coordinates":[[[-111.191,34.289],[-111.235,34.168],[-111.279,34.101],[-111.279,33.881],[-111.323,33.737],[-111.522,33.604],[-111.809,33.516],[-112.052,33.494],[-112.373,33.56],[-112.483,33.781],[-112.439,33.991],[-112.373,34.135],[-112.295,34.234],[-112.085,34.411],[-111.743,34.587],[-111.423,34.61],[-111.213,34.532],[-111.124,34.477],[-111.036,34.466],[-111.025,34.422],[-111.058,34.389],[-111.102,34.378],[-111.147,34.344],[-111.191,34.289]]]}},{"type":"Feature","properties":{"density":1},"geometry":{"type":"Polygon","coordinates":[[[-121.054,39.463],[-120.995,39.463],[-120.791,39.536],[-120.723,39.613],[-120.737,39.644],[-120.873,39.68],[-120.923,39.68],[-120.986,39.653],[-121.076,39.572],[-121.099,39.513],[-121.09,39.486],[-121.054,39.463]]]}},{"type":"Feature","properties":{"density":1},"geometry":{"type":"Polygon","coordinates":[[[-121.891,39.513],[-121.773,39.355],[-121.764,39.323],[-121.791,39.273],[-121.882,39.382],[-121.909,39.441],[-121.904,39.513],[-121.891,39.513]]]}},{"type":"Feature","properties":{"density":1},"geometry":{"type":"Polygon","coordinates":[[[-105.983,24.018],[-106.132,24.053],[-106.104,24.145],[-105.884,24.251],[-105.46,24.407],[-105.276,24.378],[-105.255,24.35],[-105.255,24.265],[-105.368,24.152],[-105.651,24.011],[-105.891,23.982],[-105.983,24.018]]]}},{"type":"Feature","properties":{"density":1},"geometry":{"type":"Polygon","coordinates":[[[-105.616,22.866],[-105.63,22.965],[-105.538,23.064],[-105.439,23.078],[-105.375,23.134],[-105.291,23.155],[-105.177,23.099],[-105.163,23.021],[-105.206,22.936],[-105.347,22.873],[-105.524,22.851],[-105.616,22.866]]]}},{"type":"Feature","properties":{"density":1},"geometry":{"type":"Polygon","coordinates":[[[-104.704,22.06],[-104.64,22.194],[-104.612,22.392],[-104.633,22.809],[-104.584,22.887],[-104.414,22.851],[-104.35,22.71],[-104.322,22.597],[-104.315,22.505],[-104.329,22.385],[-104.372,22.307],[-104.562,22.116],[-104.668,22.039],[-104.704,22.06]]]}},{"type":"Feature","properties":{"density":1},"geometry":{"type":"Polygon","coordinates":[[[-104.93,21.487],[-104.916,21.452],[-104.584,21.148],[-104.471,21.112],[-104.28,20.957],[-104.16,20.907],[-104.046,20.893],[-103.969,20.893],[-103.905,20.95],[-103.884,21.056],[-103.962,21.148],[-104.435,21.424],[-104.789,21.494],[-104.874,21.53],[-104.93,21.487]]]}},{"type":"Feature","properties":{"density":2},"geometry":{"type":"Polygon","coordinates":[[[-85.998,15.067],[-87.526,14.357],[-88.947,13.22],[-89.515,12.047],[-90.226,11.017],[-91.647,10.591],[-92.144,10.804],[-92.784,11.905],[-93.103,12.687],[-93.707,13.611],[-94.347,14.676],[-95.306,15.458],[-95.519,16.169],[-95.803,16.986],[-96.656,18.158],[-96.763,19.295],[-96.407,19.757],[-94.915,20.219],[-92.926,19.615],[-92.322,19.117],[-91.363,18.691],[-90.439,18.052],[-90.013,17.021],[-89.373,16.275],[-88.805,16.169],[-86.495,16.169],[-85.927,15.671],[-85.962,15.316],[-85.856,15.103],[-85.998,15.067]]]}},{"type":"Feature","properties":{"density":2},"geometry":{"type":"Polygon","coordinates":[[[-96.585,36.66],[-96.656,36.421],[-96.656,36.342],[-96.629,36.262],[-96.585,36.218],[-96.364,36.218],[-96.302,36.262],[-96.302,36.421],[-96.497,36.66],[-96.585,36.66]]]}},{"type":"Feature","properties":{"density":2},"geometry":{"type":"Polygon","coordinates":[[[-96.046,36.616],[-96.011,36.43],[-95.967,36.297],[-95.878,36.236],[-95.852,36.289],[-95.887,36.404],[-95.914,36.474],[-96.02,36.633],[-96.046,36.616]]]}},{"type":"Feature","properties":{"density":2},"geometry":{"type":"Polygon","coordinates":[[[-92.582,45.849],[-92.017,45.425],[-91.761,45.381],[-91.336,45.399],[-91.266,45.452],[-91.222,45.523],[-91.239,45.584],[-91.504,45.805],[-91.761,45.911],[-92.538,45.92],[-92.582,45.849]]]}},{"type":"Feature","properties":{"density":2},"geometry":{"type":"Polygon","coordinates":[[[-111.699,34.333],[-111.975,34.19],[-112.052,34.135],[-112.063,34.024],[-111.975,33.936],[-111.809,33.892],[-111.721,33.892],[-111.478,34.002],[-111.379,34.068],[-111.202,34.278],[-111.147,34.322],[-111.136,34.356],[-111.158,34.411],[-111.401,34.499],[-111.5,34.499],[-111.666,34.378],[-111.699,34.333]]]}},{"type":"Feature","properties":{"density":2},"geometry":{"type":"Polygon","coordinates":[[[-96.981,21.301],[-97.065,20.711],[-97.444,19.615],[-97.571,18.857],[-97.571,18.183],[-97.444,17.551],[-96.77,15.992],[-96.602,15.655],[-96.56,14.981],[-96.349,13.969],[-95.717,12.621],[-95.38,12.115],[-95.253,11.778],[-94.874,11.441],[-94.2,11.146],[-93.484,11.146],[-92.557,11.441],[-91.335,12.663],[-90.661,12.916],[-88.975,12.874],[-88.259,13.042],[-87.374,13.506],[-86.152,14.306],[-85.562,14.981],[-85.562,15.697],[-86.11,16.329],[-86.658,16.54],[-87.164,16.834],[-88.175,17.466],[-88.596,17.761],[-88.343,18.478],[-88.006,19.32],[-87.838,19.784],[-87.669,20.627],[-88.006,21.216],[-88.68,21.174],[-89.607,21.09],[-90.239,21.216],[-90.871,21.891],[-90.829,22.438],[-90.576,23.45],[-91.082,24.124],[-92.599,24.334],[-94.284,23.281],[-95.211,22.27],[-96.56,21.385],[-96.981,21.301]]]}}]}