{"type":"FeatureCollection","features":[{"type":"Feature","properties":{"density":1},"geometry":{"type":"Polygon","coordinates":[[[-86.245,12.142],[-86.139,13.172],[-86.21,14.06],[-85.57,14.735],[-84.505,15.091],[-84.291,16.121],[-84.54,16.654],[-85.251,19.141],[-85.641,19.993],[-85.926,20.917],[-85.926,22.658],[-86.032,24.541],[-86.316,26.388],[-86.707,28.697],[-86.885,30.296],[-87.56,31.042],[-89.656,31.113],[-91.539,30.509],[-93.422,30.047],[-95.127,29.266],[-96.797,27.667],[-98.964,25.749],[-100.776,23.937],[-100.989,23.582],[-101.7,22.303],[-102.41,21.095],[-103.263,19.816],[-103.902,18.181],[-103.156,17.045],[-99.319,16.05],[-98.573,15.979],[-96.015,16.156],[-93.671,15.801],[-92.711,14.664],[-92.392,14.38],[-91.113,13.954],[-90.26,13.385],[-88.839,12.746],[-87.595,12.284],[-87.027,12.106],[-86.565,12.0],[-86.245,12.142]]]}},{"type":"Feature","properties":{"density":1},"geometry":{"type":"Polygon","coordinates":[[[-80.68,26.477],[-80.817,26.532],[-81.229,26.584],[-81.455,26.746],[-81.516,26.907],[-81.403,27.213],[-81.318,27.329],[-81.226,27.347],[-81.043,27.24],[-80.973,27.252],[-80.881,27.24],[-80.71,27.103],[-80.64,26.92],[-80.576,26.828],[-80.552,26.718],[-80.561,26.642],[-80.61,26.492],[-80.68,26.477]]]}},{"type":"Feature","properties":{"density":1},"geometry":{"type":"Polygon","coordinates":[[[-86.636,30.648],[-86.517,30.923],[-86.467,30.911],[-86.273,30.779],[-86.091,30.679],[-85.829,30.617],[-85.597,30.623],[-85.528,30.723],[-85.56,30.873],[-85.629,30.986],[-86.06,31.223],[-86.404,31.605],[-86.567,31.611],[-86.648,31.499],[-86.673,31.417],[-86.698,31.198],[-86.798,30.861],[-86.798,30.823],[-86.692,30.66],[-86.636,30.648]]]}},{"type":"Feature","properties":{"density":1},"geometry":{"type":"Polygon","coordinates":[[[-83.229,29.149],[-83.151,28.81],[-83.237,27.413],[-83.292,26.92],[-83.478,26.107],[-83.384,25.221],[-82.965,24.476],[-82.452,23.637],[-82.173,22.798],[-82.219,22.285],[-82.546,21.539],[-83.99,19.862],[-84.177,18.324],[-84.177,17.438],[-84.13,16.646],[-83.99,16.133],[-83.897,15.993],[-83.478,14.781],[-83.617,13.523],[-84.084,11.985],[-84.13,9.934],[-85.202,8.909],[-87.393,8.35],[-89.117,8.396],[-92.846,9.189],[-94.71,9.375],[-97.646,9.888],[-99.837,10.307],[-101.048,10.447],[-101.981,10.494],[-103.099,10.82],[-104.497,11.612],[-105.15,13.15],[-105.523,15.527],[-105.523,18.137],[-105.429,18.51],[-104.59,19.535],[-104.357,19.768],[-103.658,20.188],[-101.794,21.027],[-101.095,21.493],[-100.489,22.238],[-99.65,23.124],[-99.697,24.103],[-100.489,25.081],[-101.142,25.92],[-101.654,26.806],[-101.701,28.53],[-101.328,29.183],[-99.697,30.115],[-97.786,30.767],[-95.875,31.467],[-94.057,31.886],[-93.358,32.072],[-90.562,32.212],[-89.35,32.119],[-87.812,32.026],[-87.206,31.933],[-86.134,31.653],[-85.109,30.907],[-84.643,30.628],[-83.524,29.649],[-83.229,29.149]]]}},{"type":"Feature","properties":{"density":1},"geometry":{"type":"Polygon","coordinates":[[[-80.955,26.674],[-80.784,26.394],[-80.719,26.374],[-80.684,26.399],[-80.664,26.519],[-80.739,26.574],[-80.794,26.639],[-80.94,26.744],[-80.955,26.674]]]}},{"type":"Feature","properties":{"density":1},"geometry":{"type":"Polygon","coordinates":[[[-80.684,27.27],[-80.719,27.22],[-80.704,27.109],[-80.805,27.104],[-80.895,27.175],[-80.96,27.255],[-80.965,27.385],[-80.92,27.475],[-80.779,27.56],[-80.649,27.52],[-80.649,27.42],[-80.669,27.34],[-80.684,27.27]]]}},{"type":"Feature","properties":{"density":1},"geometry":{"type":"Polygon","coordinates":[[[-96.475,44.648],[-97.091,45.323],[-97.335,45.645],[-97.511,46.095],[-97.531,46.3],[-97.492,46.29],[-97.414,46.192],[-97.228,46.016],[-96.475,44.697],[-96.475,44.648]]]}},{"type":"Feature","properties":{"density":1},"geometry":{"type":"Polygon","coordinates":[[[-96.529,45.708],[-96.676,45.977],[-96.7,46.136],[-96.773,46.332],[-96.798,46.49],[-96.798,46.661],[-96.847,46.881],[-96.957,47.052],[-97.287,47.236],[-97.445,47.187],[-97.494,47.077],[-97.433,46.784],[-97.103,46.49],[-96.883,46.002],[-96.529,45.501],[-96.529,45.708]]]}},{"type":"Feature","properties":{"density":1},"geometry":{"type":"Polygon","coordinates":[[[-96.222,46.689],[-96.222,46.986],[-96.253,47.173],[-96.355,47.431],[-96.425,47.541],[-96.472,47.549],[-96.59,47.424],[-96.59,47.259],[-96.535,47.127],[-96.269,46.665],[-96.222,46.689]]]}},{"type":"Feature","properties":{"density":2},"geometry":{"type":"Polygon","coordinates":[[[-103.154,19.22],[-103.15,19.315],[-103.088,19.492],[-102.892,19.725],[-102.797,19.764],[-102.644,19.721],[-102.687,19.535],[-102.892,19.387],[-102.983,19.296],[-103.035,19.187],[-103.088,19.172],[-103.154,19.22]]]}},{"type":"Feature","properties":{"density":2},"geometry":{"type":"Polygon","coordinates":[[[-101.652,19.487],[-101.603,19.582],[-101.534,19.646],[-101.476,19.661],[-101.473,19.585],[-101.522,19.521],[-101.622,19.473],[-101.652,19.487]]]}},{"type":"Feature","properties":{"density":2},"geometry":{"type":"Polygon","coordinates":[[[-97.681,27.155],[-98.817,24.198],[-99.634,23.843],[-100.202,22.493],[-100.344,21.569],[-100.06,20.859],[-99.137,20.468],[-97.929,19.367],[-97.183,18.017],[-95.655,17.164],[-94.234,16.418],[-92.848,15.601],[-91.569,15.068],[-90.61,14.784],[-89.899,14.144],[-89.118,13.895],[-88.265,13.576],[-88.088,12.936],[-87.943,12.137],[-86.738,11.87],[-86.063,12.545],[-85.707,14.499],[-85.743,15.956],[-86.276,16.489],[-87.164,16.702],[-88.692,17.413],[-91.925,18.763],[-94.127,20.077],[-94.447,21.818],[-94.163,22.777],[-94.127,24.092],[-95.229,25.975],[-95.877,27.283],[-96.901,27.132],[-97.495,27.214],[-97.681,27.155]]]}},{"type":"Feature","properties":{"density":2},"geometry":{"type":"Polygon","coordinates":[[[-98.022,25.094],[-97.985,24.535],[-98.097,22.782],[-98.097,21.365],[-97.948,20.62],[-97.687,19.799],[-97.239,18.905],[-95.785,17.786],[-94.928,17.488],[-94.741,17.115],[-94.257,16.444],[-93.66,16.034],[-93.325,15.698],[-92.467,15.101],[-92.094,14.057],[-91.833,13.647],[-91.087,12.976],[-90.715,11.671],[-90.081,10.925],[-89.484,10.59],[-88.477,10.664],[-87.322,10.851],[-86.725,12.119],[-86.65,12.864],[-86.389,13.2],[-86.017,13.498],[-84.712,14.244],[-84.413,15.101],[-85.234,15.698],[-86.017,16.145],[-86.576,16.593],[-87.023,17.003],[-87.657,17.637],[-87.769,17.525],[-88.105,17.972],[-88.216,18.383],[-87.62,20.098],[-87.284,20.62],[-87.396,21.365],[-87.657,21.514],[-88.477,21.514],[-89.223,21.365],[-90.304,21.664],[-90.715,22.111],[-91.348,22.857],[-91.759,23.64],[-92.131,25.392],[-92.281,25.951],[-92.504,26.511],[-92.989,27.07],[-93.772,27.48],[-95.077,27.667],[-96.717,27.517],[-97.128,27.331],[-97.351,27.033],[-97.65,25.914],[-98.022,25.094]]]}}]}