{"type":"FeatureCollection","features":[{"type":"Feature","properties":{"density":1},"geometry":{"type":"Polygon","coordinates":[[[-121.988,43.914],[-122.284,44.102],[-122.902,44.263],[-123.037,44.209],[-123.333,43.94],[-123.333,43.779],[-123.225,43.456],[-123.037,43.349],[-122.633,43.349],[-122.445,43.376],[-122.257,43.456],[-122.23,43.564],[-122.096,43.833],[-121.988,43.914]]]}},{"type":"Feature","properties":{"density":1},"geometry":{"type":"Polygon","coordinates":[[[-74.098,36.046],[-78.926,35.006],[-79.894,34.307],[-80.969,33.661],[-81.991,32.828],[-82.825,31.941],[-85.164,30.381],[-86.051,29.87],[-86.574,29.296],[-87.029,29.023],[-87.62,28.563],[-90.902,26.988],[-93.659,25.478],[-94.315,24.822],[-94.643,24.165],[-94.84,23.575],[-94.972,22.918],[-95.365,21.934],[-95.628,21.343],[-96.153,20.949],[-97.532,20.621],[-98.254,21.146],[-99.107,22.393],[-99.763,23.64],[-100.092,24.362],[-100.617,25.675],[-101.798,28.366],[-102.126,29.154],[-102.455,32.764],[-102.323,35.193],[-102.389,36.703],[-102.586,37.359],[-103.177,38.278],[-104.161,39.132],[-105.605,39.919],[-106.524,40.247],[-107.706,40.641],[-108.428,40.773],[-109.347,41.035],[-111.579,42.02],[-112.235,42.348],[-118.708,45.715],[-119.434,46.683],[-119.192,47.651],[-118.09,47.893],[-116.234,47.839],[-113.411,47.032],[-110.938,46.145],[-109.872,45.893],[-108.625,45.63],[-105.737,44.974],[-104.161,44.448],[-101.142,43.398],[-98.385,42.085],[-97.663,41.692],[-96.744,41.035],[-95.562,40.51],[-94.184,40.051],[-93.462,39.985],[-91.69,40.116],[-91.033,40.182],[-86.438,40.97],[-84.469,41.166],[-82.04,41.363],[-78.758,41.495],[-76.526,41.56],[-73.376,41.626],[-71.997,41.626],[-70.75,41.692],[-69.634,41.692],[-66.286,41.823],[-64.252,42.02],[-61.166,42.807],[-56.243,44.186],[-55.39,44.186],[-54.405,43.726],[-53.815,42.282],[-53.749,41.363],[-54.537,39.985],[-55.521,39.263],[-60.51,37.819],[-63.07,37.097],[-66.352,36.506],[-69.503,36.112],[-72.785,36.046],[-74.098,36.046]]]}},{"type":"Feature","properties":{"density":1},"geometry":{"type":"Polygon","coordinates":[[[-103.181,53.107],[-103.996,53.566],[-104.775,54.252],[-106.065,54.786],[-108.202,55.894],[-109.283,56.18],[-110.365,56.311],[-112.175,56.666],[-114.008,56.788],[-117.815,55.933],[-115.189,55.057],[-113.889,53.693],[-112.242,53.579],[-110.845,52.703],[-109.792,51.9],[-108.896,51.327],[-108.26,50.785],[-107.584,49.926],[-106.617,49.315],[-105.472,49.035],[-104.319,48.846],[-103.309,48.552],[-102.011,47.508],[-101.756,46.694],[-102.316,46.337],[-103.945,46.592],[-107.839,46.999],[-109.239,47.712],[-110.511,48.094],[-111.453,48.246],[-114.736,48.246],[-115.907,48.501],[-117.256,48.475],[-118.63,48.246],[-119.877,48.603],[-121.124,48.883],[-122.244,48.424],[-122.906,47.788],[-123.109,47.457],[-124.051,45.625],[-124.305,44.607],[-123.924,43.767],[-123.135,43.309],[-122.091,43.029],[-120.361,42.418],[-118.503,41.425],[-117.612,41.222],[-116.085,41.171],[-114.812,41.527],[-113.413,41.655],[-112.954,41.553],[-112.038,41.247],[-110.791,40.866],[-109.951,40.586],[-107.203,39.949],[-106.159,39.618],[-104.963,39.16],[-104.301,38.804],[-103.735,36.133],[-104.053,33.827],[-104.132,31.918],[-103.934,30.089],[-103.496,28.458],[-102.661,25.516],[-101.786,24.124],[-101.468,23.766],[-100.872,23.209],[-100.076,22.772],[-99.798,22.414],[-99.52,21.817],[-98.684,21.022],[-98.167,20.744],[-96.139,20.982],[-95.463,21.937],[-94.191,23.209],[-93.077,24.362],[-91.288,25.675],[-89.936,26.351],[-88.106,27.146],[-87.033,27.663],[-85.72,28.379],[-84.408,28.617],[-83.891,28.657],[-82.221,29.174],[-81.266,29.731],[-80.645,30.762],[-79.179,32.131],[-76.687,34.085],[-71.947,36.854],[-69.842,37.612],[-64.603,37.286],[-62.605,37.801],[-61.828,38.577],[-56.484,41.536],[-56.429,42.186],[-57.145,42.783],[-60.322,42.544],[-62.627,41.36],[-65.233,41.136],[-67.004,41.136],[-68.511,41.259],[-72.236,41.684],[-75.886,41.684],[-79.071,41.529],[-81.577,41.074],[-84.558,40.047],[-86.449,39.975],[-92.269,42.822],[-94.631,45.591],[-95.904,48.44],[-97.512,51.942],[-98.306,52.344],[-99.219,52.253],[-100.098,51.739],[-101.322,51.893],[-103.181,53.107]]]}},{"type":"Feature","properties":{"density":2},"geometry":{"type":"Polygon","coordinates":[[[-109.405,44.021],[-107.792,43.833],[-106.851,43.806],[-106.421,43.725],[-104.727,43.376],[-104.109,43.188],[-102.469,42.623],[-101.42,42.193],[-100.828,41.87],[-100.318,41.655],[-99.753,41.306],[-99.484,41.09],[-99.135,40.66],[-99.108,40.257],[-99.162,39.854],[-99.538,39.612],[-100.479,39.477],[-101.393,39.746],[-101.985,40.123],[-103.463,41.44],[-104.297,41.87],[-105.561,42.139],[-106.233,41.978],[-106.555,41.763],[-106.932,41.548],[-107.227,41.44],[-107.604,41.548],[-108.088,41.763],[-108.384,41.924],[-109.217,42.515],[-109.701,42.946],[-109.97,42.973],[-110.158,43.026],[-111.234,43.08],[-111.637,43.188],[-111.691,43.268],[-111.691,43.591],[-111.045,43.94],[-110.642,44.021],[-109.97,44.021],[-109.97,43.94],[-109.405,44.021]]]}}]}