{"type":"FeatureCollection","features":[{"type":"Feature","properties":{"density":1},"geometry":{"type":"Polygon","coordinates":[[[-164.663,67.834],[-164.208,67.689],[-162.899,67.216],[-162.589,67.125],[-162.189,66.979],[-161.771,66.707],[-161.425,66.452],[-161.116,66.124],[-160.789,65.67],[-160.37,64.578],[-160.225,64.051],[-159.861,63.323],[-159.497,62.868],[-156.696,61.286],[-154.913,60.34],[-153.331,59.612],[-151.221,58.739],[-150.875,58.63],[-149.82,58.175],[-148.674,57.848],[-146.037,57.284],[-145.636,57.284],[-144.49,56.975],[-143.563,56.502],[-142.744,56.047],[-139.998,54.956],[-139.288,54.519],[-138.579,54.137],[-138.342,53.974],[-137.542,53.646],[-136.432,53.228],[-134.213,52.427],[-133.013,52.1],[-131.339,52.118],[-129.32,52.628],[-128.884,52.828],[-128.229,54.083],[-127.774,54.356],[-127.301,54.974],[-126.537,55.829],[-126.191,56.12],[-125.755,56.375],[-125.391,56.557],[-124.682,56.702],[-124.209,56.648],[-122.281,55.956],[-121.189,55.392],[-120.771,55.247],[-119.116,55.047],[-118.497,54.956],[-117.187,54.628],[-116.187,54.246],[-114.168,53.864],[-111.458,53.555],[-110.275,53.555],[-108.421,52.617],[-107.381,52.428],[-105.066,51.152],[-103.979,50.349],[-100.528,49.167],[-98.78,48.931],[-97.126,48.553],[-94.81,47.844],[-91.738,46.851],[-89.186,45.717],[-87.39,46.001],[-86.681,47.56],[-85.641,48.6],[-85.358,49.12],[-84.79,49.498],[-83.42,50.632],[-81.766,51.247],[-80.189,51.682],[-78.752,51.682],[-77.606,51.609],[-76.497,51.463],[-75.132,51.372],[-73.695,51.336],[-71.494,51.682],[-69.985,51.9],[-68.711,52.118],[-65.692,52.919],[-61.799,54.301],[-60.248,54.7],[-58.452,55.123],[-56.488,55.068],[-53.595,53.958],[-51.849,53.031],[-50.744,51.903],[-48.211,46.209],[-47.847,45.355],[-46.247,43.408],[-44.118,43.263],[-42.118,43.408],[-39.989,43.463],[-38.207,44.136],[-35.442,45.755],[-33.132,48.21],[-31.768,48.865],[-30.385,49.247],[-29.203,49.957],[-26.602,51.266],[-25.001,52.43],[-24.51,53.304],[-24.728,54.322],[-25.237,54.941],[-26.529,56.45],[-27.475,57.433],[-28.421,58.306],[-29.403,59.052],[-31.895,59.634],[-34.533,60.449],[-35.297,60.595],[-36.588,60.54],[-37.497,60.579],[-38.534,60.434],[-40.062,60.307],[-42.172,60.27],[-44.482,60.634],[-46.379,61.293],[-48.211,61.853],[-53.377,64.254],[-56.142,65.691],[-58.998,66.091],[-60.489,65.782],[-62.072,65.109],[-64.036,63.908],[-66.296,63.272],[-69.025,63.294],[-71.117,63.272],[-72.913,63.999],[-76.21,64.681],[-79.666,66.364],[-84.441,68.251],[-92.558,71.093],[-94.996,71.636],[-95.541,71.8],[-96.36,71.927],[-98.452,71.854],[-99.198,71.854],[-101.089,71.672],[-102.308,71.49],[-105.91,71.636],[-110.075,71.345],[-110.803,71.127],[-112.84,71.108],[-113.077,71.127],[-113.586,71.054],[-114.805,71.127],[-116.605,71.199],[-118.315,71.127],[-120.316,71.127],[-122.062,71.036],[-123.463,70.999],[-125.1,70.781],[-129.629,70.217],[-131.648,70.09],[-135.305,69.944],[-139.124,70.199],[-140.398,70.345],[-141.671,70.417],[-143.672,70.672],[-145.327,70.927],[-146.819,71.036],[-148.128,70.836],[-152.039,70.927],[-155.113,70.636],[-158.624,70.345],[-160.207,70.144],[-161.371,69.726],[-163.117,69.326],[-163.881,69.18],[-164.499,68.853],[-164.754,68.635],[-164.79,68.307],[-164.663,67.834]]]}},{"type":"Feature","properties":{"density":1},"geometry":{"type":"Polygon","coordinates":[[[-98.826,19.528],[-98.616,19.121],[-98.582,18.993],[-98.582,18.876],[-98.605,18.748],[-98.733,18.69],[-98.873,18.678],[-99.059,18.702],[-99.362,18.853],[-99.618,19.062],[-99.85,19.225],[-100.374,19.749],[-100.991,19.982],[-101.492,20.401],[-102.458,20.948],[-103.506,21.961],[-104.309,22.881],[-105.357,23.835],[-106.183,24.79],[-107.173,25.593],[-108.069,26.094],[-109.024,26.373],[-110.747,26.373],[-112.249,26.536],[-113.972,26.688],[-114.496,26.618],[-114.705,26.303],[-114.237,25.037],[-113.902,24.324],[-113.523,23.32],[-113.291,22.549],[-112.781,21.807],[-112.534,20.395],[-112.505,19.726],[-112.607,19.188],[-112.723,18.984],[-112.898,18.824],[-113.392,18.285],[-113.814,18.038],[-114.309,17.892],[-114.833,17.645],[-115.459,17.209],[-116.099,16.466],[-116.376,15.753],[-116.143,15.128],[-115.881,14.196],[-115.575,13.44],[-115.299,13.032],[-114.877,12.596],[-114.382,12.275],[-113.975,11.883],[-113.32,11.461],[-112.796,11.271],[-111.443,10.908],[-108.794,10.165],[-106.728,10.005],[-103.555,9.962],[-100.747,10.165],[-93.515,10.267],[-91.39,10.311],[-87.665,10.34],[-86.399,10.515],[-85.918,10.995],[-85.671,11.402],[-85.991,12.305],[-86.108,12.712],[-86.21,13.236],[-86.151,14.735],[-85.395,15.884],[-84.441,16.797],[-83.969,17.016],[-83.277,17.743],[-83.132,18.034],[-82.586,18.98],[-82.568,19.289],[-82.659,19.817],[-82.914,20.435],[-83.041,21.163],[-83.059,21.527],[-83.041,22.327],[-82.695,22.964],[-82.477,23.273],[-81.404,23.964],[-80.658,24.219],[-79.676,24.583],[-78.148,25.092],[-77.002,25.529],[-73.864,26.547],[-72.784,26.945],[-71.221,27.286],[-68.947,28.054],[-67.611,28.878],[-65.849,30.583],[-64.712,32.431],[-63.803,35.926],[-63.519,37.575],[-62.865,38.968],[-62.609,40.531],[-63.49,41.383],[-65.338,41.412],[-67.043,40.559],[-68.123,39.962],[-68.862,39.394],[-69.885,38.74],[-71.306,38.001],[-72.5,37.319],[-73.694,36.807],[-74.887,36.722],[-75.36,36.705],[-76.724,36.752],[-78.838,36.519],[-79.704,36.538],[-80.72,36.426],[-82.005,36.529],[-84.641,36.51],[-85.199,36.482],[-86.457,36.538],[-87.956,36.668],[-89.53,36.613],[-90.61,36.659],[-91.616,36.678],[-92.622,36.65],[-93.19,36.65],[-94.373,36.566],[-95.863,36.026],[-96.18,35.784],[-96.71,34.964],[-97.241,33.735],[-98.005,31.779],[-98.443,30.913],[-98.964,29.833],[-99.728,28.072],[-99.914,27.476],[-100.091,26.191],[-100.026,25.278],[-99.886,24.487],[-99.653,22.605],[-99.672,21.609],[-99.588,21.05],[-99.039,19.905],[-98.983,19.737],[-98.826,19.528]]]}},{"type":"Feature","properties":{"density":1},"geometry":{"type":"Polygon","coordinates":[[[-118.725,36.741],[-118.873,36.752],[-119.114,36.703],[-119.175,36.634],[-119.255,36.447],[-119.32,36.409],[-119.465,36.363],[-119.571,36.359],[-119.61,36.378],[-119.648,36.424],[-119.671,36.493],[-119.671,36.577],[-119.705,36.76],[-119.709,36.973],[-119.693,37.092],[-119.598,37.179],[-119.384,37.187],[-119.285,37.176],[-119.06,37.042],[-118.808,36.973],[-118.633,36.973],[-118.45,36.905],[-118.419,36.802],[-118.499,36.737],[-118.675,36.733],[-118.725,36.741]]]}},{"type":"Feature","properties":{"density":1},"geometry":{"type":"Polygon","coordinates":[[[-125.564,53.081],[-132.352,54.05],[-150.971,57.25],[-155.141,57.347],[-159.99,59.481],[-162.123,61.905],[-162.22,65.881],[-161.347,68.499],[-159.214,68.984],[-153.88,70.924],[-148.353,71.7],[-141.855,72.766],[-107.817,73.93],[-76.398,73.251],[-57.585,71.991],[-55.936,71.506],[-53.997,69.857],[-52.348,66.948],[-50.118,64.621],[-46.724,62.487],[-43.621,62.099],[-41.39,62.293],[-39.16,62.972],[-30.82,64.911],[-23.838,65.396],[-21.123,65.008],[-18.795,62.778],[-17.341,58.899],[-16.759,55.602],[-16.759,53.662],[-18.989,50.559],[-22.771,49.493],[-29.172,48.329],[-35.281,49.008],[-39.839,51.044],[-45.754,54.438],[-47.015,55.02],[-54.191,56.184],[-61.27,55.505],[-66.119,54.05],[-70.676,52.305],[-75.525,50.268],[-80.083,47.65],[-79.598,46.971],[-81.925,43.674],[-86.58,42.316],[-90.556,41.25],[-91.817,40.959],[-96.665,42.22],[-99.866,45.808],[-101.126,46.583],[-104.908,48.717],[-112.181,50.365],[-117.806,51.82],[-122.461,53.081],[-125.564,53.081]]]}},{"type":"Feature","properties":{"density":1},"geometry":{"type":"Polygon","coordinates":[[[-95.793,36.207],[-86.095,37.759],[-78.337,39.31],[-71.161,40.862],[-63.597,42.22],[-58.555,42.413],[-55.839,41.929],[-52.93,40.28],[-52.251,37.468],[-52.348,35.14],[-53.124,33.589],[-53.803,32.328],[-60.785,29.419],[-70.289,26.51],[-73.78,24.376],[-75.525,23.213],[-76.98,21.079],[-79.113,17.2],[-80.568,13.224],[-82.798,10.024],[-83.283,9.442],[-88.52,8.085],[-98.023,7.6],[-110.048,8.57],[-114.8,10.315],[-117.321,11.867],[-118.679,15.552],[-118.873,19.237],[-118.776,20.982],[-118.194,25.249],[-116.06,28.837],[-113.927,30.001],[-111.696,31.068],[-110.242,30.389],[-108.69,29.225],[-107.527,28.934],[-105.393,29.128],[-103.163,30.389],[-100.447,32.328],[-98.993,34.268],[-97.635,35.431],[-97.344,35.819],[-95.793,36.207]]]}},{"type":"Feature","properties":{"density":1},"geometry":{"type":"Polygon","coordinates":[[[-119.382,36.824],[-119.541,36.957],[-119.65,37.207],[-119.642,37.493],[-119.5,37.692],[-119.348,37.763],[-119.128,37.823],[-118.894,37.717],[-118.628,37.363],[-118.449,36.969],[-118.448,36.71],[-118.508,36.65],[-118.748,36.623],[-118.915,36.657],[-119.001,36.703],[-119.168,36.75],[-119.382,36.824]]]}},{"type":"Feature","properties":{"density":1},"geometry":{"type":"Polygon","coordinates":[[[-119.997,38.004],[-119.926,38.045],[-119.816,38.162],[-119.816,38.249],[-119.844,38.296],[-119.947,38.301],[-120.027,38.268],[-120.062,38.184],[-120.059,38.105],[-120.024,38.009],[-119.997,38.004]]]}},{"type":"Feature","properties":{"density":2},"geometry":{"type":"Polygon","coordinates":[[[-121.641,57.596],[-123.488,58.187],[-125.777,58.999],[-129.026,60.107],[-133.383,60.845],[-138.405,61.289],[-142.835,61.805],[-145.715,62.322],[-149.925,62.47],[-153.469,62.101],[-159.451,63.43],[-161.149,66.975],[-160.041,68.23],[-156.054,69.485],[-151.549,69.116],[-148.965,69.264],[-143.721,68.378],[-132.792,68.082],[-124.005,68.378],[-117.137,69.559],[-110.121,69.412],[-99.857,68.821],[-89.223,67.861],[-84.866,67.049],[-82.798,65.941],[-80.583,62.322],[-80.288,58.63],[-80.657,55.602],[-82.281,53.239],[-83.389,52.722],[-86.86,51.91],[-90.257,52.575],[-92.546,54.052],[-95.131,56.193],[-97.125,57.005],[-98.971,57.818],[-102.146,57.67],[-103.918,56.636],[-106.429,55.455],[-108.94,54.642],[-111.598,53.978],[-113.666,54.199],[-117.285,54.864],[-119.5,55.972],[-120.681,56.932],[-121.641,57.596]]]}},{"type":"Feature","properties":{"density":2},"geometry":{"type":"Polygon","coordinates":[[[-115.679,57.307],[-121.041,57.038],[-124.167,57.622],[-131.66,60.177],[-137.323,61.419],[-141.978,62.272],[-148.262,62.505],[-154.003,62.35],[-157.339,62.35],[-161.218,63.591],[-163.623,65.22],[-163.933,67.004],[-163.002,69.177],[-158.27,70.263],[-153.925,70.34],[-148.65,70.185],[-143.374,70.651],[-139.806,71.426],[-128.634,72.125],[-119.014,72.202],[-113.196,71.892],[-107.921,71.737],[-101.482,70.728],[-89.302,68.013],[-83.406,65.298],[-78.906,60.488],[-75.803,56.376],[-75.26,54.436],[-75.725,52.652],[-77.587,51.644],[-81.001,51.411],[-84.802,53.118],[-87.517,54.204],[-94.189,55.135],[-97.37,55.212],[-99.387,54.98],[-103.731,55.135],[-106.524,56.066],[-111.334,56.997],[-112.194,57.038],[-114.456,57.241],[-115.679,57.307]]]}},{"type":"Feature","properties":{"density":2},"geometry":{"type":"Polygon","coordinates":[[[-119.18,36.849],[-119.246,36.868],[-119.287,36.901],[-119.322,37.067],[-119.159,37.141],[-119.025,37.002],[-118.902,36.975],[-118.872,36.925],[-118.864,36.868],[-118.902,36.83],[-119.036,36.833],[-119.15,36.857],[-119.18,36.849]]]}},{"type":"Feature","properties":{"density":3},"geometry":{"type":"Polygon","coordinates":[[[-122.792,58.927],[-123.548,59.411],[-123.276,60.289],[-122.701,60.924],[-121.733,61.468],[-119.011,62.436],[-117.378,62.829],[-116.924,63.858],[-117.529,64.342],[-119.071,64.463],[-121.279,63.979],[-125.575,63.495],[-129.114,63.223],[-132.713,62.587],[-136.615,62.164],[-138.883,61.952],[-140.456,62.255],[-141.727,62.678],[-143.269,63.858],[-144.6,64.13],[-145.78,64.009],[-146.687,64.16],[-147.111,64.1],[-147.867,63.949],[-149.803,63.737],[-150.74,63.525],[-152.132,62.708],[-152.555,62.678],[-153.493,62.769],[-155.399,63.192],[-156.82,63.465],[-157.183,63.797],[-157.123,64.735],[-157.002,65.491],[-156.155,66.126],[-155.066,66.58],[-154.31,66.852],[-154.158,66.883],[-152.465,65.37],[-151.799,65.219],[-150.045,65.582],[-148.684,66.036],[-147.685,66.187],[-144.207,67.094],[-141.485,67.941],[-141.122,68.032],[-140.517,67.911],[-139.246,67.306],[-138.218,66.671],[-135.042,66.429],[-132.925,66.338],[-130.149,66.491],[-128.582,66.773],[-127.164,67.387],[-125.272,67.776],[-123.268,68.079],[-121.871,68.049],[-121.682,67.907],[-120.217,66.914],[-117.996,66.347],[-116.578,65.875],[-113.411,65.78],[-106.7,66.206],[-103.959,66.3],[-101.36,66.584],[-99.469,66.3],[-98.146,65.591],[-97.39,63.937],[-97.626,62.425],[-98.902,60.96],[-100.698,60.629],[-103.392,60.345],[-105.519,59.683],[-106.417,58.785],[-106.889,57.746],[-106.824,56.097],[-106.906,55.538],[-107.756,55.057],[-110.422,55.671],[-111.78,56.682],[-112.146,57.624],[-111.938,58.357],[-112.672,58.962],[-113.553,59.305],[-114.735,59.4],[-116.058,59.164],[-119.035,58.927],[-119.603,58.785],[-120.406,58.313],[-121.588,58.266],[-122.06,58.407],[-122.792,58.927]]]}},{"type":"Feature","properties":{"density":3},"geometry":{"type":"Polygon","coordinates":[[[-136.573,62.961],[-136.954,62.961],[-137.463,62.63],[-137.666,62.427],[-138.607,62.427],[-139.318,62.401],[-140.259,62.122],[-141.327,62.376],[-142.776,62.656],[-145.14,62.884],[-146.767,63.24],[-148.317,63.393],[-149.461,63.418],[-150.173,63.266],[-151.317,63.088],[-152.003,62.91],[-153.122,62.859],[-153.834,62.859],[-154.368,63.062],[-154.902,63.596],[-154.825,64.562],[-153.198,65.91],[-150.351,67.003],[-147.224,67.308],[-144.86,67.714],[-142.242,67.994],[-140.233,68.147],[-138.301,68.147],[-133.446,68.782],[-131.336,68.528],[-128.692,67.714],[-128.006,67.359],[-127.014,66.113],[-126.811,64.511],[-127.192,63.418],[-127.828,63.012],[-129.252,62.757],[-133.243,62.961],[-134.361,62.961],[-134.819,63.062],[-135.556,63.113],[-136.217,63.215],[-136.573,62.961]]]}},{"type":"Feature","properties":{"density":3},"geometry":{"type":"Polygon","coordinates":[[[-119.769,58.893],[-119.871,58.309],[-120.1,58.08],[-120.456,57.876],[-120.99,57.724],[-121.727,57.622],[-122.769,57.8],[-123.405,58.258],[-123.735,58.359],[-124.244,59.097],[-124.091,60.114],[-123.659,60.774],[-121.142,61.944],[-118.397,62.605],[-116.516,63.571],[-113.287,63.672],[-110.542,63.672],[-108.254,63.774],[-103.983,63.927],[-99.814,63.85],[-96.077,63.545],[-94.12,62.783],[-92.772,61.537],[-93.255,60.215],[-94.399,59.808],[-97.297,59.478],[-99.788,59.376],[-102.432,59.656],[-104.135,60.114],[-106.042,60.597],[-107.288,60.749],[-109.118,60.444],[-110.287,60.393],[-111.38,60.52],[-112.016,60.241],[-112.346,59.529],[-113.236,58.919],[-114.533,59.249],[-116.16,59.605],[-117.227,59.631],[-118.371,59.427],[-119.109,59.503],[-119.541,59.402],[-119.693,59.3],[-119.769,58.893]]]}}]}