{"type":"FeatureCollection","features":[{"type":"Feature","properties":{"density":1},"geometry":{"type":"Polygon","coordinates":[[[-98.562,19.006],[-98.75,18.944],[-98.979,18.986],[-99.229,19.142],[-99.395,19.298],[-99.614,19.673],[-99.874,19.985],[-100.02,20.318],[-99.989,20.693],[-99.822,21.11],[-99.583,21.505],[-99.385,21.912],[-99.302,22.203],[-99.291,22.443],[-99.25,22.682],[-99.156,22.89],[-98.979,23.067],[-98.76,23.13],[-98.542,23.099],[-98.375,22.984],[-98.198,22.568],[-98.063,22.318],[-97.584,21.276],[-97.354,21.026],[-97.198,20.902],[-96.99,20.693],[-96.834,20.381],[-96.813,20.121],[-96.813,19.881],[-96.907,19.735],[-97.063,19.652],[-97.094,19.652],[-97.219,19.715],[-97.292,19.85],[-97.479,20.037],[-97.584,20.11],[-97.792,20.183],[-97.948,20.193],[-98.167,20.048],[-98.375,19.85],[-98.458,19.631],[-98.5,19.381],[-98.5,19.09],[-98.562,19.006]]]}},{"type":"Feature","properties":{"density":1},"geometry":{"type":"Polygon","coordinates":[[[-96.417,15.841],[-96.072,15.727],[-95.639,15.511],[-95.422,15.361],[-95.231,15.194],[-95.073,14.861],[-94.906,14.661],[-94.789,14.478],[-94.664,14.336],[-94.456,14.145],[-94.382,14.129],[-94.318,14.206],[-94.256,14.578],[-94.17,14.814],[-94.039,14.967],[-93.796,15.044],[-93.534,14.978],[-93.351,14.784],[-93.302,14.547],[-93.298,14.253],[-93.307,14.144],[-93.365,13.936],[-93.506,13.678],[-93.643,13.502],[-93.781,13.361],[-93.931,13.245],[-94.306,13.237],[-94.564,13.345],[-94.839,13.616],[-95.073,13.97],[-95.331,14.494],[-95.791,14.994],[-95.992,15.12],[-96.705,15.427],[-96.905,15.619],[-96.922,15.727],[-96.891,15.823],[-96.801,15.878],[-96.638,15.886],[-96.417,15.841]]]}},{"type":"Feature","properties":{"density":1},"geometry":{"type":"Polygon","coordinates":[[[-80.62,26.736],[-80.707,26.694],[-80.763,26.707],[-80.765,26.739],[-80.749,26.75],[-80.63,26.746],[-80.62,26.736]]]}},{"type":"Feature","properties":{"density":1},"geometry":{"type":"Polygon","coordinates":[[[-80.606,26.877],[-80.726,26.799],[-80.803,26.793],[-80.841,26.834],[-80.825,26.87],[-80.778,26.887],[-80.614,26.881],[-80.606,26.877]]]}},{"type":"Feature","properties":{"density":1},"geometry":{"type":"Polygon","coordinates":[[[-81.15,26.869],[-81.249,26.856],[-81.284,26.87],[-81.285,26.89],[-81.252,26.909],[-81.148,26.88],[-81.15,26.869]]]}},{"type":"Feature","properties":{"density":1},"geometry":{"type":"Polygon","coordinates":[[[-80.729,26.638],[-80.828,26.623],[-80.842,26.647],[-80.814,26.665],[-80.732,26.642],[-80.729,26.638]]]}},{"type":"Feature","properties":{"density":1},"geometry":{"type":"Polygon","coordinates":[[[-81.179,26.696],[-81.281,26.685],[-81.296,26.699],[-81.292,26.714],[-81.248,26.72],[-81.178,26.701],[-81.179,26.696]]]}},{"type":"Feature","properties":{"density":1},"geometry":{"type":"Polygon","coordinates":[[[-74.298,41.194],[-74.216,40.62],[-74.183,40.56],[-74.139,40.528],[-74.03,40.539],[-73.992,40.569],[-73.954,40.64],[-73.954,40.754],[-73.992,40.847],[-74.254,41.207],[-74.276,41.207],[-74.298,41.194]]]}},{"type":"Feature","properties":{"density":1},"geometry":{"type":"Polygon","coordinates":[[[-86.218,33.498],[-86.213,33.586],[-86.197,33.6],[-86.158,33.527],[-86.159,33.5],[-86.203,33.479],[-86.219,33.493],[-86.218,33.498]]]}},{"type":"Feature","properties":{"density":1},"geometry":{"type":"Polygon","coordinates":[[[-86.546,31.07],[-86.565,31.161],[-86.553,31.183],[-86.533,31.185],[-86.51,31.149],[-86.534,31.073],[-86.546,31.07]]]}},{"type":"Feature","properties":{"density":1},"geometry":{"type":"Polygon","coordinates":[[[-85.873,31.426],[-85.812,31.432],[-85.715,31.472],[-85.665,31.525],[-85.664,31.559],[-85.682,31.575],[-85.751,31.562],[-85.83,31.5],[-85.876,31.432],[-85.873,31.426]]]}},{"type":"Feature","properties":{"density":1},"geometry":{"type":"Polygon","coordinates":[[[-95.703,23.436],[-96.424,24.227],[-97.053,24.739],[-97.507,24.844],[-97.903,24.844],[-98.368,24.751],[-98.985,24.297],[-99.405,23.785],[-99.556,23.168],[-99.428,22.481],[-99.218,21.969],[-98.566,20.968],[-97.414,19.931],[-96.971,19.64],[-96.715,19.419],[-96.273,18.942],[-95.668,18.721],[-95.19,18.919],[-95.051,19.198],[-95.062,19.466],[-95.225,19.873],[-95.365,20.304],[-95.33,21.48],[-95.737,22.167],[-95.959,22.656],[-95.924,22.993],[-95.831,23.144],[-95.784,23.296],[-95.703,23.342],[-95.703,23.436]]]}}]}