{"type":"FeatureCollection","features":[{"type":"Feature","properties":{"density":1},"geometry":{"type":"Polygon","coordinates":[[[-91.435,14.413],[-92.559,14.163],[-93.466,13.419],[-94.194,12.379],[-94.913,11.537],[-96.92,10.546],[-98.604,10.571],[-99.843,11.24],[-100.241,11.967],[-100.041,12.677],[-99.37,13.032],[-98.305,13.322],[-97.58,13.806],[-97.047,14.483],[-96.612,15.209],[-95.886,15.645],[-95.644,16.322],[-94.531,16.656],[-93.617,16.89],[-93.364,17.346],[-93.983,18.209],[-93.648,18.706],[-93.049,18.544],[-92.085,18.189],[-91.05,18.27],[-90.197,18.96],[-89.982,19.951],[-89.111,21.161],[-88.337,22.516],[-87.387,22.766],[-86.974,22.005],[-86.74,21.161],[-86.643,20.145],[-87.176,19.177],[-87.264,18.158],[-88.24,17.242],[-91.78,16.179],[-92.044,15.56],[-91.709,15.124],[-90.979,15.012],[-90.989,14.667],[-91.435,14.413]]]}},{"type":"Feature","properties":{"density":1},"geometry":{"type":"Polygon","coordinates":[[[-79.377,35.077],[-79.292,35.124],[-79.001,35.2],[-78.963,35.179],[-78.937,35.13],[-78.958,35.096],[-79.033,35.062],[-79.137,35.045],[-79.247,35.056],[-79.357,35.037],[-79.377,35.077]]]}},{"type":"Feature","properties":{"density":1},"geometry":{"type":"Polygon","coordinates":[[[-80.467,26.431],[-80.358,26.685],[-80.388,26.81],[-80.449,26.889],[-80.562,26.944],[-80.751,26.996],[-80.937,27.002],[-81.591,26.969],[-81.887,26.911],[-81.984,26.874],[-82.048,26.831],[-82.094,26.767],[-82.125,26.639],[-82.128,26.608],[-82.103,26.55],[-81.963,26.459],[-81.871,26.419],[-81.661,26.367],[-81.49,26.343],[-81.34,26.325],[-80.977,26.334],[-80.498,26.398],[-80.467,26.422],[-80.467,26.431]]]}},{"type":"Feature","properties":{"density":1},"geometry":{"type":"Polygon","coordinates":[[[-80.894,27.692],[-80.906,27.729],[-80.943,27.766],[-81.141,27.808],[-81.224,27.811],[-81.266,27.75],[-81.242,27.726],[-81.153,27.692],[-80.967,27.662],[-80.94,27.662],[-80.909,27.686],[-80.894,27.692]]]}},{"type":"Feature","properties":{"density":1},"geometry":{"type":"Polygon","coordinates":[[[-81.318,27.683],[-81.388,27.781],[-81.572,27.891],[-81.785,27.976],[-81.843,27.982],[-81.901,27.952],[-81.919,27.924],[-81.919,27.888],[-81.889,27.83],[-81.776,27.738],[-81.669,27.683],[-81.517,27.64],[-81.358,27.64],[-81.324,27.674],[-81.318,27.683]]]}},{"type":"Feature","properties":{"density":1},"geometry":{"type":"Polygon","coordinates":[[[-83.551,30.399],[-83.555,30.42],[-83.528,30.434],[-83.518,30.403],[-83.545,30.397],[-83.551,30.399]]]}},{"type":"Feature","properties":{"density":1},"geometry":{"type":"Polygon","coordinates":[[[-79.137,37.962],[-79.137,37.983],[-79.067,38.029],[-78.673,38.093],[-78.16,38.099],[-78.105,38.066],[-78.093,38.023],[-78.108,37.989],[-78.175,37.956],[-78.551,37.886],[-78.862,37.87],[-79.076,37.904],[-79.134,37.94],[-79.137,37.962]]]}},{"type":"Feature","properties":{"density":1},"geometry":{"type":"Polygon","coordinates":[[[-105.915,46.096],[-105.919,46.135],[-105.892,46.138],[-105.644,46.096],[-104.988,45.749],[-104.934,45.7],[-104.923,45.646],[-104.954,45.639],[-105.118,45.685],[-105.888,46.07],[-105.915,46.096]]]}},{"type":"Feature","properties":{"density":1},"geometry":{"type":"Polygon","coordinates":[[[-110.28,34.177],[-110.191,34.28],[-109.972,34.424],[-109.865,34.467],[-109.801,34.457],[-109.807,34.424],[-109.84,34.384],[-109.917,34.335],[-110.112,34.241],[-110.188,34.183],[-110.252,34.164],[-110.271,34.183],[-110.28,34.177]]]}},{"type":"Feature","properties":{"density":1},"geometry":{"type":"Polygon","coordinates":[[[-120.433,38.401],[-120.46,38.409],[-120.452,38.436],[-120.404,38.455],[-120.396,38.421],[-120.413,38.404],[-120.433,38.401]]]}},{"type":"Feature","properties":{"density":1},"geometry":{"type":"Polygon","coordinates":[[[-98.597,20.664],[-99.188,21.256],[-99.438,21.71],[-99.552,22.415],[-99.552,23.688],[-99.438,24.12],[-98.87,24.734],[-98.347,25.189],[-97.733,25.803],[-97.074,26.371],[-96.551,26.712],[-95.959,27.031],[-95.186,27.417],[-94.777,27.531],[-94.209,27.576],[-94.004,27.508],[-93.572,27.326],[-93.299,26.963],[-93.299,26.394],[-93.345,25.712],[-93.458,25.075],[-93.481,24.052],[-93.436,23.188],[-93.299,22.529],[-93.004,21.665],[-92.799,21.21],[-92.276,20.983],[-91.298,20.983],[-90.48,20.778],[-90.025,20.028],[-90.002,19.186],[-90.116,18.527],[-90.684,17.981],[-91.548,17.549],[-93.004,17.004],[-94.072,16.754],[-95.118,16.844],[-96.005,17.299],[-96.551,17.845],[-96.869,18.527],[-97.051,19.027],[-97.187,19.323],[-97.369,19.573],[-97.687,19.959],[-98.074,20.255],[-98.438,20.596],[-98.597,20.664]]]}},{"type":"Feature","properties":{"density":1},"geometry":{"type":"Polygon","coordinates":[[[-96.255,16.253],[-96.778,16.253],[-97.324,16.435],[-97.665,16.685],[-97.892,17.049],[-98.188,17.163],[-98.711,17.231],[-99.347,17.231],[-100.552,17.618],[-101.144,17.731],[-101.621,17.549],[-101.985,16.913],[-102.349,16.026],[-102.917,15.298],[-103.554,14.753],[-104.736,14.139],[-106.191,13.593],[-107.055,13.479],[-107.51,13.252],[-107.76,12.934],[-107.828,12.365],[-107.692,11.547],[-107.351,10.978],[-106.691,10.387],[-105.805,10.114],[-104.213,9.887],[-102.03,10.091],[-100.052,9.773],[-96.846,9.887],[-95.618,10.069],[-94.663,10.387],[-93.708,11.046],[-92.776,11.933],[-91.935,12.661],[-91.139,13.32],[-90.934,13.775],[-90.707,14.571],[-91.094,15.003],[-91.98,15.526],[-92.981,15.867],[-93.959,16.458],[-94.504,16.663],[-95.641,16.708],[-95.982,16.435],[-96.073,16.321],[-96.255,16.253]]]}},{"type":"Feature","properties":{"density":2},"geometry":{"type":"Polygon","coordinates":[[[-81.307,35.209],[-80.854,35.247],[-80.707,35.235],[-80.264,35.281],[-80.022,35.329],[-79.826,35.409],[-79.746,35.519],[-79.75,35.544],[-80.286,35.5],[-80.353,35.49],[-80.444,35.447],[-80.72,35.452],[-80.821,35.439],[-80.96,35.397],[-81.122,35.285],[-81.312,35.222],[-81.307,35.209]]]}},{"type":"Feature","properties":{"density":2},"geometry":{"type":"Polygon","coordinates":[[[-79.104,37.958],[-79.065,37.956],[-78.946,38.015],[-78.808,38.004],[-78.735,38.06],[-78.78,38.09],[-78.878,38.085],[-79.055,38.017],[-79.125,37.968],[-79.104,37.958]]]}},{"type":"Feature","properties":{"density":2},"geometry":{"type":"Polygon","coordinates":[[[-110.294,34.205],[-110.168,34.306],[-110.08,34.311],[-110.031,34.256],[-109.995,34.181],[-110.068,34.166],[-110.183,34.186],[-110.288,34.185],[-110.294,34.205]]]}},{"type":"Feature","properties":{"density":2},"geometry":{"type":"Polygon","coordinates":[[[-79.137,37.949],[-79.03,37.953],[-78.979,37.936],[-78.872,37.964],[-78.71,37.942],[-78.668,37.963],[-78.587,38.07],[-78.644,38.099],[-79.067,38.015],[-79.135,37.995],[-79.135,37.971],[-79.137,37.949]]]}},{"type":"Feature","properties":{"density":2},"geometry":{"type":"Polygon","coordinates":[[[-79.118,37.97],[-79.096,38.007],[-78.997,38.036],[-78.772,38.048],[-78.641,38.04],[-78.581,38.018],[-78.59,37.985],[-78.637,37.973],[-78.876,37.944],[-79.012,37.934],[-79.11,37.96],[-79.118,37.97]]]}},{"type":"Feature","properties":{"density":3},"geometry":{"type":"Polygon","coordinates":[[[-79.106,37.973],[-79.034,38.011],[-78.907,38.011],[-78.876,37.989],[-78.895,37.96],[-79.1,37.96],[-79.108,37.971],[-79.106,37.973]]]}}]}