{"type":"FeatureCollection","features":[{"type":"Feature","properties":{"density":1},"geometry":{"type":"Polygon","coordinates":[[[-101.999,27.005],[-101.885,26.664],[-101.641,26.094],[-101.543,25.622],[-101.543,25.443],[-101.494,25.053],[-101.478,24.418],[-101.511,23.882],[-101.722,23.426],[-101.982,23.231],[-102.487,23.036],[-102.861,22.97],[-103.105,23.101],[-103.512,23.198],[-104.081,23.296],[-104.667,23.328],[-104.943,23.361],[-105.871,23.312],[-106.993,22.954],[-107.481,22.743],[-108.653,22.189],[-109.418,21.75],[-110.719,20.286],[-111.142,19.668],[-111.5,19.066],[-111.76,18.594],[-112.574,17.488],[-112.867,17.162],[-113.387,16.495],[-114.168,15.844],[-114.624,15.486],[-115.177,14.917],[-115.974,14.169],[-116.479,13.632],[-117.081,13.062],[-117.52,12.867],[-117.91,12.672],[-118.724,12.135],[-119.147,11.614],[-119.407,11.045],[-119.521,10.589],[-119.586,10.248],[-119.521,9.792],[-119.44,9.548],[-119.326,9.288],[-119.0,9.044],[-117.634,8.848],[-116.397,8.783],[-115.063,8.783],[-114.608,8.67],[-112.899,8.637],[-110.979,8.556],[-108.1,8.637],[-105.106,8.507],[-101.039,8.832],[-98.745,8.946],[-93.75,8.881],[-89.715,9.044],[-88.446,9.011],[-85.127,9.044],[-84.672,9.174],[-84.314,9.369],[-83.63,9.971],[-83.386,10.427],[-83.24,10.947],[-83.126,11.81],[-82.898,12.428],[-82.443,13.144],[-82.068,13.843],[-81.906,14.38],[-81.792,14.917],[-81.776,15.454],[-81.792,15.942],[-82.134,16.967],[-82.573,18.708],[-83.11,20.4],[-83.11,20.807],[-83.191,21.148],[-83.142,21.62],[-82.955,22.057],[-82.448,22.643],[-82.022,23.016],[-81.635,23.27],[-81.196,23.496],[-80.583,23.709],[-79.75,23.859],[-79.151,23.909],[-78.476,24.034],[-77.768,24.125],[-76.684,24.402],[-76.044,24.516],[-75.305,24.769],[-74.745,25.022],[-74.292,25.262],[-74.032,25.482],[-73.512,26.088],[-73.499,26.615],[-73.819,26.891],[-74.372,26.868],[-75.31,26.616],[-77.564,26.162],[-79.603,25.897],[-80.678,25.522],[-81.494,25.147],[-82.044,25.022],[-82.76,25.089],[-83.451,25.281],[-84.368,25.497],[-84.868,25.747],[-85.259,26.355],[-85.542,27.022],[-85.667,28.471],[-85.859,29.129],[-86.167,29.612],[-86.591,30.064],[-87.128,30.259],[-87.795,30.357],[-88.983,30.503],[-89.601,30.552],[-90.252,30.666],[-91.082,30.764],[-91.44,30.894],[-92.725,31.431],[-93.278,31.691],[-94.043,32.016],[-94.287,32.309],[-94.677,32.651],[-94.905,32.944],[-95.393,33.399],[-95.534,33.685],[-95.576,33.851],[-95.628,33.924],[-95.659,34.122],[-95.753,34.247],[-96.295,34.789],[-96.367,35.007],[-96.326,35.268],[-96.034,35.601],[-95.847,35.872],[-95.649,36.215],[-95.368,37.017],[-95.274,37.496],[-95.243,38.162],[-95.378,38.464],[-95.534,38.464],[-96.159,38.308],[-97.315,37.839],[-97.742,37.631],[-98.221,37.433],[-98.752,37.183],[-99.387,36.652],[-100.116,35.976],[-101.563,35.122],[-102.042,34.539],[-102.636,33.633],[-102.844,33.206],[-103.021,32.654],[-103.094,32.081],[-103.229,31.748],[-103.812,30.728],[-104.104,30.041],[-104.208,29.447],[-104.104,28.926],[-103.906,28.51],[-103.073,27.646],[-102.657,27.417],[-102.157,27.177],[-101.999,27.005]]]}},{"type":"Feature","properties":{"density":1},"geometry":{"type":"Polygon","coordinates":[[[-147.383,68.024],[-146.846,68.365],[-145.869,68.805],[-144.91,69.179],[-143.868,69.521],[-143.299,69.683],[-142.681,69.781],[-141.916,70.025],[-140.793,70.106],[-139.589,69.976],[-137.832,69.7],[-136.71,69.325],[-135.994,69.065],[-135.083,68.902],[-133.667,68.74],[-132.935,68.679],[-131.41,68.272],[-129.885,68.069],[-128.842,67.992],[-125.716,68.424],[-123.936,68.501],[-123.173,68.73],[-122.665,68.857],[-121.724,69.162],[-121.247,69.416],[-120.791,69.627],[-120.482,69.806],[-120.01,69.985],[-119.489,70.083],[-118.611,70.099],[-118.074,70.034],[-117.244,69.969],[-115.975,69.741],[-114.706,69.66],[-113.958,69.562],[-113.437,69.221],[-113.437,69.042],[-113.519,68.895],[-113.893,68.667],[-114.43,68.537],[-115.65,67.691],[-115.975,67.366],[-116.284,66.748],[-116.431,65.885],[-116.219,64.991],[-116.236,64.372],[-116.496,63.656],[-116.886,63.445],[-117.423,63.445],[-118.692,63.819],[-119.18,63.754],[-119.392,63.526],[-119.327,63.022],[-118.904,62.697],[-117.857,61.945],[-117.457,61.598],[-116.984,61.297],[-116.724,61.037],[-116.512,60.712],[-116.317,59.921],[-116.138,59.495],[-115.851,59.148],[-115.191,58.588],[-114.285,58.208],[-113.649,57.848],[-113.096,57.376],[-112.721,57.149],[-112.152,56.677],[-111.241,56.091],[-110.456,55.653],[-109.519,54.984],[-109.04,54.62],[-108.246,54.335],[-107.449,54.27],[-106.18,54.091],[-105.545,54.026],[-105.35,54.026],[-102.779,53.522],[-100.501,53.684],[-99.574,53.961],[-98.842,54.221],[-97.638,54.742],[-97.166,55.019],[-96.483,55.246],[-95.995,55.474],[-95.653,55.783],[-95.295,55.995],[-94.384,56.206],[-93.392,56.483],[-92.171,56.711],[-91.39,56.727],[-89.764,56.597],[-88.511,56.678],[-86.672,56.222],[-85.729,55.946],[-85.078,55.621],[-84.102,54.888],[-83.5,54.482],[-82.524,53.945],[-81.987,53.88],[-81.255,54.042],[-80.571,54.4],[-80.116,54.807],[-79.611,55.49],[-78.977,56.304],[-77.838,56.548],[-77.529,56.499],[-76.178,56.141],[-75.511,55.621],[-75.625,54.84],[-75.772,54.189],[-75.967,53.701],[-76.211,52.269],[-76.341,51.911],[-76.715,51.146],[-77.171,50.398],[-78.245,49.259],[-79.384,48.511],[-80.945,47.73],[-82.621,47.063],[-83.597,46.51],[-84.33,46.2],[-85.094,46.152],[-85.712,46.152],[-88.739,46.249],[-89.552,46.412],[-90.723,46.737],[-92.188,47.225],[-93.668,47.876],[-95.23,48.267],[-96.336,48.315],[-97.264,48.104],[-97.915,48.104],[-100.111,48.348],[-102.063,48.722],[-105.122,49.227],[-107.009,49.406],[-108.636,49.536],[-112.02,50.284],[-112.913,50.788],[-113.621,51.538],[-114.168,52.529],[-115.329,53.703],[-116.153,54.335],[-117.568,54.984],[-118.526,55.307],[-118.951,55.507],[-119.64,55.796],[-120.448,56.45],[-120.903,56.873],[-121.88,57.166],[-122.758,57.361],[-122.937,57.378],[-123.686,57.378],[-124.206,57.524],[-124.824,57.882],[-126.11,58.5],[-127.802,58.63],[-128.957,59.053],[-129.477,59.607],[-130.356,60.306],[-130.812,60.583],[-132.536,61.738],[-133.041,62.047],[-133.708,62.649],[-134.749,63.186],[-135.465,63.902],[-136.002,65.057],[-136.571,65.724],[-137.726,65.854],[-138.816,65.675],[-139.337,65.61],[-140.964,65.22],[-141.989,64.894],[-143.29,64.439],[-144.055,64.227],[-145.243,63.951],[-146.17,63.885],[-146.821,63.934],[-147.423,64.292],[-148.236,64.731],[-148.838,64.959],[-149.261,65.268],[-149.505,65.691],[-149.375,66.245],[-149.05,66.684],[-148.187,67.188],[-147.52,67.871],[-147.383,68.024]]]}},{"type":"Feature","properties":{"density":1},"geometry":{"type":"Polygon","coordinates":[[[-106.737,36.289],[-106.578,36.338],[-106.322,36.345],[-105.986,36.331],[-105.948,36.319],[-105.892,36.26],[-105.878,36.207],[-105.899,36.164],[-105.948,36.137],[-106.156,36.137],[-106.605,36.221],[-106.739,36.277],[-106.737,36.289]]]}},{"type":"Feature","properties":{"density":1},"geometry":{"type":"Polygon","coordinates":[[[-121.529,37.638],[-121.294,37.529],[-121.041,37.31],[-120.881,37.133],[-120.652,36.706],[-120.584,36.495],[-120.516,36.437],[-120.403,36.369],[-120.226,36.348],[-120.123,36.355],[-120.004,36.413],[-119.871,36.553],[-119.827,36.683],[-119.864,36.959],[-119.922,37.123],[-120.12,37.327],[-120.468,37.542],[-121.086,37.74],[-121.519,37.665],[-121.529,37.638]]]}},{"type":"Feature","properties":{"density":1},"geometry":{"type":"Polygon","coordinates":[[[-118.307,53.616],[-120.648,55.35],[-123.077,56.912],[-126.546,59.08],[-132.791,61.509],[-137.735,63.677],[-139.557,64.805],[-141.118,66.192],[-140.598,68.101],[-137.909,70.182],[-133.572,71.223],[-126.113,72.524],[-122.123,72.784],[-115.271,71.83],[-110.847,71.136],[-103.128,69.488],[-95.061,68.621],[-87.949,67.32],[-77.454,65.759],[-69.214,65.325],[-64.096,66.973],[-60.887,67.754],[-58.285,68.448],[-55.77,68.101],[-53.688,66.973],[-51.086,65.325],[-49.265,63.417],[-46.662,61.769],[-44.234,60.468],[-44.147,58.473],[-44.841,57.172],[-46.402,56.131],[-49.698,55.35],[-52.821,55.09],[-58.285,55.958],[-63.056,53.876],[-66.698,50.406],[-67.392,48.412],[-68.0,45.116],[-66.612,40.865],[-65.05,38.003],[-61.234,35.314],[-57.692,36.352],[-56.203,38.263],[-53.82,40.26],[-52.186,40.26],[-50.48,39.016],[-50.019,37.417],[-50.479,34.274],[-52.994,30.11],[-56.724,27.768],[-60.627,27.335],[-63.576,27.595],[-68.693,27.768],[-75.893,27.074],[-77.107,26.727],[-80.229,23.345],[-82.311,19.875],[-84.393,15.625],[-85.173,12.329],[-85.347,9.64],[-86.127,9.12],[-125.679,9.64],[-126.633,10.421],[-125.159,14.237],[-124.291,15.539],[-122.47,17.533],[-119.434,19.875],[-115.531,22.217],[-111.715,24.299],[-110.414,25.426],[-110.067,27.074],[-108.072,28.636],[-105.383,30.023],[-103.822,30.978],[-101.393,32.279],[-100.873,32.365],[-97.23,32.365],[-91.765,31.064],[-88.383,29.85],[-86.735,29.763],[-81.964,30.978],[-78.061,32.712],[-76.153,33.666],[-73.117,38.524],[-72.423,41.906],[-72.163,46.677],[-72.77,50.146],[-75.285,53.095],[-78.928,55.611],[-84.74,58.039],[-90.204,59.167],[-92.893,58.646],[-95.321,57.779],[-98.097,55.264],[-99.138,53.095],[-99.398,51.968],[-100.265,48.845],[-101.046,47.197],[-102.954,45.029],[-105.556,43.901],[-107.031,43.554],[-108.679,43.641],[-109.806,44.075],[-111.021,45.029],[-112.408,46.85],[-113.71,49.713],[-115.097,51.274],[-115.097,51.361],[-118.307,53.616]]]}},{"type":"Feature","properties":{"density":1},"geometry":{"type":"Polygon","coordinates":[[[-106.784,36.304],[-106.301,36.626],[-104.763,37.24],[-104.417,37.306],[-104.31,37.282],[-104.262,37.222],[-104.304,37.055],[-104.62,36.865],[-104.972,36.745],[-105.353,36.59],[-106.039,36.406],[-106.367,36.34],[-106.659,36.233],[-106.784,36.227],[-106.784,36.304]]]}},{"type":"Feature","properties":{"density":2},"geometry":{"type":"Polygon","coordinates":[[[-112.165,54.353],[-111.813,54.444],[-111.8,54.639],[-111.891,54.86],[-111.956,55.251],[-111.969,56.006],[-112.06,56.318],[-112.165,56.565],[-112.711,56.852],[-112.972,57.008],[-113.271,57.268],[-113.596,57.45],[-114.117,57.906],[-114.559,58.205],[-114.911,58.387],[-115.119,58.465],[-115.444,58.648],[-116.356,59.364],[-116.616,59.897],[-116.889,60.392],[-117.097,60.639],[-117.501,60.795],[-117.8,60.886],[-118.62,60.991],[-119.258,60.991],[-119.623,61.043],[-120.091,61.147],[-120.716,61.342],[-121.028,61.576],[-121.341,61.837],[-121.497,62.084],[-121.653,62.292],[-121.705,62.526],[-121.588,62.5],[-121.432,62.435],[-121.106,62.37],[-120.872,62.396],[-120.651,62.448],[-120.351,62.604],[-119.948,62.904],[-119.753,63.333],[-119.909,63.594],[-120.221,63.737],[-120.403,63.776],[-120.989,63.971],[-121.536,64.088],[-122.538,64.231],[-123.423,64.244],[-123.866,64.296],[-124.855,64.062],[-125.258,63.867],[-125.636,63.568],[-125.779,63.138],[-125.818,62.826],[-125.818,62.357],[-125.74,61.85],[-125.502,61.263],[-123.709,60.001],[-123.189,59.728],[-122.564,59.338],[-122.239,59.012],[-121.679,58.713],[-120.768,58.374],[-120.13,57.997],[-119.544,57.815],[-118.412,57.541],[-117.488,57.255],[-116.694,56.891],[-116.004,56.448],[-115.236,55.823],[-113.935,54.873],[-113.362,54.574],[-112.49,54.3],[-111.995,54.287],[-112.165,54.353]]]}},{"type":"Feature","properties":{"density":2},"geometry":{"type":"Polygon","coordinates":[[[-97.37,12.716],[-95.94,12.835],[-94.947,13.034],[-93.834,12.954],[-91.332,13.431],[-89.664,14.265],[-88.869,15.338],[-88.433,16.331],[-88.949,17.919],[-89.823,19.151],[-90.697,20.025],[-91.014,20.779],[-90.895,22.487],[-90.975,23.282],[-92.007,25.546],[-92.643,26.102],[-93.517,26.142],[-94.51,26.022],[-96.257,24.95],[-98.323,22.845],[-102.93,19.747],[-105.632,18.555],[-106.863,16.966],[-107.935,15.695],[-108.69,15.219],[-111.403,14.23],[-112.066,13.312],[-112.305,12.478],[-112.146,11.405],[-111.709,10.77],[-111.073,10.531],[-107.896,10.452],[-105.632,10.968],[-103.924,10.929],[-101.342,11.485],[-98.561,12.359],[-97.37,12.716]]]}},{"type":"Feature","properties":{"density":2},"geometry":{"type":"Polygon","coordinates":[[[-98.342,22.49],[-97.489,25.226],[-96.85,26.931],[-95.784,28.068],[-94.647,28.814],[-93.51,29.205],[-92.125,29.276],[-90.277,28.849],[-89.425,27.997],[-89.389,27.215],[-89.531,25.332],[-89.709,23.805],[-89.425,22.81],[-88.572,22.241],[-87.755,21.886],[-86.938,21.353],[-86.76,20.287],[-87.542,19.577],[-87.862,19.044],[-87.826,18.653],[-88.288,16.841],[-88.963,15.847],[-89.78,15.1],[-90.775,14.461],[-92.622,13.395],[-95.678,12.827],[-98.484,12.898],[-102.499,13.111],[-104.844,13.111],[-105.98,13.573],[-106.229,13.893],[-105.945,14.958],[-105.554,15.918],[-104.311,16.451],[-103.458,17.232],[-103.316,18.014],[-103.778,18.831],[-104.488,19.897],[-104.915,21.176],[-104.63,21.566],[-103.707,21.673],[-103.032,21.424],[-101.966,20.678],[-100.829,20.394],[-100.651,20.394],[-100.26,20.465],[-100.083,20.678],[-99.692,21.069],[-99.23,21.247],[-98.342,22.49]]]}},{"type":"Feature","properties":{"density":2},"geometry":{"type":"Polygon","coordinates":[[[-79.598,50.23],[-79.383,50.26],[-79.157,50.337],[-78.895,50.355],[-78.781,50.349],[-78.722,50.272],[-78.746,50.212],[-78.877,50.117],[-79.097,50.057],[-79.365,50.069],[-79.556,50.099],[-79.586,50.129],[-79.598,50.23]]]}},{"type":"Feature","properties":{"density":2},"geometry":{"type":"Polygon","coordinates":[[[-117.127,59.961],[-117.348,59.848],[-117.992,59.675],[-118.468,59.615],[-118.743,59.705],[-118.856,59.889],[-118.808,59.997],[-118.719,60.068],[-118.445,60.152],[-118.236,60.158],[-118.021,60.134],[-117.813,60.152],[-117.521,60.14],[-117.002,60.098],[-117.008,60.062],[-117.127,59.961]]]}},{"type":"Feature","properties":{"density":2},"geometry":{"type":"Polygon","coordinates":[[[-121.295,57.444],[-122.226,57.549],[-123.472,57.875],[-124.287,58.213],[-125.439,58.853],[-125.881,59.214],[-126.289,59.912],[-126.557,60.541],[-126.638,61.042],[-126.568,62.008],[-126.266,62.52],[-126.126,62.788],[-125.264,63.475],[-122.936,63.393],[-122.075,62.602],[-121.702,61.985],[-121.481,61.135],[-121.248,60.623],[-120.724,60.099],[-120.293,59.901],[-119.851,59.773],[-119.618,59.645],[-119.607,59.598],[-119.688,59.4],[-120.014,59.226],[-120.631,59.167],[-120.748,59.028],[-120.585,58.76],[-120.433,58.725],[-119.642,58.376],[-119.42,58.294],[-119.071,58.073],[-118.815,57.794],[-118.792,57.479],[-118.908,57.27],[-119.094,57.188],[-119.467,57.177],[-119.968,57.212],[-120.422,57.34],[-121.015,57.398],[-121.295,57.444]]]}},{"type":"Feature","properties":{"density":3},"geometry":{"type":"Polygon","coordinates":[[[-117.019,60.034],[-117.03,59.818],[-117.117,59.668],[-117.194,59.594],[-117.341,59.48],[-117.505,59.39],[-117.904,59.204],[-117.979,59.188],[-118.078,59.176],[-118.138,59.192],[-118.195,59.257],[-118.194,59.297],[-118.073,59.51],[-118.034,59.605],[-118.043,59.62],[-118.125,59.635],[-118.242,59.613],[-118.449,59.602],[-118.599,59.635],[-118.733,59.72],[-118.777,59.81],[-118.769,59.884],[-118.739,59.933],[-118.61,59.985],[-118.52,59.99],[-118.002,59.944],[-117.696,59.941],[-117.543,59.952],[-117.21,60.017],[-117.044,60.017],[-117.019,60.034]]]}},{"type":"Feature","properties":{"density":3},"geometry":{"type":"Polygon","coordinates":[[[-121.523,58.823],[-121.91,58.856],[-122.434,58.937],[-123.178,59.19],[-123.764,59.271],[-124.499,59.443],[-124.766,59.524],[-124.899,59.59],[-124.961,59.686],[-124.876,59.843],[-124.604,59.962],[-124.117,59.986],[-123.579,59.967],[-122.882,59.867],[-121.981,59.705],[-121.638,59.595],[-121.237,59.524],[-121.051,59.533],[-120.808,59.514],[-120.656,59.5],[-120.536,59.466],[-120.493,59.395],[-120.527,59.342],[-120.665,59.304],[-120.903,59.333],[-121.175,59.395],[-121.376,59.385],[-121.433,59.261],[-121.347,58.956],[-121.347,58.899],[-121.395,58.861],[-121.523,58.823]]]}}]}