{"type":"FeatureCollection","features":[{"type":"Feature","properties":{"density":1},"geometry":{"type":"Polygon","coordinates":[[[-99.674,21.25],[-99.491,21.608],[-99.358,21.958],[-99.275,22.466],[-99.243,22.805],[-99.426,24.862],[-99.374,25.382],[-99.282,25.916],[-99.113,26.254],[-98.775,26.788],[-98.423,27.244],[-97.76,28.012],[-97.2,28.753],[-96.653,29.144],[-95.885,29.886],[-95.56,30.237],[-95.039,30.706],[-94.61,31.122],[-94.014,31.885],[-93.689,32.455],[-93.38,33.138],[-93.168,33.708],[-92.973,34.326],[-92.811,34.944],[-92.388,36.848],[-92.209,37.938],[-92.16,38.426],[-92.156,39.185],[-92.129,39.558],[-92.214,40.19],[-92.298,40.481],[-92.339,40.815],[-92.339,41.241],[-92.152,41.502],[-91.975,41.554],[-91.569,41.606],[-91.152,41.637],[-90.777,41.554],[-89.736,41.064],[-88.82,40.513],[-87.987,39.888],[-87.216,39.43],[-86.685,38.909],[-86.303,38.313],[-86.097,37.867],[-85.915,36.904],[-85.919,36.151],[-85.971,35.547],[-86.086,34.901],[-86.127,34.339],[-86.276,33.797],[-86.505,33.349],[-86.599,32.86],[-86.943,31.964],[-87.075,31.515],[-87.229,31.11],[-87.277,30.891],[-87.384,30.678],[-87.581,30.102],[-87.659,29.498],[-87.887,28.522],[-88.017,27.839],[-88.164,26.472],[-88.001,25.626],[-87.464,24.975],[-87.041,24.617],[-86.569,24.357],[-85.854,24.081],[-85.235,23.869],[-84.406,23.755],[-83.413,23.641],[-81.935,23.244],[-80.737,23.036],[-78.853,22.973],[-76.482,23.007],[-73.879,23.495],[-72.138,23.527],[-71.097,23.576],[-68.608,23.788],[-67.583,23.918],[-66.753,24.064],[-65.972,24.227],[-64.817,24.536],[-63.06,24.813],[-61.612,25.219],[-60.977,25.333],[-60.083,25.594],[-58.635,25.968],[-58.081,25.984],[-57.74,25.854],[-57.545,25.708],[-57.398,25.447],[-57.398,25.284],[-57.447,25.008],[-57.593,24.764],[-57.837,24.504],[-58.374,24.211],[-59.009,24.015],[-59.562,23.82],[-61.905,22.86],[-63.076,22.405],[-64.378,22.047],[-65.614,21.738],[-66.997,21.347],[-68.754,20.892],[-70.658,20.322],[-72.805,19.916],[-74.335,19.59],[-76.01,19.427],[-77.636,19.151],[-79.442,18.94],[-81.281,18.826],[-82.989,18.679],[-86.194,18.484],[-87.756,18.321],[-88.83,18.273],[-89.697,18.29],[-89.804,18.257],[-89.937,18.07],[-89.977,17.877],[-89.91,17.61],[-89.657,17.071],[-89.377,16.597],[-89.271,16.358],[-88.998,16.058],[-88.838,15.964],[-88.678,15.844],[-88.078,15.525],[-87.838,15.311],[-87.525,14.918],[-87.471,14.625],[-87.465,14.092],[-87.478,13.879],[-87.538,13.639],[-87.631,13.086],[-87.718,12.786],[-87.871,12.479],[-88.244,11.979],[-88.451,11.593],[-89.111,11.013],[-89.404,10.94],[-90.024,10.74],[-91.057,10.653],[-91.537,10.653],[-92.043,10.68],[-92.589,10.673],[-93.183,10.687],[-93.762,10.653],[-94.349,10.473],[-94.895,10.333],[-95.775,10.047],[-96.168,9.947],[-97.061,9.807],[-97.314,9.82],[-97.781,9.76],[-98.4,9.76],[-99.267,9.854],[-99.727,9.96],[-100.253,10.147],[-100.793,10.38],[-101.453,10.733],[-102.046,11.16],[-102.406,11.466],[-102.625,11.813],[-103.265,12.639],[-103.538,12.932],[-103.858,13.192],[-104.118,13.439],[-104.505,13.699],[-104.798,13.932],[-105.178,14.265],[-105.704,14.772],[-105.904,14.991],[-106.557,15.824],[-106.71,16.071],[-106.904,16.564],[-106.93,16.804],[-106.899,17.186],[-106.692,17.765],[-106.552,18.005],[-106.266,18.359],[-106.199,18.512],[-106.086,18.665],[-105.933,18.812],[-105.659,18.938],[-105.04,19.338],[-104.553,19.478],[-104.098,19.492],[-103.256,19.626],[-102.648,19.792],[-102.207,19.951],[-101.699,20.267],[-100.516,20.692],[-100.291,20.842],[-99.858,21.025],[-99.674,21.25]]]}},{"type":"Feature","properties":{"density":1},"geometry":{"type":"Polygon","coordinates":[[[-90.2,17.156],[-90.31,17.176],[-90.497,17.261],[-90.849,17.505],[-91.095,17.701],[-91.299,17.869],[-91.331,17.936],[-91.301,17.966],[-91.237,17.966],[-91.019,17.821],[-90.661,17.507],[-90.183,17.173],[-90.2,17.156]]]}},{"type":"Feature","properties":{"density":1},"geometry":{"type":"Polygon","coordinates":[[[-92.19,16.565],[-92.214,16.522],[-92.285,16.473],[-92.356,16.451],[-92.4,16.451],[-92.427,16.492],[-92.394,16.533],[-92.263,16.565],[-92.209,16.601],[-92.187,16.675],[-92.195,16.866],[-92.152,16.915],[-92.012,16.942],[-91.947,16.893],[-91.928,16.83],[-91.98,16.713],[-92.015,16.664],[-92.179,16.582],[-92.19,16.565]]]}},{"type":"Feature","properties":{"density":1},"geometry":{"type":"Polygon","coordinates":[[[-93.577,16.258],[-93.547,16.364],[-93.547,16.419],[-93.429,16.411],[-93.326,16.433],[-93.326,16.394],[-93.457,16.296],[-93.525,16.222],[-93.566,16.211],[-93.585,16.247],[-93.577,16.258]]]}},{"type":"Feature","properties":{"density":1},"geometry":{"type":"Polygon","coordinates":[[[-93.08,15.829],[-93.116,15.829],[-93.121,15.843],[-93.129,15.93],[-93.115,15.949],[-93.038,15.968],[-92.933,16.034],[-92.903,16.032],[-92.891,15.998],[-92.96,15.877],[-93.005,15.873],[-93.069,15.834],[-93.08,15.829]]]}},{"type":"Feature","properties":{"density":1},"geometry":{"type":"Polygon","coordinates":[[[-94.45,16.702],[-94.405,16.716],[-94.384,16.695],[-94.398,16.576],[-94.427,16.545],[-94.455,16.529],[-94.607,16.538],[-94.63,16.569],[-94.609,16.617],[-94.515,16.632],[-94.457,16.695],[-94.45,16.702]]]}},{"type":"Feature","properties":{"density":1},"geometry":{"type":"Polygon","coordinates":[[[-103.194,18.869],[-103.023,18.965],[-102.757,19.06],[-102.566,19.074],[-102.45,19.108],[-102.358,19.159],[-102.296,19.265],[-102.317,19.36],[-102.433,19.459],[-102.627,19.47],[-102.692,19.435],[-102.958,19.135],[-103.255,18.883],[-103.194,18.869]]]}},{"type":"Feature","properties":{"density":1},"geometry":{"type":"Polygon","coordinates":[[[-102.597,18.501],[-102.375,18.524],[-102.173,18.63],[-101.901,18.715],[-101.808,18.78],[-101.716,18.9],[-101.709,18.982],[-101.795,19.091],[-101.945,19.142],[-102.057,19.094],[-102.269,18.835],[-102.446,18.681],[-102.586,18.596],[-102.61,18.548],[-102.597,18.501]]]}},{"type":"Feature","properties":{"density":1},"geometry":{"type":"Polygon","coordinates":[[[-102.75,18.572],[-102.569,18.559],[-102.518,18.589],[-102.487,18.634],[-102.487,18.668],[-102.518,18.695],[-102.579,18.702],[-102.655,18.664],[-102.689,18.627],[-102.76,18.599],[-102.75,18.572]]]}},{"type":"Feature","properties":{"density":1},"geometry":{"type":"Polygon","coordinates":[[[-104.728,20.044],[-104.815,19.948],[-104.971,19.907],[-105.154,19.915],[-105.293,19.981],[-105.419,20.011],[-105.533,20.098],[-105.525,20.18],[-105.389,20.175],[-105.29,20.134],[-105.197,20.125],[-105.064,20.142],[-104.946,20.21],[-104.848,20.237],[-104.763,20.202],[-104.703,20.134],[-104.698,20.087],[-104.728,20.044]]]}},{"type":"Feature","properties":{"density":1},"geometry":{"type":"Polygon","coordinates":[[[-104.46,21.881],[-104.58,21.632],[-104.611,21.622],[-104.675,21.663],[-104.679,21.721],[-104.566,21.881],[-104.508,21.912],[-104.472,21.909],[-104.46,21.881]]]}},{"type":"Feature","properties":{"density":1},"geometry":{"type":"Polygon","coordinates":[[[-80.225,22.406],[-80.539,22.319],[-80.609,22.275],[-80.644,22.271],[-80.69,22.29],[-80.67,22.351],[-80.583,22.399],[-80.294,22.441],[-80.211,22.43],[-80.225,22.406]]]}},{"type":"Feature","properties":{"density":1},"geometry":{"type":"Polygon","coordinates":[[[-80.384,22.513],[-80.729,22.323],[-80.84,22.301],[-80.871,22.332],[-80.853,22.369],[-80.788,22.402],[-80.493,22.511],[-80.393,22.533],[-80.384,22.513]]]}},{"type":"Feature","properties":{"density":1},"geometry":{"type":"Polygon","coordinates":[[[-77.964,21.912],[-78.133,21.779],[-78.157,21.795],[-78.135,21.854],[-77.984,21.919],[-77.964,21.912]]]}},{"type":"Feature","properties":{"density":1},"geometry":{"type":"Polygon","coordinates":[[[-84.549,35.129],[-84.579,35.204],[-84.637,35.266],[-84.709,35.293],[-84.763,35.336],[-84.848,35.363],[-84.968,35.325],[-85.057,35.197],[-85.112,35.088],[-85.139,34.931],[-85.05,34.624],[-84.982,34.501],[-84.849,34.464],[-84.764,34.464],[-84.716,34.522],[-84.706,34.665],[-84.723,34.802],[-84.685,34.986],[-84.6,35.081],[-84.562,35.095],[-84.552,35.122],[-84.549,35.129]]]}},{"type":"Feature","properties":{"density":1},"geometry":{"type":"Polygon","coordinates":[[[-77.178,34.813],[-77.219,34.472],[-77.144,34.018],[-77.1,33.967],[-77.052,33.967],[-76.991,33.984],[-76.96,34.042],[-76.933,34.151],[-76.905,34.428],[-76.957,34.633],[-77.039,34.742],[-77.127,34.827],[-77.178,34.813]]]}},{"type":"Feature","properties":{"density":1},"geometry":{"type":"Polygon","coordinates":[[[-75.851,35.561],[-75.783,35.312],[-75.674,35.028],[-75.571,34.868],[-75.339,34.673],[-75.203,34.646],[-75.077,34.646],[-75.032,34.755],[-75.029,34.865],[-75.394,35.37],[-75.571,35.526],[-75.844,35.595],[-75.851,35.561]]]}},{"type":"Feature","properties":{"density":1},"geometry":{"type":"Polygon","coordinates":[[[-91.463,18.481],[-91.94,18.879],[-91.978,19.009],[-91.971,19.057],[-91.93,19.074],[-91.845,19.071],[-91.78,19.002],[-91.442,18.535],[-91.435,18.491],[-91.452,18.477],[-91.463,18.481]]]}},{"type":"Feature","properties":{"density":1},"geometry":{"type":"Polygon","coordinates":[[[-92.231,16.554],[-92.267,16.423],[-92.346,16.319],[-92.45,16.317],[-92.463,16.349],[-92.453,16.426],[-92.395,16.497],[-92.245,16.57],[-92.231,16.554]]]}},{"type":"Feature","properties":{"density":1},"geometry":{"type":"Polygon","coordinates":[[[-91.481,16.407],[-91.601,16.439],[-91.669,16.483],[-91.686,16.505],[-91.68,16.56],[-91.631,16.573],[-91.552,16.562],[-91.481,16.486],[-91.459,16.418],[-91.481,16.407]]]}},{"type":"Feature","properties":{"density":1},"geometry":{"type":"Polygon","coordinates":[[[-92.138,16.799],[-92.22,16.658],[-92.256,16.624],[-92.291,16.619],[-92.349,16.644],[-92.358,16.672],[-92.339,16.728],[-92.265,16.776],[-92.146,16.815],[-92.138,16.799]]]}},{"type":"Feature","properties":{"density":1},"geometry":{"type":"Polygon","coordinates":[[[-92.171,16.853],[-92.223,16.817],[-92.344,16.787],[-92.422,16.785],[-92.433,16.808],[-92.405,16.866],[-92.372,16.881],[-92.312,16.895],[-92.188,16.867],[-92.171,16.853]]]}},{"type":"Feature","properties":{"density":1},"geometry":{"type":"Polygon","coordinates":[[[-93.53,16.294],[-93.523,16.477],[-93.497,16.53],[-93.471,16.56],[-93.384,16.571],[-93.364,16.545],[-93.375,16.475],[-93.484,16.294],[-93.53,16.294]]]}},{"type":"Feature","properties":{"density":1},"geometry":{"type":"Polygon","coordinates":[[[-94.15,16.842],[-94.208,16.926],[-94.218,16.989],[-94.177,17.122],[-94.145,17.171],[-94.11,17.188],[-94.065,17.186],[-94.049,17.087],[-94.091,17.003],[-94.135,16.835],[-94.15,16.842]]]}},{"type":"Feature","properties":{"density":1},"geometry":{"type":"Polygon","coordinates":[[[-94.435,16.671],[-94.547,16.846],[-94.549,16.933],[-94.519,16.982],[-94.468,16.989],[-94.414,16.973],[-94.402,16.936],[-94.393,16.874],[-94.426,16.688],[-94.435,16.671]]]}},{"type":"Feature","properties":{"density":1},"geometry":{"type":"Polygon","coordinates":[[[-93.196,16.096],[-93.131,16.089],[-93.067,16.111],[-93.054,16.185],[-93.074,16.214],[-93.123,16.234],[-93.191,16.227],[-93.224,16.129],[-93.212,16.108],[-93.196,16.096]]]}},{"type":"Feature","properties":{"density":1},"geometry":{"type":"Polygon","coordinates":[[[-90.513,16.145],[-90.671,16.239],[-90.791,16.341],[-90.806,16.389],[-90.8,16.431],[-90.708,16.431],[-90.583,16.282],[-90.496,16.149],[-90.513,16.145]]]}},{"type":"Feature","properties":{"density":1},"geometry":{"type":"Polygon","coordinates":[[[-96.563,39.584],[-96.235,39.665],[-96.111,39.712],[-95.945,39.831],[-95.915,39.874],[-95.894,39.955],[-95.894,40.031],[-95.932,40.066],[-96.039,40.074],[-96.303,39.848],[-96.584,39.665],[-96.593,39.639],[-96.563,39.584]]]}},{"type":"Feature","properties":{"density":1},"geometry":{"type":"Polygon","coordinates":[[[-84.816,32.951],[-84.769,32.482],[-84.752,32.414],[-84.688,32.423],[-84.641,32.568],[-84.552,32.67],[-84.535,32.713],[-84.424,33.088],[-84.407,33.293],[-84.462,33.301],[-84.62,33.19],[-84.68,33.139],[-84.743,33.054],[-84.816,32.951]]]}},{"type":"Feature","properties":{"density":1},"geometry":{"type":"Polygon","coordinates":[[[-85.234,32.214],[-85.136,32.312],[-85.093,32.388],[-85.08,32.478],[-85.11,32.815],[-85.157,32.947],[-85.272,33.058],[-85.417,33.015],[-85.567,32.721],[-85.605,32.354],[-85.584,32.167],[-85.413,32.145],[-85.366,32.15],[-85.285,32.197],[-85.234,32.214]]]}},{"type":"Feature","properties":{"density":1},"geometry":{"type":"Polygon","coordinates":[[[-79.873,33.485],[-79.809,33.31],[-79.702,33.284],[-79.608,33.352],[-79.587,33.421],[-79.63,33.48],[-79.681,33.51],[-79.864,33.485],[-79.873,33.485]]]}},{"type":"Feature","properties":{"density":1},"geometry":{"type":"Polygon","coordinates":[[[-81.668,33.352],[-81.408,33.404],[-81.353,33.433],[-81.293,33.557],[-81.293,33.608],[-81.361,33.642],[-81.515,33.6],[-81.63,33.506],[-81.694,33.369],[-81.668,33.352]]]}},{"type":"Feature","properties":{"density":1},"geometry":{"type":"Polygon","coordinates":[[[-81.941,32.559],[-81.843,32.614],[-81.788,32.678],[-81.809,32.717],[-81.929,32.661],[-81.963,32.606],[-81.941,32.559]]]}},{"type":"Feature","properties":{"density":1},"geometry":{"type":"Polygon","coordinates":[[[-82.189,32.44],[-82.035,32.529],[-81.971,32.64],[-81.937,32.738],[-81.937,32.811],[-82.022,32.926],[-82.112,32.892],[-82.172,32.832],[-82.206,32.708],[-82.27,32.563],[-82.24,32.482],[-82.189,32.44]]]}},{"type":"Feature","properties":{"density":1},"geometry":{"type":"Polygon","coordinates":[[[-77.233,34.615],[-77.186,34.026],[-77.22,33.779],[-77.318,33.378],[-77.386,32.777],[-77.378,32.627],[-77.335,32.538],[-77.216,32.504],[-77.037,32.551],[-76.934,32.627],[-76.768,32.717],[-76.491,32.721],[-76.354,32.751],[-76.226,32.841],[-76.184,33.485],[-76.235,33.591],[-76.397,33.809],[-76.512,33.941],[-76.674,34.077],[-76.721,34.141],[-76.832,34.419],[-77.058,34.674],[-77.118,34.76],[-77.207,34.952],[-77.271,35.016],[-77.246,34.67],[-77.233,34.615]]]}},{"type":"Feature","properties":{"density":1},"geometry":{"type":"Polygon","coordinates":[[[-75.817,35.6],[-75.919,35.566],[-76.094,35.621],[-76.44,35.962],[-76.563,36.018],[-76.738,35.941],[-76.806,35.775],[-76.747,35.647],[-76.614,35.455],[-76.26,35.105],[-75.582,34.807],[-75.207,34.623],[-75.007,34.491],[-74.862,34.329],[-74.734,34.252],[-74.512,34.21],[-74.38,34.244],[-74.29,34.389],[-74.435,34.585],[-74.849,34.768],[-75.122,34.909],[-75.548,35.144],[-75.83,35.34],[-75.894,35.387],[-75.902,35.438],[-75.864,35.506],[-75.817,35.549],[-75.817,35.6]]]}},{"type":"Feature","properties":{"density":1},"geometry":{"type":"Polygon","coordinates":[[[-79.745,38.031],[-79.591,37.835],[-79.532,37.801],[-79.455,37.822],[-79.459,37.886],[-79.506,37.929],[-79.728,38.048],[-79.745,38.031]]]}},{"type":"Feature","properties":{"density":1},"geometry":{"type":"Polygon","coordinates":[[[-83.271,31.245],[-83.328,31.373],[-83.566,31.58],[-83.71,31.654],[-83.74,31.586],[-83.71,31.518],[-83.582,31.343],[-83.448,31.242],[-83.295,31.225],[-83.271,31.245]]]}},{"type":"Feature","properties":{"density":1},"geometry":{"type":"Polygon","coordinates":[[[-83.688,31.084],[-83.707,31.168],[-83.751,31.255],[-84.019,31.493],[-84.051,31.463],[-84.046,31.422],[-83.972,31.223],[-83.926,31.174],[-83.8,31.089],[-83.716,31.081],[-83.688,31.084]]]}},{"type":"Feature","properties":{"density":1},"geometry":{"type":"Polygon","coordinates":[[[-84.477,31.613],[-84.515,31.687],[-84.507,31.842],[-84.526,31.938],[-84.515,31.998],[-84.428,32.02],[-84.343,31.93],[-84.442,31.627],[-84.477,31.613]]]}},{"type":"Feature","properties":{"density":1},"geometry":{"type":"Polygon","coordinates":[[[-83.912,32.781],[-83.852,32.86],[-83.811,32.961],[-83.792,33.024],[-83.798,33.158],[-83.877,33.147],[-83.948,33.082],[-83.969,32.967],[-83.934,32.811],[-83.912,32.781]]]}},{"type":"Feature","properties":{"density":1},"geometry":{"type":"Polygon","coordinates":[[[-95.933,36.44],[-95.464,36.502],[-95.206,36.602],[-94.74,36.677],[-94.506,36.727],[-94.298,36.794],[-94.215,36.844],[-93.965,36.944],[-93.873,37.119],[-93.898,37.252],[-94.098,37.394],[-94.756,37.444],[-95.289,37.394],[-95.506,37.352],[-95.872,37.235],[-96.464,37.002],[-96.589,36.944],[-96.689,36.869],[-96.668,36.708],[-96.214,36.727],[-96.072,36.661],[-96.014,36.594],[-95.997,36.527],[-95.933,36.44]]]}},{"type":"Feature","properties":{"density":1},"geometry":{"type":"Polygon","coordinates":[[[-96.776,36.094],[-96.622,36.171],[-96.537,36.239],[-96.49,36.337],[-96.515,36.346],[-96.567,36.324],[-96.695,36.239],[-96.793,36.107],[-96.776,36.094]]]}},{"type":"Feature","properties":{"density":1},"geometry":{"type":"Polygon","coordinates":[[[-97.411,36.167],[-97.172,36.273],[-96.938,36.354],[-96.776,36.435],[-96.716,36.504],[-96.699,36.593],[-96.81,36.631],[-97.091,36.529],[-97.202,36.469],[-97.445,36.196],[-97.411,36.167]]]}},{"type":"Feature","properties":{"density":1},"geometry":{"type":"Polygon","coordinates":[[[-99.288,35.706],[-98.934,35.804],[-98.546,35.936],[-98.413,36.017],[-98.273,36.154],[-98.239,36.303],[-98.294,36.341],[-98.426,36.329],[-98.55,36.269],[-98.84,36.051],[-99.33,35.736],[-99.288,35.706]]]}},{"type":"Feature","properties":{"density":1},"geometry":{"type":"Polygon","coordinates":[[[-98.337,36.414],[-98.085,36.738],[-97.556,37.066],[-97.415,37.122],[-97.347,37.126],[-97.317,37.041],[-97.339,36.939],[-97.415,36.849],[-97.492,36.794],[-98.076,36.546],[-98.328,36.414],[-98.337,36.414]]]}},{"type":"Feature","properties":{"density":1},"geometry":{"type":"Polygon","coordinates":[[[-95.245,34.78],[-95.134,34.879],[-94.775,35.032],[-94.699,35.1],[-94.839,35.079],[-95.274,34.802],[-95.245,34.78]]]}},{"type":"Feature","properties":{"density":1},"geometry":{"type":"Polygon","coordinates":[[[-82.914,28.663],[-83.105,27.805],[-83.137,26.851],[-82.851,25.866],[-82.374,24.913],[-81.802,24.405],[-80.785,23.896],[-79.419,23.07],[-78.148,22.53],[-77.099,22.117],[-76.622,21.958],[-75.224,21.576],[-73.508,21.545],[-71.856,21.608],[-68.742,22.148],[-66.74,22.752],[-62.609,24.341],[-61.624,24.849],[-60.353,25.39],[-59.082,26.057],[-58.097,26.661],[-56.349,27.296],[-54.633,27.519],[-53.902,27.455],[-53.616,26.915],[-53.489,26.152],[-53.775,25.326],[-54.284,24.627],[-55.014,24.182],[-56.127,23.674],[-61.179,21.608],[-68.551,19.797],[-69.346,19.638],[-70.744,19.479],[-72.174,19.416],[-74.144,19.257],[-75.51,19.193],[-76.654,19.193],[-77.735,18.907],[-78.211,18.685],[-78.275,18.621],[-79.133,18.367],[-80.817,17.731],[-82.469,16.746],[-83.677,15.92],[-84.598,14.744],[-85.552,13.346],[-86.124,12.393],[-86.568,11.567],[-86.982,10.9],[-88.126,9.628],[-90.159,8.675],[-95.625,8.421],[-97.468,8.357],[-99.851,8.993],[-100.391,9.406],[-101.281,10.518],[-101.948,11.44],[-102.457,12.425],[-102.711,13.029],[-103.124,13.823],[-103.664,14.776],[-104.999,16.588],[-105.444,17.35],[-105.889,18.844],[-105.952,19.543],[-105.952,20.21],[-105.634,20.814],[-105.094,21.163],[-104.236,21.163],[-102.902,20.528],[-102.361,20.21],[-101.535,19.924],[-100.518,19.892],[-100.137,19.956],[-100.01,20.687],[-100.201,21.545],[-100.232,22.275],[-100.232,23.102],[-99.343,26.248],[-98.103,28.281],[-97.086,29.584],[-96.197,30.124],[-94.735,30.569],[-92.161,31.046],[-90.89,31.364],[-89.365,31.459],[-88.253,31.554],[-87.299,31.554],[-85.965,31.236],[-85.361,30.95],[-84.503,30.41],[-83.963,29.838],[-83.423,29.393],[-82.914,28.663]]]}},{"type":"Feature","properties":{"density":1},"geometry":{"type":"Polygon","coordinates":[[[-94.893,35.631],[-94.567,35.834],[-94.232,35.999],[-93.96,36.111],[-93.832,36.116],[-93.88,36.015],[-94.221,35.892],[-94.567,35.743],[-94.754,35.684],[-94.914,35.588],[-94.893,35.631]]]}},{"type":"Feature","properties":{"density":1},"geometry":{"type":"Polygon","coordinates":[[[-94.535,35.61],[-94.402,35.658],[-94.327,35.711],[-94.269,35.78],[-94.279,35.791],[-94.375,35.754],[-94.557,35.61],[-94.535,35.61]]]}},{"type":"Feature","properties":{"density":1},"geometry":{"type":"Polygon","coordinates":[[[-94.093,35.178],[-93.864,35.258],[-93.624,35.396],[-93.474,35.519],[-93.464,35.551],[-93.501,35.562],[-93.645,35.53],[-93.912,35.412],[-94.109,35.215],[-94.093,35.178]]]}},{"type":"Feature","properties":{"density":1},"geometry":{"type":"Polygon","coordinates":[[[-96.79,33.941],[-96.231,34.154],[-95.692,34.437],[-95.452,34.575],[-95.388,34.661],[-95.362,34.762],[-95.452,34.81],[-95.644,34.778],[-95.831,34.73],[-96.017,34.634],[-96.177,34.501],[-96.631,34.181],[-96.737,34.085],[-96.822,33.973],[-96.79,33.941]]]}},{"type":"Feature","properties":{"density":1},"geometry":{"type":"Polygon","coordinates":[[[-92.168,37.076],[-91.641,37.332],[-91.321,37.518],[-91.262,37.582],[-91.23,37.694],[-91.315,37.662],[-92.072,37.214],[-92.19,37.102],[-92.168,37.076]]]}},{"type":"Feature","properties":{"density":1},"geometry":{"type":"Polygon","coordinates":[[[-92.382,35.572],[-91.689,35.972],[-91.571,36.089],[-91.561,36.169],[-91.657,36.143],[-92.04,35.85],[-92.398,35.604],[-92.382,35.572]]]}},{"type":"Feature","properties":{"density":1},"geometry":{"type":"Polygon","coordinates":[[[-92.771,35.823],[-92.392,36.175],[-91.992,36.345],[-91.971,36.313],[-92.019,36.196],[-92.136,36.111],[-92.755,35.791],[-92.771,35.823]]]}},{"type":"Feature","properties":{"density":1},"geometry":{"type":"Polygon","coordinates":[[[-91.267,37.55],[-90.884,37.641],[-90.809,37.646],[-90.74,37.678],[-90.697,37.731],[-90.702,37.747],[-91.091,37.646],[-91.289,37.577],[-91.267,37.55]]]}},{"type":"Feature","properties":{"density":1},"geometry":{"type":"Polygon","coordinates":[[[-96.652,39.469],[-95.687,39.645],[-95.079,39.805],[-94.903,39.928],[-94.722,40.098],[-94.562,40.301],[-94.413,40.568],[-94.391,40.808],[-94.509,40.882],[-94.941,40.717],[-95.298,40.509],[-95.842,40.066],[-96.236,39.688],[-96.369,39.597],[-96.652,39.523],[-96.652,39.469]]]}},{"type":"Feature","properties":{"density":1},"geometry":{"type":"Polygon","coordinates":[[[-81.463,31.942],[-81.538,32.022],[-81.618,32.224],[-81.629,32.336],[-81.607,32.432],[-81.533,32.512],[-81.399,32.512],[-81.293,32.47],[-81.031,32.283],[-80.962,32.198],[-80.946,32.086],[-81.01,32.0],[-81.17,31.931],[-81.325,31.979],[-81.421,32.043],[-81.458,31.99],[-81.447,31.931],[-81.463,31.942]]]}},{"type":"Feature","properties":{"density":1},"geometry":{"type":"Polygon","coordinates":[[[-104.711,20.085],[-104.377,20.085],[-104.244,20.165],[-104.064,20.411],[-104.024,20.645],[-104.038,20.658],[-104.138,20.638],[-104.384,20.485],[-104.591,20.245],[-104.764,20.085],[-104.711,20.085]]]}},{"type":"Feature","properties":{"density":1},"geometry":{"type":"Polygon","coordinates":[[[-105.457,20.112],[-105.484,20.178],[-105.677,20.391],[-105.744,20.525],[-105.737,20.665],[-105.624,20.671],[-105.337,20.371],[-105.197,20.305],[-105.164,20.178],[-105.177,20.132],[-105.244,20.112],[-105.404,20.105],[-105.457,20.112]]]}},{"type":"Feature","properties":{"density":1},"geometry":{"type":"Polygon","coordinates":[[[-91.063,17.153],[-91.669,17.479],[-92.336,17.746],[-92.522,17.846],[-92.782,17.952],[-92.922,18.099],[-92.949,18.259],[-92.822,18.339],[-92.742,18.339],[-92.655,18.286],[-92.469,18.126],[-92.329,17.972],[-91.989,17.832],[-91.842,17.746],[-91.069,17.213],[-91.063,17.153]]]}},{"type":"Feature","properties":{"density":2},"geometry":{"type":"Polygon","coordinates":[[[-104.72,20.068],[-104.873,19.981],[-104.905,20.008],[-104.908,20.055],[-104.875,20.104],[-104.87,20.164],[-104.837,20.221],[-104.794,20.218],[-104.728,20.161],[-104.703,20.112],[-104.712,20.079],[-104.72,20.068]]]}},{"type":"Feature","properties":{"density":2},"geometry":{"type":"Polygon","coordinates":[[[-77.155,34.786],[-77.127,34.667],[-77.144,34.339],[-77.11,34.288],[-77.056,34.264],[-77.028,34.325],[-77.028,34.482],[-77.086,34.721],[-77.127,34.813],[-77.155,34.786]]]}},{"type":"Feature","properties":{"density":2},"geometry":{"type":"Polygon","coordinates":[[[-83.49,33.113],[-83.421,33.173],[-83.383,33.186],[-83.148,33.165],[-83.012,33.259],[-82.974,33.301],[-82.884,33.489],[-82.867,33.561],[-82.88,33.664],[-83.059,33.676],[-83.366,33.634],[-83.511,33.591],[-83.66,33.514],[-83.673,33.455],[-83.571,33.318],[-83.554,33.186],[-83.511,33.122],[-83.49,33.113]]]}},{"type":"Feature","properties":{"density":2},"geometry":{"type":"Polygon","coordinates":[[[-77.224,32.964],[-77.088,33.497],[-76.926,33.608],[-76.819,33.651],[-76.683,33.668],[-76.533,33.638],[-76.44,33.566],[-76.423,33.395],[-76.538,33.25],[-77.011,32.96],[-77.186,32.785],[-77.224,32.934],[-77.224,32.964]]]}},{"type":"Feature","properties":{"density":2},"geometry":{"type":"Polygon","coordinates":[[[-96.477,36.756],[-96.227,36.868],[-96.147,36.889],[-95.326,36.953],[-94.952,37.055],[-94.809,37.039],[-94.825,36.884],[-94.926,36.82],[-95.155,36.777],[-96.04,36.698],[-96.125,36.703],[-96.2,36.745],[-96.504,36.73],[-96.477,36.756]]]}},{"type":"Feature","properties":{"density":2},"geometry":{"type":"Polygon","coordinates":[[[-92.076,16.646],[-91.936,16.7],[-91.796,16.84],[-91.769,16.84],[-91.722,16.693],[-91.722,16.56],[-91.842,16.32],[-92.036,16.1],[-92.309,15.827],[-92.489,15.693],[-93.442,15.127],[-93.948,15.147],[-94.055,15.26],[-94.142,15.493],[-94.321,15.707],[-94.321,15.967],[-94.241,16.206],[-94.108,16.366],[-93.702,16.54],[-93.542,16.7],[-93.515,16.866],[-93.448,17.019],[-93.322,17.153],[-93.235,17.159],[-92.922,16.666],[-92.822,16.626],[-92.655,16.613],[-92.529,16.633],[-92.469,16.666],[-92.329,16.693],[-92.229,16.68],[-92.076,16.646]]]}},{"type":"Feature","properties":{"density":2},"geometry":{"type":"Polygon","coordinates":[[[-102.558,18.539],[-102.618,18.419],[-102.678,18.359],[-102.751,18.339],[-102.831,18.352],[-102.938,18.466],[-103.005,18.586],[-103.111,18.699],[-103.065,18.845],[-103.025,18.892],[-102.938,18.939],[-102.738,18.979],[-102.638,18.832],[-102.631,18.752],[-102.738,18.699],[-102.718,18.612],[-102.698,18.586],[-102.645,18.579],[-102.558,18.539]]]}}]}