{"type":"FeatureCollection","features":[{"type":"Feature","properties":{"density":1},"geometry":{"type":"Polygon","coordinates":[[[-113.336,34.804],[-111.951,34.22],[-111.22,33.744],[-111.062,33.045],[-111.284,32.282],[-112.174,31.805],[-113.318,31.615],[-115.193,31.265],[-116.019,31.932],[-117.608,32.886],[-118.116,33.161],[-119.26,33.585],[-119.737,34.411],[-119.006,35.777],[-117.353,37.017],[-116.718,37.398],[-115.542,37.779],[-114.427,37.878],[-113.032,37.557],[-112.65,37.366],[-112.103,36.853],[-112.103,35.887],[-113.111,35.304],[-113.286,35.071],[-113.336,34.804]]]}},{"type":"Feature","properties":{"density":1},"geometry":{"type":"Polygon","coordinates":[[[-95.293,44.849],[-99.121,43.128],[-102.534,41.499],[-104.086,40.723],[-104.707,39.792],[-104.784,38.473],[-105.25,37.31],[-105.327,36.379],[-105.637,35.525],[-106.801,34.051],[-107.577,33.198],[-108.973,32.112],[-110.137,30.871],[-110.835,30.25],[-111.223,29.707],[-111.689,28.155],[-111.689,26.293],[-111.301,24.432],[-110.292,22.57],[-109.129,19.156],[-108.741,17.372],[-106.568,15.2],[-103.853,13.26],[-100.052,11.941],[-98.888,11.553],[-93.535,12.019],[-92.294,11.786],[-87.949,13.493],[-87.174,13.881],[-85.544,17.294],[-85.234,18.458],[-82.907,21.018],[-82.209,23.656],[-82.131,24.354],[-82.053,26.526],[-81.532,28.014],[-80.192,31.491],[-78.735,31.955],[-76.487,33.226],[-75.797,34.528],[-76.313,38.163],[-77.478,40.26],[-78.95,41.809],[-81.546,43.088],[-83.838,43.206],[-87.251,43.749],[-90.199,44.602],[-91.683,44.835],[-93.147,44.912],[-94.169,45.026],[-95.293,44.849]]]}},{"type":"Feature","properties":{"density":1},"geometry":{"type":"Polygon","coordinates":[[[-128.552,66.221],[-128.977,66.129],[-129.21,66.029],[-130.41,66.146],[-131.542,66.429],[-132.109,66.629],[-132.151,66.895],[-131.992,67.095],[-131.826,67.145],[-131.434,67.228],[-130.776,67.245],[-130.21,67.145],[-129.577,67.062],[-129.21,66.829],[-128.794,66.387],[-128.844,66.295],[-129.135,66.262],[-129.477,66.537],[-129.777,66.704],[-130.301,66.879],[-130.709,66.92],[-131.234,66.937],[-131.559,66.912],[-131.609,66.629],[-131.118,66.57],[-130.393,66.387],[-129.193,66.204],[-128.635,66.295],[-128.552,66.221]]]}},{"type":"Feature","properties":{"density":1},"geometry":{"type":"Polygon","coordinates":[[[-120.413,48.236],[-120.121,48.178],[-119.58,47.911],[-119.355,48.211],[-119.063,48.411],[-118.772,48.486],[-118.155,48.478],[-117.489,48.395],[-116.806,48.445],[-116.373,48.378],[-115.965,48.278],[-116.006,48.003],[-116.198,47.712],[-117.006,47.478],[-117.422,47.453],[-117.814,47.312],[-118.314,47.303],[-118.855,47.178],[-119.105,47.178],[-119.547,47.145],[-119.871,47.428],[-120.246,47.795],[-120.438,48.061],[-120.538,48.17],[-120.529,48.195],[-120.413,48.236]]]}},{"type":"Feature","properties":{"density":1},"geometry":{"type":"Polygon","coordinates":[[[-103.531,23.122],[-104.041,23.039],[-104.291,22.841],[-104.447,22.393],[-104.864,22.008],[-105.051,21.758],[-105.301,21.498],[-105.478,21.352],[-105.582,20.748],[-105.666,20.456],[-105.718,20.321],[-105.853,20.061],[-105.832,19.915],[-105.582,19.498],[-105.343,19.394],[-104.801,19.488],[-104.51,19.582],[-103.895,19.748],[-103.666,20.05],[-103.448,20.175],[-102.937,20.258],[-102.604,20.435],[-102.521,20.623],[-102.5,20.789],[-102.396,20.935],[-102.375,21.081],[-102.292,21.414],[-102.49,21.633],[-102.719,21.675],[-102.844,21.82],[-102.969,21.841],[-103.239,21.695],[-103.219,22.164],[-103.302,22.393],[-103.26,22.622],[-103.156,22.799],[-103.052,23.059],[-103.135,23.091],[-103.521,23.143],[-103.531,23.122]]]}},{"type":"Feature","properties":{"density":1},"geometry":{"type":"Polygon","coordinates":[[[-97.727,21.191],[-97.667,21.188],[-97.605,21.161],[-97.422,21.033],[-97.345,20.967],[-97.329,20.902],[-97.31,20.883],[-97.313,20.847],[-97.343,20.834],[-97.449,20.866],[-97.591,20.962],[-97.7,21.131],[-97.757,21.15],[-97.744,21.188],[-97.727,21.191]]]}},{"type":"Feature","properties":{"density":1},"geometry":{"type":"Polygon","coordinates":[[[-98.123,21.175],[-97.927,21.131],[-97.885,21.103],[-97.869,21.066],[-97.895,21.032],[-97.951,21.033],[-98.141,21.122],[-98.15,21.148],[-98.139,21.167],[-98.123,21.175]]]}},{"type":"Feature","properties":{"density":1},"geometry":{"type":"Polygon","coordinates":[[[-97.585,20.533],[-97.425,20.506],[-97.185,20.432],[-97.156,20.383],[-97.167,20.34],[-97.199,20.317],[-97.34,20.323],[-97.464,20.375],[-97.569,20.452],[-97.607,20.499],[-97.607,20.522],[-97.585,20.533]]]}},{"type":"Feature","properties":{"density":1},"geometry":{"type":"Polygon","coordinates":[[[-106.098,24.409],[-106.275,24.341],[-106.368,24.368],[-106.524,24.351],[-106.617,24.331],[-106.647,24.31],[-106.658,24.16],[-106.565,23.969],[-106.552,23.908],[-106.484,23.812],[-106.391,23.782],[-106.327,23.788],[-106.129,23.874],[-105.917,24.02],[-105.849,24.123],[-105.825,24.198],[-105.866,24.273],[-106.033,24.273],[-106.081,24.406],[-106.098,24.409]]]}},{"type":"Feature","properties":{"density":1},"geometry":{"type":"Polygon","coordinates":[[[-90.351,34.958],[-90.29,35.126],[-90.228,35.214],[-90.133,35.422],[-90.112,35.549],[-90.116,35.61],[-90.147,35.644],[-90.198,35.651],[-90.269,35.61],[-90.362,35.412],[-90.389,35.061],[-90.372,35.006],[-90.351,34.958]]]}},{"type":"Feature","properties":{"density":1},"geometry":{"type":"Polygon","coordinates":[[[-106.103,25.29],[-106.197,25.331],[-106.38,25.359],[-106.459,25.346],[-106.466,25.314],[-106.372,25.281],[-106.125,25.279],[-106.103,25.29]]]}},{"type":"Feature","properties":{"density":1},"geometry":{"type":"Polygon","coordinates":[[[-118.866,34.746],[-118.914,34.706],[-118.897,34.617],[-118.842,34.535],[-118.702,34.395],[-118.552,34.303],[-118.501,34.296],[-118.439,34.33],[-118.442,34.377],[-118.529,34.495],[-118.75,34.682],[-118.849,34.733],[-118.866,34.746]]]}},{"type":"Feature","properties":{"density":1},"geometry":{"type":"Polygon","coordinates":[[[-142.127,66.151],[-142.188,66.147],[-142.29,66.175],[-142.311,66.192],[-142.311,66.26],[-142.222,66.321],[-142.072,66.393],[-142.034,66.407],[-141.98,66.397],[-141.922,66.339],[-141.935,66.26],[-142.004,66.202],[-142.116,66.158],[-142.127,66.151]]]}},{"type":"Feature","properties":{"density":1},"geometry":{"type":"Polygon","coordinates":[[[-144.732,63.44],[-148.386,63.504],[-150.261,63.504],[-153.089,62.487],[-153.661,61.915],[-156.012,61.216],[-157.347,61.47],[-158.586,62.105],[-159.095,62.995],[-159.095,63.631],[-158.586,65.347],[-158.11,66.109],[-156.966,67.19],[-155.79,68.016],[-153.979,68.715],[-151.659,69.7],[-150.07,69.668],[-144.7,70.494],[-141.84,70.304],[-139.012,70.272],[-136.978,70.304],[-136.851,70.335],[-134.563,70.304],[-133.801,69.986],[-133.419,69.541],[-132.911,68.588],[-132.911,67.539],[-133.705,66.459],[-134.69,65.728],[-135.676,64.965],[-137.773,63.821],[-138.44,63.662],[-140.378,63.376],[-142.19,63.504],[-144.827,63.504],[-144.732,63.44]]]}},{"type":"Feature","properties":{"density":1},"geometry":{"type":"Polygon","coordinates":[[[-102.307,32.113],[-101.474,33.709],[-101.89,36.207],[-102.723,38.983],[-102.376,41.064],[-101.196,43.215],[-95.992,45.436],[-90.372,45.575],[-85.098,43.493],[-81.698,41.689],[-76.563,41.411],[-71.567,42.66],[-67.612,43.493],[-65.669,44.117],[-58.383,46.685],[-55.538,46.338],[-54.845,44.187],[-54.983,41.55],[-55.608,39.885],[-58.938,35.374],[-65.947,29.268],[-68.028,27.88],[-70.526,26.978],[-74.967,26.354],[-81.282,25.591],[-86.486,24.342],[-90.094,22.954],[-93.564,20.178],[-95.09,17.958],[-96.478,15.39],[-96.894,14.697],[-97.172,13.933],[-97.311,12.268],[-98.698,9.839],[-99.739,9.215],[-137.695,9.076],[-139.638,9.77],[-141.373,14.697],[-140.609,19.762],[-137.07,25.174],[-135.613,27.187],[-131.45,30.656],[-127.148,31.766],[-122.915,31.419],[-120.417,29.754],[-117.156,28.089],[-112.576,28.089],[-111.605,28.505],[-109.801,29.199],[-108.205,29.199],[-107.303,28.783],[-104.805,28.297],[-102.792,28.713],[-101.821,30.24],[-102.237,31.905],[-102.307,32.113]]]}},{"type":"Feature","properties":{"density":1},"geometry":{"type":"Polygon","coordinates":[[[-65.949,61.429],[-63.022,63.597],[-57.492,63.814],[-56.083,63.597],[-52.722,60.345],[-51.746,57.309],[-51.421,54.273],[-53.372,50.912],[-57.059,49.394],[-63.238,48.527],[-66.599,49.936],[-67.792,51.346],[-68.226,54.382],[-67.684,57.96],[-67.033,60.128],[-65.949,61.429]]]}},{"type":"Feature","properties":{"density":1},"geometry":{"type":"Polygon","coordinates":[[[-109.21,33.627],[-109.052,33.629],[-108.859,33.703],[-108.685,33.797],[-108.548,33.896],[-108.523,33.951],[-108.529,34.033],[-108.57,34.076],[-108.689,34.084],[-108.804,34.041],[-109.091,33.838],[-109.197,33.738],[-109.234,33.666],[-109.226,33.621],[-109.21,33.627]]]}},{"type":"Feature","properties":{"density":1},"geometry":{"type":"Polygon","coordinates":[[[-107.977,34.956],[-107.809,35.128],[-107.698,35.208],[-107.515,35.273],[-107.473,35.2],[-107.469,35.151],[-107.591,35.021],[-107.9,34.918],[-107.957,34.914],[-107.977,34.956]]]}},{"type":"Feature","properties":{"density":1},"geometry":{"type":"Polygon","coordinates":[[[-111.477,38.616],[-111.133,38.738],[-110.973,38.917],[-110.897,39.051],[-110.897,39.146],[-110.958,39.23],[-111.11,39.188],[-111.335,39.062],[-111.473,38.841],[-111.519,38.639],[-111.477,38.616]]]}},{"type":"Feature","properties":{"density":1},"geometry":{"type":"Polygon","coordinates":[[[-112.492,38.192],[-112.422,38.287],[-112.352,38.351],[-112.278,38.389],[-112.19,38.414],[-112.141,38.405],[-112.102,38.357],[-112.128,38.277],[-112.211,38.194],[-112.318,38.149],[-112.432,38.149],[-112.483,38.165],[-112.492,38.192]]]}},{"type":"Feature","properties":{"density":1},"geometry":{"type":"Polygon","coordinates":[[[-118.8,34.805],[-118.4,34.675],[-118.167,34.442],[-117.683,33.753],[-117.366,33.399],[-117.115,32.924],[-116.938,32.43],[-116.956,31.927],[-117.124,31.676],[-117.478,31.573],[-117.999,31.732],[-118.568,32.104],[-118.856,32.765],[-118.996,33.352],[-119.015,33.781],[-118.996,34.544],[-118.921,34.73],[-118.828,34.824],[-118.8,34.805]]]}},{"type":"Feature","properties":{"density":1},"geometry":{"type":"Polygon","coordinates":[[[-128.653,66.501],[-128.802,66.417],[-129.016,66.38],[-129.268,66.296],[-129.575,66.287],[-129.687,66.063],[-129.696,65.905],[-129.063,65.299],[-128.625,65.048],[-128.094,64.88],[-127.48,64.796],[-126.902,65.048],[-126.772,65.337],[-126.809,65.709],[-127.135,66.119],[-127.47,66.38],[-127.787,66.519],[-128.504,66.445],[-128.653,66.501]]]}},{"type":"Feature","properties":{"density":2},"geometry":{"type":"Polygon","coordinates":[[[-128.61,66.229],[-129.052,66.112],[-129.052,66.196],[-128.927,66.287],[-128.669,66.287],[-128.585,66.27],[-128.61,66.229]]]}},{"type":"Feature","properties":{"density":2},"geometry":{"type":"Polygon","coordinates":[[[-120.38,48.178],[-120.046,48.07],[-119.538,47.828],[-119.305,48.028],[-119.255,48.145],[-119.072,48.32],[-118.564,48.311],[-118.205,48.386],[-117.972,48.411],[-117.406,48.286],[-117.139,48.32],[-116.514,48.245],[-116.398,48.211],[-116.339,48.078],[-116.514,47.953],[-116.739,47.878],[-116.973,47.862],[-117.297,47.703],[-117.739,47.637],[-118.239,47.612],[-118.447,47.412],[-118.838,47.303],[-119.463,47.17],[-119.638,47.212],[-119.738,47.378],[-119.905,47.52],[-120.071,47.578],[-120.138,47.853],[-120.413,48.011],[-120.405,48.145],[-120.38,48.178]]]}},{"type":"Feature","properties":{"density":2},"geometry":{"type":"Polygon","coordinates":[[[-97.704,21.17],[-97.646,21.16],[-97.588,21.057],[-97.611,21.044],[-97.663,21.054],[-97.7,21.15],[-97.704,21.17]]]}},{"type":"Feature","properties":{"density":2},"geometry":{"type":"Polygon","coordinates":[[[-98.115,21.156],[-98.017,21.156],[-97.954,21.126],[-97.995,21.104],[-98.112,21.134],[-98.115,21.156]]]}},{"type":"Feature","properties":{"density":2},"geometry":{"type":"Polygon","coordinates":[[[-97.599,20.517],[-97.254,20.428],[-97.243,20.395],[-97.285,20.386],[-97.381,20.41],[-97.425,20.399],[-97.512,20.469],[-97.606,20.509],[-97.599,20.517]]]}},{"type":"Feature","properties":{"density":2},"geometry":{"type":"Polygon","coordinates":[[[-106.148,24.404],[-106.102,24.384],[-106.085,24.352],[-106.083,24.284],[-106.163,24.24],[-106.249,24.26],[-106.216,24.303],[-106.159,24.323],[-106.155,24.393],[-106.148,24.404]]]}},{"type":"Feature","properties":{"density":2},"geometry":{"type":"Polygon","coordinates":[[[-106.123,25.292],[-106.243,25.323],[-106.196,25.273],[-106.134,25.286],[-106.123,25.292]]]}},{"type":"Feature","properties":{"density":2},"geometry":{"type":"Polygon","coordinates":[[[-118.813,34.732],[-118.682,34.582],[-118.616,34.473],[-118.66,34.457],[-118.818,34.697],[-118.813,34.732]]]}},{"type":"Feature","properties":{"density":2},"geometry":{"type":"Polygon","coordinates":[[[-142.124,66.163],[-142.087,66.205],[-141.969,66.232],[-141.953,66.275],[-142.012,66.307],[-142.188,66.227],[-142.209,66.173],[-142.177,66.179],[-142.124,66.163]]]}},{"type":"Feature","properties":{"density":2},"geometry":{"type":"Polygon","coordinates":[[[-118.858,34.772],[-118.888,34.689],[-118.9,34.563],[-118.846,34.38],[-118.598,33.796],[-118.469,33.67],[-118.308,33.727],[-118.247,33.842],[-118.247,34.063],[-118.324,34.299],[-118.442,34.406],[-118.678,34.551],[-118.785,34.666],[-118.808,34.711],[-118.858,34.772]]]}},{"type":"Feature","properties":{"density":2},"geometry":{"type":"Polygon","coordinates":[[[-128.672,66.259],[-128.746,66.054],[-128.737,65.821],[-128.597,65.635],[-128.392,65.439],[-127.824,65.374],[-127.713,65.504],[-127.675,65.793],[-127.899,66.147],[-128.085,66.314],[-128.271,66.37],[-128.588,66.314],[-128.672,66.259]]]}},{"type":"Feature","properties":{"density":3},"geometry":{"type":"Polygon","coordinates":[[[-106.148,24.367],[-106.131,24.303],[-106.104,24.308],[-106.091,24.386],[-106.137,24.389],[-106.144,24.362],[-106.148,24.367]]]}}]}