{"type":"FeatureCollection","features":[{"type":"Feature","properties":{"density":1},"geometry":{"type":"Polygon","coordinates":[[[-100.019,20.434],[-99.905,20.434],[-99.889,20.411],[-99.905,20.377],[-99.939,20.369],[-100.034,20.407],[-100.019,20.434]]]}},{"type":"Feature","properties":{"density":1},"geometry":{"type":"Polygon","coordinates":[[[-108.813,29.819],[-108.864,29.819],[-108.898,29.794],[-108.913,29.739],[-108.901,29.69],[-108.864,29.678],[-108.837,29.69],[-108.803,29.81],[-108.813,29.819]]]}},{"type":"Feature","properties":{"density":1},"geometry":{"type":"Polygon","coordinates":[[[-93.547,25.795],[-94.207,25.476],[-96.162,24.931],[-96.935,24.499],[-97.435,24.089],[-97.867,23.703],[-97.935,23.294],[-98.117,22.816],[-98.095,21.952],[-97.913,20.838],[-97.64,20.315],[-97.367,19.701],[-96.89,18.746],[-96.458,18.246],[-95.821,17.791],[-95.412,17.632],[-94.843,17.518],[-93.911,17.564],[-93.138,18.064],[-92.865,18.291],[-92.496,18.413],[-92.09,18.645],[-91.665,18.935],[-91.142,19.322],[-90.775,19.96],[-90.852,20.869],[-91.278,22.378],[-91.394,23.171],[-91.336,23.809],[-90.988,24.757],[-90.773,25.408],[-90.205,26.363],[-90.068,26.818],[-90.273,27.295],[-90.591,27.477],[-90.932,27.591],[-91.455,27.545],[-92.274,27.182],[-92.729,26.681],[-93.07,26.227],[-93.456,25.863],[-93.547,25.795]]]}},{"type":"Feature","properties":{"density":1},"geometry":{"type":"Polygon","coordinates":[[[-95.291,16.505],[-94.154,16.591],[-93.586,16.818],[-93.359,16.96],[-92.989,17.472],[-92.62,17.898],[-92.335,18.438],[-92.25,18.665],[-91.966,19.007],[-91.795,19.376],[-91.71,19.66],[-91.71,20.399],[-91.767,21.024],[-91.682,21.934],[-91.142,22.389],[-90.204,22.957],[-89.522,23.412],[-88.214,24.549],[-86.888,25.991],[-86.806,26.87],[-87.157,27.437],[-88.2,27.66],[-88.84,27.505],[-89.607,27.192],[-90.09,26.965],[-90.318,26.822],[-92.733,25.572],[-93.501,24.89],[-94.126,24.52],[-95.377,23.668],[-95.661,23.497],[-95.888,23.412],[-96.428,23.383],[-97.025,23.383],[-97.707,23.355],[-98.389,23.298],[-98.844,23.185],[-99.157,22.986],[-99.242,22.73],[-99.27,22.048],[-99.071,21.735],[-98.872,21.479],[-98.816,21.366],[-98.645,21.195],[-98.503,21.024],[-98.02,20.627],[-97.906,20.456],[-97.789,20.224],[-97.736,19.888],[-97.764,19.547],[-97.878,19.49],[-98.389,19.49],[-98.617,19.802],[-98.873,20.016],[-99.157,20.115],[-99.64,20.001],[-99.953,19.745],[-99.924,19.291],[-99.754,19.035],[-99.668,18.978],[-99.071,18.779],[-98.645,18.665],[-97.65,18.609],[-97.139,18.125],[-96.684,17.472],[-96.343,17.188],[-95.661,16.676],[-95.291,16.505]]]}},{"type":"Feature","properties":{"density":1},"geometry":{"type":"Polygon","coordinates":[[[-98.063,26.037],[-98.048,26.125],[-97.995,26.262],[-98.029,26.259],[-98.067,26.194],[-98.079,26.034],[-98.063,26.037]]]}},{"type":"Feature","properties":{"density":1},"geometry":{"type":"Polygon","coordinates":[[[-96.456,29.096],[-96.345,29.138],[-96.273,29.222],[-96.265,29.276],[-96.307,29.325],[-96.357,29.325],[-96.376,29.31],[-96.456,29.127],[-96.456,29.096]]]}},{"type":"Feature","properties":{"density":1},"geometry":{"type":"Polygon","coordinates":[[[-102.863,18.415],[-103.064,18.46],[-104.204,18.475],[-104.383,18.557],[-104.487,18.743],[-104.383,18.81],[-104.219,18.825],[-103.713,18.743],[-103.28,18.624],[-103.102,18.624],[-102.938,18.542],[-102.848,18.43],[-102.863,18.415]]]}}]}