{"type":"FeatureCollection","features":[{"type":"Feature","properties":{"density":1},"geometry":{"type":"Polygon","coordinates":[[[-71.796,30.495],[-69.238,29.984],[-67.475,29.813],[-66.253,29.785],[-64.946,30.04],[-63.553,30.865],[-62.075,31.604],[-61.308,32.172],[-60.626,32.74],[-59.802,33.707],[-58.75,35.384],[-58.238,36.805],[-57.841,38.34],[-57.301,39.562],[-56.533,40.642],[-55.567,41.551],[-54.657,41.921],[-53.236,42.233],[-51.872,42.432],[-50.849,42.66],[-47.05,44.522],[-39.205,49.098],[-37.074,50.746],[-36.903,51.684],[-37.727,52.025],[-39.29,51.968],[-41.28,51.258],[-43.895,50.462],[-46.225,49.467],[-49.769,48.145],[-50.849,47.974],[-52.298,47.946],[-53.293,48.173],[-55.595,48.145],[-57.528,48.259],[-59.546,47.662],[-60.825,46.951],[-62.672,46.042],[-63.866,45.161],[-64.861,44.251],[-66.282,43.683],[-67.191,42.972],[-67.703,42.148],[-68.129,41.295],[-68.584,40.528],[-70.09,39.647],[-71.057,39.363],[-72.904,39.277],[-73.927,39.391],[-74.95,39.078],[-75.917,37.686],[-76.116,36.464],[-76.002,35.099],[-74.95,33.082],[-74.183,32.058],[-72.961,30.921],[-72.876,30.893],[-71.796,30.495]]]}},{"type":"Feature","properties":{"density":1},"geometry":{"type":"Polygon","coordinates":[[[-108.316,32.913],[-108.271,33.117],[-108.089,33.299],[-107.816,33.481],[-107.543,33.754],[-107.043,34.641],[-106.997,35.141],[-106.906,35.527],[-106.747,35.982],[-106.474,36.346],[-106.156,36.596],[-105.588,36.914],[-102.905,39.529],[-101.79,41.053],[-101.29,42.098],[-101.04,42.44],[-100.563,42.803],[-100.426,43.349],[-100.699,44.145],[-100.767,44.736],[-100.54,45.214],[-100.176,45.782],[-99.676,46.373],[-98.721,46.782],[-97.72,47.055],[-96.47,47.169],[-94.924,47.351],[-93.719,47.328],[-92.673,47.374],[-91.263,47.374],[-88.103,47.555],[-87.011,47.419],[-86.17,47.169],[-85.692,47.01],[-85.42,46.805],[-85.306,46.6],[-85.351,46.282],[-85.897,45.805],[-86.829,45.373],[-87.784,45.032],[-88.648,44.622],[-90.058,43.917],[-91.263,43.281],[-92.423,42.599],[-93.469,41.848],[-94.469,41.03],[-95.583,40.211],[-96.743,39.211],[-98.334,37.96],[-99.289,37.415],[-100.222,36.573],[-101.313,35.709],[-103.814,33.663],[-105.087,32.981],[-106.611,32.594],[-107.407,32.435],[-107.725,32.458],[-107.907,32.617],[-108.316,32.913]]]}},{"type":"Feature","properties":{"density":1},"geometry":{"type":"Polygon","coordinates":[[[-92.792,51.686],[-91.155,51.413],[-86.299,50.704],[-84.316,50.358],[-82.588,50.249],[-80.678,50.431],[-78.077,51.377],[-76.203,52.304],[-75.203,52.65],[-74.73,52.941],[-74.548,53.105],[-74.493,53.196],[-74.493,53.305],[-74.621,53.45],[-74.875,53.559],[-75.294,53.559],[-75.967,53.359],[-76.785,53.086],[-77.768,52.595],[-78.877,52.195],[-79.514,52.068],[-80.405,52.122],[-80.896,52.359],[-81.496,52.795],[-81.897,53.159],[-82.824,53.814],[-83.843,53.978],[-85.389,54.414],[-86.408,54.778],[-87.445,55.051],[-88.5,55.142],[-89.264,55.142],[-90.773,54.687],[-91.646,54.323],[-92.356,53.923],[-92.956,53.687],[-93.356,53.414],[-93.92,52.814],[-93.957,52.723],[-93.993,52.541],[-93.847,52.322],[-93.738,52.122],[-93.465,51.977],[-93.065,51.831],[-92.792,51.686]]]}},{"type":"Feature","properties":{"density":1},"geometry":{"type":"Polygon","coordinates":[[[-121.871,45.417],[-120.379,45.382],[-119.277,45.702],[-117.963,46.306],[-116.897,47.158],[-115.76,48.473],[-114.659,49.787],[-112.74,50.96],[-111.142,51.528],[-109.792,51.919],[-108.015,52.629],[-105.884,54.193],[-105.066,55.152],[-104.249,56.289],[-103.326,56.786],[-101.976,56.786],[-100.306,56.75],[-99.204,56.928],[-98.068,57.283],[-96.931,57.497],[-94.373,57.923],[-91.957,57.816],[-87.374,58.065],[-83.786,57.425],[-80.73,56.679],[-79.416,55.898],[-77.497,55.116],[-76.503,54.832],[-75.508,55.223],[-75.224,56.147],[-75.65,57.461],[-77.533,58.776],[-82.045,63.145],[-84.745,65.277],[-87.267,66.911],[-90.003,67.906],[-93.804,68.332],[-97.179,68.368],[-104.001,68.226],[-106.168,68.545],[-108.619,68.332],[-112.563,67.657],[-113.913,67.977],[-113.948,68.403],[-115.192,69.149],[-119.81,69.824],[-122.972,69.86],[-129.403,70.18],[-133.595,69.931],[-135.229,69.682],[-136.65,69.363],[-137.893,69.221],[-140.913,69.647],[-145.141,70.18],[-150.683,70.606],[-152.46,70.606],[-154.414,70.961],[-156.048,71.068],[-157.753,70.997],[-158.997,70.819],[-160.595,70.464],[-162.194,70.073],[-164.894,68.936],[-165.356,68.794],[-166.102,68.19],[-166.351,67.906],[-166.386,67.302],[-166.351,66.769],[-165.818,66.236],[-164.503,65.668],[-162.62,64.922],[-160.347,64.247],[-158.428,63.287],[-153.419,62.506],[-150.79,62.612],[-149.724,62.47],[-149.546,62.186],[-149.156,61.76],[-146.74,60.587],[-144.75,59.841],[-142.761,58.953],[-141.375,58.101],[-140.558,57.425],[-139.67,56.644],[-138.782,55.791],[-137.893,54.974],[-137.645,54.619],[-137.218,54.477],[-136.615,54.548],[-136.295,54.761],[-136.259,55.436],[-136.694,57.029],[-136.73,57.393],[-131.304,52.101],[-129.115,50.68],[-126.216,48.946],[-125.42,48.378],[-124.653,47.639],[-124.17,46.985],[-123.516,46.332],[-123.061,45.991],[-121.871,45.417]]]}},{"type":"Feature","properties":{"density":1},"geometry":{"type":"Polygon","coordinates":[[[-108.163,32.933],[-108.087,32.985],[-107.956,32.997],[-107.849,32.994],[-107.599,32.951],[-107.495,32.951],[-107.458,32.936],[-107.449,32.914],[-107.486,32.884],[-107.703,32.808],[-107.819,32.798],[-108.118,32.881],[-108.163,32.933]]]}},{"type":"Feature","properties":{"density":1},"geometry":{"type":"Polygon","coordinates":[[[-112.456,37.585],[-112.402,37.661],[-112.36,37.688],[-112.078,37.798],[-111.948,37.871],[-111.857,37.878],[-111.857,37.81],[-111.91,37.68],[-111.963,37.619],[-112.086,37.539],[-112.2,37.52],[-112.337,37.52],[-112.429,37.447],[-112.49,37.443],[-112.505,37.474],[-112.475,37.562],[-112.456,37.585]]]}},{"type":"Feature","properties":{"density":1},"geometry":{"type":"Polygon","coordinates":[[[-113.493,37.516],[-113.348,37.569],[-113.085,37.634],[-112.581,37.874],[-112.539,37.874],[-112.517,37.848],[-112.517,37.787],[-112.566,37.699],[-112.658,37.623],[-112.971,37.451],[-113.02,37.379],[-113.024,37.318],[-112.959,37.092],[-112.963,36.936],[-112.993,36.749],[-113.1,36.661],[-113.203,36.608],[-113.302,36.585],[-113.444,36.623],[-113.764,36.814],[-113.867,37.199],[-113.787,37.356],[-113.737,37.405],[-113.627,37.47],[-113.493,37.516]]]}},{"type":"Feature","properties":{"density":1},"geometry":{"type":"Polygon","coordinates":[[[-110.534,42.921],[-110.47,42.95],[-110.253,42.977],[-110.138,42.954],[-109.997,42.901],[-109.96,42.858],[-109.958,42.831],[-109.992,42.806],[-110.033,42.809],[-110.286,42.886],[-110.402,42.888],[-110.501,42.868],[-110.521,42.87],[-110.534,42.901],[-110.534,42.921]]]}},{"type":"Feature","properties":{"density":1},"geometry":{"type":"Polygon","coordinates":[[[-116.171,32.38],[-116.132,32.408],[-116.118,32.466],[-116.148,32.554],[-116.191,32.54],[-116.202,32.46],[-116.187,32.404],[-116.171,32.38]]]}},{"type":"Feature","properties":{"density":1},"geometry":{"type":"Polygon","coordinates":[[[-111.828,36.612],[-111.491,36.675],[-111.097,36.889],[-110.847,37.086],[-110.495,37.402],[-110.197,37.718],[-109.546,38.447],[-109.341,38.707],[-109.257,39.08],[-109.118,40.03],[-109.09,42.069],[-109.173,42.47],[-109.248,42.712],[-109.481,43.085],[-109.63,43.28],[-109.779,43.392],[-109.891,43.438],[-110.021,43.457],[-110.142,43.448],[-110.291,43.317],[-110.421,43.094],[-110.515,42.805],[-110.589,42.507],[-110.747,42.06],[-110.84,41.445],[-110.915,41.129],[-110.962,40.84],[-110.98,40.598],[-110.98,40.235],[-111.111,39.341],[-111.166,39.089],[-111.334,38.773],[-111.604,38.4],[-111.735,38.26],[-111.995,38.046],[-112.144,37.869],[-112.219,37.692],[-112.219,37.068],[-112.172,36.882],[-112.107,36.761],[-112.005,36.658],[-111.828,36.612]]]}},{"type":"Feature","properties":{"density":1},"geometry":{"type":"Polygon","coordinates":[[[-106.342,22.262],[-107.157,23.862],[-109.034,27.34],[-109.995,28.505],[-110.78,29.13],[-111.45,29.887],[-111.886,30.615],[-112.759,31.4],[-113.123,31.633],[-113.56,31.808],[-113.996,31.91],[-114.418,31.851],[-114.651,31.706],[-114.811,31.56],[-114.826,30.847],[-114.622,30.251],[-114.316,29.683],[-112.512,27.166],[-111.872,26.322],[-111.202,25.536],[-110.635,24.692],[-110.053,23.921],[-109.718,23.266],[-109.733,22.451],[-109.718,22.087],[-109.543,21.738],[-109.311,21.185],[-109.165,20.952],[-108.918,20.705],[-108.568,20.486],[-108.088,20.268],[-107.768,20.181],[-107.433,20.152],[-107.055,20.166],[-106.589,20.297],[-106.284,20.472],[-106.007,20.763],[-106.007,21.112],[-106.066,21.578],[-106.342,22.262]]]}},{"type":"Feature","properties":{"density":1},"geometry":{"type":"Polygon","coordinates":[[[-109.995,30.903],[-110.014,30.991],[-109.965,31.368],[-109.694,31.757],[-109.618,32.036],[-109.587,32.265],[-109.541,32.44],[-109.423,32.684],[-109.267,32.845],[-108.843,33.077],[-108.63,33.161],[-108.446,33.192],[-108.256,33.192],[-107.886,33.096],[-107.684,33.062],[-107.588,32.993],[-107.558,32.951],[-107.55,32.783],[-107.615,32.661],[-107.783,32.558],[-107.966,32.52],[-108.519,32.532],[-108.637,32.494],[-108.759,32.429],[-108.897,32.257],[-109.038,32.024],[-109.084,31.864],[-109.179,31.654],[-109.465,31.261],[-109.812,30.884],[-109.881,30.83],[-109.942,30.827],[-109.995,30.903]]]}},{"type":"Feature","properties":{"density":1},"geometry":{"type":"Polygon","coordinates":[[[-92.718,36.51],[-92.263,36.795],[-90.956,37.392],[-90.728,37.761],[-90.53,38.244],[-90.501,39.21],[-90.7,40.575],[-90.643,41.712],[-90.387,42.365],[-90.188,42.934],[-89.677,44.213],[-89.108,44.952],[-87.972,46.401],[-87.403,46.629],[-86.352,46.714],[-84.874,46.657],[-83.055,45.975],[-81.832,45.747],[-80.014,45.264],[-79.019,44.696],[-77.456,44.184],[-76.489,43.388],[-75.978,42.848],[-75.551,41.74],[-75.182,40.489],[-74.699,39.296],[-73.846,38.472],[-72.595,37.59],[-71.913,36.311],[-71.572,35.089],[-71.487,33.81],[-71.487,33.185],[-71.629,32.759],[-71.771,32.077],[-72.34,31.281],[-72.88,30.94],[-73.818,30.826],[-76.773,31.963],[-78.45,32.418],[-79.473,32.503],[-80.326,32.162],[-81.321,31.593],[-82.003,30.769],[-82.373,29.973],[-82.856,29.206],[-83.424,28.78],[-84.419,28.297],[-85.328,28.012],[-87.119,27.87],[-88.369,28.098],[-89.421,28.211],[-90.132,28.439],[-92.121,29.405],[-92.832,31.565],[-92.86,32.759],[-93.116,34.805],[-93.116,35.885],[-92.718,36.51]]]}},{"type":"Feature","properties":{"density":1},"geometry":{"type":"Polygon","coordinates":[[[-116.9,60.322],[-117.167,60.333],[-117.346,60.318],[-117.693,60.249],[-117.804,60.203],[-117.911,60.184],[-118.353,60.135],[-119.116,60.097],[-119.425,60.127],[-119.501,60.15],[-119.574,60.207],[-119.616,60.272],[-119.692,60.322],[-119.978,60.348],[-120.062,60.325],[-120.184,60.261],[-120.23,60.207],[-120.249,60.116],[-120.196,59.997],[-120.1,59.929],[-119.978,59.883],[-119.173,59.818],[-118.7,59.791],[-118.51,59.795],[-118.204,59.837],[-117.987,59.849],[-117.892,59.879],[-117.731,59.963],[-117.606,59.963],[-117.571,59.921],[-117.606,59.833],[-117.64,59.795],[-117.789,59.662],[-118.063,59.486],[-118.151,59.41],[-118.166,59.356],[-118.143,59.246],[-117.987,59.154],[-117.762,59.116],[-117.472,59.223],[-117.369,59.349],[-117.06,59.768],[-117.049,59.856],[-117.007,59.963],[-116.93,60.062],[-116.858,60.203],[-116.839,60.283],[-116.858,60.314],[-116.9,60.322]]]}},{"type":"Feature","properties":{"density":1},"geometry":{"type":"Polygon","coordinates":[[[-89.089,52.793],[-89.482,52.785],[-89.587,52.798],[-89.868,52.859],[-89.951,52.907],[-89.914,52.937],[-89.865,52.937],[-89.113,52.893],[-89.035,52.881],[-89.009,52.856],[-89.009,52.822],[-89.043,52.802],[-89.089,52.793]]]}},{"type":"Feature","properties":{"density":1},"geometry":{"type":"Polygon","coordinates":[[[-109.983,30.887],[-109.864,30.884],[-109.819,30.914],[-109.704,31.028],[-109.49,31.326],[-109.243,31.605],[-109.059,31.864],[-109.044,31.982],[-109.082,32.017],[-109.113,32.02],[-109.235,31.975],[-109.353,31.917],[-109.468,31.841],[-109.639,31.666],[-109.723,31.551],[-109.857,31.284],[-109.914,31.044],[-110.025,30.91],[-109.99,30.891],[-109.983,30.887]]]}},{"type":"Feature","properties":{"density":1},"geometry":{"type":"Polygon","coordinates":[[[-108.172,32.911],[-108.175,32.935],[-108.084,32.999],[-107.971,33.036],[-107.794,33.088],[-107.415,33.146],[-107.254,33.152],[-107.156,33.097],[-107.107,33.017],[-107.104,32.963],[-107.131,32.917],[-107.177,32.889],[-107.299,32.862],[-107.983,32.847],[-108.139,32.883],[-108.172,32.911]]]}},{"type":"Feature","properties":{"density":1},"geometry":{"type":"Polygon","coordinates":[[[-112.42,37.603],[-112.389,37.683],[-111.809,38.0],[-111.603,38.023],[-111.466,38.0],[-111.424,37.966],[-111.359,37.84],[-111.344,37.699],[-111.42,37.458],[-111.474,37.363],[-111.565,37.268],[-111.638,37.218],[-111.722,37.203],[-111.809,37.222],[-112.004,37.344],[-112.153,37.481],[-112.221,37.519],[-112.267,37.539],[-112.366,37.523],[-112.389,37.527],[-112.397,37.546],[-112.42,37.603]]]}},{"type":"Feature","properties":{"density":1},"geometry":{"type":"Polygon","coordinates":[[[-113.503,37.532],[-113.404,37.574],[-113.255,37.719],[-112.988,37.887],[-112.603,37.982],[-112.527,37.982],[-112.462,37.929],[-112.45,37.841],[-112.469,37.78],[-112.523,37.704],[-112.569,37.662],[-112.702,37.616],[-112.817,37.544],[-112.847,37.448],[-112.897,37.38],[-113.141,37.3],[-113.404,37.273],[-113.465,37.216],[-113.56,37.063],[-113.641,37.033],[-113.717,37.033],[-113.797,37.067],[-113.835,37.174],[-113.835,37.254],[-113.812,37.342],[-113.744,37.426],[-113.587,37.494],[-113.503,37.532]]]}},{"type":"Feature","properties":{"density":1},"geometry":{"type":"Polygon","coordinates":[[[-130.537,42.09],[-130.153,41.287],[-129.746,40.739],[-129.175,40.076],[-127.708,38.621],[-126.719,37.736],[-126.02,36.921],[-125.252,36.211],[-124.903,35.827],[-124.588,35.687],[-124.286,35.675],[-123.832,35.745],[-123.506,35.966],[-123.18,36.234],[-122.982,36.479],[-122.528,36.898],[-122.353,37.34],[-122.318,37.701],[-122.423,38.074],[-124.006,39.389],[-124.845,39.936],[-125.054,40.053],[-125.217,40.099],[-125.427,40.076],[-125.485,39.855],[-125.497,39.68],[-125.171,38.434],[-125.147,38.225],[-125.171,38.19],[-125.485,38.178],[-125.939,38.353],[-126.707,39.133],[-127.557,40.379],[-128.093,40.879],[-128.558,41.38],[-128.942,41.741],[-129.292,41.997],[-129.944,42.381],[-130.072,42.439],[-130.223,42.474],[-130.363,42.462],[-130.491,42.358],[-130.526,42.23],[-130.537,42.09]]]}},{"type":"Feature","properties":{"density":1},"geometry":{"type":"Polygon","coordinates":[[[-116.841,60.259],[-116.909,60.164],[-117.016,60.072],[-117.089,59.954],[-117.127,59.859],[-117.127,59.767],[-117.18,59.618],[-117.39,59.424],[-117.634,59.279],[-117.81,59.206],[-117.962,59.172],[-118.165,59.153],[-118.477,59.176],[-118.859,59.317],[-119.023,59.462],[-119.187,59.58],[-119.446,59.679],[-120.118,59.832],[-120.316,59.92],[-120.362,60.0],[-120.339,60.118],[-120.24,60.233],[-120.106,60.271],[-119.946,60.263],[-119.671,60.084],[-119.519,60.015],[-119.351,59.977],[-118.687,60.034],[-117.825,60.248],[-117.482,60.305],[-116.959,60.347],[-116.864,60.32],[-116.841,60.259]]]}},{"type":"Feature","properties":{"density":1},"geometry":{"type":"Polygon","coordinates":[[[-121.927,58.209],[-122.147,58.267],[-122.22,58.272],[-122.237,58.26],[-122.22,58.216],[-122.11,58.162],[-121.964,58.15],[-121.915,58.167],[-121.913,58.192],[-121.927,58.209]]]}},{"type":"Feature","properties":{"density":1},"geometry":{"type":"Polygon","coordinates":[[[-120.248,64.151],[-120.164,64.14],[-120.141,64.155],[-120.13,64.231],[-120.198,64.38],[-120.782,65.344],[-120.973,65.482],[-121.135,65.554],[-121.321,65.549],[-121.33,65.492],[-121.278,65.372],[-121.173,65.225],[-121.049,65.077],[-120.863,64.919],[-120.529,64.595],[-120.415,64.419],[-120.329,64.218],[-120.286,64.166],[-120.248,64.151]]]}},{"type":"Feature","properties":{"density":1},"geometry":{"type":"Polygon","coordinates":[[[-137.587,61.36],[-137.581,61.421],[-137.636,61.51],[-137.648,61.601],[-137.606,61.702],[-137.505,61.76],[-137.38,61.733],[-137.38,61.666],[-137.42,61.601],[-137.447,61.586],[-137.465,61.531],[-137.49,61.376],[-137.526,61.318],[-137.56,61.33],[-137.587,61.36]]]}},{"type":"Feature","properties":{"density":1},"geometry":{"type":"Polygon","coordinates":[[[-137.09,61.409],[-137.13,61.473],[-137.188,61.51],[-137.3,61.531],[-137.438,61.595],[-137.481,61.638],[-137.487,61.696],[-137.45,61.717],[-137.349,61.656],[-137.142,61.632],[-137.05,61.537],[-137.029,61.446],[-137.035,61.4],[-137.059,61.394],[-137.09,61.409]]]}},{"type":"Feature","properties":{"density":1},"geometry":{"type":"Polygon","coordinates":[[[-145.114,62.753],[-145.119,62.778],[-145.099,62.802],[-144.843,62.831],[-144.745,62.807],[-144.716,62.753],[-144.716,62.678],[-144.748,62.636],[-144.814,62.597],[-145.053,62.56],[-145.077,62.577],[-145.073,62.607],[-145.043,62.634],[-144.902,62.682],[-144.889,62.719],[-144.955,62.746],[-145.092,62.741],[-145.114,62.753]]]}},{"type":"Feature","properties":{"density":1},"geometry":{"type":"Polygon","coordinates":[[[-150.496,65.263],[-150.57,65.295],[-150.633,65.297],[-150.657,65.283],[-150.665,65.251],[-150.65,65.178],[-150.574,65.136],[-150.157,65.026],[-150.035,65.012],[-150.03,65.068],[-150.079,65.104],[-150.44,65.253],[-150.496,65.263]]]}},{"type":"Feature","properties":{"density":1},"geometry":{"type":"Polygon","coordinates":[[[-173.461,69.191],[-172.49,70.856],[-169.777,71.973],[-166.106,72.244],[-156.593,72.233],[-151.396,71.966],[-144.328,71.714],[-137.459,71.645],[-126.981,71.645],[-122.471,71.783],[-118.863,71.922],[-113.797,71.575],[-109.842,71.645],[-103.944,71.853],[-100.197,71.714],[-96.728,71.783],[-92.703,71.783],[-88.401,71.645],[-85.348,71.638],[-82.007,71.689],[-78.756,71.298],[-75.692,70.44],[-71.609,69.077],[-67.584,67.204],[-65.017,65.746],[-63.088,64.422],[-61.256,63.644],[-59.924,62.756],[-58.869,61.59],[-58.425,60.48],[-58.484,59.407],[-58.831,58.643],[-59.202,57.76],[-60.09,56.761],[-62.092,55.243],[-64.104,54.341],[-68.476,52.468],[-70.804,50.877],[-72.025,49.322],[-72.58,47.102],[-73.08,44.937],[-74.135,42.606],[-76.466,41.94],[-79.417,41.95],[-82.461,42.883],[-85.348,43.605],[-87.988,44.704],[-89.365,45.459],[-92.074,48.212],[-94.507,51.598],[-96.284,52.931],[-98.393,53.819],[-99.947,53.985],[-101.505,53.925],[-103.378,53.439],[-105.252,52.815],[-106.942,52.209],[-107.996,51.876],[-109.346,51.149],[-111.938,49.822],[-111.913,49.831],[-113.717,48.651],[-115.799,47.888],[-118.366,46.847],[-122.318,45.659],[-123.042,45.167],[-123.668,44.087],[-123.895,42.154],[-123.156,39.909],[-122.317,38.324],[-121.594,37.002],[-120.658,35.399],[-120.309,34.352],[-120.629,33.333],[-121.408,32.729],[-122.037,32.543],[-122.782,32.485],[-123.571,32.831],[-124.756,33.527],[-126.277,34.635],[-128.497,36.855],[-130.688,39.852],[-132.314,42.615],[-133.632,46.57],[-136.13,52.26],[-137.032,53.856],[-137.934,55.174],[-139.946,57.186],[-141.334,58.227],[-142.583,58.574],[-145.012,59.337],[-146.746,59.754],[-148.62,60.031],[-150.147,60.031],[-151.604,60.309],[-153.13,60.378],[-155.073,60.309],[-156.877,60.586],[-159.306,60.656],[-161.665,60.794],[-165.204,61.072],[-167.91,61.697],[-169.367,62.113],[-170.616,62.529],[-172.143,63.57],[-173.669,64.958],[-173.878,66.207],[-174.016,67.733],[-173.878,68.705],[-173.461,69.191]]]}},{"type":"Feature","properties":{"density":1},"geometry":{"type":"Polygon","coordinates":[[[-113.674,37.448],[-113.406,37.669],[-112.044,38.88],[-111.031,39.951],[-110.519,40.37],[-109.972,40.743],[-108.983,41.326],[-108.563,41.534],[-108.435,41.651],[-107.891,42.025],[-107.149,42.578],[-106.48,43.164],[-106.049,43.502],[-105.583,44.037],[-104.664,45.015],[-104.058,45.434],[-103.697,45.434],[-103.43,45.271],[-103.197,44.934],[-102.999,44.561],[-102.964,44.247],[-103.034,43.723],[-103.15,43.467],[-103.657,42.811],[-104.244,42.186],[-104.815,41.686],[-106.223,40.685],[-106.782,40.207],[-107.539,39.683],[-108.983,38.834],[-109.669,38.473],[-110.38,38.135],[-110.997,37.879],[-111.672,37.634],[-112.487,37.274],[-113.243,37.099],[-113.476,37.111],[-113.674,37.204],[-113.721,37.285],[-113.709,37.343],[-113.674,37.448]]]}},{"type":"Feature","properties":{"density":1},"geometry":{"type":"Polygon","coordinates":[[[-116.375,32.616],[-116.308,32.658],[-116.235,32.667],[-116.143,32.658],[-116.004,32.608],[-115.923,32.618],[-115.856,32.64],[-115.754,32.721],[-115.661,32.771],[-115.502,32.817],[-115.334,32.832],[-115.182,32.802],[-115.017,32.735],[-114.922,32.677],[-114.883,32.57],[-114.886,32.524],[-114.971,32.414],[-115.081,32.1],[-115.185,31.978],[-115.267,31.959],[-115.546,31.952],[-115.67,31.966],[-115.844,32.011],[-116.219,31.99],[-116.317,32.008],[-116.393,32.054],[-116.424,32.1],[-116.46,32.295],[-116.45,32.453],[-116.399,32.6],[-116.375,32.616]]]}},{"type":"Feature","properties":{"density":1},"geometry":{"type":"Polygon","coordinates":[[[-110.146,30.978],[-109.85,31.387],[-109.191,32.092],[-108.349,33.206],[-107.258,34.229],[-106.621,35.071],[-105.666,36.162],[-104.802,37.412],[-103.938,38.436],[-103.211,39.413],[-102.756,39.784],[-102.392,39.936],[-102.028,39.8],[-101.901,39.493],[-102.119,38.663],[-102.642,37.89],[-103.461,36.799],[-104.279,35.866],[-105.871,33.979],[-106.962,32.933],[-107.781,32.206],[-109.372,30.955],[-109.736,30.728],[-109.941,30.659],[-110.146,30.705],[-110.191,30.819],[-110.146,30.978]]]}},{"type":"Feature","properties":{"density":1},"geometry":{"type":"Polygon","coordinates":[[[-67.642,43.504],[-69.276,43.042],[-70.804,42.581],[-72.26,42.296],[-73.219,42.048],[-74.925,41.941],[-76.701,41.621],[-77.945,41.657],[-78.762,41.621],[-79.721,41.55],[-81.391,41.302],[-83.132,41.124],[-84.908,40.875],[-86.329,40.556],[-87.43,40.165],[-88.39,39.738],[-89.74,38.992],[-91.09,37.713],[-92.191,36.399],[-92.511,35.333],[-92.369,33.805],[-92.191,32.917],[-91.871,31.922],[-91.054,31.176],[-90.166,30.537],[-89.42,30.217],[-88.461,29.649],[-86.187,29.258],[-84.766,29.329],[-83.664,29.471],[-80.787,30.253],[-79.934,30.963],[-79.117,31.958],[-78.122,32.562],[-76.666,33.237],[-75.813,33.663],[-75.102,33.699],[-74.037,33.663],[-73.042,33.486],[-72.083,33.272],[-70.697,32.988],[-69.418,32.846],[-68.032,32.633],[-66.007,32.846],[-64.018,33.415],[-61.78,34.303],[-60.607,35.404],[-59.364,36.505],[-58.12,37.465],[-57.481,38.992],[-56.806,40.449],[-55.562,42.332],[-54.248,43.646],[-53.431,44.25],[-52.365,45.423],[-51.548,46.204],[-50.553,46.986],[-50.091,47.696],[-49.594,48.585],[-49.558,49.437],[-49.736,50.041],[-50.269,50.432],[-50.908,50.574],[-51.512,50.61],[-52.756,50.325],[-54.106,49.864],[-55.491,49.26],[-57.126,48.762],[-58.476,48.087],[-60.074,47.128],[-61.638,46.311],[-62.774,45.671],[-65.617,44.179],[-66.789,43.895],[-67.642,43.504]]]}},{"type":"Feature","properties":{"density":2},"geometry":{"type":"Polygon","coordinates":[[[-91.207,52.399],[-88.518,51.561],[-84.141,50.863],[-81.125,50.665],[-80.148,50.723],[-80.043,50.793],[-79.926,50.932],[-79.857,51.049],[-79.95,51.224],[-81.312,51.363],[-82.592,51.398],[-83.675,51.643],[-84.944,51.887],[-85.91,52.155],[-86.061,52.178],[-85.922,52.283],[-85.491,52.26],[-84.397,52.364],[-83.745,52.551],[-83.628,52.644],[-83.442,52.9],[-83.465,53.121],[-83.698,53.319],[-84.001,53.435],[-84.373,53.54],[-85.13,53.633],[-85.794,53.633],[-86.131,53.563],[-86.876,53.622],[-87.645,53.854],[-88.087,53.854],[-88.611,53.808],[-88.89,53.715],[-89.437,53.272],[-89.95,53.168],[-90.858,53.179],[-91.533,53.156],[-91.882,53.226],[-92.336,53.191],[-92.767,53.109],[-93.105,52.97],[-93.128,52.83],[-93.081,52.725],[-92.965,52.667],[-92.488,52.597],[-92.103,52.574],[-91.556,52.458],[-91.207,52.399]]]}},{"type":"Feature","properties":{"density":2},"geometry":{"type":"Polygon","coordinates":[[[-109.923,30.945],[-109.781,31.167],[-109.544,31.46],[-109.486,31.504],[-109.478,31.492],[-109.871,30.933],[-109.898,30.913],[-109.923,30.945]]]}},{"type":"Feature","properties":{"density":2},"geometry":{"type":"Polygon","coordinates":[[[-108.161,32.925],[-108.058,32.957],[-107.97,32.957],[-107.913,32.949],[-107.831,32.904],[-107.853,32.886],[-107.946,32.908],[-108.152,32.912],[-108.161,32.925]]]}},{"type":"Feature","properties":{"density":2},"geometry":{"type":"Polygon","coordinates":[[[-113.645,37.363],[-113.557,37.436],[-113.42,37.497],[-113.074,37.566],[-112.949,37.639],[-112.927,37.639],[-112.905,37.605],[-112.939,37.529],[-113.293,37.383],[-113.393,37.361],[-113.547,37.383],[-113.599,37.346],[-113.635,37.295],[-113.674,37.29],[-113.657,37.348],[-113.645,37.363]]]}},{"type":"Feature","properties":{"density":2},"geometry":{"type":"Polygon","coordinates":[[[-112.336,37.637],[-112.297,37.671],[-112.251,37.683],[-112.141,37.707],[-112.114,37.69],[-112.148,37.624],[-112.195,37.59],[-112.246,37.583],[-112.302,37.602],[-112.324,37.58],[-112.366,37.575],[-112.358,37.624],[-112.336,37.637]]]}},{"type":"Feature","properties":{"density":2},"geometry":{"type":"Polygon","coordinates":[[[-118.548,58.339],[-118.739,58.219],[-118.976,58.168],[-119.689,58.119],[-119.991,58.119],[-120.204,58.141],[-120.357,58.217],[-120.414,58.314],[-120.414,58.346],[-120.382,58.402],[-120.235,58.446],[-119.701,58.422],[-119.271,58.505],[-118.912,58.612],[-118.795,58.622],[-118.712,58.602],[-118.585,58.49],[-118.541,58.434],[-118.534,58.378],[-118.548,58.339]]]}},{"type":"Feature","properties":{"density":2},"geometry":{"type":"Polygon","coordinates":[[[-116.909,60.292],[-116.978,60.312],[-117.051,60.312],[-117.173,60.272],[-117.332,60.248],[-117.617,60.229],[-118.035,60.104],[-118.284,60.114],[-118.955,60.067],[-119.046,60.045],[-119.055,60.019],[-119.046,59.984],[-118.943,59.948],[-118.604,59.918],[-118.301,59.914],[-118.162,59.875],[-118.091,59.872],[-117.93,59.897],[-117.656,60.031],[-117.376,60.097],[-117.329,60.089],[-117.319,60.063],[-117.388,59.999],[-117.393,59.911],[-117.3,59.862],[-117.188,59.94],[-117.144,60.028],[-116.963,60.197],[-116.892,60.233],[-116.895,60.28],[-116.909,60.292]]]}},{"type":"Feature","properties":{"density":2},"geometry":{"type":"Polygon","coordinates":[[[-119.806,59.533],[-119.864,59.555],[-120.131,59.574],[-120.409,59.616],[-120.798,59.723],[-120.913,59.822],[-120.97,59.913],[-121.1,60.043],[-121.207,60.1],[-121.271,60.1],[-121.401,59.997],[-121.424,59.913],[-121.428,59.734],[-121.485,59.673],[-121.794,59.639],[-121.828,59.608],[-121.821,59.559],[-121.556,59.451],[-121.108,59.415],[-120.612,59.318],[-120.463,59.246],[-120.364,59.143],[-120.257,59.082],[-120.139,59.051],[-119.913,59.067],[-119.902,59.126],[-119.971,59.181],[-119.982,59.238],[-119.967,59.257],[-119.856,59.273],[-119.833,59.326],[-119.845,59.356],[-119.974,59.402],[-119.925,59.421],[-119.73,59.429],[-119.715,59.467],[-119.748,59.497],[-119.806,59.533]]]}},{"type":"Feature","properties":{"density":2},"geometry":{"type":"Polygon","coordinates":[[[-122.355,60.217],[-122.476,60.238],[-122.653,60.222],[-122.755,60.192],[-122.836,60.192],[-123.041,60.309],[-123.078,60.368],[-123.055,60.414],[-123.031,60.419],[-122.985,60.417],[-122.88,60.375],[-122.595,60.357],[-122.346,60.364],[-122.336,60.372],[-122.348,60.385],[-122.505,60.444],[-122.488,60.488],[-122.376,60.505],[-122.268,60.432],[-122.16,60.304],[-122.13,60.232],[-122.133,60.204],[-122.158,60.2],[-122.271,60.289],[-122.371,60.305],[-122.365,60.28],[-122.316,60.237],[-122.336,60.22],[-122.355,60.217]]]}},{"type":"Feature","properties":{"density":2},"geometry":{"type":"Polygon","coordinates":[[[-122.714,59.149],[-123.023,59.21],[-123.044,59.238],[-123.028,59.257],[-122.903,59.26],[-122.644,59.201],[-122.622,59.166],[-122.628,59.151],[-122.677,59.151],[-122.714,59.149]]]}},{"type":"Feature","properties":{"density":2},"geometry":{"type":"Polygon","coordinates":[[[-122.145,59.329],[-122.18,59.358],[-122.18,59.449],[-122.287,59.502],[-122.326,59.576],[-122.341,59.646],[-122.292,59.698],[-122.253,59.695],[-122.089,59.517],[-121.95,59.446],[-121.928,59.417],[-121.928,59.4],[-121.999,59.361],[-122.021,59.322],[-122.062,59.302],[-122.116,59.307],[-122.145,59.329]]]}},{"type":"Feature","properties":{"density":2},"geometry":{"type":"Polygon","coordinates":[[[-136.637,66.092],[-136.705,66.128],[-136.815,66.141],[-136.837,66.185],[-136.825,66.231],[-136.571,66.331],[-136.547,66.289],[-136.595,66.165],[-136.571,66.116],[-136.59,66.089],[-136.637,66.092]]]}},{"type":"Feature","properties":{"density":2},"geometry":{"type":"Polygon","coordinates":[[[-113.49,37.378],[-113.509,37.394],[-113.509,37.419],[-113.31,37.511],[-113.153,37.645],[-113.12,37.633],[-113.103,37.581],[-113.117,37.517],[-113.206,37.414],[-113.292,37.378],[-113.446,37.361],[-113.49,37.378]]]}},{"type":"Feature","properties":{"density":2},"geometry":{"type":"Polygon","coordinates":[[[-116.132,32.405],[-116.196,32.325],[-116.257,32.314],[-116.267,32.348],[-116.153,32.47],[-116.112,32.464],[-116.115,32.423],[-116.132,32.405]]]}},{"type":"Feature","properties":{"density":2},"geometry":{"type":"Polygon","coordinates":[[[-116.909,60.29],[-117.009,60.305],[-117.241,60.294],[-118.001,60.168],[-118.233,60.103],[-118.344,60.053],[-118.367,59.95],[-118.332,59.927],[-117.634,60.057],[-117.188,60.088],[-117.016,60.156],[-116.909,60.24],[-116.894,60.286],[-116.909,60.29]]]}},{"type":"Feature","properties":{"density":2},"geometry":{"type":"Polygon","coordinates":[[[-118.623,58.497],[-118.659,58.517],[-118.745,58.524],[-118.772,58.541],[-118.752,58.607],[-118.816,58.617],[-119.18,58.455],[-119.612,58.402],[-119.946,58.387],[-119.961,58.341],[-119.88,58.277],[-119.69,58.204],[-119.453,58.189],[-119.072,58.238],[-118.811,58.302],[-118.591,58.39],[-118.589,58.436],[-118.616,58.48],[-118.623,58.497]]]}},{"type":"Feature","properties":{"density":2},"geometry":{"type":"Polygon","coordinates":[[[-119.914,59.058],[-120.348,59.082],[-120.568,59.139],[-120.696,59.239],[-120.878,59.335],[-121.226,59.411],[-121.469,59.44],[-121.65,59.44],[-121.86,59.368],[-121.974,59.297],[-122.151,59.235],[-122.251,59.235],[-122.647,59.321],[-122.938,59.487],[-123.119,59.616],[-123.195,59.745],[-123.219,59.888],[-123.5,60.293],[-123.472,60.393],[-123.329,60.489],[-123.109,60.556],[-122.914,60.579],[-122.399,60.68],[-122.156,60.689],[-122.008,60.675],[-121.722,60.594],[-121.498,60.465],[-121.426,60.379],[-121.316,60.069],[-121.173,59.845],[-120.82,59.735],[-119.986,59.626],[-119.79,59.554],[-119.743,59.445],[-119.738,59.344],[-119.786,59.211],[-119.886,59.068],[-119.914,59.058]]]}},{"type":"Feature","properties":{"density":2},"geometry":{"type":"Polygon","coordinates":[[[-120.183,64.212],[-120.427,64.697],[-120.511,64.785],[-120.542,64.796],[-120.561,64.765],[-120.484,64.575],[-120.336,64.3],[-120.24,64.17],[-120.187,64.163],[-120.172,64.174],[-120.179,64.193],[-120.183,64.212]]]}},{"type":"Feature","properties":{"density":2},"geometry":{"type":"Polygon","coordinates":[[[-136.595,66.105],[-136.595,66.155],[-136.614,66.174],[-136.724,66.182],[-136.805,66.227],[-136.846,66.231],[-136.866,66.189],[-136.782,66.121],[-136.793,66.048],[-136.763,66.006],[-136.679,66.006],[-136.618,66.059],[-136.595,66.105]]]}},{"type":"Feature","properties":{"density":2},"geometry":{"type":"Polygon","coordinates":[[[-147.131,61.878],[-147.131,61.927],[-147.096,61.941],[-146.894,61.993],[-146.813,61.98],[-146.825,61.932],[-146.972,61.893],[-147.021,61.844],[-147.053,61.766],[-147.101,61.783],[-147.126,61.851],[-147.131,61.878]]]}},{"type":"Feature","properties":{"density":2},"geometry":{"type":"Polygon","coordinates":[[[-158.201,66.586],[-158.201,66.859],[-158.337,67.382],[-158.292,68.019],[-157.701,68.678],[-157.018,69.61],[-156.7,69.951],[-155.768,70.179],[-154.995,70.293],[-154.063,70.406],[-152.971,70.452],[-151.334,70.338],[-148.969,70.224],[-147.355,69.883],[-145.309,69.792],[-144.376,69.633],[-141.557,68.246],[-140.738,67.519],[-139.579,66.814],[-138.124,66.313],[-136.077,65.972],[-133.713,65.654],[-131.894,65.677],[-130.438,65.677],[-129.074,65.427],[-127.665,65.199],[-126.528,64.995],[-125.345,64.654],[-124.549,64.244],[-123.64,63.744],[-122.912,63.153],[-122.549,62.403],[-122.367,61.948],[-121.844,61.516],[-121.366,61.198],[-120.889,60.834],[-120.525,60.402],[-120.298,60.174],[-120.093,59.833],[-119.456,59.47],[-118.888,58.878],[-118.456,58.378],[-117.546,58.105],[-115.955,57.878],[-114.045,58.037],[-112.612,57.855],[-110.748,56.923],[-110.316,56.559],[-110.089,55.968],[-110.066,55.4],[-110.27,55.149],[-110.771,55.058],[-111.635,54.945],[-112.271,54.558],[-113.681,54.126],[-116.5,53.558],[-117.865,52.853],[-118.592,52.148],[-118.911,51.557],[-119.297,50.716],[-119.82,50.056],[-120.775,49.806],[-122.389,50.056],[-128.051,54.104],[-130.87,57.241],[-133.053,58.446],[-134.418,59.265],[-134.986,59.924],[-135.077,60.174],[-135.077,60.493],[-135.191,60.834],[-135.645,61.402],[-136.055,61.698],[-137.26,61.834],[-138.237,61.902],[-138.806,61.811],[-139.306,61.584],[-139.988,61.379],[-140.693,61.448],[-141.784,61.652],[-142.353,62.016],[-144.513,63.198],[-146.559,63.562],[-147.514,63.63],[-148.81,63.471],[-149.561,63.289],[-150.561,63.13],[-151.88,63.017],[-153.653,62.971],[-155.973,63.471],[-157.132,64.131],[-157.655,64.676],[-158.042,65.268],[-158.11,65.859],[-158.178,66.291],[-158.201,66.586]]]}},{"type":"Feature","properties":{"density":2},"geometry":{"type":"Polygon","coordinates":[[[-159.11,68.414],[-158.613,68.911],[-157.867,69.444],[-156.908,69.87],[-155.806,70.155],[-155.096,70.403],[-153.924,70.581],[-151.721,70.403],[-150.655,70.439],[-148.097,70.297],[-144.047,69.942],[-142.59,69.622],[-141.738,69.409],[-140.672,68.698],[-139.393,67.916],[-138.825,67.277],[-138.505,66.78],[-138.149,65.927],[-136.693,65.287],[-135.663,65.074],[-134.313,65.181],[-132.998,65.394],[-131.115,65.287],[-129.126,65.572],[-127.989,65.572],[-126.852,65.749],[-125.786,65.998],[-125.218,66.353],[-124.294,66.638],[-124.01,66.815],[-122.02,67.313],[-121.274,67.277],[-120.173,66.993],[-119.071,66.673],[-118.752,66.247],[-118.681,65.714],[-118.752,65.359],[-119.178,64.684],[-119.604,63.937],[-120.457,63.795],[-121.523,63.973],[-122.056,63.831],[-122.447,63.333],[-122.162,62.09],[-121.665,61.38],[-121.381,60.882],[-121.096,60.172],[-120.741,60.101],[-120.208,60.029],[-119.782,60.349],[-119.249,60.882],[-118.716,61.202],[-117.97,61.308],[-116.691,61.237],[-116.087,60.669],[-116.016,59.816],[-116.336,59.568],[-116.407,59.07],[-115.803,58.537],[-115.554,58.36],[-115.27,58.36],[-114.737,58.324],[-114.062,58.466],[-113.209,58.324],[-112.677,58.075],[-112.179,57.187],[-112.073,56.761],[-112.073,56.157],[-112.286,55.482],[-112.854,55.02],[-113.209,54.558],[-113.813,53.99],[-114.24,53.564],[-114.773,53.244],[-115.625,53.031],[-115.838,52.889],[-116.94,52.533],[-117.97,51.858],[-118.929,51.183],[-119.569,50.615],[-120.883,50.082],[-121.345,49.975],[-121.985,49.727],[-122.908,49.691],[-123.939,49.904],[-124.862,50.331],[-125.786,50.828],[-126.745,51.503],[-127.349,52.533],[-128.344,53.812],[-129.197,54.985],[-130.369,56.015],[-131.541,57.258],[-132.252,57.791],[-133.815,58.786],[-134.881,59.532],[-135.734,59.958],[-136.906,60.385],[-137.51,60.385],[-140.032,60.882],[-141.596,61.273],[-143.372,61.38],[-144.935,61.557],[-146.712,61.486],[-147.706,61.628],[-148.594,61.522],[-150.158,61.486],[-151.472,61.415],[-153.213,61.415],[-155.06,61.486],[-156.908,61.664],[-158.364,62.055],[-159.572,63.12],[-160.034,63.795],[-160.318,64.755],[-160.532,65.359],[-160.603,66.46],[-160.389,67.099],[-159.892,67.774],[-159.11,68.414]]]}},{"type":"Feature","properties":{"density":2},"geometry":{"type":"Polygon","coordinates":[[[-129.12,41.599],[-128.61,41.144],[-128.101,40.507],[-127.483,39.58],[-126.919,38.816],[-126.446,38.252],[-125.918,37.742],[-125.354,37.269],[-124.499,36.651],[-124.008,36.433],[-123.735,36.415],[-123.372,36.36],[-123.135,36.396],[-123.026,36.451],[-122.971,36.56],[-123.081,36.724],[-123.299,36.833],[-123.535,37.015],[-123.59,37.288],[-123.554,37.47],[-123.463,37.651],[-123.317,37.742],[-122.953,37.742],[-122.535,37.579],[-122.28,37.288],[-122.026,36.851],[-121.916,36.415],[-121.789,36.033],[-121.789,35.36],[-122.007,35.014],[-122.207,34.832],[-122.753,34.632],[-122.862,34.505],[-122.862,34.286],[-122.917,33.959],[-123.008,33.832],[-123.372,33.686],[-123.772,33.65],[-124.081,33.722],[-124.39,33.868],[-125.1,34.486],[-125.445,34.923],[-125.827,35.269],[-126.791,36.651],[-127.373,37.269],[-127.774,37.67],[-128.283,38.052],[-128.483,38.252],[-128.865,38.488],[-129.465,38.925],[-129.938,39.434],[-130.229,39.78],[-130.502,40.18],[-130.829,40.762],[-131.066,41.526],[-131.139,41.89],[-131.102,42.253],[-130.975,42.49],[-130.884,42.599],[-130.666,42.726],[-130.338,42.69],[-129.902,42.526],[-129.283,41.799],[-129.12,41.599]]]}},{"type":"Feature","properties":{"density":2},"geometry":{"type":"Polygon","coordinates":[[[-113.575,37.37],[-113.563,37.441],[-113.474,37.544],[-113.368,37.627],[-113.276,37.749],[-112.785,38.069],[-112.434,38.21],[-112.208,38.234],[-112.095,38.213],[-112.037,38.127],[-112.025,38.045],[-112.04,38.002],[-112.507,37.718],[-112.916,37.581],[-113.291,37.328],[-113.447,37.337],[-113.523,37.322],[-113.557,37.325],[-113.578,37.349],[-113.575,37.37]]]}},{"type":"Feature","properties":{"density":2},"geometry":{"type":"Polygon","coordinates":[[[-112.473,37.621],[-112.333,37.779],[-112.064,37.962],[-111.973,38.054],[-111.811,38.139],[-111.469,38.362],[-111.32,38.402],[-111.176,38.377],[-111.103,38.329],[-111.03,38.237],[-110.999,38.161],[-110.999,38.066],[-111.07,38.005],[-111.25,37.941],[-111.601,37.85],[-112.055,37.636],[-112.284,37.56],[-112.412,37.535],[-112.455,37.553],[-112.476,37.602],[-112.473,37.621]]]}},{"type":"Feature","properties":{"density":2},"geometry":{"type":"Polygon","coordinates":[[[-116.202,32.566],[-116.129,32.544],[-116.086,32.489],[-116.004,32.459],[-115.891,32.517],[-115.656,32.715],[-115.549,32.728],[-115.509,32.712],[-115.485,32.645],[-115.506,32.578],[-115.586,32.471],[-115.598,32.431],[-115.552,32.261],[-115.576,32.187],[-115.735,32.09],[-115.79,32.087],[-115.845,32.099],[-115.863,32.175],[-115.897,32.209],[-115.949,32.209],[-116.016,32.169],[-116.101,32.169],[-116.272,32.23],[-116.382,32.358],[-116.382,32.462],[-116.33,32.523],[-116.254,32.559],[-116.202,32.566]]]}},{"type":"Feature","properties":{"density":2},"geometry":{"type":"Polygon","coordinates":[[[-110.01,30.867],[-110.019,30.907],[-109.998,30.999],[-109.726,31.322],[-109.531,31.502],[-109.177,31.759],[-108.966,31.936],[-108.875,31.963],[-108.82,31.933],[-108.798,31.899],[-108.798,31.859],[-108.988,31.698],[-109.033,31.636],[-109.244,31.429],[-109.433,31.2],[-109.702,30.974],[-109.94,30.855],[-109.988,30.843],[-110.013,30.864],[-110.01,30.867]]]}},{"type":"Feature","properties":{"density":3},"geometry":{"type":"Polygon","coordinates":[[[-88.623,53.028],[-87.889,52.667],[-86.853,52.481],[-85.386,52.492],[-84.921,52.562],[-84.886,52.655],[-84.921,52.807],[-85.072,52.946],[-85.41,53.016],[-86.189,53.075],[-86.888,53.191],[-87.517,53.342],[-87.843,53.494],[-88.308,53.587],[-88.623,53.633],[-88.786,53.61],[-88.879,53.459],[-88.832,53.342],[-88.739,53.226],[-88.623,53.028]]]}},{"type":"Feature","properties":{"density":3},"geometry":{"type":"Polygon","coordinates":[[[-147.362,63.896],[-148.253,64.205],[-148.672,64.041],[-148.963,63.768],[-149.436,63.605],[-150.891,63.259],[-152.51,63.241],[-154.256,63.314],[-155.584,63.514],[-156.73,64.114],[-157.457,64.769],[-157.712,65.478],[-157.421,66.279],[-156.912,66.933],[-156.439,67.152],[-155.857,67.243],[-154.692,67.334],[-153.892,67.643],[-153.237,68.025],[-152.109,68.643],[-151.455,69.153],[-150.854,69.425],[-150.145,69.698],[-149.163,69.717],[-148.071,69.498],[-146.98,69.571],[-146.416,69.498],[-145.652,69.262],[-145.288,69.098],[-144.87,68.662],[-143.851,67.879],[-142.869,67.406],[-141.959,67.061],[-140.868,66.533],[-139.813,66.133],[-136.011,65.187],[-134.011,65.114],[-132.41,65.114],[-131.318,64.969],[-130.045,64.751],[-129.481,64.678],[-128.135,63.987],[-127.589,63.605],[-127.135,63.186],[-126.771,62.677],[-126.534,62.04],[-126.516,61.822],[-126.553,60.567],[-126.753,59.821],[-126.698,58.766],[-126.48,57.911],[-125.861,56.183],[-125.57,55.638],[-125.425,55.31],[-125.425,54.928],[-126.444,54.619],[-127.28,54.673],[-128.263,55.219],[-129.427,56.038],[-130.118,56.729],[-131.264,57.602],[-132.101,58.093],[-132.883,58.493],[-133.738,58.894],[-134.393,59.421],[-134.647,59.821],[-134.811,60.421],[-134.793,60.713],[-134.756,60.985],[-134.32,61.276],[-134.065,61.313],[-133.901,61.386],[-133.792,61.495],[-134.011,61.713],[-134.265,61.731],[-134.902,61.895],[-135.629,61.968],[-136.284,62.004],[-138.358,62.004],[-139.085,62.077],[-139.522,62.022],[-139.74,61.731],[-140.122,61.549],[-140.832,61.549],[-141.596,61.677],[-142.651,62.404],[-143.324,62.95],[-144.67,63.496],[-145.761,63.696],[-146.762,63.787],[-147.362,63.896]]]}},{"type":"Feature","properties":{"density":3},"geometry":{"type":"Polygon","coordinates":[[[-109.92,30.94],[-109.793,31.123],[-109.749,31.145],[-109.81,31.018],[-109.908,30.918],[-109.92,30.94]]]}},{"type":"Feature","properties":{"density":3},"geometry":{"type":"Polygon","coordinates":[[[-108.148,32.931],[-108.109,32.941],[-108.05,32.922],[-108.054,32.91],[-108.142,32.914],[-108.157,32.931],[-108.148,32.931]]]}},{"type":"Feature","properties":{"density":3},"geometry":{"type":"Polygon","coordinates":[[[-113.513,37.4],[-113.477,37.439],[-113.276,37.519],[-113.135,37.551],[-113.083,37.551],[-113.074,37.536],[-113.081,37.505],[-113.306,37.383],[-113.481,37.361],[-113.508,37.38],[-113.513,37.4]]]}},{"type":"Feature","properties":{"density":3},"geometry":{"type":"Polygon","coordinates":[[[-112.268,37.668],[-112.224,37.685],[-112.197,37.678],[-112.18,37.649],[-112.209,37.6],[-112.241,37.593],[-112.27,37.639],[-112.268,37.668]]]}},{"type":"Feature","properties":{"density":3},"geometry":{"type":"Polygon","coordinates":[[[-118.551,58.37],[-118.597,58.424],[-118.629,58.424],[-118.949,58.3],[-119.059,58.28],[-119.479,58.297],[-119.662,58.351],[-119.984,58.395],[-120.248,58.375],[-120.311,58.351],[-120.316,58.322],[-120.289,58.285],[-120.257,58.273],[-120.018,58.326],[-119.75,58.322],[-119.388,58.202],[-119.225,58.18],[-118.836,58.217],[-118.729,58.243],[-118.553,58.348],[-118.551,58.37]]]}},{"type":"Feature","properties":{"density":3},"geometry":{"type":"Polygon","coordinates":[[[-118.89,58.539],[-119.088,58.497],[-119.125,58.466],[-119.12,58.446],[-119.095,58.422],[-119.059,58.422],[-118.797,58.5],[-118.8,58.519],[-118.854,58.546],[-118.89,58.539]]]}},{"type":"Feature","properties":{"density":3},"geometry":{"type":"Polygon","coordinates":[[[-116.924,60.287],[-117.012,60.294],[-117.117,60.251],[-117.232,60.233],[-117.527,60.226],[-117.659,60.194],[-117.81,60.131],[-117.832,60.109],[-117.839,60.048],[-117.803,60.016],[-117.705,60.055],[-117.666,60.089],[-117.507,60.128],[-117.131,60.143],[-117.041,60.163],[-116.912,60.253],[-116.914,60.287],[-116.924,60.287]]]}},{"type":"Feature","properties":{"density":3},"geometry":{"type":"Polygon","coordinates":[[[-120.039,59.273],[-120.36,59.292],[-120.76,59.387],[-121.035,59.429],[-121.451,59.444],[-121.546,59.471],[-121.542,59.536],[-121.428,59.582],[-121.142,59.578],[-120.722,59.643],[-120.608,59.646],[-120.348,59.574],[-119.902,59.551],[-119.81,59.524],[-119.78,59.494],[-119.791,59.456],[-119.963,59.433],[-120.047,59.437],[-120.036,59.387],[-119.898,59.337],[-119.879,59.315],[-119.879,59.295],[-119.971,59.292],[-120.039,59.273]]]}},{"type":"Feature","properties":{"density":3},"geometry":{"type":"Polygon","coordinates":[[[-122.109,59.346],[-122.154,59.367],[-122.155,59.393],[-122.128,59.424],[-122.079,59.432],[-122.046,59.414],[-122.04,59.373],[-122.083,59.34],[-122.109,59.346]]]}},{"type":"Feature","properties":{"density":3},"geometry":{"type":"Polygon","coordinates":[[[-121.761,59.676],[-121.786,59.715],[-121.827,59.734],[-121.96,59.766],[-122.06,59.775],[-122.101,59.748],[-122.097,59.695],[-122.062,59.682],[-121.9,59.689],[-121.767,59.641],[-121.751,59.645],[-121.757,59.658],[-121.761,59.676]]]}},{"type":"Feature","properties":{"density":3},"geometry":{"type":"Polygon","coordinates":[[[-121.884,59.859],[-122.169,60.01],[-122.361,60.045],[-122.466,60.035],[-122.474,60.02],[-122.447,59.981],[-122.378,59.949],[-121.945,59.803],[-121.886,59.795],[-121.87,59.818],[-121.88,59.852],[-121.884,59.859]]]}},{"type":"Feature","properties":{"density":3},"geometry":{"type":"Polygon","coordinates":[[[-122.716,59.398],[-122.736,59.436],[-122.882,59.535],[-122.97,59.574],[-122.948,59.631],[-122.888,59.635],[-122.796,59.607],[-122.667,59.518],[-122.613,59.443],[-122.609,59.385],[-122.624,59.373],[-122.7,59.381],[-122.716,59.398]]]}},{"type":"Feature","properties":{"density":3},"geometry":{"type":"Polygon","coordinates":[[[-122.657,59.647],[-122.679,59.688],[-122.741,59.689],[-122.794,59.713],[-122.788,59.756],[-122.722,59.813],[-122.622,59.822],[-122.589,59.807],[-122.525,59.703],[-122.464,59.664],[-122.48,59.637],[-122.64,59.633],[-122.657,59.647]]]}},{"type":"Feature","properties":{"density":3},"geometry":{"type":"Polygon","coordinates":[[[-122.784,60.18],[-122.853,60.191],[-122.894,60.223],[-122.909,60.258],[-122.898,60.318],[-122.853,60.352],[-122.765,60.365],[-122.458,60.359],[-122.396,60.342],[-122.372,60.314],[-122.4,60.262],[-122.702,60.26],[-122.739,60.238],[-122.761,60.186],[-122.784,60.18]]]}},{"type":"Feature","properties":{"density":3},"geometry":{"type":"Polygon","coordinates":[[[-122.156,60.204],[-122.179,60.228],[-122.174,60.247],[-122.143,60.234],[-122.145,60.209],[-122.156,60.204]]]}},{"type":"Feature","properties":{"density":3},"geometry":{"type":"Polygon","coordinates":[[[-122.278,60.347],[-122.304,60.364],[-122.294,60.39],[-122.253,60.368],[-122.25,60.345],[-122.264,60.342],[-122.278,60.347]]]}},{"type":"Feature","properties":{"density":3},"geometry":{"type":"Polygon","coordinates":[[[-122.117,59.332],[-122.155,59.376],[-122.12,59.416],[-122.15,59.452],[-122.145,59.469],[-122.123,59.474],[-121.978,59.401],[-121.98,59.386],[-122.045,59.357],[-122.056,59.321],[-122.103,59.327],[-122.117,59.332]]]}},{"type":"Feature","properties":{"density":3},"geometry":{"type":"Polygon","coordinates":[[[-136.627,66.111],[-136.693,66.165],[-136.695,66.187],[-136.666,66.219],[-136.625,66.192],[-136.593,66.133],[-136.583,66.109],[-136.61,66.101],[-136.627,66.111]]]}},{"type":"Feature","properties":{"density":3},"geometry":{"type":"Polygon","coordinates":[[[-113.484,37.416],[-113.301,37.448],[-113.274,37.427],[-113.293,37.391],[-113.379,37.372],[-113.463,37.373],[-113.484,37.403],[-113.484,37.416]]]}},{"type":"Feature","properties":{"density":3},"geometry":{"type":"Polygon","coordinates":[[[-118.657,58.385],[-118.606,58.412],[-118.53,58.382],[-118.508,58.341],[-118.545,58.253],[-119.065,58.062],[-119.355,58.033],[-119.651,58.026],[-120.254,58.16],[-120.51,58.116],[-120.61,58.123],[-120.747,58.226],[-120.757,58.265],[-120.742,58.292],[-120.661,58.309],[-120.268,58.314],[-119.856,58.226],[-119.392,58.16],[-119.238,58.16],[-118.909,58.236],[-118.677,58.375],[-118.657,58.385]]]}},{"type":"Feature","properties":{"density":3},"geometry":{"type":"Polygon","coordinates":[[[-122.718,59.441],[-122.734,59.52],[-122.789,59.569],[-122.904,59.612],[-122.962,59.652],[-122.984,59.71],[-122.975,59.734],[-122.908,59.758],[-122.828,59.762],[-122.718,59.755],[-122.602,59.716],[-122.541,59.591],[-122.541,59.462],[-122.59,59.392],[-122.66,59.389],[-122.697,59.411],[-122.718,59.441]]]}},{"type":"Feature","properties":{"density":3},"geometry":{"type":"Polygon","coordinates":[[[-122.128,59.324],[-122.175,59.328],[-122.253,59.369],[-122.261,59.403],[-122.22,59.461],[-122.186,59.467],[-122.075,59.399],[-122.057,59.367],[-122.071,59.336],[-122.128,59.324]]]}},{"type":"Feature","properties":{"density":3},"geometry":{"type":"Polygon","coordinates":[[[-121.766,59.678],[-121.893,59.729],[-122.059,59.75],[-122.27,59.711],[-122.284,59.68],[-122.251,59.666],[-121.788,59.649],[-121.759,59.653],[-121.763,59.678],[-121.766,59.678]]]}},{"type":"Feature","properties":{"density":3},"geometry":{"type":"Polygon","coordinates":[[[-121.897,59.863],[-122.261,59.981],[-122.655,60.061],[-122.743,60.069],[-122.759,60.057],[-122.753,60.037],[-122.702,60.006],[-122.427,59.92],[-121.927,59.793],[-121.886,59.807],[-121.88,59.852],[-121.897,59.863]]]}},{"type":"Feature","properties":{"density":3},"geometry":{"type":"Polygon","coordinates":[[[-122.138,60.223],[-122.298,60.424],[-122.358,60.471],[-122.438,60.494],[-122.544,60.422],[-122.749,60.399],[-123.055,60.412],[-123.157,60.444],[-123.37,60.471],[-123.427,60.455],[-123.425,60.418],[-123.389,60.377],[-123.386,60.346],[-123.468,60.27],[-123.46,60.229],[-123.413,60.205],[-123.067,60.141],[-123.013,60.108],[-122.907,59.971],[-122.733,59.905],[-122.669,59.912],[-122.636,59.94],[-122.622,59.988],[-122.618,60.176],[-122.589,60.238],[-122.452,60.248],[-122.325,60.215],[-122.354,60.297],[-122.292,60.303],[-122.171,60.203],[-122.141,60.196],[-122.134,60.209],[-122.138,60.223]]]}},{"type":"Feature","properties":{"density":3},"geometry":{"type":"Polygon","coordinates":[[[-135.032,61.532],[-135.18,61.532],[-135.405,61.62],[-135.531,61.738],[-135.627,61.902],[-135.627,61.975],[-135.592,62.036],[-135.535,62.074],[-135.466,62.07],[-135.352,62.009],[-135.157,61.841],[-134.925,61.593],[-134.932,61.536],[-134.97,61.536],[-135.032,61.532]]]}},{"type":"Feature","properties":{"density":3},"geometry":{"type":"Polygon","coordinates":[[[-133.731,59.838],[-133.689,59.957],[-133.643,60.002],[-133.487,60.067],[-133.429,60.121],[-133.387,60.121],[-133.349,60.09],[-133.353,60.029],[-133.399,59.983],[-133.567,59.918],[-133.651,59.812],[-133.719,59.815],[-133.731,59.838]]]}},{"type":"Feature","properties":{"density":3},"geometry":{"type":"Polygon","coordinates":[[[-136.687,63.739],[-136.74,63.796],[-136.824,63.796],[-136.977,63.708],[-136.999,63.602],[-136.969,63.567],[-136.935,63.571],[-136.904,63.632],[-136.824,63.693],[-136.774,63.705],[-136.702,63.686],[-136.683,63.708],[-136.687,63.739]]]}},{"type":"Feature","properties":{"density":3},"geometry":{"type":"Polygon","coordinates":[[[-142.748,64.008],[-142.763,64.069],[-142.736,64.089],[-142.529,64.108],[-142.516,64.137],[-142.536,64.162],[-142.58,64.162],[-142.614,64.216],[-142.609,64.252],[-142.577,64.284],[-142.524,64.299],[-142.441,64.277],[-142.35,64.22],[-142.123,64.238],[-142.084,64.225],[-142.05,64.181],[-142.043,64.108],[-142.092,64.081],[-142.345,64.05],[-142.609,63.986],[-142.682,63.991],[-142.748,64.008]]]}},{"type":"Feature","properties":{"density":3},"geometry":{"type":"Polygon","coordinates":[[[-147.104,61.873],[-147.128,61.895],[-147.123,61.915],[-147.065,61.951],[-147.023,61.949],[-146.991,61.907],[-147.009,61.883],[-147.065,61.858],[-147.104,61.873]]]}},{"type":"Feature","properties":{"density":3},"geometry":{"type":"Polygon","coordinates":[[[-157.634,66.164],[-157.435,66.704],[-156.639,67.471],[-155.36,67.983],[-152.831,68.608],[-150.642,68.921],[-149.306,68.977],[-148.084,69.006],[-147.288,68.949],[-146.663,68.722],[-146.009,68.579],[-144.929,68.267],[-142.911,67.499],[-141.945,67.073],[-140.211,66.164],[-139.273,65.652],[-138.449,65.283],[-137.369,64.743],[-136.005,64.004],[-134.527,63.577],[-132.822,63.435],[-131.969,63.293],[-130.605,63.123],[-129.44,63.037],[-128.246,62.81],[-126.739,62.185],[-125.631,61.446],[-125.063,60.82],[-124.523,60.337],[-123.926,59.428],[-123.698,58.603],[-123.784,58.177],[-124.011,57.552],[-124.21,56.784],[-124.409,56.443],[-124.75,55.335],[-125.262,54.823],[-126.029,54.511],[-126.853,54.511],[-127.677,54.71],[-128.331,55.534],[-128.729,56.387],[-129.553,57.751],[-130.406,58.518],[-131.06,58.945],[-131.998,59.342],[-133.276,59.513],[-134.015,60.081],[-134.612,60.565],[-135.095,61.019],[-135.493,61.247],[-135.778,61.389],[-136.602,61.645],[-137.312,61.701],[-138.137,61.844],[-139.188,61.872],[-140.183,61.986],[-141.576,62.327],[-143.025,62.781],[-143.736,63.094],[-144.816,63.52],[-146.265,63.833],[-147.26,63.947],[-148.113,63.918],[-148.852,63.748],[-149.619,63.606],[-150.443,63.549],[-151.665,63.407],[-153.854,63.236],[-154.365,63.094],[-154.934,63.037],[-156.128,63.208],[-156.668,63.435],[-157.094,63.719],[-157.236,64.117],[-157.492,64.402],[-157.691,65.226],[-157.662,65.652],[-157.634,66.164]]]}},{"type":"Feature","properties":{"density":3},"geometry":{"type":"Polygon","coordinates":[[[-118.811,58.607],[-119.102,58.398],[-119.31,57.951],[-119.348,57.638],[-119.459,57.541],[-119.549,57.489],[-119.616,57.392],[-119.616,57.281],[-119.564,57.251],[-119.146,57.243],[-118.908,57.266],[-118.789,57.311],[-118.476,57.325],[-118.401,57.355],[-118.282,57.504],[-118.26,57.623],[-118.319,57.705],[-118.439,57.817],[-118.55,57.892],[-118.588,58.123],[-118.55,58.234],[-118.498,58.316],[-118.513,58.398],[-118.699,58.592],[-118.774,58.607],[-118.811,58.607]]]}},{"type":"Feature","properties":{"density":3},"geometry":{"type":"Polygon","coordinates":[[[-120.026,59.643],[-120.175,59.68],[-120.614,59.672],[-121.016,59.598],[-121.426,59.59],[-121.799,59.769],[-121.866,59.881],[-122.007,59.948],[-122.082,60.008],[-122.164,60.037],[-122.179,60.09],[-122.127,60.194],[-122.022,60.239],[-121.911,60.268],[-121.642,60.268],[-121.56,60.343],[-121.62,60.447],[-121.903,60.559],[-122.119,60.678],[-122.343,60.73],[-122.603,60.73],[-123.073,60.596],[-123.222,60.529],[-123.274,60.425],[-123.207,60.254],[-123.11,60.104],[-122.805,59.881],[-122.812,59.821],[-122.849,59.762],[-122.991,59.762],[-123.058,59.739],[-123.304,59.739],[-123.386,59.71],[-123.46,59.65],[-123.475,59.605],[-123.475,59.501],[-123.401,59.426],[-123.147,59.233],[-123.021,59.196],[-122.708,59.128],[-122.559,59.114],[-122.395,59.173],[-122.29,59.166],[-122.037,59.248],[-121.896,59.263],[-121.642,59.203],[-121.404,59.054],[-120.972,58.883],[-120.555,58.793],[-120.428,58.786],[-120.093,58.912],[-119.936,59.017],[-119.787,59.292],[-119.75,59.419],[-119.765,59.523],[-119.847,59.605],[-119.936,59.635],[-120.026,59.643]]]}},{"type":"Feature","properties":{"density":3},"geometry":{"type":"Polygon","coordinates":[[[-120.269,64.229],[-120.346,64.354],[-120.507,64.557],[-120.65,64.67],[-120.763,64.855],[-120.728,65.153],[-120.662,65.302],[-120.418,65.475],[-120.364,65.493],[-120.251,65.439],[-120.179,65.32],[-120.126,65.183],[-120.006,65.052],[-119.816,64.992],[-119.714,64.921],[-119.708,64.903],[-119.72,64.861],[-119.846,64.766],[-119.893,64.694],[-119.911,64.623],[-119.893,64.515],[-119.911,64.426],[-120.03,64.277],[-120.102,64.217],[-120.144,64.14],[-120.197,64.104],[-120.251,64.116],[-120.281,64.175],[-120.269,64.229]]]}},{"type":"Feature","properties":{"density":3},"geometry":{"type":"Polygon","coordinates":[[[-117.169,60.112],[-118.123,60.341],[-118.142,60.379],[-118.137,60.431],[-118.113,60.465],[-117.894,60.565],[-117.827,60.722],[-117.803,60.741],[-117.684,60.751],[-117.494,60.708],[-117.346,60.603],[-117.246,60.45],[-116.94,60.279],[-116.94,60.231],[-116.974,60.183],[-117.079,60.121],[-117.155,60.112],[-117.169,60.112]]]}},{"type":"Feature","properties":{"density":3},"geometry":{"type":"Polygon","coordinates":[[[-112.438,37.631],[-112.121,37.875],[-111.961,37.975],[-111.575,38.173],[-111.492,38.188],[-111.366,38.162],[-111.251,38.036],[-111.278,37.971],[-111.301,37.959],[-111.656,37.864],[-111.858,37.792],[-112.064,37.689],[-112.22,37.639],[-112.331,37.563],[-112.426,37.551],[-112.46,37.574],[-112.457,37.616],[-112.438,37.631]]]}},{"type":"Feature","properties":{"density":3},"geometry":{"type":"Polygon","coordinates":[[[-113.542,37.38],[-113.542,37.41],[-113.508,37.474],[-113.447,37.544],[-113.246,37.679],[-113.007,37.788],[-112.87,37.801],[-112.818,37.779],[-112.794,37.688],[-112.864,37.648],[-113.105,37.563],[-113.148,37.474],[-113.2,37.41],[-113.249,37.386],[-113.401,37.38],[-113.514,37.331],[-113.542,37.34],[-113.548,37.376],[-113.542,37.38]]]}},{"type":"Feature","properties":{"density":3},"geometry":{"type":"Polygon","coordinates":[[[-116.233,32.493],[-116.172,32.493],[-116.107,32.453],[-116.01,32.431],[-115.94,32.431],[-115.888,32.447],[-115.787,32.557],[-115.75,32.566],[-115.686,32.557],[-115.647,32.493],[-115.692,32.364],[-115.744,32.3],[-115.869,32.242],[-116.223,32.267],[-116.339,32.325],[-116.364,32.358],[-116.37,32.422],[-116.297,32.489],[-116.254,32.493],[-116.233,32.493]]]}},{"type":"Feature","properties":{"density":3},"geometry":{"type":"Polygon","coordinates":[[[-109.995,30.886],[-109.998,30.922],[-109.94,30.999],[-109.754,31.225],[-109.601,31.383],[-109.442,31.521],[-109.357,31.575],[-109.317,31.585],[-109.262,31.557],[-109.241,31.508],[-109.271,31.429],[-109.424,31.246],[-109.671,31.038],[-109.863,30.928],[-109.927,30.867],[-109.967,30.858],[-109.995,30.871],[-110.01,30.904],[-109.995,30.886]]]}}]}