{"type":"FeatureCollection","features":[{"type":"Feature","properties":{"density":1},"geometry":{"type":"Polygon","coordinates":[[[-105.868,20.144],[-105.853,19.344],[-106.013,18.907],[-106.13,18.66],[-106.421,18.18],[-106.595,17.947],[-106.828,17.685],[-107.483,17.074],[-107.92,16.768],[-108.327,16.535],[-108.749,16.186],[-109.098,15.837],[-109.258,15.648],[-109.317,15.487],[-109.317,15.327],[-109.026,14.993],[-108.356,14.542],[-107.76,14.381],[-107.294,14.352],[-106.465,14.251],[-105.97,14.09],[-104.937,13.698],[-104.704,13.625],[-104.238,13.581],[-103.845,13.494],[-103.452,13.494],[-102.594,13.581],[-102.084,13.683],[-101.837,13.683],[-101.517,13.668],[-101.139,13.494],[-100.993,13.377],[-100.818,13.086],[-100.76,12.839],[-100.746,12.606],[-100.775,11.98],[-100.935,11.602],[-101.342,11.18],[-101.575,10.831],[-101.662,10.496],[-101.692,10.147],[-101.59,10.03],[-101.226,9.972],[-100.76,10.001],[-99.8,10.103],[-98.737,10.161],[-95.696,10.161],[-94.547,10.205],[-93.368,10.438],[-92.829,10.7],[-92.204,11.122],[-91.84,11.5],[-90.923,12.359],[-90.312,13.086],[-89.89,13.479],[-89.803,13.727],[-89.934,13.887],[-90.108,13.989],[-90.326,14.032],[-90.516,14.09],[-90.632,14.178],[-90.699,14.338],[-90.792,14.641],[-90.804,14.92],[-90.629,15.211],[-90.268,15.595],[-89.977,16.049],[-89.919,16.608],[-90.187,17.132],[-90.501,17.563],[-91.409,18.517],[-91.665,18.866],[-91.77,19.181],[-91.828,19.495],[-91.828,19.844],[-91.817,20.077],[-91.665,20.741],[-91.619,21.043],[-91.397,21.358],[-91.13,21.591],[-90.687,21.882],[-89.919,22.231],[-89.663,22.452],[-89.512,22.638],[-89.546,22.848],[-89.663,22.964],[-89.849,22.999],[-90.163,23.011],[-90.443,23.046],[-91.898,23.279],[-92.794,23.372],[-93.47,23.488],[-93.807,23.593],[-94.331,23.861],[-94.564,24.0],[-94.995,24.338],[-95.693,24.664],[-96.496,25.269],[-97.253,25.747],[-97.8,26.119],[-98.441,26.48],[-98.755,26.794],[-98.871,26.946],[-99.151,27.237],[-99.384,27.411],[-99.593,27.516],[-99.675,27.493],[-99.744,27.365],[-99.756,27.225],[-99.71,26.981],[-99.581,26.736],[-99.488,26.398],[-99.395,26.142],[-99.337,25.758],[-99.174,23.965],[-99.186,23.581],[-99.349,22.801],[-99.372,22.533],[-99.372,22.394],[-99.256,21.882],[-98.941,21.311],[-98.743,21.008],[-98.452,20.659],[-97.847,20.159],[-97.346,19.879],[-97.148,19.751],[-97.009,19.623],[-96.904,19.414],[-96.718,18.82],[-96.671,18.517],[-96.52,17.912],[-96.275,17.458],[-96.054,17.143],[-95.949,16.876],[-95.914,16.678],[-95.973,16.515],[-96.357,16.363],[-96.846,16.492],[-97.614,16.841],[-97.719,16.911],[-97.824,17.027],[-97.893,17.143],[-97.975,17.434],[-98.01,17.842],[-98.01,18.296],[-98.033,18.471],[-98.091,18.61],[-98.266,18.855],[-98.487,19.029],[-98.848,19.123],[-99.174,19.157],[-99.698,19.146],[-100.059,19.204],[-100.42,19.332],[-100.85,19.46],[-101.526,19.483],[-101.933,19.425],[-102.632,19.39],[-103.377,19.437],[-103.994,19.611],[-104.308,19.798],[-104.832,20.054],[-105.239,20.31],[-105.495,20.45],[-105.693,20.461],[-105.763,20.403],[-105.798,20.345],[-105.868,20.144]]]}},{"type":"Feature","properties":{"density":1},"geometry":{"type":"Polygon","coordinates":[[[-102.142,37.88],[-101.909,37.705],[-101.734,37.542],[-101.548,37.344],[-101.234,36.937],[-100.78,36.308],[-100.268,35.4],[-100.07,35.004],[-99.942,34.69],[-99.744,33.875],[-99.662,33.351],[-99.592,33.084],[-99.488,32.816],[-99.36,32.618],[-99.103,32.28],[-98.812,31.978],[-98.149,31.105],[-97.683,30.546],[-97.136,29.999],[-96.519,29.649],[-94.656,28.928],[-93.678,28.474],[-92.666,27.763],[-91.932,27.018],[-91.269,26.46],[-90.07,25.645],[-88.952,25.156],[-87.881,24.9],[-85.739,24.737],[-84.703,24.795],[-82.91,25.179],[-81.478,25.714],[-79.592,26.553],[-78.766,27.03],[-77.555,27.81],[-75.89,29.184],[-74.831,30.01],[-74.307,30.325],[-72.957,30.988],[-71.513,31.873],[-70.768,32.699],[-70.547,33.223],[-70.465,33.526],[-70.36,33.829],[-70.232,34.632],[-70.232,34.935],[-70.314,35.319],[-70.547,35.866],[-70.698,36.099],[-70.826,36.157],[-71.094,36.134],[-72.072,35.691],[-73.166,34.923],[-73.9,34.446],[-75.355,33.596],[-76.344,33.06],[-78.37,32.199],[-79.778,31.652],[-80.256,31.582],[-80.617,31.57],[-80.826,31.512],[-81.327,31.267],[-81.699,31.035],[-82.223,30.394],[-83.003,29.638],[-83.678,29.137],[-84.423,28.648],[-85.215,28.217],[-86.158,27.985],[-87.287,27.88],[-88.102,27.985],[-88.766,28.148],[-89.604,28.52],[-89.86,28.765],[-90.011,29.44],[-90.023,29.684],[-90.151,30.499],[-90.268,30.872],[-90.593,31.547],[-90.71,31.884],[-90.815,32.234],[-90.978,32.932],[-91.176,33.34],[-91.467,33.724],[-91.816,34.294],[-92.188,34.946],[-92.444,35.319],[-92.712,35.61],[-93.166,36.203],[-94.109,36.914],[-95.122,37.775],[-96.018,38.509],[-96.542,38.997],[-97.439,40.162],[-97.613,40.348],[-98.056,40.674],[-98.696,40.86],[-99.069,40.895],[-99.523,40.872],[-99.883,40.72],[-100.174,40.534],[-100.524,40.336],[-100.92,39.952],[-101.688,39.37],[-102.084,39.114],[-102.596,38.858],[-102.84,38.788],[-103.015,38.706],[-103.19,38.485],[-103.19,38.322],[-103.143,38.206],[-103.038,38.113],[-102.736,38.008],[-102.503,37.961],[-102.142,37.88]]]}},{"type":"Feature","properties":{"density":1},"geometry":{"type":"Polygon","coordinates":[[[-108.455,29.814],[-108.3,29.939],[-108.185,30.01],[-108.014,30.095],[-107.843,30.158],[-107.722,30.179],[-107.424,30.214],[-106.691,30.238],[-106.047,30.298],[-105.063,30.334],[-104.294,30.34],[-103.704,30.393],[-103.239,30.5],[-102.751,30.697],[-102.232,31.061],[-101.869,31.377],[-101.314,32.098],[-101.183,32.414],[-101.129,32.604],[-101.088,32.986],[-101.1,33.123],[-101.195,33.421],[-101.511,33.767],[-102.143,34.107],[-102.685,34.297],[-103.317,34.381],[-104.122,34.387],[-104.563,34.267],[-104.718,34.202],[-104.861,34.059],[-104.896,33.838],[-104.885,33.654],[-104.837,33.26],[-104.73,32.932],[-104.622,32.724],[-104.569,32.652],[-104.485,32.622],[-104.414,32.622],[-104.277,32.682],[-104.175,32.754],[-103.853,33.224],[-103.627,33.475],[-103.508,33.552],[-103.4,33.576],[-103.287,33.558],[-103.132,33.35],[-103.09,33.206],[-103.061,32.992],[-103.102,32.706],[-103.293,32.42],[-103.496,32.253],[-104.217,31.955],[-104.974,31.484],[-107.167,30.715],[-107.807,30.524],[-108.105,30.36],[-108.393,30.093],[-108.482,29.975],[-108.524,29.761],[-108.455,29.814]]]}},{"type":"Feature","properties":{"density":1},"geometry":{"type":"Polygon","coordinates":[[[-84.873,32.387],[-84.862,32.283],[-84.875,32.209],[-84.907,32.154],[-85.004,32.059],[-85.079,32.018],[-85.12,32.018],[-85.129,32.035],[-85.104,32.115],[-84.959,32.229],[-84.889,32.363],[-84.873,32.387]]]}},{"type":"Feature","properties":{"density":1},"geometry":{"type":"Polygon","coordinates":[[[-84.7,32.52],[-84.64,32.396],[-84.645,32.317],[-84.704,32.238],[-84.799,32.164],[-84.823,32.164],[-84.842,32.174],[-84.844,32.242],[-84.762,32.362],[-84.713,32.49],[-84.7,32.52]]]}},{"type":"Feature","properties":{"density":1},"geometry":{"type":"Polygon","coordinates":[[[-84.469,32.852],[-84.422,32.737],[-84.436,32.692],[-84.481,32.653],[-84.541,32.637],[-84.568,32.698],[-84.493,32.834],[-84.469,32.852]]]}},{"type":"Feature","properties":{"density":1},"geometry":{"type":"Polygon","coordinates":[[[-84.976,29.821],[-84.973,29.724],[-84.936,29.626],[-84.848,29.532],[-84.799,29.525],[-84.775,29.574],[-84.784,29.605],[-84.915,29.756],[-84.968,29.853],[-84.976,29.821]]]}},{"type":"Feature","properties":{"density":1},"geometry":{"type":"Polygon","coordinates":[[[-108.495,29.829],[-108.529,29.863],[-108.541,29.939],[-108.509,29.995],[-108.29,30.114],[-108.19,30.2],[-108.114,30.241],[-107.928,30.31],[-107.662,30.346],[-107.413,30.361],[-107.355,30.344],[-107.318,30.312],[-107.303,30.236],[-107.347,30.183],[-107.389,30.163],[-107.621,30.088],[-107.804,29.995],[-108.287,29.924],[-108.434,29.826],[-108.475,29.814],[-108.495,29.829]]]}},{"type":"Feature","properties":{"density":1},"geometry":{"type":"Polygon","coordinates":[[[-90.32,14.538],[-90.592,14.402],[-91.205,13.926],[-92.362,12.973],[-93.042,12.361],[-93.791,11.408],[-94.199,10.727],[-94.608,10.251],[-94.948,9.706],[-95.356,9.366],[-96.309,8.958],[-97.943,8.958],[-99.712,9.162],[-101.141,9.502],[-102.571,9.774],[-103.523,10.319],[-105.157,11.408],[-107.471,12.633],[-109.172,13.313],[-111.282,13.586],[-112.643,13.722],[-113.528,13.858],[-114.345,14.062],[-115.025,14.402],[-115.638,15.083],[-116.114,16.24],[-116.182,17.533],[-115.638,18.894],[-115.025,19.575],[-113.732,20.119],[-111.895,20.528],[-110.193,20.664],[-108.424,20.664],[-106.11,20.391],[-104.0,19.847],[-102.843,19.575],[-101.89,19.098],[-101.209,18.894],[-100.257,18.486],[-99.304,18.214],[-98.487,17.941],[-97.058,17.669],[-96.854,17.669],[-96.581,18.009],[-96.513,18.486],[-96.786,18.826],[-97.194,19.166],[-98.079,19.643],[-98.487,19.915],[-98.827,20.119],[-99.304,20.528],[-99.712,21.072],[-100.189,22.433],[-100.189,23.658],[-100.052,24.543],[-99.984,25.088],[-99.848,25.292],[-99.44,25.768],[-99.168,25.904],[-98.759,26.381],[-98.623,26.653],[-98.623,29.852],[-98.215,31.281],[-97.943,31.961],[-97.806,32.234],[-95.618,33.756],[-95.392,33.938],[-94.011,34.53],[-93.383,34.684],[-92.77,34.82],[-91.681,34.82],[-90.796,34.343],[-89.639,33.323],[-89.231,32.642],[-88.959,32.302],[-88.687,31.757],[-88.414,31.349],[-88.142,30.872],[-88.074,30.464],[-87.938,29.307],[-87.938,28.286],[-87.87,27.606],[-87.87,26.789],[-88.074,25.7],[-88.21,25.088],[-88.278,24.611],[-88.414,23.931],[-88.687,22.842],[-88.959,22.025],[-89.163,21.685],[-89.503,20.868],[-89.639,20.391],[-90.524,18.622],[-90.66,18.282],[-90.865,18.078],[-90.933,17.669],[-91.205,17.329],[-91.477,16.716],[-91.477,16.308],[-91.341,16.036],[-90.865,15.695],[-90.524,15.491],[-90.184,15.219],[-90.32,14.811],[-90.32,14.538]]]}},{"type":"Feature","properties":{"density":1},"geometry":{"type":"Polygon","coordinates":[[[-84.715,32.401],[-84.947,32.027],[-85.054,31.92],[-85.197,31.581],[-85.233,31.42],[-85.25,31.045],[-85.179,30.92],[-85.09,30.849],[-85.001,30.867],[-84.786,31.01],[-84.644,31.242],[-84.572,31.438],[-84.501,31.777],[-84.483,31.937],[-84.483,32.223],[-84.501,32.348],[-84.555,32.419],[-84.59,32.401],[-84.715,32.401]]]}},{"type":"Feature","properties":{"density":1},"geometry":{"type":"Polygon","coordinates":[[[-85.054,29.725],[-85.179,29.154],[-85.179,28.904],[-85.09,28.69],[-85.036,28.619],[-84.965,28.601],[-84.911,28.619],[-84.876,28.726],[-84.858,28.726],[-84.858,29.047],[-84.894,29.315],[-84.947,29.422],[-84.965,29.743],[-85.054,29.725]]]}},{"type":"Feature","properties":{"density":1},"geometry":{"type":"Polygon","coordinates":[[[-78.917,33.793],[-79.006,32.74],[-78.952,32.544],[-78.881,32.437],[-78.845,32.437],[-78.81,32.49],[-78.738,32.669],[-78.738,32.74],[-78.703,32.901],[-78.828,33.721],[-78.917,33.793]]]}},{"type":"Feature","properties":{"density":1},"geometry":{"type":"Polygon","coordinates":[[[-84.465,29.921],[-84.43,29.172],[-84.394,29.047],[-84.233,28.869],[-84.144,28.869],[-84.109,28.94],[-84.109,29.047],[-84.091,29.119],[-84.109,29.243],[-84.394,29.921],[-84.465,29.921]]]}},{"type":"Feature","properties":{"density":1},"geometry":{"type":"Polygon","coordinates":[[[-89.782,33.383],[-90.228,32.972],[-90.478,32.883],[-90.567,32.883],[-90.621,32.954],[-90.585,33.044],[-90.424,33.097],[-89.818,33.4],[-89.782,33.383]]]}},{"type":"Feature","properties":{"density":1},"geometry":{"type":"Polygon","coordinates":[[[-91.174,36.897],[-91.673,37.432],[-91.762,37.432],[-91.78,37.218],[-91.745,37.147],[-91.209,36.826],[-91.174,36.897]]]}},{"type":"Feature","properties":{"density":1},"geometry":{"type":"Polygon","coordinates":[[[-92.298,37.593],[-93.047,38.182],[-93.564,38.699],[-93.921,39.127],[-94.349,39.413],[-95.063,39.77],[-96.169,40.358],[-98.346,41.911],[-98.917,42.339],[-99.184,42.642],[-99.398,42.91],[-100.13,44.248],[-100.201,44.551],[-100.326,45.514],[-100.13,45.925],[-99.737,46.442],[-99.149,46.674],[-97.686,46.638],[-95.919,45.889],[-95.366,45.55],[-94.849,45.175],[-94.331,44.854],[-93.85,44.587],[-93.493,44.301],[-93.1,43.873],[-92.851,43.695],[-92.315,42.606],[-92.048,42.267],[-91.798,41.768],[-91.566,41.429],[-91.013,40.822],[-90.924,40.697],[-90.674,40.233],[-90.389,39.841],[-90.21,39.556],[-90.067,39.395],[-89.586,38.61],[-89.407,37.754],[-89.425,37.557],[-89.532,37.147],[-89.639,36.915],[-89.711,36.826],[-90.085,36.558],[-90.424,36.558],[-90.585,36.576],[-90.942,36.665],[-92.137,37.504],[-92.298,37.593]]]}},{"type":"Feature","properties":{"density":1},"geometry":{"type":"Polygon","coordinates":[[[-108.479,30.028],[-107.088,30.564],[-106.892,30.617],[-106.392,30.706],[-105.732,30.724],[-105.553,30.671],[-105.482,30.599],[-105.429,30.439],[-105.464,30.367],[-105.678,30.242],[-105.91,30.153],[-106.41,30.011],[-106.588,29.939],[-106.785,29.904],[-108.426,29.85],[-108.479,30.028]]]}},{"type":"Feature","properties":{"density":1},"geometry":{"type":"Polygon","coordinates":[[[-84.295,30.649],[-84.368,29.781],[-84.331,29.699],[-84.285,29.644],[-84.258,29.644],[-84.212,29.717],[-84.167,29.9],[-84.148,30.064],[-84.185,30.21],[-84.231,30.622],[-84.295,30.649]]]}},{"type":"Feature","properties":{"density":1},"geometry":{"type":"Polygon","coordinates":[[[-84.331,31.763],[-84.66,30.868],[-84.687,30.722],[-84.605,30.713],[-84.55,30.731],[-84.432,30.896],[-84.377,31.042],[-84.285,31.736],[-84.331,31.763]]]}},{"type":"Feature","properties":{"density":1},"geometry":{"type":"Polygon","coordinates":[[[-89.166,31.117],[-89.538,30.504],[-89.648,30.255],[-89.677,30.138],[-89.67,30.029],[-89.611,29.956],[-89.531,29.977],[-89.385,30.241],[-89.1,31.066],[-89.166,31.117]]]}},{"type":"Feature","properties":{"density":1},"geometry":{"type":"Polygon","coordinates":[[[-89.034,30.957],[-89.823,29.795],[-89.823,29.7],[-89.721,29.714],[-89.641,29.758],[-89.56,29.831],[-88.997,30.964],[-89.034,30.957]]]}},{"type":"Feature","properties":{"density":1},"geometry":{"type":"Polygon","coordinates":[[[-90.327,31.614],[-90.7,31.512],[-91.124,31.497],[-91.168,31.527],[-91.08,31.578],[-91.007,31.6],[-90.306,31.651],[-90.327,31.614]]]}},{"type":"Feature","properties":{"density":1},"geometry":{"type":"Polygon","coordinates":[[[-89.852,32.111],[-90.247,32.067],[-90.393,32.024],[-90.422,31.994],[-90.422,31.951],[-90.247,31.958],[-89.823,32.097],[-89.852,32.111]]]}},{"type":"Feature","properties":{"density":1},"geometry":{"type":"Polygon","coordinates":[[[-92.41,31.68],[-92.754,31.848],[-93.17,31.972],[-93.47,32.119],[-93.601,32.126],[-93.638,32.089],[-93.609,31.951],[-93.528,31.907],[-92.439,31.666],[-92.41,31.68]]]}},{"type":"Feature","properties":{"density":1},"geometry":{"type":"Polygon","coordinates":[[[-92.491,31.819],[-92.834,32.06],[-92.987,32.148],[-93.134,32.184],[-93.17,32.133],[-93.134,32.06],[-93.031,32.031],[-92.498,31.804],[-92.491,31.819]]]}},{"type":"Feature","properties":{"density":1},"geometry":{"type":"Polygon","coordinates":[[[-94.449,29.941],[-94.712,30.219],[-94.8,30.336],[-94.829,30.401],[-94.939,30.511],[-95.048,30.569],[-95.129,30.547],[-95.158,30.445],[-95.114,30.372],[-94.449,29.89],[-94.449,29.941]]]}},{"type":"Feature","properties":{"density":1},"geometry":{"type":"Polygon","coordinates":[[[-93.55,34.559],[-94.288,35.283],[-94.493,35.349],[-94.581,35.327],[-94.61,35.239],[-94.478,35.1],[-93.609,34.537],[-93.55,34.559]]]}},{"type":"Feature","properties":{"density":1},"geometry":{"type":"Polygon","coordinates":[[[-94.332,34.852],[-94.515,35.078],[-94.639,35.151],[-94.771,35.21],[-94.858,35.224],[-94.902,35.173],[-94.844,35.093],[-94.449,34.844],[-94.332,34.852]]]}},{"type":"Feature","properties":{"density":1},"geometry":{"type":"Polygon","coordinates":[[[-88.924,33.193],[-89.144,32.915],[-89.166,32.864],[-89.166,32.791],[-89.114,32.769],[-89.071,32.798],[-89.027,32.871],[-88.91,33.178],[-88.924,33.193]]]}},{"type":"Feature","properties":{"density":1},"geometry":{"type":"Polygon","coordinates":[[[-89.699,33.734],[-89.933,33.726],[-90.079,33.682],[-90.196,33.617],[-90.24,33.558],[-90.24,33.529],[-90.159,33.5],[-89.918,33.551],[-89.699,33.712],[-89.699,33.734]]]}},{"type":"Feature","properties":{"density":1},"geometry":{"type":"Polygon","coordinates":[[[-89.407,33.514],[-89.94,33.485],[-90.013,33.449],[-90.05,33.405],[-90.013,33.361],[-89.845,33.332],[-89.37,33.485],[-89.407,33.514]]]}},{"type":"Feature","properties":{"density":1},"geometry":{"type":"Polygon","coordinates":[[[-83.743,33.112],[-83.677,32.806],[-83.604,32.74],[-83.531,32.725],[-83.466,32.769],[-83.458,32.835],[-83.699,33.149],[-83.743,33.112]]]}},{"type":"Feature","properties":{"density":1},"geometry":{"type":"Polygon","coordinates":[[[-83.897,32.133],[-83.846,32.038],[-83.838,31.958],[-83.882,31.951],[-83.919,32.133],[-83.897,32.133]]]}},{"type":"Feature","properties":{"density":1},"geometry":{"type":"Polygon","coordinates":[[[-83.824,31.885],[-83.824,31.666],[-83.867,31.461],[-83.897,31.424],[-83.955,31.468],[-83.955,31.563],[-83.846,31.892],[-83.824,31.885]]]}},{"type":"Feature","properties":{"density":1},"geometry":{"type":"Polygon","coordinates":[[[-83.568,31.381],[-83.751,31.139],[-83.853,30.942],[-83.86,30.884],[-83.78,30.884],[-83.692,30.935],[-83.634,31.022],[-83.546,31.366],[-83.568,31.381]]]}},{"type":"Feature","properties":{"density":1},"geometry":{"type":"Polygon","coordinates":[[[-83.254,31.022],[-83.429,30.672],[-83.429,30.613],[-83.392,30.584],[-83.349,30.599],[-83.283,30.672],[-83.224,31.008],[-83.254,31.022]]]}},{"type":"Feature","properties":{"density":1},"geometry":{"type":"Polygon","coordinates":[[[-82.808,30.518],[-83.02,30.321],[-83.071,30.255],[-83.078,30.219],[-82.991,30.248],[-82.786,30.526],[-82.808,30.518]]]}},{"type":"Feature","properties":{"density":1},"geometry":{"type":"Polygon","coordinates":[[[-84.101,30.869],[-84.16,30.686],[-84.189,30.467],[-84.189,30.262],[-84.16,30.204],[-84.109,30.189],[-84.057,30.226],[-84.043,30.292],[-84.087,30.811],[-84.101,30.869]]]}},{"type":"Feature","properties":{"density":1},"geometry":{"type":"Polygon","coordinates":[[[-84.16,31.987],[-84.072,31.563],[-84.043,31.468],[-84.014,31.461],[-83.97,31.49],[-83.955,31.519],[-83.955,31.578],[-84.109,31.98],[-84.16,31.987]]]}},{"type":"Feature","properties":{"density":1},"geometry":{"type":"Polygon","coordinates":[[[-81.646,31.965],[-81.704,31.519],[-81.653,31.439],[-81.573,31.417],[-81.5,31.483],[-81.485,31.658],[-81.639,31.987],[-81.646,31.965]]]}},{"type":"Feature","properties":{"density":1},"geometry":{"type":"Polygon","coordinates":[[[-84.554,35.027],[-84.423,34.874],[-84.247,34.713],[-84.131,34.684],[-84.101,34.713],[-84.101,34.771],[-84.562,35.064],[-84.554,35.027]]]}},{"type":"Feature","properties":{"density":1},"geometry":{"type":"Polygon","coordinates":[[[-87.324,34.07],[-87.397,33.865],[-87.397,33.741],[-87.302,33.741],[-87.251,33.792],[-87.236,33.851],[-87.309,34.055],[-87.324,34.07]]]}},{"type":"Feature","properties":{"density":1},"geometry":{"type":"Polygon","coordinates":[[[-88.055,34.589],[-88.194,34.267],[-88.201,34.194],[-88.186,34.172],[-88.142,34.201],[-88.084,34.333],[-88.047,34.574],[-88.055,34.589]]]}},{"type":"Feature","properties":{"density":1},"geometry":{"type":"Polygon","coordinates":[[[-87.952,34.917],[-87.974,34.552],[-87.952,34.472],[-87.909,34.442],[-87.879,34.457],[-87.865,34.53],[-87.938,34.932],[-87.952,34.917]]]}},{"type":"Feature","properties":{"density":1},"geometry":{"type":"Polygon","coordinates":[[[-87.039,34.969],[-87.039,34.545],[-87.01,34.472],[-86.944,34.457],[-86.886,34.552],[-86.878,34.603],[-87.032,35.02],[-87.039,34.969]]]}},{"type":"Feature","properties":{"density":1},"geometry":{"type":"Polygon","coordinates":[[[-87.923,36.445],[-87.916,36.321],[-87.879,36.328],[-87.894,36.445],[-87.923,36.445]]]}},{"type":"Feature","properties":{"density":1},"geometry":{"type":"Polygon","coordinates":[[[-80.316,27.332],[-80.623,27.164],[-80.667,27.12],[-80.659,27.084],[-80.572,27.04],[-80.521,27.054],[-80.316,27.31],[-80.316,27.332]]]}},{"type":"Feature","properties":{"density":1},"geometry":{"type":"Polygon","coordinates":[[[-90.789,38.433],[-90.953,38.754],[-91.07,38.895],[-91.116,38.918],[-91.146,38.813],[-91.134,38.743],[-91.07,38.661],[-90.83,38.427],[-90.789,38.433]]]}},{"type":"Feature","properties":{"density":1},"geometry":{"type":"Polygon","coordinates":[[[-91.298,38.754],[-91.514,39.058],[-91.637,39.181],[-91.859,39.333],[-91.9,39.275],[-91.888,39.187],[-91.701,39.017],[-91.333,38.766],[-91.298,38.754]]]}},{"type":"Feature","properties":{"density":1},"geometry":{"type":"Polygon","coordinates":[[[-92.816,40.121],[-92.99,40.377],[-93.017,40.45],[-93.054,40.688],[-92.971,40.66],[-92.935,40.587],[-92.88,40.532],[-92.78,40.13],[-92.816,40.121]]]}},{"type":"Feature","properties":{"density":1},"geometry":{"type":"Polygon","coordinates":[[[-90.874,36.893],[-91.055,37.022],[-91.195,37.25],[-91.189,37.308],[-91.154,37.314],[-91.078,37.256],[-90.874,36.911],[-90.874,36.893]]]}},{"type":"Feature","properties":{"density":1},"geometry":{"type":"Polygon","coordinates":[[[-89.839,37.297],[-90.003,37.548],[-90.003,37.607],[-89.968,37.618],[-89.821,37.303],[-89.839,37.297]]]}},{"type":"Feature","properties":{"density":1},"geometry":{"type":"Polygon","coordinates":[[[-89.836,40.024],[-89.631,40.263],[-89.549,40.392],[-89.45,40.485],[-89.38,40.485],[-89.38,40.38],[-89.409,40.304],[-89.467,40.228],[-89.824,40.006],[-89.836,40.024]]]}},{"type":"Feature","properties":{"density":1},"geometry":{"type":"Polygon","coordinates":[[[-89.011,39.503],[-88.842,39.784],[-88.672,39.907],[-88.585,39.942],[-88.561,39.93],[-88.579,39.842],[-88.62,39.778],[-88.988,39.503],[-89.011,39.503]]]}},{"type":"Feature","properties":{"density":1},"geometry":{"type":"Polygon","coordinates":[[[-88.093,39.427],[-88.07,39.568],[-88.035,39.62],[-88.017,39.609],[-88.006,39.503],[-88.07,39.416],[-88.093,39.427]]]}},{"type":"Feature","properties":{"density":1},"geometry":{"type":"Polygon","coordinates":[[[-86.121,39.082],[-85.924,39.111],[-85.807,39.096],[-85.551,39.009],[-85.522,38.936],[-85.566,38.928],[-85.682,38.95],[-85.756,38.987],[-86.106,39.053],[-86.121,39.082]]]}},{"type":"Feature","properties":{"density":1},"geometry":{"type":"Polygon","coordinates":[[[-92.028,37.508],[-92.215,37.765],[-92.351,37.915],[-92.557,38.074],[-92.613,38.041],[-92.599,37.985],[-92.528,37.906],[-92.056,37.513],[-92.028,37.508]]]}},{"type":"Feature","properties":{"density":2},"geometry":{"type":"Polygon","coordinates":[[[-90.95,37.981],[-91.113,38.086],[-91.166,38.156],[-91.184,38.244],[-91.131,38.337],[-91.008,38.367],[-90.915,38.343],[-90.751,38.244],[-90.692,38.01],[-90.611,37.852],[-90.546,37.618],[-90.54,37.49],[-90.564,37.42],[-90.646,37.42],[-90.751,37.583],[-90.78,37.741],[-90.833,37.911],[-90.839,37.992],[-90.897,38.074],[-90.932,38.057],[-90.938,37.987],[-90.95,37.981]]]}}]}