{"type":"FeatureCollection","features":[{"type":"Feature","properties":{"density":1},"geometry":{"type":"Polygon","coordinates":[[[-151.369,68.941],[-153.875,69.669],[-155.24,70.166],[-156.358,71.159],[-156.792,72.586],[-155.468,74.392],[-152.588,75.236],[-136.435,75.007],[-100.687,73.245],[-80.283,73.711],[-69.267,74.409],[-62.673,74.409],[-57.398,73.711],[-53.936,73.012],[-51.001,71.659],[-49.574,69.052],[-49.795,66.031],[-50.822,63.86],[-52.138,63.698],[-57.272,65.417],[-61.594,65.831],[-67.06,64.242],[-71.794,60.333],[-79.071,57.6],[-85.329,56.862],[-90.096,57.457],[-95.855,58.45],[-97.94,58.202],[-99.082,57.308],[-100.324,55.72],[-102.508,54.379],[-105.686,54.379],[-111.505,55.843],[-114.722,55.962],[-117.105,57.233],[-119.073,58.04],[-120.948,58.541],[-122.099,59.281],[-123.643,61.366],[-125.989,62.465],[-129.519,64.304],[-133.375,65.052],[-137.817,64.857],[-141.721,64.971],[-145.886,66.11],[-146.993,66.842],[-148.929,68.273],[-151.369,68.941]]]}},{"type":"Feature","properties":{"density":1},"geometry":{"type":"Polygon","coordinates":[[[-116.016,37.625],[-115.475,37.864],[-114.642,38.0],[-114.444,38.166],[-114.186,38.584],[-113.953,38.737],[-113.62,38.737],[-113.132,38.541],[-112.799,38.364],[-112.06,38.312],[-111.331,38.406],[-110.435,38.791],[-109.732,39.129],[-108.613,39.741],[-107.468,40.327],[-106.648,40.665],[-106.114,40.73],[-105.841,40.717],[-105.659,40.678],[-105.415,40.677],[-104.617,40.889],[-103.609,41.67],[-102.714,42.32],[-101.494,42.646],[-100.192,42.646],[-99.509,42.581],[-98.956,42.467],[-98.467,42.206],[-98.223,41.621],[-98.614,40.807],[-99.655,39.945],[-100.81,39.115],[-101.673,38.546],[-102.47,37.879],[-103.381,37.7],[-103.95,37.716],[-104.471,37.944],[-104.699,38.334],[-104.943,38.595],[-105.366,38.806],[-105.805,38.887],[-106.261,38.822],[-106.716,38.464],[-107.058,37.993],[-107.074,37.407],[-106.765,36.886],[-106.342,36.414],[-105.74,35.861],[-104.992,35.471],[-104.851,35.235],[-104.883,35.017],[-105.317,34.625],[-106.147,34.137],[-106.57,34.039],[-106.944,33.909],[-107.302,33.714],[-107.855,33.372],[-108.311,33.193],[-108.75,33.307],[-109.091,33.632],[-109.645,33.958],[-110.019,34.039],[-110.295,34.43],[-110.426,34.869],[-110.442,35.39],[-110.556,35.78],[-110.718,36.187],[-111.206,36.659],[-111.581,36.821],[-112.101,36.968],[-112.752,36.886],[-113.582,36.675],[-114.265,36.252],[-114.525,36.073],[-114.707,35.749],[-114.779,35.472],[-114.746,35.019],[-114.819,34.559],[-114.999,34.372],[-115.324,34.333],[-116.144,34.575],[-116.787,34.69],[-117.291,34.706],[-118.333,34.934],[-119.065,35.032],[-119.455,35.113],[-119.748,35.276],[-119.846,35.585],[-119.797,35.894],[-119.504,36.122],[-118.902,36.203],[-118.3,36.252],[-117.047,36.626],[-116.592,37.016],[-116.185,37.521],[-116.016,37.625]]]}},{"type":"Feature","properties":{"density":1},"geometry":{"type":"Polygon","coordinates":[[[-76.481,39.333],[-75.188,39.989],[-73.51,40.752],[-72.035,41.083],[-69.595,41.438],[-67.409,41.871],[-65.528,41.972],[-64.358,41.896],[-63.392,41.743],[-62.477,41.235],[-62.299,40.701],[-62.197,40.066],[-62.452,39.354],[-63.138,38.973],[-64.129,38.871],[-65.426,38.947],[-67.46,38.922],[-69.011,38.646],[-70.256,38.235],[-72.225,37.38],[-73.8,36.717],[-75.024,36.313],[-75.747,36.125],[-76.688,35.795],[-77.425,35.515],[-78.162,35.286],[-79.23,35.109],[-79.662,35.363],[-79.941,35.769],[-79.636,36.481],[-79.103,37.269],[-78.314,38.21],[-77.549,38.799],[-76.911,39.112],[-76.481,39.333]]]}},{"type":"Feature","properties":{"density":1},"geometry":{"type":"Polygon","coordinates":[[[-78.675,53.992],[-78.675,54.029],[-78.627,54.044],[-78.413,54.038],[-78.383,54.011],[-78.385,53.992],[-78.45,53.97],[-78.632,53.968],[-78.675,53.992]]]}},{"type":"Feature","properties":{"density":1},"geometry":{"type":"Polygon","coordinates":[[[-109.843,30.91],[-109.88,30.961],[-109.921,30.981],[-110.013,30.988],[-110.075,30.971],[-110.239,30.828],[-110.358,30.647],[-110.433,30.49],[-110.45,30.418],[-110.45,30.302],[-110.433,30.258],[-110.389,30.21],[-110.334,30.183],[-110.198,30.183],[-110.061,30.248],[-109.89,30.507],[-109.805,30.807],[-109.829,30.872],[-109.843,30.91]]]}},{"type":"Feature","properties":{"density":1},"geometry":{"type":"Polygon","coordinates":[[[-109.242,35.635],[-109.106,35.751],[-108.993,35.799],[-108.829,35.806],[-108.751,35.789],[-108.631,35.734],[-108.512,35.611],[-108.505,35.407],[-108.546,35.376],[-108.84,35.386],[-108.921,35.444],[-109.133,35.547],[-109.184,35.547],[-109.222,35.57],[-109.242,35.635]]]}},{"type":"Feature","properties":{"density":1},"geometry":{"type":"Polygon","coordinates":[[[-112.416,37.607],[-112.413,37.672],[-112.484,37.761],[-112.525,37.863],[-112.512,37.966],[-112.464,38.041],[-112.297,38.119],[-112.171,38.116],[-111.939,38.061],[-111.826,37.88],[-111.812,37.792],[-111.819,37.71],[-111.857,37.638],[-111.904,37.6],[-112.027,37.566],[-112.28,37.566],[-112.351,37.536],[-112.389,37.539],[-112.399,37.563],[-112.416,37.607]]]}},{"type":"Feature","properties":{"density":1},"geometry":{"type":"Polygon","coordinates":[[[-113.481,37.338],[-113.146,37.396],[-113.061,37.43],[-112.853,37.556],[-112.781,37.628],[-112.515,38.088],[-112.495,38.232],[-112.58,38.32],[-112.693,38.372],[-112.904,38.423],[-113.133,38.423],[-113.3,38.361],[-113.528,38.201],[-113.576,38.024],[-113.566,37.812],[-113.525,37.631],[-113.532,37.406],[-113.481,37.338]]]}},{"type":"Feature","properties":{"density":1},"geometry":{"type":"Polygon","coordinates":[[[-121.149,39.372],[-121.055,39.381],[-121.035,39.44],[-121.038,39.494],[-121.083,39.527],[-121.324,39.59],[-121.393,39.63],[-121.466,39.623],[-121.481,39.568],[-121.437,39.514],[-121.236,39.437],[-121.182,39.394],[-121.149,39.372]]]}},{"type":"Feature","properties":{"density":1},"geometry":{"type":"Polygon","coordinates":[[[-134.05,68.715],[-134.043,68.783],[-133.985,68.838],[-133.872,68.916],[-133.821,68.93],[-133.787,68.916],[-133.784,68.869],[-133.896,68.749],[-133.985,68.681],[-134.022,68.688],[-134.05,68.715]]]}},{"type":"Feature","properties":{"density":1},"geometry":{"type":"Polygon","coordinates":[[[-135.319,67.896],[-135.326,67.964],[-135.404,68.043],[-135.5,68.091],[-135.561,68.053],[-135.544,68.002],[-135.472,67.964],[-135.387,67.883],[-135.346,67.876],[-135.319,67.896]]]}},{"type":"Feature","properties":{"density":1},"geometry":{"type":"Polygon","coordinates":[[[-133.422,66.9],[-133.425,66.951],[-133.514,67.064],[-133.637,67.156],[-133.828,67.268],[-133.862,67.265],[-133.886,67.227],[-133.876,67.176],[-133.831,67.115],[-133.681,67.002],[-133.483,66.89],[-133.422,66.9]]]}},{"type":"Feature","properties":{"density":1},"geometry":{"type":"Polygon","coordinates":[[[-122.456,60.189],[-122.529,60.221],[-122.57,60.377],[-122.477,60.491],[-122.195,60.585],[-121.519,60.606],[-120.644,60.762],[-119.478,60.575],[-118.915,60.45],[-118.749,60.398],[-118.343,60.346],[-117.531,60.47],[-116.854,60.543],[-116.354,60.523],[-115.938,60.408],[-115.5,60.085],[-115.229,59.814],[-115.167,59.585],[-115.24,59.356],[-115.49,59.106],[-115.813,58.94],[-116.364,58.857],[-116.937,58.794],[-118.01,58.752],[-118.666,58.825],[-119.832,59.034],[-120.436,59.2],[-121.206,59.45],[-121.654,59.492],[-121.998,59.617],[-122.32,59.919],[-122.383,60.033],[-122.456,60.189]]]}},{"type":"Feature","properties":{"density":1},"geometry":{"type":"Polygon","coordinates":[[[-88.996,52.834],[-88.864,52.941],[-88.809,53.005],[-88.813,53.103],[-88.886,53.158],[-88.962,53.162],[-89.129,53.107],[-89.278,53.035],[-89.611,52.745],[-89.67,52.663],[-89.662,52.617],[-89.577,52.582],[-89.47,52.599],[-89.082,52.774],[-88.996,52.834]]]}},{"type":"Feature","properties":{"density":1},"geometry":{"type":"Polygon","coordinates":[[[-100.985,38.431],[-101.094,38.469],[-101.146,38.543],[-101.143,38.57],[-101.108,38.608],[-101.056,38.608],[-100.939,38.554],[-100.799,38.412],[-100.794,38.374],[-100.958,38.412],[-100.985,38.431]]]}},{"type":"Feature","properties":{"density":1},"geometry":{"type":"Polygon","coordinates":[[[-100.494,38.387],[-100.507,38.494],[-100.48,38.54],[-100.423,38.557],[-100.349,38.518],[-100.322,38.365],[-100.292,38.292],[-100.248,38.251],[-100.234,38.199],[-100.248,38.15],[-100.322,38.142],[-100.387,38.183],[-100.447,38.248],[-100.477,38.338],[-100.494,38.387]]]}},{"type":"Feature","properties":{"density":1},"geometry":{"type":"Polygon","coordinates":[[[-98.1,39.359],[-97.857,39.602],[-97.535,39.752],[-97.423,39.752],[-97.409,39.681],[-97.48,39.58],[-98.032,39.304],[-98.092,39.302],[-98.108,39.31],[-98.108,39.332],[-98.1,39.359]]]}},{"type":"Feature","properties":{"density":1},"geometry":{"type":"Polygon","coordinates":[[[-92.653,35.316],[-92.645,35.349],[-92.459,35.545],[-92.263,35.715],[-92.165,35.739],[-92.162,35.685],[-92.186,35.649],[-92.582,35.308],[-92.64,35.291],[-92.653,35.316]]]}},{"type":"Feature","properties":{"density":1},"geometry":{"type":"Polygon","coordinates":[[[-116.71,47.747],[-116.867,47.863],[-116.929,47.849],[-116.973,47.801],[-116.98,47.757],[-116.953,47.702],[-116.888,47.651],[-116.666,47.569],[-116.57,47.569],[-116.468,47.59],[-116.437,47.624],[-116.434,47.672],[-116.468,47.719],[-116.543,47.75],[-116.622,47.75],[-116.71,47.747]]]}},{"type":"Feature","properties":{"density":1},"geometry":{"type":"Polygon","coordinates":[[[-110.568,42.935],[-110.568,42.961],[-110.546,42.974],[-110.448,42.974],[-110.304,42.946],[-109.751,42.727],[-109.412,42.615],[-108.883,42.519],[-108.836,42.484],[-108.828,42.446],[-108.883,42.405],[-109.008,42.391],[-109.15,42.399],[-110.428,42.825],[-110.55,42.902],[-110.568,42.935]]]}},{"type":"Feature","properties":{"density":1},"geometry":{"type":"Polygon","coordinates":[[[-109.895,31.032],[-110.027,31.079],[-110.172,31.079],[-110.347,31.036],[-110.466,30.968],[-110.543,30.849],[-110.624,30.665],[-110.675,30.448],[-110.705,30.192],[-110.705,30.004],[-110.654,29.825],[-110.577,29.659],[-110.406,29.475],[-110.304,29.441],[-110.155,29.42],[-109.967,29.505],[-109.814,29.808],[-109.758,30.119],[-109.707,30.601],[-109.733,30.75],[-109.792,30.938],[-109.835,30.994],[-109.895,31.032]]]}},{"type":"Feature","properties":{"density":1},"geometry":{"type":"Polygon","coordinates":[[[-109.332,35.694],[-109.134,35.759],[-108.646,35.803],[-108.376,35.793],[-108.189,35.731],[-108.042,35.632],[-107.987,35.53],[-107.957,35.41],[-107.957,35.294],[-108.059,35.117],[-108.137,35.028],[-108.209,35.001],[-108.277,35.015],[-108.38,35.076],[-108.775,35.086],[-108.915,35.114],[-109.079,35.213],[-109.274,35.366],[-109.376,35.595],[-109.362,35.677],[-109.332,35.694]]]}},{"type":"Feature","properties":{"density":1},"geometry":{"type":"Polygon","coordinates":[[[-117.501,33.95],[-117.514,34.053],[-117.503,34.09],[-117.464,34.122],[-117.416,34.125],[-117.315,34.094],[-117.165,33.998],[-117.058,33.952],[-116.99,33.943],[-116.944,33.917],[-116.933,33.871],[-116.968,33.758],[-116.996,33.716],[-117.066,33.69],[-117.125,33.69],[-117.186,33.705],[-117.269,33.801],[-117.326,33.843],[-117.481,33.922],[-117.501,33.95]]]}},{"type":"Feature","properties":{"density":1},"geometry":{"type":"Polygon","coordinates":[[[-116.85,33.557],[-116.892,33.572],[-116.918,33.603],[-116.937,33.664],[-116.924,33.681],[-116.889,33.681],[-116.846,33.653],[-116.809,33.605],[-116.804,33.566],[-116.85,33.553],[-116.85,33.557]]]}},{"type":"Feature","properties":{"density":1},"geometry":{"type":"Polygon","coordinates":[[[-116.924,33.902],[-116.924,34.116],[-116.909,34.151],[-116.863,34.168],[-116.761,34.155],[-116.671,34.103],[-116.553,33.939],[-116.542,33.869],[-116.603,33.845],[-116.798,33.847],[-116.898,33.871],[-116.924,33.902]]]}},{"type":"Feature","properties":{"density":1},"geometry":{"type":"Polygon","coordinates":[[[-117.394,34.214],[-117.414,34.227],[-117.418,34.293],[-117.383,34.437],[-117.32,34.511],[-117.267,34.524],[-117.252,34.472],[-117.258,34.428],[-117.335,34.297],[-117.368,34.208],[-117.394,34.214]]]}},{"type":"Feature","properties":{"density":1},"geometry":{"type":"Polygon","coordinates":[[[-117.411,34.421],[-117.362,34.442],[-117.364,34.487],[-117.407,34.481],[-117.421,34.432],[-117.411,34.421]]]}},{"type":"Feature","properties":{"density":1},"geometry":{"type":"Polygon","coordinates":[[[-119.994,37.737],[-120.063,37.763],[-120.066,37.826],[-119.983,37.82],[-119.887,37.848],[-119.788,37.931],[-119.753,37.929],[-119.723,37.896],[-119.718,37.846],[-119.736,37.796],[-119.801,37.761],[-119.956,37.732],[-119.994,37.737]]]}},{"type":"Feature","properties":{"density":1},"geometry":{"type":"Polygon","coordinates":[[[-121.132,39.362],[-120.933,39.36],[-120.513,39.48],[-120.469,39.521],[-120.466,39.619],[-120.505,39.657],[-120.636,39.684],[-120.84,39.635],[-121.023,39.611],[-121.214,39.622],[-121.356,39.663],[-121.618,39.81],[-121.673,39.785],[-121.676,39.75],[-121.64,39.693],[-121.545,39.611],[-121.182,39.373],[-121.132,39.362]]]}},{"type":"Feature","properties":{"density":1},"geometry":{"type":"Polygon","coordinates":[[[-122.44,40.522],[-122.301,40.522],[-122.276,40.531],[-122.26,40.574],[-122.268,40.615],[-122.293,40.64],[-122.342,40.675],[-122.467,40.703],[-122.486,40.738],[-122.481,40.768],[-122.418,40.803],[-122.394,40.853],[-122.396,40.88],[-122.44,40.921],[-122.516,40.924],[-122.626,40.844],[-122.62,40.743],[-122.59,40.672],[-122.56,40.612],[-122.494,40.544],[-122.44,40.522]]]}},{"type":"Feature","properties":{"density":1},"geometry":{"type":"Polygon","coordinates":[[[-120.615,46.71],[-120.645,46.789],[-120.697,46.83],[-120.773,46.833],[-120.888,46.794],[-120.981,46.642],[-120.984,46.595],[-120.932,46.538],[-120.864,46.524],[-120.798,46.543],[-120.738,46.584],[-120.692,46.642],[-120.672,46.655],[-120.629,46.65],[-120.612,46.68],[-120.615,46.71]]]}},{"type":"Feature","properties":{"density":1},"geometry":{"type":"Polygon","coordinates":[[[-116.021,32.352],[-116.082,32.365],[-116.14,32.413],[-116.147,32.488],[-116.13,32.512],[-115.99,32.526],[-115.908,32.488],[-115.881,32.427],[-115.895,32.389],[-115.977,32.352],[-116.021,32.352]]]}},{"type":"Feature","properties":{"density":1},"geometry":{"type":"Polygon","coordinates":[[[-115.055,32.164],[-115.171,32.14],[-115.216,32.151],[-115.226,32.198],[-115.212,32.226],[-115.141,32.256],[-114.806,32.328],[-114.762,32.355],[-114.714,32.335],[-114.707,32.253],[-114.741,32.222],[-114.997,32.164],[-115.055,32.164]]]}},{"type":"Feature","properties":{"density":1},"geometry":{"type":"Polygon","coordinates":[[[-104.255,39.581],[-102.329,40.115],[-100.402,40.908],[-99.075,41.429],[-98.034,41.794],[-97.565,42.132],[-95.17,43.512],[-94.741,43.707],[-94.129,43.954],[-93.686,44.006],[-93.361,43.785],[-93.192,43.447],[-93.101,42.9],[-93.036,42.392],[-93.205,41.989],[-93.504,41.624],[-93.908,41.299],[-94.936,40.739],[-95.808,40.323],[-98.268,39.242],[-100.064,38.67],[-101.157,38.436],[-101.782,38.24],[-102.849,38.084],[-103.24,38.071],[-103.839,38.123],[-104.216,38.227],[-104.515,38.357],[-104.88,38.761],[-104.984,39.06],[-104.971,39.269],[-104.854,39.399],[-104.619,39.464],[-104.255,39.581]]]}},{"type":"Feature","properties":{"density":1},"geometry":{"type":"Polygon","coordinates":[[[-146.278,66.074],[-150.995,68.37],[-153.788,69.363],[-156.643,70.915],[-157.387,72.404],[-156.705,74.018],[-152.484,75.073],[-117.729,73.77],[-99.917,73.459],[-77.822,73.77],[-69.009,74.328],[-62.182,74.576],[-58.893,74.576],[-54.424,73.273],[-52.314,71.287],[-51.011,69.797],[-50.266,67.687],[-50.266,66.446],[-51.135,64.584],[-52.128,63.405],[-55.417,63.219],[-59.886,64.77],[-62.989,64.584],[-67.52,62.908],[-69.816,61.481],[-71.368,60.302],[-73.416,58.874],[-75.96,57.571],[-78.872,56.965],[-82.781,56.489],[-90.439,56.87],[-92.168,57.277],[-93.464,57.454],[-94.43,57.454],[-95.066,57.302],[-95.752,57.073],[-96.438,56.743],[-96.571,56.1],[-96.489,55.751],[-95.981,55.497],[-95.777,55.243],[-95.777,54.785],[-96.286,54.226],[-96.82,53.718],[-97.379,53.26],[-98.548,52.853],[-100.607,52.548],[-102.336,52.421],[-104.675,52.777],[-108.742,53.972],[-111.844,54.912],[-114.004,55.395],[-115.326,55.828],[-117.284,56.539],[-119.317,57.251],[-120.868,57.734],[-122.775,58.802],[-123.308,59.692],[-124.986,61.344],[-127.427,62.869],[-128.927,63.632],[-130.198,64.039],[-131.418,64.598],[-133.248,64.903],[-134.29,64.903],[-135.155,64.827],[-135.816,64.75],[-136.4,64.445],[-137.366,64.242],[-138.358,64.14],[-139.095,63.988],[-139.959,63.886],[-140.544,63.861],[-141.663,63.861],[-142.552,63.988],[-145.018,65.005],[-146.278,66.074]]]}},{"type":"Feature","properties":{"density":2},"geometry":{"type":"Polygon","coordinates":[[[-121.794,59.631],[-121.255,59.54],[-120.935,59.444],[-119.736,59.162],[-118.276,58.979],[-118.057,58.879],[-117.79,58.673],[-117.73,58.506],[-117.643,58.359],[-117.39,58.064],[-117.125,57.872],[-116.106,57.467],[-115.769,57.382],[-115.522,57.382],[-115.377,57.454],[-115.347,57.578],[-115.342,57.71],[-115.441,57.919],[-115.637,58.205],[-116.298,59.092],[-116.511,59.28],[-116.737,59.378],[-117.091,59.442],[-117.855,59.617],[-118.494,59.821],[-119.219,60.013],[-120.465,60.312],[-121.561,60.482],[-121.872,60.559],[-122.192,60.606],[-122.38,60.606],[-122.473,60.576],[-122.597,60.491],[-122.708,60.384],[-122.763,60.273],[-122.836,60.218],[-122.832,60.162],[-121.919,60.116],[-121.557,60.052],[-121.463,60.009],[-121.458,59.975],[-121.488,59.949],[-122.026,59.966],[-122.154,59.885],[-122.149,59.808],[-121.992,59.71],[-121.889,59.672],[-121.794,59.631]]]}},{"type":"Feature","properties":{"density":2},"geometry":{"type":"Polygon","coordinates":[[[-114.93,56.211],[-114.596,56.19],[-114.088,56.207],[-113.985,56.245],[-113.978,56.282],[-114.06,56.337],[-114.258,56.371],[-114.569,56.395],[-114.719,56.385],[-114.995,56.259],[-114.988,56.221],[-114.971,56.214],[-114.93,56.211]]]}},{"type":"Feature","properties":{"density":2},"geometry":{"type":"Polygon","coordinates":[[[-107.657,37.0],[-107.313,36.963],[-107.196,36.911],[-106.962,36.716],[-106.752,36.49],[-106.554,36.156],[-106.168,35.865],[-105.991,35.761],[-105.96,35.635],[-105.882,35.479],[-105.934,35.284],[-106.532,34.562],[-106.725,34.408],[-107.144,34.178],[-107.365,34.269],[-107.431,34.412],[-107.47,34.802],[-107.457,35.011],[-107.326,35.31],[-107.352,35.505],[-107.457,35.674],[-107.691,35.755],[-108.271,36.041],[-108.485,36.351],[-108.511,36.494],[-108.407,36.716],[-108.12,36.885],[-107.98,36.948],[-107.824,36.979],[-107.657,37.0]]]}},{"type":"Feature","properties":{"density":2},"geometry":{"type":"Polygon","coordinates":[[[-113.429,37.358],[-113.221,37.523],[-113.141,37.63],[-112.997,37.704],[-112.933,37.763],[-112.896,37.859],[-112.917,37.918],[-113.029,37.976],[-113.093,37.987],[-113.184,38.062],[-113.248,38.158],[-113.376,38.221],[-113.488,38.253],[-113.578,38.253],[-113.802,38.2],[-113.936,38.131],[-114.005,38.008],[-113.92,37.816],[-113.754,37.72],[-113.493,37.651],[-113.466,37.598],[-113.498,37.518],[-113.514,37.379],[-113.498,37.368],[-113.429,37.358]]]}},{"type":"Feature","properties":{"density":2},"geometry":{"type":"Polygon","coordinates":[[[-113.453,37.399],[-113.419,37.433],[-113.385,37.587],[-113.337,37.614],[-113.286,37.611],[-113.256,37.566],[-113.249,37.515],[-113.279,37.45],[-113.399,37.368],[-113.447,37.365],[-113.494,37.386],[-113.47,37.392],[-113.453,37.399]]]}},{"type":"Feature","properties":{"density":2},"geometry":{"type":"Polygon","coordinates":[[[-121.131,39.383],[-121.07,39.394],[-121.057,39.422],[-121.105,39.483],[-121.138,39.477],[-121.134,39.442],[-121.158,39.4],[-121.145,39.389],[-121.131,39.383]]]}},{"type":"Feature","properties":{"density":2},"geometry":{"type":"Polygon","coordinates":[[[-122.503,60.197],[-122.59,60.264],[-122.603,60.344],[-122.53,60.437],[-122.13,60.557],[-121.544,60.604],[-120.537,60.617],[-119.698,60.404],[-118.858,60.151],[-118.178,59.971],[-117.125,59.538],[-116.472,59.398],[-116.099,59.371],[-115.972,59.324],[-115.953,59.251],[-116.079,59.151],[-116.379,59.118],[-116.792,59.104],[-117.545,59.204],[-120.184,60.144],[-120.937,60.204],[-121.664,60.231],[-122.163,60.111],[-122.33,60.117],[-122.357,60.144],[-122.503,60.197]]]}},{"type":"Feature","properties":{"density":2},"geometry":{"type":"Polygon","coordinates":[[[-122.103,59.824],[-122.117,59.891],[-122.057,59.957],[-121.87,60.024],[-120.424,60.011],[-119.871,59.904],[-119.305,59.737],[-118.965,59.564],[-118.771,59.404],[-118.671,59.298],[-118.685,59.204],[-118.778,59.158],[-118.971,59.164],[-120.591,59.551],[-121.037,59.611],[-121.344,59.624],[-121.637,59.584],[-122.01,59.591],[-122.137,59.664],[-122.137,59.751],[-122.103,59.824]]]}},{"type":"Feature","properties":{"density":2},"geometry":{"type":"Polygon","coordinates":[[[-100.784,56.021],[-100.838,56.055],[-101.138,56.116],[-101.531,56.12],[-101.927,55.987],[-101.978,55.942],[-101.985,55.843],[-101.804,55.84],[-101.452,55.929],[-100.808,55.946],[-100.77,55.966],[-100.767,56.007],[-100.784,56.021]]]}},{"type":"Feature","properties":{"density":2},"geometry":{"type":"Polygon","coordinates":[[[-100.292,56.283],[-100.149,56.287],[-100.081,56.341],[-100.081,56.393],[-100.098,56.42],[-100.214,56.44],[-100.903,56.386],[-100.93,56.369],[-100.934,56.348],[-100.93,56.304],[-100.876,56.266],[-100.395,56.277],[-100.292,56.283]]]}},{"type":"Feature","properties":{"density":2},"geometry":{"type":"Polygon","coordinates":[[[-101.422,57.119],[-101.565,57.269],[-101.596,57.365],[-101.596,57.423],[-101.555,57.488],[-101.405,57.45],[-101.309,57.385],[-101.183,57.269],[-100.767,56.877],[-100.736,56.823],[-100.75,56.744],[-100.845,56.744],[-101.115,56.874],[-101.275,57.003],[-101.422,57.119]]]}},{"type":"Feature","properties":{"density":2},"geometry":{"type":"Polygon","coordinates":[[[-107.532,55.62],[-107.515,55.654],[-107.439,55.667],[-107.072,55.612],[-106.33,55.39],[-106.24,55.347],[-106.227,55.305],[-106.236,55.283],[-106.415,55.27],[-106.697,55.292],[-107.528,55.578],[-107.532,55.62]]]}},{"type":"Feature","properties":{"density":2},"geometry":{"type":"Polygon","coordinates":[[[-110.55,42.941],[-110.546,42.961],[-110.511,42.959],[-110.282,42.889],[-110.229,42.852],[-110.234,42.834],[-110.291,42.834],[-110.518,42.906],[-110.542,42.928],[-110.55,42.941]]]}},{"type":"Feature","properties":{"density":2},"geometry":{"type":"Polygon","coordinates":[[[-109.866,30.948],[-109.926,30.97],[-110.038,30.961],[-110.144,30.904],[-110.221,30.803],[-110.327,30.497],[-110.297,30.219],[-110.264,30.099],[-110.117,30.001],[-110.041,29.992],[-109.989,30.036],[-109.871,30.216],[-109.833,30.364],[-109.787,30.787],[-109.836,30.91],[-109.866,30.948]]]}},{"type":"Feature","properties":{"density":2},"geometry":{"type":"Polygon","coordinates":[[[-109.27,35.655],[-109.231,35.696],[-109.117,35.713],[-108.942,35.716],[-108.77,35.694],[-108.59,35.628],[-108.478,35.563],[-108.434,35.475],[-108.429,35.38],[-108.475,35.309],[-108.767,35.219],[-108.912,35.238],[-109.283,35.473],[-109.319,35.538],[-109.291,35.631],[-109.27,35.655]]]}},{"type":"Feature","properties":{"density":2},"geometry":{"type":"Polygon","coordinates":[[[-113.565,37.361],[-113.609,37.464],[-113.735,37.57],[-113.787,37.648],[-113.821,37.747],[-113.811,37.843],[-113.759,37.945],[-113.66,37.993],[-113.531,38.017],[-113.435,37.996],[-113.387,37.924],[-113.377,37.866],[-113.346,37.819],[-113.19,37.785],[-113.149,37.658],[-113.19,37.505],[-113.241,37.433],[-113.258,37.338],[-113.312,37.31],[-113.418,37.293],[-113.52,37.324],[-113.565,37.361]]]}},{"type":"Feature","properties":{"density":2},"geometry":{"type":"Polygon","coordinates":[[[-117.494,33.959],[-117.475,33.983],[-117.405,33.981],[-117.448,34.053],[-117.429,34.083],[-117.385,34.066],[-117.278,33.963],[-117.191,33.913],[-117.069,33.904],[-117.023,33.843],[-117.014,33.806],[-117.058,33.749],[-117.099,33.745],[-117.208,33.775],[-117.348,33.895],[-117.472,33.939],[-117.494,33.959]]]}},{"type":"Feature","properties":{"density":2},"geometry":{"type":"Polygon","coordinates":[[[-116.848,33.561],[-116.898,33.592],[-116.889,33.636],[-116.844,33.603],[-116.828,33.561],[-116.848,33.561]]]}},{"type":"Feature","properties":{"density":2},"geometry":{"type":"Polygon","coordinates":[[[-115.003,56.185],[-115.19,56.313],[-115.206,56.393],[-115.185,56.473],[-114.95,56.542],[-114.07,56.643],[-113.857,56.814],[-113.782,56.921],[-113.649,56.947],[-113.377,56.937],[-113.233,56.835],[-113.116,56.697],[-113.025,56.478],[-112.972,56.281],[-112.951,56.11],[-112.951,55.945],[-112.983,55.854],[-113.031,55.79],[-113.276,55.758],[-113.633,55.785],[-114.076,55.849],[-114.566,55.972],[-114.774,56.062],[-115.003,56.185]]]}},{"type":"Feature","properties":{"density":2},"geometry":{"type":"Polygon","coordinates":[[[-122.992,59.658],[-122.992,60.115],[-123.017,60.547],[-122.611,61.03],[-122.305,61.335],[-121.645,61.717],[-120.933,62.047],[-118.874,62.352],[-114.577,62.657],[-111.756,62.708],[-109.442,62.606],[-107.561,62.606],[-107.002,62.378],[-106.214,61.539],[-106.163,61.107],[-106.57,60.547],[-107.307,59.683],[-107.943,58.615],[-108.883,57.573],[-109.569,56.912],[-110.052,56.378],[-110.612,56.048],[-111.12,55.844],[-111.654,55.768],[-112.34,55.921],[-112.976,56.531],[-113.306,57.497],[-113.84,58.285],[-114.654,58.514],[-115.594,58.615],[-117.12,58.59],[-118.289,58.615],[-119.636,58.59],[-120.907,58.514],[-122.077,58.768],[-122.687,59.048],[-122.992,59.658]]]}},{"type":"Feature","properties":{"density":3},"geometry":{"type":"Polygon","coordinates":[[[-121.99,59.816],[-121.301,59.731],[-121.001,59.67],[-120.7,59.578],[-120.618,59.571],[-120.547,59.595],[-120.53,59.673],[-120.608,59.735],[-120.85,59.793],[-121.181,59.847],[-121.833,59.905],[-121.987,59.888],[-122.014,59.854],[-121.99,59.816]]]}},{"type":"Feature","properties":{"density":3},"geometry":{"type":"Polygon","coordinates":[[[-122.0,60.195],[-121.553,60.113],[-121.079,59.946],[-120.69,59.871],[-120.536,59.813],[-120.328,59.816],[-120.291,59.857],[-120.26,59.946],[-120.311,60.045],[-120.444,60.12],[-121.181,60.25],[-121.813,60.291],[-122.048,60.287],[-122.092,60.25],[-122.082,60.212],[-122.0,60.195]]]}},{"type":"Feature","properties":{"density":3},"geometry":{"type":"Polygon","coordinates":[[[-122.348,60.301],[-121.912,60.304],[-121.86,60.335],[-121.843,60.376],[-121.888,60.431],[-121.949,60.468],[-122.014,60.472],[-122.294,60.379],[-122.358,60.352],[-122.369,60.328],[-122.348,60.301]]]}},{"type":"Feature","properties":{"density":3},"geometry":{"type":"Polygon","coordinates":[[[-121.737,59.639],[-121.238,59.549],[-121.182,59.556],[-121.207,59.579],[-121.399,59.614],[-121.653,59.649],[-121.744,59.645],[-121.737,59.639]]]}},{"type":"Feature","properties":{"density":3},"geometry":{"type":"Polygon","coordinates":[[[-122.446,60.366],[-122.345,60.446],[-121.796,60.515],[-121.673,60.467],[-121.689,60.409],[-122.035,60.361],[-122.318,60.302],[-122.441,60.302],[-122.467,60.318],[-122.467,60.334],[-122.446,60.366]]]}},{"type":"Feature","properties":{"density":3},"geometry":{"type":"Polygon","coordinates":[[[-122.041,60.265],[-121.875,60.318],[-121.449,60.382],[-120.9,60.387],[-120.303,60.371],[-120.148,60.329],[-120.106,60.275],[-120.106,60.222],[-120.132,60.195],[-120.313,60.206],[-120.767,60.27],[-121.652,60.222],[-121.918,60.222],[-121.998,60.19],[-122.099,60.185],[-122.153,60.201],[-122.126,60.233],[-122.094,60.243],[-122.041,60.265]]]}},{"type":"Feature","properties":{"density":3},"geometry":{"type":"Polygon","coordinates":[[[-121.982,59.812],[-121.097,59.865],[-120.324,59.801],[-120.292,59.812],[-120.292,59.859],[-120.441,59.913],[-120.916,59.987],[-121.268,60.003],[-121.769,59.961],[-121.902,59.923],[-121.955,59.891],[-121.971,59.859],[-121.982,59.812]]]}},{"type":"Feature","properties":{"density":3},"geometry":{"type":"Polygon","coordinates":[[[-121.843,59.721],[-121.156,59.774],[-120.889,59.769],[-120.649,59.721],[-120.655,59.652],[-120.708,59.636],[-121.001,59.657],[-121.636,59.63],[-121.811,59.609],[-121.881,59.652],[-121.881,59.678],[-121.854,59.71],[-121.843,59.721]]]}},{"type":"Feature","properties":{"density":3},"geometry":{"type":"Polygon","coordinates":[[[-100.876,56.038],[-100.917,56.058],[-101.224,56.045],[-101.244,56.0],[-101.217,55.97],[-100.866,55.987],[-100.794,56.004],[-100.801,56.024],[-100.848,56.038],[-100.876,56.038]]]}},{"type":"Feature","properties":{"density":3},"geometry":{"type":"Polygon","coordinates":[[[-100.296,56.318],[-100.217,56.348],[-100.221,56.372],[-100.357,56.389],[-100.521,56.355],[-100.545,56.331],[-100.528,56.304],[-100.35,56.307],[-100.296,56.318]]]}},{"type":"Feature","properties":{"density":3},"geometry":{"type":"Polygon","coordinates":[[[-109.86,30.929],[-109.915,30.975],[-109.997,30.972],[-110.079,30.915],[-110.101,30.88],[-110.101,30.811],[-110.027,30.768],[-109.94,30.773],[-109.869,30.836],[-109.855,30.888],[-109.86,30.929]]]}},{"type":"Feature","properties":{"density":3},"geometry":{"type":"Polygon","coordinates":[[[-109.239,35.661],[-109.163,35.721],[-108.988,35.724],[-108.863,35.686],[-108.789,35.639],[-108.735,35.524],[-108.754,35.456],[-108.879,35.426],[-109.032,35.432],[-109.114,35.473],[-109.22,35.565],[-109.239,35.609],[-109.239,35.661]]]}},{"type":"Feature","properties":{"density":3},"geometry":{"type":"Polygon","coordinates":[[[-113.541,37.361],[-113.623,37.505],[-113.708,37.546],[-113.753,37.593],[-113.773,37.655],[-113.77,37.805],[-113.749,37.826],[-113.684,37.819],[-113.66,37.74],[-113.619,37.73],[-113.609,37.788],[-113.637,37.836],[-113.599,37.89],[-113.483,37.907],[-113.428,37.89],[-113.411,37.839],[-113.408,37.703],[-113.295,37.593],[-113.268,37.546],[-113.282,37.409],[-113.316,37.382],[-113.476,37.351],[-113.541,37.361]]]}},{"type":"Feature","properties":{"density":3},"geometry":{"type":"Polygon","coordinates":[[[-117.481,33.967],[-117.361,33.954],[-117.368,33.985],[-117.348,33.987],[-117.217,33.9],[-117.066,33.878],[-117.042,33.808],[-117.073,33.762],[-117.123,33.753],[-117.167,33.769],[-117.326,33.9],[-117.47,33.943],[-117.481,33.967]]]}},{"type":"Feature","properties":{"density":3},"geometry":{"type":"Polygon","coordinates":[[[-122.759,59.362],[-122.799,59.395],[-122.939,59.708],[-122.872,59.868],[-122.766,60.015],[-122.619,60.081],[-122.259,60.068],[-122.206,60.088],[-122.186,60.141],[-122.279,60.175],[-122.552,60.188],[-122.905,60.115],[-122.959,60.215],[-122.925,60.348],[-122.586,60.495],[-121.939,60.641],[-121.173,60.748],[-120.247,60.815],[-119.473,60.788],[-119.187,60.748],[-118.754,60.588],[-118.434,60.361],[-118.281,60.188],[-118.187,60.022],[-118.141,59.802],[-118.154,59.488],[-118.221,59.288],[-118.341,59.169],[-118.467,59.095],[-118.82,59.055],[-119.573,59.002],[-120.16,59.022],[-120.746,59.102],[-121.246,59.102],[-121.666,59.122],[-122.532,59.248],[-122.759,59.362]]]}}]}