{"type":"FeatureCollection","features":[{"type":"Feature","properties":{"density":1},"geometry":{"type":"Polygon","coordinates":[[[-108.85,25.096],[-109.01,24.959],[-109.328,24.778],[-109.51,24.709],[-110.033,24.436],[-110.283,24.209],[-110.51,23.891],[-110.647,23.413],[-110.738,23.209],[-111.101,22.708],[-111.215,22.345],[-111.283,22.049],[-111.238,21.753],[-111.056,21.435],[-110.965,21.23],[-110.851,20.798],[-110.829,20.571],[-110.829,20.048],[-110.851,19.662],[-111.101,18.32],[-111.352,17.843],[-111.442,17.638],[-111.533,17.16],[-111.579,16.797],[-111.579,16.524],[-111.624,15.978],[-111.602,15.728],[-111.442,15.569],[-111.215,15.478],[-110.942,15.41],[-110.624,15.41],[-110.26,15.455],[-109.919,15.387],[-109.442,15.341],[-108.759,15.501],[-108.6,15.432],[-108.555,15.296],[-108.578,14.796],[-108.85,14.318],[-108.919,14.25],[-109.191,13.5],[-109.169,13.159],[-108.941,12.886],[-108.509,12.613],[-108.327,12.522],[-108.032,12.499],[-107.577,12.499],[-106.94,12.749],[-106.395,12.909],[-105.644,12.931],[-104.78,13.25],[-104.348,13.5],[-104.03,13.795],[-103.666,14.182],[-103.28,14.455],[-103.075,14.455],[-101.847,14.568],[-101.393,14.568],[-100.529,14.341],[-99.96,14.023],[-99.892,13.75],[-99.665,13.477],[-99.21,13.272],[-98.838,13.136],[-98.512,12.848],[-98.297,12.531],[-97.925,11.851],[-97.655,11.73],[-97.301,11.823],[-96.913,12.067],[-96.709,12.067],[-96.549,11.999],[-96.413,11.84],[-96.231,11.726],[-96.027,11.658],[-95.799,11.635],[-95.595,11.635],[-95.117,11.817],[-94.708,12.613],[-94.026,13.454],[-93.639,13.75],[-93.025,14.068],[-92.798,14.296],[-92.73,14.5],[-92.548,14.796],[-92.548,14.887],[-92.639,15.137],[-92.821,15.432],[-93.207,15.887],[-93.321,16.069],[-93.366,16.342],[-93.389,16.751],[-93.344,17.001],[-93.344,17.479],[-93.48,18.002],[-93.753,18.57],[-93.821,18.616],[-93.845,19.034],[-93.78,19.518],[-93.696,19.928],[-93.585,20.179],[-93.23,20.662],[-92.843,21.412],[-92.798,21.708],[-92.661,22.072],[-92.57,22.822],[-92.57,23.118],[-92.707,23.459],[-93.071,23.732],[-93.275,23.754],[-93.525,23.891],[-93.639,24.004],[-93.73,24.345],[-93.753,24.755],[-93.73,25.05],[-93.639,25.369],[-93.48,25.732],[-93.162,26.346],[-93.093,26.869],[-93.162,27.392],[-93.412,27.688],[-93.571,27.733],[-93.685,27.733],[-94.026,27.597],[-94.412,27.483],[-94.776,27.324],[-95.026,27.188],[-95.413,26.938],[-95.663,26.892],[-95.958,26.892],[-96.322,27.029],[-96.845,27.415],[-97.027,27.642],[-97.095,27.87],[-97.254,28.279],[-97.345,28.688],[-97.732,28.916],[-98.05,28.938],[-98.482,28.734],[-98.755,28.575],[-98.914,28.461],[-99.096,28.302],[-99.46,27.779],[-99.596,27.392],[-99.642,26.824],[-99.778,26.551],[-99.892,26.46],[-100.051,26.255],[-100.187,25.937],[-100.221,25.236],[-100.095,24.782],[-99.841,23.985],[-99.603,23.314],[-99.596,23.118],[-99.642,22.936],[-99.642,22.731],[-99.505,22.072],[-99.323,21.753],[-98.891,21.276],[-98.414,20.639],[-98.046,20.272],[-97.664,20.025],[-97.482,19.821],[-97.209,19.002],[-97.072,18.707],[-96.686,18.002],[-96.481,17.797],[-96.254,17.615],[-96.027,17.365],[-95.867,17.092],[-95.867,16.91],[-95.754,16.456],[-95.754,16.251],[-95.867,16.092],[-96.322,16.046],[-96.822,16.137],[-97.391,16.342],[-97.982,16.615],[-98.232,16.706],[-98.573,16.888],[-98.573,17.07],[-98.505,17.206],[-98.278,17.502],[-98.209,18.002],[-98.255,18.457],[-98.414,18.752],[-98.778,18.979],[-100.165,19.275],[-100.733,19.434],[-101.211,19.548],[-101.688,19.616],[-102.12,19.73],[-102.37,19.98],[-102.825,20.253],[-103.166,20.344],[-103.621,20.389],[-104.121,20.412],[-104.348,20.48],[-104.508,20.776],[-104.508,21.14],[-104.417,21.503],[-104.371,21.799],[-104.371,21.958],[-104.394,22.163],[-104.735,22.686],[-104.94,23.14],[-105.19,23.368],[-105.69,23.754],[-106.213,24.118],[-106.668,24.345],[-107.441,24.687],[-107.759,24.846],[-108.009,24.982],[-108.146,25.096],[-108.282,25.141],[-108.725,25.141],[-108.85,25.096]]]}},{"type":"Feature","properties":{"density":1},"geometry":{"type":"Polygon","coordinates":[[[-83.008,33.323],[-82.746,33.57],[-82.557,33.686],[-82.324,33.788],[-82.077,33.847],[-81.873,33.919],[-81.611,34.036],[-81.393,34.108],[-80.854,34.356],[-80.127,34.632],[-79.661,34.778],[-78.919,35.069],[-77.944,35.404],[-77.056,35.811],[-76.867,35.913],[-76.241,36.175],[-74.961,36.67],[-74.524,36.815],[-73.389,36.961],[-73.069,36.961],[-71.919,36.888],[-71.192,36.888],[-69.256,36.742],[-68.82,36.655],[-68.485,36.611],[-67.83,36.611],[-67.452,36.67],[-67.001,36.684],[-66.317,36.786],[-65.298,37.019],[-64.6,37.033],[-64.265,37.004],[-64.047,36.873],[-64.003,36.757],[-63.989,36.597],[-64.12,36.349],[-64.498,35.913],[-64.833,35.622],[-65.007,35.505],[-65.531,35.302],[-65.88,35.214],[-66.331,34.952],[-68.18,33.788],[-69.707,33.439],[-70.435,33.337],[-72.589,33.294],[-73.258,33.206],[-74.67,32.973],[-76.358,32.93],[-77.435,32.813],[-78.031,32.697],[-79.21,32.508],[-80.781,32.362],[-81.189,32.348],[-81.582,32.275],[-82.571,32.028],[-82.993,31.94],[-83.575,31.722],[-83.823,31.664],[-83.997,31.678],[-84.012,31.751],[-84.012,31.926],[-83.968,32.071],[-83.634,32.42],[-83.386,32.726],[-83.284,32.93],[-83.255,33.032],[-83.052,33.206],[-83.008,33.323]]]}},{"type":"Feature","properties":{"density":1},"geometry":{"type":"Polygon","coordinates":[[[-79.049,35.259],[-78.758,35.273],[-78.625,35.302],[-78.448,35.25],[-78.324,35.121],[-78.31,34.949],[-78.367,34.844],[-78.53,34.749],[-78.711,34.735],[-78.925,34.744],[-79.145,34.935],[-79.173,35.03],[-79.168,35.073],[-79.073,35.221],[-79.049,35.259]]]}},{"type":"Feature","properties":{"density":1},"geometry":{"type":"Polygon","coordinates":[[[-86.562,32.444],[-87.449,32.194],[-88.176,31.83],[-88.426,31.352],[-88.199,30.83],[-87.631,30.352],[-87.062,30.102],[-86.312,30.011],[-84.766,29.897],[-83.356,30.034],[-82.583,30.42],[-81.15,31.239],[-79.445,32.035],[-78.354,32.58],[-76.785,33.308],[-75.989,33.808],[-75.421,34.263],[-75.17,34.604],[-75.17,34.649],[-75.557,35.081],[-75.784,35.218],[-76.035,35.218],[-76.489,35.377],[-76.944,35.332],[-78.217,34.945],[-79.604,34.581],[-80.878,34.149],[-82.469,33.717],[-83.742,33.262],[-85.789,32.489],[-86.266,32.467],[-86.562,32.444]]]}},{"type":"Feature","properties":{"density":1},"geometry":{"type":"Polygon","coordinates":[[[-80.616,22.738],[-80.579,22.868],[-80.616,22.998],[-80.747,23.054],[-80.979,23.054],[-81.38,23.008],[-81.687,23.017],[-81.846,23.101],[-82.088,23.138],[-82.563,23.073],[-82.898,22.98],[-82.972,22.821],[-82.963,22.542],[-82.879,22.281],[-82.73,22.02],[-82.386,21.75],[-82.116,21.667],[-81.79,21.611],[-81.389,21.657],[-81.054,21.592],[-80.784,21.499],[-80.542,21.462],[-79.946,21.303],[-79.741,21.117],[-79.62,20.912],[-79.564,20.754],[-79.443,20.642],[-78.716,20.419],[-78.297,20.474],[-78.158,20.4],[-78.139,20.298],[-78.185,20.055],[-78.064,19.869],[-77.85,19.804],[-77.478,19.739],[-76.984,19.729],[-76.826,19.813],[-76.518,20.093],[-76.407,20.251],[-76.323,20.474],[-76.388,20.651],[-76.463,20.773],[-76.528,20.838],[-76.965,21.108],[-77.282,21.201],[-77.58,21.313],[-77.72,21.49],[-77.878,21.75],[-78.148,21.965],[-78.4,22.067],[-78.586,22.188],[-78.94,22.253],[-79.312,22.216],[-79.629,22.337],[-80.402,22.775],[-80.57,22.719],[-80.616,22.738]]]}},{"type":"Feature","properties":{"density":1},"geometry":{"type":"Polygon","coordinates":[[[-92.821,26.781],[-93.185,27.763],[-93.421,28.036],[-94.149,28.454],[-95.331,28.745],[-96.059,28.691],[-97.114,28.582],[-98.042,27.89],[-98.296,27.345],[-98.533,26.381],[-98.806,25.38],[-99.079,23.598],[-99.097,22.67],[-98.806,21.506],[-98.405,20.924],[-97.35,19.76],[-97.196,19.528],[-97.432,19.309],[-98.214,19.673],[-98.778,19.982],[-99.142,20.237],[-99.833,20.837],[-100.761,21.019],[-102.071,21.638],[-102.125,22.038],[-103.326,22.311],[-104.326,22.82],[-105.127,23.402],[-105.691,23.984],[-106.218,24.839],[-106.709,25.494],[-107.673,26.203],[-108.783,26.804],[-109.51,26.785],[-110.038,26.604],[-110.656,26.294],[-111.275,25.84],[-111.966,25.148],[-112.494,24.239],[-112.93,22.456],[-113.003,21.492],[-112.93,20.328],[-112.785,19.255],[-112.148,17.872],[-111.311,16.799],[-110.529,15.999],[-109.401,15.089],[-108.164,14.562],[-91.866,14.489],[-91.994,15.053],[-92.485,15.599],[-92.958,15.999],[-93.394,16.672],[-93.267,17.29],[-93.285,18.327],[-93.03,19.255],[-93.212,20.055],[-93.435,21.563],[-93.094,22.017],[-92.571,22.859],[-92.662,23.632],[-92.662,24.314],[-92.639,25.155],[-92.662,25.655],[-92.798,26.542],[-92.821,26.781]]]}},{"type":"Feature","properties":{"density":1},"geometry":{"type":"Polygon","coordinates":[[[-80.654,26.366],[-80.793,26.344],[-80.944,26.388],[-81.003,26.445],[-81.003,26.54],[-80.934,26.645],[-80.759,26.769],[-80.685,26.803],[-80.612,26.803],[-80.545,26.763],[-80.456,26.696],[-80.405,26.618],[-80.402,26.562],[-80.473,26.44],[-80.624,26.371],[-80.654,26.366]]]}},{"type":"Feature","properties":{"density":1},"geometry":{"type":"Polygon","coordinates":[[[-94.827,29.519],[-95.004,29.671],[-95.118,29.895],[-95.004,30.21],[-94.78,30.391],[-94.579,30.525],[-93.869,30.763],[-92.653,30.892],[-92.076,31.045],[-91.489,31.25],[-91.294,31.304],[-90.978,31.183],[-90.847,31.062],[-90.763,30.885],[-90.754,30.652],[-90.968,30.336],[-91.387,30.028],[-91.667,29.851],[-92.039,29.833],[-92.524,29.777],[-93.259,29.777],[-93.604,29.749],[-93.986,29.674],[-94.191,29.6],[-94.433,29.479],[-94.694,29.451],[-94.731,29.47],[-94.827,29.519]]]}}]}