{"type":"FeatureCollection","features":[{"type":"Feature","properties":{"density":1},"geometry":{"type":"Polygon","coordinates":[[[-123.059,17.318],[-121.498,14.977],[-119.867,13.275],[-118.803,12.495],[-116.888,11.715],[-114.406,11.502],[-110.647,11.147],[-108.356,11.546],[-106.037,12.424],[-101.711,13.771],[-101.64,13.842],[-99.505,14.099],[-97.385,13.842],[-94.69,12.495],[-93.2,11.998],[-91.569,11.502],[-88.236,11.147],[-84.619,11.147],[-81.86,11.319],[-79.229,12.779],[-77.81,14.268],[-74.548,15.828],[-72.278,16.821],[-70.718,17.601],[-66.88,19.895],[-64.643,21.492],[-62.605,23.453],[-62.624,24.308],[-63.07,24.903],[-63.962,25.219],[-64.902,25.19],[-66.156,25.238],[-67.811,24.885],[-69.901,24.368],[-73.555,23.204],[-76.746,22.282],[-77.668,22.282],[-79.725,23.417],[-80.576,24.764],[-80.931,26.112],[-81.171,27.569],[-81.381,29.094],[-81.893,29.757],[-82.464,29.897],[-83.022,29.699],[-83.407,29.001],[-83.395,28.046],[-83.523,27.301],[-84.187,26.8],[-85.269,26.5],[-86.806,26.696],[-87.732,27.244],[-88.034,28.29],[-87.825,29.847],[-87.035,30.962],[-86.384,31.543],[-85.687,32.589],[-85.478,33.565],[-86.036,34.379],[-86.524,34.588],[-88.267,34.076],[-91.055,33.565],[-94.425,34.123],[-96.772,34.82],[-97.958,35.703],[-99.282,36.517],[-100.746,36.795],[-104.186,36.842],[-107.527,36.537],[-108.378,36.183],[-108.732,35.474],[-108.874,33.559],[-108.874,32.708],[-109.3,31.715],[-109.654,31.006],[-109.796,30.225],[-109.371,29.445],[-109.583,27.885],[-110.647,26.892],[-112.066,26.537],[-113.271,26.183],[-114.973,25.19],[-117.172,22.708],[-118.236,22.211],[-119.867,21.786],[-120.363,21.715],[-122.704,20.793],[-122.917,20.58],[-123.278,19.205],[-123.059,17.318]]]}},{"type":"Feature","properties":{"density":1},"geometry":{"type":"Polygon","coordinates":[[[-118.982,33.828],[-118.48,34.442],[-118.313,35.278],[-120.618,39.331],[-120.823,39.889],[-120.693,40.558],[-120.171,41.929],[-119.699,43.418],[-119.626,44.907],[-119.808,45.96],[-120.353,47.194],[-120.633,48.979],[-121.213,49.827],[-121.198,50.481],[-121.392,50.868],[-121.897,50.868],[-122.388,50.422],[-122.686,49.871],[-123.003,47.339],[-123.258,46.25],[-123.294,45.705],[-123.294,44.108],[-123.185,43.236],[-123.149,42.256],[-123.294,40.767],[-123.835,38.718],[-123.723,37.528],[-123.258,36.84],[-121.864,35.929],[-120.711,34.683],[-119.8,33.94],[-118.982,33.828]]]}},{"type":"Feature","properties":{"density":1},"geometry":{"type":"Polygon","coordinates":[[[-103.228,45.215],[-105.667,45.87],[-106.952,46.488],[-108.511,47.547],[-110.04,49.409],[-111.202,51.116],[-112.146,52.714],[-112.146,54.275],[-112.328,54.783],[-112.437,55.655],[-112.437,56.454],[-112.328,57.362],[-111.965,58.451],[-111.601,59.613],[-111.202,60.412],[-110.512,61.211],[-109.604,61.755],[-108.37,61.901],[-107.68,61.719],[-107.026,61.356],[-106.009,60.92],[-105.32,60.884],[-104.11,61.346],[-103.05,61.885],[-102.232,62.201],[-101.265,62.313],[-100.41,62.61],[-99.406,63.298],[-98.216,63.596],[-96.543,63.652],[-94.963,63.484],[-93.252,62.834],[-91.783,62.332],[-90.426,62.146],[-87.652,61.728],[-84.767,61.864],[-84.004,61.937],[-81.717,62.082],[-79.457,62.263],[-77.286,62.412],[-75.62,62.397],[-73.837,62.082],[-73.038,61.755],[-71.186,60.956],[-68.717,60.012],[-68.136,59.431],[-68.136,58.778],[-69.007,58.306],[-71.186,58.124],[-73.478,58.351],[-75.114,58.604],[-76.319,58.679],[-77.256,58.679],[-78.862,58.723],[-80.439,58.723],[-82.261,58.705],[-83.477,58.715],[-85.034,58.576],[-87.033,58.088],[-88.52,57.437],[-89.775,56.391],[-91.422,55.554],[-93.281,54.974],[-94.292,54.542],[-94.664,54.141],[-94.991,53.516],[-94.887,52.743],[-94.644,52.387],[-93.591,51.406],[-91.838,49.5],[-90.797,47.82],[-90.247,46.883],[-90.202,46.064],[-91.213,43.967],[-92.374,43.298],[-93.623,42.45],[-95.922,42.252],[-98.088,42.538],[-99.563,43.074],[-100.694,43.633],[-101.788,44.394],[-102.598,44.882],[-103.228,45.215]]]}},{"type":"Feature","properties":{"density":1},"geometry":{"type":"Polygon","coordinates":[[[-57.649,60.65],[-59.203,61.405],[-61.012,62.181],[-62.711,62.871],[-64.887,63.67],[-67.863,64.292],[-69.417,64.691],[-75.723,65.402],[-80.297,66.29],[-83.272,66.823],[-85.759,67.311],[-90.289,67.756],[-92.421,68.111],[-96.107,68.155],[-99.126,67.978],[-101.88,67.311],[-104.589,66.246],[-106.942,65.224],[-109.118,63.892],[-110.717,62.604],[-111.961,60.206],[-112.272,58.208],[-112.36,56.12],[-111.739,53.5],[-110.939,51.28],[-109.651,49.814],[-107.431,47.505],[-106.188,46.706],[-104.766,45.729],[-103.434,44.707],[-102.505,44.105],[-101.169,43.419],[-100.015,42.975],[-98.505,42.442],[-97.572,42.132],[-96.107,42.043],[-93.975,42.132],[-92.51,42.354],[-91.335,42.911],[-90.397,43.622],[-89.829,44.446],[-89.317,45.555],[-89.516,46.691],[-89.914,47.828],[-90.795,49.05],[-91.932,50.301],[-93.126,51.296],[-94.092,51.949],[-94.686,52.612],[-95.041,53.145],[-95.13,54.078],[-94.641,55.055],[-93.753,55.943],[-92.643,56.387],[-91.577,56.964],[-90.422,57.319],[-88.557,57.675],[-86.825,58.074],[-84.605,58.341],[-83.228,58.652],[-81.185,58.918],[-78.876,59.185],[-76.878,59.496],[-74.257,59.762],[-71.415,59.851],[-69.905,59.718],[-67.729,59.407],[-66.353,59.096],[-64.576,58.785],[-62.711,58.341],[-61.29,57.941],[-57.693,57.053],[-56.127,57.074],[-55.339,57.186],[-54.94,57.408],[-54.584,57.675],[-54.496,58.385],[-54.584,58.918],[-55.073,59.54],[-56.45,60.295],[-58.004,60.872],[-57.649,60.65]]]}},{"type":"Feature","properties":{"density":1},"geometry":{"type":"Polygon","coordinates":[[[-117.689,20.77],[-116.634,21.769],[-115.135,23.102],[-113.637,24.545],[-111.916,26.266],[-110.528,28.375],[-109.196,30.096],[-108.03,31.206],[-105.865,32.483],[-104.422,33.038],[-102.534,33.593],[-99.259,34.093],[-95.707,33.982],[-91.876,33.316],[-89.156,32.76],[-87.213,31.761],[-86.103,30.984],[-85.604,29.929],[-85.159,28.819],[-84.549,27.653],[-83.217,26.321],[-81.662,25.489],[-79.331,24.489],[-75.778,23.379],[-75.167,22.768],[-74.779,22.158],[-74.89,20.937],[-75.945,20.27],[-77.166,19.882],[-79.22,19.882],[-81.329,19.937],[-82.939,19.604],[-84.105,19.382],[-85.326,18.328],[-85.604,17.273],[-85.604,15.941],[-85.548,15.441],[-85.826,14.553],[-86.769,13.776],[-88.046,12.832],[-89.711,12.221],[-91.876,12.277],[-93.597,12.998],[-94.874,13.498],[-96.428,13.665],[-98.371,13.831],[-100.536,13.776],[-102.146,13.776],[-104.699,13.665],[-108.197,13.443],[-109.362,13.332],[-112.36,13.498],[-114.025,13.831],[-115.746,14.386],[-117.467,15.108],[-118.633,16.218],[-119.132,17.328],[-119.077,18.439],[-118.633,19.493],[-117.911,20.715],[-117.689,20.77]]]}},{"type":"Feature","properties":{"density":1},"geometry":{"type":"Polygon","coordinates":[[[-110.477,30.482],[-110.236,30.829],[-110.011,31.051],[-109.744,31.241],[-109.554,31.344],[-109.401,31.367],[-109.317,31.348],[-109.229,31.287],[-109.21,31.218],[-109.241,31.131],[-109.351,31.016],[-109.615,30.86],[-110.107,30.52],[-110.389,30.375],[-110.439,30.387],[-110.473,30.414],[-110.473,30.475],[-110.477,30.482]]]}},{"type":"Feature","properties":{"density":1},"geometry":{"type":"Polygon","coordinates":[[[-121.229,36.012],[-121.408,35.993],[-121.511,35.909],[-121.504,35.638],[-121.427,35.57],[-121.351,35.532],[-121.256,35.524],[-121.179,35.566],[-121.084,35.661],[-121.038,35.749],[-121.023,35.841],[-121.034,35.909],[-121.061,35.959],[-121.118,35.997],[-121.206,36.008],[-121.229,36.012]]]}},{"type":"Feature","properties":{"density":1},"geometry":{"type":"Polygon","coordinates":[[[-115.445,54.825],[-115.478,54.929],[-115.603,55.158],[-115.64,55.289],[-115.64,55.494],[-115.619,55.585],[-115.561,55.692],[-115.295,55.906],[-115.176,55.955],[-115.069,55.973],[-114.911,55.955],[-114.624,55.857],[-114.551,55.814],[-114.477,55.759],[-114.313,55.576],[-114.282,55.457],[-114.364,55.292],[-114.48,55.216],[-114.609,55.189],[-115.005,54.978],[-115.072,54.923],[-115.326,54.81],[-115.399,54.804],[-115.445,54.825]]]}},{"type":"Feature","properties":{"density":2},"geometry":{"type":"Polygon","coordinates":[[[-95.235,51.0],[-95.471,51.114],[-95.737,51.129],[-96.027,51.03],[-96.499,50.764],[-96.887,50.52],[-96.948,50.452],[-97.002,50.238],[-96.903,50.094],[-96.659,49.88],[-96.537,49.728],[-96.385,49.515],[-96.324,49.317],[-96.408,49.157],[-96.712,49.104],[-96.727,48.837],[-96.545,48.601],[-96.126,48.319],[-95.76,48.159],[-95.463,48.121],[-94.846,47.954],[-94.588,47.596],[-95.006,47.527],[-96.606,47.923],[-97.024,47.87],[-97.283,47.626],[-97.542,47.451],[-97.893,47.284],[-98.388,46.911],[-98.502,46.515],[-98.19,45.882],[-97.733,45.662],[-97.222,45.547],[-96.621,45.387],[-96.24,45.266],[-95.608,45.243],[-95.037,45.327],[-94.763,45.266],[-94.39,45.045],[-94.1,44.969],[-93.537,44.976],[-92.729,45.106],[-92.174,45.601],[-91.679,45.89],[-91.496,46.02],[-91.427,46.172],[-91.397,46.507],[-91.397,46.773],[-91.587,47.086],[-91.808,47.322],[-92.044,47.657],[-92.273,48.167],[-92.387,48.738],[-92.608,49.218],[-92.775,49.523],[-93.057,49.781],[-93.506,49.964],[-93.765,50.01],[-94.138,49.957],[-94.572,49.941],[-94.9,50.056],[-94.976,50.155],[-94.991,50.299],[-94.991,50.429],[-94.968,50.513],[-94.976,50.589],[-95.014,50.771],[-95.098,50.947],[-95.235,51.0]]]}},{"type":"Feature","properties":{"density":2},"geometry":{"type":"Polygon","coordinates":[[[-101.375,51.116],[-101.078,51.385],[-100.773,52.022],[-100.714,52.379],[-100.669,52.855],[-100.684,53.301],[-100.842,53.98],[-100.811,54.206],[-100.468,54.46],[-100.253,54.854],[-99.93,55.154],[-99.384,55.068],[-98.855,55.131],[-98.678,55.201],[-98.245,55.874],[-98.111,56.008],[-97.627,56.836],[-97.207,57.213],[-96.598,58.182],[-95.969,58.76],[-95.597,58.998],[-94.794,59.34],[-94.422,59.578],[-94.244,59.89],[-94.229,60.336],[-94.482,60.649],[-95.151,60.604],[-95.642,60.545],[-96.609,60.292],[-97.322,60.224],[-98.122,60.078],[-98.692,60.083],[-99.745,60.005],[-100.744,59.786],[-101.13,59.622],[-101.74,59.295],[-102.395,59.072],[-103.242,58.73],[-103.346,58.641],[-103.897,58.373],[-104.611,57.942],[-105.354,57.823],[-105.548,57.525],[-105.607,57.213],[-105.696,56.901],[-105.964,56.499],[-106.291,56.097],[-106.336,55.77],[-106.366,55.205],[-106.5,54.58],[-106.5,54.09],[-106.708,52.974],[-106.629,52.196],[-106.317,52.013],[-105.175,52.173],[-103.648,52.621],[-103.032,52.578],[-102.681,52.36],[-102.451,51.962],[-102.123,51.326],[-101.796,51.155],[-101.375,51.116]]]}},{"type":"Feature","properties":{"density":2},"geometry":{"type":"Polygon","coordinates":[[[-105.974,17.505],[-105.249,17.487],[-104.635,17.654],[-104.022,17.914],[-103.65,18.193],[-103.297,18.751],[-103.26,18.955],[-103.223,19.383],[-103.148,19.848],[-103.148,20.294],[-102.999,20.722],[-102.906,21.279],[-103.037,21.856],[-103.315,22.395],[-103.408,22.767],[-103.223,23.808],[-103.055,24.514],[-103.167,25.146],[-103.427,25.555],[-103.966,25.667],[-104.327,25.576],[-104.708,25.194],[-104.87,24.832],[-105.142,24.736],[-105.342,24.851],[-105.466,25.251],[-105.614,25.862],[-105.576,26.758],[-105.763,27.245],[-106.031,27.585],[-106.478,27.71],[-107.551,27.871],[-108.034,28.122],[-108.386,28.551],[-108.606,28.73],[-108.827,28.628],[-108.918,28.254],[-108.96,27.817],[-108.876,27.435],[-107.689,24.996],[-106.829,22.878],[-106.532,22.06],[-106.439,21.67],[-106.476,21.261],[-106.885,20.275],[-107.238,19.569],[-107.313,19.253],[-107.647,18.714],[-107.833,18.286],[-107.796,17.803],[-107.499,17.505],[-107.276,17.319],[-106.792,17.431],[-105.974,17.505]]]}},{"type":"Feature","properties":{"density":2},"geometry":{"type":"Polygon","coordinates":[[[-108.686,28.327],[-108.63,28.222],[-108.488,28.068],[-108.474,28.08],[-108.498,28.163],[-108.569,28.263],[-108.576,28.319],[-108.601,28.351],[-108.664,28.351],[-108.686,28.327]]]}},{"type":"Feature","properties":{"density":2},"geometry":{"type":"Polygon","coordinates":[[[-108.567,29.743],[-108.298,29.795],[-108.224,29.847],[-108.142,29.825],[-108.142,29.586],[-108.075,29.556],[-107.911,29.616],[-107.777,29.72],[-107.672,29.877],[-107.561,29.996],[-107.3,30.123],[-107.151,30.242],[-106.592,30.51],[-106.227,30.577],[-105.922,30.898],[-105.959,31.114],[-106.302,31.181],[-106.808,31.047],[-107.62,30.696],[-107.851,30.518],[-108.179,30.205],[-108.298,30.115],[-108.73,29.892],[-108.723,29.773],[-108.693,29.728],[-108.567,29.743]]]}},{"type":"Feature","properties":{"density":2},"geometry":{"type":"Polygon","coordinates":[[[-110.403,30.404],[-110.353,30.383],[-110.28,30.383],[-110.146,30.49],[-110.052,30.611],[-110.017,30.785],[-110.06,30.791],[-110.286,30.635],[-110.4,30.502],[-110.423,30.432],[-110.403,30.404]]]}},{"type":"Feature","properties":{"density":2},"geometry":{"type":"Polygon","coordinates":[[[-104.833,53.684],[-104.922,53.818],[-104.922,53.922],[-105.056,54.115],[-105.204,54.606],[-105.413,54.784],[-105.591,55.216],[-105.725,55.231],[-105.889,55.171],[-106.037,55.082],[-106.171,55.126],[-106.231,55.305],[-105.978,55.885],[-105.829,56.168],[-105.71,56.673],[-105.71,56.911],[-105.591,57.209],[-105.219,57.729],[-104.937,58.161],[-103.97,58.488],[-103.539,59.217],[-103.449,59.752],[-102.75,60.005],[-102.051,60.213],[-100.594,60.972],[-99.434,61.076],[-98.288,61.299],[-97.277,61.373],[-96.057,61.745],[-95.477,61.82],[-93.544,62.266],[-93.231,62.355],[-92.294,62.4],[-91.58,62.087],[-90.301,61.626],[-89.721,61.507],[-89.126,61.18],[-88.754,60.912],[-88.026,60.54],[-87.565,60.466],[-86.687,60.169],[-86.642,59.931],[-87.55,59.425],[-90.866,59.336],[-92.116,59.217],[-93.246,59.023],[-94.362,58.651],[-95.328,58.205],[-96.117,57.938],[-97.351,57.462],[-97.783,56.777],[-98.437,56.182],[-98.868,55.84],[-99.567,55.558],[-100.341,54.978],[-100.623,54.784],[-101.248,54.115],[-101.843,53.133],[-102.319,53.059],[-102.81,53.327],[-103.36,53.535],[-104.223,53.535],[-104.669,53.595],[-104.669,53.639],[-104.833,53.684]]]}},{"type":"Feature","properties":{"density":2},"geometry":{"type":"Polygon","coordinates":[[[-95.492,51.015],[-95.998,51.0],[-96.191,50.821],[-96.504,50.628],[-96.697,50.583],[-97.128,50.167],[-97.009,49.676],[-96.414,49.275],[-95.968,48.932],[-95.269,48.561],[-94.659,48.293],[-94.064,48.085],[-93.365,47.579],[-92.666,46.895],[-92.726,46.553],[-93.113,46.285],[-93.886,46.196],[-94.525,46.24],[-95.284,46.493],[-95.626,46.553],[-95.433,45.943],[-94.987,45.497],[-94.362,45.214],[-93.678,45.11],[-93.098,45.08],[-92.592,45.288],[-91.967,46.032],[-91.774,46.791],[-92.057,47.891],[-92.384,48.546],[-92.666,49.007],[-93.559,49.483],[-94.064,49.483],[-94.615,49.394],[-95.254,49.751],[-95.269,49.914],[-95.135,50.286],[-95.016,50.494],[-95.016,50.717],[-95.254,51.03],[-95.492,51.015]]]}},{"type":"Feature","properties":{"density":2},"geometry":{"type":"Polygon","coordinates":[[[-102.079,18.259],[-102.912,18.334],[-103.432,18.081],[-103.834,17.932],[-104.191,17.903],[-104.756,17.962],[-105.187,18.259],[-105.366,18.631],[-105.589,19.226],[-105.842,19.762],[-105.99,20.401],[-105.633,21.532],[-105.738,21.978],[-106.214,22.677],[-106.481,23.257],[-106.66,23.837],[-106.957,24.298],[-107.24,24.848],[-107.374,25.414],[-107.359,25.503],[-106.719,25.161],[-106.347,24.923],[-105.931,24.596],[-105.47,24.372],[-104.949,24.372],[-104.622,24.432],[-104.265,24.164],[-104.116,23.495],[-103.685,22.365],[-103.715,21.695],[-104.102,21.115],[-104.161,20.446],[-103.789,20.0],[-103.239,19.613],[-102.644,19.33],[-102.287,19.003],[-102.049,18.631],[-101.9,18.453],[-102.079,18.259]]]}},{"type":"Feature","properties":{"density":2},"geometry":{"type":"Polygon","coordinates":[[[-81.834,31.948],[-81.68,32.059],[-81.686,32.106],[-81.735,32.129],[-81.805,32.104],[-81.846,32.059],[-81.862,31.952],[-81.834,31.948]]]}},{"type":"Feature","properties":{"density":2},"geometry":{"type":"Polygon","coordinates":[[[-106.206,55.328],[-106.388,55.51],[-106.515,55.837],[-106.515,56.492],[-106.179,57.41],[-105.155,58.69],[-104.48,59.354],[-103.572,59.983],[-102.617,60.46],[-101.651,60.786],[-100.603,61.077],[-99.474,61.298],[-97.565,61.612],[-94.864,62.008],[-94.001,62.185],[-92.728,62.604],[-90.963,63.295],[-90.363,63.586],[-89.908,63.841],[-89.162,63.968],[-88.362,64.041],[-87.161,63.913],[-86.106,63.513],[-85.27,63.222],[-85.088,62.968],[-85.027,62.742],[-85.062,62.497],[-85.106,62.404],[-85.288,62.131],[-86.197,61.785],[-86.918,61.577],[-87.58,61.476],[-88.403,61.31],[-88.962,61.094],[-89.707,60.867],[-91.814,60.041],[-92.617,59.645],[-93.255,59.111],[-93.346,59.002],[-93.528,58.657],[-93.855,58.256],[-94.128,57.856],[-94.656,57.311],[-94.965,57.165],[-95.383,57.02],[-95.747,56.819],[-96.129,56.638],[-96.729,56.456],[-97.257,56.201],[-97.948,55.764],[-98.421,55.564],[-98.694,55.473],[-98.948,55.291],[-99.185,55.019],[-99.294,54.709],[-99.822,54.0],[-99.967,53.836],[-100.058,53.6],[-100.022,53.382],[-100.294,53.236],[-100.549,53.2],[-100.749,53.2],[-101.04,53.054],[-101.204,52.945],[-101.368,52.727],[-101.55,52.599],[-101.768,52.363],[-101.841,52.054],[-101.877,51.817],[-101.968,51.544],[-102.15,50.671],[-102.241,50.544],[-102.35,50.508],[-102.605,50.508],[-102.732,50.598],[-102.768,50.78],[-102.605,51.563],[-102.605,51.963],[-102.441,52.545],[-102.15,53.327],[-102.186,53.927],[-102.314,54.218],[-102.623,54.4],[-102.877,54.509],[-102.932,54.637],[-103.059,54.6],[-103.168,54.491],[-103.387,53.964],[-103.842,53.709],[-104.06,53.636],[-104.424,53.472],[-104.606,53.291],[-104.751,53.218],[-104.86,53.254],[-104.987,53.382],[-105.133,53.636],[-105.206,53.873],[-105.224,54.382],[-105.115,54.746],[-105.151,54.891],[-105.151,55.037],[-105.242,55.382],[-105.351,55.51],[-105.46,55.455],[-105.588,55.364],[-105.679,55.255],[-105.733,55.146],[-105.915,55.055],[-106.061,55.11],[-106.261,55.219],[-106.206,55.328]]]}},{"type":"Feature","properties":{"density":2},"geometry":{"type":"Polygon","coordinates":[[[-98.078,54.961],[-98.248,54.979],[-98.357,54.953],[-98.517,54.877],[-98.521,54.838],[-98.5,54.813],[-98.422,54.768],[-98.381,54.723],[-98.371,54.565],[-98.416,54.5],[-98.586,54.426],[-98.775,54.42],[-98.818,54.362],[-98.814,54.322],[-98.791,54.289],[-98.619,54.166],[-98.453,54.092],[-98.418,54.051],[-98.373,54.057],[-98.336,54.098],[-98.254,54.094],[-98.17,54.113],[-98.176,54.196],[-98.238,54.256],[-98.248,54.322],[-98.215,54.405],[-98.113,54.434],[-97.965,54.59],[-97.873,54.592],[-97.775,54.633],[-97.756,54.656],[-97.762,54.776],[-97.793,54.844],[-97.92,54.928],[-98.072,54.961],[-98.078,54.961]]]}},{"type":"Feature","properties":{"density":2},"geometry":{"type":"Polygon","coordinates":[[[-95.358,51.23],[-95.44,51.267],[-95.641,51.311],[-95.783,51.311],[-95.925,51.2],[-95.954,51.11],[-96.014,51.058],[-96.357,51.028],[-96.521,51.036],[-96.766,51.021],[-96.915,50.961],[-96.915,50.842],[-96.871,50.693],[-96.766,50.611],[-96.692,50.484],[-96.766,50.35],[-96.856,50.268],[-96.968,50.201],[-97.117,50.194],[-97.228,50.209],[-97.37,50.186],[-97.579,50.119],[-97.623,50.037],[-97.66,49.896],[-97.616,49.799],[-97.511,49.665],[-97.385,49.553],[-97.102,49.412],[-96.938,49.382],[-96.699,49.404],[-96.64,49.434],[-96.655,49.59],[-96.603,49.628],[-96.468,49.65],[-96.401,49.628],[-96.364,49.531],[-95.82,49.054],[-95.783,48.808],[-95.731,48.644],[-95.626,48.503],[-95.545,48.316],[-95.381,48.19],[-95.09,48.026],[-94.583,47.944],[-94.382,47.966],[-94.278,47.996],[-94.196,48.093],[-94.025,48.182],[-93.868,48.249],[-93.734,48.272],[-93.518,48.219],[-93.302,48.145],[-92.907,47.907],[-92.505,47.69],[-92.4,47.586],[-92.222,47.497],[-91.983,47.31],[-91.916,47.199],[-91.901,46.856],[-91.871,46.714],[-91.871,46.416],[-91.931,46.104],[-92.125,45.873],[-92.281,45.753],[-92.363,45.642],[-92.512,45.552],[-92.743,45.344],[-92.996,45.262],[-93.324,45.299],[-93.525,45.336],[-93.66,45.381],[-93.905,45.411],[-94.114,45.388],[-94.39,45.314],[-94.77,45.262],[-94.948,45.217],[-95.075,45.157],[-95.247,45.023],[-95.328,44.859],[-95.351,44.718],[-95.254,44.531],[-95.075,44.338],[-94.77,44.241],[-94.561,44.241],[-94.092,44.323],[-93.838,44.286],[-93.235,44.233],[-92.967,44.263],[-92.43,44.517],[-92.043,44.755],[-91.871,44.934],[-91.67,45.18],[-91.477,45.358],[-91.283,45.582],[-91.171,45.902],[-91.029,46.23],[-90.985,46.461],[-91.074,46.625],[-91.074,46.744],[-91.141,46.886],[-91.164,47.005],[-91.111,47.08],[-91.044,47.109],[-91.022,47.191],[-91.171,47.251],[-91.26,47.407],[-91.357,47.452],[-91.372,47.661],[-91.193,47.78],[-91.007,47.854],[-90.948,47.959],[-91.022,48.078],[-91.342,48.257],[-91.655,48.331],[-91.938,48.473],[-92.14,48.599],[-92.259,48.748],[-92.579,49.046],[-92.713,49.248],[-92.982,49.531],[-93.101,49.695],[-93.28,49.784],[-93.458,49.792],[-93.704,49.762],[-94.032,49.65],[-94.583,49.263],[-94.74,49.3],[-94.829,49.434],[-94.755,49.665],[-94.665,49.732],[-94.613,49.873],[-94.636,50.008],[-94.68,50.067],[-94.785,50.127],[-95.023,50.209],[-95.068,50.253],[-95.083,50.335],[-95.03,50.38],[-94.971,50.38],[-94.904,50.44],[-94.889,50.484],[-94.948,50.566],[-94.963,50.611],[-94.956,50.671],[-94.911,50.693],[-94.785,50.715],[-94.762,50.782],[-94.799,51.028],[-94.867,51.08],[-95.105,51.095],[-95.217,51.133],[-95.328,51.222],[-95.358,51.23]]]}},{"type":"Feature","properties":{"density":2},"geometry":{"type":"Polygon","coordinates":[[[-108.047,27.697],[-108.411,27.515],[-108.798,26.651],[-108.762,26.204],[-108.544,25.549],[-108.398,25.185],[-108.125,24.73],[-107.962,24.312],[-107.689,23.985],[-107.452,23.639],[-107.234,23.421],[-106.819,22.786],[-106.41,22.354],[-106.16,21.944],[-106.024,21.626],[-106.001,21.24],[-106.115,20.58],[-106.889,19.183],[-107.16,18.488],[-107.452,17.909],[-107.671,17.145],[-107.616,16.672],[-107.416,16.4],[-107.143,16.163],[-106.67,16.054],[-105.688,16.145],[-105.182,16.374],[-104.506,16.745],[-103.795,17.238],[-103.295,17.624],[-103.091,18.102],[-103.05,18.382],[-103.022,19.034],[-103.014,19.801],[-103.232,20.711],[-103.454,21.467],[-103.682,22.081],[-103.796,22.584],[-104.015,22.93],[-104.269,23.421],[-104.705,23.945],[-105.069,24.491],[-105.523,25.037],[-105.796,25.56],[-106.888,27.083],[-107.16,27.424],[-107.365,27.652],[-107.615,27.765],[-107.843,27.788],[-108.047,27.697]]]}},{"type":"Feature","properties":{"density":2},"geometry":{"type":"Polygon","coordinates":[[[-96.261,28.427],[-96.807,28.109],[-97.489,27.29],[-97.739,26.858],[-98.012,25.381],[-98.126,23.766],[-98.012,22.584],[-97.807,21.515],[-97.557,20.583],[-97.375,19.696],[-96.557,18.355],[-96.216,17.468],[-96.193,16.763],[-96.739,16.354],[-97.671,16.649],[-99.103,17.286],[-100.399,17.764],[-101.241,17.741],[-101.764,17.218],[-101.809,16.558],[-101.354,16.035],[-100.172,15.513],[-98.239,15.171],[-97.148,14.921],[-96.147,14.967],[-94.851,15.149],[-94.078,14.967],[-92.941,14.262],[-91.805,13.716],[-90.372,13.512],[-89.463,13.648],[-88.508,14.08],[-87.939,14.444],[-87.78,14.944],[-87.712,15.717],[-88.098,16.718],[-88.462,17.4],[-89.167,18.218],[-89.508,18.537],[-89.872,18.946],[-90.418,19.378],[-90.918,19.537],[-91.6,19.651],[-92.055,19.787],[-92.441,19.855],[-93.192,20.219],[-94.01,20.651],[-94.783,21.356],[-95.352,22.288],[-95.624,23.63],[-95.806,24.403],[-95.806,25.381],[-95.511,25.994],[-95.079,26.654],[-94.556,27.177],[-94.397,27.495],[-94.283,27.995],[-94.374,28.359],[-94.76,28.609],[-95.352,28.655],[-95.806,28.632],[-95.966,28.518],[-96.261,28.427]]]}},{"type":"Feature","properties":{"density":2},"geometry":{"type":"Polygon","coordinates":[[[-110.404,30.486],[-110.111,30.78],[-109.981,30.852],[-109.924,30.841],[-109.905,30.799],[-109.912,30.768],[-110.046,30.627],[-110.118,30.593],[-110.378,30.402],[-110.423,30.406],[-110.435,30.459],[-110.404,30.486]]]}},{"type":"Feature","properties":{"density":2},"geometry":{"type":"Polygon","coordinates":[[[-114.615,55.674],[-114.725,55.655],[-114.862,55.604],[-114.96,55.506],[-115.1,55.274],[-115.127,55.253],[-115.356,55.24],[-115.469,55.149],[-115.481,55.094],[-115.472,54.899],[-115.466,54.844],[-115.433,54.804],[-115.393,54.789],[-115.372,54.807],[-115.359,54.825],[-115.362,54.886],[-115.338,54.902],[-115.182,54.926],[-114.938,55.039],[-114.725,55.228],[-114.725,55.268],[-114.761,55.329],[-114.728,55.424],[-114.691,55.445],[-114.535,55.448],[-114.508,55.475],[-114.526,55.524],[-114.566,55.558],[-114.548,55.601],[-114.56,55.655],[-114.603,55.668],[-114.615,55.674]]]}},{"type":"Feature","properties":{"density":3},"geometry":{"type":"Polygon","coordinates":[[[-106.089,55.169],[-105.945,55.127],[-105.79,55.168],[-105.629,55.296],[-105.519,55.29],[-105.564,55.144],[-105.421,54.668],[-105.314,54.454],[-105.124,54.24],[-104.973,54.015],[-104.788,53.991],[-104.681,53.903],[-104.768,53.757],[-104.7,53.635],[-104.335,53.611],[-103.803,53.367],[-103.35,53.128],[-102.575,53.128],[-102.18,53.197],[-101.727,53.348],[-101.498,53.704],[-101.259,54.43],[-101.019,54.823],[-100.757,55.12],[-100.543,55.489],[-100.21,55.731],[-99.669,56.559],[-99.465,56.915],[-99.328,57.324],[-99.198,57.785],[-98.77,57.988],[-97.983,58.255],[-97.661,58.455],[-98.368,58.626],[-98.67,58.572],[-98.856,58.567],[-98.953,58.684],[-98.853,58.821],[-98.425,59.035],[-98.154,59.279],[-97.964,59.381],[-97.803,59.532],[-97.998,59.557],[-98.202,59.508],[-98.413,59.392],[-98.877,59.201],[-99.579,59.023],[-100.115,59.011],[-100.479,58.869],[-100.683,58.66],[-100.873,58.411],[-101.21,58.207],[-101.629,58.163],[-101.959,58.261],[-102.243,58.236],[-102.494,58.011],[-102.863,57.952],[-103.291,57.94],[-103.589,57.738],[-103.815,57.726],[-104.196,57.75],[-104.243,57.595],[-104.398,57.369],[-104.743,57.333],[-104.803,57.19],[-104.752,56.916],[-104.746,56.746],[-104.837,56.575],[-105.221,56.149],[-105.519,55.948],[-105.641,55.734],[-105.97,55.527],[-106.155,55.295],[-106.089,55.169]]]}},{"type":"Feature","properties":{"density":3},"geometry":{"type":"Polygon","coordinates":[[[-95.382,50.942],[-95.633,50.978],[-96.162,50.824],[-96.336,50.714],[-96.568,50.531],[-96.727,50.427],[-96.801,50.339],[-96.751,50.239],[-96.555,50.072],[-96.148,49.586],[-94.881,48.867],[-94.095,48.563],[-93.382,48.331],[-93.09,48.185],[-92.905,47.998],[-93.096,48.575],[-93.236,48.721],[-93.51,48.941],[-93.748,49.099],[-94.077,49.27],[-94.302,49.361],[-95.161,49.586],[-95.521,49.781],[-95.569,49.97],[-95.563,50.031],[-95.478,50.183],[-95.454,50.317],[-95.393,50.458],[-95.283,50.464],[-95.154,50.545],[-95.16,50.647],[-95.186,50.732],[-95.185,50.902],[-95.316,50.896],[-95.382,50.942]]]}},{"type":"Feature","properties":{"density":3},"geometry":{"type":"Polygon","coordinates":[[[-106.01,24.385],[-106.035,24.414],[-106.079,24.428],[-106.102,24.42],[-106.117,24.351],[-106.147,24.326],[-106.193,24.331],[-106.302,24.308],[-106.338,24.276],[-106.359,24.214],[-106.322,24.176],[-106.268,24.163],[-106.257,24.057],[-106.242,24.047],[-106.184,24.058],[-106.095,23.97],[-106.053,23.971],[-105.962,24.123],[-105.957,24.168],[-105.993,24.269],[-105.992,24.321],[-106.01,24.385]]]}},{"type":"Feature","properties":{"density":3},"geometry":{"type":"Polygon","coordinates":[[[-106.234,23.832],[-106.331,23.973],[-106.351,23.973],[-106.355,23.938],[-106.326,23.848],[-106.269,23.806],[-106.238,23.806],[-106.234,23.832]]]}},{"type":"Feature","properties":{"density":3},"geometry":{"type":"Polygon","coordinates":[[[-105.849,23.639],[-105.859,23.688],[-105.908,23.747],[-105.936,23.733],[-105.986,23.663],[-106.045,23.649],[-106.1,23.573],[-106.106,23.531],[-106.089,23.387],[-106.032,23.275],[-105.985,23.189],[-105.89,23.126],[-105.8,23.2],[-105.799,23.325],[-105.784,23.371],[-105.7,23.437],[-105.695,23.502],[-105.602,23.596],[-105.59,23.681],[-105.622,23.698],[-105.667,23.684],[-105.78,23.609],[-105.849,23.639]]]}},{"type":"Feature","properties":{"density":3},"geometry":{"type":"Polygon","coordinates":[[[-107.359,25.507],[-107.185,25.397],[-107.105,25.421],[-107.06,25.463],[-107.11,25.547],[-107.151,25.569],[-107.194,25.541],[-107.349,25.553],[-107.373,25.538],[-107.359,25.507]]]}},{"type":"Feature","properties":{"density":3},"geometry":{"type":"Polygon","coordinates":[[[-107.268,26.26],[-107.246,26.219],[-106.909,26.143],[-106.799,26.147],[-106.762,26.171],[-106.727,26.225],[-106.732,26.264],[-106.79,26.283],[-106.976,26.285],[-107.076,26.377],[-107.105,26.503],[-107.159,26.614],[-107.196,26.649],[-107.255,26.669],[-107.277,26.702],[-107.291,26.789],[-107.263,26.852],[-107.227,26.882],[-107.234,26.953],[-107.277,26.999],[-107.349,27.038],[-107.33,26.978],[-107.298,26.958],[-107.282,26.919],[-107.294,26.875],[-107.39,26.791],[-107.374,26.713],[-107.334,26.636],[-107.255,26.597],[-107.196,26.471],[-107.068,26.316],[-107.115,26.272],[-107.205,26.316],[-107.273,26.275],[-107.268,26.26]]]}},{"type":"Feature","properties":{"density":3},"geometry":{"type":"Polygon","coordinates":[[[-107.502,26.09],[-107.439,26.073],[-107.334,26.0],[-107.224,25.956],[-107.236,26.0],[-107.363,26.088],[-107.456,26.13],[-107.519,26.127],[-107.502,26.09]]]}},{"type":"Feature","properties":{"density":3},"geometry":{"type":"Polygon","coordinates":[[[-107.097,25.893],[-106.941,25.768],[-106.887,25.773],[-106.897,25.824],[-106.975,25.885],[-107.099,25.912],[-107.097,25.893]]]}},{"type":"Feature","properties":{"density":3},"geometry":{"type":"Polygon","coordinates":[[[-106.596,26.164],[-106.457,26.183],[-106.372,26.176],[-106.233,26.137],[-106.215,26.103],[-106.23,26.061],[-106.403,26.037],[-106.548,26.068],[-106.635,26.125],[-106.596,26.164]]]}},{"type":"Feature","properties":{"density":3},"geometry":{"type":"Polygon","coordinates":[[[-107.866,27.174],[-107.856,27.306],[-107.795,27.45],[-107.744,27.55],[-107.634,27.663],[-107.627,27.709],[-107.715,27.668],[-108.037,27.445],[-107.964,27.433],[-107.861,27.492],[-107.92,27.297],[-107.929,27.194],[-107.885,27.143],[-107.866,27.174]]]}},{"type":"Feature","properties":{"density":3},"geometry":{"type":"Polygon","coordinates":[[[-108.386,27.05],[-108.423,27.069],[-108.452,27.06],[-108.447,27.023],[-108.42,26.996],[-108.371,27.018],[-108.386,27.05]]]}},{"type":"Feature","properties":{"density":3},"geometry":{"type":"Polygon","coordinates":[[[-110.368,30.424],[-110.38,30.423],[-110.393,30.46],[-110.385,30.484],[-110.293,30.516],[-110.281,30.491],[-110.298,30.466],[-110.369,30.41],[-110.368,30.424]]]}},{"type":"Feature","properties":{"density":3},"geometry":{"type":"Polygon","coordinates":[[[-104.882,54.057],[-104.942,54.117],[-104.93,54.331],[-104.894,54.498],[-104.894,54.736],[-105.049,54.926],[-105.442,55.307],[-105.656,55.366],[-105.811,55.366],[-105.93,55.331],[-105.941,55.342],[-105.692,55.711],[-105.501,55.842],[-105.263,56.211],[-105.097,56.425],[-104.633,56.58],[-104.121,56.675],[-103.704,57.092],[-103.359,57.568],[-103.193,57.71],[-102.645,57.746],[-101.967,58.162],[-101.777,58.317],[-100.932,58.496],[-100.432,58.543],[-99.528,58.365],[-99.373,57.972],[-99.421,57.675],[-99.623,57.258],[-99.754,57.068],[-100.04,56.366],[-100.527,55.58],[-100.706,55.247],[-101.027,54.962],[-101.396,54.748],[-101.824,54.7],[-102.479,54.521],[-103.24,54.034],[-103.455,53.974],[-103.776,53.927],[-104.085,53.808],[-104.347,53.736],[-104.668,53.784],[-104.763,53.938],[-104.787,54.01],[-104.882,54.057]]]}},{"type":"Feature","properties":{"density":3},"geometry":{"type":"Polygon","coordinates":[[[-95.44,50.973],[-95.537,50.998],[-95.64,50.959],[-95.786,50.769],[-95.976,50.769],[-96.015,50.715],[-96.03,50.583],[-95.947,50.491],[-95.805,50.554],[-95.679,50.559],[-95.532,50.764],[-95.484,50.769],[-95.459,50.72],[-95.479,50.617],[-95.781,50.422],[-95.664,50.344],[-95.532,50.349],[-95.362,50.408],[-95.245,50.559],[-95.255,50.647],[-95.308,50.73],[-95.308,50.759],[-95.24,50.842],[-95.24,50.895],[-95.333,50.895],[-95.386,50.866],[-95.42,50.876],[-95.411,50.924],[-95.44,50.973]]]}},{"type":"Feature","properties":{"density":3},"geometry":{"type":"Polygon","coordinates":[[[-106.07,24.423],[-106.142,24.429],[-106.191,24.335],[-106.26,24.323],[-106.316,24.282],[-106.354,24.195],[-106.31,24.164],[-106.248,24.155],[-106.198,24.111],[-106.123,24.158],[-105.992,24.304],[-105.992,24.335],[-106.048,24.401],[-106.07,24.423]]]}},{"type":"Feature","properties":{"density":3},"geometry":{"type":"Polygon","coordinates":[[[-105.941,23.698],[-105.995,23.616],[-106.003,23.579],[-105.903,23.457],[-105.845,23.437],[-105.797,23.465],[-105.787,23.505],[-105.885,23.561],[-105.919,23.666],[-105.941,23.698]]]}},{"type":"Feature","properties":{"density":3},"geometry":{"type":"Polygon","coordinates":[[[-105.685,23.684],[-105.659,23.644],[-105.619,23.648],[-105.663,23.7],[-105.683,23.702],[-105.685,23.684]]]}},{"type":"Feature","properties":{"density":3},"geometry":{"type":"Polygon","coordinates":[[[-92.421,18.397],[-92.446,18.455],[-92.592,18.573],[-92.609,18.552],[-92.571,18.47],[-92.531,18.433],[-92.436,18.387],[-92.421,18.397]]]}},{"type":"Feature","properties":{"density":3},"geometry":{"type":"Polygon","coordinates":[[[-92.01,18.282],[-92.244,18.466],[-92.303,18.481],[-92.213,18.391],[-92.017,18.268],[-92.01,18.282]]]}},{"type":"Feature","properties":{"density":3},"geometry":{"type":"Polygon","coordinates":[[[-106.214,55.365],[-106.146,55.73],[-105.839,56.456],[-105.589,57.127],[-105.163,57.496],[-104.736,57.752],[-104.404,58.03],[-104.058,58.269],[-103.566,58.724],[-103.094,59.051],[-102.318,59.259],[-101.573,59.418],[-100.82,59.742],[-99.947,59.997],[-99.074,60.343],[-98.274,60.438],[-97.781,60.336],[-97.576,59.963],[-97.678,59.516],[-97.576,59.218],[-97.278,59.199],[-97.017,59.367],[-96.421,59.581],[-95.918,59.563],[-95.406,59.274],[-95.164,58.976],[-95.024,58.734],[-94.931,58.454],[-94.95,58.194],[-94.944,57.96],[-94.854,57.851],[-94.393,57.825],[-94.281,57.713],[-94.421,57.48],[-94.681,57.331],[-95.024,57.244],[-95.313,57.234],[-95.687,57.248],[-95.981,57.287],[-96.054,57.469],[-96.036,57.632],[-96.072,57.814],[-96.163,57.978],[-96.414,58.104],[-96.665,58.123],[-97.159,57.909],[-97.215,57.685],[-97.159,57.359],[-97.164,56.814],[-97.273,56.596],[-97.491,56.395],[-97.891,56.268],[-98.019,56.123],[-98.037,55.85],[-98.146,55.741],[-98.31,55.632],[-98.637,55.559],[-98.946,55.45],[-99.092,55.322],[-99.146,55.14],[-99.165,54.904],[-99.383,54.777],[-99.51,54.558],[-100.074,54.486],[-100.274,54.322],[-100.383,54.122],[-100.325,53.699],[-100.204,53.504],[-100.316,53.364],[-100.605,53.327],[-100.884,53.345],[-101.135,53.113],[-101.493,52.994],[-101.566,53.176],[-101.566,53.321],[-101.475,53.503],[-101.311,53.667],[-101.184,54.067],[-101.184,54.304],[-101.129,54.486],[-101.202,54.667],[-101.293,54.831],[-101.475,54.94],[-101.566,54.977],[-101.82,54.958],[-102.148,54.886],[-102.421,54.758],[-102.402,54.667],[-102.584,54.558],[-102.712,54.558],[-102.802,54.631],[-102.802,54.777],[-102.839,54.831],[-102.858,55.031],[-103.021,55.049],[-103.075,54.995],[-103.105,54.915],[-103.128,54.728],[-103.315,54.542],[-103.35,54.228],[-103.443,53.995],[-103.489,53.925],[-103.664,53.879],[-103.862,53.797],[-104.083,53.751],[-104.188,53.762],[-104.281,53.681],[-104.362,53.634],[-104.491,53.494],[-104.56,53.39],[-104.723,53.238],[-104.816,53.273],[-104.979,53.483],[-105.049,53.704],[-105.131,53.879],[-105.096,53.995],[-105.131,54.158],[-105.142,54.333],[-105.119,54.449],[-104.945,54.926],[-105.026,55.008],[-105.049,55.124],[-105.119,55.299],[-105.201,55.357],[-105.177,55.485],[-105.084,55.59],[-105.026,55.671],[-104.991,55.753],[-104.968,55.765],[-104.979,55.823],[-105.038,55.858],[-105.655,55.439],[-105.748,55.404],[-105.806,55.148],[-106.085,55.078],[-106.19,55.183],[-106.225,55.299],[-106.214,55.365]]]}},{"type":"Feature","properties":{"density":3},"geometry":{"type":"Polygon","coordinates":[[[-98.34,54.677],[-98.371,54.627],[-98.382,54.509],[-98.401,54.482],[-98.451,54.444],[-98.638,54.364],[-98.726,54.356],[-98.752,54.322],[-98.733,54.261],[-98.695,54.208],[-98.653,54.181],[-98.409,54.101],[-98.275,54.112],[-98.226,54.131],[-98.222,54.17],[-98.268,54.25],[-98.275,54.314],[-98.23,54.421],[-98.188,54.467],[-98.211,54.643],[-98.268,54.704],[-98.333,54.696],[-98.34,54.677]]]}},{"type":"Feature","properties":{"density":3},"geometry":{"type":"Polygon","coordinates":[[[-95.495,51.231],[-95.668,51.196],[-95.757,51.124],[-95.787,51.041],[-95.841,51.023],[-96.019,50.991],[-96.377,50.999],[-96.828,50.95],[-96.85,50.892],[-96.759,50.737],[-96.687,50.669],[-96.645,50.594],[-96.657,50.576],[-96.633,50.492],[-96.67,50.349],[-96.65,50.308],[-96.586,50.281],[-96.512,50.29],[-96.443,50.337],[-96.425,50.486],[-96.385,50.527],[-96.317,50.516],[-96.204,50.331],[-96.186,50.182],[-96.157,50.153],[-96.121,50.141],[-95.972,50.147],[-95.888,50.182],[-95.841,50.182],[-95.721,50.153],[-95.435,50.01],[-95.334,49.986],[-95.2,49.879],[-95.143,49.854],[-95.002,49.843],[-94.947,49.867],[-94.935,49.926],[-94.982,49.992],[-95.018,50.02],[-95.072,50.027],[-95.14,50.066],[-95.191,50.165],[-95.238,50.203],[-95.371,50.236],[-95.386,50.281],[-95.346,50.325],[-95.215,50.403],[-95.179,50.492],[-95.14,50.518],[-95.09,50.51],[-95.012,50.451],[-94.97,50.451],[-94.947,50.474],[-94.975,50.541],[-95.158,50.712],[-95.175,50.764],[-95.158,50.789],[-95.042,50.761],[-94.863,50.808],[-94.833,50.862],[-94.827,50.951],[-94.887,51.035],[-95.131,51.059],[-95.245,51.1],[-95.346,51.19],[-95.459,51.237],[-95.495,51.231]]]}},{"type":"Feature","properties":{"density":3},"geometry":{"type":"Polygon","coordinates":[[[-115.445,54.835],[-115.448,54.889],[-115.399,55.012],[-115.216,55.124],[-115.112,55.222],[-114.996,55.405],[-114.88,55.549],[-114.786,55.594],[-114.703,55.601],[-114.66,55.588],[-114.657,55.561],[-114.731,55.521],[-114.776,55.475],[-114.798,55.411],[-114.865,55.32],[-114.874,55.158],[-114.92,55.088],[-115.198,54.932],[-115.356,54.896],[-115.372,54.886],[-115.375,54.825],[-115.402,54.801],[-115.442,54.81],[-115.445,54.835]]]}}]}