{"type":"FeatureCollection","features":[{"type":"Feature","properties":{"density":1},"geometry":{"type":"Polygon","coordinates":[[[-89.897,38.154],[-89.49,37.249],[-89.235,36.311],[-88.666,35.43],[-88.297,35.061],[-88.126,34.606],[-87.501,33.839],[-86.928,33.264],[-86.137,32.702],[-85.0,32.361],[-84.062,32.275],[-83.437,32.446],[-82.499,32.815],[-81.305,33.384],[-80.907,33.526],[-79.997,33.725],[-79.287,33.611],[-78.974,33.1],[-78.974,32.673],[-79.145,32.133],[-80.225,31.195],[-80.992,30.57],[-81.646,30.002],[-81.845,29.803],[-82.186,29.405],[-82.47,28.581],[-82.499,27.614],[-82.214,26.875],[-81.959,26.278],[-81.788,25.767],[-81.76,25.17],[-81.845,24.488],[-82.271,23.749],[-82.783,23.209],[-83.607,22.697],[-84.629,22.234],[-86.108,21.845],[-87.586,21.56],[-88.666,21.276],[-88.95,21.134],[-89.604,20.765],[-90.03,20.225],[-90.684,19.571],[-90.883,19.287],[-91.252,18.69],[-91.622,17.866],[-91.65,17.24],[-91.395,16.331],[-90.997,15.393],[-90.945,14.589],[-91.281,13.29],[-91.736,12.75],[-93.64,12.494],[-96.056,12.579],[-97.363,12.778],[-98.329,12.892],[-99.751,13.176],[-101.813,13.248],[-103.632,13.498],[-105.565,13.589],[-106.702,13.725],[-107.81,13.779],[-109.527,13.765],[-110.608,14.142],[-110.949,14.284],[-111.205,14.654],[-111.205,15.364],[-111.176,16.103],[-110.977,16.814],[-110.494,18.008],[-110.068,19.116],[-109.641,19.685],[-108.675,20.566],[-108.107,20.992],[-107.794,21.049],[-107.374,21.23],[-106.953,21.327],[-105.998,21.509],[-105.338,21.6],[-104.974,21.736],[-103.747,21.85],[-103.36,22.009],[-102.769,22.146],[-102.155,22.396],[-101.974,22.768],[-101.9,23.15],[-101.974,23.643],[-102.171,24.149],[-102.524,24.947],[-102.876,25.673],[-103.995,26.8],[-104.468,27.765],[-104.424,28.635],[-104.554,29.026],[-104.768,29.399],[-105.271,29.846],[-105.756,30.06],[-106.296,30.237],[-106.64,30.395],[-107.078,30.861],[-107.451,31.941],[-107.6,32.686],[-107.73,33.199],[-107.794,33.833],[-108.021,34.788],[-108.067,35.242],[-107.953,35.606],[-107.68,35.902],[-107.294,36.038],[-106.816,36.129],[-105.793,36.379],[-105.316,36.538],[-104.906,36.811],[-104.702,36.993],[-104.52,37.539],[-104.52,38.63],[-104.702,39.13],[-105.52,40.199],[-106.18,40.858],[-107.089,41.541],[-108.021,42.359],[-109.272,43.723],[-109.84,44.383],[-110.409,45.451],[-110.522,45.747],[-110.613,46.247],[-110.613,46.907],[-110.704,47.862],[-110.636,48.453],[-110.045,49.953],[-109.499,50.795],[-109.105,51.57],[-108.226,52.818],[-107.635,53.751],[-106.634,54.615],[-105.588,55.229],[-104.77,55.82],[-103.701,56.479],[-101.791,57.048],[-100.973,57.343],[-99.972,57.411],[-98.744,57.525],[-97.198,57.457],[-95.743,57.298],[-94.652,57.002],[-92.537,56.343],[-91.673,56.024],[-90.491,55.661],[-89.399,55.115],[-88.149,54.251],[-87.262,53.728],[-87.035,53.273],[-86.898,52.75],[-86.807,52.182],[-86.966,51.613],[-87.444,50.931],[-88.149,50.272],[-89.104,49.612],[-90.423,49.203],[-91.468,48.839],[-92.31,48.248],[-92.514,47.361],[-92.173,46.634],[-91.173,46.452],[-90.082,46.429],[-89.172,46.429],[-88.49,46.315],[-88.012,45.861],[-87.535,44.906],[-87.762,44.064],[-88.285,43.041],[-88.535,42.7],[-89.013,42.291],[-89.831,42.041],[-90.673,41.541],[-91.014,41.04],[-91.15,40.54],[-91.15,40.108],[-90.923,39.562],[-90.604,39.085],[-90.309,38.767],[-90.104,38.63],[-89.897,38.154]]]}},{"type":"Feature","properties":{"density":1},"geometry":{"type":"Polygon","coordinates":[[[-119.423,49.097],[-120.441,47.758],[-121.693,44.556],[-121.998,43.494],[-122.45,40.933],[-122.464,40.307],[-122.493,40.074],[-122.551,39.827],[-122.566,39.274],[-122.653,38.619],[-122.653,38.168],[-122.362,37.237],[-122.348,37.091],[-122.246,36.844],[-122.144,36.698],[-121.853,36.64],[-121.549,36.917],[-121.373,37.557],[-121.387,37.833],[-121.358,38.619],[-121.373,39.289],[-121.46,40.307],[-121.46,40.686],[-121.373,41.37],[-121.125,42.126],[-121.038,42.65],[-120.965,43.276],[-120.791,43.8],[-120.179,45.139],[-119.917,45.357],[-119.641,45.75],[-119.379,46.055],[-118.913,46.55],[-118.71,46.87],[-118.491,47.38],[-118.448,47.743],[-118.448,48.311],[-118.462,48.5],[-118.564,48.762],[-118.695,48.98],[-118.812,49.082],[-119.001,49.184],[-119.073,49.184],[-119.423,49.097]]]}},{"type":"Feature","properties":{"density":1},"geometry":{"type":"Polygon","coordinates":[[[-108.694,29.762],[-108.533,30.322],[-108.384,30.584],[-108.169,30.876],[-107.955,31.055],[-107.907,31.055],[-107.877,31.025],[-107.883,30.966],[-107.907,30.858],[-107.967,30.721],[-108.324,30.256],[-108.628,29.78],[-108.694,29.762]]]}},{"type":"Feature","properties":{"density":1},"geometry":{"type":"Polygon","coordinates":[[[-108.134,29.714],[-108.044,29.935],[-108.014,30.239],[-107.955,30.543],[-107.847,30.668],[-107.675,30.817],[-107.591,30.918],[-107.502,31.103],[-107.43,31.174],[-107.323,31.228],[-107.257,31.204],[-107.204,31.067],[-107.204,30.978],[-107.263,30.841],[-107.377,30.715],[-107.681,30.477],[-107.77,30.31],[-107.835,30.137],[-107.865,30.006],[-107.949,29.869],[-108.098,29.702],[-108.134,29.714]]]}},{"type":"Feature","properties":{"density":1},"geometry":{"type":"Polygon","coordinates":[[[-107.722,26.555],[-107.847,27.044],[-107.776,27.366],[-107.716,27.401],[-107.573,27.336],[-107.496,27.378],[-107.031,27.819],[-106.631,28.141],[-106.047,28.415],[-105.553,28.552],[-105.451,28.594],[-105.344,28.611],[-105.284,28.594],[-105.278,28.54],[-105.32,28.474],[-105.475,28.403],[-105.827,28.284],[-106.107,28.123],[-106.494,27.938],[-107.251,27.324],[-107.657,26.573],[-107.722,26.555]]]}},{"type":"Feature","properties":{"density":1},"geometry":{"type":"Polygon","coordinates":[[[-106.345,24.332],[-106.745,25.017],[-106.804,25.28],[-106.906,25.417],[-106.947,25.375],[-106.947,25.291],[-106.834,25.005],[-106.62,24.594],[-106.572,24.451],[-106.572,24.403],[-106.62,24.296],[-106.602,24.242],[-106.417,24.207],[-106.411,24.177],[-106.381,24.147],[-106.339,24.153],[-106.322,24.165],[-106.316,24.201],[-106.345,24.254],[-106.328,24.266],[-106.328,24.296],[-106.345,24.332]]]}},{"type":"Feature","properties":{"density":1},"geometry":{"type":"Polygon","coordinates":[[[-109.042,28.532],[-108.929,29.056],[-108.929,29.247],[-108.917,29.277],[-108.878,29.303],[-108.809,29.289],[-108.839,29.038],[-109.012,28.52],[-109.042,28.532]]]}},{"type":"Feature","properties":{"density":1},"geometry":{"type":"Polygon","coordinates":[[[-96.173,38.931],[-96.279,39.047],[-96.353,39.089],[-96.543,39.063],[-96.733,39.004],[-96.807,38.962],[-96.87,38.878],[-96.854,38.83],[-96.807,38.793],[-96.749,38.762],[-96.659,38.762],[-96.596,38.772],[-96.479,38.83],[-96.363,38.846],[-96.263,38.899],[-96.173,38.931]]]}},{"type":"Feature","properties":{"density":1},"geometry":{"type":"Polygon","coordinates":[[[-95.994,38.519],[-96.036,38.603],[-96.078,38.635],[-96.289,38.63],[-96.49,38.582],[-96.997,38.566],[-97.219,38.476],[-97.24,38.413],[-97.24,38.344],[-97.219,38.255],[-97.145,38.117],[-97.06,38.064],[-96.971,38.038],[-96.611,38.033],[-96.479,38.117],[-96.374,38.144],[-96.3,38.138],[-96.252,38.181],[-96.221,38.223],[-96.242,38.328],[-96.136,38.471],[-96.099,38.497],[-95.994,38.519]]]}},{"type":"Feature","properties":{"density":1},"geometry":{"type":"Polygon","coordinates":[[[-96.062,37.626],[-96.231,37.567],[-96.417,37.453],[-96.498,37.331],[-96.481,37.259],[-96.447,37.233],[-96.388,37.225],[-96.329,37.259],[-96.155,37.394],[-96.045,37.538],[-96.062,37.626]]]}},{"type":"Feature","properties":{"density":1},"geometry":{"type":"Polygon","coordinates":[[[-96.764,37.309],[-97.161,37.521],[-97.347,37.597],[-97.448,37.609],[-97.583,37.538],[-97.592,37.487],[-97.562,37.432],[-97.474,37.36],[-97.406,37.326],[-97.106,37.28],[-96.764,37.309]]]}},{"type":"Feature","properties":{"density":1},"geometry":{"type":"Polygon","coordinates":[[[-98.504,37.803],[-98.562,37.868],[-98.596,38.074],[-98.582,38.151],[-98.538,38.249],[-98.477,38.3],[-98.43,38.31],[-98.362,38.293],[-98.312,38.249],[-98.305,38.141],[-98.386,37.986],[-98.504,37.803]]]}},{"type":"Feature","properties":{"density":1},"geometry":{"type":"Polygon","coordinates":[[[-105.562,56.252],[-101.479,58.023],[-98.922,58.859],[-96.954,58.81],[-95.97,58.515],[-94.79,57.826],[-94.249,57.236],[-93.659,56.646],[-93.216,55.859],[-92.921,55.17],[-92.822,53.891],[-94.2,51.137],[-94.593,49.907],[-94.741,47.792],[-94.2,47.3],[-93.314,47.104],[-92.38,47.104],[-91.396,46.907],[-90.953,46.415],[-90.117,43.808],[-90.363,43.07],[-90.658,42.628],[-91.544,42.185],[-92.478,41.546],[-93.118,41.054],[-94.101,40.857],[-94.839,40.857],[-95.97,41.742],[-96.757,42.529],[-97.151,43.267],[-97.544,44.497],[-98.184,45.677],[-98.528,46.563],[-99.266,47.251],[-101.381,48.678],[-101.774,49.415],[-101.922,50.006],[-102.266,50.94],[-103.791,51.875],[-106.398,52.219],[-107.48,52.957],[-108.07,53.399],[-108.218,53.744],[-108.169,54.334],[-107.824,54.826],[-107.037,55.367],[-105.562,56.252]]]}},{"type":"Feature","properties":{"density":1},"geometry":{"type":"Polygon","coordinates":[[[-121.389,38.468],[-121.492,38.334],[-121.471,38.086],[-121.389,37.942],[-121.224,37.797],[-120.914,37.735],[-120.79,37.838],[-120.832,38.014],[-120.894,38.096],[-120.986,38.168],[-121.069,38.189],[-121.224,38.303],[-121.389,38.468]]]}},{"type":"Feature","properties":{"density":1},"geometry":{"type":"Polygon","coordinates":[[[-108.762,29.778],[-108.73,29.94],[-108.52,30.278],[-107.908,30.939],[-106.973,31.68],[-106.554,31.954],[-106.28,31.938],[-106.006,31.793],[-105.893,31.68],[-105.78,31.519],[-105.78,31.358],[-106.086,30.955],[-106.215,30.745],[-106.328,30.6],[-106.393,30.455],[-107.747,29.408],[-108.295,28.489],[-108.423,28.328],[-108.601,28.199],[-108.955,28.328],[-109.084,28.537],[-109.1,28.715],[-108.891,29.005],[-108.569,29.375],[-108.488,29.585],[-108.504,29.633],[-108.762,29.778]]]}},{"type":"Feature","properties":{"density":1},"geometry":{"type":"Polygon","coordinates":[[[-107.473,28.07],[-107.166,28.392],[-106.876,28.666],[-106.377,29.037],[-106.199,29.166],[-106.038,29.134],[-105.861,28.844],[-105.958,28.747],[-106.07,28.666],[-106.473,28.521],[-107.473,28.07]]]}},{"type":"Feature","properties":{"density":2},"geometry":{"type":"Polygon","coordinates":[[[-96.015,38.53],[-96.053,38.595],[-96.102,38.595],[-96.318,38.532],[-96.34,38.511],[-96.345,38.465],[-96.315,38.435],[-96.231,38.432],[-96.091,38.562],[-96.066,38.57],[-96.037,38.554],[-96.015,38.53]]]}},{"type":"Feature","properties":{"density":2},"geometry":{"type":"Polygon","coordinates":[[[-96.534,38.167],[-96.594,38.227],[-96.667,38.265],[-96.81,38.238],[-96.907,38.313],[-96.943,38.319],[-96.986,38.313],[-97.032,38.27],[-97.01,38.211],[-96.98,38.189],[-96.815,38.124],[-96.74,38.113],[-96.675,38.14],[-96.588,38.135],[-96.534,38.159],[-96.534,38.167]]]}},{"type":"Feature","properties":{"density":2},"geometry":{"type":"Polygon","coordinates":[[[-96.272,38.224],[-96.388,38.259],[-96.453,38.238],[-96.477,38.189],[-96.41,38.151],[-96.318,38.213],[-96.272,38.224]]]}},{"type":"Feature","properties":{"density":2},"geometry":{"type":"Polygon","coordinates":[[[-96.08,37.591],[-96.185,37.567],[-96.234,37.535],[-96.283,37.494],[-96.307,37.405],[-96.258,37.394],[-96.226,37.41],[-96.145,37.48],[-96.091,37.556],[-96.08,37.591]]]}},{"type":"Feature","properties":{"density":2},"geometry":{"type":"Polygon","coordinates":[[[-96.904,37.316],[-96.997,37.379],[-97.112,37.404],[-97.23,37.472],[-97.297,37.472],[-97.344,37.4],[-97.34,37.366],[-97.255,37.332],[-97.01,37.328],[-96.904,37.316]]]}},{"type":"Feature","properties":{"density":2},"geometry":{"type":"Polygon","coordinates":[[[-98.497,37.831],[-98.531,37.848],[-98.548,37.932],[-98.502,38.008],[-98.459,38.03],[-98.434,38.017],[-98.421,37.983],[-98.426,37.949],[-98.464,37.899],[-98.497,37.831]]]}},{"type":"Feature","properties":{"density":2},"geometry":{"type":"Polygon","coordinates":[[[-96.197,38.943],[-96.379,39.044],[-96.434,39.044],[-96.501,39.019],[-96.543,38.977],[-96.527,38.892],[-96.493,38.879],[-96.349,38.871],[-96.243,38.93],[-96.197,38.943]]]}},{"type":"Feature","properties":{"density":2},"geometry":{"type":"Polygon","coordinates":[[[-96.303,40.627],[-96.429,40.728],[-96.493,40.721],[-96.513,40.701],[-96.516,40.65],[-96.466,40.606],[-96.344,40.623],[-96.303,40.627]]]}},{"type":"Feature","properties":{"density":2},"geometry":{"type":"Polygon","coordinates":[[[-96.489,38.334],[-96.597,38.382],[-96.606,38.416],[-96.556,38.438],[-96.513,38.408],[-96.5,38.364],[-96.489,38.334]]]}},{"type":"Feature","properties":{"density":2},"geometry":{"type":"Polygon","coordinates":[[[-94.669,42.929],[-95.15,42.891],[-95.235,42.921],[-95.252,42.955],[-95.252,42.997],[-95.146,43.09],[-95.057,43.09],[-94.833,43.018],[-94.669,42.929]]]}},{"type":"Feature","properties":{"density":2},"geometry":{"type":"Polygon","coordinates":[[[-94.686,43.377],[-95.184,43.31],[-95.281,43.373],[-95.285,43.453],[-95.209,43.504],[-95.15,43.504],[-94.964,43.428],[-94.686,43.377]]]}},{"type":"Feature","properties":{"density":2},"geometry":{"type":"Polygon","coordinates":[[[-94.212,44.09],[-94.265,44.07],[-94.298,44.037],[-94.344,44.031],[-94.37,44.07],[-94.364,44.116],[-94.331,44.136],[-94.271,44.123],[-94.212,44.09]]]}},{"type":"Feature","properties":{"density":2},"geometry":{"type":"Polygon","coordinates":[[[-97.095,43.957],[-97.374,44.224],[-97.471,44.418],[-97.484,44.473],[-97.459,44.541],[-97.412,44.587],[-97.37,44.604],[-97.306,44.583],[-97.264,44.553],[-97.239,44.498],[-97.218,44.38],[-97.095,43.957]]]}},{"type":"Feature","properties":{"density":2},"geometry":{"type":"Polygon","coordinates":[[[-96.022,45.663],[-96.06,45.773],[-96.081,45.925],[-96.14,46.162],[-96.127,46.268],[-96.081,46.34],[-96.039,46.378],[-95.98,46.386],[-95.929,46.373],[-95.899,46.344],[-95.899,46.23],[-95.975,45.955],[-96.022,45.663]]]}},{"type":"Feature","properties":{"density":2},"geometry":{"type":"Polygon","coordinates":[[[-96.411,45.82],[-96.546,46.361],[-96.58,46.437],[-96.554,46.521],[-96.482,46.61],[-96.419,46.618],[-96.377,46.606],[-96.351,46.576],[-96.377,46.39],[-96.411,45.82]]]}},{"type":"Feature","properties":{"density":2},"geometry":{"type":"Polygon","coordinates":[[[-91.886,46.283],[-91.983,46.337],[-92.088,46.348],[-92.145,46.321],[-92.164,46.281],[-92.161,46.24],[-92.105,46.162],[-92.105,46.105],[-92.126,45.986],[-92.153,45.926],[-92.148,45.889],[-92.099,45.878],[-92.053,45.924],[-91.994,46.037],[-91.991,46.105],[-92.037,46.224],[-92.034,46.267],[-91.991,46.294],[-91.891,46.27],[-91.886,46.283]]]}},{"type":"Feature","properties":{"density":2},"geometry":{"type":"Polygon","coordinates":[[[-99.828,48.877],[-99.841,49.031],[-99.75,49.47],[-99.686,49.637],[-99.647,49.882],[-99.441,50.243],[-99.338,50.488],[-99.209,50.682],[-99.209,50.862],[-99.325,51.404],[-99.389,51.584],[-99.389,51.765],[-99.441,51.816],[-99.557,51.791],[-99.673,51.636],[-99.879,51.301],[-100.008,51.133],[-100.163,51.041],[-100.35,50.997],[-100.15,51.378],[-99.905,51.907],[-99.699,52.229],[-98.603,53.132],[-98.255,53.196],[-98.074,53.119],[-98.01,53.067],[-97.92,52.951],[-97.92,52.809],[-97.997,52.655],[-98.177,52.474],[-98.242,52.229],[-98.048,51.984],[-98.048,51.842],[-98.139,51.675],[-98.538,51.249],[-98.706,51.017],[-98.796,50.798],[-98.912,50.192],[-99.286,49.56],[-99.557,49.199],[-99.828,48.877]]]}},{"type":"Feature","properties":{"density":2},"geometry":{"type":"Polygon","coordinates":[[[-97.563,51.251],[-97.378,51.705],[-97.182,52.097],[-96.965,52.468],[-96.718,52.654],[-96.511,52.757],[-96.295,52.685],[-96.181,52.561],[-96.181,52.447],[-96.264,52.355],[-96.346,52.293],[-96.614,52.179],[-96.821,52.055],[-97.254,51.684],[-97.563,51.251]]]}},{"type":"Feature","properties":{"density":2},"geometry":{"type":"Polygon","coordinates":[[[-101.445,54.005],[-101.249,54.181],[-101.095,54.366],[-100.981,54.542],[-100.765,54.707],[-100.589,54.717],[-100.424,54.542],[-100.404,54.449],[-100.496,54.284],[-100.692,54.181],[-100.878,54.16],[-101.445,54.005]]]}},{"type":"Feature","properties":{"density":2},"geometry":{"type":"Polygon","coordinates":[[[-101.92,53.892],[-101.672,54.139],[-101.219,54.459],[-101.105,54.521],[-101.033,54.511],[-100.981,54.449],[-100.981,54.377],[-101.466,54.139],[-101.92,53.892]]]}},{"type":"Feature","properties":{"density":2},"geometry":{"type":"Polygon","coordinates":[[[-100.999,51.337],[-100.789,51.756],[-100.548,51.966],[-100.403,52.046],[-100.306,52.078],[-100.258,52.078],[-100.209,52.014],[-100.274,51.917],[-100.338,51.901],[-100.451,51.837],[-100.693,51.659],[-100.999,51.337]]]}},{"type":"Feature","properties":{"density":2},"geometry":{"type":"Polygon","coordinates":[[[-121.402,38.337],[-121.39,38.079],[-121.339,38.007],[-121.246,37.897],[-121.145,37.868],[-121.077,37.889],[-121.064,37.961],[-121.115,38.028],[-121.212,38.096],[-121.314,38.202],[-121.402,38.337]]]}},{"type":"Feature","properties":{"density":2},"geometry":{"type":"Polygon","coordinates":[[[-108.715,29.785],[-108.519,30.023],[-108.312,30.332],[-108.023,30.6],[-107.539,30.951],[-107.126,31.209],[-106.951,31.302],[-106.796,31.281],[-106.652,31.199],[-106.569,31.075],[-106.621,30.899],[-106.796,30.683],[-107.085,30.476],[-107.456,30.157],[-107.662,29.95],[-107.992,29.744],[-108.106,29.703],[-108.199,29.713],[-108.158,29.847],[-107.91,30.105],[-107.714,30.27],[-107.446,30.538],[-107.301,30.703],[-107.291,30.745],[-107.332,30.776],[-107.487,30.703],[-107.9,30.384],[-108.24,30.157],[-108.715,29.785]]]}},{"type":"Feature","properties":{"density":2},"geometry":{"type":"Polygon","coordinates":[[[-107.819,29.412],[-107.539,29.742],[-107.258,29.998],[-107.027,30.179],[-106.928,30.212],[-106.862,30.179],[-106.846,30.122],[-106.953,29.998],[-107.506,29.66],[-107.819,29.412]]]}},{"type":"Feature","properties":{"density":2},"geometry":{"type":"Polygon","coordinates":[[[-108.669,28.29],[-108.694,28.455],[-108.587,28.628],[-108.471,28.777],[-108.232,29.024],[-108.133,29.074],[-108.1,29.057],[-108.092,29.024],[-108.117,28.966],[-108.249,28.851],[-108.669,28.29]]]}},{"type":"Feature","properties":{"density":2},"geometry":{"type":"Polygon","coordinates":[[[-109.041,28.529],[-108.81,28.884],[-108.579,29.156],[-108.48,29.23],[-108.405,29.23],[-108.405,29.164],[-108.603,28.983],[-109.041,28.529]]]}},{"type":"Feature","properties":{"density":2},"geometry":{"type":"Polygon","coordinates":[[[-107.423,28.05],[-107.258,28.24],[-106.829,28.595],[-106.483,28.801],[-106.408,28.76],[-106.384,28.719],[-106.441,28.628],[-106.722,28.496],[-107.423,28.05]]]}},{"type":"Feature","properties":{"density":2},"geometry":{"type":"Polygon","coordinates":[[[-107.238,26.314],[-107.161,26.443],[-107.096,26.508],[-106.954,26.624],[-106.851,26.65],[-106.8,26.546],[-106.838,26.482],[-106.967,26.443],[-107.238,26.314]]]}},{"type":"Feature","properties":{"density":2},"geometry":{"type":"Polygon","coordinates":[[[-106.521,25.07],[-106.42,25.087],[-106.2,25.214],[-106.175,25.214],[-106.132,25.18],[-106.141,25.121],[-106.302,25.028],[-106.42,24.998],[-106.479,24.994],[-106.504,25.011],[-106.521,25.07]]]}},{"type":"Feature","properties":{"density":2},"geometry":{"type":"Polygon","coordinates":[[[-106.394,24.361],[-106.403,24.437],[-106.361,24.53],[-106.31,24.593],[-106.263,24.627],[-106.166,24.597],[-106.149,24.572],[-106.158,24.513],[-106.318,24.39],[-106.394,24.361]]]}}]}