{"type":"FeatureCollection","features":[{"type":"Feature","properties":{"density":1},"geometry":{"type":"Polygon","coordinates":[[[-98.841,15.847],[-101.477,14.955],[-103.199,14.031],[-104.669,13.443],[-110.087,12.561],[-112.229,12.519],[-114.791,12.855],[-117.479,13.485],[-117.773,14.157],[-117.773,15.585],[-116.975,16.509],[-116.303,16.677],[-113.867,17.391],[-111.557,17.979],[-109.835,18.819],[-108.659,19.575],[-107.105,20.709],[-107.105,21.549],[-107.567,22.809],[-108.743,24.531],[-109.793,25.623],[-110.801,26.967],[-111.851,28.017],[-112.649,29.235],[-112.691,30.075],[-112.355,31.251],[-112.145,31.503],[-110.297,32.259],[-109.373,32.469],[-108.533,32.888],[-107.735,33.35],[-106.979,34.148],[-106.979,34.526],[-107.483,35.324],[-108.323,35.912],[-108.953,36.668],[-109.289,38.558],[-109.121,40.784],[-108.407,42.338],[-107.483,43.724],[-106.475,44.438],[-105.173,45.068],[-101.729,46.832],[-100.511,47.798],[-99.125,48.26],[-97.487,48.89],[-95.555,49.142],[-94.673,49.31],[-94.127,49.31],[-92.919,49.038],[-92.18,48.367],[-91.595,47.782],[-90.167,47.266],[-88.774,47.146],[-87.315,46.272],[-85.191,45.707],[-83.417,45.546],[-82.073,45.465],[-80.407,45.6],[-78.095,45.358],[-76.321,45.546],[-74.52,45.546],[-72.665,45.6],[-70.945,45.6],[-69.305,45.519],[-67.435,44.655],[-65.177,43.849],[-62.893,43.58],[-61.119,43.822],[-59.64,44.44],[-58.457,45.031],[-57.275,45.058],[-56.388,44.601],[-56.361,43.311],[-57.113,42.236],[-57.759,41.161],[-58.753,40.22],[-61.253,39.037],[-63.78,38.016],[-66.786,37.466],[-69.684,37.256],[-75.102,37.424],[-77.832,37.256],[-80.982,37.508],[-83.922,37.928],[-84.804,37.928],[-88.331,37.676],[-91.019,37.424],[-92.666,37.245],[-94.387,36.944],[-96.236,36.105],[-97.591,34.299],[-97.87,32.707],[-97.462,30.621],[-98.128,29.869],[-98.946,29.288],[-99.978,29.009],[-100.816,29.073],[-101.634,29.374],[-103.16,30.707],[-103.578,31.14],[-104.343,31.331],[-105.225,31.03],[-105.762,30.793],[-106.579,30.148],[-107.036,29.144],[-106.601,27.912],[-105.16,26.321],[-104.039,24.657],[-102.752,23.983],[-101.668,23.829],[-100.782,24.027],[-99.984,23.848],[-98.484,23.284],[-96.612,23.064],[-96.09,22.789],[-95.567,21.399],[-94.947,20.779],[-93.917,20.415],[-92.615,20.247],[-91.574,20.483],[-90.848,20.956],[-90.627,21.529],[-90.22,21.716],[-89.846,21.33],[-89.879,20.67],[-90.242,19.866],[-91.134,19.106],[-92.422,18.413],[-93.842,17.884],[-94.646,17.29],[-96.311,16.257],[-97.751,16.035],[-98.841,15.847]]]}},{"type":"Feature","properties":{"density":1},"geometry":{"type":"Polygon","coordinates":[[[-122.24,57.735],[-121.186,57.8],[-119.813,58.293],[-118.783,58.804],[-117.691,59.412],[-116.361,59.887],[-115.154,60.469],[-114.185,60.98],[-113.278,61.393],[-112.025,61.606],[-111.251,61.692],[-110.176,61.907],[-109.949,62.116],[-110.028,62.371],[-110.512,62.618],[-111.675,62.75],[-112.873,62.715],[-114.348,62.552],[-115.595,62.337],[-116.649,62.079],[-119.358,61.219],[-121.078,60.767],[-122.175,60.531],[-123.358,60.079],[-123.809,59.498],[-123.874,58.961],[-123.702,58.466],[-123.401,58.101],[-123.108,57.906],[-122.738,57.765],[-122.24,57.735]]]}},{"type":"Feature","properties":{"density":1},"geometry":{"type":"Polygon","coordinates":[[[-122.359,59.329],[-122.273,59.277],[-122.061,59.253],[-121.98,59.292],[-121.978,59.318],[-122.039,59.365],[-122.269,59.408],[-122.34,59.376],[-122.358,59.348],[-122.359,59.329]]]}},{"type":"Feature","properties":{"density":1},"geometry":{"type":"Polygon","coordinates":[[[-108.54,29.733],[-108.613,29.736],[-108.835,29.839],[-108.849,29.891],[-108.846,30.083],[-108.773,30.118],[-108.714,30.098],[-108.532,29.782],[-108.53,29.755],[-108.54,29.733]]]}},{"type":"Feature","properties":{"density":1},"geometry":{"type":"Polygon","coordinates":[[[-108.107,29.629],[-108.156,29.652],[-108.184,29.725],[-108.267,29.757],[-108.4,29.897],[-108.508,29.975],[-108.538,30.026],[-108.545,30.113],[-108.43,30.136],[-108.266,29.935],[-108.177,29.944],[-108.122,29.997],[-108.055,29.978],[-108.04,29.943],[-108.04,29.829],[-108.006,29.693],[-108.021,29.644],[-108.063,29.626],[-108.107,29.629]]]}},{"type":"Feature","properties":{"density":1},"geometry":{"type":"Polygon","coordinates":[[[-108.608,28.254],[-108.786,28.421],[-109.102,28.815],[-109.204,28.872],[-109.285,28.855],[-109.355,28.777],[-109.327,28.632],[-109.223,28.505],[-108.867,28.271],[-108.627,28.198],[-108.599,28.224],[-108.608,28.254]]]}},{"type":"Feature","properties":{"density":1},"geometry":{"type":"Polygon","coordinates":[[[-108.117,28.539],[-108.162,28.52],[-108.164,28.475],[-108.067,28.33],[-108.057,28.421],[-108.069,28.482],[-108.101,28.53],[-108.117,28.539]]]}},{"type":"Feature","properties":{"density":1},"geometry":{"type":"Polygon","coordinates":[[[-104.242,21.38],[-104.28,21.355],[-104.348,21.346],[-104.527,21.367],[-104.818,21.357],[-104.913,21.387],[-104.963,21.428],[-105.081,21.662],[-105.149,21.694],[-105.16,21.752],[-105.115,21.809],[-104.901,21.648],[-104.846,21.632],[-104.748,21.644],[-104.68,21.628],[-104.549,21.564],[-104.48,21.559],[-104.369,21.515],[-104.276,21.458],[-104.237,21.392],[-104.242,21.38]]]}},{"type":"Feature","properties":{"density":1},"geometry":{"type":"Polygon","coordinates":[[[-104.418,21.064],[-104.589,21.21],[-104.633,21.226],[-104.711,21.238],[-104.79,21.19],[-104.913,21.234],[-104.929,21.167],[-104.902,21.105],[-104.854,21.048],[-104.679,21.025],[-104.438,21.031],[-104.417,21.057],[-104.418,21.064]]]}},{"type":"Feature","properties":{"density":1},"geometry":{"type":"Polygon","coordinates":[[[-123.365,59.705],[-123.07,60.205],[-121.751,61.32],[-119.932,62.138],[-116.317,63.025],[-112.997,63.593],[-110.41,63.495],[-107.537,63.204],[-105.221,62.729],[-103.015,61.979],[-102.538,61.501],[-102.22,60.842],[-102.151,60.365],[-102.606,59.91],[-103.22,59.796],[-105.676,59.773],[-108.04,60.046],[-110.473,60.114],[-112.861,60.092],[-114.594,59.748],[-115.94,59.439],[-119.455,58.409],[-120.432,58.045],[-121.183,57.932],[-122.274,58.045],[-123.002,58.364],[-123.411,59.023],[-123.411,59.614],[-123.365,59.705]]]}},{"type":"Feature","properties":{"density":1},"geometry":{"type":"Polygon","coordinates":[[[-104.941,56.276],[-104.388,56.786],[-103.078,57.213],[-99.916,57.816],[-97.096,57.89],[-92.491,57.426],[-88.334,56.644],[-84.746,55.543],[-81.726,54.157],[-77.52,51.46],[-76.348,50.288],[-76.455,49.328],[-77.165,48.76],[-79.226,49.08],[-81.513,49.645],[-83.216,50.171],[-85.03,50.569],[-88.938,51.244],[-90.537,51.386],[-95.12,51.066],[-97.571,50.818],[-99.348,50.427],[-100.627,50.427],[-101.728,50.676],[-103.22,51.208],[-104.144,51.812],[-104.925,52.523],[-105.423,53.695],[-105.494,54.797],[-105.421,55.316],[-105.247,55.796],[-104.941,56.276]]]}},{"type":"Feature","properties":{"density":1},"geometry":{"type":"Polygon","coordinates":[[[-108.155,30.494],[-108.572,30.509],[-109.598,30.214],[-110.308,29.966],[-111.268,29.397],[-111.801,28.935],[-112.191,28.083],[-112.014,27.017],[-110.948,25.489],[-110.08,24.374],[-108.784,22.624],[-107.897,21.259],[-107.056,19.895],[-106.51,18.554],[-106.67,17.621],[-107.193,16.871],[-108.102,16.576],[-109.125,16.189],[-110.08,15.802],[-110.808,15.348],[-111.422,14.847],[-112.013,14.188],[-112.354,13.21],[-112.468,12.301],[-112.286,11.573],[-111.786,10.937],[-110.853,10.573],[-109.101,10.355],[-106.891,10.386],[-104.077,10.528],[-100.808,10.671],[-98.444,11.007],[-95.567,11.434],[-93.968,11.895],[-92.582,12.499],[-91.268,13.139],[-90.522,13.565],[-89.811,14.098],[-89.243,14.951],[-88.781,16.62],[-88.71,17.793],[-88.53,18.881],[-88.303,21.13],[-88.132,21.698],[-87.99,24.0],[-88.161,24.626],[-88.331,24.853],[-88.672,25.166],[-89.411,25.194],[-90.065,24.91],[-90.975,24.313],[-91.657,23.602],[-92.339,22.693],[-93.305,21.755],[-94.144,21.084],[-94.996,20.089],[-95.813,19.805],[-96.702,19.698],[-97.448,19.627],[-98.656,19.876],[-100.006,20.409],[-100.787,20.835],[-101.96,21.652],[-102.812,22.292],[-103.736,22.896],[-105.015,24.104],[-105.548,24.885],[-106.01,25.88],[-106.329,26.661],[-106.756,27.763],[-106.977,28.84],[-107.238,29.734],[-107.469,30.166],[-107.76,30.397],[-108.155,30.494]]]}},{"type":"Feature","properties":{"density":1},"geometry":{"type":"Polygon","coordinates":[[[-115.607,31.201],[-115.578,31.559],[-115.533,31.745],[-115.399,31.894],[-115.287,31.901],[-115.145,31.834],[-115.108,31.738],[-115.108,31.618],[-115.205,31.402],[-115.481,31.119],[-115.533,31.089],[-115.615,31.127],[-115.607,31.201]]]}},{"type":"Feature","properties":{"density":2},"geometry":{"type":"Polygon","coordinates":[[[-122.669,59.131],[-122.395,59.045],[-122.039,58.804],[-121.851,58.804],[-121.875,58.934],[-122.073,59.04],[-122.482,59.15],[-122.679,59.155],[-122.669,59.131]]]}},{"type":"Feature","properties":{"density":2},"geometry":{"type":"Polygon","coordinates":[[[-122.318,59.29],[-122.227,59.271],[-121.972,59.107],[-121.895,59.078],[-121.722,59.059],[-121.678,59.121],[-121.871,59.271],[-122.178,59.391],[-122.26,59.352],[-122.323,59.348],[-122.332,59.299],[-122.318,59.29]]]}},{"type":"Feature","properties":{"density":2},"geometry":{"type":"Polygon","coordinates":[[[-121.746,59.646],[-121.553,59.631],[-121.265,59.458],[-121.164,59.482],[-121.183,59.559],[-121.52,59.689],[-121.616,59.713],[-121.712,59.703],[-121.765,59.665],[-121.746,59.646]]]}},{"type":"Feature","properties":{"density":2},"geometry":{"type":"Polygon","coordinates":[[[-118.991,59.34],[-118.249,59.808],[-116.837,60.465],[-115.278,60.989],[-114.412,61.533],[-113.874,61.942],[-114.004,61.976],[-115.282,61.635],[-115.93,61.382],[-116.802,60.954],[-117.187,60.822],[-117.582,60.644],[-118.174,60.437],[-118.493,60.268],[-118.841,60.118],[-119.075,59.968],[-119.282,59.686],[-119.442,59.432],[-119.405,59.325],[-119.304,59.268],[-118.991,59.34]]]}},{"type":"Feature","properties":{"density":2},"geometry":{"type":"Polygon","coordinates":[[[-99.797,39.816],[-98.443,40.347],[-97.326,40.961],[-95.972,41.896],[-94.52,43.125],[-93.278,43.795],[-92.328,44.13],[-91.072,44.479],[-90.625,44.73],[-90.276,45.065],[-90.137,45.582],[-90.165,45.987],[-90.514,46.433],[-91.268,46.573],[-92.119,46.308],[-92.915,45.945],[-94.311,45.344],[-95.511,44.674],[-96.126,44.311],[-96.838,44.046],[-97.452,43.753],[-98.289,43.292],[-99.336,42.608],[-99.616,42.385],[-100.369,41.533],[-100.635,41.157],[-100.746,40.794],[-100.732,40.389],[-100.341,39.844],[-100.006,39.774],[-99.923,39.788],[-99.797,39.816]]]}},{"type":"Feature","properties":{"density":2},"geometry":{"type":"Polygon","coordinates":[[[-83.185,40.862],[-79.564,40.595],[-74.824,40.063],[-73.28,40.063],[-70.671,39.903],[-67.689,39.903],[-64.387,40.063],[-62.523,40.116],[-60.588,40.648],[-59.927,41.061],[-59.927,41.377],[-60.285,41.611],[-60.987,41.762],[-61.947,41.8],[-62.982,41.789],[-64.171,41.613],[-64.634,41.503],[-65.548,41.326],[-67.397,41.084],[-68.649,41.033],[-71.736,41.288],[-73.653,41.394],[-83.664,41.394],[-85.528,40.915],[-85.156,40.649],[-84.516,40.649],[-84.09,40.755],[-83.185,40.862]]]}},{"type":"Feature","properties":{"density":2},"geometry":{"type":"Polygon","coordinates":[[[-108.02,29.675],[-108.008,29.704],[-108.022,29.798],[-107.979,29.9],[-107.996,29.962],[-108.022,29.968],[-108.099,29.857],[-108.154,29.83],[-108.192,29.842],[-108.219,29.892],[-108.248,29.912],[-108.391,29.965],[-108.383,29.912],[-108.248,29.798],[-108.207,29.737],[-108.137,29.751],[-108.087,29.728],[-108.063,29.684],[-108.04,29.675],[-108.02,29.675]]]}},{"type":"Feature","properties":{"density":2},"geometry":{"type":"Polygon","coordinates":[[[-108.5,29.763],[-108.497,29.836],[-108.576,29.912],[-108.637,29.959],[-108.696,29.936],[-108.728,29.874],[-108.716,29.842],[-108.629,29.754],[-108.608,29.76],[-108.593,29.801],[-108.582,29.76],[-108.549,29.745],[-108.5,29.763]]]}},{"type":"Feature","properties":{"density":2},"geometry":{"type":"Polygon","coordinates":[[[-108.588,28.267],[-109.041,28.604],[-109.112,28.68],[-109.153,28.706],[-109.226,28.718],[-109.226,28.642],[-109.173,28.516],[-109.085,28.46],[-108.945,28.41],[-108.801,28.293],[-108.722,28.252],[-108.631,28.232],[-108.588,28.267]]]}},{"type":"Feature","properties":{"density":2},"geometry":{"type":"Polygon","coordinates":[[[-107.246,26.362],[-107.222,26.354],[-107.19,26.282],[-107.219,26.288],[-107.258,26.336],[-107.258,26.36],[-107.246,26.362]]]}},{"type":"Feature","properties":{"density":2},"geometry":{"type":"Polygon","coordinates":[[[-107.626,26.293],[-107.677,26.284],[-107.67,26.309],[-107.631,26.311],[-107.626,26.293]]]}},{"type":"Feature","properties":{"density":2},"geometry":{"type":"Polygon","coordinates":[[[-107.371,27.181],[-107.491,27.181],[-107.465,27.16],[-107.388,27.153],[-107.369,27.172],[-107.371,27.181]]]}},{"type":"Feature","properties":{"density":2},"geometry":{"type":"Polygon","coordinates":[[[-107.278,27.265],[-107.36,27.228],[-107.414,27.247],[-107.407,27.27],[-107.313,27.289],[-107.278,27.265]]]}},{"type":"Feature","properties":{"density":2},"geometry":{"type":"Polygon","coordinates":[[[-106.458,26.668],[-106.46,26.635],[-106.491,26.586],[-106.573,26.57],[-106.568,26.591],[-106.51,26.624],[-106.484,26.678],[-106.458,26.668]]]}},{"type":"Feature","properties":{"density":2},"geometry":{"type":"Polygon","coordinates":[[[-105.858,23.59],[-105.877,23.625],[-105.987,23.665],[-106.06,23.66],[-106.097,23.676],[-106.09,23.622],[-106.058,23.594],[-105.983,23.566],[-105.856,23.585],[-105.858,23.59]]]}},{"type":"Feature","properties":{"density":2},"geometry":{"type":"Polygon","coordinates":[[[-105.83,24.1],[-105.851,24.081],[-105.898,24.084],[-105.863,24.102],[-105.83,24.1]]]}},{"type":"Feature","properties":{"density":2},"geometry":{"type":"Polygon","coordinates":[[[-105.44,23.02],[-105.487,23.027],[-105.517,23.007],[-105.519,22.963],[-105.443,22.972],[-105.403,22.934],[-105.388,22.945],[-105.387,22.982],[-105.426,23.016],[-105.44,23.02]]]}},{"type":"Feature","properties":{"density":2},"geometry":{"type":"Polygon","coordinates":[[[-105.107,22.26],[-105.122,22.243],[-105.11,22.218],[-105.072,22.228],[-105.071,22.246],[-105.093,22.257],[-105.107,22.26]]]}},{"type":"Feature","properties":{"density":2},"geometry":{"type":"Polygon","coordinates":[[[-105.159,22.156],[-105.119,22.129],[-105.066,22.131],[-105.073,22.169],[-105.155,22.16],[-105.159,22.156]]]}},{"type":"Feature","properties":{"density":2},"geometry":{"type":"Polygon","coordinates":[[[-104.321,21.492],[-104.343,21.511],[-104.439,21.519],[-104.759,21.616],[-104.834,21.66],[-104.907,21.665],[-104.958,21.618],[-104.942,21.521],[-104.962,21.48],[-104.961,21.357],[-105.073,21.262],[-105.079,21.23],[-105.037,21.194],[-104.884,21.149],[-104.786,21.059],[-104.4,20.988],[-104.275,21.023],[-104.255,21.041],[-104.258,21.069],[-104.581,21.201],[-104.605,21.266],[-104.572,21.32],[-104.488,21.348],[-104.293,21.372],[-104.257,21.421],[-104.286,21.475],[-104.321,21.492]]]}},{"type":"Feature","properties":{"density":2},"geometry":{"type":"Polygon","coordinates":[[[-105.146,20.075],[-105.118,20.087],[-105.053,20.08],[-105.032,20.096],[-105.077,20.147],[-105.17,20.196],[-105.214,20.186],[-105.223,20.157],[-105.168,20.073],[-105.146,20.075]]]}},{"type":"Feature","properties":{"density":2},"geometry":{"type":"Polygon","coordinates":[[[-104.894,19.846],[-104.888,19.904],[-104.913,19.922],[-104.936,19.903],[-104.906,19.853],[-104.894,19.846]]]}},{"type":"Feature","properties":{"density":2},"geometry":{"type":"Polygon","coordinates":[[[-103.075,19.895],[-103.061,19.791],[-103.004,19.78],[-102.971,19.798],[-103.017,19.912],[-103.047,19.918],[-103.075,19.895]]]}},{"type":"Feature","properties":{"density":2},"geometry":{"type":"Polygon","coordinates":[[[-102.574,19.842],[-102.616,19.824],[-102.662,19.828],[-102.692,19.854],[-102.724,19.831],[-102.72,19.775],[-102.627,19.609],[-102.459,19.473],[-102.394,19.466],[-102.329,19.484],[-102.297,19.528],[-102.32,19.604],[-102.447,19.699],[-102.479,19.748],[-102.47,19.817],[-102.498,19.847],[-102.539,19.854],[-102.574,19.842]]]}},{"type":"Feature","properties":{"density":2},"geometry":{"type":"Polygon","coordinates":[[[-122.646,59.135],[-122.523,59.06],[-122.343,58.994],[-122.245,58.941],[-122.205,58.931],[-122.187,58.943],[-122.211,59.014],[-122.256,59.035],[-122.659,59.152],[-122.646,59.135]]]}},{"type":"Feature","properties":{"density":2},"geometry":{"type":"Polygon","coordinates":[[[-121.743,59.643],[-121.863,59.733],[-121.823,59.734],[-121.693,59.693],[-121.61,59.635],[-121.694,59.625],[-121.72,59.636],[-121.743,59.643]]]}},{"type":"Feature","properties":{"density":2},"geometry":{"type":"Polygon","coordinates":[[[-108.538,29.755],[-108.55,29.829],[-108.593,29.867],[-108.702,29.91],[-108.704,29.867],[-108.659,29.795],[-108.599,29.75],[-108.545,29.746],[-108.538,29.755]]]}},{"type":"Feature","properties":{"density":2},"geometry":{"type":"Polygon","coordinates":[[[-108.195,29.739],[-108.263,29.792],[-108.278,29.849],[-108.255,29.839],[-108.202,29.763],[-108.195,29.739]]]}},{"type":"Feature","properties":{"density":2},"geometry":{"type":"Polygon","coordinates":[[[-108.058,29.724],[-108.11,29.815],[-108.152,29.808],[-108.096,29.71],[-108.054,29.705],[-108.058,29.724]]]}},{"type":"Feature","properties":{"density":2},"geometry":{"type":"Polygon","coordinates":[[[-108.114,28.522],[-108.135,28.517],[-108.113,28.464],[-108.105,28.513],[-108.114,28.522]]]}},{"type":"Feature","properties":{"density":2},"geometry":{"type":"Polygon","coordinates":[[[-108.647,28.256],[-108.792,28.377],[-108.803,28.339],[-108.696,28.252],[-108.657,28.239],[-108.647,28.256]]]}},{"type":"Feature","properties":{"density":2},"geometry":{"type":"Polygon","coordinates":[[[-109.041,28.539],[-109.074,28.636],[-109.124,28.645],[-109.169,28.625],[-109.179,28.569],[-109.068,28.536],[-109.041,28.539]]]}},{"type":"Feature","properties":{"density":2},"geometry":{"type":"Polygon","coordinates":[[[-104.3,21.425],[-104.415,21.445],[-104.508,21.436],[-104.48,21.409],[-104.287,21.41],[-104.3,21.425]]]}},{"type":"Feature","properties":{"density":2},"geometry":{"type":"Polygon","coordinates":[[[-103.102,19.944],[-103.174,19.792],[-103.153,19.744],[-103.073,19.738],[-103.016,19.784],[-102.94,19.799],[-102.848,19.752],[-102.797,19.693],[-102.804,19.62],[-102.77,19.55],[-102.633,19.384],[-102.635,19.332],[-102.825,19.113],[-102.825,19.05],[-102.902,18.86],[-102.913,18.789],[-102.875,18.747],[-102.789,18.808],[-102.698,18.843],[-102.654,18.898],[-102.562,18.898],[-102.473,18.841],[-102.408,18.578],[-102.336,18.517],[-102.259,18.532],[-102.214,18.566],[-102.124,18.574],[-102.006,18.612],[-101.964,18.675],[-101.983,19.001],[-101.92,19.184],[-101.92,19.315],[-101.987,19.376],[-102.107,19.365],[-102.366,19.451],[-102.501,19.601],[-102.509,19.82],[-102.566,19.849],[-102.642,19.82],[-102.848,19.794],[-102.926,19.83],[-102.982,19.925],[-103.031,19.963],[-103.085,19.965],[-103.102,19.944]]]}},{"type":"Feature","properties":{"density":2},"geometry":{"type":"Polygon","coordinates":[[[-108.574,29.853],[-108.318,29.796],[-108.013,29.827],[-107.887,29.811],[-107.731,29.834],[-107.647,29.868],[-107.559,29.868],[-107.529,29.827],[-107.529,29.785],[-107.575,29.67],[-107.704,29.651],[-107.975,29.559],[-108.086,29.563],[-108.379,29.59],[-108.505,29.643],[-108.627,29.731],[-108.647,29.769],[-108.639,29.846],[-108.612,29.861],[-108.574,29.853]]]}},{"type":"Feature","properties":{"density":2},"geometry":{"type":"Polygon","coordinates":[[[-109.055,28.594],[-108.914,28.633],[-108.757,28.625],[-108.574,28.571],[-108.315,28.419],[-108.257,28.308],[-108.254,28.24],[-108.276,28.125],[-108.315,28.06],[-108.452,27.995],[-108.509,28.007],[-108.551,28.201],[-108.589,28.224],[-108.688,28.224],[-108.734,28.259],[-108.704,28.316],[-108.738,28.381],[-108.769,28.4],[-108.826,28.419],[-108.887,28.407],[-108.994,28.43],[-109.081,28.472],[-109.093,28.549],[-109.081,28.587],[-109.066,28.583],[-109.055,28.594]]]}},{"type":"Feature","properties":{"density":2},"geometry":{"type":"Polygon","coordinates":[[[-108.116,28.53],[-107.8,28.545],[-107.605,28.613],[-107.555,28.61],[-107.548,28.56],[-107.571,28.507],[-107.647,28.43],[-107.792,28.4],[-107.868,28.4],[-108.09,28.449],[-108.162,28.499],[-108.162,28.518],[-108.12,28.533],[-108.116,28.53]]]}},{"type":"Feature","properties":{"density":3},"geometry":{"type":"Polygon","coordinates":[[[-104.274,21.426],[-104.297,21.45],[-104.464,21.47],[-104.596,21.505],[-104.781,21.58],[-104.805,21.568],[-104.812,21.538],[-104.791,21.504],[-104.71,21.48],[-104.541,21.378],[-104.301,21.398],[-104.274,21.426]]]}},{"type":"Feature","properties":{"density":3},"geometry":{"type":"Polygon","coordinates":[[[-104.463,21.092],[-104.56,21.109],[-104.61,21.136],[-104.622,21.21],[-104.652,21.223],[-104.705,21.22],[-104.737,21.159],[-104.736,21.127],[-104.695,21.085],[-104.441,21.032],[-104.424,21.055],[-104.463,21.092]]]}},{"type":"Feature","properties":{"density":3},"geometry":{"type":"Polygon","coordinates":[[[-105.149,20.087],[-105.133,20.131],[-105.187,20.153],[-105.191,20.131],[-105.167,20.092],[-105.149,20.087]]]}}]}