{"type":"FeatureCollection","features":[{"type":"Feature","properties":{"density":1},"geometry":{"type":"Polygon","coordinates":[[[-81.479,12.942],[-82.297,12.651],[-83.316,12.251],[-85.189,11.632],[-86.372,11.341],[-87.481,11.123],[-89.209,10.923],[-90.974,10.814],[-91.701,10.977],[-92.447,11.85],[-92.574,12.16],[-92.829,12.687],[-93.266,13.415],[-93.684,13.797],[-94.484,13.942],[-94.921,13.924],[-95.521,13.76],[-96.194,13.615],[-96.885,13.524],[-97.577,13.487],[-99.305,13.306],[-99.85,13.415],[-100.814,13.651],[-102.579,14.306],[-103.088,14.342],[-104.325,14.379],[-106.315,14.663],[-106.679,14.852],[-106.723,15.434],[-106.592,15.798],[-106.606,16.598],[-107.014,16.904],[-108.964,17.5],[-109.182,17.777],[-109.109,18.362],[-109.345,19.035],[-109.2,20.654],[-108.873,21.2],[-108.363,21.509],[-107.745,21.946],[-107.181,22.237],[-106.562,22.601],[-106.162,23.31],[-106.017,25.202],[-105.689,25.875],[-105.198,26.639],[-104.944,27.239],[-104.743,28.13],[-105.034,29.04],[-105.216,29.476],[-105.307,30.022],[-104.98,30.659],[-104.161,30.75],[-103.816,30.659],[-103.015,30.24],[-102.197,30.149],[-101.469,30.568],[-100.814,31.441],[-100.614,31.932],[-100.251,32.423],[-99.705,32.914],[-98.723,33.26],[-97.849,33.66],[-96.613,33.751],[-95.758,33.66],[-94.703,33.333],[-94.211,33.078],[-93.211,33.06],[-92.829,33.205],[-92.374,33.46],[-91.829,33.696],[-91.283,33.696],[-90.846,33.424],[-90.555,33.096],[-89.758,32.727],[-89.336,32.741],[-88.827,32.552],[-88.419,32.581],[-87.852,32.305],[-87.357,32.377],[-86.862,32.785],[-86.455,32.945],[-85.567,32.828],[-84.971,32.552],[-84.083,32.406],[-82.482,32.61],[-81.507,32.232],[-80.998,32.144],[-80.241,32.043],[-79.019,31.81],[-78.582,31.679],[-78.611,31.359],[-79.485,30.602],[-80.314,29.44],[-80.296,29.185],[-80.005,28.894],[-79.641,28.712],[-79.296,28.367],[-79.168,27.748],[-79.168,27.385],[-79.259,26.748],[-79.441,26.129],[-79.678,25.693],[-80.205,25.056],[-81.533,25.093],[-82.333,25.42],[-82.752,25.911],[-83.261,26.639],[-83.607,27.221],[-84.025,27.748],[-85.153,28.33],[-85.589,28.33],[-85.935,28.421],[-86.644,28.876],[-87.809,29.094],[-88.409,28.967],[-88.536,28.712],[-88.536,28.349],[-88.791,27.948],[-89.682,27.894],[-90.737,28.094],[-91.356,28.421],[-92.665,28.767],[-93.466,28.749],[-94.124,28.681],[-94.706,28.375],[-94.895,27.968],[-94.851,27.299],[-94.666,26.602],[-94.812,26.257],[-94.903,25.675],[-94.812,25.22],[-95.212,23.728],[-95.485,23.437],[-95.539,23.146],[-95.485,22.564],[-95.299,20.966],[-94.927,20.504],[-94.033,20.072],[-93.355,20.072],[-92.796,20.437],[-92.647,20.78],[-92.468,21.033],[-91.939,21.182],[-91.492,21.153],[-90.68,21.316],[-90.397,21.622],[-89.987,21.778],[-89.577,21.853],[-87.387,21.845],[-87.007,21.741],[-86.85,21.443],[-86.954,20.982],[-87.263,19.836],[-87.408,18.854],[-87.827,17.489],[-88.005,16.697],[-88.012,16.407],[-87.811,16.213],[-87.275,16.071],[-86.372,15.634],[-85.79,15.379],[-85.098,15.288],[-84.025,15.288],[-82.843,15.143],[-81.897,14.852],[-81.369,14.561],[-80.915,13.851],[-81.024,13.382],[-81.479,12.942]]]}},{"type":"Feature","properties":{"density":1},"geometry":{"type":"Polygon","coordinates":[[[-80.748,25.415],[-80.789,25.439],[-80.863,25.431],[-80.93,25.368],[-80.969,25.237],[-80.971,25.179],[-80.947,25.118],[-80.902,25.114],[-80.846,25.155],[-80.812,25.263],[-80.728,25.368],[-80.728,25.405],[-80.748,25.415]]]}},{"type":"Feature","properties":{"density":1},"geometry":{"type":"Polygon","coordinates":[[[-85.013,30.274],[-85.016,30.299],[-84.882,30.485],[-84.717,30.613],[-84.525,30.735],[-84.439,30.747],[-84.391,30.708],[-84.412,30.619],[-84.491,30.54],[-84.876,30.28],[-84.958,30.25],[-84.986,30.25],[-85.007,30.271],[-85.013,30.274]]]}},{"type":"Feature","properties":{"density":1},"geometry":{"type":"Polygon","coordinates":[[[-86.782,30.509],[-86.77,30.539],[-86.715,30.582],[-86.635,30.597],[-86.513,30.543],[-86.495,30.445],[-86.562,30.338],[-86.629,30.298],[-86.806,30.268],[-86.904,30.271],[-86.953,30.292],[-86.959,30.369],[-86.935,30.408],[-86.812,30.497],[-86.782,30.509]]]}},{"type":"Feature","properties":{"density":1},"geometry":{"type":"Polygon","coordinates":[[[-84.895,32.353],[-84.785,32.48],[-84.614,32.631],[-84.509,32.67],[-84.456,32.675],[-84.436,32.658],[-84.436,32.594],[-84.563,32.445],[-84.841,32.265],[-84.873,32.262],[-84.903,32.282],[-84.903,32.335],[-84.895,32.353]]]}},{"type":"Feature","properties":{"density":1},"geometry":{"type":"Polygon","coordinates":[[[-109.222,30.666],[-109.244,30.7],[-109.244,30.739],[-109.186,30.831],[-108.71,31.109],[-108.316,31.286],[-108.224,31.313],[-108.175,31.301],[-108.16,31.215],[-108.313,31.072],[-108.725,30.877],[-109.082,30.651],[-109.189,30.639],[-109.222,30.666]]]}},{"type":"Feature","properties":{"density":1},"geometry":{"type":"Polygon","coordinates":[[[-107.437,27.913],[-107.461,27.919],[-107.461,27.993],[-107.394,28.103],[-107.031,28.435],[-106.836,28.569],[-106.79,28.573],[-106.769,28.508],[-106.811,28.45],[-107.013,28.264],[-107.297,27.965],[-107.388,27.919],[-107.437,27.913]]]}},{"type":"Feature","properties":{"density":1},"geometry":{"type":"Polygon","coordinates":[[[-80.719,25.394],[-80.921,24.959],[-81.02,24.868],[-81.287,24.738],[-81.558,24.662],[-81.757,24.65],[-81.997,24.681],[-82.203,24.815],[-82.497,25.04],[-82.676,25.227],[-82.764,25.383],[-82.771,25.436],[-82.733,25.494],[-82.691,25.524],[-82.584,25.505],[-82.359,25.375],[-82.222,25.33],[-82.039,25.295],[-81.726,25.288],[-81.593,25.299],[-81.116,25.44],[-80.776,25.463],[-80.73,25.433],[-80.719,25.394]]]}},{"type":"Feature","properties":{"density":1},"geometry":{"type":"Polygon","coordinates":[[[-82.848,26.068],[-82.711,26.065],[-82.47,26.123],[-81.624,26.446],[-81.487,26.544],[-81.469,26.581],[-81.481,26.657],[-81.514,26.694],[-81.643,26.724],[-81.777,26.7],[-81.948,26.648],[-82.143,26.532],[-82.454,26.388],[-82.625,26.333],[-82.866,26.3],[-83.059,26.37],[-83.086,26.367],[-83.117,26.336],[-83.117,26.239],[-83.089,26.178],[-82.97,26.089],[-82.848,26.068]]]}},{"type":"Feature","properties":{"density":1},"geometry":{"type":"Polygon","coordinates":[[[-82.625,27.569],[-82.781,27.527],[-82.946,27.539],[-83.284,27.6],[-83.611,27.719],[-83.791,27.829],[-83.898,27.954],[-83.928,28.045],[-83.925,28.119],[-83.898,28.152],[-83.843,28.161],[-83.724,28.11],[-83.446,27.942],[-83.111,27.792],[-82.995,27.759],[-82.763,27.749],[-82.552,27.844],[-82.491,27.85],[-82.442,27.835],[-82.409,27.792],[-82.436,27.719],[-82.473,27.664],[-82.613,27.566],[-82.625,27.569]]]}},{"type":"Feature","properties":{"density":1},"geometry":{"type":"Polygon","coordinates":[[[-84.252,30.881],[-84.285,30.917],[-84.298,30.978],[-84.273,31.03],[-84.173,31.116],[-84.09,31.134],[-84.035,31.119],[-84.011,31.058],[-84.011,30.966],[-84.035,30.923],[-84.102,30.868],[-84.203,30.868],[-84.252,30.881]]]}},{"type":"Feature","properties":{"density":1},"geometry":{"type":"Polygon","coordinates":[[[-84.395,30.069],[-84.298,30.148],[-84.246,30.289],[-84.285,30.447],[-84.319,30.505],[-84.356,30.536],[-84.429,30.548],[-84.481,30.496],[-84.472,30.466],[-84.365,30.343],[-84.362,30.234],[-84.401,30.145],[-84.462,30.078],[-84.453,30.054],[-84.438,30.057],[-84.395,30.069]]]}},{"type":"Feature","properties":{"density":1},"geometry":{"type":"Polygon","coordinates":[[[-85.314,30.136],[-85.024,30.154],[-84.774,30.221],[-84.682,30.276],[-84.478,30.444],[-84.401,30.548],[-84.386,30.636],[-84.435,30.734],[-84.499,30.771],[-84.658,30.734],[-84.722,30.682],[-84.844,30.502],[-85.024,30.38],[-85.128,30.356],[-85.329,30.359],[-85.418,30.316],[-85.424,30.237],[-85.39,30.166],[-85.369,30.16],[-85.314,30.136]]]}},{"type":"Feature","properties":{"density":1},"geometry":{"type":"Polygon","coordinates":[[[-86.8,30.493],[-86.809,30.612],[-86.77,30.7],[-86.605,30.737],[-86.528,30.719],[-86.397,30.572],[-86.336,30.404],[-86.397,30.218],[-86.458,30.148],[-86.583,30.063],[-86.693,30.023],[-86.959,29.986],[-87.075,30.008],[-87.182,30.09],[-87.212,30.203],[-87.215,30.289],[-87.197,30.328],[-87.078,30.453],[-86.956,30.493],[-86.821,30.496],[-86.8,30.493]]]}},{"type":"Feature","properties":{"density":1},"geometry":{"type":"Polygon","coordinates":[[[-86.718,31.082],[-86.675,31.116],[-86.626,31.128],[-86.547,31.134],[-86.416,31.106],[-86.324,31.048],[-86.29,31.0],[-86.275,30.908],[-86.327,30.823],[-86.428,30.74],[-86.577,30.682],[-86.715,30.679],[-86.8,30.707],[-86.834,30.737],[-86.882,30.838],[-86.855,30.948],[-86.748,31.058],[-86.718,31.082]]]}},{"type":"Feature","properties":{"density":1},"geometry":{"type":"Polygon","coordinates":[[[-88.665,30.435],[-88.695,30.502],[-88.726,30.514],[-88.802,30.484],[-89.013,30.356],[-89.327,30.13],[-89.434,30.002],[-89.486,29.895],[-89.476,29.803],[-89.397,29.666],[-89.266,29.532],[-89.208,29.504],[-89.104,29.507],[-89.025,29.541],[-88.936,29.654],[-88.674,30.267],[-88.659,30.38],[-88.665,30.435]]]}},{"type":"Feature","properties":{"density":1},"geometry":{"type":"Polygon","coordinates":[[[-84.923,32.376],[-84.914,32.455],[-84.832,32.638],[-84.624,32.898],[-84.301,33.13],[-84.017,33.282],[-83.944,33.31],[-83.886,33.285],[-83.864,33.182],[-83.892,33.084],[-83.931,33.041],[-84.49,32.632],[-84.572,32.538],[-84.606,32.413],[-84.621,32.159],[-84.642,32.074],[-84.682,32.013],[-84.725,31.985],[-84.801,31.991],[-84.841,32.034],[-84.884,32.107],[-84.917,32.214],[-84.926,32.324],[-84.923,32.376]]]}},{"type":"Feature","properties":{"density":1},"geometry":{"type":"Polygon","coordinates":[[[-85.701,32.321],[-85.681,32.336],[-85.654,32.328],[-85.588,32.258],[-85.564,32.16],[-85.593,32.111],[-85.645,32.114],[-85.681,32.14],[-85.71,32.197],[-85.713,32.304],[-85.701,32.321]]]}},{"type":"Feature","properties":{"density":1},"geometry":{"type":"Polygon","coordinates":[[[-74.904,39.801],[-74.885,39.813],[-74.855,39.804],[-73.86,38.803],[-73.79,38.696],[-73.771,38.608],[-73.79,38.574],[-73.866,38.571],[-74.876,39.654],[-74.91,39.728],[-74.913,39.786],[-74.904,39.801]]]}},{"type":"Feature","properties":{"density":1},"geometry":{"type":"Polygon","coordinates":[[[-83.023,43.944],[-83.138,44.144],[-83.148,44.193],[-83.14,44.278],[-83.114,44.315],[-83.033,44.334],[-82.879,44.281],[-82.85,44.22],[-82.874,44.122],[-82.945,44.005],[-83.004,43.944],[-83.023,43.944]]]}},{"type":"Feature","properties":{"density":1},"geometry":{"type":"Polygon","coordinates":[[[-89.326,42.853],[-89.397,43.153],[-89.453,43.485],[-89.451,43.564],[-89.404,43.647],[-89.338,43.683],[-89.265,43.693],[-89.219,43.661],[-89.199,43.605],[-89.19,43.39],[-89.246,43.053],[-89.302,42.846],[-89.326,42.853]]]}},{"type":"Feature","properties":{"density":1},"geometry":{"type":"Polygon","coordinates":[[[-90.156,43.185],[-90.308,43.561],[-90.371,43.769],[-90.371,43.805],[-90.327,43.888],[-90.293,43.913],[-90.212,43.932],[-90.142,43.903],[-90.115,43.788],[-90.134,43.659],[-90.142,43.19],[-90.156,43.185]]]}},{"type":"Feature","properties":{"density":1},"geometry":{"type":"Polygon","coordinates":[[[-107.87,27.722],[-107.874,27.974],[-107.839,28.073],[-107.732,28.248],[-107.454,28.481],[-107.149,28.687],[-106.66,28.984],[-106.535,29.03],[-106.508,29.023],[-106.466,28.965],[-106.454,28.832],[-106.496,28.687],[-106.592,28.523],[-106.748,28.321],[-106.95,28.118],[-107.45,27.794],[-107.748,27.668],[-107.812,27.661],[-107.835,27.676],[-107.87,27.722]]]}},{"type":"Feature","properties":{"density":1},"geometry":{"type":"Polygon","coordinates":[[[-108.709,29.755],[-108.69,29.839],[-108.541,30.049],[-108.427,30.14],[-108.335,30.152],[-108.327,30.114],[-108.35,30.064],[-108.556,29.85],[-108.663,29.702],[-108.713,29.709],[-108.717,29.736],[-108.709,29.755]]]}},{"type":"Feature","properties":{"density":1},"geometry":{"type":"Polygon","coordinates":[[[-109.251,30.648],[-109.289,30.701],[-109.281,30.785],[-109.197,30.938],[-108.392,31.666],[-107.938,31.948],[-107.824,31.99],[-107.729,31.994],[-107.641,31.964],[-107.618,31.926],[-107.618,31.853],[-107.683,31.685],[-107.954,31.433],[-108.461,31.121],[-108.625,30.96],[-109.079,30.609],[-109.144,30.602],[-109.224,30.617],[-109.251,30.648]]]}},{"type":"Feature","properties":{"density":1},"geometry":{"type":"Polygon","coordinates":[[[-103.434,34.183],[-103.099,34.808],[-102.386,37.166],[-102.357,38.592],[-102.357,39.611],[-102.879,41.061],[-103.334,42.175],[-103.811,43.517],[-104.221,44.586],[-104.471,45.336],[-104.471,45.927],[-104.38,46.405],[-103.857,46.882],[-102.947,47.223],[-102.152,47.223],[-100.674,46.814],[-99.491,46.018],[-98.445,44.858],[-96.558,41.971],[-93.466,38.628],[-91.139,37.666],[-90.662,37.666],[-90.021,37.538],[-88.252,36.525],[-87.658,35.792],[-86.878,35.268],[-86.087,34.989],[-85.621,34.872],[-84.599,34.788],[-84.017,34.7],[-83.042,34.715],[-82.606,34.758],[-82.067,34.788],[-80.845,34.744],[-80.234,34.526],[-79.928,34.133],[-79.564,33.318],[-79.666,32.75],[-79.928,32.183],[-80.991,30.698],[-81.063,30.262],[-80.947,29.825],[-80.787,29.345],[-80.656,28.865],[-80.336,28.268],[-80.088,27.701],[-79.899,27.017],[-79.899,26.173],[-80.001,25.649],[-81.034,24.703],[-81.383,24.732],[-82.489,24.892],[-83.406,25.096],[-83.843,25.3],[-84.381,25.46],[-84.949,25.969],[-85.778,27.206],[-85.996,27.497],[-86.433,27.861],[-88.121,28.559],[-89.14,28.821],[-89.794,28.923],[-90.26,28.894],[-90.755,28.632],[-91.104,28.399],[-91.497,27.846],[-91.73,27.191],[-91.759,26.551],[-91.759,23.277],[-91.715,22.637],[-91.657,22.389],[-91.468,21.982],[-91.191,21.676],[-90.638,21.298],[-90.1,21.225],[-89.431,21.254],[-88.98,21.342],[-88.587,21.473],[-88.252,21.473],[-87.641,21.443],[-87.073,21.443],[-86.899,21.298],[-86.869,21.051],[-87.306,19.508],[-87.786,18.097],[-88.092,17.354],[-88.427,16.816],[-88.79,15.943],[-88.761,15.725],[-88.339,15.725],[-87.961,15.826],[-87.437,15.899],[-86.578,15.914],[-85.618,15.899],[-84.789,15.754],[-84.192,15.55],[-83.566,15.375],[-83.377,15.186],[-83.45,13.906],[-83.668,13.163],[-83.857,12.625],[-84.09,12.159],[-84.468,11.563],[-85.036,11.083],[-85.953,10.471],[-87.044,10.078],[-92.166,10.078],[-98.7,10.137],[-102.451,10.077],[-105.343,10.186],[-106.707,10.295],[-107.835,10.222],[-109.199,10.258],[-109.8,10.368],[-110.364,10.386],[-111.218,10.549],[-111.746,10.786],[-112.292,11.15],[-112.492,11.459],[-112.692,11.986],[-112.856,12.605],[-112.856,13.278],[-112.765,14.278],[-112.674,14.624],[-112.492,16.552],[-112.292,17.116],[-111.964,17.716],[-111.455,18.317],[-110.909,18.899],[-110.473,19.262],[-110.018,19.608],[-109.49,20.172],[-109.127,20.608],[-108.617,21.318],[-107.653,22.336],[-107.435,23.046],[-107.544,24.356],[-107.908,25.047],[-108.326,25.556],[-108.781,26.266],[-108.963,26.757],[-108.999,27.321],[-108.908,27.739],[-108.581,28.175],[-108.235,28.448],[-107.38,29.267],[-106.162,30.322],[-105.707,30.522],[-105.416,30.613],[-105.143,30.577],[-104.525,30.413],[-104.197,30.285],[-104.143,30.195],[-103.961,29.412],[-103.815,27.684],[-103.779,26.52],[-103.524,25.847],[-103.124,25.156],[-102.778,24.155],[-102.651,23.392],[-102.469,22.518],[-101.942,21.209],[-101.742,20.572],[-101.378,20.154],[-100.395,19.772],[-100.05,19.608],[-99.722,19.663],[-99.522,19.754],[-99.359,19.881],[-99.231,20.045],[-99.213,20.463],[-99.34,20.918],[-99.595,21.263],[-99.795,21.5],[-100.159,22.173],[-100.687,24.192],[-101.614,26.393],[-101.905,27.302],[-102.785,29.344],[-103.637,31.192],[-103.744,31.796],[-103.744,32.861],[-103.637,33.643],[-103.434,34.183]]]}},{"type":"Feature","properties":{"density":1},"geometry":{"type":"Polygon","coordinates":[[[-116.355,46.383],[-116.328,46.394],[-116.191,46.371],[-115.825,46.158],[-115.573,45.86],[-115.523,45.757],[-115.523,45.688],[-115.558,45.658],[-115.638,45.658],[-115.802,45.73],[-115.993,45.864],[-116.347,46.257],[-116.393,46.318],[-116.389,46.36],[-116.355,46.383]]]}},{"type":"Feature","properties":{"density":1},"geometry":{"type":"Polygon","coordinates":[[[-112.63,47.614],[-112.718,47.963],[-112.703,48.53],[-112.165,49.767],[-111.728,50.335],[-110.739,50.859],[-109.429,51.513],[-107.945,52.212],[-106.737,52.663],[-105.762,52.998],[-104.743,53.216],[-103.157,53.26],[-102.197,53.362],[-100.247,53.056],[-98.486,52.619],[-97.918,52.328],[-97.54,51.877],[-97.365,51.368],[-97.307,50.859],[-97.38,50.306],[-97.525,49.738],[-97.802,49.214],[-98.122,48.734],[-98.704,48.196],[-99.388,47.628],[-100.931,47.075],[-101.789,46.93],[-102.706,46.871],[-103.244,46.901],[-104.117,47.264],[-105.151,47.977],[-106.489,48.85],[-106.955,49.098],[-107.464,49.214],[-108.105,49.142],[-108.454,48.821],[-108.847,48.414],[-109.24,48.123],[-109.764,47.875],[-110.549,47.599],[-111.335,47.424],[-111.757,47.381],[-112.019,47.424],[-112.398,47.541],[-112.63,47.614]]]}},{"type":"Feature","properties":{"density":2},"geometry":{"type":"Polygon","coordinates":[[[-107.701,28.045],[-107.504,28.142],[-107.323,28.182],[-107.208,28.339],[-107.228,28.411],[-107.3,28.441],[-107.385,28.416],[-107.462,28.361],[-107.559,28.217],[-107.629,28.159],[-107.763,28.092],[-107.778,28.047],[-107.736,28.04],[-107.701,28.045]]]}},{"type":"Feature","properties":{"density":2},"geometry":{"type":"Polygon","coordinates":[[[-107.435,27.96],[-107.243,28.102],[-107.201,28.157],[-107.059,28.281],[-106.989,28.256],[-107.176,28.035],[-107.29,27.965],[-107.42,27.93],[-107.435,27.948],[-107.435,27.96]]]}},{"type":"Feature","properties":{"density":2},"geometry":{"type":"Polygon","coordinates":[[[-107.833,27.696],[-107.746,27.728],[-107.492,27.893],[-107.452,27.965],[-107.442,28.027],[-107.46,28.047],[-107.534,28.072],[-107.594,28.042],[-107.781,27.823],[-107.838,27.711],[-107.833,27.696]]]}},{"type":"Feature","properties":{"density":2},"geometry":{"type":"Polygon","coordinates":[[[-107.936,27.54],[-107.844,27.618],[-107.841,27.657],[-107.874,27.703],[-107.893,27.706],[-107.924,27.677],[-107.959,27.548],[-107.936,27.54]]]}},{"type":"Feature","properties":{"density":2},"geometry":{"type":"Polygon","coordinates":[[[-109.184,30.686],[-109.143,30.74],[-109.04,30.826],[-109.046,30.876],[-109.064,30.884],[-109.131,30.853],[-109.193,30.755],[-109.208,30.683],[-109.184,30.686]]]}},{"type":"Feature","properties":{"density":2},"geometry":{"type":"Polygon","coordinates":[[[-104.303,21.137],[-104.401,21.26],[-104.536,21.352],[-104.593,21.467],[-104.553,21.521],[-104.44,21.5],[-104.3,21.42],[-104.208,21.363],[-104.143,21.271],[-104.112,21.164],[-104.212,21.182],[-104.288,21.129],[-104.303,21.137]]]}},{"type":"Feature","properties":{"density":2},"geometry":{"type":"Polygon","coordinates":[[[-103.823,20.77],[-103.932,20.826],[-104.016,20.832],[-104.063,20.809],[-104.241,20.791],[-104.28,20.826],[-104.29,20.873],[-104.278,20.898],[-104.186,20.963],[-104.153,21.092],[-104.089,21.119],[-103.915,21.145],[-103.718,21.236],[-103.583,21.23],[-103.456,21.146],[-103.368,21.143],[-103.208,21.248],[-103.143,21.232],[-103.11,21.137],[-103.116,21.107],[-103.329,20.883],[-103.378,20.859],[-103.639,20.828],[-103.762,20.738],[-103.8,20.734],[-103.817,20.748],[-103.823,20.77]]]}},{"type":"Feature","properties":{"density":2},"geometry":{"type":"Polygon","coordinates":[[[-102.572,18.563],[-102.655,18.589],[-102.66,18.631],[-102.584,18.659],[-102.545,18.651],[-102.517,18.602],[-102.54,18.551],[-102.572,18.563]]]}},{"type":"Feature","properties":{"density":2},"geometry":{"type":"Polygon","coordinates":[[[-98.691,17.16],[-98.617,17.115],[-98.611,17.025],[-98.593,16.992],[-98.539,16.939],[-98.502,16.948],[-98.519,17.116],[-98.587,17.217],[-98.611,17.239],[-98.663,17.238],[-98.695,17.199],[-98.692,17.176],[-98.691,17.16]]]}},{"type":"Feature","properties":{"density":2},"geometry":{"type":"Polygon","coordinates":[[[-97.027,16.816],[-97.038,16.784],[-97.07,16.78],[-97.204,16.834],[-97.22,16.866],[-97.209,16.889],[-97.06,16.904],[-97.029,16.888],[-97.021,16.835],[-97.027,16.816]]]}},{"type":"Feature","properties":{"density":2},"geometry":{"type":"Polygon","coordinates":[[[-97.29,16.315],[-97.44,16.39],[-97.469,16.422],[-97.38,16.441],[-97.274,16.401],[-97.23,16.364],[-97.229,16.317],[-97.251,16.304],[-97.29,16.315]]]}},{"type":"Feature","properties":{"density":2},"geometry":{"type":"Polygon","coordinates":[[[-96.238,16.167],[-96.261,16.125],[-96.363,16.049],[-96.441,15.962],[-96.504,15.945],[-96.518,15.975],[-96.459,16.049],[-96.319,16.167],[-96.251,16.185],[-96.238,16.167]]]}},{"type":"Feature","properties":{"density":2},"geometry":{"type":"Polygon","coordinates":[[[-95.721,16.181],[-95.678,15.968],[-95.712,15.897],[-95.745,15.907],[-95.794,15.959],[-95.779,16.154],[-95.752,16.197],[-95.721,16.181]]]}},{"type":"Feature","properties":{"density":2},"geometry":{"type":"Polygon","coordinates":[[[-94.566,17.769],[-94.188,17.61],[-94.111,17.61],[-94.094,17.652],[-94.188,17.719],[-94.263,17.75],[-94.513,17.802],[-94.585,17.797],[-94.566,17.769]]]}},{"type":"Feature","properties":{"density":2},"geometry":{"type":"Polygon","coordinates":[[[-92.033,16.66],[-92.004,16.656],[-91.926,16.736],[-91.942,16.754],[-91.983,16.74],[-92.046,16.697],[-92.044,16.667],[-92.033,16.66]]]}},{"type":"Feature","properties":{"density":2},"geometry":{"type":"Polygon","coordinates":[[[-91.04,17.135],[-91.071,17.166],[-91.1,17.248],[-91.179,17.305],[-91.218,17.311],[-91.219,17.288],[-91.134,17.145],[-91.054,17.096],[-91.001,17.098],[-91.04,17.135]]]}},{"type":"Feature","properties":{"density":2},"geometry":{"type":"Polygon","coordinates":[[[-91.321,17.9],[-91.32,17.935],[-91.425,18.021],[-91.464,18.098],[-91.509,18.135],[-91.644,18.142],[-91.667,18.119],[-91.634,18.057],[-91.318,17.881],[-91.321,17.9]]]}},{"type":"Feature","properties":{"density":2},"geometry":{"type":"Polygon","coordinates":[[[-83.764,22.529],[-84.086,22.557],[-84.353,22.543],[-84.409,22.515],[-84.386,22.465],[-84.165,22.462],[-84.176,22.432],[-84.356,22.387],[-84.454,22.294],[-84.451,22.247],[-84.359,22.229],[-84.186,22.271],[-83.898,22.291],[-83.812,22.46],[-83.74,22.487],[-83.736,22.526],[-83.764,22.529]]]}},{"type":"Feature","properties":{"density":2},"geometry":{"type":"Polygon","coordinates":[[[-84.279,21.991],[-84.673,21.952],[-84.751,21.962],[-84.873,22.065],[-84.796,22.087],[-84.617,22.082],[-84.354,22.046],[-84.259,21.999],[-84.279,21.991]]]}},{"type":"Feature","properties":{"density":2},"geometry":{"type":"Polygon","coordinates":[[[-80.555,26.796],[-80.57,26.858],[-80.607,26.907],[-80.824,27.055],[-80.902,27.079],[-80.959,27.057],[-81.008,26.993],[-81.012,26.78],[-81.098,26.755],[-81.164,26.716],[-81.228,26.641],[-81.307,26.481],[-81.242,26.382],[-81.16,26.335],[-81.035,26.341],[-80.893,26.411],[-80.857,26.514],[-80.797,26.591],[-80.672,26.622],[-80.609,26.702],[-80.518,26.76],[-80.555,26.796]]]}},{"type":"Feature","properties":{"density":2},"geometry":{"type":"Polygon","coordinates":[[[-81.422,26.639],[-81.467,26.581],[-81.514,26.569],[-81.555,26.593],[-81.535,26.7],[-81.443,26.659],[-81.422,26.639]]]}},{"type":"Feature","properties":{"density":2},"geometry":{"type":"Polygon","coordinates":[[[-85.026,30.326],[-85.051,30.271],[-85.042,30.234],[-84.96,30.125],[-84.915,30.006],[-84.678,29.824],[-84.645,29.863],[-84.676,29.963],[-84.798,30.086],[-84.848,30.185],[-84.942,30.256],[-84.946,30.285],[-84.993,30.332],[-85.026,30.326]]]}},{"type":"Feature","properties":{"density":2},"geometry":{"type":"Polygon","coordinates":[[[-103.865,20.783],[-103.947,20.835],[-103.978,20.884],[-103.978,20.93],[-104.042,21.067],[-104.027,21.11],[-103.944,21.131],[-103.853,21.101],[-103.822,21.003],[-103.81,20.838],[-103.841,20.774],[-103.865,20.783]]]}},{"type":"Feature","properties":{"density":2},"geometry":{"type":"Polygon","coordinates":[[[-104.31,21.165],[-104.304,21.339],[-104.384,21.406],[-104.42,21.412],[-104.414,21.244],[-104.362,21.159],[-104.341,21.156],[-104.31,21.165]]]}},{"type":"Feature","properties":{"density":2},"geometry":{"type":"Polygon","coordinates":[[[-100.687,18.485],[-100.818,18.558],[-100.858,18.522],[-100.742,18.433],[-100.69,18.467],[-100.687,18.485]]]}},{"type":"Feature","properties":{"density":2},"geometry":{"type":"Polygon","coordinates":[[[-91.395,18.493],[-91.567,18.612],[-91.543,18.522],[-91.452,18.465],[-91.395,18.46],[-91.395,18.493]]]}},{"type":"Feature","properties":{"density":2},"geometry":{"type":"Polygon","coordinates":[[[-90.98,17.482],[-91.047,17.482],[-91.052,17.42],[-90.995,17.387],[-90.976,17.392],[-90.966,17.435],[-90.98,17.482]]]}},{"type":"Feature","properties":{"density":2},"geometry":{"type":"Polygon","coordinates":[[[-91.071,17.225],[-91.128,17.23],[-91.195,17.187],[-91.176,17.144],[-91.147,17.125],[-91.009,17.149],[-91.004,17.206],[-91.066,17.22],[-91.071,17.225]]]}},{"type":"Feature","properties":{"density":2},"geometry":{"type":"Polygon","coordinates":[[[-80.761,25.406],[-80.832,25.414],[-80.9,25.372],[-80.92,25.331],[-80.91,25.314],[-80.82,25.316],[-80.778,25.345],[-80.761,25.384],[-80.761,25.406]]]}},{"type":"Feature","properties":{"density":2},"geometry":{"type":"Polygon","coordinates":[[[-107.854,27.729],[-107.862,27.768],[-107.839,27.813],[-107.736,27.905],[-107.717,27.947],[-107.725,27.996],[-107.793,28.05],[-107.809,28.088],[-107.793,28.16],[-107.507,28.389],[-107.183,28.588],[-107.091,28.63],[-107.0,28.633],[-106.977,28.618],[-106.981,28.561],[-107.091,28.427],[-107.404,28.202],[-107.656,28.05],[-107.679,28.031],[-107.694,27.966],[-107.679,27.947],[-107.618,27.962],[-107.13,28.313],[-106.977,28.443],[-106.905,28.477],[-106.874,28.462],[-106.874,28.397],[-106.908,28.317],[-106.966,28.237],[-107.275,27.943],[-107.725,27.714],[-107.82,27.687],[-107.854,27.729]]]}},{"type":"Feature","properties":{"density":2},"geometry":{"type":"Polygon","coordinates":[[[-109.22,30.644],[-109.254,30.663],[-109.277,30.728],[-109.201,30.873],[-108.61,31.418],[-108.404,31.578],[-108.335,31.601],[-108.236,31.559],[-108.202,31.475],[-108.228,31.391],[-108.282,31.304],[-108.358,31.231],[-108.69,30.995],[-108.942,30.789],[-108.991,30.724],[-109.125,30.64],[-109.182,30.636],[-109.22,30.644]]]}},{"type":"Feature","properties":{"density":2},"geometry":{"type":"Polygon","coordinates":[[[-106.459,24.397],[-106.319,24.49],[-106.058,24.583],[-105.742,24.639],[-105.015,24.564],[-104.54,24.462],[-104.307,24.378],[-103.991,24.089],[-103.6,23.605],[-103.451,23.186],[-103.441,22.73],[-103.358,22.143],[-103.255,21.789],[-103.218,21.761],[-103.218,21.426],[-102.927,20.902],[-102.563,20.568],[-102.33,20.277],[-101.923,19.855],[-101.544,19.636],[-101.064,19.491],[-100.759,19.418],[-100.453,19.316],[-100.002,19.243],[-99.303,19.302],[-98.736,19.287],[-98.299,19.331],[-97.819,19.52],[-97.644,19.534],[-97.397,19.534],[-97.164,19.418],[-97.077,19.171],[-97.121,18.894],[-97.237,18.618],[-97.383,18.414],[-98.008,18.05],[-98.11,17.803],[-98.037,17.512],[-97.863,17.192],[-97.688,17.075],[-97.295,16.886],[-96.946,16.726],[-96.015,16.58],[-95.84,16.668],[-95.614,16.975],[-95.705,17.266],[-96.488,18.285],[-96.906,18.612],[-96.979,19.03],[-97.142,19.394],[-97.488,19.922],[-98.325,20.758],[-99.161,21.795],[-99.78,23.523],[-100.38,24.687],[-100.671,25.888],[-100.835,26.415],[-100.835,26.907],[-100.544,27.379],[-100.071,27.707],[-99.307,28.198],[-98.325,28.726],[-97.324,29.017],[-96.287,29.035],[-95.56,28.962],[-94.887,28.744],[-94.505,28.453],[-94.014,27.307],[-93.85,26.525],[-93.832,24.542],[-93.395,23.669],[-92.831,23.25],[-92.122,22.887],[-91.74,22.45],[-91.704,21.904],[-92.086,21.013],[-92.231,20.376],[-92.286,19.994],[-92.268,19.467],[-92.104,18.994],[-91.776,18.885],[-91.231,19.34],[-90.976,19.667],[-90.685,20.485],[-90.358,20.995],[-89.848,21.322],[-89.139,21.504],[-88.666,21.559],[-88.32,21.559],[-88.138,21.522],[-88.011,20.977],[-88.011,20.285],[-88.52,19.703],[-89.212,19.23],[-89.557,18.885],[-90.167,17.888],[-90.095,17.597],[-89.315,16.928],[-89.156,16.612],[-89.128,16.202],[-89.212,15.923],[-89.529,15.736],[-89.631,15.634],[-89.659,15.299],[-89.585,14.889],[-89.622,14.554],[-89.78,14.321],[-90.134,14.032],[-90.889,13.874],[-91.811,13.902],[-94.176,14.209],[-94.912,14.283],[-95.294,14.367],[-95.685,14.423],[-96.523,14.6],[-96.98,14.73],[-97.4,14.89],[-99.056,14.982],[-101.012,15.01],[-101.729,15.01],[-102.484,14.935],[-104.877,14.973],[-106.237,15.047],[-107.42,15.029],[-108.23,15.196],[-108.59,15.647],[-108.794,16.112],[-108.823,16.767],[-108.561,17.262],[-108.023,17.888],[-107.717,18.484],[-107.324,19.881],[-107.062,20.565],[-106.888,21.322],[-106.902,21.904],[-107.077,22.515],[-107.15,23.345],[-107.019,23.825],[-106.859,24.087],[-106.626,24.349],[-106.459,24.397]]]}},{"type":"Feature","properties":{"density":3},"geometry":{"type":"Polygon","coordinates":[[[-98.634,17.141],[-98.645,17.179],[-98.627,17.196],[-98.58,17.179],[-98.615,17.14],[-98.634,17.141]]]}},{"type":"Feature","properties":{"density":3},"geometry":{"type":"Polygon","coordinates":[[[-97.035,16.84],[-97.098,16.843],[-97.038,16.882],[-97.029,16.852],[-97.035,16.84]]]}},{"type":"Feature","properties":{"density":3},"geometry":{"type":"Polygon","coordinates":[[[-97.252,16.34],[-97.262,16.322],[-97.282,16.322],[-97.44,16.408],[-97.393,16.409],[-97.248,16.356],[-97.252,16.34]]]}},{"type":"Feature","properties":{"density":3},"geometry":{"type":"Polygon","coordinates":[[[-107.82,27.756],[-107.381,28.126],[-107.172,28.26],[-107.103,28.279],[-107.061,28.271],[-107.065,28.187],[-107.103,28.13],[-107.416,27.909],[-107.778,27.691],[-107.816,27.687],[-107.847,27.733],[-107.839,27.752],[-107.82,27.756]]]}},{"type":"Feature","properties":{"density":3},"geometry":{"type":"Polygon","coordinates":[[[-107.774,28.088],[-107.774,28.107],[-107.713,28.18],[-107.641,28.241],[-107.526,28.302],[-107.454,28.305],[-107.45,28.267],[-107.469,28.229],[-107.671,28.038],[-107.732,28.027],[-107.767,28.038],[-107.786,28.069],[-107.774,28.088]]]}},{"type":"Feature","properties":{"density":3},"geometry":{"type":"Polygon","coordinates":[[[-109.228,30.655],[-109.262,30.686],[-109.254,30.724],[-109.209,30.793],[-109.048,30.964],[-108.839,31.155],[-108.755,31.189],[-108.701,31.174],[-108.686,31.151],[-108.694,31.105],[-108.732,31.037],[-108.934,30.869],[-109.071,30.735],[-109.132,30.648],[-109.19,30.644],[-109.228,30.655]]]}}]}