{"type":"FeatureCollection","features":[{"type":"Feature","properties":{"density":1},"geometry":{"type":"Polygon","coordinates":[[[-96.135,55.227],[-96.195,55.275],[-96.82,55.305],[-97.393,55.275],[-97.971,55.15],[-98.06,55.084],[-98.054,55.031],[-97.929,54.965],[-97.631,54.935],[-96.141,55.078],[-96.105,55.138],[-96.135,55.227]]]}},{"type":"Feature","properties":{"density":1},"geometry":{"type":"Polygon","coordinates":[[[-99.316,57.326],[-99.405,57.309],[-99.56,57.326],[-99.721,57.416],[-99.828,57.535],[-99.846,57.797],[-99.81,57.911],[-99.679,58.048],[-99.596,58.101],[-99.131,58.185],[-98.368,58.25],[-98.219,58.203],[-98.052,58.095],[-97.653,57.905],[-97.623,57.845],[-97.605,57.762],[-97.623,57.696],[-97.76,57.541],[-97.79,57.469],[-97.784,57.392],[-97.724,57.171],[-97.849,56.987],[-97.933,56.927],[-97.998,56.79],[-98.082,56.736],[-98.255,56.718],[-98.41,56.76],[-98.565,56.867],[-98.648,56.969],[-98.648,57.058],[-98.589,57.148],[-98.511,57.201],[-98.487,57.249],[-98.481,57.32],[-98.505,57.428],[-98.547,57.511],[-98.654,57.648],[-98.785,57.762],[-98.881,57.779],[-99.202,57.72],[-99.304,57.684],[-99.34,57.571],[-99.28,57.44],[-99.292,57.35],[-99.316,57.326]]]}},{"type":"Feature","properties":{"density":1},"geometry":{"type":"Polygon","coordinates":[[[-99.226,56.593],[-99.733,56.796],[-100.442,56.957],[-100.758,56.975],[-100.818,56.945],[-100.812,56.838],[-100.716,56.82],[-100.508,56.736],[-100.156,56.623],[-99.602,56.51],[-99.346,56.51],[-99.316,56.516],[-99.286,56.546],[-99.226,56.593]]]}},{"type":"Feature","properties":{"density":1},"geometry":{"type":"Polygon","coordinates":[[[-97.933,56.391],[-98.088,56.432],[-98.517,56.456],[-99.006,56.456],[-99.083,56.414],[-99.107,56.361],[-99.077,56.325],[-98.899,56.277],[-98.136,56.277],[-97.987,56.307],[-97.951,56.349],[-97.933,56.391]]]}},{"type":"Feature","properties":{"density":1},"geometry":{"type":"Polygon","coordinates":[[[-97.647,56.283],[-97.718,56.307],[-98.052,56.319],[-98.213,56.254],[-98.314,56.188],[-98.326,56.122],[-98.285,56.051],[-98.159,56.003],[-97.993,56.015],[-97.671,56.099],[-97.444,56.206],[-97.444,56.242],[-97.545,56.271],[-97.647,56.283]]]}},{"type":"Feature","properties":{"density":1},"geometry":{"type":"Polygon","coordinates":[[[-96.562,57.398],[-96.526,57.446],[-96.449,57.475],[-96.24,57.464],[-96.055,57.41],[-95.835,57.309],[-95.62,57.094],[-95.495,56.927],[-95.424,56.808],[-95.418,56.707],[-95.483,56.653],[-95.65,56.647],[-95.865,56.766],[-96.33,57.028],[-96.55,57.273],[-96.568,57.35],[-96.562,57.398]]]}},{"type":"Feature","properties":{"density":1},"geometry":{"type":"Polygon","coordinates":[[[-95.894,56.331],[-96.043,56.391],[-96.234,56.414],[-96.526,56.373],[-96.765,56.307],[-96.89,56.242],[-96.89,56.164],[-96.723,56.081],[-96.467,56.033],[-96.192,56.063],[-96.014,56.099],[-95.912,56.14],[-95.877,56.224],[-95.877,56.271],[-95.894,56.331]]]}},{"type":"Feature","properties":{"density":1},"geometry":{"type":"Polygon","coordinates":[[[-95.203,56.563],[-95.108,56.575],[-94.905,56.558],[-94.792,56.51],[-94.75,56.379],[-94.798,56.194],[-94.947,56.039],[-95.233,55.973],[-95.358,55.973],[-95.435,55.997],[-95.489,56.051],[-95.495,56.146],[-95.406,56.349],[-95.257,56.528],[-95.203,56.563]]]}},{"type":"Feature","properties":{"density":1},"geometry":{"type":"Polygon","coordinates":[[[-94.458,56.11],[-94.506,56.134],[-94.565,56.14],[-94.655,56.116],[-94.732,56.063],[-94.81,55.961],[-94.833,55.842],[-94.816,55.777],[-94.714,55.747],[-94.595,55.747],[-94.44,55.884],[-94.416,56.057],[-94.458,56.11]]]}},{"type":"Feature","properties":{"density":1},"geometry":{"type":"Polygon","coordinates":[[[-93.838,56.081],[-93.916,56.075],[-94.112,55.902],[-94.166,55.783],[-94.148,55.705],[-94.035,55.693],[-93.969,55.717],[-93.773,55.956],[-93.79,56.057],[-93.838,56.081]]]}},{"type":"Feature","properties":{"density":1},"geometry":{"type":"Polygon","coordinates":[[[-118.409,41.811],[-118.376,41.939],[-118.29,42.068],[-118.033,42.268],[-117.561,42.44],[-117.15,42.492],[-116.745,42.492],[-116.43,42.421],[-116.092,42.273],[-115.817,42.039],[-115.644,42.004],[-115.179,41.962],[-114.75,41.98],[-113.683,41.747],[-113.081,41.747],[-112.884,41.771],[-112.675,41.849],[-112.759,41.974],[-112.926,42.045],[-113.271,42.248],[-113.337,42.349],[-113.355,42.6],[-113.254,42.719],[-113.021,42.838],[-112.461,42.904],[-112.061,42.886],[-111.537,42.749],[-111.084,42.606],[-110.142,42.033],[-109.761,41.861],[-109.123,41.795],[-108.744,41.775],[-108.186,41.566],[-107.925,41.402],[-107.761,41.358],[-107.575,41.372],[-107.523,41.484],[-107.627,41.715],[-107.582,41.797],[-107.381,41.849],[-107.062,41.89],[-106.66,41.801],[-106.034,41.622],[-105.23,41.294],[-104.797,41.063],[-104.172,40.586],[-103.889,40.482],[-103.635,40.437],[-103.278,40.452],[-102.942,40.542],[-102.763,40.556],[-102.294,40.489],[-101.482,40.281],[-101.065,40.08],[-100.558,39.804],[-100.379,39.648],[-100.208,39.231],[-100.171,38.903],[-100.156,38.292],[-100.305,37.741],[-100.593,37.133],[-100.72,36.805],[-100.608,36.552],[-100.223,36.41],[-100.055,36.41],[-99.822,36.233],[-99.729,35.898],[-99.729,35.581],[-99.878,34.725],[-100.102,34.389],[-100.316,34.175],[-100.53,34.035],[-100.865,33.933],[-101.229,33.924],[-101.564,33.998],[-101.89,34.156],[-102.672,34.65],[-103.445,35.051],[-104.013,35.265],[-105.084,35.516],[-105.503,35.563],[-106.574,35.647],[-106.798,35.721],[-106.928,35.786],[-107.18,35.749],[-107.413,35.479],[-107.711,35.33],[-108.074,35.265],[-109.024,35.162],[-109.238,35.181],[-109.685,35.33],[-110.188,35.563],[-110.998,36.075],[-111.166,36.14],[-111.268,36.14],[-111.706,36.028],[-111.902,36.028],[-112.358,36.131],[-112.591,36.299],[-112.628,36.345],[-112.572,36.448],[-112.488,36.448],[-112.349,36.503],[-112.256,36.708],[-112.106,36.811],[-111.92,36.997],[-111.678,37.127],[-111.231,37.332],[-111.212,37.453],[-111.287,37.612],[-111.538,37.882],[-111.687,38.068],[-111.976,38.208],[-112.302,38.478],[-112.358,38.655],[-112.33,38.841],[-112.181,38.934],[-111.762,39.13],[-111.585,39.176],[-111.175,39.158],[-110.849,39.093],[-110.439,39.176],[-110.086,39.195],[-108.959,39.651],[-108.428,39.763],[-108.139,39.716],[-107.999,39.716],[-107.897,39.763],[-107.897,39.828],[-108.158,39.865],[-108.819,39.838],[-109.257,39.791],[-109.937,39.791],[-111.035,39.977],[-111.613,40.042],[-112.274,40.061],[-112.712,40.052],[-113.569,40.219],[-114.183,40.499],[-114.714,40.825],[-114.966,40.853],[-115.515,40.862],[-115.767,40.797],[-115.934,40.694],[-116.009,40.583],[-116.595,40.015],[-116.977,39.94],[-117.778,40.136],[-118.272,40.75],[-118.449,41.654],[-118.409,41.811]]]}},{"type":"Feature","properties":{"density":1},"geometry":{"type":"Polygon","coordinates":[[[-120.082,35.205],[-120.192,35.252],[-120.321,35.248],[-120.528,35.058],[-120.677,34.82],[-120.555,34.346],[-120.229,33.729],[-119.915,33.264],[-119.543,32.553],[-119.333,32.367],[-118.786,32.064],[-118.309,31.832],[-117.948,31.773],[-117.761,31.715],[-117.692,31.552],[-117.796,31.121],[-117.983,30.691],[-118.111,30.272],[-118.215,29.666],[-118.343,29.049],[-118.367,28.456],[-118.134,27.676],[-117.948,27.466],[-117.47,27.257],[-116.912,27.257],[-116.469,27.582],[-116.143,28.316],[-116.038,28.63],[-116.12,29.748],[-116.132,30.365],[-115.678,31.529],[-115.363,32.064],[-114.804,32.321],[-114.124,32.671],[-113.706,33.372],[-113.547,34.241],[-113.652,35.103],[-113.908,35.429],[-114.397,35.72],[-114.909,35.953],[-115.538,36.104],[-117.098,35.953],[-117.61,35.79],[-118.146,35.557],[-118.378,35.316],[-118.601,35.055],[-118.773,34.757],[-118.907,34.675],[-119.153,34.623],[-119.406,34.616],[-119.6,34.668],[-119.913,34.802],[-119.98,34.891],[-119.913,35.003],[-119.98,35.137],[-120.082,35.205]]]}},{"type":"Feature","properties":{"density":1},"geometry":{"type":"Polygon","coordinates":[[[-122.975,41.249],[-123.032,41.183],[-123.132,41.13],[-123.194,41.125],[-123.404,41.173],[-123.576,41.431],[-123.609,41.941],[-123.352,42.275],[-122.606,42.852],[-122.187,43.103],[-121.675,43.513],[-120.103,44.446],[-119.696,44.784],[-119.091,45.122],[-118.625,45.331],[-118.124,45.494],[-117.1,45.785],[-116.809,45.843],[-116.087,45.855],[-115.715,45.797],[-115.54,45.68],[-115.447,45.413],[-115.447,45.191],[-115.552,44.9],[-115.668,44.435],[-115.726,44.097],[-115.726,43.818],[-115.831,43.608],[-115.994,43.48],[-116.192,43.434],[-116.599,43.399],[-117.263,43.375],[-118.346,43.247],[-119.021,43.084],[-120.348,42.852],[-120.814,42.735],[-121.605,42.595],[-122.257,42.339],[-122.583,42.153],[-122.769,41.967],[-122.874,41.804],[-122.897,41.501],[-122.975,41.249]]]}},{"type":"Feature","properties":{"density":1},"geometry":{"type":"Polygon","coordinates":[[[-120.817,47.76],[-120.817,48.086],[-120.426,48.849],[-120.193,49.064],[-119.392,49.501],[-118.927,49.66],[-118.47,49.716],[-117.995,49.753],[-117.232,49.734],[-116.431,49.604],[-115.788,49.352],[-115.015,48.933],[-114.503,48.766],[-113.898,48.635],[-113.46,48.579],[-113.236,48.589],[-112.91,48.794],[-112.557,48.961],[-112.237,49.065],[-111.828,49.124],[-111.292,49.112],[-110.71,49.019],[-110.512,48.868],[-110.233,48.589],[-109.942,48.507],[-109.045,48.379],[-108.44,48.367],[-107.823,48.146],[-107.509,47.96],[-107.264,47.681],[-107.066,47.494],[-107.055,47.168],[-107.357,46.609],[-107.835,46.132],[-108.463,45.806],[-110.338,45.597],[-110.675,45.736],[-110.943,45.888],[-111.525,46.144],[-111.797,46.16],[-112.041,46.138],[-112.295,46.05],[-112.752,45.998],[-113.631,46.306],[-114.325,46.679],[-114.878,47.075],[-115.136,47.132],[-115.576,47.052],[-115.809,46.877],[-116.321,46.237],[-116.717,46.039],[-117.09,45.806],[-117.858,45.806],[-118.428,46.086],[-118.673,46.144],[-119.057,46.19],[-119.662,46.109],[-119.942,46.132],[-120.233,46.284],[-120.454,46.447],[-120.64,46.668],[-120.838,47.506],[-120.817,47.76]]]}},{"type":"Feature","properties":{"density":1},"geometry":{"type":"Polygon","coordinates":[[[-123.956,51.824],[-124.44,52.029],[-124.757,52.337],[-125.027,52.569],[-125.111,52.812],[-125.148,52.979],[-125.157,53.137],[-125.102,53.38],[-125.027,53.491],[-124.859,53.566],[-124.617,53.575],[-124.347,53.557],[-123.611,53.668],[-123.22,53.855],[-122.466,54.469],[-122.363,54.572],[-122.112,54.674],[-121.479,54.805],[-121.209,54.814],[-120.976,54.702],[-120.864,54.562],[-120.883,54.395],[-120.994,54.199],[-121.283,53.855],[-121.535,53.612],[-121.684,53.314],[-121.73,53.044],[-121.637,52.793],[-121.479,52.644],[-121.125,52.42],[-120.734,52.132],[-120.501,51.917],[-120.277,51.536],[-120.249,51.266],[-120.361,51.014],[-120.817,50.781],[-121.153,50.679],[-121.758,50.669],[-122.27,50.828],[-123.798,51.657],[-123.956,51.824]]]}},{"type":"Feature","properties":{"density":1},"geometry":{"type":"Polygon","coordinates":[[[-145.219,65.31],[-146.782,65.239],[-148.21,65.324],[-154.889,66.248],[-156.204,66.745],[-158.335,67.847],[-158.904,68.415],[-159.081,68.912],[-158.975,69.516],[-158.513,70.12],[-157.198,70.476],[-155.635,70.76],[-150.661,71.257],[-147.428,71.399],[-132.294,71.968],[-119.717,71.968],[-108.668,72.572],[-100.284,72.465],[-97.051,72.003],[-91.864,70.76],[-90.62,69.623],[-89.626,68.628],[-88.489,67.704],[-86.215,66.71],[-84.119,66.248],[-79.216,66.283],[-75.664,66.781],[-72.466,66.958],[-67.208,68.06],[-61.915,68.202],[-59.783,67.42],[-55.235,64.187],[-54.027,63.548],[-52.073,62.66],[-49.658,61.629],[-47.775,61.416],[-44.435,61.558],[-42.943,62.766],[-41.948,63.903],[-40.314,64.933],[-39.177,65.608],[-37.969,65.822],[-37.152,65.715],[-36.299,65.324],[-35.198,63.299],[-35.234,62.198],[-35.731,60.741],[-36.513,59.285],[-37.898,58.29],[-40.456,57.934],[-43.476,57.757],[-45.927,57.544],[-46.14,57.366],[-45.821,56.584],[-44.009,55.554],[-42.659,54.24],[-42.41,53.174],[-42.375,51.895],[-43.263,50.474],[-46.283,48.236],[-49.089,45.713],[-61.461,40.834],[-69.704,38.68],[-72.313,38.261],[-74.478,37.516],[-77.818,35.839],[-79.18,36.037],[-79.739,36.503],[-80.573,37.435],[-82.137,38.203],[-82.971,38.415],[-83.971,38.483],[-85.131,38.301],[-85.972,38.028],[-86.836,37.528],[-87.526,36.077],[-87.739,35.26],[-87.988,31.443],[-88.798,30.4],[-92.883,29.955],[-94.576,29.581],[-96.276,28.534],[-97.382,27.451],[-97.498,25.961],[-98.529,25.216],[-100.45,24.575],[-102.734,23.979],[-104.539,24.415],[-106.562,25.448],[-106.751,29.101],[-104.626,30.833],[-99.906,32.321],[-97.971,33.519],[-97.011,34.336],[-95.839,37.64],[-94.773,40.731],[-94.667,42.966],[-94.439,44.171],[-94.416,45.08],[-94.667,46.081],[-95.008,46.831],[-95.371,47.24],[-95.872,47.422],[-97.077,47.695],[-97.463,47.672],[-97.986,47.513],[-98.441,46.899],[-98.646,46.194],[-98.691,45.74],[-98.691,45.103],[-98.555,44.466],[-98.282,43.67],[-98.168,43.125],[-98.123,42.579],[-98.35,41.92],[-99.055,41.488],[-100.078,41.283],[-100.919,41.283],[-101.988,41.624],[-103.057,42.261],[-103.625,42.966],[-103.625,44.057],[-103.398,44.648],[-103.261,44.944],[-103.216,45.421],[-103.307,46.103],[-103.784,48.263],[-104.626,49.332],[-105.285,49.696],[-107.422,50.014],[-108.263,50.105],[-110.128,49.991],[-111.674,49.969],[-112.788,50.651],[-114.721,52.72],[-115.653,54.221],[-115.604,56.413],[-117.583,61.055],[-119.096,63.238],[-120.318,63.587],[-121.424,63.514],[-122.719,63.005],[-121.905,62.073],[-120.435,60.633],[-119.183,59.134],[-119.038,57.621],[-119.431,57.417],[-120.9,57.359],[-121.555,57.49],[-122.996,57.708],[-123.738,58.101],[-124.859,59.571],[-124.994,61.099],[-128.201,62.823],[-131.257,63.356],[-135.946,63.996],[-138.646,64.671],[-142.412,65.31],[-143.798,65.417],[-145.219,65.31]]]}},{"type":"Feature","properties":{"density":1},"geometry":{"type":"Polygon","coordinates":[[[-124.664,49.112],[-124.739,49.209],[-124.761,49.336],[-124.754,49.47],[-124.717,49.552],[-124.627,49.619],[-124.344,49.701],[-124.076,49.693],[-123.591,49.529],[-123.331,49.507],[-123.085,49.507],[-122.891,49.455],[-122.809,49.403],[-122.705,49.276],[-122.69,49.142],[-122.742,49.03],[-122.75,48.881],[-122.705,48.74],[-122.638,48.605],[-122.593,48.434],[-122.638,48.24],[-122.72,48.173],[-122.906,48.084],[-123.174,48.114],[-123.621,48.211],[-124.061,48.404],[-124.225,48.516],[-124.359,48.821],[-124.434,48.93],[-124.553,49.03],[-124.664,49.112]]]}},{"type":"Feature","properties":{"density":1},"geometry":{"type":"Polygon","coordinates":[[[-115.426,45.973],[-115.478,45.966],[-115.529,45.934],[-115.629,45.92],[-115.7,45.939],[-115.746,45.991],[-115.744,46.049],[-115.543,46.232],[-115.432,46.391],[-115.34,46.446],[-115.093,46.504],[-114.818,46.511],[-114.565,46.468],[-114.428,46.404],[-114.342,46.337],[-114.272,46.227],[-114.26,46.132],[-114.278,46.034],[-114.388,45.976],[-114.693,46.001],[-115.005,45.976],[-115.236,45.815],[-115.294,45.821],[-115.374,45.894],[-115.392,45.943],[-115.426,45.973]]]}},{"type":"Feature","properties":{"density":1},"geometry":{"type":"Polygon","coordinates":[[[-144.423,67.453],[-144.505,67.438],[-144.61,67.445],[-144.677,67.527],[-144.677,67.594],[-144.632,67.639],[-144.565,67.669],[-144.565,67.766],[-144.416,67.885],[-144.312,67.907],[-144.259,67.87],[-144.259,67.632],[-144.244,67.557],[-144.319,67.453],[-144.423,67.453]]]}},{"type":"Feature","properties":{"density":1},"geometry":{"type":"Polygon","coordinates":[[[-146.509,66.968],[-146.621,66.983],[-146.696,67.035],[-146.718,67.073],[-146.681,67.11],[-146.547,67.132],[-145.34,67.14],[-144.386,67.214],[-142.933,67.281],[-142.069,67.371],[-139.945,67.542],[-136.444,68.399],[-135.989,68.526],[-134.401,68.642],[-134.276,68.452],[-134.52,68.279],[-140.176,67.146],[-141.1,67.039],[-142.225,67.043],[-143.686,66.976],[-144.61,66.857],[-144.908,66.849],[-146.427,66.976],[-146.509,66.968]]]}},{"type":"Feature","properties":{"density":1},"geometry":{"type":"Polygon","coordinates":[[[-123.676,65.683],[-123.676,65.76],[-123.545,65.886],[-123.473,65.915],[-123.402,65.897],[-123.39,65.832],[-123.419,65.772],[-123.521,65.689],[-123.622,65.677],[-123.676,65.683]]]}},{"type":"Feature","properties":{"density":1},"geometry":{"type":"Polygon","coordinates":[[[-123.544,52.97],[-123.63,53.051],[-123.634,53.094],[-123.601,53.127],[-123.444,53.156],[-123.258,53.27],[-123.153,53.27],[-123.096,53.232],[-123.086,53.165],[-123.1,53.113],[-123.205,52.998],[-123.281,52.97],[-123.444,52.96],[-123.544,52.97]]]}},{"type":"Feature","properties":{"density":1},"geometry":{"type":"Polygon","coordinates":[[[-121.62,50.149],[-121.651,50.153],[-121.677,50.183],[-121.693,50.244],[-121.677,50.29],[-121.647,50.313],[-121.609,50.309],[-121.563,50.271],[-121.563,50.199],[-121.597,50.153],[-121.62,50.149]]]}},{"type":"Feature","properties":{"density":1},"geometry":{"type":"Polygon","coordinates":[[[-124.984,49.16],[-124.836,49.303],[-124.669,49.384],[-124.56,49.418],[-123.806,49.423],[-123.53,49.327],[-123.344,49.218],[-123.086,49.012],[-122.948,48.846],[-122.872,48.674],[-122.867,48.478],[-122.896,48.326],[-123.029,48.226],[-123.315,48.211],[-123.949,48.393],[-124.092,48.579],[-124.107,48.679],[-124.064,48.784],[-124.083,48.874],[-124.259,49.06],[-124.398,49.132],[-124.584,49.141],[-124.793,49.003],[-124.86,48.979],[-124.936,48.974],[-124.984,48.998],[-125.008,49.032],[-125.008,49.113],[-124.984,49.16]]]}},{"type":"Feature","properties":{"density":1},"geometry":{"type":"Polygon","coordinates":[[[-123.332,47.479],[-123.384,47.497],[-123.405,47.546],[-123.357,47.701],[-123.155,48.037],[-123.067,48.068],[-123.024,48.049],[-123.006,48.01],[-123.024,47.961],[-123.283,47.485],[-123.302,47.472],[-123.332,47.479]]]}},{"type":"Feature","properties":{"density":1},"geometry":{"type":"Polygon","coordinates":[[[-118.924,48.264],[-118.967,48.315],[-118.948,48.383],[-118.86,48.444],[-118.753,48.441],[-118.707,48.373],[-118.707,48.328],[-118.729,48.288],[-118.777,48.26],[-118.866,48.248],[-118.924,48.264]]]}},{"type":"Feature","properties":{"density":1},"geometry":{"type":"Polygon","coordinates":[[[-123.003,41.261],[-123.186,41.212],[-123.323,41.212],[-123.448,41.267],[-123.604,41.414],[-123.615,41.723],[-123.553,41.947],[-123.472,42.209],[-123.267,42.514],[-123.033,42.786],[-122.549,43.239],[-122.18,43.644],[-122.078,43.871],[-121.81,44.091],[-121.613,44.216],[-121.345,44.24],[-121.143,44.187],[-120.928,44.056],[-120.827,43.936],[-120.809,43.609],[-120.815,43.316],[-120.946,43.024],[-121.125,42.774],[-121.363,42.583],[-121.673,42.375],[-121.953,42.101],[-122.293,41.802],[-122.507,41.683],[-122.668,41.504],[-122.728,41.373],[-122.776,41.308],[-122.937,41.254],[-123.003,41.261]]]}},{"type":"Feature","properties":{"density":1},"geometry":{"type":"Polygon","coordinates":[[[-113.179,44.152],[-113.204,44.167],[-113.213,44.213],[-113.157,44.294],[-113.018,44.352],[-112.952,44.35],[-112.916,44.325],[-112.925,44.264],[-112.959,44.237],[-113.084,44.196],[-113.16,44.142],[-113.179,44.152]]]}},{"type":"Feature","properties":{"density":1},"geometry":{"type":"Polygon","coordinates":[[[-115.438,46.005],[-115.532,45.998],[-115.632,46.015],[-115.72,46.118],[-115.718,46.162],[-115.652,46.25],[-115.579,46.287],[-115.459,46.409],[-115.304,46.509],[-115.017,46.622],[-114.816,46.638],[-114.712,46.631],[-114.62,46.604],[-114.571,46.57],[-114.559,46.519],[-114.584,46.454],[-114.648,46.403],[-114.776,46.372],[-114.797,46.348],[-114.791,46.265],[-114.813,46.168],[-114.867,46.104],[-114.947,46.067],[-115.395,46.006],[-115.438,46.005]]]}},{"type":"Feature","properties":{"density":1},"geometry":{"type":"Polygon","coordinates":[[[-108.276,39.928],[-108.288,39.945],[-108.274,39.977],[-108.188,39.989],[-108.112,39.945],[-108.105,39.911],[-108.12,39.896],[-108.174,39.891],[-108.244,39.903],[-108.276,39.928]]]}},{"type":"Feature","properties":{"density":1},"geometry":{"type":"Polygon","coordinates":[[[-99.355,57.369],[-99.647,57.44],[-100.289,57.667],[-100.404,57.953],[-100.296,58.084],[-100.177,58.174],[-99.772,58.281],[-99.629,58.275],[-99.551,58.239],[-99.48,58.186],[-99.426,58.114],[-99.414,57.971],[-99.444,57.917],[-99.557,57.822],[-99.557,57.762],[-99.545,57.727],[-99.444,57.631],[-99.271,57.5],[-99.271,57.458],[-99.319,57.405],[-99.355,57.369]]]}},{"type":"Feature","properties":{"density":1},"geometry":{"type":"Polygon","coordinates":[[[-98.651,57.768],[-98.83,57.84],[-99.015,57.953],[-99.045,58.019],[-99.045,58.072],[-99.003,58.138],[-98.86,58.162],[-98.413,58.138],[-98.341,58.066],[-98.324,57.995],[-98.371,57.935],[-98.568,57.78],[-98.651,57.768]]]}},{"type":"Feature","properties":{"density":1},"geometry":{"type":"Polygon","coordinates":[[[-98.043,56.767],[-98.836,56.815],[-99.361,57.011],[-99.39,57.089],[-99.373,57.13],[-99.301,57.166],[-99.158,57.172],[-98.806,57.077],[-98.61,57.005],[-98.228,56.916],[-98.127,56.916],[-98.037,56.892],[-98.014,56.827],[-98.043,56.767]]]}},{"type":"Feature","properties":{"density":1},"geometry":{"type":"Polygon","coordinates":[[[-97.93,56.379],[-99.134,56.6],[-99.194,56.576],[-99.224,56.493],[-99.2,56.421],[-99.069,56.362],[-98.806,56.278],[-98.127,56.213],[-97.537,56.177],[-97.513,56.201],[-97.525,56.254],[-97.68,56.296],[-97.829,56.296],[-97.9,56.326],[-97.906,56.356],[-97.93,56.379]]]}},{"type":"Feature","properties":{"density":1},"geometry":{"type":"Polygon","coordinates":[[[-94.843,56.499],[-95.105,56.576],[-95.194,56.558],[-95.29,56.463],[-95.439,56.368],[-95.832,56.32],[-96.416,56.409],[-96.661,56.427],[-97.09,56.415],[-97.173,56.332],[-97.179,56.219],[-97.102,56.058],[-96.917,55.891],[-96.684,55.801],[-96.303,55.706],[-96.041,55.718],[-95.361,55.861],[-95.051,56.016],[-94.866,56.165],[-94.795,56.248],[-94.753,56.332],[-94.771,56.439],[-94.801,56.469],[-94.843,56.499]]]}},{"type":"Feature","properties":{"density":1},"geometry":{"type":"Polygon","coordinates":[[[-95.617,55.557],[-95.892,55.587],[-96.339,55.599],[-96.434,55.575],[-96.47,55.551],[-96.482,55.515],[-96.327,55.473],[-95.832,55.473],[-95.665,55.485],[-95.617,55.497],[-95.611,55.521],[-95.617,55.557]]]}},{"type":"Feature","properties":{"density":1},"geometry":{"type":"Polygon","coordinates":[[[-96.498,57.481],[-96.594,57.5],[-96.698,57.476],[-96.784,57.424],[-96.822,57.362],[-96.827,57.285],[-96.803,57.219],[-96.679,57.171],[-96.565,57.104],[-96.379,56.923],[-96.265,56.723],[-96.098,56.575],[-95.821,56.518],[-95.697,56.518],[-95.592,56.575],[-95.535,56.632],[-95.535,56.794],[-95.568,56.894],[-95.678,57.109],[-95.754,57.2],[-95.907,57.309],[-96.05,57.381],[-96.322,57.471],[-96.498,57.481]]]}},{"type":"Feature","properties":{"density":1},"geometry":{"type":"Polygon","coordinates":[[[-102.125,58.692],[-102.22,58.702],[-102.449,58.897],[-102.635,58.992],[-103.25,59.174],[-103.431,59.283],[-103.484,59.331],[-103.493,59.393],[-103.474,59.422],[-103.436,59.436],[-103.336,59.445],[-103.198,59.422],[-102.32,59.121],[-102.215,59.05],[-102.149,58.94],[-102.115,58.859],[-102.106,58.725],[-102.125,58.692]]]}},{"type":"Feature","properties":{"density":1},"geometry":{"type":"Polygon","coordinates":[[[-101.257,57.071],[-101.667,57.204],[-101.872,57.319],[-101.92,57.366],[-101.915,57.405],[-101.834,57.419],[-101.715,57.39],[-101.352,57.2],[-101.209,57.147],[-101.195,57.099],[-101.257,57.071]]]}},{"type":"Feature","properties":{"density":1},"geometry":{"type":"Polygon","coordinates":[[[-93.806,54.334],[-93.939,54.377],[-94.33,54.358],[-94.535,54.301],[-94.588,54.253],[-94.597,54.224],[-94.583,54.191],[-94.521,54.181],[-94.139,54.186],[-93.844,54.277],[-93.806,54.334]]]}},{"type":"Feature","properties":{"density":1},"geometry":{"type":"Polygon","coordinates":[[[-124.671,49.25],[-124.714,49.314],[-124.692,49.367],[-124.538,49.383],[-124.17,49.26],[-123.967,49.154],[-123.85,49.084],[-123.733,48.956],[-123.701,48.818],[-123.711,48.738],[-123.775,48.727],[-124.069,48.908],[-124.303,49.095],[-124.41,49.212],[-124.564,49.26],[-124.607,49.255],[-124.671,49.25]]]}},{"type":"Feature","properties":{"density":1},"geometry":{"type":"Polygon","coordinates":[[[-116.998,41.296],[-117.005,41.389],[-116.992,41.456],[-116.885,41.596],[-116.719,41.663],[-116.532,41.763],[-116.405,41.803],[-116.372,41.796],[-116.359,41.709],[-116.405,41.649],[-116.645,41.496],[-116.759,41.356],[-116.845,41.323],[-116.885,41.323],[-116.998,41.296]]]}},{"type":"Feature","properties":{"density":1},"geometry":{"type":"Polygon","coordinates":[[[-120.217,35.168],[-120.3,34.918],[-120.311,34.72],[-120.352,34.553],[-120.259,34.147],[-120.196,34.012],[-120.113,33.845],[-120.061,33.783],[-119.978,33.783],[-119.936,33.887],[-119.925,34.126],[-119.957,34.449],[-119.936,34.647],[-119.946,34.824],[-119.988,34.991],[-120.061,35.105],[-120.217,35.168]]]}},{"type":"Feature","properties":{"density":1},"geometry":{"type":"Polygon","coordinates":[[[-112.208,36.584],[-112.121,36.758],[-112.041,36.784],[-111.828,36.791],[-111.448,36.844],[-111.308,36.824],[-111.162,36.771],[-111.048,36.751],[-110.882,36.758],[-110.515,36.818],[-110.488,36.764],[-110.555,36.671],[-110.675,36.618],[-110.928,36.584],[-111.095,36.591],[-111.821,36.551],[-111.855,36.478],[-111.808,36.438],[-111.615,36.411],[-111.608,36.338],[-111.815,36.231],[-111.915,36.211],[-112.241,36.205],[-112.261,36.318],[-112.188,36.364],[-112.108,36.518],[-112.168,36.558],[-112.208,36.584]]]}},{"type":"Feature","properties":{"density":1},"geometry":{"type":"Polygon","coordinates":[[[-127.069,61.551],[-126.463,65.188],[-125.251,66.036],[-122.826,66.764],[-118.099,66.764],[-111.432,65.673],[-107.31,64.582],[-103.795,63.127],[-99.674,60.945],[-94.219,57.188],[-89.128,54.036],[-82.946,51.49],[-76.036,50.157],[-73.976,50.884],[-73.37,52.581],[-74.46,55.612],[-74.46,59.127],[-72.642,60.582],[-67.672,62.642],[-62.702,62.885],[-58.581,62.521],[-49.139,61.373],[-42.984,59.243],[-41.326,58.059],[-42.037,55.454],[-43.931,51.903],[-46.535,50.483],[-51.98,48.825],[-57.662,47.878],[-65.475,45.511],[-68.633,44.149],[-71.349,43.082],[-74.452,41.434],[-76.973,40.852],[-79.494,39.882],[-82.792,39.106],[-85.701,37.555],[-87.252,36.779],[-91.519,34.937],[-93.459,35.324],[-93.847,36.585],[-93.265,38.428],[-93.071,41.337],[-94.331,44.246],[-95.786,46.186],[-98.598,47.058],[-101.604,47.931],[-104.32,48.513],[-108.587,49.386],[-111.69,51.131],[-114.405,52.004],[-115.957,51.81],[-118.284,51.131],[-121.387,50.937],[-122.454,51.519],[-124.102,52.683],[-124.878,54.137],[-125.557,56.174],[-125.654,57.919],[-126.042,60.247],[-127.069,61.551]]]}},{"type":"Feature","properties":{"density":1},"geometry":{"type":"Polygon","coordinates":[[[-112.213,36.35],[-112.246,36.87],[-112.034,37.001],[-111.628,37.082],[-111.123,37.147],[-110.342,37.196],[-109.757,37.196],[-108.26,37.293],[-107.755,37.293],[-107.153,37.147],[-106.389,36.919],[-105.966,36.659],[-105.819,36.382],[-105.884,35.927],[-106.128,35.813],[-106.812,35.797],[-107.69,35.943],[-108.211,36.122],[-108.748,36.431],[-109.301,36.561],[-109.968,36.626],[-110.586,36.626],[-111.351,36.366],[-111.628,36.334],[-111.953,36.236],[-112.164,36.317],[-112.213,36.35]]]}},{"type":"Feature","properties":{"density":1},"geometry":{"type":"Polygon","coordinates":[[[-112.168,38.477],[-112.229,39.128],[-112.067,39.453],[-111.701,39.88],[-111.03,40.287],[-110.257,40.612],[-109.728,40.714],[-109.037,40.673],[-107.816,40.551],[-107.593,40.49],[-106.555,40.328],[-106.067,40.206],[-105.152,39.901],[-104.969,39.697],[-104.807,39.047],[-104.888,38.477],[-105.193,38.213],[-105.986,38.07],[-106.922,38.05],[-107.694,38.152],[-108.711,38.518],[-109.118,38.741],[-109.748,38.884],[-110.419,38.945],[-110.806,38.945],[-111.64,38.762],[-111.985,38.497],[-112.128,38.68],[-112.168,38.477]]]}},{"type":"Feature","properties":{"density":1},"geometry":{"type":"Polygon","coordinates":[[[-117.059,41.09],[-117.085,41.472],[-116.856,41.751],[-116.144,42.107],[-115.433,42.412],[-114.873,42.565],[-114.136,42.666],[-113.628,42.59],[-113.348,42.438],[-113.297,42.082],[-113.678,41.878],[-114.975,41.675],[-115.433,41.548],[-116.5,41.217],[-116.907,41.217],[-117.009,41.345],[-117.059,41.09]]]}},{"type":"Feature","properties":{"density":1},"geometry":{"type":"Polygon","coordinates":[[[-116.165,48.259],[-116.197,48.424],[-116.09,48.478],[-115.957,48.52],[-115.472,48.627],[-115.147,48.659],[-114.939,48.718],[-114.624,48.702],[-114.422,48.675],[-114.315,48.6],[-114.32,48.499],[-114.438,48.435],[-115.419,48.376],[-115.994,48.296],[-116.165,48.259]]]}},{"type":"Feature","properties":{"density":1},"geometry":{"type":"Polygon","coordinates":[[[-124.667,49.313],[-124.502,49.409],[-124.422,49.404],[-124.208,49.345],[-123.872,49.212],[-123.713,49.025],[-123.681,48.865],[-123.702,48.727],[-123.915,48.615],[-124.15,48.641],[-124.427,48.759],[-124.619,49.078],[-124.661,49.26],[-124.667,49.313]]]}},{"type":"Feature","properties":{"density":2},"geometry":{"type":"Polygon","coordinates":[[[-96.212,55.233],[-96.773,55.203],[-97.22,55.156],[-97.309,55.108],[-97.303,55.072],[-97.285,55.072],[-97.25,55.084],[-96.272,55.126],[-96.165,55.144],[-96.135,55.168],[-96.135,55.203],[-96.153,55.221],[-96.212,55.233]]]}},{"type":"Feature","properties":{"density":2},"geometry":{"type":"Polygon","coordinates":[[[-95.248,54.512],[-95.263,54.542],[-95.332,54.549],[-96.16,54.419],[-96.244,54.389],[-96.247,54.362],[-96.217,54.328],[-96.015,54.332],[-95.301,54.446],[-95.265,54.456],[-95.245,54.483],[-95.248,54.512]]]}},{"type":"Feature","properties":{"density":2},"geometry":{"type":"Polygon","coordinates":[[[-98.254,56.126],[-98.24,56.208],[-98.247,56.275],[-98.664,56.312],[-99.163,56.312],[-99.454,56.513],[-100.035,56.662],[-101.13,57.087],[-103.284,58.324],[-103.403,58.465],[-103.298,58.584],[-103.09,58.562],[-102.524,58.197],[-102.159,58.07],[-101.451,57.698],[-101.078,57.526],[-100.437,57.303],[-100.177,57.288],[-100.102,57.333],[-100.124,57.459],[-100.214,57.616],[-100.527,57.877],[-101.354,58.391],[-102.397,58.957],[-102.874,59.061],[-103.053,59.054],[-103.328,58.927],[-103.79,58.502],[-103.939,58.085],[-104.006,57.69],[-103.902,57.288],[-103.418,56.781],[-102.285,56.006],[-101.503,55.686],[-100.87,55.574],[-99.998,55.544],[-98.612,55.686],[-98.165,55.835],[-97.889,55.865],[-97.629,55.85],[-97.576,55.887],[-97.584,55.977],[-97.86,56.021],[-98.061,56.014],[-98.165,56.059],[-98.254,56.126]]]}},{"type":"Feature","properties":{"density":2},"geometry":{"type":"Polygon","coordinates":[[[-112.11,38.542],[-112.027,38.614],[-111.931,38.65],[-111.788,38.673],[-111.663,38.656],[-111.311,38.435],[-111.24,38.411],[-111.121,38.423],[-111.025,38.501],[-110.835,38.59],[-110.626,38.727],[-110.292,38.781],[-110.227,38.739],[-110.209,38.662],[-110.227,38.626],[-110.274,38.596],[-110.554,38.518],[-110.745,38.399],[-110.846,38.316],[-110.936,38.185],[-111.049,38.167],[-111.156,38.167],[-111.317,38.25],[-111.425,38.25],[-111.478,38.191],[-111.562,38.173],[-111.711,38.185],[-112.08,38.465],[-112.11,38.542]]]}},{"type":"Feature","properties":{"density":2},"geometry":{"type":"Polygon","coordinates":[[[-112.158,36.575],[-112.074,36.695],[-111.907,36.76],[-111.562,36.945],[-111.24,36.969],[-110.936,36.963],[-110.411,37.112],[-110.376,37.1],[-110.37,36.987],[-110.417,36.903],[-110.429,36.712],[-110.31,36.301],[-110.072,36.087],[-109.94,35.938],[-109.899,35.914],[-109.851,35.914],[-109.756,36.015],[-109.762,36.128],[-109.917,36.76],[-110.012,36.999],[-110.185,37.356],[-110.358,37.559],[-110.596,37.624],[-110.686,37.63],[-110.835,37.583],[-110.93,37.571],[-111.055,37.607],[-111.055,37.636],[-110.972,37.821],[-110.751,38.03],[-110.614,38.095],[-110.382,38.119],[-110.197,38.119],[-109.994,38.065],[-109.982,38.03],[-110.209,37.893],[-110.221,37.845],[-110.191,37.785],[-110.113,37.744],[-109.976,37.601],[-109.815,37.243],[-109.648,37.046],[-109.529,36.623],[-109.493,36.355],[-109.493,36.11],[-109.547,35.878],[-109.607,35.783],[-109.714,35.687],[-109.827,35.675],[-110.93,36.307],[-111.073,36.313],[-111.413,36.397],[-111.508,36.379],[-111.478,36.325],[-111.437,36.295],[-111.437,36.218],[-111.46,36.2],[-111.669,36.224],[-111.782,36.2],[-111.848,36.152],[-112.015,36.134],[-112.211,36.188],[-112.259,36.236],[-112.277,36.283],[-112.229,36.391],[-112.14,36.426],[-112.128,36.45],[-112.158,36.575]]]}},{"type":"Feature","properties":{"density":2},"geometry":{"type":"Polygon","coordinates":[[[-117.553,42.087],[-117.486,42.121],[-117.467,42.231],[-117.372,42.307],[-116.923,42.35],[-116.652,42.288],[-116.461,42.226],[-116.318,42.154],[-116.175,42.078],[-115.86,41.849],[-115.612,41.73],[-115.588,41.701],[-115.593,41.668],[-115.755,41.654],[-115.879,41.673],[-116.289,41.787],[-116.785,42.102],[-116.952,42.145],[-117.071,42.145],[-117.252,42.097],[-117.329,42.049],[-117.429,41.93],[-117.5,41.911],[-117.605,41.902],[-117.667,41.954],[-117.705,42.035],[-117.696,42.087],[-117.615,42.059],[-117.591,42.068],[-117.553,42.087]]]}},{"type":"Feature","properties":{"density":2},"geometry":{"type":"Polygon","coordinates":[[[-120.039,35.148],[-120.131,35.218],[-120.326,35.215],[-120.437,35.111],[-120.448,35.065],[-120.441,35.012],[-120.353,34.863],[-120.292,34.665],[-120.288,34.501],[-120.338,34.253],[-120.33,34.062],[-120.254,33.906],[-120.12,33.856],[-120.074,33.906],[-120.063,33.982],[-120.124,34.363],[-120.082,34.554],[-120.097,34.836],[-120.063,34.897],[-119.964,34.993],[-119.96,35.031],[-119.994,35.096],[-120.039,35.148]]]}},{"type":"Feature","properties":{"density":2},"geometry":{"type":"Polygon","coordinates":[[[-117.976,34.817],[-117.625,35.055],[-117.238,35.16],[-116.962,35.264],[-116.716,35.286],[-116.299,35.391],[-116.031,35.346],[-115.912,35.234],[-115.904,35.182],[-115.986,35.063],[-116.105,34.936],[-116.12,34.698],[-116.202,34.616],[-116.351,34.541],[-116.53,34.511],[-116.672,34.511],[-116.933,34.541],[-117.134,34.504],[-117.387,34.444],[-117.514,34.37],[-117.536,34.258],[-117.357,34.169],[-117.193,34.064],[-117.156,33.96],[-117.208,33.744],[-117.521,33.491],[-117.655,33.312],[-117.849,33.252],[-118.065,33.237],[-118.199,33.267],[-118.408,33.342],[-118.624,33.535],[-118.743,33.789],[-118.78,33.945],[-118.743,34.094],[-118.661,34.169],[-118.311,34.221],[-118.154,34.318],[-118.125,34.392],[-118.139,34.631],[-117.976,34.817]]]}},{"type":"Feature","properties":{"density":2},"geometry":{"type":"Polygon","coordinates":[[[-122.995,41.278],[-122.968,41.29],[-122.949,41.331],[-123.003,41.579],[-123.045,41.64],[-123.067,41.637],[-123.09,41.595],[-123.117,41.331],[-123.087,41.29],[-123.041,41.274],[-122.995,41.278]]]}},{"type":"Feature","properties":{"density":2},"geometry":{"type":"Polygon","coordinates":[[[-116.138,48.269],[-116.167,48.289],[-116.181,48.331],[-116.167,48.389],[-116.119,48.441],[-115.905,48.575],[-115.6,48.608],[-115.485,48.603],[-115.428,48.57],[-115.414,48.527],[-115.442,48.494],[-115.891,48.37],[-115.967,48.327],[-116.038,48.255],[-116.088,48.245],[-116.138,48.269]]]}},{"type":"Feature","properties":{"density":2},"geometry":{"type":"Polygon","coordinates":[[[-113.503,46.861],[-113.302,46.802],[-112.795,46.6],[-112.691,46.518],[-112.542,46.354],[-112.467,46.325],[-111.931,46.369],[-111.759,46.362],[-111.521,46.295],[-111.305,46.287],[-110.619,46.191],[-110.455,46.101],[-110.232,46.101],[-110.098,46.124],[-109.844,46.28],[-109.681,46.422],[-109.554,46.652],[-109.487,46.936],[-109.532,47.196],[-109.643,47.368],[-109.8,47.472],[-110.21,47.547],[-110.359,47.629],[-110.508,47.822],[-110.575,48.023],[-110.552,48.202],[-110.627,48.344],[-110.783,48.5],[-110.955,48.537],[-111.148,48.552],[-111.305,48.493],[-111.357,48.403],[-111.372,48.307],[-111.372,48.046],[-111.014,47.472],[-110.716,47.196],[-110.284,46.951],[-110.157,46.854],[-110.105,46.72],[-110.165,46.63],[-110.366,46.593],[-110.694,46.6],[-110.925,46.72],[-111.364,46.861],[-111.521,47.032],[-111.662,47.226],[-111.841,47.36],[-112.139,47.435],[-113.026,47.412],[-113.421,47.472],[-113.704,47.539],[-114.062,47.688],[-114.203,47.725],[-114.419,47.74],[-114.501,47.71],[-114.546,47.643],[-114.561,47.561],[-114.501,47.45],[-114.084,47.152],[-113.749,46.958],[-113.503,46.861]]]}},{"type":"Feature","properties":{"density":2},"geometry":{"type":"Polygon","coordinates":[[[-146.444,66.927],[-146.062,66.945],[-145.802,66.992],[-145.224,66.945],[-144.777,66.964],[-144.2,67.066],[-143.837,67.104],[-142.784,67.141],[-142.468,67.197],[-141.955,67.225],[-141.844,67.299],[-141.825,67.355],[-141.974,67.383],[-142.263,67.392],[-143.52,67.271],[-144.274,67.29],[-144.544,67.262],[-145.001,67.16],[-145.466,67.15],[-146.454,67.178],[-146.798,67.15],[-146.845,67.085],[-146.854,67.038],[-146.77,66.964],[-146.686,66.964],[-146.444,66.927]]]}},{"type":"Feature","properties":{"density":2},"geometry":{"type":"Polygon","coordinates":[[[-115.356,56.977],[-115.214,56.678],[-115.086,56.478],[-114.777,56.223],[-114.14,55.914],[-113.067,55.568],[-112.594,55.495],[-111.812,55.095],[-110.757,54.659],[-109.447,54.295],[-109.084,54.095],[-109.047,53.913],[-109.338,53.658],[-109.393,53.585],[-109.356,53.404],[-109.174,53.24],[-108.72,53.003],[-107.756,52.84],[-105.573,53.094],[-103.79,52.767],[-101.08,52.203],[-98.97,52.058],[-97.406,51.857],[-96.896,51.53],[-95.459,50.966],[-91.585,50.038],[-87.456,48.965],[-86.142,48.754],[-84.277,48.549],[-81.048,48.39],[-77.774,48.413],[-76.66,48.39],[-76.274,48.344],[-75.796,47.844],[-75.887,47.253],[-76.796,45.707],[-77.911,45.002],[-78.797,44.911],[-79.116,44.911],[-79.32,44.706],[-79.366,44.206],[-78.979,43.842],[-77.57,43.933],[-71.453,45.525],[-70.171,46.337],[-68.375,47.519],[-66.419,48.929],[-66.192,49.543],[-66.215,50.111],[-66.351,50.475],[-66.533,50.748],[-68.602,49.929],[-69.142,49.588],[-70.051,49.076],[-71.018,48.962],[-71.33,49.303],[-71.188,50.185],[-70.591,51.378],[-69.398,52.487],[-68.204,53.538],[-67.039,54.533],[-66.84,55.045],[-66.925,55.272],[-67.096,55.215],[-69.028,53.993],[-70.62,52.885],[-72.553,51.492],[-76.134,50.838],[-80.909,51.208],[-86.65,52.828],[-93.073,54.135],[-98.416,55.187],[-99.781,55.642],[-102.31,57.205],[-104.044,58.228],[-105.237,58.995],[-107.227,60.075],[-109.046,59.962],[-110.95,59.677],[-112.968,60.985],[-114.02,61.837],[-114.787,61.98],[-115.81,61.837],[-116.606,61.326],[-117.089,60.871],[-116.862,60.274],[-116.35,60.075],[-115.611,60.018],[-115.185,59.905],[-114.872,59.564],[-115.071,59.137],[-115.299,58.739],[-115.498,57.745],[-115.356,56.977]]]}},{"type":"Feature","properties":{"density":2},"geometry":{"type":"Polygon","coordinates":[[[-94.533,56.554],[-93.283,56.497],[-92.146,56.526],[-90.838,56.27],[-89.304,56.043],[-88.138,55.702],[-86.945,55.531],[-86.689,55.645],[-87.257,56.014],[-88.394,56.554],[-90.242,57.947],[-90.924,58.743],[-91.208,59.368],[-91.606,60.533],[-92.061,61.471],[-92.515,62.04],[-93.141,62.381],[-93.709,62.779],[-94.107,63.12],[-94.391,63.574],[-95.045,63.916],[-96.239,65.138],[-96.494,65.82],[-96.267,66.502],[-95.528,66.928],[-93.823,67.184],[-92.743,67.099],[-91.634,66.701],[-90.27,66.019],[-89.446,64.768],[-88.82,63.688],[-88.423,62.807],[-88.65,60.42],[-88.081,59.823],[-87.684,59.311],[-87.655,58.743],[-87.826,58.316],[-87.513,57.862],[-86.632,57.379],[-85.609,56.725],[-84.444,56.213],[-82.227,55.19],[-81.601,54.764],[-81.374,54.423],[-81.573,53.968],[-82.653,53.968],[-85.211,54.053],[-87.399,54.593],[-88.82,54.849],[-89.076,54.65],[-88.394,54.252],[-87.627,53.883],[-86.632,53.371],[-86.348,53.058],[-86.405,52.803],[-86.859,52.717],[-87.996,52.689],[-89.19,52.916],[-90.838,53.57],[-92.856,54.451],[-93.51,54.707],[-94.306,54.934],[-94.988,55.105],[-95.613,55.56],[-95.897,55.957],[-95.926,56.213],[-95.869,56.469],[-95.528,56.64],[-95.187,56.64],[-94.533,56.554]]]}},{"type":"Feature","properties":{"density":2},"geometry":{"type":"Polygon","coordinates":[[[-115.439,46.033],[-115.463,46.045],[-115.488,46.121],[-115.406,46.246],[-115.387,46.268],[-115.302,46.301],[-115.225,46.283],[-115.185,46.222],[-115.197,46.166],[-115.375,46.017],[-115.439,46.033]]]}},{"type":"Feature","properties":{"density":2},"geometry":{"type":"Polygon","coordinates":[[[-124.608,49.342],[-124.69,49.312],[-124.794,49.214],[-124.858,49.125],[-124.867,49.077],[-124.846,49.064],[-124.736,49.147],[-124.678,49.22],[-124.629,49.241],[-124.553,49.245],[-124.492,49.226],[-124.471,49.241],[-124.471,49.306],[-124.526,49.339],[-124.577,49.348],[-124.608,49.342]]]}},{"type":"Feature","properties":{"density":2},"geometry":{"type":"Polygon","coordinates":[[[-123.006,41.282],[-123.035,41.265],[-123.072,41.284],[-123.059,41.33],[-123.03,41.362],[-122.998,41.526],[-122.974,41.56],[-122.95,41.565],[-122.932,41.55],[-122.928,41.516],[-122.947,41.394],[-122.923,41.299],[-122.942,41.267],[-122.972,41.267],[-123.006,41.282]]]}},{"type":"Feature","properties":{"density":2},"geometry":{"type":"Polygon","coordinates":[[[-115.444,46.03],[-115.483,46.057],[-115.569,46.076],[-115.596,46.103],[-115.6,46.169],[-115.474,46.24],[-115.337,46.393],[-115.242,46.396],[-115.207,46.376],[-115.193,46.335],[-115.203,46.286],[-115.276,46.23],[-115.342,46.101],[-115.403,46.025],[-115.444,46.03]]]}},{"type":"Feature","properties":{"density":2},"geometry":{"type":"Polygon","coordinates":[[[-96.427,57.443],[-96.598,57.467],[-96.675,57.452],[-96.737,57.409],[-96.765,57.371],[-96.77,57.324],[-96.708,57.262],[-96.622,57.223],[-96.35,57.142],[-96.121,57.109],[-95.883,57.014],[-95.821,56.995],[-95.773,56.999],[-95.773,57.042],[-95.816,57.118],[-95.907,57.233],[-96.093,57.352],[-96.369,57.433],[-96.427,57.443]]]}},{"type":"Feature","properties":{"density":2},"geometry":{"type":"Polygon","coordinates":[[[-103.999,57.619],[-104.132,57.624],[-104.767,57.786],[-104.862,57.853],[-104.867,57.905],[-104.843,57.929],[-104.643,57.953],[-104.094,57.881],[-104.042,57.829],[-103.98,57.71],[-103.956,57.653],[-103.965,57.629],[-103.999,57.619]]]}},{"type":"Feature","properties":{"density":2},"geometry":{"type":"Polygon","coordinates":[[[-94.182,54.024],[-94.297,54.11],[-94.559,54.148],[-94.955,54.153],[-95.474,54.134],[-95.689,54.115],[-95.699,54.076],[-95.699,54.057],[-95.627,53.981],[-95.293,53.952],[-95.112,53.914],[-94.816,53.905],[-94.478,53.952],[-94.216,53.962],[-94.192,53.991],[-94.182,54.024]]]}},{"type":"Feature","properties":{"density":2},"geometry":{"type":"Polygon","coordinates":[[[-112.164,36.246],[-112.19,36.533],[-112.177,36.78],[-111.904,36.936],[-111.54,36.975],[-110.511,37.027],[-110.095,37.001],[-109.965,36.962],[-109.9,36.871],[-109.952,36.78],[-110.29,36.663],[-111.019,36.493],[-111.605,36.311],[-111.787,36.272],[-112.06,36.324],[-112.164,36.246]]]}},{"type":"Feature","properties":{"density":2},"geometry":{"type":"Polygon","coordinates":[[[-112.179,38.492],[-112.246,38.7],[-112.212,38.816],[-112.046,39.133],[-111.912,39.491],[-111.837,39.608],[-111.721,39.633],[-111.646,39.616],[-111.613,39.516],[-111.629,39.116],[-111.713,38.858],[-111.771,38.75],[-111.971,38.517],[-112.179,38.492]]]}},{"type":"Feature","properties":{"density":2},"geometry":{"type":"Polygon","coordinates":[[[-120.23,35.093],[-120.139,35.197],[-119.879,35.223],[-119.658,35.197],[-119.371,35.197],[-119.072,35.119],[-118.838,34.91],[-118.773,34.676],[-118.89,34.52],[-119.111,34.312],[-119.397,34.077],[-119.853,34.051],[-120.009,34.156],[-120.113,34.338],[-120.243,34.663],[-120.282,34.95],[-120.217,35.041],[-120.23,35.093]]]}},{"type":"Feature","properties":{"density":2},"geometry":{"type":"Polygon","coordinates":[[[-120.199,35.102],[-120.284,34.734],[-120.257,34.633],[-120.049,34.308],[-119.927,34.297],[-119.831,34.334],[-119.676,34.356],[-119.404,34.5],[-119.34,34.612],[-119.33,34.75],[-119.404,34.915],[-119.474,35.001],[-119.682,35.145],[-119.852,35.203],[-120.007,35.161],[-120.199,35.102]]]}},{"type":"Feature","properties":{"density":3},"geometry":{"type":"Polygon","coordinates":[[[-95.267,54.503],[-95.332,54.518],[-95.565,54.515],[-95.698,54.469],[-95.771,54.419],[-95.755,54.393],[-95.736,54.393],[-95.534,54.45],[-95.294,54.461],[-95.267,54.476],[-95.267,54.503]]]}},{"type":"Feature","properties":{"density":3},"geometry":{"type":"Polygon","coordinates":[[[-100.312,57.367],[-100.586,57.444],[-100.944,57.665],[-101.051,57.82],[-101.057,57.993],[-101.009,58.016],[-100.95,58.004],[-100.848,57.951],[-100.574,57.73],[-100.395,57.623],[-100.234,57.498],[-100.169,57.468],[-100.133,57.408],[-100.133,57.379],[-100.33,57.373],[-100.312,57.367]]]}},{"type":"Feature","properties":{"density":3},"geometry":{"type":"Polygon","coordinates":[[[-98.381,56.103],[-98.905,56.204],[-99.31,56.341],[-99.412,56.437],[-99.597,56.538],[-101.265,56.967],[-102.082,57.253],[-103.042,57.7],[-103.489,57.957],[-103.602,57.969],[-103.715,57.939],[-103.811,57.826],[-103.876,57.593],[-103.846,57.45],[-103.679,57.188],[-102.982,56.544],[-102.63,56.27],[-102.177,56.049],[-101.736,55.912],[-100.985,55.763],[-99.763,55.769],[-99.197,55.734],[-99.078,55.781],[-99.096,55.835],[-99.501,55.954],[-99.626,55.954],[-99.757,55.972],[-99.811,55.996],[-99.799,56.02],[-99.668,56.02],[-99.418,55.978],[-98.834,55.93],[-98.482,55.96],[-98.363,55.99],[-98.381,56.103]]]}},{"type":"Feature","properties":{"density":3},"geometry":{"type":"Polygon","coordinates":[[[-112.227,36.285],[-112.203,36.321],[-112.084,36.369],[-111.893,36.482],[-111.905,36.512],[-112.138,36.535],[-112.149,36.595],[-112.072,36.655],[-111.893,36.72],[-111.655,36.875],[-111.422,36.953],[-111.237,36.959],[-111.023,36.899],[-110.814,36.81],[-110.486,36.613],[-110.415,36.506],[-110.385,36.41],[-110.409,36.351],[-110.498,36.321],[-110.916,36.458],[-111.482,36.452],[-111.756,36.47],[-111.863,36.38],[-111.822,36.357],[-111.762,36.357],[-111.679,36.309],[-111.667,36.267],[-111.744,36.231],[-111.857,36.22],[-111.994,36.184],[-112.143,36.214],[-112.227,36.285]]]}},{"type":"Feature","properties":{"density":3},"geometry":{"type":"Polygon","coordinates":[[[-111.919,38.628],[-111.853,38.647],[-111.776,38.647],[-111.7,38.623],[-111.619,38.585],[-111.567,38.518],[-111.562,38.48],[-111.586,38.456],[-111.667,38.452],[-111.752,38.504],[-111.848,38.538],[-111.896,38.538],[-111.91,38.514],[-111.853,38.495],[-111.8,38.399],[-111.8,38.385],[-111.829,38.371],[-111.929,38.418],[-112.0,38.476],[-112.105,38.509],[-112.115,38.533],[-112.081,38.566],[-111.977,38.609],[-111.919,38.628]]]}},{"type":"Feature","properties":{"density":3},"geometry":{"type":"Polygon","coordinates":[[[-107.433,36.914],[-107.276,36.952],[-107.269,37.009],[-107.303,37.04],[-107.452,37.013],[-107.49,36.971],[-107.482,36.933],[-107.433,36.914]]]}},{"type":"Feature","properties":{"density":3},"geometry":{"type":"Polygon","coordinates":[[[-116.154,48.28],[-116.166,48.316],[-116.108,48.393],[-116.032,48.438],[-115.992,48.441],[-115.971,48.426],[-115.968,48.39],[-115.989,48.362],[-116.087,48.283],[-116.133,48.271],[-116.154,48.28]]]}},{"type":"Feature","properties":{"density":3},"geometry":{"type":"Polygon","coordinates":[[[-112.411,46.866],[-112.339,46.952],[-112.306,47.042],[-112.206,47.143],[-111.977,47.224],[-111.848,47.224],[-111.686,47.152],[-111.686,47.114],[-111.757,47.066],[-111.982,46.971],[-112.053,46.856],[-111.848,46.761],[-111.638,46.637],[-111.333,46.694],[-111.104,46.666],[-110.875,46.494],[-110.627,46.427],[-110.57,46.322],[-110.584,46.299],[-110.904,46.294],[-110.99,46.322],[-111.2,46.489],[-111.295,46.527],[-111.438,46.518],[-111.529,46.489],[-111.672,46.475],[-111.762,46.523],[-111.92,46.575],[-112.249,46.604],[-112.377,46.594],[-112.439,46.661],[-112.449,46.818],[-112.411,46.866]]]}},{"type":"Feature","properties":{"density":3},"geometry":{"type":"Polygon","coordinates":[[[-110.365,47.171],[-110.093,47.147],[-110.026,47.195],[-110.036,47.305],[-110.103,47.39],[-110.174,47.395],[-110.27,47.362],[-110.346,47.386],[-110.394,47.429],[-110.508,47.452],[-110.551,47.419],[-110.541,47.371],[-110.456,47.252],[-110.365,47.171]]]}},{"type":"Feature","properties":{"density":3},"geometry":{"type":"Polygon","coordinates":[[[-123.002,41.279],[-122.973,41.297],[-122.97,41.336],[-122.982,41.397],[-123.002,41.409],[-123.024,41.399],[-123.029,41.353],[-123.068,41.297],[-123.012,41.275],[-123.002,41.279]]]}},{"type":"Feature","properties":{"density":3},"geometry":{"type":"Polygon","coordinates":[[[-116.934,41.313],[-116.884,41.324],[-116.876,41.366],[-116.884,41.542],[-116.93,41.58],[-116.96,41.542],[-116.979,41.473],[-116.972,41.351],[-116.956,41.332],[-116.934,41.313]]]}},{"type":"Feature","properties":{"density":3},"geometry":{"type":"Polygon","coordinates":[[[-120.015,35.09],[-120.039,35.139],[-120.079,35.175],[-120.128,35.187],[-120.213,35.169],[-120.283,35.123],[-120.317,35.09],[-120.329,35.026],[-120.314,34.986],[-120.219,34.897],[-120.164,34.882],[-120.14,34.885],[-120.036,34.986],[-119.987,35.004],[-119.984,35.041],[-120.015,35.09]]]}},{"type":"Feature","properties":{"density":3},"geometry":{"type":"Polygon","coordinates":[[[-109.614,54.399],[-110.142,54.58],[-110.87,54.999],[-111.506,55.417],[-112.616,56.272],[-113.198,56.509],[-113.616,56.472],[-113.98,56.418],[-114.762,56.418],[-115.071,56.709],[-115.181,57.163],[-114.871,57.545],[-114.144,58.037],[-113.798,58.855],[-113.343,59.31],[-112.579,59.565],[-112.216,59.565],[-111.27,59.328],[-110.688,59.328],[-110.051,59.455],[-109.214,59.51],[-108.468,59.601],[-107.777,59.728],[-107.541,59.728],[-106.995,59.619],[-106.922,59.637],[-106.868,59.492],[-106.886,59.328],[-107.159,58.91],[-107.468,58.509],[-107.523,58.218],[-107.486,57.964],[-107.05,57.836],[-106.522,57.8],[-104.885,57.491],[-103.303,56.727],[-100.028,55.254],[-98.973,54.962],[-97.555,54.617],[-95.917,54.362],[-92.48,53.58],[-90.897,53.307],[-87.423,52.634],[-84.167,51.895],[-79.352,50.576],[-76.851,50.604],[-75.345,50.576],[-73.412,50.832],[-72.531,51.173],[-71.906,51.002],[-71.792,50.434],[-71.849,50.036],[-72.417,49.695],[-74.151,48.956],[-78.647,48.811],[-81.558,49.493],[-83.9,49.857],[-90.239,50.693],[-91.057,50.693],[-91.803,50.584],[-92.785,50.53],[-96.442,51.657],[-96.878,51.857],[-97.06,52.003],[-97.497,52.603],[-98.151,52.731],[-98.897,52.84],[-100.371,53.022],[-101.426,53.022],[-101.589,53.04],[-101.88,52.949],[-102.153,52.912],[-102.553,53.003],[-103.39,53.367],[-104.281,53.513],[-105.245,53.767],[-106.137,53.877],[-106.846,54.004],[-109.011,54.277],[-109.614,54.399]]]}},{"type":"Feature","properties":{"density":3},"geometry":{"type":"Polygon","coordinates":[[[-115.451,46.048],[-115.454,46.115],[-115.39,46.201],[-115.311,46.24],[-115.259,46.246],[-115.241,46.234],[-115.21,46.194],[-115.219,46.161],[-115.308,46.118],[-115.363,46.042],[-115.415,46.03],[-115.451,46.048]]]}},{"type":"Feature","properties":{"density":3},"geometry":{"type":"Polygon","coordinates":[[[-124.554,49.322],[-124.645,49.319],[-124.719,49.277],[-124.712,49.231],[-124.673,49.234],[-124.633,49.271],[-124.523,49.28],[-124.52,49.31],[-124.539,49.328],[-124.554,49.322]]]}},{"type":"Feature","properties":{"density":3},"geometry":{"type":"Polygon","coordinates":[[[-123.011,41.289],[-123.02,41.333],[-122.991,41.369],[-122.937,41.296],[-122.937,41.279],[-122.984,41.286],[-123.011,41.289]]]}},{"type":"Feature","properties":{"density":3},"geometry":{"type":"Polygon","coordinates":[[[-115.447,46.039],[-115.459,46.081],[-115.503,46.101],[-115.517,46.14],[-115.517,46.154],[-115.466,46.179],[-115.405,46.174],[-115.364,46.149],[-115.361,46.115],[-115.415,46.035],[-115.447,46.039]]]}},{"type":"Feature","properties":{"density":3},"geometry":{"type":"Polygon","coordinates":[[[-96.47,57.433],[-96.651,57.424],[-96.698,57.4],[-96.718,57.366],[-96.703,57.309],[-96.646,57.242],[-96.474,57.19],[-96.236,57.209],[-96.16,57.242],[-96.15,57.276],[-96.164,57.309],[-96.408,57.424],[-96.47,57.433]]]}},{"type":"Feature","properties":{"density":3},"geometry":{"type":"Polygon","coordinates":[[[-95.586,51.079],[-95.638,51.149],[-95.668,51.549],[-95.632,51.632],[-95.522,51.668],[-95.485,51.604],[-95.461,51.369],[-95.513,51.079],[-95.546,51.055],[-95.586,51.073],[-95.586,51.079]]]}},{"type":"Feature","properties":{"density":3},"geometry":{"type":"Polygon","coordinates":[[[-95.287,51.024],[-95.369,51.061],[-95.397,51.134],[-95.387,51.51],[-95.36,51.589],[-95.299,51.641],[-95.223,51.656],[-95.162,51.638],[-95.119,51.58],[-95.094,51.503],[-95.088,51.314],[-95.094,51.119],[-95.143,51.037],[-95.238,51.012],[-95.287,51.024]]]}},{"type":"Feature","properties":{"density":3},"geometry":{"type":"Polygon","coordinates":[[[-120.215,35.129],[-120.209,35.022],[-120.172,34.915],[-120.236,34.676],[-120.172,34.457],[-120.028,34.446],[-119.895,34.478],[-119.783,34.553],[-119.746,34.622],[-119.751,34.702],[-119.794,34.899],[-119.868,35.097],[-119.991,35.182],[-120.044,35.182],[-120.215,35.129]]]}}]}