{"type":"FeatureCollection","features":[{"type":"Feature","properties":{"density":1},"geometry":{"type":"Polygon","coordinates":[[[-145.693,68.871],[-148.628,67.893],[-149.769,66.263],[-150.095,64.143],[-149.117,61.861],[-146.671,60.72],[-142.921,60.067],[-139.334,59.741],[-135.259,56.807],[-131.835,54.524],[-129.552,53.709],[-123.194,53.383],[-114.716,53.22],[-105.911,53.383],[-101.346,52.241],[-97.759,49.959],[-93.683,45.72],[-89.444,43.926],[-84.064,43.437],[-77.543,43.274],[-67.108,43.437],[-58.304,45.068],[-52.435,46.698],[-48.195,48.165],[-42.326,49.307],[-38.413,50.611],[-36.131,52.731],[-36.294,55.665],[-37.761,57.459],[-41.022,58.926],[-46.239,58.926],[-53.902,56.807],[-63.358,54.524],[-69.065,53.057],[-73.956,51.752],[-79.499,51.915],[-86.021,55.502],[-89.934,59.415],[-94.173,60.72],[-102.814,60.883],[-107.216,60.883],[-109.335,62.35],[-111.618,63.654],[-118.139,64.959],[-121.726,64.959],[-127.107,65.122],[-133.139,66.1],[-139.661,67.73],[-140.965,68.219],[-145.693,68.871]]]}},{"type":"Feature","properties":{"density":1},"geometry":{"type":"Polygon","coordinates":[[[-123.352,41.424],[-123.611,41.384],[-123.652,41.097],[-123.393,40.797],[-122.656,40.797],[-122.043,41.261],[-121.116,41.574],[-120.447,41.438],[-119.67,41.615],[-119.152,41.793],[-118.675,41.983],[-118.389,42.243],[-118.429,42.406],[-118.77,42.433],[-120.516,42.338],[-121.334,42.133],[-122.684,41.684],[-123.093,41.465],[-123.352,41.424]]]}},{"type":"Feature","properties":{"density":1},"geometry":{"type":"Polygon","coordinates":[[[-112.055,36.038],[-112.564,36.384],[-112.646,36.933],[-112.483,37.645],[-111.852,38.093],[-111.282,38.317],[-110.713,38.337],[-110.469,38.154],[-110.489,37.767],[-110.713,37.157],[-111.059,36.607],[-111.445,36.14],[-111.974,36.038],[-112.055,36.038]]]}},{"type":"Feature","properties":{"density":1},"geometry":{"type":"Polygon","coordinates":[[[-82.272,29.2],[-82.219,29.215],[-82.117,29.184],[-82.012,29.132],[-81.992,29.086],[-82.049,29.075],[-82.104,29.088],[-82.259,29.189],[-82.272,29.2]]]}},{"type":"Feature","properties":{"density":1},"geometry":{"type":"Polygon","coordinates":[[[-84.841,29.815],[-84.846,29.839],[-84.808,29.845],[-84.824,29.817],[-84.841,29.815]]]}},{"type":"Feature","properties":{"density":1},"geometry":{"type":"Polygon","coordinates":[[[-54.06,49.337],[-54.116,49.418],[-54.043,49.529],[-53.86,49.666],[-53.561,49.776],[-53.075,49.853],[-52.9,49.896],[-52.508,49.904],[-52.111,49.96],[-51.924,50.066],[-51.638,50.177],[-51.19,50.391],[-50.909,50.501],[-50.815,50.501],[-50.721,50.48],[-50.58,50.412],[-50.495,50.327],[-50.29,50.207],[-50.175,50.173],[-50.09,50.203],[-50.051,50.305],[-49.957,50.369],[-49.684,50.51],[-49.292,50.582],[-49.237,50.578],[-49.096,50.553],[-49.028,50.523],[-48.947,50.476],[-48.908,50.408],[-48.9,50.356],[-48.913,50.284],[-48.959,50.203],[-49.245,49.943],[-49.493,49.811],[-49.902,49.546],[-50.09,49.478],[-50.247,49.495],[-50.478,49.559],[-50.61,49.567],[-50.862,49.469],[-50.998,49.461],[-51.13,49.503],[-51.327,49.516],[-51.501,49.474],[-51.698,49.367],[-51.915,49.312],[-52.052,49.346],[-52.167,49.405],[-52.371,49.469],[-52.964,49.478],[-53.766,49.397],[-53.984,49.32],[-54.06,49.337]]]}},{"type":"Feature","properties":{"density":1},"geometry":{"type":"Polygon","coordinates":[[[-53.784,48.469],[-53.777,48.52],[-53.698,48.639],[-53.412,48.786],[-52.876,48.997],[-51.654,49.584],[-51.259,49.707],[-51.003,49.741],[-50.812,49.707],[-50.685,49.608],[-50.484,49.158],[-50.44,49.025],[-50.344,48.854],[-50.355,48.724],[-50.436,48.663],[-50.631,48.646],[-51.3,48.69],[-51.549,48.735],[-51.805,48.759],[-52.105,48.765],[-52.333,48.697],[-52.637,48.639],[-53.088,48.492],[-53.418,48.441],[-53.746,48.438],[-53.784,48.469]]]}},{"type":"Feature","properties":{"density":1},"geometry":{"type":"Polygon","coordinates":[[[-133.486,66.896],[-133.529,66.989],[-133.633,67.063],[-133.78,67.084],[-134.198,67.057],[-134.348,67.065],[-134.49,67.084],[-134.659,67.153],[-134.758,67.175],[-134.829,67.123],[-134.85,67.076],[-134.668,66.975],[-134.545,66.934],[-134.236,66.877],[-134.059,66.76],[-133.84,66.749],[-133.619,66.795],[-133.54,66.822],[-133.491,66.866],[-133.486,66.896]]]}},{"type":"Feature","properties":{"density":1},"geometry":{"type":"Polygon","coordinates":[[[-134.37,66.683],[-134.476,66.656],[-134.613,66.661],[-134.804,66.708],[-134.94,66.782],[-135.009,66.844],[-135.05,66.962],[-135.003,66.986],[-134.905,66.981],[-134.747,66.907],[-134.61,66.803],[-134.528,66.784],[-134.392,66.792],[-134.28,66.773],[-134.264,66.749],[-134.274,66.721],[-134.324,66.697],[-134.37,66.683]]]}},{"type":"Feature","properties":{"density":1},"geometry":{"type":"Polygon","coordinates":[[[-139.745,63.5],[-139.628,63.638],[-139.559,63.649],[-139.137,63.649],[-138.817,63.606],[-138.236,63.42],[-137.773,63.239],[-137.415,63.073],[-137.053,63.02],[-136.61,62.876],[-136.157,62.865],[-135.784,62.908],[-135.262,63.015],[-134.99,63.004],[-134.59,62.945],[-134.243,62.839],[-133.934,62.69],[-133.71,62.524],[-133.62,62.354],[-133.593,62.092],[-133.705,61.789],[-133.859,61.522],[-134.179,61.207],[-134.531,60.994],[-135.006,60.797],[-135.485,60.653],[-135.987,60.546],[-136.429,60.493],[-136.994,60.578],[-137.97,60.813],[-138.22,61.005],[-138.284,61.106],[-138.423,61.506],[-138.423,61.746],[-138.46,61.991],[-138.572,62.22],[-138.69,62.386],[-139.02,62.53],[-139.697,62.722],[-139.798,62.796],[-139.836,62.919],[-139.846,63.02],[-139.814,63.313],[-139.745,63.5]]]}},{"type":"Feature","properties":{"density":1},"geometry":{"type":"Polygon","coordinates":[[[-140.891,62.514],[-140.891,62.588],[-140.827,62.658],[-140.667,62.684],[-140.209,62.631],[-139.894,62.626],[-139.665,62.636],[-139.484,62.679],[-139.335,62.69],[-139.212,62.642],[-139.196,62.562],[-139.212,62.498],[-139.26,62.428],[-139.425,62.343],[-139.66,62.258],[-139.964,62.199],[-140.236,62.199],[-140.561,62.247],[-140.859,62.423],[-140.891,62.514]]]}},{"type":"Feature","properties":{"density":1},"geometry":{"type":"Polygon","coordinates":[[[-144.337,67.5],[-144.477,67.567],[-144.917,67.574],[-145.45,67.5],[-146.016,67.347],[-146.983,67.02],[-147.728,66.917],[-148.3,66.75],[-148.623,66.594],[-148.634,66.531],[-148.571,66.396],[-148.394,66.323],[-148.04,66.302],[-147.686,66.323],[-146.791,66.427],[-146.374,66.51],[-146.031,66.604],[-145.27,67.0],[-145.083,67.083],[-144.687,67.156],[-144.427,67.281],[-144.365,67.354],[-144.337,67.5]]]}},{"type":"Feature","properties":{"density":1},"geometry":{"type":"Polygon","coordinates":[[[-123.896,41.11],[-123.803,41.239],[-123.792,41.386],[-123.765,41.451],[-123.686,41.533],[-123.429,41.629],[-123.102,41.651],[-122.971,41.637],[-122.815,41.572],[-122.728,41.558],[-122.556,41.563],[-122.436,41.528],[-122.378,41.432],[-122.376,41.271],[-122.496,40.977],[-122.594,40.87],[-122.758,40.736],[-122.837,40.578],[-122.897,40.518],[-122.932,40.504],[-123.093,40.575],[-123.205,40.712],[-123.265,40.854],[-123.309,40.914],[-123.369,40.946],[-123.413,40.916],[-123.44,40.848],[-123.448,40.799],[-123.413,40.619],[-123.462,40.534],[-123.492,40.518],[-123.552,40.523],[-123.618,40.559],[-123.877,40.922],[-123.975,40.974],[-123.975,41.02],[-123.945,41.067],[-123.896,41.11]]]}},{"type":"Feature","properties":{"density":1},"geometry":{"type":"Polygon","coordinates":[[[-122.029,40.788],[-122.247,40.583],[-122.315,40.542],[-122.425,40.515],[-122.482,40.548],[-122.49,40.603],[-122.408,40.723],[-122.25,40.906],[-122.198,41.091],[-122.146,41.143],[-122.01,41.195],[-121.862,41.162],[-121.808,41.097],[-121.816,40.987],[-121.846,40.938],[-121.988,40.807],[-122.029,40.788]]]}},{"type":"Feature","properties":{"density":1},"geometry":{"type":"Polygon","coordinates":[[[-120.016,37.484],[-119.988,37.485],[-119.957,37.542],[-119.994,37.662],[-120.106,37.743],[-120.191,37.754],[-120.213,37.725],[-120.204,37.677],[-120.031,37.494],[-120.016,37.484]]]}},{"type":"Feature","properties":{"density":1},"geometry":{"type":"Polygon","coordinates":[[[-116.455,37.035],[-116.433,37.028],[-116.396,37.056],[-116.411,37.238],[-116.461,37.284],[-116.498,37.264],[-116.509,37.179],[-116.483,37.054],[-116.455,37.035]]]}},{"type":"Feature","properties":{"density":1},"geometry":{"type":"Polygon","coordinates":[[[-117.764,47.843],[-117.884,47.985],[-117.92,48.065],[-117.915,48.155],[-117.865,48.231],[-117.786,48.31],[-117.732,48.526],[-117.652,48.572],[-117.502,48.561],[-117.431,48.482],[-117.418,48.351],[-117.541,48.176],[-117.562,48.018],[-117.592,47.928],[-117.642,47.865],[-117.729,47.83],[-117.764,47.843]]]}},{"type":"Feature","properties":{"density":1},"geometry":{"type":"Polygon","coordinates":[[[-112.095,36.169],[-112.139,36.184],[-112.187,36.254],[-112.194,36.298],[-112.18,36.35],[-112.141,36.42],[-112.076,36.481],[-112.004,36.51],[-111.794,36.488],[-111.488,36.239],[-111.331,36.002],[-111.189,35.852],[-111.143,35.767],[-111.154,35.713],[-111.189,35.691],[-111.261,35.689],[-111.372,35.73],[-111.687,35.999],[-111.785,36.04],[-111.934,36.073],[-112.056,36.14],[-112.095,36.169]]]}},{"type":"Feature","properties":{"density":1},"geometry":{"type":"Polygon","coordinates":[[[-84.854,29.811],[-84.832,29.866],[-84.631,29.995],[-84.507,30.054],[-84.384,30.088],[-84.308,30.032],[-84.208,29.774],[-84.214,29.698],[-84.242,29.643],[-84.284,29.608],[-84.515,29.519],[-84.596,29.519],[-84.633,29.573],[-84.653,29.654],[-84.596,29.811],[-84.594,29.868],[-84.638,29.857],[-84.743,29.783],[-84.828,29.781],[-84.854,29.811]]]}},{"type":"Feature","properties":{"density":1},"geometry":{"type":"Polygon","coordinates":[[[-54.1,49.338],[-54.134,49.378],[-54.147,49.472],[-54.06,49.605],[-53.88,49.792],[-53.54,49.971],[-52.154,50.345],[-51.288,50.331],[-51.141,50.298],[-50.608,50.398],[-49.429,50.725],[-48.716,50.904],[-48.582,50.904],[-48.482,50.871],[-48.109,50.818],[-47.516,50.964],[-47.323,50.991],[-47.07,50.931],[-46.943,50.824],[-46.916,50.625],[-46.956,50.458],[-47.103,50.318],[-47.276,50.231],[-47.643,50.091],[-48.016,49.865],[-48.309,49.718],[-48.682,49.645],[-48.956,49.498],[-49.149,49.352],[-49.635,49.178],[-50.082,49.132],[-50.855,49.085],[-51.828,49.405],[-52.014,49.418],[-52.601,49.405],[-52.981,49.372],[-53.634,49.245],[-53.787,49.225],[-53.96,49.238],[-54.1,49.338]]]}},{"type":"Feature","properties":{"density":1},"geometry":{"type":"Polygon","coordinates":[[[-98.37,35.033],[-98.44,35.107],[-98.455,35.171],[-98.418,35.271],[-98.448,35.487],[-98.394,35.544],[-98.35,35.546],[-98.304,35.514],[-98.283,35.461],[-98.232,35.28],[-98.228,35.184],[-98.248,35.12],[-98.315,35.037],[-98.335,35.033],[-98.37,35.033]]]}},{"type":"Feature","properties":{"density":1},"geometry":{"type":"Polygon","coordinates":[[[-108.373,33.005],[-108.416,33.068],[-108.419,33.101],[-108.362,33.184],[-108.224,33.289],[-108.139,33.304],[-108.117,33.261],[-108.161,33.162],[-108.194,33.121],[-108.344,33.012],[-108.373,33.005]]]}},{"type":"Feature","properties":{"density":1},"geometry":{"type":"Polygon","coordinates":[[[-112.094,36.167],[-112.152,36.201],[-112.193,36.265],[-112.196,36.347],[-112.097,36.545],[-111.954,36.631],[-111.841,36.678],[-111.742,36.685],[-111.643,36.637],[-111.568,36.559],[-111.493,36.419],[-111.487,36.194],[-111.541,36.139],[-111.65,36.126],[-111.886,36.17],[-112.043,36.146],[-112.094,36.167]]]}},{"type":"Feature","properties":{"density":1},"geometry":{"type":"Polygon","coordinates":[[[-116.424,37.022],[-116.467,37.026],[-116.549,37.069],[-116.597,37.182],[-116.665,37.536],[-116.665,37.704],[-116.641,37.826],[-116.6,37.933],[-116.552,37.975],[-116.493,37.986],[-116.429,37.981],[-116.392,37.944],[-116.344,37.853],[-116.338,37.523],[-116.364,37.189],[-116.377,37.071],[-116.41,37.036],[-116.424,37.022]]]}},{"type":"Feature","properties":{"density":1},"geometry":{"type":"Polygon","coordinates":[[[-123.807,40.718],[-123.823,40.852],[-123.738,41.022],[-123.727,41.156],[-123.759,41.278],[-123.86,41.417],[-123.876,41.476],[-123.796,41.774],[-123.69,41.929],[-123.519,42.035],[-123.194,42.126],[-123.151,42.121],[-123.002,41.977],[-122.89,41.971],[-122.735,41.982],[-122.469,42.057],[-122.08,42.099],[-121.818,42.19],[-119.214,42.944],[-118.381,43.218],[-116.78,43.491],[-115.934,43.595],[-115.479,43.595],[-114.672,43.517],[-114.451,43.374],[-114.347,43.204],[-114.36,43.113],[-114.503,42.84],[-114.646,42.671],[-114.906,42.528],[-115.609,42.463],[-116.833,42.215],[-117.392,42.02],[-117.965,41.877],[-118.277,41.76],[-118.746,41.682],[-119.11,41.591],[-119.631,41.63],[-120.126,41.63],[-121.068,41.266],[-121.527,41.063],[-121.905,40.738],[-122.039,40.674],[-122.449,40.642],[-122.598,40.605],[-122.753,40.509],[-122.849,40.407],[-122.924,40.37],[-123.105,40.338],[-123.307,40.333],[-123.494,40.37],[-123.622,40.445],[-123.702,40.525],[-123.807,40.718]]]}},{"type":"Feature","properties":{"density":1},"geometry":{"type":"Polygon","coordinates":[[[-121.474,39.409],[-121.515,39.444],[-121.543,39.497],[-121.552,39.525],[-121.537,39.558],[-121.358,39.728],[-121.253,39.767],[-121.19,39.719],[-121.196,39.66],[-121.26,39.569],[-121.34,39.518],[-121.417,39.411],[-121.445,39.403],[-121.474,39.409]]]}},{"type":"Feature","properties":{"density":1},"geometry":{"type":"Polygon","coordinates":[[[-120.004,37.487],[-120.239,37.645],[-120.307,37.743],[-120.37,37.877],[-120.381,37.951],[-120.376,38.013],[-120.332,38.046],[-120.196,38.065],[-119.723,38.071],[-119.677,38.035],[-119.661,37.978],[-119.666,37.915],[-119.83,37.653],[-119.958,37.495],[-120.004,37.487]]]}},{"type":"Feature","properties":{"density":1},"geometry":{"type":"Polygon","coordinates":[[[-144.401,63.498],[-147.249,64.393],[-149.12,64.902],[-150.279,65.634],[-150.808,66.325],[-151.011,66.813],[-150.909,67.2],[-150.624,67.525],[-150.014,67.769],[-149.038,67.952],[-147.432,68.074],[-144.788,68.481],[-141.534,68.664],[-139.785,68.664],[-135.29,68.481],[-132.658,67.808],[-130.656,66.823],[-128.845,66.441],[-126.398,65.996],[-121.568,65.583],[-118.152,65.618],[-109.165,65.469],[-101.898,65.424],[-97.15,65.32],[-94.022,65.072],[-92.016,65.424],[-90.387,65.901],[-88.918,66.378],[-87.25,66.616],[-81.659,68.299],[-79.325,68.845],[-76.942,69.044],[-72.672,69.292],[-69.693,69.54],[-65.771,69.292],[-59.366,68.696],[-56.536,68.349],[-54.252,67.554],[-53.06,66.909],[-51.62,65.419],[-49.535,63.781],[-48.145,62.142],[-45.761,60.951],[-42.484,60.057],[-39.505,59.511],[-36.477,58.716],[-34.342,58.269],[-31.76,57.227],[-30.171,56.035],[-29.476,54.695],[-28.98,53.304],[-29.029,51.567],[-29.675,50.325],[-30.469,49.084],[-33.15,48.091],[-38.612,47.743],[-43.329,47.694],[-46.258,47.396],[-52.315,47.247],[-54.301,47.346],[-57.529,47.843],[-61.252,48.29],[-63.536,48.19],[-64.728,47.644],[-67.359,46.75],[-69.594,45.41],[-73.615,44.268],[-76.892,42.58],[-79.176,42.083],[-82.106,42.034],[-85.581,42.729],[-88.858,43.325],[-92.036,44.715],[-95.263,45.757],[-99.434,48.538],[-101.271,50.574],[-102.909,51.815],[-104.895,52.46],[-110.506,53.304],[-114.18,52.907],[-117.556,52.907],[-120.684,52.609],[-124.259,52.46],[-128.926,53.354],[-131.707,55.737],[-134.239,57.972],[-137.913,60.355],[-140.495,61.695],[-143.375,63.086],[-144.401,63.498]]]}},{"type":"Feature","properties":{"density":1},"geometry":{"type":"Polygon","coordinates":[[[-92.008,18.465],[-92.029,18.375],[-92.025,18.269],[-91.965,17.999],[-91.985,17.885],[-92.298,17.625],[-92.871,17.479],[-93.287,17.25],[-93.433,17.114],[-93.589,16.927],[-93.724,16.75],[-93.839,16.563],[-94.162,16.427],[-94.432,16.386],[-94.995,16.458],[-95.526,16.76],[-95.838,17.094],[-96.005,17.302],[-96.036,17.406],[-95.963,17.593],[-95.567,17.895],[-95.432,18.072],[-95.411,18.291],[-95.547,18.603],[-95.755,18.78],[-96.286,19.301],[-96.39,19.645],[-96.359,19.801],[-96.244,19.926],[-96.119,19.999],[-95.467,20.649],[-95.168,20.908],[-94.884,21.091],[-94.484,21.241],[-93.81,21.374],[-93.468,21.349],[-93.077,21.291],[-92.81,21.174],[-92.544,20.924],[-92.41,20.758],[-92.252,20.458],[-92.219,20.233],[-92.144,20.016],[-91.994,19.766],[-91.536,19.442],[-91.336,19.267],[-91.261,19.075],[-91.269,18.9],[-91.386,18.733],[-91.509,18.597],[-91.667,18.533],[-91.914,18.49],[-92.008,18.465]]]}},{"type":"Feature","properties":{"density":1},"geometry":{"type":"Polygon","coordinates":[[[-104.159,19.456],[-104.524,19.675],[-104.659,19.779],[-104.773,19.8],[-104.94,19.758],[-104.971,19.612],[-104.982,19.258],[-104.711,18.55],[-104.742,18.207],[-104.898,17.696],[-104.742,17.499],[-104.43,17.446],[-104.024,17.426],[-103.389,17.446],[-103.055,17.405],[-102.91,17.259],[-102.858,16.999],[-103.014,16.603],[-102.983,16.312],[-102.889,16.249],[-102.587,16.228],[-102.316,16.343],[-101.639,16.718],[-101.317,16.853],[-101.212,17.072],[-101.223,17.311],[-101.264,17.551],[-101.452,17.79],[-101.816,18.05],[-102.014,18.155],[-102.681,18.311],[-102.962,18.436],[-103.284,18.727],[-103.462,18.946],[-103.878,19.321],[-104.159,19.456]]]}},{"type":"Feature","properties":{"density":2},"geometry":{"type":"Polygon","coordinates":[[[-120.263,58.736],[-121.947,58.296],[-122.899,56.978],[-122.606,55.514],[-121.435,54.342],[-118.579,54.269],[-116.089,54.415],[-113.013,54.488],[-105.325,54.269],[-101.59,53.244],[-98.954,52.292],[-96.83,51.266],[-95.585,49.875],[-93.535,48.777],[-91.338,48.777],[-90.167,50.388],[-89.215,53.903],[-88.995,56.173],[-89.141,57.93],[-90.46,59.541],[-92.217,59.907],[-93.901,60.713],[-94.926,60.566],[-95.878,60.054],[-100.931,59.541],[-104.812,59.395],[-110.89,59.834],[-114.039,59.321],[-116.528,59.029],[-118.359,59.175],[-120.263,58.736]]]}},{"type":"Feature","properties":{"density":2},"geometry":{"type":"Polygon","coordinates":[[[-54.069,49.38],[-53.847,49.555],[-53.446,49.683],[-52.93,49.811],[-52.67,49.828],[-52.15,49.776],[-52.03,49.717],[-51.715,49.721],[-51.412,49.755],[-51.28,49.887],[-50.721,50.275],[-50.627,50.275],[-50.52,50.237],[-50.324,50.101],[-50.209,50.075],[-50.085,50.083],[-49.945,50.147],[-49.872,50.241],[-49.766,50.263],[-49.77,50.182],[-49.911,50.028],[-49.996,49.977],[-49.979,49.87],[-50.051,49.793],[-50.243,49.747],[-50.478,49.751],[-50.567,49.84],[-50.614,49.938],[-50.785,49.985],[-50.913,49.968],[-51.066,49.849],[-51.126,49.742],[-51.331,49.559],[-51.672,49.414],[-51.864,49.375],[-51.996,49.388],[-52.427,49.533],[-52.7,49.525],[-53.079,49.542],[-53.374,49.516],[-53.621,49.474],[-54.001,49.346],[-54.039,49.346],[-54.069,49.38]]]}},{"type":"Feature","properties":{"density":2},"geometry":{"type":"Polygon","coordinates":[[[-53.777,48.486],[-53.756,48.523],[-53.565,48.615],[-53.371,48.69],[-53.149,48.735],[-53.142,48.701],[-53.166,48.663],[-53.476,48.533],[-53.722,48.452],[-53.749,48.455],[-53.777,48.486]]]}},{"type":"Feature","properties":{"density":2},"geometry":{"type":"Polygon","coordinates":[[[-104.476,54.42],[-104.42,54.402],[-104.378,54.415],[-104.301,54.496],[-104.425,54.701],[-104.544,54.825],[-104.779,54.931],[-105.09,55.012],[-105.35,55.008],[-105.371,54.944],[-105.354,54.846],[-105.226,54.748],[-105.111,54.701],[-104.783,54.616],[-104.604,54.526],[-104.523,54.449],[-104.476,54.42]]]}},{"type":"Feature","properties":{"density":2},"geometry":{"type":"Polygon","coordinates":[[[-114.535,57.074],[-114.412,57.048],[-114.262,57.065],[-114.109,57.146],[-114.023,57.257],[-113.9,57.44],[-113.874,57.538],[-113.87,57.718],[-113.925,57.85],[-113.964,57.888],[-114.028,57.905],[-114.1,57.88],[-114.181,57.811],[-114.228,57.743],[-114.245,57.449],[-114.284,57.338],[-114.36,57.27],[-114.586,57.197],[-114.599,57.125],[-114.586,57.125],[-114.535,57.074]]]}},{"type":"Feature","properties":{"density":2},"geometry":{"type":"Polygon","coordinates":[[[-117.798,57.543],[-117.781,57.585],[-117.742,57.602],[-117.61,57.602],[-117.44,57.56],[-117.295,57.487],[-117.239,57.423],[-117.239,57.334],[-117.273,57.291],[-117.461,57.321],[-117.614,57.359],[-117.781,57.466],[-117.798,57.543]]]}},{"type":"Feature","properties":{"density":2},"geometry":{"type":"Polygon","coordinates":[[[-133.497,66.891],[-133.547,66.981],[-133.678,67.033],[-133.809,67.046],[-134.027,66.991],[-134.121,66.994],[-134.156,66.961],[-134.143,66.928],[-133.97,66.823],[-133.604,66.85],[-133.521,66.869],[-133.497,66.891]]]}},{"type":"Feature","properties":{"density":2},"geometry":{"type":"Polygon","coordinates":[[[-140.88,62.496],[-140.888,62.547],[-140.803,62.624],[-140.671,62.633],[-140.295,62.539],[-140.133,62.539],[-139.971,62.573],[-139.89,62.573],[-139.818,62.513],[-139.822,62.458],[-139.869,62.407],[-139.997,62.377],[-140.398,62.338],[-140.632,62.351],[-140.833,62.436],[-140.88,62.496]]]}},{"type":"Feature","properties":{"density":2},"geometry":{"type":"Polygon","coordinates":[[[-139.668,62.867],[-139.72,62.906],[-139.728,62.952],[-139.715,62.995],[-139.673,63.021],[-139.442,63.021],[-139.306,62.961],[-138.999,62.888],[-138.948,62.816],[-138.999,62.748],[-139.314,62.722],[-139.579,62.786],[-139.668,62.867]]]}},{"type":"Feature","properties":{"density":2},"geometry":{"type":"Polygon","coordinates":[[[-139.685,63.609],[-139.604,63.652],[-139.459,63.652],[-139.302,63.503],[-139.11,63.405],[-139.024,63.43],[-138.943,63.426],[-138.807,63.52],[-138.453,63.515],[-137.877,63.174],[-137.672,62.978],[-137.706,62.914],[-137.787,62.884],[-137.962,62.884],[-138.53,62.991],[-139.144,63.153],[-139.575,63.281],[-139.69,63.379],[-139.749,63.464],[-139.711,63.562],[-139.685,63.609]]]}},{"type":"Feature","properties":{"density":2},"geometry":{"type":"Polygon","coordinates":[[[-144.56,67.532],[-144.756,67.548],[-145.341,67.394],[-146.247,67.112],[-146.519,66.93],[-146.54,66.893],[-146.53,66.845],[-146.45,66.819],[-146.109,66.872],[-145.341,67.122],[-145.112,67.229],[-144.85,67.282],[-144.531,67.309],[-144.472,67.33],[-144.374,67.402],[-144.356,67.475],[-144.396,67.515],[-144.56,67.532]]]}},{"type":"Feature","properties":{"density":2},"geometry":{"type":"Polygon","coordinates":[[[-122.063,40.832],[-122.132,40.906],[-122.099,40.985],[-122.063,40.987],[-122.017,40.949],[-122.001,40.881],[-122.022,40.835],[-122.063,40.832]]]}},{"type":"Feature","properties":{"density":2},"geometry":{"type":"Polygon","coordinates":[[[-123.407,41.17],[-123.443,41.187],[-123.648,41.198],[-123.683,41.219],[-123.708,41.244],[-123.721,41.293],[-123.727,41.348],[-123.71,41.397],[-123.618,41.46],[-123.473,41.506],[-123.216,41.49],[-123.088,41.443],[-123.017,41.38],[-122.971,41.329],[-122.932,41.249],[-122.916,41.165],[-122.93,41.069],[-122.979,41.037],[-123.022,41.034],[-123.113,41.034],[-123.252,41.077],[-123.35,41.14],[-123.407,41.17]]]}},{"type":"Feature","properties":{"density":2},"geometry":{"type":"Polygon","coordinates":[[[-112.093,36.254],[-112.1,36.304],[-112.034,36.396],[-111.945,36.435],[-111.888,36.44],[-111.807,36.409],[-111.744,36.339],[-111.693,36.232],[-111.704,36.193],[-111.781,36.193],[-111.862,36.226],[-112.043,36.208],[-112.076,36.228],[-112.093,36.254]]]}},{"type":"Feature","properties":{"density":2},"geometry":{"type":"Polygon","coordinates":[[[-54.014,49.438],[-53.074,49.965],[-52.301,50.185],[-51.854,50.345],[-51.628,50.398],[-51.375,50.418],[-51.081,50.291],[-50.702,50.198],[-50.422,50.218],[-49.395,50.638],[-49.036,50.731],[-48.649,50.505],[-48.549,50.371],[-48.376,50.345],[-48.309,50.478],[-48.116,50.558],[-47.836,50.611],[-47.623,50.591],[-47.363,50.505],[-47.27,50.418],[-47.29,50.311],[-47.676,50.211],[-48.416,49.905],[-48.569,49.858],[-48.709,49.852],[-48.916,49.898],[-49.196,49.898],[-49.322,49.785],[-49.409,49.658],[-49.835,49.425],[-50.175,49.378],[-50.675,49.365],[-51.101,49.492],[-51.761,49.498],[-52.248,49.538],[-52.541,49.498],[-53.194,49.492],[-53.554,49.425],[-53.947,49.298],[-54.014,49.298],[-54.074,49.318],[-54.08,49.358],[-54.014,49.438]]]}},{"type":"Feature","properties":{"density":2},"geometry":{"type":"Polygon","coordinates":[[[-116.444,37.028],[-116.488,37.039],[-116.533,37.111],[-116.555,37.223],[-116.562,37.561],[-116.542,37.589],[-116.505,37.603],[-116.474,37.589],[-116.435,37.515],[-116.4,37.087],[-116.422,37.043],[-116.444,37.028]]]}},{"type":"Feature","properties":{"density":2},"geometry":{"type":"Polygon","coordinates":[[[-123.455,41.198],[-123.598,41.331],[-123.588,41.42],[-123.55,41.495],[-123.465,41.549],[-123.298,41.614],[-123.066,41.658],[-122.946,41.716],[-122.646,41.754],[-122.496,41.716],[-122.4,41.648],[-122.353,41.566],[-122.339,41.471],[-122.37,41.399],[-122.52,41.3],[-122.68,41.252],[-122.704,41.229],[-122.714,41.164],[-122.704,41.089],[-122.731,41.044],[-122.817,40.983],[-123.015,40.986],[-123.41,41.153],[-123.455,41.198]]]}},{"type":"Feature","properties":{"density":2},"geometry":{"type":"Polygon","coordinates":[[[-120.573,54.589],[-121.264,54.833],[-122.607,55.016],[-123.298,54.853],[-123.481,54.833],[-123.847,54.955],[-124.905,55.972],[-125.576,56.846],[-125.759,57.253],[-125.779,57.7],[-125.596,57.863],[-125.006,57.822],[-124.335,57.497],[-122.769,57.09],[-121.508,56.968],[-120.288,57.009],[-118.905,57.212],[-117.278,57.7],[-114.431,58.737],[-112.235,59.429],[-110.059,60.039],[-106.032,60.812],[-104.853,61.015],[-103.348,61.056],[-100.968,60.405],[-99.341,59.937],[-98.168,59.408],[-96.421,59.408],[-94.474,59.607],[-92.449,59.845],[-92.091,60.799],[-91.893,61.156],[-91.654,61.434],[-90.701,61.752],[-89.628,61.871],[-88.159,61.911],[-86.689,62.03],[-85.934,61.99],[-84.941,61.792],[-84.306,61.077],[-84.266,60.282],[-84.425,58.892],[-85.061,57.343],[-85.815,55.595],[-86.292,53.887],[-87.722,51.305],[-87.881,50.749],[-88.159,49.637],[-88.635,49.399],[-89.112,49.24],[-89.946,49.2],[-91.535,49.2],[-93.005,49.359],[-93.68,49.677],[-95.507,50.273],[-97.096,50.908],[-98.844,52.1],[-101.703,53.172],[-103.292,53.411],[-105.318,53.609],[-106.43,53.649],[-106.986,53.728],[-108.178,53.649],[-109.052,53.649],[-109.886,53.609],[-110.76,53.331],[-111.991,53.212],[-112.984,53.093],[-114.255,53.013],[-115.526,53.013],[-117.036,52.974],[-119.657,53.808],[-120.054,54.126],[-120.573,54.589]]]}},{"type":"Feature","properties":{"density":2},"geometry":{"type":"Polygon","coordinates":[[[-59.417,52.388],[-55.594,52.735],[-52.069,53.728],[-50.083,54.523],[-48.097,55.714],[-46.111,57.105],[-43.926,57.651],[-42.04,58.048],[-38.415,57.998],[-35.386,57.403],[-33.5,56.807],[-31.216,55.268],[-30.918,53.778],[-31.067,52.835],[-31.961,52.289],[-33.549,51.991],[-35.436,51.494],[-37.919,51.097],[-40.401,50.501],[-42.387,49.806],[-44.224,48.962],[-46.21,48.565],[-48.643,48.217],[-50.828,48.019],[-52.814,47.969],[-54.403,48.019],[-55.793,48.664],[-58.126,49.955],[-59.119,50.154],[-60.311,50.253],[-61.105,50.402],[-61.85,50.898],[-62.049,51.544],[-61.552,52.09],[-60.063,52.239],[-59.417,52.388]]]}},{"type":"Feature","properties":{"density":2},"geometry":{"type":"Polygon","coordinates":[[[-144.382,67.486],[-144.502,67.579],[-144.649,67.659],[-144.802,67.673],[-145.315,67.673],[-146.142,67.506],[-147.128,67.153],[-147.588,67.04],[-147.761,66.98],[-148.001,66.806],[-147.888,66.753],[-147.694,66.753],[-147.188,66.873],[-146.808,66.986],[-146.495,67.04],[-146.315,67.053],[-146.168,67.006],[-145.929,66.966],[-145.742,66.96],[-145.042,67.12],[-144.496,67.286],[-144.416,67.353],[-144.396,67.393],[-144.382,67.486]]]}},{"type":"Feature","properties":{"density":2},"geometry":{"type":"Polygon","coordinates":[[[-98.437,49.964],[-97.37,48.439],[-95.488,46.761],[-91.421,44.626],[-87.454,43.134],[-83.845,42.798],[-80.693,43.863],[-78.507,44.473],[-73.906,45.464],[-69.076,46.558],[-67.042,47.803],[-66.051,48.769],[-65.847,49.761],[-66.0,50.218],[-66.508,50.574],[-67.169,50.65],[-67.932,50.472],[-68.822,49.888],[-70.245,49.1],[-72.457,48.083],[-74.872,47.117],[-76.702,46.507],[-78.863,46.176],[-80.388,46.227],[-81.786,46.125],[-83.083,45.947],[-84.659,45.541],[-86.006,45.414],[-88.243,45.77],[-90.735,46.583],[-92.158,47.473],[-94.421,48.642],[-95.59,49.786],[-96.226,50.345],[-96.81,50.65],[-97.649,51.006],[-97.954,51.083],[-98.361,51.032],[-98.539,50.879],[-98.717,50.498],[-98.615,50.218],[-98.437,49.964]]]}},{"type":"Feature","properties":{"density":3},"geometry":{"type":"Polygon","coordinates":[[[-53.988,49.431],[-53.719,49.567],[-53.037,49.789],[-52.691,49.802],[-52.299,49.776],[-51.928,49.657],[-51.808,49.644],[-51.646,49.644],[-51.506,49.687],[-51.395,49.7],[-51.335,49.67],[-51.335,49.619],[-51.378,49.572],[-51.561,49.478],[-51.894,49.393],[-52.052,49.435],[-52.316,49.572],[-52.508,49.589],[-52.696,49.563],[-53.199,49.563],[-53.348,49.576],[-53.468,49.555],[-54.005,49.354],[-54.052,49.363],[-54.048,49.405],[-53.988,49.431]]]}},{"type":"Feature","properties":{"density":3},"geometry":{"type":"Polygon","coordinates":[[[-53.773,48.479],[-53.726,48.533],[-53.603,48.585],[-53.511,48.598],[-53.494,48.581],[-53.511,48.557],[-53.746,48.472],[-53.773,48.479]]]}},{"type":"Feature","properties":{"density":3},"geometry":{"type":"Polygon","coordinates":[[[-96.335,57.39],[-96.181,57.463],[-95.111,57.586],[-94.356,57.578],[-94.078,57.544],[-93.968,57.493],[-93.938,57.369],[-93.959,57.309],[-94.061,57.258],[-94.181,57.232],[-95.175,57.228],[-95.84,57.275],[-96.322,57.267],[-96.399,57.288],[-96.407,57.343],[-96.373,57.36],[-96.335,57.39]]]}},{"type":"Feature","properties":{"density":3},"geometry":{"type":"Polygon","coordinates":[[[-95.865,56.934],[-95.793,57.011],[-95.58,57.075],[-95.401,57.1],[-94.467,57.019],[-94.39,56.994],[-94.287,56.891],[-94.292,56.84],[-94.356,56.768],[-94.518,56.738],[-94.748,56.721],[-95.46,56.819],[-95.665,56.878],[-95.806,56.874],[-95.874,56.857],[-95.908,56.866],[-95.908,56.891],[-95.865,56.934]]]}},{"type":"Feature","properties":{"density":3},"geometry":{"type":"Polygon","coordinates":[[[-103.052,55.599],[-103.069,55.688],[-103.073,55.88],[-103.12,56.072],[-103.103,56.29],[-103.031,56.435],[-102.898,56.593],[-102.694,56.75],[-102.118,57.058],[-101.623,57.241],[-101.167,57.284],[-100.894,57.271],[-100.625,57.19],[-100.587,57.096],[-100.583,57.002],[-100.625,56.913],[-100.74,56.776],[-100.902,56.652],[-101.064,56.597],[-101.534,56.358],[-101.721,56.205],[-101.828,56.06],[-101.892,56.034],[-101.964,56.034],[-102.045,56.064],[-102.105,56.124],[-102.242,56.196],[-102.259,56.256],[-102.199,56.375],[-102.122,56.452],[-102.011,56.52],[-101.969,56.576],[-101.969,56.61],[-102.05,56.614],[-102.297,56.495],[-102.523,56.217],[-102.647,56.124],[-102.753,55.897],[-102.758,55.731],[-102.792,55.637],[-102.881,55.548],[-102.962,55.535],[-103.052,55.599]]]}},{"type":"Feature","properties":{"density":3},"geometry":{"type":"Polygon","coordinates":[[[-101.815,55.936],[-101.751,56.124],[-101.691,56.209],[-101.529,56.32],[-100.945,56.593],[-100.514,56.729],[-99.435,56.925],[-98.889,56.93],[-98.629,56.878],[-98.574,56.746],[-98.595,56.593],[-98.689,56.482],[-98.834,56.388],[-99.026,56.29],[-99.708,56.013],[-99.96,55.919],[-100.463,55.778],[-100.796,55.586],[-101.197,55.253],[-101.32,55.219],[-101.363,55.228],[-101.393,55.266],[-101.384,55.36],[-101.436,55.398],[-101.461,55.458],[-101.606,55.505],[-101.653,55.573],[-101.482,55.799],[-101.316,55.94],[-101.316,55.974],[-101.487,55.949],[-101.534,55.897],[-101.666,55.851],[-101.785,55.897],[-101.815,55.936]]]}},{"type":"Feature","properties":{"density":3},"geometry":{"type":"Polygon","coordinates":[[[-100.278,54.823],[-100.333,54.835],[-100.346,55.07],[-100.312,55.245],[-100.227,55.339],[-100.065,55.471],[-99.736,55.637],[-99.591,55.642],[-99.544,55.59],[-99.532,55.535],[-99.527,55.467],[-99.544,55.411],[-99.805,55.194],[-99.967,55.01],[-100.043,54.882],[-100.107,54.831],[-100.218,54.81],[-100.278,54.823]]]}},{"type":"Feature","properties":{"density":3},"geometry":{"type":"Polygon","coordinates":[[[-97.919,54.759],[-98.009,54.818],[-98.056,54.908],[-98.039,54.972],[-97.902,55.091],[-97.681,55.155],[-97.335,55.236],[-96.717,55.258],[-96.235,55.232],[-95.8,55.172],[-95.369,55.044],[-95.092,54.891],[-94.925,54.75],[-94.862,54.609],[-94.857,54.507],[-94.917,54.452],[-95.386,54.426],[-95.706,54.46],[-96.384,54.58],[-96.994,54.58],[-97.003,54.652],[-97.071,54.746],[-97.194,54.81],[-97.561,54.831],[-97.83,54.742],[-97.919,54.759]]]}},{"type":"Feature","properties":{"density":3},"geometry":{"type":"Polygon","coordinates":[[[-103.919,54.808],[-103.85,54.814],[-103.807,54.846],[-103.77,54.958],[-103.754,55.096],[-103.765,55.261],[-103.919,55.656],[-104.282,55.933],[-104.41,55.981],[-104.575,55.981],[-104.666,55.949],[-104.671,55.784],[-104.484,55.549],[-104.223,55.277],[-104.116,54.968],[-104.01,54.862],[-103.919,54.808]]]}},{"type":"Feature","properties":{"density":3},"geometry":{"type":"Polygon","coordinates":[[[-105.177,55.533],[-105.119,55.608],[-104.959,55.986],[-104.996,56.162],[-105.076,56.36],[-105.215,56.493],[-105.337,56.578],[-105.428,56.605],[-105.577,56.552],[-105.684,56.381],[-105.7,56.109],[-105.625,55.922],[-105.433,55.597],[-105.337,55.523],[-105.3,55.523],[-105.177,55.533]]]}},{"type":"Feature","properties":{"density":3},"geometry":{"type":"Polygon","coordinates":[[[-105.359,54.338],[-105.256,54.326],[-105.205,54.402],[-105.197,54.479],[-105.261,54.59],[-105.997,55.139],[-106.754,55.528],[-107.261,55.811],[-107.661,56.056],[-107.959,56.408],[-108.167,56.499],[-108.492,56.547],[-108.855,56.499],[-109.228,56.312],[-109.34,56.141],[-109.303,55.87],[-109.18,55.582],[-109.025,55.352],[-108.77,55.097],[-108.354,54.857],[-107.911,54.649],[-106.834,54.318],[-106.546,54.26],[-106.115,54.222],[-105.96,54.222],[-105.912,54.265],[-105.875,54.334],[-105.885,54.414],[-105.912,54.473],[-105.859,54.494],[-105.645,54.43],[-105.486,54.35],[-105.359,54.338]]]}},{"type":"Feature","properties":{"density":3},"geometry":{"type":"Polygon","coordinates":[[[-109.173,56.764],[-109.014,56.827],[-108.979,56.887],[-108.968,56.942],[-108.971,57.007],[-108.99,57.043],[-109.159,57.119],[-109.255,57.127],[-109.342,57.122],[-109.451,57.07],[-109.555,56.944],[-109.563,56.871],[-109.547,56.821],[-109.457,56.74],[-109.394,56.715],[-109.238,56.726],[-109.173,56.764]]]}},{"type":"Feature","properties":{"density":3},"geometry":{"type":"Polygon","coordinates":[[[-115.102,56.31],[-115.081,56.357],[-114.97,56.361],[-114.902,56.391],[-114.868,56.421],[-114.825,56.502],[-114.778,56.519],[-114.676,56.481],[-114.582,56.438],[-114.399,56.319],[-114.279,56.216],[-114.194,56.063],[-114.19,55.952],[-114.275,55.884],[-114.437,55.85],[-114.595,55.896],[-114.834,56.012],[-115.073,56.233],[-115.102,56.31]]]}},{"type":"Feature","properties":{"density":3},"geometry":{"type":"Polygon","coordinates":[[[-133.503,66.898],[-133.527,66.946],[-133.584,66.994],[-133.815,67.005],[-133.87,67.0],[-133.885,66.976],[-133.883,66.95],[-133.85,66.913],[-133.658,66.88],[-133.531,66.882],[-133.503,66.898]]]}},{"type":"Feature","properties":{"density":3},"geometry":{"type":"Polygon","coordinates":[[[-140.815,62.476],[-140.866,62.5],[-140.87,62.524],[-140.802,62.579],[-140.74,62.585],[-140.6,62.527],[-140.361,62.517],[-140.324,62.497],[-140.297,62.428],[-140.317,62.405],[-140.498,62.391],[-140.774,62.459],[-140.815,62.476]]]}},{"type":"Feature","properties":{"density":3},"geometry":{"type":"Polygon","coordinates":[[[-139.638,62.865],[-139.676,62.899],[-139.686,62.94],[-139.659,62.971],[-139.553,62.971],[-139.45,62.95],[-139.351,62.903],[-139.3,62.848],[-139.307,62.824],[-139.382,62.814],[-139.566,62.831],[-139.638,62.865]]]}},{"type":"Feature","properties":{"density":3},"geometry":{"type":"Polygon","coordinates":[[[-139.659,63.554],[-139.611,63.602],[-139.556,63.619],[-139.481,63.609],[-139.413,63.568],[-139.348,63.496],[-139.29,63.356],[-139.31,63.309],[-139.348,63.292],[-139.42,63.292],[-139.59,63.353],[-139.659,63.408],[-139.669,63.476],[-139.659,63.554]]]}},{"type":"Feature","properties":{"density":3},"geometry":{"type":"Polygon","coordinates":[[[-138.928,63.329],[-138.891,63.384],[-138.724,63.466],[-138.642,63.479],[-138.543,63.459],[-138.444,63.418],[-138.109,63.213],[-138.082,63.155],[-138.082,63.104],[-138.161,63.084],[-138.294,63.084],[-138.516,63.152],[-138.608,63.142],[-138.713,63.169],[-138.819,63.22],[-138.891,63.278],[-138.928,63.329]]]}},{"type":"Feature","properties":{"density":3},"geometry":{"type":"Polygon","coordinates":[[[-144.417,67.478],[-144.44,67.506],[-144.744,67.517],[-145.565,67.277],[-145.741,67.218],[-145.751,67.197],[-145.735,67.154],[-145.693,67.128],[-145.586,67.112],[-144.44,67.432],[-144.417,67.478]]]}},{"type":"Feature","properties":{"density":3},"geometry":{"type":"Polygon","coordinates":[[[-123.369,41.176],[-123.459,41.217],[-123.527,41.279],[-123.541,41.312],[-123.541,41.389],[-123.484,41.449],[-123.437,41.457],[-123.366,41.441],[-123.284,41.386],[-123.167,41.26],[-123.134,41.181],[-123.148,41.151],[-123.211,41.138],[-123.328,41.148],[-123.369,41.176]]]}},{"type":"Feature","properties":{"density":3},"geometry":{"type":"Polygon","coordinates":[[[-112.091,36.267],[-112.095,36.3],[-112.078,36.324],[-112.017,36.363],[-111.986,36.368],[-111.929,36.335],[-111.914,36.309],[-111.927,36.267],[-111.984,36.234],[-112.069,36.243],[-112.091,36.267]]]}},{"type":"Feature","properties":{"density":3},"geometry":{"type":"Polygon","coordinates":[[[-116.448,37.037],[-116.505,37.059],[-116.538,37.102],[-116.549,37.26],[-116.529,37.301],[-116.507,37.301],[-116.488,37.275],[-116.455,37.1],[-116.431,37.054],[-116.448,37.037]]]}},{"type":"Feature","properties":{"density":3},"geometry":{"type":"Polygon","coordinates":[[[-123.356,41.143],[-123.424,41.16],[-123.513,41.293],[-123.489,41.334],[-123.393,41.368],[-123.206,41.385],[-123.144,41.351],[-123.097,41.263],[-123.097,41.222],[-123.124,41.167],[-123.271,41.13],[-123.356,41.143]]]}},{"type":"Feature","properties":{"density":3},"geometry":{"type":"Polygon","coordinates":[[[-117.041,53.981],[-115.804,53.681],[-115.323,53.681],[-114.529,53.824],[-114.021,53.941],[-113.136,54.254],[-112.577,54.631],[-112.251,55.1],[-111.926,55.607],[-111.796,55.855],[-111.405,55.998],[-111.158,56.037],[-110.885,55.998],[-110.702,55.751],[-110.481,55.516],[-108.906,54.449],[-108.516,54.228],[-107.67,54.098],[-106.772,54.033],[-105.001,54.189],[-104.273,54.319],[-103.908,54.423],[-103.752,54.592],[-103.7,54.774],[-103.687,55.412],[-103.674,55.529],[-103.622,55.647],[-103.544,55.725],[-103.466,55.751],[-103.361,55.712],[-103.231,55.516],[-103.205,55.451],[-103.062,55.425],[-102.906,55.451],[-102.711,55.555],[-102.515,55.933],[-102.385,56.076],[-102.268,56.089],[-102.125,56.05],[-101.943,55.92],[-101.722,55.412],[-101.604,55.23],[-101.539,55.204],[-101.24,55.009],[-100.902,54.748],[-100.55,54.67],[-99.34,54.605],[-99.027,54.553],[-98.858,54.41],[-98.728,54.267],[-98.168,53.941],[-96.737,53.668],[-95.878,53.603],[-94.12,53.343],[-93.405,53.343],[-92.962,53.408],[-92.546,53.551],[-91.634,54.124],[-91.296,54.501],[-91.205,54.879],[-91.179,55.334],[-91.283,55.764],[-91.504,56.115],[-91.791,56.401],[-92.741,57.247],[-94.068,57.937],[-95.188,58.237],[-97.713,58.666],[-99.743,58.822],[-101.344,58.874],[-103.023,59.018],[-105.014,59.148],[-107.409,58.809],[-108.242,58.653],[-109.583,58.432],[-111.496,57.989],[-112.59,57.69],[-114.138,57.234],[-114.516,57.0],[-114.958,56.688],[-115.635,56.271],[-116.481,55.972],[-117.692,55.503],[-118.173,55.49],[-118.681,55.542],[-119.579,55.542],[-120.1,55.516],[-120.464,55.477],[-120.881,55.321],[-120.868,55.087],[-120.529,54.84],[-120.113,54.644],[-117.744,54.059],[-117.041,53.981]]]}},{"type":"Feature","properties":{"density":3},"geometry":{"type":"Polygon","coordinates":[[[-102.019,54.243],[-102.344,54.334],[-103.107,54.957],[-103.139,55.165],[-103.096,55.352],[-102.952,55.469],[-102.776,55.512],[-102.584,55.496],[-102.318,55.368],[-102.152,55.155],[-102.008,54.824],[-101.939,54.584],[-101.902,54.35],[-101.918,54.286],[-101.966,54.243],[-102.019,54.243]]]}},{"type":"Feature","properties":{"density":3},"geometry":{"type":"Polygon","coordinates":[[[-133.509,66.916],[-133.573,66.986],[-134.576,67.241],[-134.736,67.263],[-134.832,67.252],[-134.928,67.199],[-134.928,67.162],[-134.885,67.087],[-134.805,67.028],[-134.645,66.954],[-133.675,66.847],[-133.525,66.858],[-133.509,66.916]]]}},{"type":"Feature","properties":{"density":3},"geometry":{"type":"Polygon","coordinates":[[[-134.437,66.772],[-134.634,66.858],[-134.97,66.964],[-135.215,66.975],[-135.253,66.927],[-135.205,66.842],[-135.109,66.783],[-134.618,66.66],[-134.368,66.687],[-134.357,66.714],[-134.368,66.74],[-134.421,66.762],[-134.437,66.772]]]}},{"type":"Feature","properties":{"density":3},"geometry":{"type":"Polygon","coordinates":[[[-135.974,63.854],[-135.889,63.913],[-135.868,63.956],[-135.91,64.009],[-136.065,64.041],[-136.235,64.009],[-136.31,63.966],[-136.539,63.881],[-136.534,63.86],[-136.481,63.828],[-136.299,63.812],[-136.075,63.828],[-135.974,63.854]]]}},{"type":"Feature","properties":{"density":3},"geometry":{"type":"Polygon","coordinates":[[[-139.718,63.53],[-139.635,63.582],[-139.354,63.582],[-138.938,63.509],[-138.573,63.52],[-137.865,63.343],[-136.928,62.843],[-136.688,62.624],[-136.595,62.478],[-136.595,62.405],[-137.053,62.364],[-137.761,62.551],[-138.979,63.02],[-139.625,63.228],[-139.708,63.291],[-139.771,63.405],[-139.718,63.53]]]}},{"type":"Feature","properties":{"density":3},"geometry":{"type":"Polygon","coordinates":[[[-144.382,67.453],[-144.562,67.606],[-144.696,67.653],[-144.856,67.653],[-145.362,67.533],[-145.589,67.453],[-145.849,67.306],[-145.875,67.133],[-145.782,67.04],[-145.649,67.04],[-145.242,67.146],[-144.822,67.226],[-144.636,67.293],[-144.476,67.38],[-144.382,67.453]]]}}]}