{"type":"FeatureCollection","features":[{"type":"Feature","properties":{"density":1},"geometry":{"type":"Polygon","coordinates":[[[-97.01,26.168],[-97.283,25.986],[-97.647,25.622],[-97.865,25.204],[-98.047,24.586],[-98.101,24.04],[-98.283,22.876],[-98.265,22.439],[-98.265,21.784],[-98.083,21.384],[-97.919,21.093],[-97.592,20.602],[-97.137,20.056],[-96.81,19.365],[-96.664,18.91],[-96.428,18.347],[-95.991,17.492],[-95.791,16.837],[-95.9,16.582],[-96.01,16.437],[-96.21,16.255],[-96.428,16.2],[-97.046,16.346],[-97.883,16.764],[-99.848,17.655],[-100.175,17.819],[-100.466,18.11],[-101.43,18.638],[-102.776,19.565],[-103.231,19.838],[-103.54,20.093],[-103.922,20.311],[-104.286,20.638],[-104.613,20.748],[-104.904,20.893],[-105.195,20.948],[-105.541,20.929],[-105.777,20.802],[-106.123,20.493],[-106.414,20.147],[-106.76,19.183],[-106.76,18.747],[-106.742,18.456],[-106.76,18.146],[-106.687,17.746],[-106.541,17.219],[-106.032,16.455],[-104.918,15.331],[-103.426,14.385],[-102.207,13.821],[-100.734,13.166],[-98.351,12.475],[-97.023,12.038],[-96.41,11.944],[-96.119,11.871],[-95.246,11.762],[-93.895,11.747],[-92.403,11.565],[-91.694,11.42],[-91.062,11.453],[-90.553,11.616],[-90.298,11.871],[-90.025,12.253],[-89.807,12.599],[-89.625,12.962],[-89.643,13.272],[-89.734,13.581],[-90.152,14.181],[-90.734,14.436],[-91.553,14.69],[-92.59,15.345],[-92.917,15.836],[-93.206,16.381],[-93.519,17.092],[-93.604,17.49],[-93.774,18.058],[-93.774,18.371],[-93.831,18.883],[-93.952,19.66],[-94.144,20.702],[-94.201,21.611],[-94.286,22.435],[-94.258,23.402],[-94.314,24.311],[-94.258,25.164],[-94.229,26.073],[-94.507,26.707],[-94.944,26.87],[-95.289,26.943],[-95.926,26.798],[-96.472,26.507],[-96.817,26.343],[-96.944,26.197],[-97.01,26.168]]]}},{"type":"Feature","properties":{"density":1},"geometry":{"type":"Polygon","coordinates":[[[-92.13,19.584],[-92.191,19.664],[-92.263,19.723],[-92.564,19.899],[-92.687,19.938],[-92.806,19.947],[-92.904,19.932],[-92.983,19.904],[-93.036,19.866],[-93.055,19.827],[-93.055,19.718],[-92.983,19.637],[-92.852,19.556],[-92.461,19.416],[-92.305,19.383],[-92.107,19.366],[-92.05,19.399],[-92.038,19.453],[-92.056,19.504],[-92.099,19.549],[-92.13,19.584]]]}},{"type":"Feature","properties":{"density":1},"geometry":{"type":"Polygon","coordinates":[[[-97.817,32.783],[-97.914,32.712],[-97.927,32.65],[-97.874,32.624],[-97.83,32.628],[-97.702,32.695],[-97.675,32.739],[-97.694,32.804],[-97.746,32.823],[-97.79,32.796],[-97.817,32.783]]]}},{"type":"Feature","properties":{"density":1},"geometry":{"type":"Polygon","coordinates":[[[-95.021,14.389],[-94.745,15.054],[-94.728,15.227],[-94.755,15.398],[-95.03,15.987],[-95.186,16.277],[-95.236,16.327],[-95.291,16.338],[-95.319,16.321],[-95.308,16.233],[-95.269,16.122],[-95.186,15.962],[-95.109,15.697],[-95.02,15.52],[-95.009,15.249],[-95.114,14.735],[-95.153,14.685],[-95.358,14.536],[-95.452,14.42],[-95.474,14.304],[-95.441,14.055],[-95.407,13.989],[-95.374,13.967],[-95.326,13.965],[-95.175,14.066],[-95.131,14.127],[-95.048,14.304],[-95.021,14.389]]]}},{"type":"Feature","properties":{"density":1},"geometry":{"type":"Polygon","coordinates":[[[-95.763,18.185],[-95.744,18.072],[-95.776,17.895],[-95.766,17.859],[-95.734,17.859],[-95.667,17.923],[-95.652,18.018],[-95.677,18.153],[-95.72,18.245],[-95.755,18.241],[-95.759,18.206],[-95.763,18.185]]]}},{"type":"Feature","properties":{"density":1},"geometry":{"type":"Polygon","coordinates":[[[-92.878,17.767],[-92.935,17.697],[-93.055,17.654],[-93.161,17.651],[-93.229,17.718],[-93.232,17.764],[-93.218,17.781],[-93.147,17.757],[-93.048,17.757],[-92.878,17.842],[-92.843,17.831],[-92.85,17.796],[-92.878,17.767]]]}},{"type":"Feature","properties":{"density":1},"geometry":{"type":"Polygon","coordinates":[[[-93.954,17.647],[-93.819,17.689],[-93.653,17.767],[-93.473,17.781],[-93.349,17.842],[-93.331,17.93],[-93.381,17.948],[-93.522,17.941],[-93.788,17.873],[-94.035,17.75],[-94.095,17.693],[-94.095,17.647],[-94.042,17.633],[-93.989,17.64],[-93.954,17.647]]]}},{"type":"Feature","properties":{"density":1},"geometry":{"type":"Polygon","coordinates":[[[-90.814,17.308],[-90.761,17.244],[-90.646,17.152],[-90.577,17.156],[-90.593,17.236],[-90.738,17.392],[-90.795,17.427],[-90.837,17.423],[-90.86,17.381],[-90.833,17.35],[-90.814,17.308]]]}},{"type":"Feature","properties":{"density":1},"geometry":{"type":"Polygon","coordinates":[[[-90.593,16.935],[-90.661,16.988],[-90.844,17.049],[-90.883,17.022],[-90.917,16.969],[-90.925,16.912],[-90.883,16.816],[-90.829,16.778],[-90.764,16.694],[-90.764,16.614],[-90.833,16.477],[-90.822,16.282],[-90.715,16.149],[-90.555,16.111],[-90.288,16.202],[-90.196,16.29],[-90.135,16.397],[-90.127,16.5],[-90.143,16.687],[-90.181,16.771],[-90.246,16.816],[-90.329,16.843],[-90.509,16.858],[-90.566,16.904],[-90.593,16.935]]]}},{"type":"Feature","properties":{"density":1},"geometry":{"type":"Polygon","coordinates":[[[-89.902,17.175],[-89.917,17.259],[-89.963,17.308],[-90.062,17.32],[-90.127,17.274],[-90.154,17.209],[-90.162,17.022],[-90.127,16.954],[-90.062,16.938],[-90.005,16.946],[-89.937,16.999],[-89.914,17.087],[-89.902,17.175]]]}},{"type":"Feature","properties":{"density":1},"geometry":{"type":"Polygon","coordinates":[[[-93.229,17.324],[-92.935,17.644],[-92.908,17.789],[-92.988,17.774],[-93.099,17.682],[-93.221,17.637],[-93.454,17.457],[-93.499,17.354],[-93.488,17.278],[-93.458,17.255],[-93.339,17.247],[-93.274,17.289],[-93.229,17.324]]]}},{"type":"Feature","properties":{"density":1},"geometry":{"type":"Polygon","coordinates":[[[-93.213,17.736],[-93.805,17.762],[-94.076,17.644],[-94.373,17.617],[-94.507,17.572],[-94.591,17.484],[-94.655,17.362],[-94.831,17.156],[-94.88,17.072],[-94.915,16.893],[-94.835,16.809],[-94.739,16.79],[-94.667,16.782],[-94.495,16.828],[-94.335,16.916],[-94.175,17.038],[-93.789,17.217],[-93.553,17.366],[-93.419,17.423],[-93.095,17.507],[-92.992,17.507],[-92.916,17.476],[-92.847,17.469],[-92.771,17.472],[-92.679,17.514],[-92.668,17.575],[-92.687,17.629],[-92.737,17.686],[-92.874,17.713],[-93.114,17.728],[-93.213,17.736]]]}},{"type":"Feature","properties":{"density":1},"geometry":{"type":"Polygon","coordinates":[[[-101.73,21.161],[-101.575,20.874],[-101.402,20.66],[-101.098,20.493],[-100.937,20.445],[-100.74,20.416],[-100.526,20.439],[-100.418,20.481],[-100.371,20.553],[-100.406,20.612],[-100.472,20.654],[-100.955,20.785],[-101.026,20.815],[-101.104,20.874],[-101.283,21.077],[-101.396,21.339],[-101.456,21.393],[-101.599,21.429],[-101.658,21.429],[-101.724,21.399],[-101.76,21.327],[-101.76,21.226],[-101.73,21.161]]]}},{"type":"Feature","properties":{"density":1},"geometry":{"type":"Polygon","coordinates":[[[-94.928,22.931],[-95.045,23.833],[-95.045,24.779],[-95.103,25.084],[-95.248,25.695],[-95.525,26.365],[-95.787,26.685],[-96.238,27.005],[-96.529,27.18],[-97.111,27.383],[-97.606,27.442],[-98.013,27.383],[-98.581,27.209],[-99.134,26.961],[-99.556,26.7],[-99.89,26.409],[-100.196,25.768],[-100.254,25.521],[-100.24,24.997],[-100.181,24.59],[-100.08,24.124],[-100.05,23.425],[-100.05,22.683],[-99.978,22.174],[-99.847,21.854],[-99.701,21.563],[-99.439,21.228],[-99.032,20.777],[-98.814,20.573],[-98.421,20.253],[-98.173,19.977],[-97.766,19.467],[-97.635,19.264],[-97.358,18.754],[-96.98,18.216],[-96.805,17.837],[-96.616,17.546],[-96.369,17.343],[-96.194,17.052],[-96.223,16.79],[-96.282,16.731],[-96.529,16.557],[-96.674,16.542],[-96.98,16.557],[-97.286,16.702],[-97.475,16.819],[-97.577,17.052],[-97.635,17.284],[-97.635,17.808],[-97.766,18.259],[-97.999,18.856],[-98.319,19.264],[-99.061,19.933],[-99.701,20.253],[-100.05,20.486],[-100.584,20.911],[-101.142,21.155],[-101.506,21.257],[-102.146,21.359],[-103.194,21.272],[-104.081,20.937],[-104.591,20.704],[-105.071,20.457],[-105.464,20.108],[-105.638,19.933],[-105.871,19.584],[-106.104,19.031],[-106.148,18.681],[-106.041,17.756],[-105.7,16.932],[-105.16,16.221],[-104.445,15.422],[-103.79,14.898],[-103.019,14.549],[-102.67,14.418],[-101.986,14.258],[-101.186,13.908],[-100.158,13.408],[-99.362,13.066],[-98.581,12.788],[-97.751,12.453],[-97.067,12.206],[-96.558,12.089],[-96.049,12.031],[-95.467,12.002],[-94.594,12.017],[-93.764,12.089],[-93.371,12.235],[-92.163,12.802],[-91.45,13.224],[-91.043,13.516],[-90.664,13.85],[-89.966,14.578],[-89.5,14.985],[-89.209,15.262],[-88.991,15.8],[-88.976,16.106],[-89.078,16.717],[-89.486,17.197],[-89.879,17.503],[-90.781,17.881],[-91.625,17.794],[-92.149,17.765],[-92.44,17.765],[-92.789,17.794],[-93.124,17.983],[-93.255,18.099],[-93.458,18.332],[-93.619,18.55],[-93.75,18.798],[-93.851,19.016],[-94.317,20.209],[-94.477,20.559],[-94.535,20.806],[-94.564,21.053],[-94.739,21.781],[-94.899,22.654],[-94.928,22.931]]]}}]}