{"type":"FeatureCollection","features":[{"type":"Feature","properties":{"density":1},"geometry":{"type":"Polygon","coordinates":[[[-92.666,15.398],[-91.847,15.079],[-91.233,14.716],[-90.301,14.284],[-89.755,13.92],[-89.255,13.67],[-88.096,13.01],[-87.982,12.874],[-87.982,12.646],[-88.186,12.237],[-88.619,11.987],[-89.141,11.646],[-89.824,11.328],[-91.256,11.032],[-92.143,10.759],[-93.825,10.282],[-94.144,10.123],[-95.076,9.963],[-95.667,9.941],[-97.1,10.009],[-97.941,10.395],[-99.669,11.601],[-100.806,12.078],[-102.284,12.442],[-102.92,12.76],[-103.284,13.124],[-103.375,13.67],[-103.375,14.215],[-103.33,14.488],[-102.989,15.011],[-102.511,15.534],[-102.17,15.875],[-101.647,16.103],[-101.17,16.216],[-100.647,16.398],[-100.26,16.648],[-99.737,16.83],[-99.191,16.853],[-98.668,17.012],[-98.1,17.126],[-97.804,17.035],[-97.6,16.762],[-97.486,16.557],[-97.213,16.284],[-96.668,16.057],[-96.258,16.103],[-95.985,16.239],[-95.985,16.307],[-96.031,16.353],[-96.19,16.353],[-96.554,16.284],[-96.69,16.33],[-96.781,16.421],[-96.781,16.603],[-96.668,16.807],[-96.258,16.967],[-95.872,17.058],[-95.758,17.239],[-95.758,17.33],[-95.985,17.444],[-96.417,17.74],[-96.895,18.285],[-97.009,18.717],[-97.031,19.081],[-97.031,19.422],[-96.918,19.831],[-97.1,19.9],[-97.668,19.9],[-97.918,20.036],[-98.487,20.718],[-98.623,20.991],[-99.032,22.014],[-99.123,22.719],[-99.282,24.47],[-99.1,25.493],[-98.305,26.789],[-96.918,28.335],[-96.213,28.835],[-94.485,29.586],[-93.666,29.813],[-92.779,29.79],[-91.915,29.699],[-91.051,29.495],[-90.619,29.495],[-89.073,29.881],[-88.096,30.041],[-86.413,30.222],[-85.299,30.222],[-84.458,29.972],[-84.185,29.859],[-83.889,29.609],[-83.684,29.245],[-83.571,29.086],[-83.616,28.767],[-83.798,28.494],[-84.071,28.29],[-84.48,28.085],[-84.867,27.949],[-85.276,27.721],[-86.231,27.38],[-87.391,26.812],[-88.05,26.38],[-88.664,25.766],[-89.414,24.584],[-90.005,23.31],[-90.619,21.787],[-90.983,21.355],[-91.392,20.946],[-91.688,20.491],[-91.961,19.763],[-91.961,19.49],[-92.188,19.218],[-92.325,19.172],[-92.416,19.218],[-92.484,19.468],[-92.575,19.672],[-92.643,19.65],[-92.734,19.354],[-92.552,18.763],[-91.961,18.172],[-91.665,18.012],[-91.347,18.035],[-90.824,18.126],[-90.574,17.967],[-90.187,17.535],[-89.915,16.989],[-89.005,16.307],[-88.778,16.057],[-88.778,15.943],[-88.846,15.761],[-89.028,15.602],[-89.392,15.443],[-89.46,15.375],[-89.846,15.261],[-90.756,15.534],[-91.097,15.83],[-91.37,15.966],[-91.506,15.943],[-91.643,15.693],[-91.802,15.557],[-92.143,15.534],[-92.507,15.671],[-93.121,15.989],[-93.621,16.307],[-93.734,16.466],[-93.871,16.739],[-94.053,16.989],[-94.326,17.194],[-94.53,17.194],[-94.712,16.944],[-94.667,16.785],[-94.166,16.489],[-93.53,16.08],[-92.757,15.489],[-92.666,15.398]]]}},{"type":"Feature","properties":{"density":1},"geometry":{"type":"Polygon","coordinates":[[[-80.526,26.623],[-80.481,26.636],[-80.462,26.669],[-80.456,26.861],[-80.487,26.88],[-80.514,26.837],[-80.529,26.633],[-80.526,26.623]]]}},{"type":"Feature","properties":{"density":1},"geometry":{"type":"Polygon","coordinates":[[[-80.941,26.593],[-80.896,26.596],[-80.88,26.623],[-80.88,26.715],[-80.911,26.813],[-80.929,26.828],[-80.966,26.81],[-80.978,26.767],[-80.954,26.605],[-80.941,26.593]]]}},{"type":"Feature","properties":{"density":1},"geometry":{"type":"Polygon","coordinates":[[[-81.002,26.761],[-80.954,26.8],[-80.957,26.871],[-80.996,26.865],[-80.999,26.764],[-81.002,26.761]]]}},{"type":"Feature","properties":{"density":1},"geometry":{"type":"Polygon","coordinates":[[[-81.475,26.614],[-81.582,26.636],[-81.659,26.684],[-81.659,26.706],[-81.637,26.715],[-81.466,26.63],[-81.475,26.614]]]}},{"type":"Feature","properties":{"density":1},"geometry":{"type":"Polygon","coordinates":[[[-82.742,23.004],[-83.333,23.641],[-83.398,23.774],[-83.501,24.095],[-83.539,24.377],[-83.531,24.72],[-83.482,24.774],[-83.405,24.774],[-83.321,24.705],[-83.215,24.328],[-83.176,24.099],[-83.18,23.973],[-83.043,23.649],[-82.829,23.317],[-82.764,23.191],[-82.734,23.023],[-82.742,23.004]]]}},{"type":"Feature","properties":{"density":1},"geometry":{"type":"Polygon","coordinates":[[[-82.337,23.111],[-82.539,23.275],[-82.875,23.668],[-82.959,23.847],[-82.967,23.95],[-82.929,24.11],[-82.894,24.175],[-82.81,24.194],[-82.768,24.171],[-82.723,24.102],[-82.658,23.973],[-82.612,23.786],[-82.444,23.5],[-82.353,23.252],[-82.326,23.134],[-82.337,23.111]]]}},{"type":"Feature","properties":{"density":1},"geometry":{"type":"Polygon","coordinates":[[[-81.956,23.145],[-82.284,23.389],[-82.482,23.568],[-82.547,23.69],[-82.551,23.736],[-82.513,23.847],[-82.452,23.931],[-82.356,23.988],[-82.28,23.992],[-82.192,23.923],[-81.971,23.324],[-81.944,23.16],[-81.956,23.145]]]}},{"type":"Feature","properties":{"density":1},"geometry":{"type":"Polygon","coordinates":[[[-81.281,23.076],[-81.452,23.172],[-81.689,23.393],[-81.784,23.572],[-81.773,23.835],[-81.719,23.999],[-81.654,24.141],[-81.57,24.198],[-81.513,24.209],[-81.452,24.198],[-81.391,24.122],[-81.365,24.003],[-81.452,23.542],[-81.452,23.401],[-81.38,23.198],[-81.273,23.111],[-81.258,23.08],[-81.281,23.076]]]}},{"type":"Feature","properties":{"density":1},"geometry":{"type":"Polygon","coordinates":[[[-81.708,23.149],[-81.868,23.267],[-82.135,23.607],[-82.173,23.744],[-82.147,23.816],[-82.028,23.774],[-81.826,23.504],[-81.696,23.153],[-81.708,23.149]]]}},{"type":"Feature","properties":{"density":1},"geometry":{"type":"Polygon","coordinates":[[[-75.875,20.013],[-76.131,20.185],[-76.192,20.276],[-76.211,20.345],[-76.207,20.395],[-76.184,20.41],[-76.131,20.402],[-75.948,20.185],[-75.89,20.089],[-75.868,20.002],[-75.875,20.013]]]}},{"type":"Feature","properties":{"density":1},"geometry":{"type":"Polygon","coordinates":[[[-87.736,15.47],[-87.801,15.271],[-87.808,15.164],[-87.904,14.871],[-87.931,14.817],[-88.037,14.699],[-88.091,14.688],[-88.133,14.718],[-88.133,14.886],[-88.083,15.012],[-88.018,15.122],[-88.011,15.206],[-88.037,15.222],[-88.091,15.203],[-88.159,15.122],[-88.19,15.035],[-88.194,14.958],[-88.259,14.779],[-88.308,14.718],[-88.503,14.668],[-88.667,14.657],[-88.732,14.672],[-88.816,14.718],[-88.88,14.806],[-88.873,14.936],[-88.827,15.069],[-88.621,15.347],[-88.507,15.443],[-88.228,15.496],[-88.114,15.485],[-88.076,15.5],[-88.053,15.531],[-88.03,15.626],[-87.942,15.771],[-87.782,15.977],[-87.732,16.004],[-87.656,16.015],[-87.606,15.962],[-87.599,15.805],[-87.709,15.5],[-87.736,15.47]]]}},{"type":"Feature","properties":{"density":1},"geometry":{"type":"Polygon","coordinates":[[[-105.772,22.874],[-105.631,22.702],[-105.615,22.519],[-105.68,22.317],[-105.741,22.267],[-105.802,22.252],[-105.856,22.26],[-105.905,22.298],[-105.966,22.466],[-105.924,22.557],[-105.814,22.653],[-105.787,22.729],[-105.787,22.889],[-105.772,22.874]]]}},{"type":"Feature","properties":{"density":1},"geometry":{"type":"Polygon","coordinates":[[[-91.953,15.887],[-91.865,15.848],[-91.854,15.786],[-91.887,15.773],[-91.94,15.779],[-91.997,15.837],[-91.999,15.883],[-91.971,15.893],[-91.953,15.887]]]}},{"type":"Feature","properties":{"density":1},"geometry":{"type":"Polygon","coordinates":[[[-117.047,33.08],[-116.993,33.043],[-116.96,33.05],[-116.951,33.068],[-116.976,33.113],[-117.033,33.134],[-117.066,33.118],[-117.062,33.089],[-117.047,33.08]]]}},{"type":"Feature","properties":{"density":1},"geometry":{"type":"Polygon","coordinates":[[[-72.195,19.269],[-72.219,19.362],[-72.286,19.437],[-72.321,19.448],[-72.38,19.427],[-72.382,19.374],[-72.319,19.287],[-72.261,19.252],[-72.198,19.25],[-72.195,19.269]]]}},{"type":"Feature","properties":{"density":1},"geometry":{"type":"Polygon","coordinates":[[[-93.143,17.922],[-93.213,17.974],[-93.402,18.056],[-93.691,18.225],[-93.79,18.254],[-93.916,18.257],[-94.047,18.202],[-94.108,18.129],[-94.105,18.033],[-94.05,17.983],[-93.956,17.934],[-93.831,17.913],[-93.566,17.925],[-93.35,17.913],[-93.288,17.901],[-93.108,17.817],[-93.076,17.849],[-93.125,17.901],[-93.143,17.922]]]}},{"type":"Feature","properties":{"density":1},"geometry":{"type":"Polygon","coordinates":[[[-93.044,17.901],[-93.079,17.91],[-93.081,17.957],[-93.041,17.957],[-93.032,17.916],[-93.044,17.901]]]}},{"type":"Feature","properties":{"density":1},"geometry":{"type":"Polygon","coordinates":[[[-98.361,22.036],[-98.44,21.891],[-98.482,21.775],[-98.482,21.716],[-98.454,21.674],[-98.398,21.658],[-98.344,21.686],[-98.305,21.789],[-98.302,21.992],[-98.323,22.038],[-98.342,22.043],[-98.361,22.036]]]}},{"type":"Feature","properties":{"density":1},"geometry":{"type":"Polygon","coordinates":[[[-116.758,33.242],[-116.779,33.164],[-116.766,33.122],[-116.74,33.111],[-116.706,33.13],[-116.684,33.206],[-116.706,33.279],[-116.736,33.289],[-116.757,33.257],[-116.758,33.242]]]}},{"type":"Feature","properties":{"density":1},"geometry":{"type":"Polygon","coordinates":[[[-107.627,54.165],[-107.469,54.273],[-107.396,54.372],[-107.382,54.442],[-107.396,54.489],[-107.455,54.544],[-107.501,54.562],[-107.629,54.553],[-107.778,54.445],[-107.807,54.395],[-107.822,54.337],[-107.799,54.261],[-107.752,54.203],[-107.653,54.156],[-107.627,54.165]]]}},{"type":"Feature","properties":{"density":1},"geometry":{"type":"Polygon","coordinates":[[[-107.411,54.611],[-107.425,54.693],[-107.414,54.719],[-107.379,54.766],[-107.303,54.809],[-107.207,54.818],[-107.151,54.801],[-107.102,54.769],[-107.075,54.728],[-107.107,54.678],[-107.163,54.646],[-107.282,54.602],[-107.399,54.591],[-107.411,54.611]]]}},{"type":"Feature","properties":{"density":1},"geometry":{"type":"Polygon","coordinates":[[[-96.04,16.486],[-96.407,16.397],[-98.12,16.776],[-98.788,16.965],[-99.344,17.154],[-100.178,17.243],[-100.79,17.121],[-101.246,16.765],[-101.48,16.197],[-101.569,15.53],[-101.502,14.929],[-101.402,14.373],[-101.224,13.861],[-100.868,13.394],[-100.39,13.015],[-99.878,12.759],[-98.766,12.437],[-98.321,12.337],[-96.774,12.103],[-95.595,12.092],[-94.06,12.403],[-93.303,12.615],[-92.48,12.904],[-91.824,13.115],[-91.49,13.471],[-91.423,13.827],[-91.579,14.328],[-91.801,14.773],[-92.536,15.429],[-92.925,15.841],[-93.125,16.008],[-93.236,16.297],[-93.236,16.464],[-93.003,16.998],[-92.825,17.287],[-92.769,17.477],[-92.769,17.699],[-92.702,18.333],[-92.558,18.589],[-92.346,18.889],[-92.057,19.156],[-91.901,19.379],[-91.901,19.757],[-92.046,20.224],[-92.227,20.629],[-92.422,21.303],[-92.053,22.085],[-91.401,22.824],[-90.315,23.585],[-89.684,23.889],[-88.88,24.454],[-88.25,25.192],[-87.903,26.257],[-87.794,27.018],[-87.881,28.082],[-88.12,28.865],[-88.794,29.408],[-89.489,29.755],[-90.206,29.973],[-90.945,30.06],[-92.14,30.147],[-93.748,29.951],[-94.921,29.647],[-96.724,28.626],[-97.376,28.061],[-97.746,27.322],[-97.92,26.431],[-98.028,25.605],[-98.18,24.845],[-98.615,24.236],[-99.158,23.628],[-99.441,23.107],[-99.571,22.563],[-99.614,22.129],[-99.614,21.433],[-99.506,20.456],[-99.354,19.956],[-99.028,19.304],[-98.485,18.826],[-97.789,18.652],[-97.442,18.478],[-96.073,17.522],[-95.899,17.218],[-95.877,17.044],[-95.899,16.783],[-95.974,16.645],[-96.04,16.486]]]}}]}