{"type":"FeatureCollection","features":[{"type":"Feature","properties":{"density":1},"geometry":{"type":"Polygon","coordinates":[[[-95.604,35.637],[-93.057,35.69],[-91.254,35.371],[-89.768,34.894],[-87.911,34.682],[-86.214,34.522],[-84.516,34.522],[-83.562,34.629],[-81.811,34.947],[-81.068,35.265],[-78.84,36.114],[-77.567,36.432],[-75.816,36.644],[-74.702,36.751],[-74.013,36.591],[-73.429,35.265],[-73.323,34.682],[-73.323,34.151],[-74.49,32.825],[-77.09,31.605],[-78.84,31.021],[-80.962,30.491],[-82.501,30.226],[-83.933,30.066],[-85.949,29.96],[-87.01,29.96],[-88.018,29.748],[-88.76,29.642],[-89.556,29.483],[-90.299,29.377],[-91.36,29.377],[-92.58,29.642],[-93.322,29.907],[-94.012,30.226],[-94.702,30.968],[-95.444,31.658],[-96.028,31.923],[-97.46,32.666],[-97.778,33.037],[-98.044,33.568],[-98.097,33.939],[-98.097,34.257],[-97.885,34.629],[-97.407,34.947],[-97.142,35.053],[-96.771,35.265],[-96.452,35.371],[-96.028,35.477],[-95.604,35.637]]]}},{"type":"Feature","properties":{"density":1},"geometry":{"type":"Polygon","coordinates":[[[-104.993,20.889],[-106.903,21.207],[-108.388,21.207],[-109.98,20.783],[-111.73,20.04],[-112.579,19.51],[-113.375,18.449],[-113.587,17.282],[-113.375,15.849],[-112.95,14.895],[-111.783,14.258],[-109.714,13.993],[-108.494,13.993],[-107.327,14.152],[-106.16,14.364],[-104.993,14.629],[-103.879,15.213],[-102.924,15.69],[-101.333,16.115],[-100.272,16.115],[-99.635,15.743],[-98.839,15.16],[-98.256,14.417],[-97.46,13.781],[-96.664,13.303],[-95.232,12.932],[-93.641,12.56],[-92.155,12.507],[-91.572,12.826],[-91.147,13.568],[-91.147,14.417],[-91.625,15.69],[-92.208,16.539],[-93.375,17.759],[-93.959,18.343],[-95.02,19.722],[-95.391,20.571],[-95.763,21.207],[-95.869,21.632],[-96.028,22.64],[-96.134,23.064],[-96.293,24.019],[-96.664,24.549],[-97.195,24.655],[-97.832,24.655],[-98.574,24.39],[-98.893,23.807],[-98.946,23.011],[-98.733,21.791],[-98.203,20.783],[-97.566,19.934],[-96.877,19.245],[-96.452,18.555],[-96.293,18.024],[-96.187,17.282],[-96.346,16.804],[-96.983,16.539],[-97.885,16.751],[-98.574,17.176],[-99.105,18.077],[-100.749,19.51],[-101.386,19.881],[-101.916,20.146],[-103.189,20.73],[-104.356,20.889],[-104.728,20.995],[-104.993,20.889]]]}},{"type":"Feature","properties":{"density":1},"geometry":{"type":"Polygon","coordinates":[[[-80.651,26.419],[-80.604,26.513],[-80.476,26.606],[-80.371,26.647],[-80.257,26.632],[-80.243,26.612],[-80.246,26.571],[-80.275,26.539],[-80.604,26.399],[-80.639,26.39],[-80.66,26.408],[-80.651,26.419]]]}},{"type":"Feature","properties":{"density":1},"geometry":{"type":"Polygon","coordinates":[[[-81.237,26.667],[-81.141,26.781],[-80.989,26.895],[-80.806,26.988],[-80.619,27.017],[-80.569,27.0],[-80.543,26.97],[-80.558,26.903],[-80.584,26.871],[-80.928,26.688],[-81.188,26.618],[-81.237,26.62],[-81.252,26.632],[-81.24,26.658],[-81.237,26.667]]]}},{"type":"Feature","properties":{"density":1},"geometry":{"type":"Polygon","coordinates":[[[-80.639,26.886],[-80.575,26.921],[-80.406,27.073],[-80.275,27.157],[-80.138,27.183],[-80.088,27.177],[-80.047,27.145],[-80.062,27.07],[-80.103,27.026],[-80.208,26.962],[-80.33,26.912],[-80.631,26.828],[-80.66,26.828],[-80.651,26.88],[-80.639,26.886]]]}},{"type":"Feature","properties":{"density":1},"geometry":{"type":"Polygon","coordinates":[[[-81.126,27.192],[-80.954,27.326],[-80.87,27.373],[-80.777,27.379],[-80.715,27.355],[-80.724,27.291],[-80.852,27.215],[-81.118,27.131],[-81.147,27.14],[-81.135,27.183],[-81.126,27.192]]]}},{"type":"Feature","properties":{"density":1},"geometry":{"type":"Polygon","coordinates":[[[-80.683,26.749],[-80.634,26.807],[-80.482,26.88],[-80.351,26.9],[-80.322,26.898],[-80.307,26.877],[-80.33,26.822],[-80.488,26.743],[-80.648,26.708],[-80.686,26.725],[-80.686,26.74],[-80.683,26.749]]]}},{"type":"Feature","properties":{"density":1},"geometry":{"type":"Polygon","coordinates":[[[-92.383,31.037],[-92.37,31.069],[-92.271,31.1],[-92.153,31.187],[-92.074,31.21],[-92.013,31.209],[-91.969,31.182],[-91.951,31.142],[-91.772,31.072],[-91.766,31.015],[-91.876,30.948],[-92.165,30.92],[-92.267,30.947],[-92.292,30.993],[-92.378,31.029],[-92.383,31.037]]]}},{"type":"Feature","properties":{"density":1},"geometry":{"type":"Polygon","coordinates":[[[-91.025,29.85],[-90.983,29.863],[-90.811,29.837],[-90.731,29.785],[-90.737,29.757],[-90.781,29.739],[-90.865,29.746],[-91.018,29.821],[-91.029,29.841],[-91.025,29.85]]]}},{"type":"Feature","properties":{"density":1},"geometry":{"type":"Polygon","coordinates":[[[-90.852,34.964],[-90.879,34.876],[-90.959,34.8],[-91.08,34.73],[-91.216,34.619],[-91.299,34.617],[-91.268,34.67],[-90.989,34.879],[-90.926,34.96],[-90.879,34.982],[-90.864,34.974],[-90.852,34.964]]]}},{"type":"Feature","properties":{"density":1},"geometry":{"type":"Polygon","coordinates":[[[-90.318,35.627],[-90.302,35.572],[-90.306,35.499],[-90.398,35.387],[-90.503,35.205],[-90.551,35.153],[-90.693,35.145],[-90.727,35.19],[-90.735,35.248],[-90.592,35.412],[-90.532,35.528],[-90.404,35.628],[-90.363,35.646],[-90.332,35.639],[-90.318,35.627]]]}},{"type":"Feature","properties":{"density":1},"geometry":{"type":"Polygon","coordinates":[[[-89.688,36.605],[-89.686,36.527],[-89.766,36.417],[-89.85,36.379],[-89.895,36.392],[-89.932,36.437],[-89.893,36.538],[-89.761,36.618],[-89.701,36.622],[-89.688,36.605]]]}},{"type":"Feature","properties":{"density":1},"geometry":{"type":"Polygon","coordinates":[[[-89.764,36.311],[-89.761,36.223],[-89.941,35.986],[-90.07,35.953],[-90.139,35.977],[-90.154,36.02],[-90.12,36.081],[-90.007,36.188],[-89.884,36.361],[-89.854,36.363],[-89.839,36.296],[-89.777,36.318],[-89.764,36.311]]]}},{"type":"Feature","properties":{"density":1},"geometry":{"type":"Polygon","coordinates":[[[-91.679,50.947],[-91.528,50.883],[-91.237,50.799],[-91.062,50.673],[-91.053,50.58],[-91.076,50.531],[-91.146,50.505],[-91.237,50.516],[-91.609,50.822],[-91.734,50.877],[-91.726,50.93],[-91.699,50.947],[-91.679,50.947]]]}},{"type":"Feature","properties":{"density":1},"geometry":{"type":"Polygon","coordinates":[[[-81.082,26.746],[-81.033,26.832],[-80.908,26.974],[-80.774,27.056],[-80.475,27.096],[-80.436,27.036],[-80.49,26.965],[-80.808,26.817],[-80.905,26.789],[-80.996,26.735],[-81.056,26.712],[-81.084,26.726],[-81.082,26.746]]]}},{"type":"Feature","properties":{"density":1},"geometry":{"type":"Polygon","coordinates":[[[-90.546,36.681],[-90.515,36.622],[-90.542,36.46],[-90.564,36.437],[-90.602,36.439],[-90.64,36.463],[-90.677,36.531],[-90.625,36.629],[-90.558,36.691],[-90.546,36.681]]]}},{"type":"Feature","properties":{"density":1},"geometry":{"type":"Polygon","coordinates":[[[-90.06,36.827],[-90.119,36.813],[-90.249,36.722],[-90.342,36.545],[-90.527,36.389],[-90.574,36.332],[-90.608,36.251],[-90.58,36.215],[-90.533,36.198],[-90.391,36.259],[-90.335,36.331],[-90.216,36.426],[-90.172,36.563],[-90.105,36.639],[-90.088,36.74],[-90.048,36.782],[-90.042,36.822],[-90.057,36.832],[-90.06,36.827]]]}},{"type":"Feature","properties":{"density":1},"geometry":{"type":"Polygon","coordinates":[[[-89.636,36.711],[-89.681,36.714],[-89.738,36.655],[-89.813,36.625],[-89.865,36.548],[-90.015,36.389],[-90.004,36.298],[-90.033,36.219],[-90.101,36.132],[-90.107,36.007],[-90.209,35.794],[-90.204,35.736],[-90.173,35.695],[-90.081,35.697],[-90.005,35.763],[-89.935,35.863],[-89.77,35.995],[-89.719,36.08],[-89.691,36.268],[-89.663,36.351],[-89.668,36.43],[-89.685,36.455],[-89.665,36.524],[-89.579,36.631],[-89.584,36.695],[-89.618,36.713],[-89.636,36.711]]]}},{"type":"Feature","properties":{"density":1},"geometry":{"type":"Polygon","coordinates":[[[-90.29,35.695],[-90.27,35.6],[-90.281,35.502],[-90.328,35.41],[-90.624,35.114],[-90.705,35.089],[-90.798,35.203],[-90.805,35.29],[-90.756,35.367],[-90.671,35.419],[-90.364,35.684],[-90.305,35.709],[-90.29,35.695]]]}},{"type":"Feature","properties":{"density":1},"geometry":{"type":"Polygon","coordinates":[[[-90.843,36.295],[-90.825,36.249],[-90.834,36.173],[-90.907,36.066],[-91.055,35.927],[-91.168,35.923],[-91.166,36.055],[-91.055,36.168],[-90.961,36.313],[-90.861,36.32],[-90.843,36.295]]]}},{"type":"Feature","properties":{"density":1},"geometry":{"type":"Polygon","coordinates":[[[-90.676,36.433],[-90.703,36.429],[-90.812,36.346],[-90.859,36.277],[-90.845,36.244],[-90.747,36.262],[-90.702,36.3],[-90.667,36.344],[-90.656,36.429],[-90.676,36.433]]]}},{"type":"Feature","properties":{"density":1},"geometry":{"type":"Polygon","coordinates":[[[-90.847,34.931],[-90.849,34.825],[-91.174,34.597],[-91.357,34.407],[-91.449,34.345],[-91.609,34.298],[-91.645,34.342],[-91.602,34.416],[-91.417,34.546],[-91.175,34.799],[-90.93,34.968],[-90.892,34.98],[-90.85,34.957],[-90.847,34.931]]]}},{"type":"Feature","properties":{"density":1},"geometry":{"type":"Polygon","coordinates":[[[-90.816,34.475],[-90.888,34.477],[-91.022,34.377],[-91.145,34.214],[-91.204,34.16],[-91.225,34.12],[-91.201,34.082],[-91.084,34.081],[-90.95,34.137],[-90.884,34.204],[-90.805,34.33],[-90.807,34.48],[-90.816,34.475]]]}},{"type":"Feature","properties":{"density":1},"geometry":{"type":"Polygon","coordinates":[[[-92.005,34.821],[-92.048,34.778],[-92.123,34.744],[-92.19,34.653],[-92.433,34.58],[-92.728,34.452],[-92.737,34.493],[-92.716,34.546],[-92.569,34.635],[-92.509,34.704],[-92.482,34.771],[-92.348,34.823],[-92.308,34.858],[-92.001,34.838],[-92.005,34.821]]]}},{"type":"Feature","properties":{"density":1},"geometry":{"type":"Polygon","coordinates":[[[-92.621,34.403],[-92.893,34.303],[-92.917,34.328],[-92.872,34.403],[-92.844,34.417],[-92.766,34.419],[-92.645,34.453],[-92.62,34.43],[-92.621,34.403]]]}},{"type":"Feature","properties":{"density":1},"geometry":{"type":"Polygon","coordinates":[[[-92.765,34.689],[-92.808,34.676],[-92.857,34.626],[-92.948,34.595],[-93.011,34.595],[-93.109,34.638],[-93.147,34.698],[-93.135,34.745],[-92.955,34.751],[-92.815,34.733],[-92.745,34.696],[-92.765,34.689]]]}},{"type":"Feature","properties":{"density":1},"geometry":{"type":"Polygon","coordinates":[[[-88.931,37.409],[-88.874,37.369],[-88.851,37.29],[-88.84,37.1],[-88.866,37.054],[-89.002,36.998],[-89.101,37.066],[-89.104,37.108],[-89.041,37.224],[-88.976,37.397],[-88.931,37.409]]]}},{"type":"Feature","properties":{"density":1},"geometry":{"type":"Polygon","coordinates":[[[-88.681,37.627],[-88.605,37.516],[-88.588,37.431],[-88.582,37.36],[-88.639,37.29],[-88.681,37.298],[-88.735,37.375],[-88.735,37.576],[-88.715,37.618],[-88.681,37.627]]]}},{"type":"Feature","properties":{"density":1},"geometry":{"type":"Polygon","coordinates":[[[-87.977,33.658],[-87.994,33.482],[-87.975,33.363],[-87.934,33.321],[-87.858,33.301],[-87.801,33.325],[-87.772,33.368],[-87.8,33.477],[-87.887,33.559],[-87.898,33.667],[-87.925,33.686],[-87.975,33.678],[-87.977,33.658]]]}},{"type":"Feature","properties":{"density":1},"geometry":{"type":"Polygon","coordinates":[[[-86.228,33.463],[-86.117,33.316],[-86.05,33.187],[-85.99,33.136],[-85.887,33.087],[-85.718,32.937],[-85.615,32.911],[-85.58,32.929],[-85.577,32.989],[-85.86,33.24],[-85.927,33.346],[-86.093,33.428],[-86.186,33.497],[-86.224,33.482],[-86.228,33.463]]]}},{"type":"Feature","properties":{"density":1},"geometry":{"type":"Polygon","coordinates":[[[-88.905,30.827],[-88.775,30.667],[-88.679,30.639],[-88.627,30.654],[-88.619,30.693],[-88.648,30.744],[-88.831,30.833],[-88.868,30.846],[-88.903,30.835],[-88.905,30.827]]]}},{"type":"Feature","properties":{"density":1},"geometry":{"type":"Polygon","coordinates":[[[-92.398,31.079],[-92.068,31.237],[-91.99,31.264],[-91.859,31.278],[-91.596,31.237],[-91.569,31.219],[-91.529,31.132],[-91.58,31.077],[-91.653,31.046],[-91.77,31.028],[-92.095,30.894],[-92.216,30.925],[-92.278,31.006],[-92.391,31.043],[-92.403,31.064],[-92.398,31.079]]]}},{"type":"Feature","properties":{"density":1},"geometry":{"type":"Polygon","coordinates":[[[-91.749,30.936],[-91.718,30.985],[-91.627,31.025],[-91.569,31.03],[-91.489,30.968],[-91.497,30.921],[-91.618,30.919],[-91.703,30.887],[-91.741,30.905],[-91.749,30.936]]]}},{"type":"Feature","properties":{"density":1},"geometry":{"type":"Polygon","coordinates":[[[-91.544,30.716],[-91.439,30.791],[-91.37,30.82],[-91.188,30.851],[-91.062,30.834],[-91.002,30.794],[-91.0,30.731],[-91.034,30.691],[-91.103,30.678],[-91.39,30.7],[-91.517,30.66],[-91.553,30.705],[-91.544,30.716]]]}},{"type":"Feature","properties":{"density":1},"geometry":{"type":"Polygon","coordinates":[[[-90.945,30.152],[-90.792,30.252],[-90.722,30.268],[-90.663,30.233],[-90.65,30.195],[-90.612,30.166],[-90.542,30.137],[-90.499,30.0],[-90.557,29.918],[-90.465,29.804],[-90.461,29.666],[-90.529,29.627],[-90.866,29.702],[-90.943,29.707],[-91.04,29.685],[-91.215,29.733],[-91.413,29.718],[-91.479,29.772],[-91.713,29.818],[-91.701,29.846],[-91.64,29.868],[-91.559,29.882],[-91.502,29.87],[-91.399,29.924],[-91.384,29.959],[-91.32,29.969],[-91.249,30.04],[-91.095,30.056],[-91.027,30.113],[-90.974,30.136],[-90.945,30.152]]]}},{"type":"Feature","properties":{"density":1},"geometry":{"type":"Polygon","coordinates":[[[-92.046,30.042],[-91.978,30.052],[-91.887,30.037],[-91.859,29.992],[-91.756,29.924],[-91.714,29.83],[-91.711,29.736],[-91.745,29.699],[-91.887,29.704],[-92.099,29.82],[-92.131,29.86],[-92.125,29.878],[-92.035,29.939],[-92.058,30.027],[-92.046,30.042]]]}},{"type":"Feature","properties":{"density":1},"geometry":{"type":"Polygon","coordinates":[[[-93.795,29.788],[-93.736,29.767],[-93.648,29.679],[-93.555,29.616],[-93.492,29.593],[-93.403,29.593],[-93.204,29.62],[-93.081,29.663],[-93.025,29.715],[-93.016,29.824],[-93.077,29.885],[-93.222,29.94],[-93.523,29.98],[-93.648,29.965],[-93.779,29.922],[-93.804,29.879],[-93.804,29.84],[-93.795,29.788]]]}},{"type":"Feature","properties":{"density":1},"geometry":{"type":"Polygon","coordinates":[[[-93.7,30.234],[-93.691,30.275],[-93.648,30.332],[-93.58,30.373],[-93.442,30.368],[-93.417,30.289],[-93.469,30.225],[-93.544,30.191],[-93.625,30.184],[-93.675,30.209],[-93.7,30.234]]]}},{"type":"Feature","properties":{"density":1},"geometry":{"type":"Polygon","coordinates":[[[-80.52,26.522],[-80.449,26.632],[-80.33,26.74],[-80.236,26.785],[-80.138,26.785],[-80.028,26.656],[-80.015,26.464],[-80.07,26.361],[-80.136,26.338],[-80.241,26.343],[-80.343,26.401],[-80.459,26.422],[-80.501,26.461],[-80.517,26.501],[-80.52,26.522]]]}},{"type":"Feature","properties":{"density":1},"geometry":{"type":"Polygon","coordinates":[[[-82.004,28.672],[-81.955,28.742],[-81.953,28.786],[-82.021,28.818],[-82.061,28.71],[-82.031,28.672],[-82.004,28.672]]]}},{"type":"Feature","properties":{"density":1},"geometry":{"type":"Polygon","coordinates":[[[-86.226,33.469],[-86.224,33.382],[-86.177,33.271],[-86.099,33.147],[-85.876,32.871],[-85.742,32.743],[-85.655,32.69],[-85.508,32.68],[-85.493,32.736],[-85.538,32.844],[-85.622,32.957],[-86.104,33.443],[-86.156,33.485],[-86.221,33.483],[-86.226,33.469]]]}},{"type":"Feature","properties":{"density":1},"geometry":{"type":"Polygon","coordinates":[[[-87.983,33.647],[-88.026,33.515],[-88.101,33.381],[-88.115,33.316],[-88.093,33.261],[-88.045,33.223],[-87.971,33.263],[-87.902,33.433],[-87.901,33.601],[-87.938,33.666],[-87.983,33.655],[-87.983,33.647]]]}},{"type":"Feature","properties":{"density":1},"geometry":{"type":"Polygon","coordinates":[[[-90.341,34.004],[-90.474,33.819],[-90.548,33.758],[-90.626,33.716],[-90.75,33.714],[-90.777,33.773],[-90.757,33.856],[-90.558,34.026],[-90.434,34.078],[-90.35,34.071],[-90.343,34.019],[-90.341,34.004]]]}},{"type":"Feature","properties":{"density":1},"geometry":{"type":"Polygon","coordinates":[[[-90.796,34.425],[-90.817,34.29],[-90.913,34.127],[-91.08,33.952],[-91.198,33.859],[-91.289,33.814],[-91.407,33.809],[-91.474,33.861],[-91.444,33.969],[-91.134,34.344],[-91.018,34.433],[-90.927,34.47],[-90.821,34.467],[-90.796,34.425]]]}},{"type":"Feature","properties":{"density":1},"geometry":{"type":"Polygon","coordinates":[[[-90.86,34.938],[-91.026,34.699],[-91.11,34.65],[-91.193,34.68],[-91.203,34.741],[-91.166,34.808],[-91.087,34.891],[-90.964,34.96],[-90.881,34.973],[-90.868,34.957],[-90.86,34.938]]]}},{"type":"Feature","properties":{"density":1},"geometry":{"type":"Polygon","coordinates":[[[-90.943,34.794],[-90.743,34.836],[-90.488,35.041],[-90.28,35.268],[-90.088,35.594],[-89.862,35.896],[-89.828,36.017],[-89.757,36.13],[-89.696,36.291],[-89.615,36.659],[-89.638,36.73],[-89.736,36.701],[-89.878,36.622],[-89.935,36.569],[-89.978,36.509],[-90.035,36.322],[-90.138,36.112],[-90.372,35.812],[-90.456,35.615],[-90.598,35.473],[-91.001,35.157],[-91.048,35.02],[-91.051,34.899],[-91.022,34.852],[-90.943,34.794]]]}},{"type":"Feature","properties":{"density":1},"geometry":{"type":"Polygon","coordinates":[[[-91.532,34.839],[-91.545,34.792],[-91.584,34.739],[-91.621,34.726],[-91.716,34.718],[-91.768,34.81],[-91.74,34.863],[-91.679,34.894],[-91.613,34.91],[-91.545,34.886],[-91.532,34.839]]]}},{"type":"Feature","properties":{"density":1},"geometry":{"type":"Polygon","coordinates":[[[-91.995,34.807],[-92.176,34.689],[-92.363,34.592],[-92.652,34.476],[-92.768,34.45],[-92.849,34.455],[-93.036,34.494],[-93.047,34.508],[-92.828,34.581],[-92.713,34.652],[-92.323,34.797],[-92.042,34.871],[-91.992,34.834],[-91.995,34.807]]]}},{"type":"Feature","properties":{"density":1},"geometry":{"type":"Polygon","coordinates":[[[-92.607,34.395],[-92.947,34.258],[-93.52,34.218],[-93.591,34.242],[-93.675,34.295],[-93.675,34.373],[-93.588,34.431],[-93.433,34.46],[-92.997,34.45],[-92.684,34.463],[-92.621,34.444],[-92.602,34.421],[-92.607,34.395]]]}},{"type":"Feature","properties":{"density":1},"geometry":{"type":"Polygon","coordinates":[[[-92.742,34.66],[-92.86,34.615],[-93.097,34.565],[-93.299,34.552],[-93.502,34.565],[-93.638,34.594],[-93.652,34.726],[-93.559,34.768],[-93.268,34.781],[-92.826,34.742],[-92.76,34.721],[-92.744,34.686],[-92.742,34.66]]]}},{"type":"Feature","properties":{"density":1},"geometry":{"type":"Polygon","coordinates":[[[-89.71,37.026],[-89.665,36.948],[-89.673,36.858],[-89.78,36.702],[-89.957,36.505],[-90.027,36.583],[-89.965,36.796],[-90.064,36.837],[-90.101,36.879],[-90.121,37.043],[-90.105,37.105],[-90.072,37.15],[-89.957,37.187],[-89.87,37.088],[-89.718,37.076],[-89.702,37.055],[-89.71,37.026]]]}},{"type":"Feature","properties":{"density":1},"geometry":{"type":"Polygon","coordinates":[[[-90.01,36.809],[-90.027,36.722],[-90.018,36.607],[-90.039,36.533],[-90.212,36.431],[-90.351,36.307],[-90.47,36.291],[-90.458,36.398],[-90.384,36.537],[-90.306,36.747],[-90.244,36.809],[-90.199,36.825],[-90.154,36.805],[-90.097,36.846],[-90.043,36.858],[-90.018,36.825],[-90.01,36.809]]]}},{"type":"Feature","properties":{"density":1},"geometry":{"type":"Polygon","coordinates":[[[-90.491,36.669],[-90.491,36.476],[-90.446,36.385],[-90.409,36.192],[-90.475,36.011],[-90.869,35.695],[-90.935,35.707],[-90.992,35.785],[-91.099,35.822],[-91.227,35.724],[-91.49,35.707],[-91.58,35.827],[-91.531,35.95],[-91.473,36.176],[-91.461,36.361],[-91.247,36.439],[-91.103,36.377],[-90.984,36.41],[-90.873,36.5],[-90.754,36.55],[-90.622,36.694],[-90.524,36.706],[-90.491,36.669]]]}},{"type":"Feature","properties":{"density":1},"geometry":{"type":"Polygon","coordinates":[[[-92.237,35.892],[-92.702,35.564],[-92.846,35.543],[-93.035,35.613],[-93.072,35.654],[-93.01,35.814],[-92.833,35.892],[-92.542,35.95],[-92.287,35.962],[-92.213,35.946],[-92.213,35.933],[-92.237,35.892]]]}},{"type":"Feature","properties":{"density":1},"geometry":{"type":"Polygon","coordinates":[[[-93.392,36.168],[-93.704,36.065],[-93.881,36.032],[-94.046,36.028],[-94.218,36.065],[-94.329,36.127],[-94.362,36.164],[-94.325,36.242],[-94.185,36.27],[-93.507,36.258],[-93.409,36.225],[-93.392,36.168]]]}},{"type":"Feature","properties":{"density":1},"geometry":{"type":"Polygon","coordinates":[[[-94.777,37.322],[-95.151,37.421],[-95.315,37.446],[-95.632,37.458],[-95.759,37.421],[-95.804,37.322],[-95.763,37.248],[-95.603,37.211],[-95.18,37.248],[-94.802,37.228],[-94.765,37.265],[-94.756,37.302],[-94.777,37.322]]]}},{"type":"Feature","properties":{"density":1},"geometry":{"type":"Polygon","coordinates":[[[-98.537,35.181],[-98.64,35.264],[-98.779,35.264],[-98.977,35.305],[-99.203,35.391],[-99.515,35.469],[-99.926,35.543],[-100.078,35.592],[-100.341,35.522],[-100.201,35.362],[-98.751,35.099],[-98.636,35.091],[-98.566,35.116],[-98.537,35.161],[-98.537,35.181]]]}},{"type":"Feature","properties":{"density":1},"geometry":{"type":"Polygon","coordinates":[[[-97.945,36.266],[-98.052,36.307],[-98.323,36.533],[-98.492,36.537],[-98.66,36.464],[-98.677,36.377],[-98.619,36.311],[-98.512,36.27],[-98.031,36.201],[-97.949,36.213],[-97.933,36.242],[-97.945,36.266]]]}},{"type":"Feature","properties":{"density":1},"geometry":{"type":"Polygon","coordinates":[[[-100.431,35.227],[-100.756,35.847],[-100.887,36.016],[-101.072,36.159],[-101.237,36.225],[-101.422,36.184],[-101.418,36.003],[-101.344,35.868],[-101.163,35.687],[-100.887,35.37],[-100.785,35.292],[-100.633,35.206],[-100.46,35.198],[-100.431,35.227]]]}},{"type":"Feature","properties":{"density":1},"geometry":{"type":"Polygon","coordinates":[[[-93.026,38.172],[-93.128,38.122],[-93.397,38.063],[-93.539,38.063],[-93.66,38.099],[-93.7,38.162],[-93.693,38.244],[-93.601,38.28],[-93.157,38.283],[-93.026,38.244],[-93.006,38.221],[-93.026,38.172]]]}},{"type":"Feature","properties":{"density":1},"geometry":{"type":"Polygon","coordinates":[[[-88.943,37.425],[-88.982,37.393],[-89.032,37.179],[-89.048,36.903],[-89.019,36.771],[-88.966,36.689],[-88.884,36.64],[-88.772,36.676],[-88.759,36.715],[-88.759,36.893],[-88.825,37.258],[-88.897,37.416],[-88.943,37.425]]]}},{"type":"Feature","properties":{"density":1},"geometry":{"type":"Polygon","coordinates":[[[-88.703,37.646],[-88.516,37.462],[-88.443,37.317],[-88.45,37.146],[-88.493,37.011],[-88.548,36.916],[-88.611,36.863],[-88.654,36.906],[-88.693,37.057],[-88.713,37.35],[-88.746,37.495],[-88.749,37.587],[-88.723,37.613],[-88.703,37.646]]]}},{"type":"Feature","properties":{"density":1},"geometry":{"type":"Polygon","coordinates":[[[-88.687,37.827],[-88.617,37.761],[-88.608,37.728],[-88.627,37.679],[-88.673,37.679],[-88.71,37.767],[-88.706,37.813],[-88.687,37.827]]]}},{"type":"Feature","properties":{"density":1},"geometry":{"type":"Polygon","coordinates":[[[-87.687,36.719],[-87.671,36.663],[-87.506,36.373],[-87.5,36.255],[-87.546,36.104],[-87.595,36.074],[-87.644,36.114],[-87.631,36.242],[-87.661,36.377],[-87.763,36.65],[-87.763,36.686],[-87.707,36.722],[-87.687,36.719]]]}},{"type":"Feature","properties":{"density":1},"geometry":{"type":"Polygon","coordinates":[[[-91.783,40.93],[-91.76,41.035],[-91.612,41.097],[-91.458,41.065],[-91.261,41.107],[-91.106,41.114],[-90.919,41.028],[-90.883,40.89],[-90.938,40.765],[-91.093,40.719],[-91.399,40.762],[-91.658,40.831],[-91.75,40.894],[-91.783,40.93]]]}},{"type":"Feature","properties":{"density":1},"geometry":{"type":"Polygon","coordinates":[[[-88.34,42.483],[-88.198,42.43],[-87.991,42.388],[-87.902,42.348],[-87.814,42.23],[-87.909,42.161],[-88.251,42.338],[-88.346,42.414],[-88.359,42.457],[-88.34,42.483]]]}},{"type":"Feature","properties":{"density":1},"geometry":{"type":"Polygon","coordinates":[[[-89.043,44.094],[-88.807,44.054],[-88.231,43.791],[-87.801,43.653],[-87.662,43.581],[-87.6,43.459],[-87.755,43.315],[-88.044,43.351],[-88.333,43.466],[-88.53,43.558],[-89.007,43.897],[-89.06,43.952],[-89.079,44.015],[-89.069,44.077],[-89.043,44.094]]]}},{"type":"Feature","properties":{"density":1},"geometry":{"type":"Polygon","coordinates":[[[-95.676,41.658],[-95.823,41.989],[-95.91,42.063],[-96.094,42.11],[-96.165,42.063],[-96.181,41.939],[-96.11,41.824],[-96.012,41.734],[-95.91,41.65],[-95.794,41.592],[-95.673,41.624],[-95.676,41.658]]]}},{"type":"Feature","properties":{"density":1},"geometry":{"type":"Polygon","coordinates":[[[-90.553,43.213],[-90.37,43.192],[-90.33,43.138],[-90.3,43.045],[-90.511,43.142],[-90.561,43.199],[-90.553,43.213]]]}},{"type":"Feature","properties":{"density":1},"geometry":{"type":"Polygon","coordinates":[[[-97.498,47.934],[-97.417,47.921],[-97.361,47.892],[-97.241,47.821],[-97.235,47.779],[-97.288,47.763],[-97.469,47.834],[-97.509,47.929],[-97.498,47.934]]]}},{"type":"Feature","properties":{"density":1},"geometry":{"type":"Polygon","coordinates":[[[-107.375,43.645],[-107.345,43.772],[-107.254,43.863],[-107.103,43.899],[-106.924,43.914],[-106.749,43.89],[-106.628,43.836],[-106.51,43.76],[-106.516,43.685],[-106.655,43.633],[-107.091,43.564],[-107.151,43.542],[-107.269,43.533],[-107.345,43.594],[-107.375,43.645]]]}},{"type":"Feature","properties":{"density":1},"geometry":{"type":"Polygon","coordinates":[[[-105.033,19.691],[-103.512,19.691],[-101.935,19.353],[-101.034,19.099],[-98.781,19.071],[-97.683,19.353],[-97.401,20.029],[-97.542,20.986],[-97.908,21.831],[-98.584,23.126],[-99.035,24.788],[-99.035,26.196],[-98.631,27.953],[-97.542,29.744],[-96.021,30.721],[-95.069,31.211],[-94.022,31.575],[-92.473,31.941],[-90.812,32.279],[-89.544,32.645],[-87.996,32.926],[-86.548,33.36],[-85.193,33.792],[-83.546,34.25],[-81.659,34.531],[-79.829,34.845],[-78.186,35.018],[-76.478,35.038],[-71.465,35.038],[-69.635,35.292],[-67.635,35.602],[-66.509,35.855],[-65.242,35.855],[-64.431,35.652],[-64.172,35.151],[-64.397,34.588],[-65.017,33.827],[-66.481,32.954],[-68.199,32.504],[-69.579,32.25],[-75.126,31.462],[-76.957,31.293],[-78.168,30.955],[-79.801,30.336],[-80.983,30.0],[-82.701,29.603],[-86.813,29.294],[-89.009,29.378],[-90.051,29.434],[-91.407,29.308],[-92.921,28.948],[-94.388,27.97],[-95.026,27.016],[-95.12,26.111],[-95.12,25.098],[-95.008,24.028],[-94.557,23.014],[-94.05,22.028],[-93.487,19.381],[-93.431,18.339],[-93.853,17.241],[-95.008,16.143],[-96.923,16.086],[-98.809,16.312],[-100.217,16.255],[-101.541,15.861],[-102.639,15.805],[-103.371,16.002],[-104.498,15.748],[-106.3,15.213],[-107.032,15.213],[-107.195,15.813],[-106.806,16.26],[-105.638,16.764],[-105.177,17.427],[-105.343,18.114],[-105.652,18.677],[-105.821,19.24],[-105.523,19.547],[-105.033,19.691]]]}},{"type":"Feature","properties":{"density":2},"geometry":{"type":"Polygon","coordinates":[[[-86.178,33.464],[-86.044,33.318],[-86.009,33.234],[-86.008,33.192],[-86.083,33.248],[-86.136,33.315],[-86.203,33.443],[-86.191,33.465],[-86.178,33.464]]]}},{"type":"Feature","properties":{"density":2},"geometry":{"type":"Polygon","coordinates":[[[-92.642,34.405],[-92.789,34.41],[-92.778,34.429],[-92.652,34.418],[-92.642,34.405]]]}},{"type":"Feature","properties":{"density":2},"geometry":{"type":"Polygon","coordinates":[[[-97.483,47.897],[-97.47,47.917],[-97.444,47.914],[-97.395,47.862],[-97.469,47.879],[-97.483,47.897]]]}},{"type":"Feature","properties":{"density":2},"geometry":{"type":"Polygon","coordinates":[[[-91.717,50.955],[-91.594,50.943],[-91.438,50.881],[-91.195,50.815],[-90.772,50.639],[-90.353,50.433],[-89.958,50.199],[-89.843,50.063],[-89.864,49.944],[-90.0,49.895],[-90.205,49.916],[-90.76,50.162],[-91.027,50.384],[-91.228,50.503],[-91.713,50.852],[-91.746,50.914],[-91.73,50.931],[-91.717,50.955]]]}}]}