{"type":"FeatureCollection","features":[{"type":"Feature","properties":{"density":1},"geometry":{"type":"Polygon","coordinates":[[[-82.408,11.317],[-82.522,13.454],[-82.363,14.818],[-82.363,15.841],[-82.908,17.524],[-83.295,18.661],[-83.795,19.98],[-84.864,21.617],[-84.546,22.708],[-83.204,24.209],[-82.135,24.504],[-81.021,25.027],[-80.999,25.573],[-82.158,26.278],[-83.454,27.983],[-84.068,27.938],[-85.643,28.153],[-86.33,28.445],[-87.308,28.456],[-88.263,28.107],[-89.613,27.991],[-90.821,27.301],[-91.822,27.028],[-93.118,26.437],[-93.686,25.755],[-95.187,24.845],[-96.642,23.845],[-98.143,23.845],[-99.825,24.231],[-100.689,24.004],[-99.984,21.526],[-99.12,20.389],[-97.892,19.207],[-97.028,17.82],[-95.209,16.956],[-93.777,16.865],[-92.39,17.206],[-91.594,17.888],[-90.435,18.479],[-89.798,18.774],[-88.957,18.138],[-88.82,17.297],[-88.729,16.546],[-88.547,16.001],[-87.933,15.932],[-86.615,15.978],[-85.228,15.955],[-84.25,15.682],[-83.636,13.318],[-83.591,12.363],[-83.704,11.408],[-83.5,10.93],[-82.931,10.725],[-82.567,11.089],[-82.408,11.317]]]}},{"type":"Feature","properties":{"density":1},"geometry":{"type":"Polygon","coordinates":[[[-76.999,20.69],[-77.075,20.721],[-77.259,20.746],[-77.296,20.713],[-77.302,20.67],[-77.218,20.657],[-77.011,20.664],[-76.999,20.69]]]}},{"type":"Feature","properties":{"density":1},"geometry":{"type":"Polygon","coordinates":[[[-79.819,22.752],[-79.968,22.891],[-79.984,22.989],[-79.941,23.014],[-79.868,22.948],[-79.829,22.869],[-79.812,22.764],[-79.819,22.752]]]}},{"type":"Feature","properties":{"density":1},"geometry":{"type":"Polygon","coordinates":[[[-80.667,26.715],[-80.831,27.018],[-80.915,27.272],[-80.944,27.471],[-80.847,27.528],[-80.72,27.44],[-80.591,27.309],[-80.466,26.914],[-80.446,26.766],[-80.46,26.637],[-80.566,26.612],[-80.644,26.67],[-80.653,26.694],[-80.667,26.715]]]}},{"type":"Feature","properties":{"density":1},"geometry":{"type":"Polygon","coordinates":[[[-91.844,35.249],[-91.861,35.356],[-91.827,35.405],[-91.781,35.432],[-91.732,35.402],[-91.749,35.332],[-91.798,35.253],[-91.844,35.249]]]}},{"type":"Feature","properties":{"density":1},"geometry":{"type":"Polygon","coordinates":[[[-94.705,36.01],[-94.705,35.93],[-94.686,35.874],[-94.627,35.83],[-94.583,35.852],[-94.593,35.932],[-94.674,36.03],[-94.705,36.01]]]}},{"type":"Feature","properties":{"density":1},"geometry":{"type":"Polygon","coordinates":[[[-94.87,36.018],[-94.85,35.828],[-94.816,35.767],[-94.772,35.765],[-94.75,35.811],[-94.772,35.938],[-94.835,36.031],[-94.87,36.018]]]}},{"type":"Feature","properties":{"density":1},"geometry":{"type":"Polygon","coordinates":[[[-106.317,26.524],[-106.61,26.374],[-106.735,26.384],[-106.803,26.499],[-106.653,26.597],[-106.394,26.634],[-106.238,26.619],[-106.223,26.557],[-106.272,26.524],[-106.317,26.524]]]}},{"type":"Feature","properties":{"density":1},"geometry":{"type":"Polygon","coordinates":[[[-106.104,23.612],[-106.271,23.455],[-106.314,23.355],[-106.395,23.288],[-106.495,22.94],[-106.619,22.921],[-106.719,23.126],[-106.705,23.369],[-106.524,23.536],[-106.199,23.703],[-106.104,23.612]]]}},{"type":"Feature","properties":{"density":1},"geometry":{"type":"Polygon","coordinates":[[[-103.652,20.85],[-103.726,20.938],[-103.845,20.977],[-103.931,20.987],[-104.016,20.916],[-104.187,20.86],[-104.258,20.777],[-104.275,20.691],[-104.158,20.518],[-104.124,20.113],[-104.087,20.098],[-104.036,20.179],[-103.972,20.364],[-103.838,20.472],[-103.66,20.562],[-103.643,20.711],[-103.65,20.784],[-103.652,20.85]]]}},{"type":"Feature","properties":{"density":1},"geometry":{"type":"Polygon","coordinates":[[[-104.197,21.011],[-104.192,21.114],[-104.248,21.214],[-104.299,21.155],[-104.248,21.036],[-104.197,21.011]]]}},{"type":"Feature","properties":{"density":1},"geometry":{"type":"Polygon","coordinates":[[[-104.211,19.698],[-104.17,19.673],[-104.138,19.69],[-104.087,19.734],[-104.082,19.771],[-104.214,19.922],[-104.29,19.903],[-104.312,19.808],[-104.25,19.764],[-104.211,19.698]]]}},{"type":"Feature","properties":{"density":1},"geometry":{"type":"Polygon","coordinates":[[[-105.471,20.257],[-105.549,20.176],[-105.576,20.181],[-105.559,20.245],[-105.483,20.313],[-105.471,20.257]]]}},{"type":"Feature","properties":{"density":1},"geometry":{"type":"Polygon","coordinates":[[[-102.725,20.882],[-103.118,20.757],[-103.188,20.779],[-103.281,20.777],[-103.357,20.748],[-103.462,20.677],[-103.516,20.562],[-102.961,20.496],[-102.844,20.511],[-102.808,20.574],[-102.832,20.621],[-102.749,20.74],[-102.707,20.843],[-102.725,20.882]]]}},{"type":"Feature","properties":{"density":1},"geometry":{"type":"Polygon","coordinates":[[[-98.798,30.395],[-98.664,30.498],[-98.603,30.569],[-98.451,30.645],[-98.316,30.633],[-98.054,30.553],[-97.95,30.62],[-97.733,30.59],[-97.526,30.541],[-97.379,30.449],[-97.349,30.236],[-97.517,30.129],[-97.926,30.291],[-98.38,30.324],[-98.567,30.306],[-98.734,30.312],[-98.817,30.352],[-98.829,30.379],[-98.798,30.395]]]}},{"type":"Feature","properties":{"density":1},"geometry":{"type":"Polygon","coordinates":[[[-94.943,30.33],[-94.821,30.257],[-94.805,30.291],[-94.836,30.343],[-94.915,30.343],[-94.943,30.33]]]}},{"type":"Feature","properties":{"density":1},"geometry":{"type":"Polygon","coordinates":[[[-94.75,30.288],[-94.744,30.269],[-94.701,30.248],[-94.671,30.196],[-94.546,30.153],[-94.497,30.163],[-94.497,30.239],[-94.607,30.285],[-94.735,30.315],[-94.75,30.288]]]}},{"type":"Feature","properties":{"density":1},"geometry":{"type":"Polygon","coordinates":[[[-95.672,30.663],[-95.66,30.562],[-95.571,30.437],[-95.55,30.437],[-95.529,30.471],[-95.538,30.538],[-95.559,30.59],[-95.608,30.648],[-95.672,30.663]]]}},{"type":"Feature","properties":{"density":1},"geometry":{"type":"Polygon","coordinates":[[[-94.994,35.756],[-94.955,35.634],[-94.885,35.506],[-94.857,35.521],[-94.857,35.61],[-94.888,35.708],[-94.952,35.772],[-94.994,35.756]]]}},{"type":"Feature","properties":{"density":1},"geometry":{"type":"Polygon","coordinates":[[[-97.277,35.75],[-97.277,35.698],[-97.237,35.589],[-97.204,35.576],[-97.189,35.607],[-97.207,35.705],[-97.244,35.766],[-97.277,35.75]]]}},{"type":"Feature","properties":{"density":1},"geometry":{"type":"Polygon","coordinates":[[[-98.626,37.877],[-98.589,37.911],[-98.516,37.923],[-98.449,37.96],[-98.345,37.945],[-98.309,37.893],[-98.318,37.81],[-98.394,37.722],[-98.467,37.725],[-98.629,37.853],[-98.626,37.877]]]}},{"type":"Feature","properties":{"density":1},"geometry":{"type":"Polygon","coordinates":[[[-98.873,38.048],[-98.834,38.076],[-98.711,38.118],[-98.608,38.125],[-98.556,38.109],[-98.565,38.054],[-98.73,37.99],[-98.876,37.999],[-98.913,38.015],[-98.873,38.048]]]}},{"type":"Feature","properties":{"density":1},"geometry":{"type":"Polygon","coordinates":[[[-96.155,35.018],[-96.07,34.749],[-96.007,34.744],[-96.002,34.815],[-96.043,34.932],[-96.077,34.993],[-96.114,35.022],[-96.155,35.018]]]}},{"type":"Feature","properties":{"density":1},"geometry":{"type":"Polygon","coordinates":[[[-96.553,35.013],[-96.544,34.944],[-96.522,34.913],[-96.48,34.91],[-96.502,35.022],[-96.529,35.042],[-96.553,35.013]]]}},{"type":"Feature","properties":{"density":1},"geometry":{"type":"Polygon","coordinates":[[[-95.623,34.432],[-95.633,34.358],[-95.599,34.2],[-95.545,34.18],[-95.57,34.351],[-95.606,34.424],[-95.623,34.432]]]}},{"type":"Feature","properties":{"density":1},"geometry":{"type":"Polygon","coordinates":[[[-76.652,20.387],[-76.787,20.492],[-76.919,20.509],[-76.965,20.504],[-77.041,20.436],[-77.019,20.368],[-76.816,20.326],[-76.677,20.368],[-76.652,20.387]]]}},{"type":"Feature","properties":{"density":1},"geometry":{"type":"Polygon","coordinates":[[[-76.992,20.676],[-77.048,20.633],[-77.211,20.565],[-77.291,20.551],[-77.332,20.602],[-77.306,20.674],[-77.007,20.707],[-76.992,20.676]]]}},{"type":"Feature","properties":{"density":1},"geometry":{"type":"Polygon","coordinates":[[[-94.133,29.744],[-94.152,29.637],[-94.094,29.319],[-94.084,29.063],[-94.042,28.947],[-93.987,28.932],[-93.92,29.002],[-93.917,29.185],[-94.017,29.609],[-94.057,29.679],[-94.124,29.74],[-94.124,29.765],[-94.133,29.744]]]}},{"type":"Feature","properties":{"density":1},"geometry":{"type":"Polygon","coordinates":[[[-96.083,28.736],[-96.141,28.663],[-96.135,28.569],[-96.074,28.434],[-96.068,28.285],[-96.025,28.157],[-95.925,28.035],[-95.763,28.031],[-95.79,28.212],[-95.934,28.468],[-95.998,28.627],[-96.022,28.73],[-96.083,28.736]]]}},{"type":"Feature","properties":{"density":1},"geometry":{"type":"Polygon","coordinates":[[[-96.459,28.627],[-96.349,28.309],[-96.26,28.306],[-96.26,28.425],[-96.343,28.566],[-96.431,28.648],[-96.459,28.627]]]}},{"type":"Feature","properties":{"density":1},"geometry":{"type":"Polygon","coordinates":[[[-96.672,28.364],[-96.611,28.199],[-96.593,28.068],[-96.489,28.028],[-96.459,28.135],[-96.538,28.321],[-96.636,28.389],[-96.672,28.364]]]}},{"type":"Feature","properties":{"density":1},"geometry":{"type":"Polygon","coordinates":[[[-98.189,38.573],[-98.006,38.688],[-97.907,38.676],[-97.869,38.585],[-97.979,38.543],[-98.162,38.52],[-98.189,38.573]]]}},{"type":"Feature","properties":{"density":1},"geometry":{"type":"Polygon","coordinates":[[[-94.706,36.097],[-94.51,35.94],[-94.32,35.735],[-94.272,35.644],[-94.267,35.563],[-94.305,35.544],[-94.415,35.63],[-94.701,35.988],[-94.749,36.059],[-94.73,36.088],[-94.706,36.097]]]}},{"type":"Feature","properties":{"density":1},"geometry":{"type":"Polygon","coordinates":[[[-94.854,36.039],[-94.754,35.975],[-94.619,35.837],[-94.461,35.66],[-94.467,35.608],[-94.503,35.611],[-94.626,35.703],[-94.873,35.99],[-94.876,36.036],[-94.854,36.039]]]}},{"type":"Feature","properties":{"density":1},"geometry":{"type":"Polygon","coordinates":[[[-94.983,35.758],[-94.873,35.691],[-94.51,35.392],[-94.476,35.343],[-94.473,35.3],[-94.513,35.291],[-94.58,35.319],[-94.98,35.688],[-95.001,35.749],[-94.983,35.758]]]}},{"type":"Feature","properties":{"density":1},"geometry":{"type":"Polygon","coordinates":[[[-95.169,35.706],[-95.007,35.593],[-94.842,35.441],[-94.778,35.358],[-94.784,35.331],[-94.815,35.322],[-94.934,35.38],[-95.19,35.663],[-95.205,35.697],[-95.184,35.715],[-95.178,35.706],[-95.169,35.706]]]}},{"type":"Feature","properties":{"density":1},"geometry":{"type":"Polygon","coordinates":[[[-93.51,35.265],[-93.422,35.276],[-93.323,35.257],[-93.281,35.238],[-93.281,35.2],[-93.316,35.169],[-93.419,35.177],[-93.499,35.211],[-93.529,35.238],[-93.525,35.257],[-93.51,35.265]]]}},{"type":"Feature","properties":{"density":1},"geometry":{"type":"Polygon","coordinates":[[[-96.213,37.698],[-96.033,37.67],[-95.905,37.594],[-95.862,37.551],[-95.856,37.512],[-95.883,37.499],[-95.932,37.506],[-96.198,37.64],[-96.225,37.686],[-96.213,37.698]]]}},{"type":"Feature","properties":{"density":1},"geometry":{"type":"Polygon","coordinates":[[[-97.155,40.042],[-97.06,40.141],[-96.881,40.259],[-96.785,40.294],[-96.713,40.294],[-96.621,40.198],[-96.644,40.099],[-96.736,40.053],[-97.087,39.996],[-97.159,40.011],[-97.155,40.042]]]}},{"type":"Feature","properties":{"density":1},"geometry":{"type":"Polygon","coordinates":[[[-97.552,39.26],[-97.495,39.329],[-97.197,39.546],[-97.075,39.577],[-96.987,39.546],[-96.953,39.47],[-96.957,39.424],[-97.01,39.359],[-97.373,39.241],[-97.521,39.214],[-97.544,39.226],[-97.552,39.26]]]}},{"type":"Feature","properties":{"density":1},"geometry":{"type":"Polygon","coordinates":[[[-98.208,38.562],[-98.132,38.688],[-97.781,39.069],[-97.689,39.104],[-97.598,39.104],[-97.48,39.043],[-97.377,38.928],[-97.38,38.859],[-97.403,38.795],[-97.705,38.604],[-98.071,38.478],[-98.162,38.486],[-98.204,38.535],[-98.208,38.562]]]}},{"type":"Feature","properties":{"density":1},"geometry":{"type":"Polygon","coordinates":[[[-96.337,37.057],[-96.239,37.101],[-96.159,37.116],[-96.034,37.072],[-95.963,37.021],[-95.9,36.95],[-95.892,36.901],[-95.912,36.867],[-96.019,36.867],[-96.2,36.952],[-96.322,36.977],[-96.344,37.004],[-96.349,37.043],[-96.337,37.057]]]}},{"type":"Feature","properties":{"density":1},"geometry":{"type":"Polygon","coordinates":[[[-92.936,29.811],[-92.818,29.716],[-92.577,29.472],[-92.375,29.079],[-92.161,28.739],[-92.093,28.56],[-92.085,28.465],[-92.15,28.427],[-92.284,28.472],[-92.493,28.766],[-92.734,29.178],[-92.89,29.51],[-93.031,29.708],[-93.142,29.804],[-93.211,29.937],[-93.203,29.964],[-93.157,29.987],[-93.062,29.933],[-92.962,29.831],[-92.936,29.811]]]}},{"type":"Feature","properties":{"density":1},"geometry":{"type":"Polygon","coordinates":[[[-94.145,29.796],[-94.054,29.772],[-93.941,29.686],[-93.749,29.448],[-93.483,29.061],[-93.395,28.908],[-93.379,28.737],[-93.419,28.713],[-93.48,28.713],[-93.593,28.819],[-94.048,29.576],[-94.173,29.701],[-94.197,29.753],[-94.185,29.784],[-94.157,29.793],[-94.145,29.796]]]}},{"type":"Feature","properties":{"density":1},"geometry":{"type":"Polygon","coordinates":[[[-96.518,28.758],[-96.673,28.694],[-96.743,28.617],[-96.786,28.434],[-96.759,28.26],[-96.548,27.876],[-96.411,27.671],[-96.176,27.384],[-96.023,27.314],[-95.883,27.29],[-95.712,27.296],[-95.59,27.348],[-95.52,27.412],[-95.471,27.543],[-95.498,27.799],[-95.605,28.074],[-95.956,28.623],[-96.029,28.721],[-96.106,28.764],[-96.225,28.797],[-96.35,28.797],[-96.521,28.761],[-96.518,28.758]]]}},{"type":"Feature","properties":{"density":1},"geometry":{"type":"Polygon","coordinates":[[[-83.28,22.34],[-83.341,23.096],[-83.284,23.565],[-83.246,23.634],[-83.15,23.607],[-83.108,23.538],[-83.154,23.107],[-83.165,22.596],[-83.219,22.367],[-83.246,22.34],[-83.28,22.34]]]}},{"type":"Feature","properties":{"density":1},"geometry":{"type":"Polygon","coordinates":[[[-102.482,18.461],[-102.53,18.556],[-102.649,18.61],[-102.714,18.574],[-102.72,18.497],[-102.679,18.431],[-102.542,18.407],[-102.494,18.419],[-102.482,18.461]]]}},{"type":"Feature","properties":{"density":1},"geometry":{"type":"Polygon","coordinates":[[[-93.114,29.947],[-92.637,29.595],[-92.417,29.255],[-92.238,28.939],[-92.053,28.671],[-91.809,28.015],[-91.606,27.682],[-91.481,27.181],[-91.445,26.919],[-91.463,26.716],[-91.529,26.609],[-91.624,26.651],[-91.743,27.062],[-91.91,27.384],[-92.172,27.604],[-92.369,27.908],[-92.506,28.314],[-92.691,28.725],[-92.846,29.273],[-92.941,29.428],[-93.019,29.613],[-93.221,29.863],[-93.227,29.929],[-93.197,29.959],[-93.132,29.965],[-93.114,29.947]]]}},{"type":"Feature","properties":{"density":1},"geometry":{"type":"Polygon","coordinates":[[[-94.103,29.792],[-93.823,29.672],[-93.561,29.363],[-93.406,29.214],[-93.215,28.993],[-92.84,28.534],[-92.637,28.248],[-92.488,27.878],[-92.452,27.706],[-92.429,27.503],[-92.482,27.425],[-92.709,27.396],[-92.876,27.443],[-93.031,27.503],[-93.174,27.646],[-93.335,27.902],[-93.478,28.212],[-93.865,29.172],[-94.02,29.47],[-94.109,29.601],[-94.193,29.667],[-94.229,29.75],[-94.181,29.804],[-94.139,29.804],[-94.103,29.792]]]}},{"type":"Feature","properties":{"density":1},"geometry":{"type":"Polygon","coordinates":[[[-96.279,29.082],[-96.041,29.047],[-95.784,28.945],[-95.045,28.224],[-94.759,27.753],[-94.616,27.443],[-94.485,27.294],[-94.3,26.698],[-94.288,26.507],[-94.318,26.394],[-94.407,26.341],[-94.67,26.257],[-94.92,26.209],[-95.123,26.198],[-95.516,26.287],[-95.713,26.394],[-95.868,26.502],[-95.993,26.758],[-96.029,27.109],[-96.178,27.592],[-96.291,27.837],[-96.44,28.021],[-96.529,28.159],[-96.702,28.331],[-96.881,28.576],[-96.917,28.767],[-96.804,28.88],[-96.309,29.07],[-96.279,29.082]]]}},{"type":"Feature","properties":{"density":1},"geometry":{"type":"Polygon","coordinates":[[[-95.643,30.662],[-95.469,30.588],[-95.149,30.399],[-95.03,30.289],[-94.899,30.124],[-94.89,30.063],[-94.935,30.03],[-95.006,30.033],[-95.131,30.131],[-95.329,30.326],[-95.595,30.543],[-95.662,30.61],[-95.674,30.652],[-95.643,30.662]]]}},{"type":"Feature","properties":{"density":1},"geometry":{"type":"Polygon","coordinates":[[[-94.691,29.636],[-94.581,29.645],[-94.465,29.575],[-94.313,29.444],[-94.304,29.304],[-94.334,29.239],[-94.371,29.206],[-94.447,29.218],[-94.63,29.429],[-94.691,29.511],[-94.719,29.578],[-94.725,29.621],[-94.697,29.639],[-94.691,29.636]]]}},{"type":"Feature","properties":{"density":1},"geometry":{"type":"Polygon","coordinates":[[[-93.225,31.097],[-93.068,31.017],[-92.809,30.834],[-92.668,30.651],[-92.653,30.578],[-92.66,30.514],[-92.691,30.491],[-92.813,30.54],[-93.084,30.819],[-93.263,31.055],[-93.248,31.086],[-93.225,31.097]]]}},{"type":"Feature","properties":{"density":1},"geometry":{"type":"Polygon","coordinates":[[[-92.519,30.861],[-92.203,30.544],[-92.172,30.452],[-92.191,30.372],[-92.252,30.353],[-92.348,30.422],[-92.569,30.83],[-92.561,30.872],[-92.523,30.864],[-92.519,30.861]]]}},{"type":"Feature","properties":{"density":1},"geometry":{"type":"Polygon","coordinates":[[[-96.42,40.901],[-96.763,40.826],[-97.025,40.695],[-97.636,39.982],[-98.537,38.889],[-98.852,38.342],[-99.003,37.655],[-98.991,37.388],[-99.026,37.038],[-99.271,36.631],[-99.434,36.27],[-99.504,35.991],[-99.41,35.572],[-99.169,35.271],[-97.603,34.037],[-97.016,33.674],[-96.309,33.441],[-95.247,33.264],[-94.837,33.246],[-94.316,33.199],[-93.601,33.22],[-92.951,33.346],[-92.456,33.565],[-92.053,33.953],[-91.931,34.559],[-92.071,34.987],[-92.351,35.593],[-92.667,36.04],[-92.951,36.664],[-93.169,37.45],[-93.235,37.912],[-93.402,38.571],[-93.591,39.138],[-93.831,39.783],[-94.057,40.157],[-94.522,40.462],[-95.017,40.724],[-95.323,40.841],[-95.876,40.957],[-96.21,40.928],[-96.42,40.901]]]}},{"type":"Feature","properties":{"density":1},"geometry":{"type":"Polygon","coordinates":[[[-102.751,40.888],[-102.527,41.03],[-101.581,41.291],[-101.126,41.268],[-100.828,41.223],[-100.709,41.141],[-100.642,40.985],[-100.687,40.806],[-100.843,40.694],[-101.462,40.724],[-101.886,40.694],[-102.438,40.709],[-102.698,40.769],[-102.743,40.821],[-102.751,40.888]]]}},{"type":"Feature","properties":{"density":1},"geometry":{"type":"Polygon","coordinates":[[[-106.29,26.594],[-106.456,26.6],[-107.118,26.337],[-107.327,26.165],[-107.416,25.992],[-107.404,25.849],[-107.327,25.694],[-107.261,25.652],[-106.772,25.521],[-106.325,25.539],[-106.153,25.58],[-105.998,25.676],[-105.878,25.819],[-105.872,25.962],[-105.938,26.087],[-106.254,26.331],[-106.272,26.457],[-106.218,26.528],[-106.26,26.582],[-106.29,26.594]]]}},{"type":"Feature","properties":{"density":1},"geometry":{"type":"Polygon","coordinates":[[[-108.147,30.128],[-108.204,30.137],[-108.385,30.089],[-108.581,29.937],[-108.614,29.87],[-108.586,29.784],[-108.509,29.784],[-108.414,29.846],[-108.333,29.946],[-108.147,30.094],[-108.147,30.128]]]}},{"type":"Feature","properties":{"density":1},"geometry":{"type":"Polygon","coordinates":[[[-108.351,27.581],[-108.403,27.663],[-108.351,27.76],[-108.262,27.76],[-108.232,27.67],[-108.314,27.603],[-108.351,27.581]]]}},{"type":"Feature","properties":{"density":1},"geometry":{"type":"Polygon","coordinates":[[[-108.515,27.856],[-108.507,27.909],[-108.433,27.961],[-108.336,27.968],[-108.291,27.938],[-108.254,27.864],[-108.314,27.812],[-108.47,27.804],[-108.515,27.856]]]}},{"type":"Feature","properties":{"density":1},"geometry":{"type":"Polygon","coordinates":[[[-107.494,28.102],[-107.755,28.08],[-107.941,27.976],[-108.016,27.827],[-107.978,27.692],[-107.867,27.633],[-107.785,27.618],[-107.502,27.901],[-107.472,28.035],[-107.494,28.102]]]}},{"type":"Feature","properties":{"density":1},"geometry":{"type":"Polygon","coordinates":[[[-104.3,21.068],[-104.384,21.103],[-104.449,21.163],[-104.598,21.127],[-104.563,21.056],[-104.503,20.996],[-104.294,21.014],[-104.259,21.032],[-104.3,21.068]]]}},{"type":"Feature","properties":{"density":1},"geometry":{"type":"Polygon","coordinates":[[[-99.592,18.362],[-99.598,18.761],[-99.568,18.922],[-99.478,19.041],[-99.347,19.053],[-99.24,18.969],[-99.192,18.886],[-99.18,18.785],[-99.216,18.612],[-99.323,18.469],[-99.49,18.302],[-99.55,18.296],[-99.586,18.32],[-99.592,18.362]]]}},{"type":"Feature","properties":{"density":1},"geometry":{"type":"Polygon","coordinates":[[[-97.708,17.36],[-97.905,17.33],[-98.09,17.217],[-98.4,16.931],[-98.388,16.71],[-98.268,16.693],[-98.185,16.722],[-98.078,16.865],[-98.024,17.038],[-97.762,17.229],[-97.601,17.247],[-97.523,17.289],[-97.529,17.342],[-97.577,17.378],[-97.643,17.378],[-97.708,17.36]]]}},{"type":"Feature","properties":{"density":1},"geometry":{"type":"Polygon","coordinates":[[[-98.537,17.503],[-98.578,17.557],[-98.572,17.694],[-98.483,17.736],[-98.352,17.736],[-98.268,17.64],[-98.262,17.593],[-98.28,17.533],[-98.417,17.485],[-98.495,17.485],[-98.537,17.503]]]}},{"type":"Feature","properties":{"density":1},"geometry":{"type":"Polygon","coordinates":[[[-85.92,29.569],[-86.631,29.392],[-87.128,29.178],[-87.519,29.072],[-88.3,28.539],[-89.26,27.793],[-90.787,26.905],[-92.386,26.265],[-94.34,25.732],[-95.69,25.661],[-96.365,25.661],[-97.253,25.945],[-99.065,26.336],[-99.882,26.123],[-100.451,25.377],[-101.019,23.743],[-101.268,22.712],[-102.476,21.931],[-103.613,21.576],[-105.14,21.469],[-106.952,21.576],[-109.439,20.794],[-111.251,19.16],[-111.855,17.561],[-111.464,15.891],[-111.073,15.181],[-109.439,13.333],[-108.16,12.339],[-106.81,11.77],[-105.815,11.308],[-104.252,11.095],[-102.76,10.989],[-99.563,10.704],[-98.141,10.598],[-96.614,10.633],[-94.091,10.491],[-91.143,10.207],[-87.981,10.242],[-86.453,10.456],[-85.423,12.232],[-84.712,15.749],[-84.748,18.023],[-84.428,19.977],[-84.073,21.576],[-83.078,24.169],[-82.474,25.945],[-82.545,27.011],[-83.078,28.077],[-83.469,29.107],[-84.215,29.605],[-85.067,29.676],[-85.6,29.676],[-85.92,29.569]]]}},{"type":"Feature","properties":{"density":1},"geometry":{"type":"Polygon","coordinates":[[[-81.817,22.905],[-81.832,23.134],[-81.736,23.635],[-81.65,23.768],[-81.617,23.763],[-81.588,23.697],[-81.565,23.535],[-81.741,22.934],[-81.789,22.891],[-81.817,22.905]]]}},{"type":"Feature","properties":{"density":1},"geometry":{"type":"Polygon","coordinates":[[[-81.402,22.872],[-81.422,23.024],[-81.379,23.802],[-81.331,23.897],[-81.221,23.926],[-81.174,23.868],[-81.159,23.725],[-81.288,23.053],[-81.326,22.91],[-81.374,22.848],[-81.402,22.872]]]}},{"type":"Feature","properties":{"density":1},"geometry":{"type":"Polygon","coordinates":[[[-81.188,22.772],[-81.164,23.201],[-81.102,23.52],[-81.069,23.964],[-80.973,24.278],[-80.916,24.317],[-80.806,24.321],[-80.735,24.216],[-80.725,24.007],[-80.806,23.606],[-81.045,22.829],[-81.097,22.729],[-81.15,22.733],[-81.164,22.757],[-81.188,22.772]]]}},{"type":"Feature","properties":{"density":1},"geometry":{"type":"Polygon","coordinates":[[[-80.725,22.967],[-80.735,23.401],[-80.616,24.092],[-80.549,24.383],[-80.454,24.569],[-80.396,24.631],[-80.287,24.646],[-80.182,24.574],[-80.172,24.512],[-80.172,24.35],[-80.225,23.911],[-80.592,22.991],[-80.611,22.891],[-80.682,22.843],[-80.735,22.9],[-80.725,22.967]]]}},{"type":"Feature","properties":{"density":1},"geometry":{"type":"Polygon","coordinates":[[[-76.613,20.713],[-76.929,20.803],[-77.25,20.856],[-77.668,20.797],[-77.924,20.707],[-78.091,20.564],[-78.144,20.386],[-78.13,20.238],[-78.049,20.07],[-77.892,20.005],[-77.68,19.986],[-77.367,19.99],[-77.024,20.022],[-76.553,20.135],[-76.386,20.272],[-76.374,20.415],[-76.392,20.529],[-76.44,20.624],[-76.523,20.684],[-76.583,20.684],[-76.613,20.713]]]}},{"type":"Feature","properties":{"density":1},"geometry":{"type":"Polygon","coordinates":[[[-93.553,30.261],[-93.419,30.16],[-93.333,30.01],[-93.327,29.876],[-93.343,29.852],[-93.388,29.843],[-93.446,29.855],[-93.562,30.007],[-93.608,30.105],[-93.62,30.203],[-93.62,30.249],[-93.596,30.282],[-93.578,30.276],[-93.553,30.261]]]}},{"type":"Feature","properties":{"density":1},"geometry":{"type":"Polygon","coordinates":[[[-94.579,29.911],[-94.323,29.731],[-94.292,29.646],[-94.317,29.612],[-94.363,29.609],[-94.521,29.746],[-94.616,29.887],[-94.616,29.905],[-94.598,29.911],[-94.579,29.911]]]}},{"type":"Feature","properties":{"density":1},"geometry":{"type":"Polygon","coordinates":[[[-94.625,30.274],[-94.503,30.183],[-94.412,30.082],[-94.402,30.042],[-94.418,30.021],[-94.546,30.064],[-94.65,30.21],[-94.659,30.253],[-94.646,30.268],[-94.625,30.274]]]}},{"type":"Feature","properties":{"density":1},"geometry":{"type":"Polygon","coordinates":[[[-98.812,30.444],[-98.726,30.434],[-98.479,30.329],[-98.326,30.186],[-98.078,30.053],[-97.267,29.896],[-97.158,29.819],[-97.143,29.762],[-97.191,29.686],[-97.325,29.643],[-97.601,29.609],[-97.949,29.729],[-98.417,29.934],[-98.827,30.306],[-98.884,30.396],[-98.855,30.42],[-98.812,30.444]]]}},{"type":"Feature","properties":{"density":2},"geometry":{"type":"Polygon","coordinates":[[[-93.108,29.923],[-92.935,29.804],[-92.619,29.398],[-92.476,29.154],[-92.423,28.969],[-92.417,28.886],[-92.47,28.802],[-92.536,28.767],[-92.673,28.808],[-92.721,28.921],[-92.744,29.136],[-92.81,29.351],[-92.882,29.5],[-93.007,29.672],[-93.066,29.798],[-93.144,29.839],[-93.18,29.923],[-93.144,29.941],[-93.108,29.923]]]}},{"type":"Feature","properties":{"density":2},"geometry":{"type":"Polygon","coordinates":[[[-94.115,29.768],[-93.948,29.649],[-93.829,29.541],[-93.776,29.392],[-93.627,29.225],[-93.537,29.076],[-93.46,28.91],[-93.406,28.689],[-93.406,28.6],[-93.436,28.57],[-93.543,28.671],[-93.639,28.916],[-93.871,29.339],[-93.871,29.434],[-93.931,29.547],[-93.996,29.607],[-94.08,29.643],[-94.169,29.708],[-94.163,29.738],[-94.127,29.768],[-94.115,29.768]]]}},{"type":"Feature","properties":{"density":2},"geometry":{"type":"Polygon","coordinates":[[[-106.361,26.546],[-106.516,26.522],[-106.796,26.325],[-106.939,26.272],[-107.035,26.153],[-107.023,26.027],[-106.898,26.01],[-106.766,26.057],[-106.641,26.135],[-106.546,26.343],[-106.486,26.409],[-106.296,26.504],[-106.361,26.546]]]}}]}