{"type":"FeatureCollection","features":[{"type":"Feature","properties":{"density":1},"geometry":{"type":"Polygon","coordinates":[[[-82.518,34.505],[-82.459,34.539],[-82.428,34.503],[-82.425,34.405],[-82.435,34.339],[-82.452,34.324],[-82.467,34.329],[-82.516,34.471],[-82.518,34.505]]]}},{"type":"Feature","properties":{"density":1},"geometry":{"type":"Polygon","coordinates":[[[-89.205,30.689],[-89.237,30.689],[-89.308,30.572],[-89.337,30.403],[-89.325,30.377],[-89.303,30.374],[-89.283,30.396],[-89.247,30.467],[-89.203,30.577],[-89.195,30.682],[-89.205,30.689]]]}},{"type":"Feature","properties":{"density":1},"geometry":{"type":"Polygon","coordinates":[[[-90.375,32.161],[-90.34,32.166],[-90.294,32.112],[-90.299,32.071],[-90.348,32.073],[-90.379,32.144],[-90.375,32.161]]]}},{"type":"Feature","properties":{"density":1},"geometry":{"type":"Polygon","coordinates":[[[-93.708,35.239],[-93.759,35.254],[-93.913,35.18],[-93.927,35.159],[-93.923,35.119],[-93.855,35.1],[-93.718,35.18],[-93.706,35.221],[-93.708,35.239]]]}},{"type":"Feature","properties":{"density":1},"geometry":{"type":"Polygon","coordinates":[[[-91.974,33.002],[-91.92,33.021],[-91.906,32.999],[-91.91,32.963],[-92.159,32.811],[-92.245,32.775],[-92.303,32.772],[-92.311,32.843],[-92.228,32.895],[-92.001,32.99],[-91.974,33.002]]]}},{"type":"Feature","properties":{"density":1},"geometry":{"type":"Polygon","coordinates":[[[-94.44,32.365],[-94.41,32.374],[-94.379,32.36],[-94.415,32.282],[-94.586,32.196],[-94.674,32.196],[-94.657,32.26],[-94.471,32.35],[-94.44,32.365]]]}},{"type":"Feature","properties":{"density":1},"geometry":{"type":"Polygon","coordinates":[[[-115.717,43.827],[-115.824,43.781],[-116.016,43.54],[-116.053,43.549],[-116.08,43.58],[-116.092,43.61],[-116.095,43.851],[-115.946,44.108],[-115.894,44.163],[-115.814,44.148],[-115.781,44.108],[-115.778,44.059],[-115.744,43.986],[-115.677,43.949],[-115.65,43.903],[-115.668,43.848],[-115.686,43.839],[-115.717,43.827]]]}},{"type":"Feature","properties":{"density":1},"geometry":{"type":"Polygon","coordinates":[[[-115.332,45.856],[-115.369,45.918],[-115.445,45.994],[-115.75,46.082],[-115.775,46.134],[-115.75,46.174],[-115.705,46.192],[-115.433,46.192],[-115.375,46.214],[-115.277,46.308],[-115.21,46.323],[-115.18,46.302],[-115.171,46.268],[-115.235,46.125],[-115.232,46.024],[-115.207,45.951],[-115.161,45.887],[-115.152,45.817],[-115.216,45.814],[-115.305,45.835],[-115.332,45.856]]]}},{"type":"Feature","properties":{"density":1},"geometry":{"type":"Polygon","coordinates":[[[-113.324,47.599],[-113.385,47.636],[-113.516,47.831],[-113.52,47.871],[-113.498,47.907],[-113.459,47.904],[-113.397,47.849],[-113.282,47.709],[-113.242,47.623],[-113.266,47.593],[-113.324,47.599]]]}},{"type":"Feature","properties":{"density":1},"geometry":{"type":"Polygon","coordinates":[[[-114.973,56.184],[-115.064,56.198],[-115.169,56.279],[-115.226,56.365],[-115.236,56.455],[-115.188,56.56],[-115.031,56.661],[-114.926,56.751],[-114.902,56.794],[-114.582,56.866],[-114.544,56.932],[-114.568,57.071],[-114.487,57.147],[-114.382,57.199],[-114.129,57.233],[-113.757,57.252],[-113.5,57.218],[-113.228,57.152],[-112.899,57.037],[-112.508,56.98],[-112.136,57.023],[-111.879,57.094],[-111.578,57.114],[-110.515,57.123],[-110.214,57.085],[-110.057,57.018],[-109.947,56.923],[-109.881,56.656],[-109.933,56.527],[-110.005,56.408],[-110.257,56.265],[-110.82,56.036],[-111.14,55.969],[-111.497,55.931],[-112.174,55.869],[-112.847,55.907],[-113.872,56.079],[-114.907,56.174],[-114.973,56.184]]]}},{"type":"Feature","properties":{"density":1},"geometry":{"type":"Polygon","coordinates":[[[-109.745,55.614],[-109.804,55.677],[-109.784,55.731],[-109.733,55.765],[-109.738,55.807],[-109.802,55.839],[-109.824,55.878],[-109.824,55.917],[-109.816,55.941],[-109.721,56.007],[-109.662,56.017],[-109.489,56.005],[-109.377,55.956],[-108.528,55.954],[-108.249,55.931],[-107.895,55.87],[-107.551,55.794],[-107.273,55.675],[-106.968,55.397],[-106.83,55.202],[-106.777,55.069],[-106.781,54.977],[-106.869,54.935],[-106.991,54.924],[-107.109,54.954],[-107.41,55.088],[-108.017,55.229],[-108.28,55.309],[-109.043,55.424],[-109.18,55.424],[-109.253,55.446],[-109.268,55.515],[-109.302,55.553],[-109.379,55.58],[-109.653,55.603],[-109.745,55.614]]]}},{"type":"Feature","properties":{"density":1},"geometry":{"type":"Polygon","coordinates":[[[-120.687,44.754],[-120.758,44.757],[-120.8,44.797],[-120.8,44.821],[-120.709,44.861],[-120.651,44.855],[-120.639,44.818],[-120.672,44.763],[-120.687,44.754]]]}},{"type":"Feature","properties":{"density":1},"geometry":{"type":"Polygon","coordinates":[[[-122.183,43.416],[-122.201,43.386],[-122.257,43.362],[-122.321,43.359],[-122.507,43.525],[-122.541,43.586],[-122.555,43.691],[-122.538,43.777],[-122.445,43.806],[-122.392,43.796],[-122.314,43.628],[-122.183,43.489],[-122.176,43.445],[-122.183,43.416]]]}},{"type":"Feature","properties":{"density":1},"geometry":{"type":"Polygon","coordinates":[[[-124.349,42.723],[-124.349,43.11],[-124.144,43.837],[-123.849,44.406],[-123.121,45.679],[-121.87,47.93],[-121.188,49.505],[-120.222,50.272],[-119.284,50.812],[-118.375,51.21],[-117.778,51.665],[-117.493,52.233],[-117.323,53.796],[-118.346,55.047],[-119.483,55.956],[-121.16,56.809],[-122.695,58.145],[-123.547,59.651],[-123.718,60.902],[-123.633,62.607],[-123.121,63.716],[-122.354,64.227],[-121.302,64.625],[-119.54,64.966],[-117.835,64.909],[-114.765,64.398],[-112.548,64.085],[-110.104,63.573],[-107.432,62.721],[-104.846,61.925],[-103.425,61.243],[-101.236,60.163],[-99.815,59.85],[-98.479,59.481],[-97.655,59.339],[-96.973,59.083],[-96.547,58.77],[-96.433,58.486],[-96.746,58.145],[-97.996,57.889],[-101.123,57.321],[-102.686,56.667],[-104.817,55.303],[-105.5,54.535],[-105.698,54.194],[-105.698,53.91],[-105.357,53.626],[-104.221,53.597],[-103.311,53.541],[-100.099,53.409],[-98.359,53.48],[-97.47,53.48],[-95.872,53.018],[-94.593,52.308],[-93.527,51.668],[-89.37,50.816],[-87.168,50.851],[-84.752,51.029],[-82.62,51.348],[-80.346,51.775],[-78.215,51.988],[-76.616,51.775],[-75.799,50.887],[-75.905,49.998],[-76.438,49.288],[-77.113,48.933],[-78.925,48.258],[-81.092,47.76],[-83.544,47.227],[-86.244,46.801],[-89.69,45.842],[-90.756,45.522],[-91.964,43.603],[-92.461,42.751],[-93.029,42.218],[-94.166,41.898],[-95.516,41.756],[-97.435,41.827],[-99.424,42.253],[-100.917,42.715],[-103.368,43.994],[-104.891,44.902],[-106.018,45.805],[-107.657,46.783],[-109.641,46.942],[-111.596,46.672],[-113.31,46.727],[-113.878,46.951],[-114.325,47.174],[-114.642,47.407],[-115.061,47.584],[-115.554,47.668],[-116.15,47.649],[-116.57,47.575],[-117.1,47.417],[-117.454,47.174],[-118.479,46.318],[-119.084,45.917],[-119.308,45.591],[-119.643,44.995],[-120.304,44.11],[-121.208,43.086],[-122.26,42.099],[-122.53,41.94],[-122.903,41.829],[-123.154,41.819],[-123.499,41.894],[-123.787,42.052],[-123.983,42.201],[-124.123,42.369],[-124.197,42.518],[-124.262,42.574],[-124.349,42.723]]]}},{"type":"Feature","properties":{"density":1},"geometry":{"type":"Polygon","coordinates":[[[-98.845,22.994],[-98.636,22.889],[-98.459,22.738],[-97.994,22.424],[-97.47,21.958],[-96.853,21.516],[-95.91,20.712],[-95.526,20.479],[-95.293,20.293],[-95.083,20.282],[-94.583,20.351],[-93.302,20.794],[-92.673,21.05],[-91.893,21.585],[-91.393,22.133],[-90.729,23.052],[-90.194,24.298],[-89.984,24.903],[-89.879,25.497],[-89.775,25.916],[-89.53,26.091],[-89.064,26.137],[-88.552,26.044],[-88.133,25.695],[-87.877,25.252],[-87.505,24.705],[-87.376,24.193],[-87.318,23.669],[-87.388,22.924],[-87.609,22.237],[-87.854,21.737],[-88.203,21.213],[-88.89,20.724],[-89.6,20.095],[-90.019,19.56],[-90.403,18.931],[-91.02,18.233],[-91.428,17.86],[-91.684,17.488],[-91.754,16.3],[-91.835,16.067],[-91.952,15.846],[-92.161,15.683],[-92.441,15.637],[-92.79,15.672],[-93.372,15.939],[-94.035,16.207],[-95.852,16.836],[-96.853,17.243],[-97.621,17.767],[-98.32,18.663],[-98.645,19.28],[-98.855,19.746],[-99.402,21.225],[-99.647,21.818],[-99.702,22.316],[-99.702,22.748],[-99.582,22.904],[-99.351,23.001],[-99.046,23.061],[-98.845,22.994]]]}},{"type":"Feature","properties":{"density":1},"geometry":{"type":"Polygon","coordinates":[[[-124.309,43.375],[-124.673,42.357],[-124.837,41.574],[-124.873,40.865],[-124.855,40.319],[-124.673,39.755],[-124.582,39.21],[-124.345,38.828],[-123.963,38.046],[-123.709,36.9],[-123.818,35.644],[-124.054,34.771],[-124.127,34.207],[-124.145,33.462],[-124.127,33.225],[-123.927,32.88],[-123.509,32.752],[-123.309,32.843],[-123.054,33.171],[-122.908,33.753],[-122.908,34.408],[-122.817,35.463],[-122.617,36.245],[-122.417,37.573],[-122.308,38.482],[-122.454,38.991],[-122.763,39.555],[-122.999,40.647],[-122.945,41.229],[-122.417,42.229],[-122.344,42.429],[-122.326,42.684],[-122.454,42.993],[-122.69,43.284],[-123.036,43.502],[-123.272,43.612],[-123.618,43.684],[-124.018,43.612],[-124.309,43.375]]]}},{"type":"Feature","properties":{"density":1},"geometry":{"type":"Polygon","coordinates":[[[-120.711,44.857],[-120.673,44.921],[-120.637,44.946],[-120.546,44.97],[-120.518,44.956],[-120.509,44.93],[-120.53,44.865],[-120.664,44.764],[-120.805,44.748],[-120.855,44.787],[-120.863,44.829],[-120.842,44.865],[-120.726,44.844],[-120.711,44.857]]]}},{"type":"Feature","properties":{"density":1},"geometry":{"type":"Polygon","coordinates":[[[-115.703,43.834],[-115.874,43.744],[-115.936,43.595],[-115.986,43.525],[-116.028,43.498],[-116.055,43.506],[-116.071,43.548],[-116.08,43.869],[-116.021,44.031],[-116.001,44.184],[-115.944,44.278],[-115.751,44.037],[-115.64,43.935],[-115.636,43.888],[-115.695,43.835],[-115.703,43.834]]]}},{"type":"Feature","properties":{"density":1},"geometry":{"type":"Polygon","coordinates":[[[-116.379,44.737],[-116.445,44.673],[-116.491,44.672],[-116.606,44.853],[-116.611,44.904],[-116.585,44.98],[-116.51,45.068],[-116.469,45.148],[-116.43,45.173],[-116.404,45.138],[-116.395,45.052],[-116.368,45.01],[-116.344,44.994],[-116.274,45.029],[-116.228,45.033],[-116.218,45.02],[-116.219,44.962],[-116.26,44.855],[-116.311,44.782],[-116.366,44.743],[-116.379,44.737]]]}},{"type":"Feature","properties":{"density":1},"geometry":{"type":"Polygon","coordinates":[[[-115.254,45.856],[-115.294,45.925],[-115.416,45.991],[-115.747,46.083],[-115.783,46.119],[-115.79,46.153],[-115.754,46.192],[-115.644,46.2],[-115.361,46.144],[-115.221,46.091],[-115.169,46.02],[-115.15,45.902],[-115.194,45.828],[-115.229,45.827],[-115.246,45.845],[-115.254,45.856]]]}},{"type":"Feature","properties":{"density":1},"geometry":{"type":"Polygon","coordinates":[[[-114.75,46.54],[-114.809,46.546],[-114.856,46.577],[-114.855,46.593],[-114.822,46.612],[-114.76,46.599],[-114.734,46.579],[-114.744,46.543],[-114.75,46.54]]]}},{"type":"Feature","properties":{"density":1},"geometry":{"type":"Polygon","coordinates":[[[-115.014,46.224],[-115.099,46.225],[-115.128,46.264],[-115.104,46.29],[-115.029,46.302],[-114.956,46.279],[-114.962,46.237],[-115.005,46.222],[-115.014,46.224]]]}},{"type":"Feature","properties":{"density":1},"geometry":{"type":"Polygon","coordinates":[[[-113.379,47.651],[-113.417,47.743],[-113.507,47.879],[-113.663,48.032],[-113.742,48.079],[-113.792,48.131],[-113.867,48.286],[-113.874,48.331],[-113.856,48.362],[-113.823,48.367],[-113.785,48.347],[-113.568,48.086],[-113.321,47.843],[-113.218,47.676],[-113.212,47.59],[-113.243,47.565],[-113.312,47.561],[-113.353,47.587],[-113.374,47.645],[-113.379,47.651]]]}},{"type":"Feature","properties":{"density":1},"geometry":{"type":"Polygon","coordinates":[[[-109.749,55.997],[-109.09,55.962],[-108.497,55.893],[-108.251,55.901],[-107.967,55.883],[-107.592,55.784],[-107.395,55.661],[-107.042,55.481],[-106.795,55.325],[-106.756,55.276],[-106.737,55.198],[-106.792,55.165],[-107.116,55.079],[-107.292,55.075],[-107.942,55.133],[-108.768,55.272],[-109.311,55.458],[-109.45,55.546],[-109.553,55.588],[-109.751,55.618],[-109.819,55.651],[-109.864,55.739],[-109.874,55.872],[-109.842,55.967],[-109.77,56.003],[-109.749,55.997]]]}},{"type":"Feature","properties":{"density":1},"geometry":{"type":"Polygon","coordinates":[[[-114.988,56.672],[-114.941,56.733],[-114.883,56.766],[-114.818,56.772],[-114.242,56.733],[-114.17,56.772],[-114.111,56.838],[-114.101,56.891],[-114.133,56.922],[-114.426,56.973],[-114.564,57.073],[-114.549,57.149],[-114.465,57.206],[-113.906,57.215],[-113.588,57.106],[-112.174,56.698],[-111.998,56.595],[-111.792,56.443],[-111.72,56.263],[-111.777,56.157],[-111.872,56.107],[-112.067,56.05],[-112.692,56.042],[-113.613,56.128],[-114.099,56.096],[-114.59,56.096],[-115.035,56.172],[-115.092,56.201],[-115.146,56.27],[-115.175,56.412],[-115.166,56.471],[-115.127,56.553],[-115.005,56.658],[-114.988,56.672]]]}},{"type":"Feature","properties":{"density":1},"geometry":{"type":"Polygon","coordinates":[[[-92.124,30.773],[-92.206,30.768],[-92.317,30.724],[-92.35,30.629],[-92.304,30.603],[-92.261,30.613],[-92.14,30.706],[-92.102,30.718],[-92.087,30.738],[-92.115,30.774],[-92.124,30.773]]]}},{"type":"Feature","properties":{"density":1},"geometry":{"type":"Polygon","coordinates":[[[-91.347,30.627],[-91.498,30.523],[-91.527,30.521],[-91.542,30.55],[-91.521,30.601],[-91.457,30.64],[-91.366,30.66],[-91.337,30.646],[-91.342,30.63],[-91.347,30.627]]]}},{"type":"Feature","properties":{"density":1},"geometry":{"type":"Polygon","coordinates":[[[-94.397,32.318],[-94.501,32.236],[-94.574,32.201],[-94.598,32.213],[-94.604,32.251],[-94.539,32.336],[-94.482,32.367],[-94.414,32.375],[-94.392,32.367],[-94.394,32.326],[-94.397,32.318]]]}},{"type":"Feature","properties":{"density":1},"geometry":{"type":"Polygon","coordinates":[[[-115.922,43.815],[-115.972,43.853],[-116.03,43.98],[-115.991,44.151],[-115.924,44.321],[-115.872,44.408],[-115.774,44.464],[-115.718,44.447],[-115.641,44.368],[-115.608,44.311],[-115.562,44.167],[-115.56,44.001],[-115.582,43.943],[-115.706,43.835],[-115.817,43.795],[-115.871,43.797],[-115.922,43.815]]]}},{"type":"Feature","properties":{"density":1},"geometry":{"type":"Polygon","coordinates":[[[-116.501,44.943],[-116.459,45.173],[-116.414,45.231],[-116.349,45.259],[-116.338,45.251],[-116.345,45.204],[-116.472,44.922],[-116.493,44.922],[-116.501,44.941],[-116.501,44.943]]]}},{"type":"Feature","properties":{"density":1},"geometry":{"type":"Polygon","coordinates":[[[-115.281,45.862],[-115.353,45.95],[-115.548,46.034],[-115.706,46.067],[-115.756,46.095],[-115.765,46.136],[-115.728,46.167],[-115.52,46.168],[-115.306,46.1],[-115.234,46.053],[-115.184,45.996],[-115.159,45.946],[-115.15,45.867],[-115.22,45.826],[-115.248,45.829],[-115.279,45.861],[-115.281,45.862]]]}},{"type":"Feature","properties":{"density":1},"geometry":{"type":"Polygon","coordinates":[[[-114.766,46.529],[-114.813,46.525],[-114.873,46.558],[-114.863,46.608],[-114.745,46.624],[-114.714,46.59],[-114.715,46.57],[-114.753,46.533],[-114.766,46.529]]]}},{"type":"Feature","properties":{"density":1},"geometry":{"type":"Polygon","coordinates":[[[-113.347,47.612],[-113.44,47.823],[-113.432,47.91],[-113.321,48.01],[-113.226,48.026],[-113.095,47.96],[-113.085,47.911],[-113.098,47.799],[-113.175,47.625],[-113.21,47.593],[-113.304,47.569],[-113.345,47.611],[-113.347,47.612]]]}},{"type":"Feature","properties":{"density":1},"geometry":{"type":"Polygon","coordinates":[[[-109.781,55.966],[-109.6,55.966],[-109.145,55.929],[-108.324,55.681],[-108.008,55.571],[-107.817,55.44],[-107.694,55.335],[-107.659,55.27],[-107.647,55.146],[-107.702,55.073],[-107.767,55.039],[-107.997,54.958],[-108.139,54.937],[-108.432,54.991],[-108.724,55.088],[-109.296,55.46],[-109.464,55.509],[-109.772,55.63],[-109.828,55.709],[-109.846,55.848],[-109.838,55.937],[-109.796,55.964],[-109.781,55.966]]]}},{"type":"Feature","properties":{"density":1},"geometry":{"type":"Polygon","coordinates":[[[-120.73,44.793],[-120.655,44.937],[-120.522,45.093],[-120.328,45.274],[-120.28,45.275],[-120.287,45.229],[-120.496,44.977],[-120.622,44.784],[-120.681,44.764],[-120.73,44.786],[-120.73,44.793]]]}},{"type":"Feature","properties":{"density":1},"geometry":{"type":"Polygon","coordinates":[[[-100.033,51.504],[-99.904,51.517],[-99.631,51.507],[-99.53,51.49],[-99.483,51.449],[-99.558,51.427],[-99.94,51.437],[-100.059,51.457],[-100.064,51.494],[-100.041,51.504],[-100.033,51.504]]]}},{"type":"Feature","properties":{"density":1},"geometry":{"type":"Polygon","coordinates":[[[-98.509,48.722],[-98.501,48.9],[-98.454,49.055],[-98.397,49.107],[-98.306,49.115],[-98.294,49.039],[-98.412,48.715],[-98.436,48.69],[-98.469,48.684],[-98.494,48.685],[-98.512,48.711],[-98.509,48.722]]]}},{"type":"Feature","properties":{"density":1},"geometry":{"type":"Polygon","coordinates":[[[-90.843,34.42],[-90.955,34.424],[-91.04,34.391],[-91.059,34.362],[-91.058,34.292],[-91.013,34.282],[-90.931,34.306],[-90.843,34.366],[-90.836,34.415],[-90.843,34.42]]]}},{"type":"Feature","properties":{"density":1},"geometry":{"type":"Polygon","coordinates":[[[-90.074,34.38],[-90.134,34.388],[-90.232,34.345],[-90.336,34.254],[-90.355,34.174],[-90.293,34.135],[-90.216,34.172],[-90.124,34.308],[-90.068,34.348],[-90.066,34.379],[-90.074,34.38]]]}},{"type":"Feature","properties":{"density":1},"geometry":{"type":"Polygon","coordinates":[[[-91.965,32.28],[-92.093,32.254],[-92.321,32.128],[-92.35,32.06],[-92.339,32.017],[-92.256,31.953],[-92.19,31.945],[-92.125,31.992],[-91.955,32.21],[-91.942,32.255],[-91.959,32.278],[-91.965,32.28]]]}},{"type":"Feature","properties":{"density":1},"geometry":{"type":"Polygon","coordinates":[[[-92.109,30.783],[-92.188,30.765],[-92.309,30.7],[-92.638,30.46],[-92.686,30.332],[-92.688,30.24],[-92.591,30.238],[-92.546,30.257],[-92.454,30.411],[-92.204,30.655],[-92.098,30.736],[-92.103,30.775],[-92.109,30.783]]]}},{"type":"Feature","properties":{"density":1},"geometry":{"type":"Polygon","coordinates":[[[-91.58,30.558],[-91.68,30.491],[-91.781,30.386],[-91.844,30.276],[-91.849,30.237],[-91.83,30.215],[-91.715,30.194],[-91.668,30.235],[-91.618,30.318],[-91.576,30.44],[-91.556,30.522],[-91.572,30.554],[-91.58,30.558]]]}},{"type":"Feature","properties":{"density":1},"geometry":{"type":"Polygon","coordinates":[[[-96.125,38.054],[-96.039,38.323],[-96.008,38.36],[-95.952,38.358],[-95.902,38.248],[-95.907,38.183],[-95.949,38.091],[-96.044,37.994],[-96.091,37.983],[-96.111,37.993],[-96.132,38.018],[-96.129,38.04],[-96.125,38.054]]]}},{"type":"Feature","properties":{"density":1},"geometry":{"type":"Polygon","coordinates":[[[-88.547,36.617],[-88.742,36.636],[-88.867,36.598],[-88.876,36.572],[-88.831,36.511],[-88.759,36.498],[-88.545,36.575],[-88.529,36.594],[-88.539,36.615],[-88.547,36.617]]]}},{"type":"Feature","properties":{"density":1},"geometry":{"type":"Polygon","coordinates":[[[-88.401,36.185],[-88.6,36.173],[-88.659,36.151],[-88.661,36.111],[-88.615,36.064],[-88.515,36.063],[-88.404,36.142],[-88.394,36.179],[-88.401,36.185]]]}},{"type":"Feature","properties":{"density":1},"geometry":{"type":"Polygon","coordinates":[[[-113.382,47.675],[-113.331,47.805],[-113.172,48.016],[-112.832,48.274],[-112.523,48.45],[-112.356,48.486],[-112.275,48.481],[-112.215,48.453],[-112.081,48.261],[-112.061,48.192],[-112.082,48.114],[-112.156,47.999],[-112.711,47.836],[-113.235,47.591],[-113.349,47.576],[-113.367,47.584],[-113.388,47.633],[-113.382,47.675]]]}},{"type":"Feature","properties":{"density":1},"geometry":{"type":"Polygon","coordinates":[[[-94.877,19.739],[-94.076,19.804],[-92.595,20.298],[-91.636,20.941],[-90.136,22.189],[-89.382,23.064],[-88.905,23.81],[-88.809,24.405],[-88.745,24.691],[-88.561,24.768],[-88.336,24.706],[-88.104,24.562],[-87.947,24.405],[-87.799,24.211],[-87.711,24.012],[-87.718,23.833],[-87.84,23.261],[-88.008,22.914],[-88.541,22.194],[-89.338,21.57],[-89.662,21.174],[-90.291,20.125],[-90.434,19.672],[-90.749,19.143],[-91.157,17.843],[-91.373,17.247],[-91.641,16.741],[-91.723,16.189],[-92.304,14.655],[-92.55,14.17],[-92.923,13.828],[-93.191,13.477],[-93.578,13.15],[-93.884,13.09],[-94.256,13.09],[-94.539,13.187],[-95.553,14.066],[-95.814,14.386],[-96.037,14.923],[-96.149,15.511],[-95.836,16.86],[-95.746,17.307],[-95.605,17.717],[-95.486,18.134],[-95.255,19.378],[-95.15,19.557],[-95.016,19.691],[-94.877,19.739]]]}},{"type":"Feature","properties":{"density":1},"geometry":{"type":"Polygon","coordinates":[[[-90.879,34.44],[-91.121,34.357],[-91.575,34.166],[-91.719,34.088],[-91.797,34.039],[-91.865,33.968],[-91.883,33.819],[-91.826,33.739],[-91.631,33.717],[-91.013,34.046],[-90.813,34.252],[-90.786,34.393],[-90.828,34.43],[-90.86,34.435],[-90.879,34.44]]]}},{"type":"Feature","properties":{"density":1},"geometry":{"type":"Polygon","coordinates":[[[-91.703,34.581],[-91.78,34.556],[-91.909,34.481],[-92.036,34.384],[-92.023,34.353],[-91.981,34.343],[-91.827,34.407],[-91.724,34.485],[-91.678,34.568],[-91.691,34.575],[-91.703,34.581]]]}},{"type":"Feature","properties":{"density":1},"geometry":{"type":"Polygon","coordinates":[[[-90.857,34.707],[-90.911,34.7],[-90.995,34.659],[-91.04,34.602],[-91.036,34.561],[-90.969,34.555],[-90.904,34.572],[-90.831,34.622],[-90.812,34.658],[-90.816,34.691],[-90.857,34.707]]]}},{"type":"Feature","properties":{"density":1},"geometry":{"type":"Polygon","coordinates":[[[-90.147,34.351],[-90.603,34.154],[-90.674,34.076],[-90.7,33.908],[-90.63,33.812],[-90.569,33.779],[-90.455,33.809],[-90.391,33.883],[-90.244,34.153],[-90.066,34.352],[-90.064,34.371],[-90.087,34.378],[-90.139,34.359],[-90.147,34.351]]]}},{"type":"Feature","properties":{"density":1},"geometry":{"type":"Polygon","coordinates":[[[-92.319,31.037],[-92.343,30.978],[-92.356,30.853],[-92.405,30.711],[-92.461,30.647],[-92.524,30.651],[-92.549,30.675],[-92.543,30.72],[-92.483,30.897],[-92.366,31.063],[-92.323,31.076],[-92.314,31.048],[-92.319,31.037]]]}},{"type":"Feature","properties":{"density":1},"geometry":{"type":"Polygon","coordinates":[[[-91.653,30.704],[-91.616,30.633],[-91.567,30.451],[-91.554,30.322],[-91.568,30.252],[-91.63,30.233],[-91.692,30.254],[-91.793,30.339],[-91.885,30.456],[-91.892,30.484],[-91.82,30.581],[-91.688,30.705],[-91.663,30.707],[-91.653,30.704]]]}},{"type":"Feature","properties":{"density":1},"geometry":{"type":"Polygon","coordinates":[[[-92.654,30.349],[-92.692,30.012],[-92.728,29.89],[-92.945,29.689],[-93.06,29.621],[-93.11,29.62],[-93.151,29.659],[-93.16,29.75],[-93.106,29.881],[-93.045,29.979],[-92.914,30.104],[-92.737,30.317],[-92.682,30.372],[-92.66,30.375],[-92.654,30.358],[-92.654,30.349]]]}},{"type":"Feature","properties":{"density":1},"geometry":{"type":"Polygon","coordinates":[[[-88.358,36.888],[-88.775,36.897],[-89.058,36.835],[-89.124,36.783],[-89.144,36.722],[-89.157,36.64],[-89.147,36.483],[-89.105,36.443],[-88.888,36.416],[-88.624,36.507],[-88.488,36.582],[-88.339,36.844],[-88.347,36.883],[-88.358,36.888]]]}},{"type":"Feature","properties":{"density":1},"geometry":{"type":"Polygon","coordinates":[[[-88.391,36.192],[-88.661,36.161],[-89.158,36.028],[-89.299,35.939],[-89.299,35.777],[-89.249,35.734],[-89.155,35.72],[-89.058,35.734],[-88.433,36.095],[-88.388,36.133],[-88.377,36.183],[-88.391,36.192]]]}},{"type":"Feature","properties":{"density":1},"geometry":{"type":"Polygon","coordinates":[[[-96.111,38.002],[-96.133,38.051],[-96.13,38.111],[-96.091,38.173],[-96.043,38.205],[-95.991,38.209],[-95.977,38.169],[-96.013,38.093],[-96.075,37.989],[-96.107,37.997],[-96.111,38.002]]]}},{"type":"Feature","properties":{"density":1},"geometry":{"type":"Polygon","coordinates":[[[-97.266,36.837],[-97.61,36.958],[-97.823,37.009],[-97.865,37.067],[-97.893,37.165],[-97.885,37.217],[-97.813,37.278],[-97.757,37.282],[-97.176,37.082],[-97.136,37.02],[-97.132,36.97],[-97.175,36.874],[-97.253,36.828],[-97.266,36.837]]]}},{"type":"Feature","properties":{"density":1},"geometry":{"type":"Polygon","coordinates":[[[-90.54,35.782],[-90.859,35.619],[-90.964,35.541],[-91.044,35.432],[-91.019,35.407],[-90.954,35.394],[-90.804,35.425],[-90.678,35.488],[-90.447,35.718],[-90.45,35.777],[-90.525,35.788],[-90.54,35.782]]]}},{"type":"Feature","properties":{"density":1},"geometry":{"type":"Polygon","coordinates":[[[-90.779,35.377],[-90.869,35.363],[-91.136,35.273],[-91.185,35.209],[-91.193,35.168],[-91.172,35.127],[-91.002,35.132],[-90.902,35.191],[-90.754,35.298],[-90.74,35.355],[-90.761,35.375],[-90.779,35.377]]]}},{"type":"Feature","properties":{"density":1},"geometry":{"type":"Polygon","coordinates":[[[-91.315,46.637],[-91.245,46.782],[-90.963,47.126],[-90.85,47.169],[-90.786,47.173],[-90.758,47.145],[-90.754,47.098],[-90.789,47.038],[-91.047,46.846],[-91.207,46.669],[-91.258,46.589],[-91.301,46.592],[-91.319,46.624],[-91.315,46.637]]]}},{"type":"Feature","properties":{"density":1},"geometry":{"type":"Polygon","coordinates":[[[-100.02,51.503],[-99.984,51.433],[-99.844,51.264],[-99.822,51.186],[-99.831,51.13],[-99.864,51.087],[-99.98,51.05],[-100.036,51.055],[-100.087,51.084],[-100.119,51.287],[-100.097,51.469],[-100.078,51.495],[-100.03,51.506],[-100.02,51.503]]]}},{"type":"Feature","properties":{"density":1},"geometry":{"type":"Polygon","coordinates":[[[-124.831,41.846],[-124.874,42.376],[-124.84,42.733],[-124.474,43.707],[-124.099,44.357],[-123.431,45.227],[-122.165,47.26],[-121.754,48.492],[-121.494,49.386],[-120.637,51.174],[-120.134,51.695],[-119.566,52.049],[-117.248,52.79],[-114.556,53.772],[-113.431,54.025],[-112.329,54.241],[-111.502,54.316],[-111.032,54.525],[-110.883,54.837],[-110.764,55.001],[-110.555,55.508],[-110.325,55.955],[-110.067,57.094],[-110.207,57.653],[-110.365,57.997],[-110.589,58.267],[-110.999,58.482],[-111.613,58.742],[-112.368,58.947],[-114.456,59.259],[-115.539,59.48],[-118.952,59.47],[-119.614,59.293],[-121.076,59.144],[-122.054,59.125],[-122.547,59.19],[-123.662,59.236],[-124.233,59.736],[-124.896,61.401],[-124.699,62.6],[-124.547,63.019],[-124.151,63.601],[-123.441,64.183],[-120.656,65.632],[-119.07,66.258],[-118.051,66.433],[-116.96,66.505],[-115.272,66.273],[-111.576,64.497],[-110.615,64.003],[-108.418,62.358],[-104.976,60.726],[-102.521,59.999],[-100.133,59.186],[-98.792,58.777],[-96.504,58.22],[-95.831,58.111],[-95.086,57.929],[-92.212,57.492],[-92.121,57.347],[-92.03,56.71],[-92.266,56.037],[-93.139,55.218],[-94.031,54.582],[-95.74,53.8],[-96.177,53.454],[-96.068,52.945],[-95.559,52.672],[-91.134,51.914],[-88.542,51.163],[-86.814,50.8],[-82.929,48.623],[-82.391,48.187],[-81.78,47.59],[-81.285,46.979],[-80.266,46.31],[-77.806,45.13],[-76.244,44.462],[-75.99,43.943],[-76.164,43.197],[-78.348,42.048],[-79.248,41.708],[-80.273,41.243],[-81.547,41.053],[-83.043,41.035],[-86.36,40.93],[-87.373,40.801],[-91.442,42.486],[-93.285,43.554],[-95.126,44.216],[-96.581,44.798],[-98.018,45.49],[-99.273,45.981],[-101.074,46.472],[-106.905,46.848],[-109.633,47.066],[-110.442,46.963],[-111.224,46.568],[-114.345,45.728],[-114.926,45.646],[-116.395,44.889],[-116.877,44.718],[-117.153,44.603],[-120.101,43.336],[-120.414,43.083],[-120.749,42.733],[-120.883,42.457],[-121.092,42.114],[-121.248,41.779],[-121.537,40.897],[-121.502,39.082],[-121.568,38.625],[-121.633,38.349],[-121.778,37.938],[-121.851,37.881],[-121.969,37.9],[-122.156,37.996],[-122.332,38.206],[-122.617,38.494],[-122.931,38.545],[-123.346,38.444],[-123.518,38.501],[-124.052,38.778],[-124.295,39.092],[-124.508,39.636],[-124.532,40.095],[-124.622,40.786],[-124.675,41.138],[-124.754,41.427],[-124.809,41.785],[-124.831,41.846]]]}},{"type":"Feature","properties":{"density":1},"geometry":{"type":"Polygon","coordinates":[[[-108.719,48.086],[-108.791,48.09],[-109.028,48.054],[-109.064,48.034],[-109.091,47.98],[-109.061,47.9],[-108.946,47.866],[-108.866,47.904],[-108.709,48.037],[-108.697,48.077],[-108.712,48.087],[-108.719,48.086]]]}},{"type":"Feature","properties":{"density":2},"geometry":{"type":"Polygon","coordinates":[[[-115.735,43.839],[-115.821,43.845],[-115.83,43.873],[-115.784,43.916],[-115.714,43.928],[-115.68,43.906],[-115.683,43.867],[-115.702,43.848],[-115.735,43.839]]]}},{"type":"Feature","properties":{"density":2},"geometry":{"type":"Polygon","coordinates":[[[-114.988,56.212],[-115.088,56.265],[-115.15,56.336],[-115.159,56.417],[-115.131,56.489],[-115.093,56.527],[-114.969,56.594],[-114.578,56.67],[-114.434,56.651],[-114.311,56.527],[-114.134,56.46],[-114.005,56.446],[-113.924,56.455],[-113.805,56.494],[-113.557,56.503],[-113.452,56.427],[-113.438,56.351],[-113.443,56.284],[-113.481,56.231],[-113.595,56.179],[-113.81,56.174],[-114.163,56.208],[-114.606,56.222],[-114.821,56.184],[-114.94,56.193],[-114.988,56.212]]]}},{"type":"Feature","properties":{"density":2},"geometry":{"type":"Polygon","coordinates":[[[-109.249,55.475],[-109.257,55.489],[-109.237,55.516],[-109.147,55.53],[-108.847,55.536],[-108.641,55.526],[-108.63,55.512],[-108.63,55.491],[-108.706,55.475],[-109.196,55.463],[-109.249,55.475]]]}},{"type":"Feature","properties":{"density":2},"geometry":{"type":"Polygon","coordinates":[[[-124.134,42.634],[-124.158,42.878],[-124.006,43.285],[-123.832,43.495],[-123.503,44.059],[-123.106,44.818],[-122.27,45.982],[-121.306,47.201],[-120.924,47.91],[-120.378,48.547],[-119.723,49.274],[-118.923,49.838],[-117.504,50.057],[-115.885,50.038],[-115.521,50.002],[-115.194,49.675],[-115.066,49.293],[-115.085,49.02],[-115.176,48.874],[-115.885,49.02],[-116.158,49.056],[-117.085,48.838],[-117.686,48.456],[-118.941,47.583],[-119.596,46.946],[-120.396,46.219],[-121.033,45.509],[-121.487,44.854],[-121.997,43.417],[-122.197,43.035],[-122.342,42.708],[-122.415,42.471],[-122.652,42.162],[-122.87,42.017],[-123.27,41.962],[-123.525,41.998],[-123.961,42.253],[-124.134,42.634]]]}},{"type":"Feature","properties":{"density":2},"geometry":{"type":"Polygon","coordinates":[[[-124.073,34.207],[-123.654,35.935],[-123.6,36.736],[-123.709,37.518],[-123.854,38.227],[-123.982,38.7],[-124.327,39.21],[-124.491,39.592],[-124.509,40.956],[-124.418,41.847],[-124.2,42.538],[-124.0,42.666],[-123.727,42.611],[-123.581,42.52],[-123.509,42.047],[-123.745,41.101],[-123.727,40.556],[-123.327,39.937],[-122.963,39.282],[-122.654,38.628],[-122.526,37.991],[-122.654,37.191],[-123.327,35.299],[-123.527,34.007],[-123.527,33.68],[-123.472,33.371],[-123.563,33.189],[-123.636,33.171],[-123.836,33.262],[-123.945,33.516],[-123.963,33.644],[-124.073,34.207]]]}},{"type":"Feature","properties":{"density":2},"geometry":{"type":"Polygon","coordinates":[[[-115.727,43.838],[-115.807,43.804],[-115.832,43.844],[-115.711,43.945],[-115.676,43.947],[-115.658,43.894],[-115.711,43.84],[-115.727,43.838]]]}},{"type":"Feature","properties":{"density":2},"geometry":{"type":"Polygon","coordinates":[[[-122.335,43.382],[-122.415,43.435],[-122.483,43.517],[-122.516,43.612],[-122.517,43.653],[-122.493,43.684],[-122.438,43.673],[-122.372,43.593],[-122.235,43.544],[-122.168,43.474],[-122.162,43.445],[-122.175,43.428],[-122.292,43.443],[-122.27,43.375],[-122.298,43.362],[-122.328,43.373],[-122.335,43.382]]]}},{"type":"Feature","properties":{"density":2},"geometry":{"type":"Polygon","coordinates":[[[-109.197,55.527],[-108.736,55.495],[-108.699,55.474],[-108.68,55.43],[-108.71,55.374],[-108.736,55.355],[-108.782,55.352],[-109.252,55.466],[-109.26,55.491],[-109.21,55.524],[-109.197,55.527]]]}},{"type":"Feature","properties":{"density":2},"geometry":{"type":"Polygon","coordinates":[[[-111.482,59.585],[-110.861,59.54],[-110.796,59.481],[-110.851,59.376],[-110.925,59.331],[-111.098,59.293],[-111.309,59.304],[-111.448,59.335],[-111.629,59.42],[-111.651,59.459],[-111.636,59.537],[-111.595,59.579],[-111.511,59.592],[-111.482,59.585]]]}},{"type":"Feature","properties":{"density":2},"geometry":{"type":"Polygon","coordinates":[[[-114.975,56.574],[-114.922,56.596],[-114.864,56.593],[-114.452,56.501],[-114.06,56.383],[-113.764,56.41],[-113.632,56.39],[-113.572,56.356],[-113.629,56.329],[-113.959,56.249],[-114.137,56.178],[-114.384,56.155],[-114.585,56.18],[-114.802,56.18],[-114.976,56.217],[-115.078,56.276],[-115.112,56.319],[-115.119,56.422],[-115.102,56.509],[-115.053,56.552],[-114.988,56.569],[-114.975,56.574]]]}},{"type":"Feature","properties":{"density":2},"geometry":{"type":"Polygon","coordinates":[[[-115.74,43.859],[-115.699,43.941],[-115.683,43.958],[-115.651,43.956],[-115.649,43.913],[-115.692,43.856],[-115.725,43.838],[-115.741,43.855],[-115.74,43.859]]]}},{"type":"Feature","properties":{"density":2},"geometry":{"type":"Polygon","coordinates":[[[-117.814,61.721],[-118.03,61.692],[-118.2,61.643],[-118.338,61.553],[-118.367,61.507],[-118.352,61.475],[-118.208,61.417],[-117.742,61.351],[-117.478,61.292],[-117.039,61.246],[-116.726,61.189],[-115.921,60.9],[-115.68,60.76],[-115.567,60.735],[-115.295,60.729],[-115.06,60.68],[-114.422,60.66],[-114.101,60.585],[-113.825,60.474],[-113.639,60.353],[-113.348,59.966],[-113.126,59.759],[-112.8,59.722],[-112.537,59.738],[-112.385,59.761],[-112.06,59.867],[-111.878,59.888],[-111.479,59.844],[-111.372,59.788],[-111.343,59.702],[-111.397,59.653],[-111.579,59.596],[-111.616,59.547],[-111.636,59.444],[-111.591,59.378],[-111.077,59.145],[-110.54,59.054],[-110.14,58.873],[-109.94,58.834],[-109.793,58.866],[-109.744,58.967],[-109.744,59.104],[-109.67,59.188],[-109.615,59.286],[-109.626,59.391],[-109.705,59.47],[-109.798,59.503],[-110.135,59.518],[-110.208,59.554],[-110.251,59.611],[-110.346,59.658],[-110.403,59.768],[-110.381,59.858],[-110.31,59.902],[-110.112,59.931],[-109.909,59.851],[-109.582,59.809],[-109.321,59.814],[-109.099,59.96],[-109.013,60.092],[-108.974,60.263],[-109.016,60.607],[-109.122,60.764],[-109.244,60.848],[-109.454,60.947],[-109.595,60.966],[-109.813,60.951],[-110.244,60.874],[-110.583,60.756],[-110.965,60.653],[-111.064,60.634],[-111.312,60.623],[-112.7,60.816],[-113.2,60.923],[-114.039,61.022],[-114.371,61.083],[-114.725,61.089],[-114.963,61.132],[-115.198,61.196],[-115.58,61.251],[-115.867,61.352],[-117.197,61.6],[-117.264,61.632],[-117.267,61.651],[-117.166,61.702],[-117.123,61.741],[-117.105,61.786],[-117.109,61.829],[-117.146,61.878],[-117.258,61.926],[-117.33,61.93],[-117.446,61.903],[-117.697,61.795],[-117.814,61.721]]]}},{"type":"Feature","properties":{"density":2},"geometry":{"type":"Polygon","coordinates":[[[-109.214,55.526],[-109.105,55.522],[-108.835,55.377],[-108.593,55.234],[-108.545,55.166],[-108.609,55.157],[-108.653,55.169],[-108.912,55.267],[-109.25,55.472],[-109.247,55.498],[-109.218,55.523],[-109.214,55.526]]]}},{"type":"Feature","properties":{"density":2},"geometry":{"type":"Polygon","coordinates":[[[-114.991,56.608],[-114.796,56.685],[-114.653,56.644],[-114.463,56.519],[-114.302,56.453],[-114.091,56.427],[-113.894,56.461],[-113.814,56.508],[-113.753,56.519],[-113.682,56.513],[-113.652,56.421],[-113.877,56.253],[-114.23,56.203],[-114.56,56.178],[-114.958,56.277],[-115.061,56.314],[-115.127,56.358],[-115.147,56.406],[-115.135,56.455],[-115.077,56.558],[-115.008,56.605],[-114.991,56.608]]]}},{"type":"Feature","properties":{"density":2},"geometry":{"type":"Polygon","coordinates":[[[-120.717,44.806],[-120.58,45.011],[-120.513,45.078],[-120.453,45.086],[-120.46,45.048],[-120.56,44.955],[-120.62,44.801],[-120.708,44.773],[-120.722,44.795],[-120.717,44.806]]]}},{"type":"Feature","properties":{"density":2},"geometry":{"type":"Polygon","coordinates":[[[-124.046,42.762],[-123.909,43.12],[-123.707,43.513],[-122.99,44.463],[-122.505,45.359],[-122.338,45.845],[-122.029,46.513],[-121.953,46.793],[-121.701,47.196],[-121.319,48.848],[-120.896,49.888],[-120.536,50.429],[-119.856,50.795],[-119.317,51.028],[-118.515,51.266],[-118.029,51.35],[-117.527,51.342],[-117.275,51.37],[-116.782,51.38],[-115.877,51.343],[-115.258,51.422],[-114.706,51.575],[-114.458,51.541],[-114.204,51.475],[-114.043,51.224],[-114.004,50.877],[-114.194,50.455],[-114.77,49.917],[-115.032,49.242],[-115.973,48.953],[-116.488,48.919],[-116.805,49.083],[-117.105,49.215],[-117.471,49.088],[-117.907,48.677],[-118.474,48.316],[-118.707,48.114],[-118.993,47.942],[-120.144,46.846],[-120.511,46.307],[-120.871,46.075],[-121.071,45.819],[-121.217,45.43],[-121.432,45.134],[-121.541,44.791],[-121.79,44.384],[-122.03,44.118],[-122.122,44.053],[-122.285,44.007],[-122.48,43.992],[-122.749,43.891],[-122.88,43.735],[-122.978,43.488],[-123.014,43.244],[-123.054,43.103],[-123.176,42.854],[-123.062,42.511],[-122.928,42.347],[-122.68,42.255],[-122.528,42.221],[-122.348,42.049],[-122.1,41.506],[-122.067,41.144],[-122.062,40.581],[-121.833,39.446],[-121.84,38.884],[-121.88,38.634],[-121.923,38.52],[-121.982,38.245],[-122.05,38.118],[-122.097,38.106],[-122.179,38.212],[-122.22,38.329],[-122.29,38.442],[-122.629,39.316],[-122.641,39.518],[-122.605,39.744],[-122.635,40.034],[-122.921,40.833],[-122.952,41.043],[-122.952,41.219],[-123.017,41.566],[-123.181,41.905],[-123.394,42.18],[-123.505,42.26],[-123.81,42.607],[-123.871,42.619],[-123.925,42.599],[-124.02,42.597],[-124.069,42.621],[-124.081,42.673],[-124.052,42.738],[-124.046,42.762]]]}},{"type":"Feature","properties":{"density":2},"geometry":{"type":"Polygon","coordinates":[[[-117.75,61.296],[-117.901,61.335],[-118.384,61.696],[-118.607,61.777],[-118.67,61.823],[-118.658,61.894],[-118.57,61.943],[-118.311,62.019],[-117.676,62.041],[-117.496,62.014],[-117.369,61.965],[-116.683,61.916],[-116.141,61.816],[-115.241,61.75],[-114.682,61.643],[-113.736,61.509],[-112.921,61.229],[-112.17,61.02],[-111.503,61.002],[-111.032,61.044],[-110.591,61.002],[-109.995,60.865],[-109.464,60.621],[-109.309,60.531],[-108.88,60.364],[-108.367,60.135],[-108.291,60.074],[-108.241,59.952],[-108.237,59.845],[-108.348,59.486],[-108.527,59.219],[-108.829,59.002],[-109.341,58.925],[-109.716,58.961],[-109.985,59.092],[-110.134,59.211],[-110.438,59.384],[-111.105,59.635],[-111.928,59.784],[-112.216,59.811],[-112.421,59.882],[-112.582,59.97],[-112.927,60.107],[-113.239,60.409],[-113.459,60.48],[-114.322,60.585],[-114.917,60.604],[-115.388,60.656],[-116.136,60.885],[-116.54,61.03],[-117.093,61.186],[-117.219,61.263],[-117.493,61.256],[-117.623,61.262],[-117.743,61.287],[-117.75,61.296]]]}},{"type":"Feature","properties":{"density":2},"geometry":{"type":"Polygon","coordinates":[[[-120.973,61.794],[-121.078,61.786],[-121.205,61.736],[-121.367,61.602],[-121.381,61.563],[-121.341,61.544],[-121.222,61.579],[-121.156,61.582],[-121.097,61.616],[-120.929,61.788],[-120.939,61.804],[-120.968,61.798],[-120.973,61.794]]]}},{"type":"Feature","properties":{"density":2},"geometry":{"type":"Polygon","coordinates":[[[-115.338,62.083],[-115.485,62.116],[-115.561,62.169],[-115.559,62.211],[-115.531,62.251],[-115.401,62.288],[-115.317,62.279],[-115.272,62.204],[-115.257,62.146],[-115.273,62.105],[-115.328,62.081],[-115.338,62.083]]]}},{"type":"Feature","properties":{"density":2},"geometry":{"type":"Polygon","coordinates":[[[-109.735,56.005],[-109.659,56.024],[-109.515,55.956],[-109.458,55.909],[-109.347,55.876],[-109.067,55.979],[-108.911,55.965],[-108.729,55.926],[-108.694,55.87],[-108.711,55.773],[-108.695,55.702],[-108.499,55.606],[-108.483,55.531],[-108.513,55.468],[-108.523,55.387],[-108.48,55.23],[-108.427,55.204],[-108.318,55.183],[-108.038,55.062],[-107.948,54.993],[-107.883,54.972],[-107.743,54.884],[-107.69,54.81],[-107.69,54.788],[-107.772,54.685],[-107.823,54.651],[-107.88,54.63],[-107.942,54.642],[-108.114,54.788],[-108.229,54.864],[-108.719,55.013],[-108.829,55.14],[-109.034,55.245],[-109.16,55.267],[-109.279,55.328],[-109.338,55.37],[-109.382,55.467],[-109.534,55.602],[-109.665,55.658],[-109.742,55.666],[-109.793,55.703],[-109.786,55.765],[-109.71,55.853],[-109.751,55.913],[-109.754,55.965],[-109.735,56.005]]]}},{"type":"Feature","properties":{"density":2},"geometry":{"type":"Polygon","coordinates":[[[-113.335,47.666],[-113.281,47.75],[-113.185,47.828],[-112.928,48.112],[-112.793,48.203],[-112.562,48.327],[-112.371,48.393],[-112.291,48.366],[-112.216,48.309],[-112.168,48.208],[-112.159,48.108],[-112.19,48.058],[-112.273,47.991],[-112.46,47.95],[-112.66,47.883],[-112.858,47.776],[-113.273,47.59],[-113.344,47.591],[-113.338,47.66],[-113.335,47.666]]]}},{"type":"Feature","properties":{"density":2},"geometry":{"type":"Polygon","coordinates":[[[-92.484,19.542],[-92.861,19.382],[-93.148,19.283],[-93.758,19.122],[-94.033,18.97],[-94.094,18.882],[-94.132,18.729],[-94.113,18.573],[-93.994,18.478],[-93.315,18.131],[-92.984,17.982],[-92.755,17.936],[-92.514,17.917],[-92.312,17.967],[-92.156,18.058],[-92.011,18.317],[-91.976,18.493],[-91.976,18.707],[-92.003,18.905],[-92.053,19.111],[-92.034,19.397],[-92.053,19.496],[-92.16,19.595],[-92.297,19.595],[-92.438,19.569],[-92.484,19.542]]]}},{"type":"Feature","properties":{"density":2},"geometry":{"type":"Polygon","coordinates":[[[-92.118,46.153],[-91.985,46.464],[-91.76,46.826],[-91.651,46.927],[-91.608,46.939],[-91.593,46.927],[-91.596,46.89],[-91.84,46.582],[-92.008,46.225],[-92.053,46.087],[-92.081,46.057],[-92.099,46.066],[-92.121,46.13],[-92.118,46.153]]]}},{"type":"Feature","properties":{"density":2},"geometry":{"type":"Polygon","coordinates":[[[-100.032,51.488],[-99.977,51.3],[-100.018,51.278],[-100.045,51.283],[-100.073,51.333],[-100.077,51.482],[-100.041,51.49],[-100.032,51.488]]]}},{"type":"Feature","properties":{"density":3},"geometry":{"type":"Polygon","coordinates":[[[-114.978,56.241],[-115.073,56.289],[-115.116,56.332],[-115.145,56.47],[-115.126,56.522],[-115.107,56.532],[-115.035,56.551],[-114.969,56.546],[-114.73,56.498],[-114.687,56.451],[-114.568,56.398],[-114.396,56.351],[-113.986,56.346],[-113.843,56.317],[-113.757,56.293],[-113.748,56.25],[-113.776,56.231],[-113.853,56.227],[-114.015,56.246],[-114.935,56.26],[-114.978,56.241]]]}},{"type":"Feature","properties":{"density":3},"geometry":{"type":"Polygon","coordinates":[[[-109.239,55.469],[-109.227,55.506],[-109.126,55.522],[-109.044,55.524],[-109.009,55.516],[-108.993,55.493],[-109.013,55.479],[-109.196,55.471],[-109.239,55.469]]]}},{"type":"Feature","properties":{"density":3},"geometry":{"type":"Polygon","coordinates":[[[-112.037,59.295],[-112.045,59.333],[-112.018,59.378],[-111.923,59.405],[-111.866,59.451],[-111.858,59.489],[-111.938,59.546],[-112.056,59.596],[-112.087,59.63],[-112.087,59.756],[-112.045,59.798],[-111.969,59.821],[-111.854,59.825],[-111.53,59.771],[-111.438,59.726],[-111.347,59.607],[-111.114,59.527],[-110.828,59.516],[-110.798,59.497],[-110.786,59.462],[-110.84,59.424],[-111.133,59.352],[-111.206,59.302],[-111.271,59.279],[-111.389,59.302],[-111.583,59.375],[-111.686,59.378],[-111.725,59.363],[-111.751,59.214],[-111.816,59.18],[-111.892,59.176],[-111.938,59.192],[-112.026,59.241],[-112.026,59.268],[-112.037,59.295]]]}},{"type":"Feature","properties":{"density":3},"geometry":{"type":"Polygon","coordinates":[[[-121.418,46.797],[-121.456,46.839],[-121.434,46.866],[-121.323,46.912],[-121.117,47.03],[-120.911,47.205],[-120.835,47.236],[-120.793,47.221],[-120.8,47.144],[-120.9,47.034],[-121.186,46.866],[-121.346,46.805],[-121.388,46.805],[-121.418,46.797]]]}},{"type":"Feature","properties":{"density":3},"geometry":{"type":"Polygon","coordinates":[[[-124.047,42.661],[-124.105,42.731],[-124.058,42.894],[-123.826,43.232],[-123.411,43.63],[-123.292,43.821],[-123.268,43.928],[-123.107,44.203],[-123.048,44.268],[-122.929,44.322],[-122.845,44.262],[-122.821,44.06],[-122.893,43.773],[-123.054,43.243],[-123.143,43.07],[-123.28,42.885],[-123.37,42.593],[-123.471,42.462],[-123.578,42.462],[-123.721,42.54],[-123.966,42.599],[-124.047,42.661]]]}},{"type":"Feature","properties":{"density":3},"geometry":{"type":"Polygon","coordinates":[[[-124.0,40.665],[-124.218,40.01],[-124.145,39.519],[-123.872,39.046],[-123.527,38.719],[-123.381,38.118],[-123.381,36.536],[-123.527,35.954],[-123.745,35.281],[-123.763,34.79],[-123.8,34.462],[-123.781,34.262],[-123.8,34.062],[-123.781,33.935],[-123.745,33.825],[-123.672,33.771],[-123.6,33.771],[-123.49,34.953],[-123.127,35.99],[-122.69,38.027],[-122.799,38.482],[-122.999,38.937],[-123.272,39.446],[-123.545,39.828],[-123.581,40.283],[-123.563,40.683],[-123.654,40.81],[-123.8,40.865],[-123.909,40.81],[-124.0,40.665]]]}},{"type":"Feature","properties":{"density":3},"geometry":{"type":"Polygon","coordinates":[[[-120.776,47.445],[-120.728,47.502],[-120.634,47.757],[-120.582,47.781],[-120.462,47.788],[-120.426,47.742],[-120.426,47.64],[-120.434,47.562],[-120.497,47.407],[-120.545,47.374],[-120.679,47.36],[-120.75,47.379],[-120.781,47.412],[-120.781,47.438],[-120.776,47.445]]]}},{"type":"Feature","properties":{"density":3},"geometry":{"type":"Polygon","coordinates":[[[-114.909,56.437],[-114.76,56.422],[-114.666,56.384],[-114.552,56.364],[-114.365,56.287],[-114.349,56.27],[-114.346,56.217],[-114.37,56.198],[-114.402,56.198],[-114.543,56.219],[-114.915,56.217],[-114.952,56.23],[-114.99,56.248],[-114.991,56.266],[-114.954,56.303],[-114.907,56.312],[-114.899,56.328],[-114.924,56.35],[-115.093,56.397],[-115.107,56.419],[-115.098,56.436],[-115.027,56.451],[-114.926,56.448],[-114.909,56.437]]]}},{"type":"Feature","properties":{"density":3},"geometry":{"type":"Polygon","coordinates":[[[-121.282,46.939],[-121.189,47.122],[-121.064,47.298],[-121.044,47.304],[-121.032,47.278],[-121.13,47.082],[-121.159,46.938],[-121.205,46.888],[-121.306,46.853],[-121.339,46.863],[-121.334,46.894],[-121.286,46.934],[-121.282,46.939]]]}},{"type":"Feature","properties":{"density":3},"geometry":{"type":"Polygon","coordinates":[[[-120.75,47.484],[-120.724,47.592],[-120.789,47.88],[-120.798,47.979],[-120.773,48.024],[-120.731,48.034],[-120.606,47.957],[-120.539,47.835],[-120.516,47.823],[-120.414,47.885],[-120.323,47.919],[-120.256,47.923],[-120.23,47.91],[-120.223,47.805],[-120.265,47.684],[-120.353,47.538],[-120.407,47.496],[-120.52,47.355],[-120.567,47.324],[-120.656,47.343],[-120.757,47.404],[-120.754,47.476],[-120.75,47.484]]]}},{"type":"Feature","properties":{"density":3},"geometry":{"type":"Polygon","coordinates":[[[-117.882,61.56],[-117.435,61.548],[-116.829,61.493],[-116.65,61.466],[-116.602,61.449],[-116.597,61.424],[-116.711,61.338],[-116.744,61.293],[-116.79,61.273],[-117.009,61.271],[-117.361,61.316],[-117.648,61.376],[-117.871,61.458],[-117.91,61.521],[-117.909,61.546],[-117.89,61.558],[-117.882,61.56]]]}},{"type":"Feature","properties":{"density":3},"geometry":{"type":"Polygon","coordinates":[[[-109.171,55.524],[-109.132,55.523],[-108.905,55.388],[-108.881,55.362],[-108.884,55.335],[-108.929,55.32],[-109.035,55.354],[-109.162,55.445],[-109.229,55.472],[-109.229,55.507],[-109.193,55.52],[-109.171,55.524]]]}},{"type":"Feature","properties":{"density":3},"geometry":{"type":"Polygon","coordinates":[[[-114.973,56.442],[-114.808,56.415],[-114.63,56.351],[-114.334,56.357],[-114.281,56.343],[-114.258,56.312],[-114.275,56.278],[-114.333,56.263],[-114.652,56.243],[-114.814,56.292],[-115.102,56.41],[-115.103,56.438],[-115.07,56.449],[-114.995,56.445],[-114.973,56.442]]]}},{"type":"Feature","properties":{"density":3},"geometry":{"type":"Polygon","coordinates":[[[-121.331,46.959],[-120.968,47.364],[-120.757,47.511],[-120.717,47.602],[-120.727,47.682],[-120.791,47.813],[-120.788,47.892],[-120.763,47.969],[-120.72,47.996],[-120.656,47.996],[-120.595,47.956],[-120.464,47.929],[-120.333,47.981],[-120.22,48.048],[-120.147,48.161],[-120.165,48.207],[-120.165,48.329],[-120.125,48.411],[-120.04,48.475],[-119.994,48.436],[-119.945,48.317],[-119.881,48.28],[-119.854,48.246],[-119.854,48.176],[-119.936,48.005],[-120.238,47.593],[-120.305,47.529],[-120.507,47.419],[-120.751,47.346],[-120.861,47.258],[-121.197,46.934],[-121.342,46.833],[-121.413,46.814],[-121.428,46.84],[-121.341,46.947],[-121.331,46.959]]]}},{"type":"Feature","properties":{"density":3},"geometry":{"type":"Polygon","coordinates":[[[-122.396,40.163],[-122.461,40.128],[-122.527,39.952],[-122.535,39.87],[-122.511,39.587],[-122.382,39.438],[-122.281,39.249],[-122.263,39.083],[-122.213,39.05],[-122.228,38.985],[-122.189,38.885],[-122.195,38.78],[-122.17,38.71],[-122.154,38.706],[-122.127,38.714],[-122.095,38.772],[-122.084,38.841],[-122.084,39.19],[-122.127,39.448],[-122.125,39.669],[-122.099,39.78],[-122.099,39.874],[-122.173,40.139],[-122.224,40.173],[-122.287,40.186],[-122.373,40.173],[-122.396,40.163]]]}},{"type":"Feature","properties":{"density":3},"geometry":{"type":"Polygon","coordinates":[[[-117.266,61.334],[-117.506,61.283],[-117.783,61.332],[-117.934,61.414],[-118.057,61.533],[-118.203,61.631],[-118.324,61.736],[-118.363,61.783],[-118.36,61.838],[-118.182,61.914],[-117.832,61.992],[-117.723,61.998],[-117.428,61.902],[-117.137,61.832],[-116.986,61.843],[-116.854,61.88],[-116.434,61.811],[-116.258,61.816],[-116.066,61.794],[-115.975,61.767],[-115.951,61.731],[-116.002,61.679],[-116.092,61.667],[-116.385,61.684],[-116.495,61.66],[-116.605,61.591],[-117.027,61.391],[-117.181,61.338],[-117.23,61.338],[-117.266,61.334]]]}},{"type":"Feature","properties":{"density":3},"geometry":{"type":"Polygon","coordinates":[[[-109.277,55.5],[-109.206,55.566],[-109.116,55.615],[-109.041,55.643],[-108.907,55.655],[-108.587,55.633],[-108.527,55.605],[-108.501,55.553],[-108.55,55.403],[-108.581,55.381],[-108.633,55.374],[-108.702,55.375],[-108.757,55.396],[-108.758,55.469],[-108.798,55.506],[-108.881,55.523],[-109.092,55.51],[-109.237,55.459],[-109.279,55.465],[-109.282,55.492],[-109.277,55.5]]]}},{"type":"Feature","properties":{"density":3},"geometry":{"type":"Polygon","coordinates":[[[-113.333,47.637],[-113.102,47.844],[-112.955,48.046],[-112.908,48.085],[-112.735,48.171],[-112.682,48.155],[-112.632,48.103],[-112.617,48.023],[-112.664,47.898],[-112.741,47.873],[-112.818,47.886],[-112.916,47.869],[-113.264,47.602],[-113.32,47.589],[-113.338,47.595],[-113.341,47.627],[-113.333,47.637]]]}}]}