{"type":"FeatureCollection","features":[{"type":"Feature","properties":{"density":1},"geometry":{"type":"Polygon","coordinates":[[[-111.987,35.861],[-112.048,35.837],[-112.319,35.807],[-112.337,35.79],[-112.334,35.768],[-112.329,35.754],[-112.258,35.741],[-112.048,35.754],[-111.951,35.797],[-111.926,35.827],[-111.937,35.867],[-111.984,35.863],[-111.987,35.861]]]}},{"type":"Feature","properties":{"density":1},"geometry":{"type":"Polygon","coordinates":[[[-96.221,37.174],[-96.214,37.389],[-96.19,37.453],[-96.164,37.428],[-96.162,37.138],[-96.19,37.105],[-96.214,37.114],[-96.219,37.142],[-96.221,37.174]]]}},{"type":"Feature","properties":{"density":1},"geometry":{"type":"Polygon","coordinates":[[[-96.809,28.017],[-96.924,27.794],[-96.975,27.788],[-96.988,27.816],[-96.973,27.868],[-96.788,28.134],[-96.774,28.114],[-96.789,28.069],[-96.809,28.017]]]}},{"type":"Feature","properties":{"density":1},"geometry":{"type":"Polygon","coordinates":[[[-120.259,38.341],[-120.347,38.414],[-120.337,38.46],[-120.319,38.462],[-120.218,38.38],[-120.223,38.34],[-120.258,38.341],[-120.259,38.341]]]}},{"type":"Feature","properties":{"density":1},"geometry":{"type":"Polygon","coordinates":[[[-95.388,20.258],[-94.714,20.158],[-94.343,20.068],[-94.038,20.126],[-93.873,20.347],[-93.812,20.601],[-93.855,20.854],[-93.777,20.976],[-93.476,21.005],[-93.176,20.954],[-92.798,20.928],[-92.497,20.794],[-92.349,20.637],[-92.038,20.117],[-91.977,19.77],[-92.018,19.477],[-92.323,19.167],[-93.175,18.491],[-93.459,18.09],[-93.672,17.722],[-93.781,17.235],[-93.8,16.978],[-93.743,16.663],[-93.432,16.145],[-93.128,15.858],[-92.776,15.626],[-92.049,14.953],[-91.686,14.416],[-91.668,14.16],[-91.745,13.641],[-91.924,13.188],[-92.222,12.992],[-92.645,12.819],[-94.053,12.844],[-94.608,12.809],[-95.216,12.707],[-95.716,12.475],[-96.318,12.236],[-97.832,11.849],[-98.19,11.718],[-98.804,11.563],[-100.204,11.67],[-100.812,11.795],[-101.838,11.92],[-103.035,11.991],[-103.646,11.939],[-104.16,11.932],[-104.607,12.081],[-105.203,12.386],[-105.278,12.58],[-105.233,12.9],[-105.047,13.094],[-104.473,13.243],[-104.004,13.28],[-103.378,13.295],[-102.102,13.287],[-101.352,13.246],[-100.746,13.265],[-100.284,13.349],[-99.713,13.499],[-99.475,13.82],[-99.579,14.287],[-100.022,14.668],[-100.588,14.937],[-101.331,15.162],[-101.972,15.54],[-102.407,16.211],[-102.689,16.459],[-103.151,16.787],[-103.815,17.073],[-104.536,17.459],[-105.215,17.862],[-105.639,18.291],[-105.917,18.792],[-106.306,19.555],[-106.516,20.254],[-106.498,20.82],[-106.623,21.22],[-106.965,21.704],[-107.456,22.077],[-107.836,22.146],[-108.232,22.241],[-108.593,22.429],[-109.286,22.713],[-109.572,22.938],[-109.701,23.231],[-109.807,23.789],[-109.796,24.289],[-109.703,24.59],[-109.384,24.883],[-108.831,24.951],[-108.366,24.978],[-107.698,24.898],[-106.908,24.383],[-105.975,23.542],[-105.528,23.105],[-105.155,22.69],[-104.967,22.194],[-104.892,21.747],[-104.804,21.359],[-104.886,20.507],[-104.762,20.024],[-104.517,19.762],[-104.128,19.492],[-103.92,19.457],[-103.508,19.475],[-102.882,19.54],[-102.525,19.481],[-101.296,19.358],[-101.017,19.367],[-100.691,19.32],[-100.281,19.199],[-99.911,19.132],[-98.828,19.013],[-98.633,18.864],[-98.53,18.734],[-98.428,18.119],[-98.241,17.709],[-97.97,17.236],[-97.722,16.977],[-97.535,16.893],[-97.336,16.854],[-97.005,16.969],[-96.516,17.11],[-96.436,17.247],[-96.352,17.579],[-96.417,17.72],[-96.722,18.045],[-96.86,18.136],[-97.05,18.655],[-97.088,18.899],[-97.062,19.166],[-96.997,19.563],[-97.05,19.841],[-97.203,20.047],[-97.321,20.177],[-97.382,20.348],[-97.367,20.409],[-97.294,20.49],[-97.001,20.52],[-96.535,20.444],[-96.169,20.284],[-95.998,20.241],[-95.83,20.229],[-95.62,20.248],[-95.388,20.258]]]}},{"type":"Feature","properties":{"density":1},"geometry":{"type":"Polygon","coordinates":[[[-111.995,35.815],[-111.973,35.804],[-111.94,35.82],[-111.931,35.926],[-111.949,35.953],[-112.011,35.933],[-112.08,35.87],[-112.165,35.845],[-112.195,35.804],[-112.181,35.778],[-112.12,35.772],[-112.065,35.798],[-112.034,35.839],[-112.003,35.828],[-111.995,35.815]]]}},{"type":"Feature","properties":{"density":1},"geometry":{"type":"Polygon","coordinates":[[[-120.306,38.344],[-120.264,38.327],[-120.208,38.332],[-120.191,38.369],[-120.262,38.486],[-120.325,38.525],[-120.355,38.505],[-120.367,38.459],[-120.32,38.369],[-120.306,38.344]]]}},{"type":"Feature","properties":{"density":1},"geometry":{"type":"Polygon","coordinates":[[[-92.778,28.819],[-93.004,28.533],[-93.106,28.431],[-93.136,28.342],[-93.136,28.288],[-93.106,28.246],[-93.04,28.199],[-92.975,28.211],[-92.915,28.258],[-92.635,28.616],[-92.48,28.95],[-92.361,29.313],[-92.331,29.522],[-92.319,29.677],[-92.331,29.796],[-92.355,29.856],[-92.402,29.903],[-92.462,29.892],[-92.492,29.826],[-92.545,29.379],[-92.641,29.111],[-92.736,28.902],[-92.778,28.819]]]}},{"type":"Feature","properties":{"density":1},"geometry":{"type":"Polygon","coordinates":[[[-94.089,29.588],[-94.119,29.987],[-94.161,30.029],[-94.196,30.029],[-94.226,30.017],[-94.256,29.921],[-94.244,29.611],[-94.214,29.421],[-94.226,29.146],[-94.214,29.009],[-94.182,28.938],[-94.124,28.926],[-94.075,28.953],[-94.047,29.027],[-94.036,29.117],[-94.042,29.355],[-94.071,29.516],[-94.089,29.588]]]}},{"type":"Feature","properties":{"density":1},"geometry":{"type":"Polygon","coordinates":[[[-90.624,29.719],[-90.587,29.832],[-90.602,29.954],[-90.615,29.991],[-90.676,30.04],[-90.728,30.043],[-90.758,30.021],[-90.856,29.823],[-90.871,29.713],[-90.856,29.603],[-90.798,29.588],[-90.731,29.609],[-90.66,29.692],[-90.624,29.719]]]}},{"type":"Feature","properties":{"density":1},"geometry":{"type":"Polygon","coordinates":[[[-91.164,30.0],[-91.167,30.128],[-91.194,30.174],[-91.222,30.174],[-91.24,30.153],[-91.249,30.079],[-91.259,29.756],[-91.237,29.686],[-91.213,29.664],[-91.176,29.664],[-91.161,29.716],[-91.161,29.948],[-91.164,30.0]]]}},{"type":"Feature","properties":{"density":1},"geometry":{"type":"Polygon","coordinates":[[[-91.429,30.336],[-91.472,30.534],[-91.484,30.568],[-91.506,30.574],[-91.548,30.44],[-91.539,30.336],[-91.393,30.134],[-91.359,30.125],[-91.344,30.15],[-91.353,30.238],[-91.399,30.299],[-91.429,30.336]]]}},{"type":"Feature","properties":{"density":1},"geometry":{"type":"Polygon","coordinates":[[[-90.816,29.982],[-90.819,30.049],[-90.84,30.095],[-90.895,30.107],[-90.923,30.076],[-90.947,29.939],[-90.935,29.823],[-90.905,29.768],[-90.874,29.765],[-90.84,29.796],[-90.813,29.945],[-90.816,29.982]]]}},{"type":"Feature","properties":{"density":1},"geometry":{"type":"Polygon","coordinates":[[[-91.872,29.847],[-91.924,29.933],[-91.954,29.93],[-91.948,29.835],[-91.881,29.561],[-91.844,29.551],[-91.826,29.707],[-91.857,29.826],[-91.872,29.847]]]}},{"type":"Feature","properties":{"density":1},"geometry":{"type":"Polygon","coordinates":[[[-91.487,29.619],[-91.53,29.872],[-91.582,29.924],[-91.606,29.915],[-91.613,29.875],[-91.625,29.619],[-91.606,29.432],[-91.579,29.341],[-91.545,29.35],[-91.533,29.371],[-91.5,29.558],[-91.487,29.619]]]}},{"type":"Feature","properties":{"density":1},"geometry":{"type":"Polygon","coordinates":[[[-91.741,30.128],[-91.796,30.281],[-91.854,30.388],[-91.881,30.421],[-91.93,30.433],[-91.948,30.4],[-91.942,30.354],[-91.902,30.226],[-91.814,30.006],[-91.765,29.957],[-91.732,29.957],[-91.713,29.988],[-91.725,30.101],[-91.741,30.128]]]}},{"type":"Feature","properties":{"density":1},"geometry":{"type":"Polygon","coordinates":[[[-111.91,36.027],[-111.978,36.013],[-112.01,35.984],[-112.023,35.897],[-112.007,35.846],[-111.979,35.818],[-111.921,35.823],[-111.774,35.949],[-111.784,36.013],[-111.895,36.026],[-111.91,36.027]]]}},{"type":"Feature","properties":{"density":1},"geometry":{"type":"Polygon","coordinates":[[[-120.355,38.395],[-120.263,38.321],[-120.205,38.339],[-120.241,38.428],[-120.35,38.542],[-120.388,38.558],[-120.421,38.541],[-120.425,38.501],[-120.369,38.411],[-120.355,38.395]]]}},{"type":"Feature","properties":{"density":1},"geometry":{"type":"Polygon","coordinates":[[[-123.241,44.503],[-123.265,44.569],[-123.303,44.617],[-123.355,44.646],[-123.403,44.646],[-123.479,44.598],[-123.508,44.541],[-123.537,44.317],[-123.479,44.078],[-123.394,43.902],[-123.308,43.797],[-123.241,43.783],[-123.141,43.826],[-123.107,43.873],[-123.098,43.983],[-123.117,44.131],[-123.193,44.369],[-123.236,44.455],[-123.241,44.503]]]}},{"type":"Feature","properties":{"density":1},"geometry":{"type":"Polygon","coordinates":[[[-92.371,29.76],[-92.371,29.845],[-92.392,29.888],[-92.441,29.906],[-92.481,29.888],[-92.505,29.854],[-92.609,29.534],[-92.588,29.171],[-92.649,28.783],[-92.646,28.637],[-92.624,28.563],[-92.676,28.234],[-92.667,28.182],[-92.609,28.06],[-92.548,28.026],[-92.481,28.045],[-92.447,28.096],[-92.307,28.514],[-92.298,28.579],[-92.298,29.287],[-92.331,29.467],[-92.341,29.653],[-92.362,29.726],[-92.371,29.76]]]}},{"type":"Feature","properties":{"density":1},"geometry":{"type":"Polygon","coordinates":[[[-94.025,29.262],[-94.001,29.015],[-94.001,28.649],[-94.019,28.536],[-94.056,28.508],[-94.101,28.505],[-94.132,28.533],[-94.153,28.588],[-94.135,29.076],[-94.196,29.534],[-94.263,29.723],[-94.242,29.796],[-94.178,29.79],[-94.104,29.65],[-94.031,29.314],[-94.025,29.262]]]}},{"type":"Feature","properties":{"density":1},"geometry":{"type":"Polygon","coordinates":[[[-92.137,30.795],[-92.141,30.883],[-92.164,30.902],[-92.228,30.898],[-92.267,30.795],[-92.274,30.57],[-92.259,30.532],[-92.228,30.516],[-92.186,30.524],[-92.16,30.577],[-92.141,30.719],[-92.137,30.795]]]}},{"type":"Feature","properties":{"density":1},"geometry":{"type":"Polygon","coordinates":[[[-91.446,30.459],[-91.462,30.532],[-91.511,30.57],[-91.553,30.577],[-91.603,30.562],[-91.633,30.52],[-91.618,30.31],[-91.591,30.211],[-91.492,29.975],[-91.45,29.94],[-91.408,29.944],[-91.378,29.979],[-91.355,30.135],[-91.355,30.192],[-91.431,30.417],[-91.446,30.459]]]}},{"type":"Feature","properties":{"density":1},"geometry":{"type":"Polygon","coordinates":[[[-90.612,29.64],[-90.612,29.766],[-90.694,29.893],[-90.783,29.923],[-90.865,29.923],[-90.895,29.886],[-90.917,29.804],[-90.917,29.193],[-90.887,29.081],[-90.843,29.044],[-90.731,29.036],[-90.664,29.133],[-90.634,29.26],[-90.604,29.602],[-90.612,29.64]]]}},{"type":"Feature","properties":{"density":1},"geometry":{"type":"Polygon","coordinates":[[[-90.381,30.02],[-90.522,30.124],[-90.694,30.213],[-90.775,30.28],[-91.26,30.549],[-91.491,30.72],[-91.617,30.906],[-91.714,30.944],[-91.93,30.973],[-91.982,30.973],[-92.064,30.929],[-92.094,30.891],[-92.273,30.407],[-92.392,30.184],[-92.631,30.02],[-92.81,29.96],[-93.026,29.938],[-93.458,29.93],[-93.666,29.96],[-93.808,30.049],[-93.987,30.116],[-94.046,30.154],[-94.173,30.176],[-94.24,30.169],[-94.374,30.02],[-94.478,29.632],[-94.508,29.312],[-94.508,29.051],[-94.545,28.477],[-94.538,28.276],[-94.493,28.142],[-94.389,27.919],[-94.262,27.822],[-93.793,27.635],[-93.398,27.546],[-92.959,27.531],[-92.646,27.561],[-92.437,27.621],[-92.184,27.725],[-91.036,28.075],[-90.843,28.157],[-90.597,28.321],[-90.515,28.395],[-90.336,28.649],[-90.217,28.917],[-90.157,29.096],[-90.12,29.379],[-90.142,29.587],[-90.187,29.781],[-90.269,29.938],[-90.299,29.96],[-90.381,30.02]]]}},{"type":"Feature","properties":{"density":1},"geometry":{"type":"Polygon","coordinates":[[[-93.813,30.355],[-93.821,30.401],[-93.882,30.431],[-93.905,30.378],[-93.905,30.332],[-93.833,29.92],[-93.798,29.847],[-93.775,29.847],[-93.749,29.863],[-93.737,29.901],[-93.722,30.019],[-93.802,30.309],[-93.813,30.355]]]}},{"type":"Feature","properties":{"density":1},"geometry":{"type":"Polygon","coordinates":[[[-89.624,31.0],[-89.647,31.031],[-89.67,31.019],[-89.546,30.747],[-89.523,30.716],[-89.49,30.715],[-89.493,30.786],[-89.614,30.977],[-89.624,31.0]]]}},{"type":"Feature","properties":{"density":1},"geometry":{"type":"Polygon","coordinates":[[[-89.478,30.984],[-89.528,31.056],[-89.563,31.051],[-89.566,31.024],[-89.516,30.894],[-89.457,30.776],[-89.414,30.746],[-89.384,30.78],[-89.379,30.822],[-89.391,30.864],[-89.462,30.965],[-89.478,30.984]]]}},{"type":"Feature","properties":{"density":1},"geometry":{"type":"Polygon","coordinates":[[[-85.126,31.714],[-85.359,31.661],[-85.599,31.645],[-85.622,31.622],[-85.626,31.577],[-85.542,31.542],[-85.248,31.516],[-85.122,31.546],[-84.993,31.615],[-84.794,31.653],[-84.726,31.703],[-84.73,31.752],[-84.766,31.79],[-84.84,31.806],[-84.97,31.779],[-85.077,31.722],[-85.126,31.714]]]}},{"type":"Feature","properties":{"density":1},"geometry":{"type":"Polygon","coordinates":[[[-110.773,36.262],[-110.9,36.369],[-110.987,36.396],[-111.117,36.396],[-111.337,36.337],[-111.786,36.174],[-111.979,36.076],[-112.062,35.978],[-112.079,35.9],[-112.076,35.812],[-111.991,35.729],[-111.935,35.724],[-111.595,35.805],[-111.473,35.81],[-111.402,35.776],[-111.271,35.585],[-111.178,35.568],[-111.085,35.588],[-110.99,35.637],[-110.946,35.754],[-110.909,35.964],[-110.731,36.135],[-110.721,36.183],[-110.734,36.227],[-110.773,36.262]]]}},{"type":"Feature","properties":{"density":1},"geometry":{"type":"Polygon","coordinates":[[[-110.513,39.331],[-110.78,39.409],[-110.903,39.487],[-111.03,39.542],[-111.46,39.651],[-111.62,39.62],[-111.776,39.507],[-111.907,39.46],[-111.937,39.409],[-111.937,39.366],[-111.882,39.304],[-111.778,39.259],[-111.724,39.253],[-111.612,39.304],[-111.335,39.304],[-111.232,39.29],[-111.163,39.273],[-110.794,39.099],[-110.667,39.054],[-110.591,39.058],[-110.476,39.107],[-110.441,39.198],[-110.446,39.247],[-110.476,39.304],[-110.513,39.331]]]}},{"type":"Feature","properties":{"density":1},"geometry":{"type":"Polygon","coordinates":[[[-120.053,38.351],[-120.09,38.363],[-120.156,38.46],[-120.249,38.509],[-120.41,38.568],[-120.462,38.562],[-120.481,38.541],[-120.479,38.466],[-120.409,38.387],[-120.334,38.188],[-120.256,38.082],[-120.148,38.062],[-120.096,38.068],[-119.984,38.126],[-119.946,38.18],[-119.942,38.249],[-119.968,38.305],[-120.023,38.348],[-120.053,38.351]]]}},{"type":"Feature","properties":{"density":1},"geometry":{"type":"Polygon","coordinates":[[[-121.794,38.871],[-121.852,39.048],[-121.882,39.066],[-121.95,39.051],[-121.974,38.993],[-121.968,38.898],[-121.888,38.621],[-121.818,38.52],[-121.763,38.505],[-121.73,38.517],[-121.69,38.59],[-121.684,38.682],[-121.702,38.749],[-121.766,38.84],[-121.794,38.871]]]}},{"type":"Feature","properties":{"density":1},"geometry":{"type":"Polygon","coordinates":[[[-121.683,38.822],[-121.681,38.935],[-121.647,39.127],[-121.653,39.207],[-121.775,39.376],[-121.806,39.445],[-121.904,39.53],[-121.94,39.521],[-121.983,39.378],[-121.989,39.292],[-121.959,39.158],[-121.818,38.847],[-121.763,38.81],[-121.708,38.804],[-121.683,38.822]]]}},{"type":"Feature","properties":{"density":1},"geometry":{"type":"Polygon","coordinates":[[[-121.05,39.276],[-120.912,39.306],[-120.896,39.338],[-120.914,39.358],[-120.969,39.371],[-121.087,39.358],[-121.115,39.342],[-121.123,39.306],[-121.103,39.278],[-121.065,39.274],[-121.05,39.276]]]}},{"type":"Feature","properties":{"density":1},"geometry":{"type":"Polygon","coordinates":[[[-122.141,39.207],[-122.205,39.266],[-122.268,39.266],[-122.302,39.244],[-122.324,39.139],[-122.319,39.014],[-122.285,38.973],[-122.227,38.956],[-122.163,38.98],[-122.136,39.036],[-122.129,39.158],[-122.141,39.207]]]}},{"type":"Feature","properties":{"density":1},"geometry":{"type":"Polygon","coordinates":[[[-122.009,39.512],[-122.061,39.591],[-122.109,39.595],[-122.124,39.578],[-122.112,39.486],[-122.026,39.32],[-121.985,39.273],[-121.948,39.273],[-121.921,39.3],[-121.919,39.364],[-121.975,39.478],[-122.009,39.512]]]}},{"type":"Feature","properties":{"density":1},"geometry":{"type":"Polygon","coordinates":[[[-123.69,39.434],[-123.528,39.265],[-123.498,39.258],[-123.354,39.309],[-123.36,39.359],[-123.513,39.373],[-123.598,39.443],[-123.634,39.495],[-123.676,39.519],[-123.719,39.502],[-123.698,39.444],[-123.69,39.434]]]}},{"type":"Feature","properties":{"density":1},"geometry":{"type":"Polygon","coordinates":[[[-124.314,42.745],[-124.207,42.877],[-124.159,42.912],[-123.933,42.978],[-123.903,43.043],[-124.004,43.091],[-124.064,43.097],[-124.153,43.079],[-124.338,43.002],[-124.636,42.811],[-124.743,42.686],[-124.839,42.519],[-124.857,42.418],[-124.839,42.346],[-124.773,42.316],[-124.702,42.31],[-124.564,42.376],[-124.481,42.549],[-124.368,42.686],[-124.314,42.745]]]}},{"type":"Feature","properties":{"density":1},"geometry":{"type":"Polygon","coordinates":[[[-98.06,18.907],[-98.461,18.87],[-98.77,18.907],[-99.625,19.088],[-100.243,19.161],[-101.207,19.38],[-102.099,19.616],[-102.735,19.816],[-103.408,19.962],[-104.336,20.216],[-104.791,20.416],[-105.173,20.707],[-105.445,21.071],[-105.536,21.581],[-105.536,22.363],[-105.573,23.127],[-105.737,23.636],[-106.209,24.418],[-106.646,24.727],[-107.501,25.018],[-108.647,24.946],[-109.065,24.6],[-109.647,23.763],[-109.738,23.236],[-109.738,21.526],[-109.647,20.689],[-109.484,19.852],[-109.211,19.016],[-108.647,17.961],[-108.047,17.433],[-107.41,17.015],[-106.3,16.542],[-105.373,16.214],[-104.609,16.033],[-102.972,15.596],[-101.662,15.269],[-101.08,15.05],[-100.68,14.868],[-100.207,14.577],[-99.861,14.341],[-99.443,13.886],[-99.061,13.34],[-98.533,12.667],[-98.315,12.431],[-96.66,11.612],[-95.314,11.612],[-93.913,11.922],[-92.312,12.486],[-91.785,12.704],[-91.021,13.068],[-90.166,13.668],[-89.584,14.141],[-89.202,14.614],[-88.893,15.087],[-88.747,15.723],[-88.747,16.069],[-88.947,16.433],[-89.384,16.942],[-90.093,17.524],[-90.621,18.033],[-90.875,18.579],[-91.075,19.307],[-91.112,19.525],[-91.367,19.889],[-91.876,20.398],[-92.294,20.525],[-92.913,20.253],[-93.313,19.943],[-94.295,18.797],[-94.568,18.616],[-94.859,18.452],[-95.296,18.325],[-95.732,18.325],[-96.351,18.397],[-97.042,18.616],[-97.569,18.834],[-97.915,18.888],[-98.06,18.907]]]}},{"type":"Feature","properties":{"density":2},"geometry":{"type":"Polygon","coordinates":[[[-111.976,35.984],[-112.0,35.974],[-112.011,35.909],[-111.996,35.844],[-111.969,35.826],[-111.866,35.9],[-111.889,35.954],[-111.96,35.98],[-111.976,35.984]]]}},{"type":"Feature","properties":{"density":2},"geometry":{"type":"Polygon","coordinates":[[[-120.244,38.396],[-120.266,38.411],[-120.298,38.392],[-120.298,38.366],[-120.265,38.329],[-120.213,38.344],[-120.238,38.39],[-120.244,38.396]]]}},{"type":"Feature","properties":{"density":2},"geometry":{"type":"Polygon","coordinates":[[[-92.399,29.751],[-92.418,29.853],[-92.453,29.881],[-92.481,29.84],[-92.487,29.665],[-92.465,29.614],[-92.415,29.606],[-92.39,29.625],[-92.39,29.721],[-92.399,29.751]]]}},{"type":"Feature","properties":{"density":2},"geometry":{"type":"Polygon","coordinates":[[[-110.937,36.344],[-111.089,36.368],[-111.332,36.301],[-111.428,36.235],[-111.495,36.158],[-111.595,36.113],[-111.812,36.096],[-111.92,36.001],[-112.029,35.947],[-112.056,35.908],[-112.057,35.866],[-112.006,35.805],[-111.918,35.772],[-111.806,35.813],[-111.723,35.885],[-111.676,35.905],[-111.598,35.904],[-111.459,35.872],[-111.37,35.882],[-111.296,35.915],[-111.159,36.029],[-111.039,36.057],[-110.782,36.177],[-110.773,36.208],[-110.798,36.238],[-110.911,36.319],[-110.937,36.344]]]}},{"type":"Feature","properties":{"density":2},"geometry":{"type":"Polygon","coordinates":[[[-111.257,39.554],[-111.354,39.572],[-111.422,39.605],[-111.494,39.608],[-111.757,39.473],[-111.88,39.448],[-111.904,39.414],[-111.899,39.38],[-111.826,39.318],[-111.769,39.303],[-111.632,39.352],[-111.457,39.34],[-111.385,39.378],[-111.122,39.32],[-110.997,39.27],[-110.881,39.182],[-110.814,39.151],[-110.778,39.141],[-110.703,39.184],[-110.697,39.231],[-110.718,39.29],[-110.828,39.394],[-110.983,39.483],[-111.229,39.546],[-111.257,39.554]]]}},{"type":"Feature","properties":{"density":2},"geometry":{"type":"Polygon","coordinates":[[[-120.168,38.348],[-120.162,38.401],[-120.174,38.421],[-120.224,38.44],[-120.287,38.44],[-120.328,38.374],[-120.328,38.329],[-120.231,38.159],[-120.143,38.149],[-120.029,38.166],[-119.995,38.19],[-119.995,38.24],[-120.04,38.298],[-120.128,38.313],[-120.159,38.334],[-120.168,38.348]]]}},{"type":"Feature","properties":{"density":2},"geometry":{"type":"Polygon","coordinates":[[[-121.008,39.362],[-121.086,39.348],[-121.1,39.332],[-121.095,39.309],[-121.057,39.288],[-120.97,39.304],[-120.963,39.336],[-120.994,39.358],[-121.008,39.362]]]}},{"type":"Feature","properties":{"density":3},"geometry":{"type":"Polygon","coordinates":[[[-111.272,36.168],[-111.195,36.258],[-111.084,36.285],[-110.986,36.266],[-110.945,36.229],[-110.926,36.176],[-111.014,36.094],[-111.171,36.068],[-111.398,35.969],[-111.514,35.957],[-111.695,35.982],[-111.772,35.938],[-111.795,35.902],[-111.801,35.847],[-111.84,35.822],[-111.954,35.807],[-112.017,35.829],[-112.04,35.866],[-112.011,35.927],[-111.862,36.029],[-111.511,36.047],[-111.381,36.091],[-111.279,36.155],[-111.272,36.168]]]}},{"type":"Feature","properties":{"density":3},"geometry":{"type":"Polygon","coordinates":[[[-110.98,39.464],[-111.283,39.54],[-111.478,39.549],[-111.598,39.525],[-111.768,39.442],[-111.855,39.434],[-111.871,39.405],[-111.834,39.369],[-111.764,39.359],[-111.637,39.43],[-111.488,39.352],[-111.458,39.374],[-111.478,39.427],[-111.468,39.459],[-111.388,39.466],[-111.19,39.442],[-111.053,39.378],[-110.953,39.364],[-110.932,39.375],[-110.931,39.415],[-110.958,39.452],[-110.98,39.464]]]}},{"type":"Feature","properties":{"density":3},"geometry":{"type":"Polygon","coordinates":[[[-120.198,38.346],[-120.178,38.405],[-120.271,38.421],[-120.299,38.412],[-120.303,38.362],[-120.287,38.332],[-120.213,38.305],[-120.188,38.329],[-120.198,38.346]]]}}]}