{"type":"FeatureCollection","features":[{"type":"Feature","properties":{"density":1},"geometry":{"type":"Polygon","coordinates":[[[-81.275,26.618],[-81.3,26.606],[-81.355,26.526],[-81.347,26.487],[-81.3,26.491],[-81.267,26.528],[-81.239,26.575],[-81.253,26.61],[-81.275,26.618]]]}},{"type":"Feature","properties":{"density":1},"geometry":{"type":"Polygon","coordinates":[[[-81.047,26.731],[-81.105,26.711],[-81.165,26.623],[-81.165,26.582],[-81.116,26.58],[-81.085,26.6],[-81.042,26.668],[-81.036,26.713],[-81.047,26.731]]]}},{"type":"Feature","properties":{"density":1},"geometry":{"type":"Polygon","coordinates":[[[-86.146,32.986],[-86.12,33.014],[-86.093,33.016],[-86.066,32.992],[-86.054,32.953],[-86.06,32.924],[-86.097,32.904],[-86.143,32.95],[-86.146,32.986]]]}},{"type":"Feature","properties":{"density":1},"geometry":{"type":"Polygon","coordinates":[[[-94.638,34.003],[-94.638,34.028],[-94.812,34.031],[-94.86,34.016],[-94.851,33.989],[-94.654,33.992],[-94.638,34.003]]]}},{"type":"Feature","properties":{"density":1},"geometry":{"type":"Polygon","coordinates":[[[-94.728,29.822],[-94.7,29.811],[-94.693,29.767],[-94.849,29.586],[-94.918,29.555],[-95.0,29.624],[-94.999,29.655],[-94.966,29.696],[-94.748,29.825],[-94.728,29.822]]]}},{"type":"Feature","properties":{"density":1},"geometry":{"type":"Polygon","coordinates":[[[-94.707,29.784],[-94.478,30.214],[-94.336,30.372],[-94.312,30.427],[-94.324,30.518],[-94.381,30.557],[-94.428,30.554],[-94.461,30.524],[-94.527,30.352],[-94.719,30.061],[-94.756,29.911],[-94.752,29.807],[-94.74,29.782],[-94.717,29.78],[-94.707,29.784]]]}},{"type":"Feature","properties":{"density":1},"geometry":{"type":"Polygon","coordinates":[[[-95.778,32.43],[-95.891,33.203],[-95.937,34.09],[-95.71,35.272],[-94.845,37.273],[-94.436,38.16],[-94.072,39.569],[-93.663,40.456],[-93.186,41.411],[-92.64,41.843],[-92.049,42.048],[-91.503,41.934],[-91.253,41.57],[-90.889,40.706],[-90.457,40.047],[-89.411,39.365],[-88.161,38.865],[-86.114,38.592],[-84.682,38.933],[-83.522,39.82],[-82.999,39.888],[-82.749,39.797],[-82.454,39.388],[-82.408,39.001],[-82.613,38.569],[-82.817,38.251],[-83.522,37.705],[-84.727,37.091],[-85.5,36.773],[-86.706,36.682],[-87.979,36.773],[-89.32,37.228],[-89.798,37.228],[-90.821,36.364],[-91.23,35.681],[-91.844,33.953],[-91.912,33.249],[-92.162,32.112],[-92.367,31.43],[-92.344,30.838],[-92.185,30.406],[-91.753,29.747],[-91.276,29.383],[-91.162,28.928],[-91.208,28.61],[-91.594,28.383],[-92.663,28.087],[-94.323,27.973],[-94.732,28.133],[-95.323,28.837],[-95.619,29.906],[-95.755,31.68],[-95.778,32.43]]]}},{"type":"Feature","properties":{"density":1},"geometry":{"type":"Polygon","coordinates":[[[-101.764,20.918],[-101.729,20.918],[-101.721,20.953],[-101.792,21.0],[-101.823,21.201],[-101.848,21.246],[-101.878,21.264],[-101.913,21.23],[-101.939,21.17],[-101.96,20.928],[-102.01,20.772],[-101.963,20.756],[-101.887,20.846],[-101.805,20.893],[-101.764,20.918]]]}},{"type":"Feature","properties":{"density":1},"geometry":{"type":"Polygon","coordinates":[[[-93.213,18.441],[-93.208,18.46],[-93.13,18.48],[-92.778,18.412],[-92.534,18.441],[-92.493,18.412],[-92.473,18.347],[-92.392,18.266],[-92.311,18.242],[-92.054,18.237],[-91.701,18.275],[-91.439,18.208],[-91.353,18.084],[-91.319,17.918],[-91.367,17.813],[-91.605,17.765],[-91.877,17.674],[-92.044,17.569],[-92.12,17.45],[-92.178,17.321],[-92.163,17.221],[-92.016,17.088],[-91.982,17.002],[-92.001,16.892],[-92.135,16.778],[-92.44,16.883],[-92.717,16.935],[-92.755,16.892],[-92.726,16.83],[-92.488,16.673],[-92.388,16.549],[-92.182,16.339],[-92.035,16.225],[-91.839,16.153],[-91.772,16.058],[-91.796,15.986],[-91.906,15.905],[-92.111,15.839],[-92.216,15.853],[-92.759,16.048],[-93.174,16.396],[-93.255,16.582],[-93.303,16.835],[-93.308,16.964],[-93.208,17.312],[-93.184,17.517],[-93.198,17.894],[-93.184,17.941],[-93.136,17.98],[-93.112,18.037],[-93.15,18.289],[-93.17,18.337],[-93.213,18.441]]]}},{"type":"Feature","properties":{"density":1},"geometry":{"type":"Polygon","coordinates":[[[-92.354,19.599],[-92.34,19.642],[-92.292,19.676],[-92.202,19.685],[-91.777,19.485],[-91.587,19.346],[-91.119,19.056],[-90.819,18.927],[-90.418,18.874],[-90.213,18.865],[-90.104,18.817],[-89.965,18.684],[-89.956,18.445],[-89.975,18.331],[-90.046,18.207],[-90.151,18.102],[-90.275,18.04],[-90.514,18.035],[-90.805,18.073],[-91.076,18.197],[-91.949,18.955],[-92.307,19.447],[-92.326,19.504],[-92.354,19.599]]]}},{"type":"Feature","properties":{"density":1},"geometry":{"type":"Polygon","coordinates":[[[-95.215,16.201],[-95.185,16.245],[-95.133,16.217],[-95.121,16.086],[-95.136,15.924],[-95.182,15.79],[-95.185,15.683],[-95.185,15.582],[-95.143,15.451],[-95.14,15.32],[-95.161,15.283],[-95.198,15.259],[-95.252,15.259],[-95.289,15.289],[-95.335,15.363],[-95.411,15.592],[-95.426,15.808],[-95.402,15.897],[-95.24,16.15],[-95.215,16.201]]]}},{"type":"Feature","properties":{"density":1},"geometry":{"type":"Polygon","coordinates":[[[-129.421,56.565],[-129.355,56.533],[-129.221,56.399],[-129.051,56.312],[-129.009,56.272],[-128.999,56.228],[-129.02,56.206],[-129.062,56.198],[-129.12,56.212],[-129.474,56.39],[-129.515,56.428],[-129.525,56.463],[-129.475,56.485],[-129.488,56.542],[-129.452,56.563],[-129.421,56.565]]]}},{"type":"Feature","properties":{"density":1},"geometry":{"type":"Polygon","coordinates":[[[-90.854,36.063],[-90.844,36.145],[-90.802,36.221],[-90.725,36.256],[-90.677,36.242],[-90.665,36.166],[-90.7,36.075],[-90.79,35.992],[-90.84,35.995],[-90.853,36.025],[-90.854,36.063]]]}},{"type":"Feature","properties":{"density":1},"geometry":{"type":"Polygon","coordinates":[[[-91.741,33.292],[-91.782,33.342],[-91.79,33.421],[-91.753,33.401],[-91.703,33.33],[-91.689,33.29],[-91.723,33.278],[-91.741,33.292]]]}},{"type":"Feature","properties":{"density":1},"geometry":{"type":"Polygon","coordinates":[[[-91.701,32.816],[-91.718,32.831],[-91.709,32.869],[-91.673,32.873],[-91.656,32.827],[-91.691,32.814],[-91.701,32.816]]]}},{"type":"Feature","properties":{"density":1},"geometry":{"type":"Polygon","coordinates":[[[-120.558,38.764],[-120.499,38.868],[-120.454,38.883],[-120.418,38.863],[-120.413,38.831],[-120.437,38.8],[-120.55,38.734],[-120.567,38.735],[-120.563,38.752],[-120.558,38.764]]]}},{"type":"Feature","properties":{"density":1},"geometry":{"type":"Polygon","coordinates":[[[-129.454,56.547],[-129.288,56.391],[-129.281,56.35],[-129.295,56.327],[-129.391,56.343],[-129.605,56.449],[-129.607,56.475],[-129.593,56.483],[-129.457,56.46],[-129.453,56.479],[-129.485,56.529],[-129.466,56.549],[-129.454,56.547]]]}},{"type":"Feature","properties":{"density":1},"geometry":{"type":"Polygon","coordinates":[[[-90.376,36.728],[-90.398,36.847],[-90.366,36.892],[-90.283,36.859],[-90.206,36.803],[-90.185,36.762],[-90.209,36.694],[-90.277,36.645],[-90.316,36.653],[-90.373,36.72],[-90.376,36.728]]]}},{"type":"Feature","properties":{"density":1},"geometry":{"type":"Polygon","coordinates":[[[-89.914,36.598],[-89.923,36.67],[-89.902,36.694],[-89.881,36.676],[-89.865,36.605],[-89.883,36.578],[-89.907,36.589],[-89.914,36.598]]]}},{"type":"Feature","properties":{"density":1},"geometry":{"type":"Polygon","coordinates":[[[-89.681,36.63],[-89.699,36.664],[-89.689,36.689],[-89.65,36.659],[-89.658,36.628],[-89.674,36.629],[-89.681,36.63]]]}},{"type":"Feature","properties":{"density":1},"geometry":{"type":"Polygon","coordinates":[[[-89.3,36.874],[-89.358,36.889],[-89.365,36.933],[-89.331,36.943],[-89.282,36.922],[-89.273,36.896],[-89.296,36.873],[-89.3,36.874]]]}},{"type":"Feature","properties":{"density":1},"geometry":{"type":"Polygon","coordinates":[[[-90.917,36.185],[-90.896,36.222],[-90.845,36.26],[-90.626,36.337],[-90.58,36.329],[-90.564,36.3],[-90.585,36.185],[-90.649,36.092],[-90.701,36.051],[-90.745,36.066],[-90.795,36.119],[-90.897,36.133],[-90.916,36.164],[-90.917,36.185]]]}},{"type":"Feature","properties":{"density":1},"geometry":{"type":"Polygon","coordinates":[[[-90.425,36.004],[-90.445,36.049],[-90.433,36.099],[-90.37,36.12],[-90.328,36.103],[-90.323,36.072],[-90.354,36.005],[-90.393,35.992],[-90.423,36.003],[-90.425,36.004]]]}},{"type":"Feature","properties":{"density":1},"geometry":{"type":"Polygon","coordinates":[[[-91.23,35.59],[-91.212,35.666],[-91.177,35.708],[-91.128,35.702],[-91.086,35.667],[-91.087,35.619],[-91.11,35.6],[-91.205,35.568],[-91.226,35.58],[-91.23,35.59]]]}},{"type":"Feature","properties":{"density":1},"geometry":{"type":"Polygon","coordinates":[[[-90.888,35.726],[-90.924,35.759],[-90.914,35.817],[-90.893,35.837],[-90.828,35.837],[-90.815,35.823],[-90.821,35.776],[-90.853,35.732],[-90.878,35.726],[-90.888,35.726]]]}},{"type":"Feature","properties":{"density":1},"geometry":{"type":"Polygon","coordinates":[[[-91.247,35.409],[-91.269,35.428],[-91.294,35.379],[-91.262,35.363],[-91.247,35.404],[-91.247,35.409]]]}},{"type":"Feature","properties":{"density":1},"geometry":{"type":"Polygon","coordinates":[[[-91.861,34.677],[-91.885,34.681],[-91.922,34.647],[-91.891,34.571],[-91.828,34.525],[-91.772,34.528],[-91.763,34.549],[-91.778,34.599],[-91.842,34.667],[-91.861,34.677]]]}},{"type":"Feature","properties":{"density":1},"geometry":{"type":"Polygon","coordinates":[[[-91.77,34.419],[-91.829,34.424],[-91.842,34.403],[-91.796,34.268],[-91.752,34.242],[-91.668,34.26],[-91.656,34.323],[-91.702,34.381],[-91.76,34.416],[-91.77,34.419]]]}},{"type":"Feature","properties":{"density":1},"geometry":{"type":"Polygon","coordinates":[[[-91.657,32.862],[-91.715,32.874],[-91.777,32.794],[-91.781,32.735],[-91.753,32.733],[-91.643,32.804],[-91.635,32.844],[-91.651,32.861],[-91.657,32.862]]]}},{"type":"Feature","properties":{"density":1},"geometry":{"type":"Polygon","coordinates":[[[-89.626,32.941],[-89.651,32.933],[-89.692,32.878],[-89.727,32.811],[-89.717,32.789],[-89.698,32.779],[-89.638,32.799],[-89.616,32.93],[-89.626,32.941]]]}},{"type":"Feature","properties":{"density":1},"geometry":{"type":"Polygon","coordinates":[[[-92.143,30.999],[-92.2,30.981],[-92.281,30.91],[-92.279,30.863],[-92.257,30.838],[-92.215,30.834],[-92.16,30.89],[-92.126,30.978],[-92.139,30.998],[-92.143,30.999]]]}},{"type":"Feature","properties":{"density":1},"geometry":{"type":"Polygon","coordinates":[[[-91.827,30.912],[-91.865,30.877],[-91.894,30.758],[-91.865,30.686],[-91.829,30.681],[-91.752,30.7],[-91.724,30.763],[-91.819,30.909],[-91.827,30.912]]]}},{"type":"Feature","properties":{"density":1},"geometry":{"type":"Polygon","coordinates":[[[-91.499,30.713],[-91.62,30.709],[-91.654,30.686],[-91.669,30.657],[-91.661,30.635],[-91.622,30.6],[-91.504,30.61],[-91.487,30.653],[-91.495,30.71],[-91.499,30.713]]]}},{"type":"Feature","properties":{"density":1},"geometry":{"type":"Polygon","coordinates":[[[-91.53,30.427],[-91.609,30.375],[-91.637,30.313],[-91.627,30.298],[-91.559,30.283],[-91.527,30.304],[-91.491,30.359],[-91.482,30.404],[-91.483,30.42],[-91.512,30.433],[-91.53,30.427]]]}},{"type":"Feature","properties":{"density":1},"geometry":{"type":"Polygon","coordinates":[[[-91.801,30.113],[-91.869,30.091],[-91.891,30.038],[-91.864,30.028],[-91.793,30.057],[-91.777,30.092],[-91.796,30.112],[-91.801,30.113]]]}},{"type":"Feature","properties":{"density":1},"geometry":{"type":"Polygon","coordinates":[[[-91.757,29.908],[-91.856,29.802],[-91.868,29.773],[-91.858,29.714],[-91.798,29.71],[-91.764,29.732],[-91.724,29.883],[-91.75,29.91],[-91.757,29.908]]]}},{"type":"Feature","properties":{"density":1},"geometry":{"type":"Polygon","coordinates":[[[-90.932,29.842],[-91.058,29.721],[-91.071,29.655],[-91.045,29.636],[-90.959,29.694],[-90.928,29.744],[-90.909,29.806],[-90.926,29.844],[-90.932,29.842]]]}},{"type":"Feature","properties":{"density":1},"geometry":{"type":"Polygon","coordinates":[[[-91.022,29.949],[-91.088,29.914],[-91.151,29.85],[-91.171,29.815],[-91.164,29.769],[-91.115,29.758],[-91.05,29.811],[-91.001,29.91],[-91.004,29.947],[-91.017,29.951],[-91.022,29.949]]]}},{"type":"Feature","properties":{"density":1},"geometry":{"type":"Polygon","coordinates":[[[-90.871,29.786],[-90.945,29.748],[-90.986,29.7],[-90.983,29.679],[-90.943,29.681],[-90.89,29.719],[-90.852,29.762],[-90.866,29.789],[-90.871,29.786]]]}},{"type":"Feature","properties":{"density":1},"geometry":{"type":"Polygon","coordinates":[[[-90.833,29.73],[-90.909,29.662],[-90.925,29.616],[-90.928,29.572],[-90.896,29.531],[-90.862,29.537],[-90.82,29.58],[-90.803,29.665],[-90.806,29.706],[-90.829,29.733],[-90.833,29.73]]]}},{"type":"Feature","properties":{"density":1},"geometry":{"type":"Polygon","coordinates":[[[-92.478,30.07],[-92.512,30.079],[-92.564,30.064],[-92.589,30.044],[-92.59,29.987],[-92.547,29.968],[-92.516,29.99],[-92.475,30.066],[-92.478,30.07]]]}},{"type":"Feature","properties":{"density":1},"geometry":{"type":"Polygon","coordinates":[[[-87.686,31.229],[-87.757,31.21],[-87.939,30.963],[-87.961,30.884],[-87.949,30.819],[-87.882,30.768],[-87.722,30.743],[-87.576,30.779],[-87.535,30.813],[-87.506,30.873],[-87.514,30.932],[-87.588,31.115],[-87.675,31.231],[-87.686,31.229]]]}},{"type":"Feature","properties":{"density":1},"geometry":{"type":"Polygon","coordinates":[[[-86.363,30.886],[-86.415,30.866],[-86.428,30.813],[-86.436,30.57],[-86.392,30.484],[-86.353,30.452],[-86.276,30.447],[-86.213,30.48],[-86.184,30.58],[-86.196,30.648],[-86.259,30.795],[-86.327,30.865],[-86.363,30.886]]]}},{"type":"Feature","properties":{"density":1},"geometry":{"type":"Polygon","coordinates":[[[-85.896,32.428],[-85.822,32.369],[-85.808,32.286],[-85.822,32.193],[-85.844,32.151],[-85.908,32.104],[-85.964,32.12],[-85.98,32.146],[-85.932,32.414],[-85.924,32.429],[-85.899,32.43],[-85.896,32.428]]]}},{"type":"Feature","properties":{"density":1},"geometry":{"type":"Polygon","coordinates":[[[-91.207,33.845],[-91.222,33.909],[-91.27,33.922],[-91.294,33.91],[-91.297,33.805],[-91.281,33.782],[-91.238,33.773],[-91.216,33.784],[-91.207,33.836],[-91.207,33.845]]]}},{"type":"Feature","properties":{"density":1},"geometry":{"type":"Polygon","coordinates":[[[-89.816,37.832],[-89.895,37.937],[-89.907,37.98],[-89.913,38.121],[-89.897,38.155],[-89.869,38.163],[-89.808,38.142],[-89.768,38.102],[-89.7,37.989],[-89.69,37.931],[-89.701,37.871],[-89.748,37.825],[-89.806,37.821],[-89.816,37.832]]]}},{"type":"Feature","properties":{"density":1},"geometry":{"type":"Polygon","coordinates":[[[-126.026,54.521],[-126.133,54.518],[-126.211,54.492],[-126.333,54.408],[-126.339,54.373],[-126.262,54.357],[-126.124,54.403],[-126.012,54.478],[-126.02,54.52],[-126.026,54.521]]]}},{"type":"Feature","properties":{"density":1},"geometry":{"type":"Polygon","coordinates":[[[-126.767,54.7],[-127.056,54.674],[-127.161,54.68],[-127.188,54.691],[-127.194,54.72],[-127.186,54.751],[-127.137,54.797],[-126.996,54.814],[-126.789,54.773],[-126.752,54.738],[-126.757,54.709],[-126.767,54.7]]]}},{"type":"Feature","properties":{"density":1},"geometry":{"type":"Polygon","coordinates":[[[-127.122,55.108],[-127.308,55.16],[-127.406,55.158],[-127.498,55.06],[-127.51,54.991],[-127.476,54.947],[-127.371,54.944],[-127.285,54.984],[-127.236,55.042],[-127.119,55.059],[-127.112,55.097],[-127.122,55.108]]]}},{"type":"Feature","properties":{"density":1},"geometry":{"type":"Polygon","coordinates":[[[-120.579,38.73],[-120.598,38.782],[-120.378,39.014],[-120.296,39.011],[-120.27,38.986],[-120.23,38.901],[-120.226,38.848],[-120.244,38.801],[-120.366,38.752],[-120.548,38.719],[-120.575,38.726],[-120.579,38.73]]]}},{"type":"Feature","properties":{"density":1},"geometry":{"type":"Polygon","coordinates":[[[-121.751,39.065],[-121.574,38.934],[-121.573,38.899],[-121.621,38.907],[-121.753,39.009],[-121.779,39.05],[-121.755,39.066],[-121.751,39.065]]]}},{"type":"Feature","properties":{"density":1},"geometry":{"type":"Polygon","coordinates":[[[-121.146,39.321],[-121.157,39.359],[-121.132,39.406],[-121.01,39.519],[-120.947,39.531],[-120.917,39.514],[-120.901,39.472],[-120.942,39.41],[-120.985,39.373],[-121.112,39.317],[-121.14,39.322],[-121.146,39.321]]]}},{"type":"Feature","properties":{"density":1},"geometry":{"type":"Polygon","coordinates":[[[-91.939,30.383],[-92.004,30.36],[-92.039,30.317],[-92.055,30.257],[-92.045,30.226],[-91.993,30.233],[-91.978,30.253],[-91.936,30.326],[-91.932,30.377],[-91.939,30.383]]]}},{"type":"Feature","properties":{"density":1},"geometry":{"type":"Polygon","coordinates":[[[-92.337,19.654],[-92.224,19.817],[-92.077,19.857],[-91.852,19.784],[-91.623,19.672],[-90.92,19.202],[-90.459,18.936],[-90.315,18.79],[-90.274,18.643],[-90.281,18.507],[-90.444,18.282],[-90.492,18.145],[-90.458,17.944],[-90.379,17.783],[-90.335,17.63],[-90.229,17.371],[-90.117,17.193],[-89.973,16.777],[-89.939,16.62],[-89.953,16.347],[-90.069,16.129],[-90.24,16.043],[-90.499,16.023],[-90.792,16.05],[-91.226,16.04],[-91.468,15.985],[-91.703,15.965],[-91.993,15.917],[-92.219,15.828],[-92.713,15.839],[-92.962,15.794],[-93.102,15.682],[-93.205,15.538],[-93.392,15.166],[-93.607,14.897],[-93.808,14.743],[-93.989,14.638],[-94.146,14.624],[-94.232,14.689],[-94.279,14.771],[-94.337,15.187],[-94.433,15.491],[-94.433,15.668],[-94.354,15.845],[-94.197,16.026],[-93.993,16.173],[-93.805,16.258],[-93.566,16.419],[-93.324,16.535],[-93.179,16.696],[-93.069,16.88],[-92.928,17.341],[-92.843,17.558],[-92.858,17.625],[-92.95,17.674],[-92.975,17.721],[-92.975,17.789],[-92.814,17.969],[-92.792,18.033],[-92.816,18.112],[-93.021,18.267],[-93.207,18.317],[-93.253,18.395],[-93.172,18.477],[-92.997,18.56],[-92.82,18.715],[-92.469,18.973],[-92.298,18.997],[-92.127,18.984],[-91.916,18.933],[-91.773,18.964],[-91.743,19.031],[-91.799,19.095],[-92.171,19.202],[-92.311,19.286],[-92.364,19.394],[-92.348,19.525],[-92.337,19.654]]]}},{"type":"Feature","properties":{"density":1},"geometry":{"type":"Polygon","coordinates":[[[-91.664,32.847],[-91.78,32.861],[-91.829,32.828],[-91.872,32.779],[-91.863,32.692],[-91.801,32.658],[-91.739,32.677],[-91.637,32.814],[-91.66,32.845],[-91.664,32.847]]]}},{"type":"Feature","properties":{"density":1},"geometry":{"type":"Polygon","coordinates":[[[-91.562,33.913],[-91.649,33.911],[-91.725,33.87],[-91.743,33.803],[-91.733,33.765],[-91.673,33.745],[-91.632,33.762],[-91.567,33.841],[-91.553,33.904],[-91.562,33.913]]]}},{"type":"Feature","properties":{"density":1},"geometry":{"type":"Polygon","coordinates":[[[-95.826,34.08],[-95.692,34.572],[-95.434,35.113],[-94.826,36.713],[-94.568,37.046],[-94.109,37.222],[-93.662,37.529],[-93.126,37.737],[-92.584,38.007],[-91.813,38.249],[-91.502,38.372],[-91.144,38.437],[-90.577,38.587],[-89.998,38.435],[-89.571,38.031],[-89.37,37.687],[-88.945,37.279],[-88.803,36.996],[-88.712,36.721],[-88.637,36.413],[-88.47,36.08],[-88.448,35.535],[-88.325,34.954],[-88.181,34.441],[-87.806,34.016],[-87.465,33.749],[-87.031,33.466],[-86.682,33.191],[-86.032,32.8],[-85.549,32.433],[-85.39,32.183],[-85.099,31.85],[-84.991,31.617],[-84.974,31.392],[-85.007,31.159],[-85.324,30.617],[-85.607,30.401],[-86.073,29.793],[-86.373,29.518],[-86.856,29.218],[-87.576,29.111],[-88.557,28.898],[-89.16,28.86],[-90.205,28.834],[-91.036,28.754],[-91.911,28.701],[-92.78,28.727],[-94.778,28.701],[-95.261,28.785],[-95.611,28.876],[-95.786,29.076],[-96.036,29.468],[-95.956,29.879],[-95.815,30.258],[-95.768,30.705],[-95.601,31.338],[-95.601,32.144],[-95.653,32.856],[-95.796,33.272],[-95.87,33.799],[-95.845,33.949],[-95.826,34.08]]]}},{"type":"Feature","properties":{"density":2},"geometry":{"type":"Polygon","coordinates":[[[-120.563,38.742],[-120.529,38.794],[-120.501,38.79],[-120.509,38.765],[-120.563,38.741],[-120.563,38.742]]]}},{"type":"Feature","properties":{"density":2},"geometry":{"type":"Polygon","coordinates":[[[-89.292,36.88],[-89.325,36.879],[-89.35,36.898],[-89.341,36.928],[-89.318,36.932],[-89.28,36.911],[-89.288,36.884],[-89.292,36.88]]]}},{"type":"Feature","properties":{"density":2},"geometry":{"type":"Polygon","coordinates":[[[-90.749,36.207],[-90.731,36.243],[-90.668,36.293],[-90.635,36.3],[-90.611,36.281],[-90.604,36.191],[-90.639,36.144],[-90.684,36.137],[-90.747,36.204],[-90.749,36.207]]]}},{"type":"Feature","properties":{"density":2},"geometry":{"type":"Polygon","coordinates":[[[-91.669,32.853],[-91.735,32.827],[-91.769,32.769],[-91.763,32.755],[-91.65,32.811],[-91.665,32.852],[-91.669,32.853]]]}},{"type":"Feature","properties":{"density":2},"geometry":{"type":"Polygon","coordinates":[[[-85.897,32.421],[-85.851,32.38],[-85.835,32.343],[-85.841,32.311],[-85.872,32.312],[-85.922,32.397],[-85.928,32.414],[-85.902,32.427],[-85.897,32.421]]]}},{"type":"Feature","properties":{"density":2},"geometry":{"type":"Polygon","coordinates":[[[-127.16,55.104],[-127.293,55.115],[-127.368,55.083],[-127.379,55.027],[-127.368,55.005],[-127.328,54.997],[-127.269,55.052],[-127.124,55.07],[-127.126,55.094],[-127.16,55.104]]]}},{"type":"Feature","properties":{"density":2},"geometry":{"type":"Polygon","coordinates":[[[-121.751,39.061],[-121.703,39.021],[-121.706,39.0],[-121.77,39.035],[-121.774,39.053],[-121.755,39.061],[-121.751,39.061]]]}},{"type":"Feature","properties":{"density":2},"geometry":{"type":"Polygon","coordinates":[[[-92.069,19.821],[-91.843,19.749],[-91.587,19.642],[-91.276,19.386],[-91.152,19.305],[-91.118,19.25],[-91.105,19.054],[-91.186,18.985],[-91.323,18.951],[-91.477,18.977],[-91.613,19.088],[-91.758,19.173],[-91.89,19.275],[-92.112,19.365],[-92.206,19.489],[-92.257,19.599],[-92.257,19.685],[-92.219,19.787],[-92.146,19.83],[-92.108,19.826],[-92.069,19.821]]]}},{"type":"Feature","properties":{"density":2},"geometry":{"type":"Polygon","coordinates":[[[-85.896,32.425],[-85.768,32.327],[-85.571,32.125],[-85.541,32.076],[-85.54,31.981],[-85.555,31.931],[-85.59,31.894],[-85.718,31.892],[-85.826,31.969],[-85.852,32.025],[-85.929,32.354],[-85.931,32.429],[-85.901,32.429],[-85.896,32.425]]]}},{"type":"Feature","properties":{"density":2},"geometry":{"type":"Polygon","coordinates":[[[-91.66,32.827],[-91.679,32.846],[-91.719,32.846],[-91.814,32.809],[-91.842,32.749],[-91.814,32.697],[-91.786,32.695],[-91.712,32.737],[-91.662,32.796],[-91.659,32.823],[-91.66,32.827]]]}},{"type":"Feature","properties":{"density":3},"geometry":{"type":"Polygon","coordinates":[[[-91.68,32.834],[-91.752,32.797],[-91.772,32.77],[-91.77,32.729],[-91.715,32.744],[-91.679,32.779],[-91.662,32.807],[-91.668,32.829],[-91.68,32.834]]]}}]}