{"type":"FeatureCollection","features":[{"type":"Feature","properties":{"density":1},"geometry":{"type":"Polygon","coordinates":[[[-81.114,27.172],[-81.178,27.184],[-81.205,27.166],[-81.178,27.132],[-81.123,27.15],[-81.114,27.172]]]}},{"type":"Feature","properties":{"density":1},"geometry":{"type":"Polygon","coordinates":[[[-80.418,26.839],[-80.57,26.879],[-81.044,26.94],[-81.376,26.934],[-81.532,26.879],[-81.608,26.763],[-81.623,26.662],[-81.599,26.561],[-81.562,26.506],[-81.452,26.455],[-81.233,26.403],[-80.918,26.418],[-80.699,26.449],[-80.494,26.519],[-80.378,26.58],[-80.299,26.659],[-80.281,26.72],[-80.29,26.76],[-80.354,26.806],[-80.418,26.839]]]}},{"type":"Feature","properties":{"density":1},"geometry":{"type":"Polygon","coordinates":[[[-81.155,22.359],[-81.257,22.315],[-81.288,22.283],[-81.28,22.264],[-81.21,22.289],[-81.149,22.358],[-81.155,22.359]]]}},{"type":"Feature","properties":{"density":1},"geometry":{"type":"Polygon","coordinates":[[[-80.572,22.097],[-80.664,22.056],[-80.657,22.026],[-80.598,22.037],[-80.562,22.067],[-80.559,22.1],[-80.572,22.097]]]}},{"type":"Feature","properties":{"density":1},"geometry":{"type":"Polygon","coordinates":[[[-93.475,25.001],[-93.912,24.783],[-94.621,24.328],[-95.221,23.492],[-95.458,22.691],[-95.549,21.946],[-95.585,20.09],[-95.385,18.708],[-95.276,17.707],[-95.367,16.634],[-95.622,16.107],[-96.113,15.925],[-97.313,16.125],[-98.677,16.525],[-102.988,18.344],[-103.789,18.926],[-105.317,19.945],[-106.081,19.945],[-106.954,19.708],[-107.299,19.417],[-107.863,18.817],[-108.282,18.144],[-108.846,16.98],[-109.1,15.943],[-108.9,14.797],[-108.609,13.778],[-108.3,13.087],[-107.59,12.232],[-106.444,11.577],[-104.662,11.123],[-103.461,10.777],[-102.552,10.486],[-101.497,10.395],[-99.969,10.322],[-98.514,10.322],[-97.625,10.254],[-96.943,10.226],[-96.094,10.268],[-95.003,10.268],[-93.621,10.304],[-92.675,10.468],[-91.62,10.832],[-90.765,11.232],[-90.146,11.85],[-89.855,12.378],[-89.819,12.851],[-89.946,13.342],[-90.419,13.742],[-91.474,14.269],[-92.711,14.979],[-93.33,15.561],[-93.784,16.652],[-93.748,17.507],[-93.53,17.998],[-93.239,18.362],[-91.893,18.835],[-91.599,19.321],[-91.173,20.258],[-90.747,21.878],[-90.832,22.958],[-90.86,23.669],[-91.059,24.38],[-91.343,24.863],[-91.62,25.147],[-91.874,25.292],[-92.22,25.329],[-92.729,25.274],[-93.239,25.129],[-93.475,25.001]]]}},{"type":"Feature","properties":{"density":1},"geometry":{"type":"Polygon","coordinates":[[[-80.478,26.874],[-80.525,26.987],[-80.677,27.204],[-80.798,27.241],[-80.92,27.204],[-81.009,27.108],[-81.039,26.998],[-81.02,26.898],[-80.894,26.727],[-80.817,26.678],[-80.693,26.648],[-80.576,26.643],[-80.508,26.671],[-80.469,26.732],[-80.464,26.811],[-80.478,26.874]]]}},{"type":"Feature","properties":{"density":1},"geometry":{"type":"Polygon","coordinates":[[[-96.391,17.396],[-96.664,17.905],[-96.937,19.378],[-96.718,20.251],[-96.264,21.015],[-95.009,22.361],[-93.717,23.344],[-92.989,23.78],[-92.698,23.798],[-91.825,23.544],[-91.443,23.289],[-91.425,22.998],[-91.389,22.78],[-91.498,22.489],[-91.698,22.252],[-92.262,21.434],[-92.426,19.669],[-92.553,19.087],[-92.808,18.087],[-93.171,17.632],[-93.481,17.305],[-93.753,16.886],[-93.79,16.013],[-93.39,15.686],[-92.262,15.158],[-91.389,14.503],[-89.861,14.012],[-89.261,13.648],[-88.497,12.957],[-88.497,12.557],[-89.092,11.866],[-89.911,11.343],[-103.917,11.275],[-107.76,12.593],[-108.26,13.685],[-108.555,15.049],[-108.465,16.345],[-107.987,17.414],[-107.464,18.164],[-106.6,18.687],[-105.804,19.005],[-105.008,19.278],[-104.008,19.096],[-103.189,18.846],[-101.621,18.187],[-101.325,18.096],[-100.575,17.687],[-99.415,17.436],[-98.506,17.186],[-97.96,16.8],[-96.846,16.254],[-96.255,16.3],[-95.982,16.732],[-96.095,16.913],[-96.391,17.396]]]}},{"type":"Feature","properties":{"density":1},"geometry":{"type":"Polygon","coordinates":[[[-95.891,34.27],[-95.83,34.552],[-95.86,34.689],[-95.921,34.758],[-95.99,34.785],[-96.078,34.781],[-96.139,34.739],[-96.162,34.617],[-96.158,34.476],[-96.101,34.357],[-95.929,34.254],[-95.891,34.27]]]}},{"type":"Feature","properties":{"density":1},"geometry":{"type":"Polygon","coordinates":[[[-93.869,34.827],[-93.923,34.899],[-93.903,35.01],[-93.831,35.052],[-93.778,35.048],[-93.678,34.975],[-93.644,34.903],[-93.759,34.834],[-93.869,34.827]]]}},{"type":"Feature","properties":{"density":1},"geometry":{"type":"Polygon","coordinates":[[[-94.82,35.293],[-94.852,35.33],[-94.886,35.425],[-94.854,35.508],[-94.796,35.572],[-94.752,35.56],[-94.72,35.52],[-94.698,35.43],[-94.713,35.367],[-94.764,35.308],[-94.801,35.301],[-94.82,35.293]]]}},{"type":"Feature","properties":{"density":1},"geometry":{"type":"Polygon","coordinates":[[[-94.859,34.69],[-94.832,34.725],[-94.806,34.827],[-94.803,34.935],[-94.837,34.971],[-94.857,34.971],[-94.913,34.852],[-94.906,34.727],[-94.884,34.705],[-94.859,34.69]]]}},{"type":"Feature","properties":{"density":1},"geometry":{"type":"Polygon","coordinates":[[[-95.492,34.715],[-95.572,34.81],[-95.587,34.878],[-95.538,34.908],[-95.499,34.898],[-95.457,34.859],[-95.462,34.695],[-95.492,34.715]]]}},{"type":"Feature","properties":{"density":1},"geometry":{"type":"Polygon","coordinates":[[[-94.416,34.8],[-94.477,34.892],[-94.468,34.962],[-94.443,34.999],[-94.385,34.999],[-94.343,34.977],[-94.312,34.892],[-94.315,34.846],[-94.34,34.807],[-94.382,34.785],[-94.416,34.8]]]}},{"type":"Feature","properties":{"density":1},"geometry":{"type":"Polygon","coordinates":[[[-97.593,34.581],[-97.608,34.672],[-97.577,34.773],[-97.541,34.81],[-97.468,34.831],[-97.4,34.825],[-97.376,34.77],[-97.376,34.691],[-97.48,34.584],[-97.596,34.565],[-97.593,34.581]]]}},{"type":"Feature","properties":{"density":1},"geometry":{"type":"Polygon","coordinates":[[[-98.633,34.678],[-98.679,34.739],[-98.652,34.838],[-98.622,35.113],[-98.576,35.277],[-98.511,35.311],[-98.378,35.315],[-98.24,35.212],[-98.179,35.021],[-98.187,34.903],[-98.252,34.739],[-98.408,34.62],[-98.477,34.598],[-98.607,34.651],[-98.633,34.678]]]}},{"type":"Feature","properties":{"density":1},"geometry":{"type":"Polygon","coordinates":[[[-98.961,34.357],[-98.969,34.491],[-98.939,34.567],[-98.881,34.586],[-98.816,34.552],[-98.805,34.483],[-98.832,34.388],[-98.923,34.334],[-98.961,34.357]]]}},{"type":"Feature","properties":{"density":1},"geometry":{"type":"Polygon","coordinates":[[[-97.485,34.079],[-97.561,34.17],[-97.607,34.296],[-97.554,34.331],[-97.458,34.334],[-97.344,34.235],[-97.344,34.113],[-97.451,34.064],[-97.485,34.079]]]}},{"type":"Feature","properties":{"density":1},"geometry":{"type":"Polygon","coordinates":[[[-79.798,22.53],[-80.624,22.867],[-81.148,22.961],[-81.602,22.961],[-81.986,22.879],[-82.545,22.716],[-82.755,22.53],[-82.778,22.355],[-82.627,22.146],[-82.312,21.983],[-81.719,21.785],[-81.381,21.785],[-81.125,21.75],[-80.787,21.75],[-80.461,21.913],[-80.17,22.088],[-80.1,22.204],[-79.879,22.274],[-79.821,22.402],[-79.821,22.46],[-79.798,22.53]]]}},{"type":"Feature","properties":{"density":1},"geometry":{"type":"Polygon","coordinates":[[[-78.494,22.134],[-78.657,22.111],[-79.518,21.633],[-79.635,21.412],[-79.646,21.284],[-79.576,21.145],[-79.309,20.865],[-78.808,20.714],[-78.482,20.702],[-78.296,20.842],[-78.18,21.005],[-77.958,21.179],[-77.854,21.377],[-77.819,21.587],[-78.017,21.692],[-78.051,21.855],[-78.051,21.971],[-78.145,22.064],[-78.238,22.088],[-78.471,22.088],[-78.494,22.134]]]}},{"type":"Feature","properties":{"density":2},"geometry":{"type":"Polygon","coordinates":[[[-95.934,34.31],[-96.043,34.509],[-96.071,34.63],[-96.065,34.691],[-96.03,34.698],[-95.999,34.665],[-95.911,34.405],[-95.901,34.333],[-95.934,34.31]]]}}]}