{"type":"FeatureCollection","features":[{"type":"Feature","properties":{"density":1},"geometry":{"type":"Polygon","coordinates":[[[-119.947,46.358],[-119.965,46.513],[-120.003,46.564],[-120.097,46.59],[-120.226,46.558],[-120.337,46.476],[-120.385,46.411],[-120.366,46.35],[-120.312,46.323],[-120.255,46.236],[-120.238,46.082],[-120.191,46.018],[-120.135,45.988],[-120.02,45.958],[-119.914,45.958],[-119.798,45.98],[-119.628,46.108],[-119.624,46.193],[-119.662,46.244],[-119.713,46.261],[-119.986,46.248],[-120.007,46.278],[-119.958,46.327],[-119.947,46.358]]]}},{"type":"Feature","properties":{"density":1},"geometry":{"type":"Polygon","coordinates":[[[-120.272,47.645],[-120.338,47.642],[-120.463,47.604],[-120.622,47.593],[-120.826,47.473],[-121.088,47.407],[-121.241,47.333],[-121.266,47.279],[-121.26,47.222],[-121.195,47.181],[-121.023,47.153],[-120.968,47.096],[-120.974,47.074],[-121.015,47.052],[-121.176,47.063],[-121.274,47.025],[-121.492,46.872],[-121.51,46.808],[-121.472,46.743],[-121.318,46.712],[-121.25,46.665],[-121.189,46.569],[-121.141,46.443],[-121.056,46.324],[-120.916,46.279],[-120.779,46.286],[-120.704,46.327],[-120.663,46.44],[-120.564,46.535],[-120.523,46.689],[-120.448,46.856],[-120.445,46.992],[-120.459,47.037],[-120.554,47.18],[-120.568,47.238],[-120.517,47.31],[-120.431,47.357],[-120.264,47.347],[-120.21,47.374],[-120.196,47.419],[-120.216,47.589],[-120.254,47.634],[-120.272,47.645]]]}},{"type":"Feature","properties":{"density":1},"geometry":{"type":"Polygon","coordinates":[[[-96.555,46.429],[-97.428,44.489],[-98.301,43.52],[-98.98,42.647],[-99.562,41.968],[-101.113,39.544],[-102.18,37.701],[-102.568,36.925],[-103.053,36.246],[-104.41,34.016],[-105.087,33.158],[-105.768,32.464],[-106.351,31.67],[-106.544,31.204],[-106.641,30.234],[-106.544,29.167],[-105.865,28.295],[-104.701,27.131],[-103.441,25.967],[-102.374,25.773],[-101.598,25.579],[-101.113,25.579],[-100.434,25.288],[-100.144,24.804],[-100.047,24.125],[-100.144,23.446],[-100.628,22.961],[-101.016,22.67],[-101.501,21.603],[-101.501,20.731],[-100.919,19.955],[-99.95,19.664],[-98.786,19.373],[-97.87,19.247],[-97.012,19.533],[-96.694,20.296],[-96.969,22.508],[-97.317,23.7],[-97.019,25.338],[-96.652,26.937],[-96.168,28.198],[-95.683,28.876],[-95.295,29.652],[-95.004,30.525],[-93.064,31.883],[-91.707,32.561],[-90.446,33.046],[-88.991,33.24],[-88.119,33.531],[-87.149,33.628],[-85.985,34.016],[-85.016,34.404],[-84.337,34.792],[-82.009,36.343],[-81.234,36.634],[-77.936,37.022],[-76.288,37.119],[-74.736,37.41],[-71.245,38.574],[-68.627,39.738],[-66.978,40.61],[-65.039,41.871],[-63.681,42.55],[-61.548,43.326],[-59.802,43.907],[-58.445,44.295],[-56.99,44.489],[-55.826,44.877],[-53.887,45.168],[-52.626,46.138],[-51.463,47.205],[-50.493,48.95],[-50.493,50.308],[-51.85,52.15],[-52.238,52.538],[-53.79,53.217],[-54.954,53.508],[-56.796,53.799],[-59.22,53.799],[-62.909,53.44],[-66.632,52.845],[-68.271,52.696],[-70.058,52.497],[-74.676,52.398],[-76.165,52.547],[-77.295,52.4],[-78.459,52.38],[-79.691,52.298],[-81.031,52.298],[-83.464,51.852],[-85.251,51.752],[-86.47,51.471],[-88.313,51.18],[-89.379,50.987],[-92.483,50.696],[-93.355,50.308],[-94.81,49.338],[-95.295,48.853],[-95.974,47.689],[-96.555,46.429]]]}},{"type":"Feature","properties":{"density":1},"geometry":{"type":"Polygon","coordinates":[[[-90.067,33.197],[-89.636,33.15],[-89.568,33.15],[-89.559,33.163],[-89.559,33.184],[-89.606,33.214],[-89.973,33.321],[-90.045,33.321],[-90.109,33.287],[-90.118,33.218],[-90.109,33.201],[-90.08,33.197],[-90.067,33.197]]]}},{"type":"Feature","properties":{"density":1},"geometry":{"type":"Polygon","coordinates":[[[-91.063,35.759],[-90.93,35.783],[-90.868,35.77],[-90.814,35.667],[-90.812,35.51],[-90.836,35.506],[-90.921,35.619],[-90.993,35.645],[-91.087,35.643],[-91.13,35.674],[-91.133,35.713],[-91.087,35.75],[-91.063,35.759]]]}},{"type":"Feature","properties":{"density":1},"geometry":{"type":"Polygon","coordinates":[[[-94.156,34.34],[-94.081,34.289],[-93.883,34.214],[-93.798,34.207],[-93.788,34.231],[-93.788,34.258],[-93.815,34.295],[-94.006,34.374],[-94.122,34.476],[-94.16,34.487],[-94.208,34.483],[-94.235,34.435],[-94.208,34.384],[-94.174,34.357],[-94.156,34.34]]]}},{"type":"Feature","properties":{"density":1},"geometry":{"type":"Polygon","coordinates":[[[-95.879,39.22],[-95.715,38.922],[-95.655,38.895],[-95.636,39.004],[-95.677,39.174],[-95.718,39.234],[-95.797,39.288],[-95.86,39.285],[-95.888,39.247],[-95.879,39.22]]]}},{"type":"Feature","properties":{"density":1},"geometry":{"type":"Polygon","coordinates":[[[-120.863,47.542],[-120.759,47.551],[-120.564,47.611],[-120.353,47.63],[-120.276,47.592],[-120.238,47.552],[-120.169,47.411],[-120.164,47.391],[-120.205,47.338],[-120.273,47.328],[-120.423,47.342],[-120.536,47.322],[-120.59,47.235],[-120.541,47.1],[-120.416,47.002],[-120.361,46.931],[-120.372,46.81],[-120.432,46.725],[-120.41,46.6],[-120.417,46.572],[-120.46,46.531],[-120.51,46.515],[-120.583,46.531],[-120.861,46.651],[-121.135,46.854],[-121.162,46.86],[-121.207,46.843],[-121.323,46.741],[-121.462,46.752],[-121.511,46.806],[-121.51,46.89],[-121.327,47.071],[-121.319,47.189],[-121.417,47.304],[-121.431,47.342],[-121.403,47.434],[-121.352,47.481],[-121.197,47.543],[-120.961,47.557],[-120.897,47.542],[-120.863,47.542]]]}},{"type":"Feature","properties":{"density":1},"geometry":{"type":"Polygon","coordinates":[[[-91.917,31.687],[-92.174,31.672],[-92.216,31.702],[-92.224,31.75],[-92.174,31.78],[-91.945,31.755],[-91.889,31.731],[-91.886,31.7],[-91.901,31.691],[-91.917,31.687]]]}},{"type":"Feature","properties":{"density":1},"geometry":{"type":"Polygon","coordinates":[[[-90.102,36.057],[-90.126,36.165],[-90.113,36.218],[-90.081,36.182],[-90.046,36.036],[-90.091,36.042],[-90.102,36.057]]]}},{"type":"Feature","properties":{"density":1},"geometry":{"type":"Polygon","coordinates":[[[-91.881,34.811],[-91.966,34.909],[-91.987,34.969],[-91.975,35.012],[-91.929,35.005],[-91.888,34.971],[-91.801,34.845],[-91.781,34.789],[-91.835,34.789],[-91.881,34.811]]]}},{"type":"Feature","properties":{"density":1},"geometry":{"type":"Polygon","coordinates":[[[-120.697,47.566],[-120.982,47.532],[-121.271,47.474],[-121.295,47.454],[-121.32,47.299],[-121.291,47.104],[-121.308,47.075],[-121.541,46.937],[-121.578,46.843],[-121.573,46.786],[-121.531,46.707],[-121.452,46.671],[-121.396,46.671],[-121.1,46.757],[-120.72,46.636],[-120.686,46.639],[-120.648,46.666],[-120.568,46.918],[-120.591,47.032],[-120.66,47.121],[-120.643,47.228],[-120.622,47.264],[-120.45,47.378],[-120.423,47.436],[-120.443,47.504],[-120.484,47.563],[-120.566,47.589],[-120.689,47.569],[-120.697,47.566]]]}},{"type":"Feature","properties":{"density":1},"geometry":{"type":"Polygon","coordinates":[[[-97.59,36.93],[-97.561,37.188],[-97.467,37.439],[-97.398,37.49],[-97.31,37.496],[-97.282,37.475],[-97.274,37.427],[-97.317,37.267],[-97.517,36.93],[-97.555,36.902],[-97.577,36.903],[-97.591,36.923],[-97.59,36.93]]]}},{"type":"Feature","properties":{"density":1},"geometry":{"type":"Polygon","coordinates":[[[-91.938,31.688],[-92.156,31.654],[-92.262,31.664],[-92.308,31.707],[-92.286,31.741],[-92.258,31.749],[-92.002,31.765],[-91.907,31.739],[-91.895,31.705],[-91.923,31.691],[-91.938,31.688]]]}},{"type":"Feature","properties":{"density":1},"geometry":{"type":"Polygon","coordinates":[[[-91.92,34.355],[-92.071,34.425],[-92.099,34.449],[-92.098,34.498],[-92.043,34.507],[-91.962,34.456],[-91.898,34.39],[-91.895,34.353],[-91.915,34.352],[-91.92,34.355]]]}},{"type":"Feature","properties":{"density":1},"geometry":{"type":"Polygon","coordinates":[[[-90.114,36.061],[-90.187,36.165],[-90.204,36.221],[-90.22,36.342],[-90.21,36.386],[-90.181,36.403],[-90.136,36.399],[-90.085,36.358],[-89.964,36.19],[-89.939,36.125],[-89.929,36.046],[-89.967,35.994],[-90.042,36.0],[-90.081,36.034],[-90.114,36.061]]]}},{"type":"Feature","properties":{"density":1},"geometry":{"type":"Polygon","coordinates":[[[-91.001,34.232],[-91.15,34.224],[-91.208,34.233],[-91.224,34.249],[-91.207,34.273],[-91.075,34.275],[-91.007,34.264],[-90.998,34.237],[-91.001,34.232]]]}},{"type":"Feature","properties":{"density":1},"geometry":{"type":"Polygon","coordinates":[[[-66.236,45.736],[-66.179,45.804],[-66.041,45.907],[-65.997,45.919],[-65.942,45.875],[-65.949,45.835],[-66.03,45.768],[-66.204,45.699],[-66.241,45.703],[-66.242,45.724],[-66.236,45.736]]]}},{"type":"Feature","properties":{"density":1},"geometry":{"type":"Polygon","coordinates":[[[-121.37,46.671],[-121.536,46.636],[-121.731,46.634],[-121.792,46.684],[-121.793,46.741],[-121.573,46.981],[-121.307,47.124],[-121.267,47.197],[-121.293,47.332],[-121.289,47.43],[-121.217,47.532],[-121.096,47.595],[-120.769,47.622],[-120.303,47.686],[-120.222,47.683],[-120.186,47.656],[-120.166,47.593],[-120.18,47.543],[-120.321,47.373],[-120.463,47.018],[-120.497,46.954],[-120.551,46.902],[-120.799,46.778],[-121.065,46.713],[-121.325,46.677],[-121.37,46.671]]]}},{"type":"Feature","properties":{"density":1},"geometry":{"type":"Polygon","coordinates":[[[-122.013,39.448],[-122.003,39.274],[-122.017,39.235],[-122.038,39.212],[-122.078,39.202],[-122.188,39.223],[-122.214,39.246],[-122.221,39.285],[-122.203,39.335],[-122.127,39.426],[-122.083,39.455],[-122.046,39.474],[-122.017,39.454],[-122.013,39.448]]]}},{"type":"Feature","properties":{"density":1},"geometry":{"type":"Polygon","coordinates":[[[-122.103,39.159],[-121.95,38.687],[-121.947,38.638],[-121.991,38.571],[-122.128,38.563],[-122.169,38.579],[-122.328,38.695],[-122.349,38.729],[-122.35,38.974],[-122.322,39.138],[-122.292,39.204],[-122.276,39.218],[-122.245,39.194],[-122.216,39.079],[-122.191,39.058],[-122.155,39.155],[-122.118,39.175],[-122.103,39.159]]]}},{"type":"Feature","properties":{"density":1},"geometry":{"type":"Polygon","coordinates":[[[-110.781,34.275],[-110.799,34.346],[-110.63,34.561],[-110.475,34.705],[-110.392,34.729],[-110.358,34.715],[-110.336,34.637],[-110.422,34.522],[-110.592,34.375],[-110.772,34.265],[-110.781,34.275]]]}},{"type":"Feature","properties":{"density":1},"geometry":{"type":"Polygon","coordinates":[[[-90.143,35.605],[-90.275,35.634],[-90.471,35.703],[-90.912,35.882],[-90.996,35.945],[-91.018,35.992],[-91.006,36.044],[-90.973,36.074],[-90.912,36.054],[-90.512,35.847],[-90.213,35.722],[-90.111,35.658],[-90.127,35.613],[-90.143,35.605]]]}},{"type":"Feature","properties":{"density":1},"geometry":{"type":"Polygon","coordinates":[[[-89.853,36.274],[-90.069,36.377],[-90.159,36.447],[-90.196,36.55],[-90.173,36.605],[-90.066,36.592],[-89.776,36.355],[-89.757,36.326],[-89.753,36.277],[-89.814,36.266],[-89.853,36.274]]]}},{"type":"Feature","properties":{"density":1},"geometry":{"type":"Polygon","coordinates":[[[-90.098,35.717],[-90.395,35.817],[-90.592,35.95],[-90.712,36.077],[-90.723,36.141],[-90.583,36.131],[-90.235,35.852],[-90.061,35.76],[-90.055,35.733],[-90.087,35.723],[-90.098,35.717]]]}},{"type":"Feature","properties":{"density":1},"geometry":{"type":"Polygon","coordinates":[[[-90.998,35.436],[-91.092,35.467],[-91.363,35.631],[-91.459,35.733],[-91.559,35.951],[-91.613,36.186],[-91.611,36.356],[-91.537,36.463],[-91.408,36.436],[-91.291,36.348],[-91.151,36.117],[-91.027,35.858],[-90.902,35.676],[-90.84,35.629],[-90.807,35.571],[-90.819,35.506],[-90.856,35.473],[-90.91,35.442],[-90.971,35.434],[-90.998,35.436]]]}},{"type":"Feature","properties":{"density":1},"geometry":{"type":"Polygon","coordinates":[[[-89.917,37.035],[-89.972,37.166],[-90.021,37.398],[-90.031,37.521],[-90.015,37.787],[-89.972,37.859],[-89.919,37.875],[-89.861,37.83],[-89.806,37.752],[-89.781,37.678],[-89.767,37.197],[-89.726,37.082],[-89.714,36.994],[-89.727,36.972],[-89.795,36.97],[-89.87,36.993],[-89.913,37.026],[-89.917,37.035]]]}},{"type":"Feature","properties":{"density":1},"geometry":{"type":"Polygon","coordinates":[[[-88.173,40.885],[-88.191,40.993],[-88.073,41.601],[-87.956,42.07],[-87.837,42.214],[-87.703,42.267],[-87.645,42.247],[-87.596,42.184],[-87.582,42.119],[-87.589,41.911],[-87.627,41.742],[-87.717,41.495],[-87.804,41.367],[-87.888,41.277],[-88.091,40.909],[-88.127,40.878],[-88.171,40.882],[-88.173,40.885]]]}},{"type":"Feature","properties":{"density":1},"geometry":{"type":"Polygon","coordinates":[[[-88.324,40.388],[-88.336,40.57],[-88.298,40.73],[-88.216,40.87],[-88.167,40.873],[-88.138,40.86],[-88.126,40.795],[-88.219,40.614],[-88.269,40.395],[-88.288,40.379],[-88.318,40.382],[-88.324,40.388]]]}},{"type":"Feature","properties":{"density":1},"geometry":{"type":"Polygon","coordinates":[[[-90.427,41.102],[-90.311,41.567],[-90.074,42.163],[-89.987,42.234],[-89.904,42.269],[-89.843,42.273],[-89.777,42.216],[-89.797,42.066],[-89.851,41.946],[-90.0,41.699],[-90.225,41.255],[-90.373,41.075],[-90.403,41.055],[-90.429,41.092],[-90.427,41.102]]]}},{"type":"Feature","properties":{"density":1},"geometry":{"type":"Polygon","coordinates":[[[-92.282,33.427],[-92.417,33.478],[-92.69,33.621],[-92.862,34.022],[-92.949,34.167],[-93.07,34.55],[-93.126,34.871],[-93.167,35.137],[-93.129,35.321],[-92.981,35.459],[-92.731,35.493],[-92.386,35.566],[-92.201,35.691],[-92.125,35.91],[-92.187,36.052],[-92.327,36.234],[-92.392,36.49],[-92.321,36.698],[-92.219,36.841],[-91.915,37.014],[-91.713,37.163],[-91.554,37.438],[-91.396,37.543],[-91.264,37.587],[-91.093,37.621],[-90.912,37.633],[-90.697,37.687],[-90.461,37.829],[-90.329,37.946],[-90.27,38.048],[-90.141,38.19],[-89.986,38.241],[-89.883,38.229],[-89.811,38.164],[-89.719,38.035],[-89.623,37.32],[-89.563,37.066],[-89.544,36.875],[-89.544,36.715],[-89.731,36.177],[-89.964,35.685],[-90.036,35.567],[-90.166,35.483],[-90.448,35.376],[-90.551,35.315],[-90.635,35.216],[-90.79,34.977],[-90.834,34.613],[-90.895,34.278],[-90.972,34.056],[-91.237,33.647],[-91.347,33.58],[-91.408,33.503],[-91.506,33.461],[-91.683,33.351],[-91.762,33.323],[-91.89,33.305],[-92.072,33.315],[-92.282,33.427]]]}},{"type":"Feature","properties":{"density":1},"geometry":{"type":"Polygon","coordinates":[[[-87.627,49.837],[-87.278,50.408],[-86.987,51.036],[-86.719,51.502],[-86.23,51.898],[-85.625,52.189],[-85.031,52.305],[-84.682,52.422],[-83.983,52.538],[-83.378,52.526],[-81.178,52.759],[-80.014,52.809],[-79.195,53.014],[-77.99,52.9],[-75.716,52.377],[-74.185,52.15],[-72.148,52.063],[-70.518,51.757],[-69.47,51.321],[-68.015,50.491],[-67.418,49.793],[-67.04,49.211],[-66.938,48.73],[-66.982,48.352],[-67.127,47.886],[-67.054,47.406],[-66.793,46.955],[-66.167,46.868],[-65.352,46.649],[-64.377,45.878],[-63.955,45.325],[-63.475,44.627],[-62.674,43.346],[-62.209,42.662],[-61.758,41.454],[-61.874,40.436],[-62.121,39.941],[-62.733,39.519],[-63.678,39.284],[-64.461,39.029],[-65.006,38.72],[-66.42,38.161],[-67.188,38.01],[-68.026,37.986],[-70.087,37.754],[-71.67,37.463],[-72.287,37.416],[-73.137,37.381],[-73.579,37.288],[-74.185,37.055],[-74.906,36.846],[-76.155,36.834],[-77.756,37.052],[-79.729,37.297],[-81.708,37.283],[-83.76,36.977],[-84.647,36.817],[-85.521,36.555],[-87.107,36.206],[-88.009,35.697],[-88.867,34.998],[-90.003,33.878],[-91.133,32.331],[-92.104,31.553],[-93.01,31.094],[-93.48,30.778],[-93.737,30.396],[-93.868,29.843],[-95.074,25.382],[-95.175,23.97],[-95.132,23.17],[-94.753,22.879],[-94.302,22.821],[-93.851,22.981],[-92.745,23.65],[-92.192,24.087],[-91.101,24.829],[-90.65,24.974],[-90.301,25.192],[-90.045,25.191],[-89.896,25.098],[-89.887,24.818],[-90.166,24.073],[-90.334,23.766],[-90.539,23.543],[-91.014,22.928],[-91.284,22.472],[-91.61,22.09],[-91.842,21.55],[-92.443,21.016],[-92.653,20.249],[-92.52,19.467],[-92.291,18.723],[-92.257,18.365],[-92.257,17.669],[-92.343,17.435],[-92.42,17.326],[-92.777,17.149],[-93.035,17.073],[-93.315,17.136],[-93.643,17.255],[-93.994,17.452],[-95.118,18.383],[-96.348,19.437],[-97.208,19.988],[-98.829,20.894],[-99.342,21.591],[-99.425,22.291],[-99.037,24.079],[-99.24,26.46],[-99.679,27.93],[-100.141,29.271],[-100.369,30.236],[-100.321,31.261],[-100.164,32.028],[-99.842,32.663],[-99.317,34.684],[-99.012,35.732],[-97.845,38.323],[-96.048,40.369],[-94.32,41.551],[-92.661,42.848],[-89.564,45.444],[-88.636,47.008],[-88.145,48.009],[-87.799,49.045],[-87.69,49.737],[-87.627,49.837]]]}},{"type":"Feature","properties":{"density":2},"geometry":{"type":"Polygon","coordinates":[[[-120.367,47.597],[-120.406,47.548],[-120.578,47.573],[-120.637,47.564],[-120.7,47.515],[-120.786,47.413],[-121.025,47.357],[-121.049,47.326],[-121.048,47.281],[-121.014,47.258],[-120.943,47.252],[-120.723,47.36],[-120.586,47.336],[-120.428,47.401],[-120.306,47.368],[-120.243,47.376],[-120.226,47.401],[-120.271,47.498],[-120.258,47.596],[-120.286,47.614],[-120.353,47.608],[-120.367,47.597]]]}},{"type":"Feature","properties":{"density":2},"geometry":{"type":"Polygon","coordinates":[[[-120.865,46.965],[-120.949,46.962],[-121.078,47.022],[-121.165,47.025],[-121.345,46.91],[-121.433,46.874],[-121.465,46.814],[-121.457,46.784],[-121.43,46.757],[-121.4,46.754],[-121.312,46.798],[-121.187,46.894],[-121.143,46.896],[-121.127,46.858],[-121.138,46.713],[-121.1,46.64],[-121.045,46.588],[-120.988,46.465],[-120.919,46.454],[-120.857,46.465],[-120.829,46.487],[-120.783,46.607],[-120.758,46.634],[-120.696,46.653],[-120.597,46.656],[-120.554,46.705],[-120.559,46.754],[-120.666,46.842],[-120.687,46.894],[-120.685,46.918],[-120.578,46.984],[-120.545,47.027],[-120.534,47.071],[-120.545,47.104],[-120.614,47.188],[-120.676,47.199],[-120.734,47.18],[-120.791,47.134],[-120.807,47.025],[-120.84,46.978],[-120.865,46.965]]]}},{"type":"Feature","properties":{"density":2},"geometry":{"type":"Polygon","coordinates":[[[-120.589,47.575],[-120.919,47.494],[-120.911,47.472],[-120.828,47.452],[-120.831,47.439],[-120.87,47.413],[-121.004,47.403],[-121.058,47.38],[-121.115,47.341],[-121.119,47.28],[-121.097,47.253],[-120.945,47.236],[-120.736,47.359],[-120.67,47.349],[-120.669,47.294],[-120.639,47.284],[-120.465,47.416],[-120.431,47.464],[-120.426,47.527],[-120.479,47.558],[-120.567,47.575],[-120.589,47.575]]]}},{"type":"Feature","properties":{"density":2},"geometry":{"type":"Polygon","coordinates":[[[-121.437,46.855],[-121.372,46.876],[-121.192,47.005],[-121.102,47.039],[-120.965,46.991],[-120.879,46.991],[-120.765,47.016],[-120.74,47.011],[-120.714,46.962],[-120.754,46.866],[-120.729,46.766],[-120.762,46.732],[-120.833,46.71],[-120.949,46.735],[-121.143,46.9],[-121.243,46.887],[-121.339,46.798],[-121.398,46.765],[-121.447,46.78],[-121.467,46.825],[-121.442,46.853],[-121.437,46.855]]]}},{"type":"Feature","properties":{"density":2},"geometry":{"type":"Polygon","coordinates":[[[-121.274,46.855],[-121.429,46.783],[-121.488,46.816],[-121.493,46.837],[-121.469,46.92],[-121.416,46.985],[-121.126,47.028],[-121.008,46.987],[-120.946,46.932],[-120.904,46.865],[-120.924,46.837],[-120.972,46.827],[-121.128,46.912],[-121.257,46.868],[-121.274,46.855]]]}},{"type":"Feature","properties":{"density":2},"geometry":{"type":"Polygon","coordinates":[[[-120.702,47.481],[-120.884,47.523],[-120.944,47.523],[-121.064,47.478],[-121.114,47.442],[-121.122,47.361],[-121.041,47.279],[-120.908,47.257],[-120.828,47.261],[-120.676,47.298],[-120.491,47.404],[-120.493,47.429],[-120.52,47.449],[-120.697,47.481],[-120.702,47.481]]]}},{"type":"Feature","properties":{"density":2},"geometry":{"type":"Polygon","coordinates":[[[-91.919,31.702],[-91.985,31.704],[-92.133,31.663],[-92.206,31.691],[-92.211,31.714],[-92.206,31.729],[-92.018,31.751],[-91.923,31.738],[-91.903,31.713],[-91.915,31.701],[-91.919,31.702]]]}},{"type":"Feature","properties":{"density":2},"geometry":{"type":"Polygon","coordinates":[[[-120.615,47.485],[-120.81,47.492],[-120.943,47.462],[-121.028,47.367],[-121.044,47.311],[-121.032,47.27],[-120.938,47.25],[-120.83,47.188],[-120.717,47.25],[-120.673,47.257],[-120.543,47.234],[-120.432,47.257],[-120.425,47.333],[-120.472,47.417],[-120.509,47.459],[-120.605,47.484],[-120.615,47.485]]]}},{"type":"Feature","properties":{"density":2},"geometry":{"type":"Polygon","coordinates":[[[-121.287,46.987],[-121.404,46.976],[-121.444,46.958],[-121.652,46.821],[-121.684,46.783],[-121.687,46.753],[-121.656,46.667],[-121.592,46.672],[-121.277,46.788],[-121.207,46.937],[-121.228,46.978],[-121.266,46.987],[-121.287,46.987]]]}},{"type":"Feature","properties":{"density":2},"geometry":{"type":"Polygon","coordinates":[[[-120.371,47.577],[-120.358,47.609],[-120.311,47.629],[-120.24,47.64],[-120.213,47.627],[-120.213,47.587],[-120.268,47.542],[-120.316,47.537],[-120.369,47.571],[-120.371,47.577]]]}},{"type":"Feature","properties":{"density":2},"geometry":{"type":"Polygon","coordinates":[[[-88.171,40.915],[-88.175,40.968],[-88.122,41.269],[-88.044,41.525],[-88.023,41.556],[-87.962,41.587],[-87.915,41.579],[-87.865,41.552],[-87.847,41.521],[-87.849,41.445],[-88.103,40.919],[-88.144,40.884],[-88.167,40.905],[-88.171,40.915]]]}},{"type":"Feature","properties":{"density":2},"geometry":{"type":"Polygon","coordinates":[[[-88.317,40.433],[-88.321,40.529],[-88.298,40.667],[-88.228,40.833],[-88.203,40.854],[-88.174,40.854],[-88.142,40.822],[-88.146,40.792],[-88.235,40.606],[-88.284,40.401],[-88.296,40.393],[-88.315,40.41],[-88.317,40.433]]]}},{"type":"Feature","properties":{"density":2},"geometry":{"type":"Polygon","coordinates":[[[-93.925,17.763],[-94.191,17.935],[-94.549,18.121],[-94.881,18.363],[-95.111,18.599],[-95.387,18.733],[-95.476,18.822],[-95.551,19.038],[-95.573,19.314],[-95.573,19.709],[-95.536,20.096],[-95.416,20.61],[-95.245,21.072],[-94.902,21.43],[-94.272,21.916],[-93.642,22.263],[-92.935,22.696],[-92.026,23.307],[-91.535,23.657],[-91.065,23.941],[-90.879,23.955],[-90.797,23.903],[-90.812,23.71],[-90.931,23.516],[-91.151,23.237],[-91.353,23.02],[-91.595,22.847],[-91.892,22.58],[-92.107,22.336],[-92.351,22.014],[-92.615,21.758],[-93.263,20.923],[-93.427,20.677],[-93.833,20.202],[-93.904,19.951],[-93.936,19.602],[-93.814,19.416],[-93.662,19.24],[-93.49,19.103],[-93.28,19.007],[-93.017,18.786],[-92.678,18.546],[-92.594,18.416],[-92.506,18.271],[-92.426,18.05],[-92.38,17.836],[-92.361,17.657],[-92.414,17.516],[-92.472,17.447],[-92.624,17.329],[-92.876,17.249],[-93.143,17.211],[-93.231,17.253],[-93.595,17.493],[-93.772,17.652],[-93.925,17.763]]]}},{"type":"Feature","properties":{"density":3},"geometry":{"type":"Polygon","coordinates":[[[-121.216,46.913],[-121.146,46.954],[-121.113,46.946],[-121.078,46.799],[-121.054,46.768],[-120.987,46.762],[-120.937,46.792],[-120.917,46.829],[-120.947,46.885],[-121.075,46.996],[-121.155,47.003],[-121.225,46.975],[-121.298,46.925],[-121.323,46.871],[-121.288,46.86],[-121.223,46.904],[-121.216,46.913]]]}},{"type":"Feature","properties":{"density":3},"geometry":{"type":"Polygon","coordinates":[[[-120.643,47.507],[-120.727,47.455],[-120.731,47.431],[-120.688,47.42],[-120.662,47.433],[-120.608,47.494],[-120.611,47.515],[-120.637,47.511],[-120.643,47.507]]]}},{"type":"Feature","properties":{"density":3},"geometry":{"type":"Polygon","coordinates":[[[-120.496,47.431],[-120.554,47.459],[-120.576,47.451],[-120.586,47.426],[-120.52,47.377],[-120.498,47.383],[-120.491,47.422],[-120.496,47.431]]]}},{"type":"Feature","properties":{"density":3},"geometry":{"type":"Polygon","coordinates":[[[-121.288,46.925],[-121.174,46.993],[-121.093,46.998],[-120.951,46.883],[-120.934,46.827],[-120.963,46.814],[-120.99,46.825],[-121.067,46.914],[-121.129,46.942],[-121.182,46.933],[-121.305,46.874],[-121.298,46.915],[-121.288,46.925]]]}},{"type":"Feature","properties":{"density":3},"geometry":{"type":"Polygon","coordinates":[[[-120.532,47.437],[-120.561,47.435],[-120.578,47.413],[-120.538,47.38],[-120.502,47.401],[-120.527,47.436],[-120.532,47.437]]]}},{"type":"Feature","properties":{"density":3},"geometry":{"type":"Polygon","coordinates":[[[-120.708,47.473],[-120.758,47.453],[-120.919,47.453],[-120.995,47.434],[-121.047,47.379],[-121.037,47.309],[-120.968,47.274],[-120.883,47.286],[-120.75,47.277],[-120.72,47.285],[-120.638,47.355],[-120.503,47.408],[-120.524,47.445],[-120.656,47.443],[-120.693,47.471],[-120.708,47.473]]]}},{"type":"Feature","properties":{"density":3},"geometry":{"type":"Polygon","coordinates":[[[-120.609,47.453],[-120.739,47.451],[-120.78,47.433],[-120.851,47.372],[-120.864,47.327],[-120.847,47.297],[-120.644,47.293],[-120.505,47.351],[-120.495,47.391],[-120.549,47.438],[-120.603,47.453],[-120.609,47.453]]]}},{"type":"Feature","properties":{"density":3},"geometry":{"type":"Polygon","coordinates":[[[-121.275,46.94],[-121.393,46.87],[-121.408,46.84],[-121.399,46.825],[-121.372,46.816],[-121.263,46.889],[-121.22,46.953],[-121.236,46.961],[-121.268,46.945],[-121.275,46.94]]]}}]}