{"type":"FeatureCollection","features":[{"type":"Feature","properties":{"density":1},"geometry":{"type":"Polygon","coordinates":[[[-79.311,27.075],[-69.08,30.608],[-65.111,32.34],[-62.939,33.643],[-61.93,34.858],[-60.739,36.208],[-59.905,37.241],[-56.95,42.054],[-56.057,43.394],[-55.411,44.437],[-54.716,46.225],[-53.673,49.253],[-53.425,50.743],[-53.425,53.256],[-53.798,54.497],[-54.809,56.048],[-55.597,57.104],[-56.919,57.724],[-58.328,57.787],[-59.197,56.918],[-59.632,56.297],[-60.438,54.994],[-60.625,54.497],[-61.99,52.884],[-62.983,51.146],[-64.845,47.981],[-65.279,46.988],[-65.714,46.181],[-66.769,44.691],[-67.762,43.822],[-70.617,42.581],[-72.355,42.271],[-73.906,42.333],[-75.458,42.829],[-77.258,43.884],[-77.258,43.822],[-78.064,44.753],[-78.499,46.429],[-78.871,48.787],[-78.623,52.884],[-78.499,55.304],[-79.057,57.104],[-79.926,59.152],[-80.981,61.014],[-81.168,63.0],[-80.299,64.055],[-78.251,65.11],[-76.078,65.11],[-72.789,64.738],[-69.872,64.241],[-67.762,64.676],[-59.942,64.676],[-54.977,64.551],[-50.384,64.676],[-47.591,64.676],[-43.681,65.11],[-41.137,65.669],[-37.971,67.531],[-37.785,70.572],[-39.399,73.054],[-42.585,74.287],[-58.018,74.482],[-66.769,73.923],[-83.34,73.923],[-86.133,73.675],[-89.484,73.24],[-91.905,73.054],[-95.442,72.62],[-97.304,72.371],[-100.097,72.247],[-103.51,71.316],[-105.558,70.199],[-107.296,69.144],[-110.337,67.779],[-111.268,67.22],[-114.682,65.482],[-116.171,64.489],[-117.04,63.683],[-117.847,63.0],[-118.592,62.255],[-119.088,61.572],[-119.647,60.89],[-120.205,60.331],[-121.136,60.207],[-122.378,60.207],[-122.75,59.4],[-122.75,58.842],[-122.067,58.035],[-120.764,57.228],[-120.392,57.042],[-120.267,56.918],[-119.895,55.987],[-118.964,55.242],[-118.468,54.87],[-117.723,54.745],[-116.668,54.745],[-115.985,54.808],[-114.93,54.87],[-113.999,54.745],[-113.937,54.497],[-113.937,53.815],[-114.434,52.635],[-114.992,52.077],[-118.344,50.091],[-121.447,47.919],[-122.874,46.677],[-124.612,45.25],[-127.343,42.705],[-127.671,41.972],[-128.025,40.843],[-128.336,39.54],[-128.398,38.423],[-127.839,37.306],[-127.156,36.995],[-125.729,37.244],[-124.488,37.988],[-122.502,39.478],[-121.074,40.781],[-117.413,43.822],[-115.054,45.56],[-113.875,46.491],[-112.51,47.298],[-111.579,47.732],[-110.461,48.353],[-109.531,48.849],[-108.786,49.222],[-108.227,49.594],[-107.331,49.83],[-106.524,49.954],[-105.345,50.202],[-104.379,50.277],[-104.193,50.339],[-103.634,49.905],[-103.262,49.222],[-103.076,47.919],[-103.448,45.312],[-103.945,43.698],[-104.379,42.829],[-104.69,41.588],[-104.752,40.285],[-104.752,38.795],[-105.062,37.492],[-105.248,36.375],[-106.117,34.699],[-105.993,32.651],[-105.558,30.789],[-104.317,28.679],[-99.538,26.445],[-97.056,25.762],[-92.091,25.762],[-89.298,25.82],[-85.86,25.929],[-82.749,26.166],[-79.311,27.075]]]}},{"type":"Feature","properties":{"density":1},"geometry":{"type":"Polygon","coordinates":[[[-38.551,35.311],[-36.379,35.373],[-33.71,35.621],[-31.6,35.994],[-29.241,36.242],[-25.766,37.235],[-23.842,38.104],[-19.746,40.214],[-17.698,41.393],[-15.215,43.441],[-13.601,44.931],[-12.174,45.8],[-10.56,46.234],[-8.885,46.11],[-7.581,45.303],[-7.705,43.441],[-8.885,41.145],[-15.401,36.924],[-17.263,36.304],[-20.801,34.69],[-22.787,33.573],[-27.255,30.532],[-29.241,29.229],[-35.013,26.994],[-36.503,26.808],[-37.558,26.746],[-41.406,26.808],[-42.088,27.243],[-42.833,28.236],[-43.33,29.539],[-43.019,30.718],[-42.585,32.021],[-41.84,33.201],[-41.406,33.759],[-40.102,34.752],[-38.551,35.311]]]}},{"type":"Feature","properties":{"density":1},"geometry":{"type":"Polygon","coordinates":[[[-88.679,21.066],[-88.781,20.862],[-88.923,20.496],[-89.127,19.764],[-89.33,19.317],[-89.655,18.849],[-90.814,18.035],[-91.282,17.771],[-91.425,17.405],[-91.465,17.141],[-91.404,16.754],[-91.364,16.632],[-90.876,15.981],[-90.855,15.331],[-91.221,14.822],[-91.953,14.476],[-92.665,14.497],[-93.499,14.842],[-94.577,15.371],[-95.004,15.737],[-95.329,16.063],[-95.675,16.469],[-96.143,17.181],[-96.529,17.934],[-96.834,18.239],[-97.261,18.564],[-97.892,18.93],[-98.319,19.398],[-98.827,20.232],[-99.112,20.923],[-99.356,22.448],[-99.356,23.974],[-99.336,24.34],[-99.132,24.808],[-98.766,25.031],[-98.359,25.072],[-96.529,25.072],[-95.573,24.747],[-94.984,24.238],[-94.679,23.628],[-94.516,23.099],[-94.434,22.591],[-94.333,21.188],[-94.048,20.7],[-93.743,20.496],[-92.95,20.394],[-92.482,20.659],[-92.075,21.106],[-91.831,21.35],[-91.242,21.737],[-90.713,21.92],[-89.574,21.92],[-89.249,21.798],[-89.025,21.594],[-88.679,21.066]]]}},{"type":"Feature","properties":{"density":1},"geometry":{"type":"Polygon","coordinates":[[[-125.482,63.729],[-126.783,62.254],[-127.39,60.173],[-126.696,58.525],[-124.875,56.616],[-122.966,55.749],[-119.757,53.667],[-117.415,52.453],[-116.461,51.326],[-116.982,50.371],[-118.803,49.07],[-119.844,47.769],[-121.405,46.729],[-123.747,45.341],[-125.221,44.907],[-126.609,44.647],[-128.431,44.647],[-131.466,45.167],[-132.854,45.688],[-134.329,46.642],[-135.283,47.076],[-136.497,47.509],[-137.885,47.596],[-140.14,46.902],[-141.007,46.035],[-141.528,44.3],[-141.441,41.091],[-139.533,38.315],[-136.931,35.54],[-133.375,34.325],[-130.426,34.065],[-128.778,34.412],[-126.956,35.366],[-124.528,37.361],[-123.053,38.315],[-120.885,40.57],[-118.803,42.305],[-115.68,43.693],[-109.522,45.601],[-109.002,45.774],[-107.787,45.774],[-105.532,45.341],[-104.752,45.341],[-104.231,44.387],[-102.93,43.519],[-102.063,41.351],[-102.236,39.356],[-102.67,36.927],[-102.41,34.759],[-101.803,32.417],[-101.022,30.335],[-99.634,28.427],[-97.032,27.386],[-94.777,26.692],[-92.609,26.606],[-90.787,26.606],[-88.445,26.519],[-84.716,26.692],[-82.721,27.3],[-78.644,28.774],[-74.481,29.642],[-69.884,30.856],[-65.894,33.198],[-62.164,35.887],[-59.736,38.315],[-55.833,40.917],[-52.45,44.3],[-47.679,47.422],[-42.475,50.632],[-38.659,52.366],[-34.756,53.147],[-30.592,52.974],[-28.337,52.8],[-25.128,53.234],[-23.74,54.014],[-23.48,55.142],[-23.567,56.79],[-25.215,58.698],[-27.383,59.566],[-31.893,60.086],[-35.883,60.259],[-39.179,60.086],[-41.608,59.652],[-44.123,59.305],[-47.246,59.132],[-49.414,59.219],[-51.235,59.132],[-52.537,59.392],[-55.312,59.392],[-57.914,58.872],[-61.21,57.657],[-63.552,56.183],[-64.333,54.622],[-65.72,51.933],[-66.414,50.371],[-67.542,47.943],[-68.149,46.902],[-70.144,45.774],[-73.7,44.3],[-75.522,43.693],[-76.736,43.606],[-77.864,43.953],[-78.297,44.387],[-78.297,45.601],[-77.864,47.336],[-77.256,48.984],[-77.083,50.285],[-77.17,51.673],[-77.777,53.147],[-78.557,54.708],[-78.991,56.096],[-79.425,58.091],[-79.511,58.872],[-79.685,59.826],[-79.685,61.994],[-79.251,62.948],[-78.384,63.642],[-75.782,63.989],[-74.481,63.989],[-67.889,63.382],[-63.552,62.775],[-58.348,62.081],[-56.266,61.907],[-53.751,61.647],[-50.455,61.387],[-48.113,61.127],[-44.47,61.04],[-42.128,61.3],[-39.7,61.647],[-34.495,62.341],[-28.858,63.902],[-23.827,66.071],[-21.832,67.979],[-21.051,69.453],[-21.051,72.056],[-23.22,73.183],[-26.429,73.183],[-33.021,73.27],[-39.7,73.27],[-48.2,73.01],[-54.271,73.096],[-60.256,73.096],[-67.976,73.183],[-79.338,73.183],[-82.894,72.923],[-93.736,73.01],[-97.206,73.01],[-101.282,73.096],[-104.492,73.01],[-107.527,73.01],[-109.869,72.836],[-111.517,72.749],[-114.379,71.969],[-118.196,70.321],[-121.058,68.76],[-123.92,66.157],[-124.961,64.77],[-125.482,63.729]]]}},{"type":"Feature","properties":{"density":1},"geometry":{"type":"Polygon","coordinates":[[[-95.328,26.714],[-96.153,26.572],[-96.863,26.145],[-97.261,26.003],[-98.085,24.952],[-98.569,23.36],[-98.682,22.479],[-98.341,21.399],[-97.233,19.58],[-96.892,18.727],[-96.863,17.96],[-97.091,17.505],[-97.29,17.022],[-97.915,16.596],[-98.54,16.738],[-99.165,16.993],[-99.791,17.335],[-100.729,18.358],[-101.524,19.097],[-102.263,19.608],[-102.69,20.063],[-103.116,20.631],[-103.656,21.569],[-104.054,22.109],[-104.423,22.877],[-104.85,23.332],[-105.589,24.042],[-106.104,24.194],[-106.754,24.184],[-107.166,23.947],[-107.379,23.644],[-107.521,22.905],[-107.465,21.996],[-107.294,21.115],[-106.754,19.694],[-106.242,18.784],[-105.02,17.533],[-103.688,16.86],[-102.747,16.539],[-101.411,15.942],[-100.643,15.714],[-99.08,15.032],[-98.625,14.89],[-96.607,14.72],[-96.096,14.862],[-95.527,14.89],[-94.782,14.721],[-93.595,14.208],[-93.14,14.094],[-92.628,13.924],[-91.975,13.839],[-90.984,13.862],[-90.213,13.964],[-89.398,14.139],[-88.816,14.226],[-88.219,14.488],[-87.797,14.72],[-87.623,14.968],[-87.419,15.39],[-87.375,15.856],[-87.579,16.249],[-87.91,16.652],[-88.905,17.732],[-89.872,18.528],[-90.355,19.495],[-90.879,20.264],[-91.264,21.029],[-91.299,21.642],[-91.112,22.369],[-90.591,23.216],[-89.985,23.831],[-89.36,24.213],[-88.877,24.355],[-87.713,24.809],[-87.461,24.986],[-87.368,25.2],[-87.387,25.498],[-87.704,25.703],[-88.271,25.853],[-88.807,25.935],[-89.4,25.993],[-90.262,26.144],[-91.507,26.319],[-93.481,26.685],[-94.533,26.771],[-95.073,26.742],[-95.328,26.714]]]}},{"type":"Feature","properties":{"density":2},"geometry":{"type":"Polygon","coordinates":[[[-122.135,59.29],[-121.185,58.86],[-119.897,58.431],[-119.337,58.21],[-118.999,58.027],[-118.803,57.884],[-118.634,57.728],[-118.608,57.494],[-118.608,57.168],[-118.569,56.778],[-118.296,56.387],[-117.918,55.932],[-117.398,55.632],[-116.838,55.346],[-116.317,55.229],[-115.432,55.359],[-114.847,55.632],[-114.3,55.789],[-113.818,56.088],[-113.467,56.374],[-113.337,56.635],[-113.298,56.947],[-113.402,57.285],[-113.897,57.598],[-114.339,57.715],[-114.873,57.793],[-115.536,57.858],[-115.836,57.949],[-116.018,58.183],[-116.096,58.535],[-115.914,58.873],[-115.406,59.355],[-114.847,60.045],[-114.287,60.5],[-114.053,60.709],[-113.545,61.398],[-112.595,62.257],[-112.204,62.453],[-111.593,62.934],[-111.15,63.247],[-110.981,63.481],[-111.046,63.78],[-111.306,63.91],[-111.606,63.975],[-112.322,63.923],[-112.738,63.702],[-113.155,63.351],[-115.224,61.45],[-115.393,61.242],[-115.51,61.008],[-115.693,60.774],[-115.992,60.617],[-116.565,60.461],[-116.851,60.292],[-116.981,60.214],[-117.111,60.097],[-117.411,59.745],[-117.684,59.589],[-118.231,59.446],[-119.103,59.407],[-119.493,59.511],[-120.027,59.55],[-120.352,59.667],[-122.266,59.68],[-122.357,59.511],[-122.135,59.29]]]}},{"type":"Feature","properties":{"density":2},"geometry":{"type":"Polygon","coordinates":[[[-80.327,48.344],[-80.367,47.431],[-80.565,46.477],[-80.605,45.802],[-80.605,45.087],[-80.208,44.015],[-79.612,43.101],[-78.659,41.87],[-77.864,41.274],[-77.149,40.996],[-75.997,40.678],[-73.892,40.48],[-72.303,40.48],[-70.794,40.917],[-69.642,41.353],[-68.609,41.949],[-65.432,44.769],[-64.915,45.246],[-64.161,45.882],[-63.525,46.676],[-62.89,47.907],[-62.214,48.503],[-61.38,48.9],[-60.427,49.02],[-59.355,48.662],[-58.401,47.232],[-58.481,45.762],[-58.6,45.246],[-59.116,43.896],[-59.394,43.101],[-59.791,42.227],[-60.308,41.314],[-61.182,39.645],[-61.777,38.573],[-62.056,37.58],[-63.049,34.8],[-63.803,33.886],[-67.1,31.9],[-68.967,31.185],[-71.469,30.51],[-73.416,29.834],[-73.654,29.795],[-74.329,29.596],[-75.004,29.358],[-77.467,29.358],[-80.049,29.596],[-81.002,29.556],[-82.273,29.437],[-85.769,29.755],[-86.682,30.152],[-88.231,30.708],[-90.098,31.542],[-90.615,31.94],[-92.124,32.972],[-92.601,33.767],[-93.832,34.68],[-94.388,34.998],[-95.778,35.078],[-96.454,35.078],[-98.956,35.554],[-99.989,35.872],[-101.22,36.786],[-102.094,37.381],[-103.007,38.096],[-103.246,38.414],[-103.484,39.129],[-103.484,40.917],[-103.325,41.79],[-103.087,42.783],[-102.729,43.578],[-102.412,43.975],[-102.054,44.332],[-101.895,45.087],[-101.895,45.365],[-102.014,45.842],[-102.173,46.199],[-102.729,47.192],[-102.888,49.496],[-102.888,50.132],[-102.69,50.688],[-102.61,50.847],[-102.57,51.164],[-102.61,51.522],[-103.325,52.555],[-103.643,52.753],[-104.159,52.952],[-104.676,52.992],[-105.351,53.111],[-105.867,53.349],[-106.066,53.389],[-106.9,54.7],[-106.503,56.209],[-105.47,57.679],[-104.04,59.029],[-102.968,59.704],[-99.433,61.214],[-97.566,61.651],[-95.977,61.889],[-92.164,62.008],[-88.072,62.008],[-86.643,61.69],[-85.451,61.293],[-84.498,60.936],[-83.942,60.697],[-82.909,59.982],[-81.995,59.267],[-81.241,58.711],[-79.731,57.043],[-79.612,56.408],[-79.493,55.573],[-79.493,52.992],[-79.771,51.045],[-80.128,49.02],[-80.327,48.344]]]}},{"type":"Feature","properties":{"density":2},"geometry":{"type":"Polygon","coordinates":[[[-87.224,52.862],[-87.278,52.682],[-87.278,52.609],[-87.258,52.522],[-87.191,52.462],[-87.144,52.456],[-87.111,52.476],[-87.111,52.642],[-87.158,52.795],[-87.164,52.875],[-87.224,52.862]]]}},{"type":"Feature","properties":{"density":2},"geometry":{"type":"Polygon","coordinates":[[[-41.865,59.319],[-43.669,59.527],[-45.959,59.458],[-47.902,59.319],[-50.469,58.487],[-52.551,57.723],[-54.008,56.335],[-55.674,55.225],[-57.339,53.421],[-59.004,50.507],[-60.114,48.911],[-62.613,46.482],[-64.972,45.164],[-67.053,44.401],[-69.343,43.845],[-73.715,42.25],[-76.282,41.764],[-77.184,41.486],[-78.641,41.486],[-79.613,42.111],[-79.96,42.735],[-80.237,43.984],[-79.96,45.65],[-79.058,47.176],[-78.294,48.633],[-78.294,50.229],[-78.503,51.409],[-78.641,53.144],[-79.196,55.364],[-79.543,56.266],[-80.376,57.931],[-80.931,59.389],[-81.903,61.817],[-82.458,63.066],[-82.458,63.829],[-82.388,64.593],[-81.972,65.078],[-81.278,65.356],[-80.029,65.356],[-78.78,65.217],[-77.462,65.148],[-74.617,64.801],[-72.466,64.454],[-68.996,64.038],[-66.36,64.038],[-63.445,64.176],[-61.433,63.691],[-59.143,63.274],[-55.882,62.789],[-53.592,62.234],[-51.649,62.095],[-48.249,61.609],[-44.433,61.262],[-41.379,61.47],[-38.257,62.719],[-36.037,63.829],[-32.914,65.703],[-30.763,66.466],[-29.375,67.368],[-28.681,68.687],[-28.889,70.075],[-30.069,71.601],[-32.29,71.809],[-36.106,71.948],[-40.755,71.74],[-47.208,71.879],[-51.371,71.67],[-58.657,71.67],[-66.151,71.809],[-70.662,71.601],[-78.294,71.532],[-84.054,71.67],[-88.286,71.532],[-93.629,71.74],[-98.695,71.879],[-104.246,71.324],[-108.617,69.866],[-111.185,68.062],[-112.919,65.634],[-113.96,64.454],[-114.585,63.621],[-115.209,62.65],[-115.903,62.025],[-116.389,61.054],[-116.875,60.915],[-118.332,61.123],[-119.858,61.54],[-121.385,61.401],[-122.634,61.054],[-124.438,59.944],[-124.785,58.348],[-123.397,56.405],[-120.483,55.156],[-116.458,53.213],[-112.989,52.311],[-111.601,52.033],[-109.658,51.895],[-108.132,52.242],[-105.981,52.797],[-104.038,52.866],[-102.234,52.727],[-101.262,51.686],[-100.776,50.784],[-101.054,49.397],[-100.985,47.801],[-100.776,46.413],[-100.291,45.58],[-100.152,44.748],[-100.568,43.568],[-101.054,42.805],[-101.401,41.903],[-100.846,39.682],[-99.25,38.572],[-93.352,36.074],[-91.617,35.311],[-90.16,34.27],[-88.372,32.47],[-86.985,31.471],[-85.233,30.87],[-84.154,30.305],[-82.527,29.76],[-81.07,28.996],[-79.682,28.719],[-77.392,28.58],[-75.866,29.066],[-74.131,29.968],[-72.743,30.523],[-70.037,31.98],[-67.955,33.229],[-65.804,34.617],[-64.347,36.49],[-63.376,38.572],[-61.849,40.931],[-59.698,42.874],[-57.2,44.678],[-54.425,46.066],[-50.4,48.495],[-48.388,50.09],[-46.792,50.923],[-44.155,52.242],[-41.518,53.768],[-38.396,54.948],[-37.077,55.989],[-36.661,56.891],[-36.661,57.446],[-37.494,58.209],[-39.228,58.903],[-40.616,59.111],[-41.865,59.319]]]}},{"type":"Feature","properties":{"density":2},"geometry":{"type":"Polygon","coordinates":[[[-94.755,30.331],[-94.09,30.305],[-92.147,30.083],[-90.315,29.972],[-88.372,29.75],[-86.969,29.622],[-85.486,29.528],[-84.204,28.949],[-83.099,28.196],[-82.599,27.308],[-82.567,26.602],[-82.713,26.457],[-83.277,26.239],[-84.376,26.253],[-85.375,26.309],[-87.984,26.198],[-89.594,26.42],[-91.037,26.642],[-91.925,26.864],[-92.808,27.112],[-93.591,27.252],[-94.736,27.548],[-95.482,27.767],[-95.901,27.821],[-96.101,27.985],[-96.319,28.24],[-96.374,28.767],[-96.319,29.076],[-96.028,29.513],[-95.828,29.858],[-95.591,30.059],[-95.209,30.259],[-94.755,30.331]]]}},{"type":"Feature","properties":{"density":2},"geometry":{"type":"Polygon","coordinates":[[[-96.806,25.662],[-97.29,25.122],[-97.602,24.554],[-98.057,23.388],[-98.228,22.308],[-98.085,20.944],[-97.574,19.551],[-97.005,18.699],[-96.352,17.789],[-95.954,17.107],[-95.726,16.51],[-95.442,16.311],[-94.845,15.97],[-94.476,15.8],[-93.453,15.544],[-92.742,15.459],[-92.032,15.714],[-91.435,16.539],[-91.378,17.107],[-91.15,17.732],[-91.008,18.301],[-90.98,19.239],[-91.634,19.807],[-91.918,20.319],[-92.145,20.973],[-92.231,21.541],[-92.401,22.422],[-92.543,23.559],[-92.572,24.269],[-92.344,24.838],[-92.145,25.264],[-91.975,25.492],[-91.861,25.747],[-91.946,26.231],[-92.458,26.429],[-93.282,26.572],[-94.646,26.344],[-95.186,26.231],[-95.954,26.032],[-96.437,25.804],[-96.806,25.662]]]}},{"type":"Feature","properties":{"density":3},"geometry":{"type":"Polygon","coordinates":[[[-100.294,59.444],[-99.34,59.444],[-98.625,59.245],[-98.189,59.206],[-97.553,59.007],[-96.401,58.371],[-95.924,57.935],[-94.614,56.902],[-93.74,55.591],[-93.303,54.757],[-92.906,54.201],[-92.548,53.605],[-92.35,53.128],[-92.032,52.533],[-91.714,51.698],[-91.357,50.904],[-91.158,50.348],[-90.959,49.911],[-90.92,49.633],[-90.8,49.315],[-90.562,48.481],[-89.927,47.051],[-89.768,46.495],[-89.649,45.979],[-89.529,45.581],[-89.251,44.787],[-89.053,44.032],[-88.735,43.0],[-88.457,42.404],[-87.98,41.57],[-87.464,40.815],[-87.027,40.338],[-86.511,40.1],[-86.074,40.06],[-85.12,39.782],[-84.405,39.901],[-84.167,40.179],[-84.048,40.378],[-83.889,41.133],[-83.81,42.007],[-83.81,43.635],[-83.77,44.35],[-83.611,45.343],[-83.293,46.972],[-83.214,47.726],[-83.095,48.64],[-83.015,49.712],[-82.618,50.904],[-82.459,51.738],[-82.3,52.771],[-82.102,53.645],[-82.062,54.36],[-81.983,54.956],[-81.824,55.432],[-81.546,55.869],[-81.109,55.988],[-80.87,55.829],[-80.275,54.638],[-80.076,54.201],[-80.036,53.406],[-80.036,52.215],[-80.165,50.833],[-80.409,50.183],[-80.672,49.275],[-80.95,48.64],[-81.148,48.044],[-81.347,47.17],[-81.387,46.098],[-81.387,43.079],[-81.188,42.245],[-80.791,41.729],[-79.877,40.934],[-79.44,40.458],[-79.123,40.179],[-78.646,39.901],[-77.057,39.584],[-74.952,39.385],[-72.608,39.385],[-70.861,39.941],[-70.106,40.418],[-69.55,40.736],[-67.206,41.927],[-65.737,43.278],[-65.34,43.953],[-64.982,44.39],[-64.505,44.906],[-63.949,45.184],[-63.632,45.264],[-63.354,45.065],[-63.195,44.271],[-63.195,43.595],[-63.354,42.602],[-63.512,42.205],[-63.751,41.689],[-63.949,41.411],[-64.466,40.616],[-64.704,40.06],[-64.704,39.266],[-64.347,38.63],[-63.632,37.478],[-63.552,37.121],[-63.512,36.366],[-63.711,35.612],[-63.989,35.135],[-64.545,34.579],[-65.26,33.943],[-66.77,33.069],[-67.206,32.712],[-67.683,32.434],[-68.636,31.997],[-69.232,31.679],[-69.947,31.52],[-70.861,31.242],[-71.337,31.123],[-72.33,30.766],[-72.807,30.488],[-73.76,30.289],[-74.714,30.17],[-76.183,30.13],[-76.779,30.13],[-77.772,30.17],[-78.924,30.289],[-80.116,30.488],[-82.976,30.329],[-83.929,30.448],[-84.723,30.567],[-85.557,30.647],[-86.511,31.004],[-87.543,31.481],[-87.941,31.918],[-88.576,32.752],[-89.251,33.745],[-89.927,35.016],[-90.324,36.009],[-90.522,36.406],[-91.079,37.042],[-92.072,37.598],[-92.667,38.035],[-93.263,38.352],[-93.978,38.829],[-94.812,39.345],[-96.044,39.981],[-96.719,40.299],[-97.632,40.934],[-98.069,41.093],[-98.745,41.212],[-99.42,41.411],[-99.857,41.49],[-100.413,41.729],[-100.691,41.887],[-101.009,42.165],[-101.168,42.444],[-101.247,42.722],[-101.247,43.079],[-100.969,43.754],[-100.254,44.607],[-100.025,44.836],[-99.898,45.243],[-99.873,45.573],[-100.508,45.98],[-101.093,46.463],[-101.678,47.327],[-101.779,47.556],[-101.856,48.014],[-101.957,48.395],[-101.957,48.878],[-101.779,49.615],[-101.5,50.327],[-101.322,50.581],[-101.195,50.886],[-101.042,51.09],[-100.991,51.547],[-101.144,52.234],[-101.703,53.276],[-101.932,53.632],[-102.135,53.861],[-102.415,54.369],[-102.491,54.801],[-102.593,55.233],[-102.339,55.971],[-102.033,56.276],[-101.881,56.377],[-101.703,56.886],[-101.703,57.293],[-101.627,57.648],[-101.322,58.614],[-101.067,58.996],[-100.61,59.326],[-100.294,59.444]]]}},{"type":"Feature","properties":{"density":3},"geometry":{"type":"Polygon","coordinates":[[[-122.856,60.025],[-122.927,59.457],[-122.714,58.675],[-121.897,57.325],[-120.405,56.295],[-118.166,55.087],[-115.644,54.518],[-113.548,53.701],[-111.843,52.529],[-110.208,52.032],[-108.112,52.742],[-107.295,53.239],[-106.265,53.382],[-105.377,53.346],[-102.783,53.062],[-100.403,52.991],[-99.621,52.635],[-99.373,51.96],[-98.946,51.499],[-98.84,50.788],[-99.159,50.468],[-100.225,49.58],[-100.403,48.799],[-100.119,48.052],[-99.337,47.484],[-98.484,46.667],[-97.632,45.672],[-97.632,45.388],[-97.596,44.926],[-97.951,44.571],[-98.662,44.109],[-99.159,43.612],[-99.905,43.256],[-100.19,42.901],[-100.012,42.297],[-99.444,42.013],[-98.946,42.226],[-98.484,42.617],[-97.809,42.652],[-97.383,42.333],[-97.099,41.906],[-96.886,41.231],[-96.708,40.308],[-96.104,39.313],[-95.18,37.927],[-94.079,36.79],[-92.374,36.151],[-90.882,35.298],[-89.958,34.801],[-89.176,33.877],[-88.679,33.344],[-87.542,32.456],[-86.618,31.781],[-85.41,31.319],[-84.735,30.822],[-83.847,30.467],[-81.68,29.401],[-80.223,28.854],[-79.335,28.854],[-78.589,29.045],[-77.985,29.259],[-77.168,29.898],[-76.493,30.289],[-75.64,30.68],[-73.509,31.568],[-72.123,32.243],[-70.809,32.74],[-69.53,33.131],[-68.455,33.206],[-68.011,33.384],[-67.54,33.806],[-66.51,34.978],[-65.409,37.359],[-65.089,38.531],[-64.698,40.236],[-64.236,40.876],[-63.561,41.515],[-62.566,42.368],[-60.151,43.612],[-57.628,45.281],[-55.532,46.573],[-54.822,47.55],[-54.537,48.23],[-54.289,49.509],[-53.933,50.659],[-53.756,51.356],[-53.862,52.28],[-54.182,53.133],[-54.893,53.701],[-55.816,53.985],[-56.74,53.595],[-57.912,52.174],[-58.694,50.753],[-59.191,49.758],[-59.831,48.976],[-60.648,48.195],[-61.962,46.773],[-63.277,45.637],[-65.799,43.931],[-66.545,43.327],[-67.824,42.688],[-69.317,42.048],[-70.382,41.373],[-72.052,40.978],[-73.518,40.933],[-74.761,40.711],[-75.916,40.578],[-76.982,40.578],[-78.358,40.756],[-79.468,41.289],[-80.179,41.822],[-80.712,43.154],[-80.712,45.019],[-80.401,46.218],[-79.779,47.772],[-79.424,49.327],[-79.335,50.659],[-79.291,51.858],[-79.424,53.146],[-79.691,54.523],[-80.268,56.077],[-80.801,57.365],[-81.378,57.942],[-81.645,57.764],[-81.955,57.276],[-81.822,55.633],[-81.067,52.347],[-80.978,51.103],[-81.112,48.439],[-81.378,47.106],[-81.645,45.152],[-81.867,42.976],[-81.6,41.6],[-81.467,40.267],[-81.422,39.601],[-81.822,38.891],[-82.311,38.225],[-83.021,38.091],[-83.465,37.958],[-84.798,38.136],[-86.752,38.757],[-88.039,39.468],[-88.972,40.356],[-89.372,41.466],[-89.905,42.577],[-89.949,43.42],[-89.771,45.73],[-89.949,48.083],[-89.727,48.305],[-89.15,48.35],[-88.839,47.506],[-88.128,46.573],[-87.462,45.818],[-86.885,45.419],[-85.819,45.241],[-84.664,45.774],[-84.442,46.351],[-84.22,47.24],[-84.131,48.217],[-83.954,48.705],[-83.376,49.771],[-82.844,50.393],[-82.488,51.37],[-82.932,52.569],[-83.376,54.611],[-83.465,55.366],[-83.954,56.299],[-85.064,57.809],[-86.219,59.052],[-87.062,59.718],[-88.039,60.074],[-88.883,60.562],[-89.683,61.095],[-90.304,61.45],[-91.192,62.072],[-93.102,62.916],[-93.99,63.182],[-96.477,63.715],[-97.943,64.159],[-99.808,64.381],[-101.14,64.603],[-103.138,64.781],[-104.382,65.003],[-106.291,65.225],[-109.4,65.092],[-111.621,64.737],[-112.686,64.293],[-113.885,63.671],[-114.729,63.049],[-115.351,61.806],[-115.04,60.962],[-115.084,60.385],[-115.306,60.34],[-115.617,60.207],[-116.283,60.163],[-117.26,60.473],[-119.081,60.562],[-119.57,60.74],[-120.28,60.829],[-121.435,60.829],[-121.968,60.695],[-122.456,60.607],[-122.767,60.385],[-122.856,60.025]]]}}]}