{"type":"FeatureCollection","features":[{"type":"Feature","properties":{"density":1},"geometry":{"type":"Polygon","coordinates":[[[-84.286,29.518],[-86.623,27.959],[-87.403,27.18],[-88.571,26.206],[-88.961,25.524],[-89.643,24.258],[-90.13,23.089],[-90.714,21.531],[-91.104,20.362],[-91.688,19.29],[-92.468,18.608],[-92.857,18.121],[-93.052,17.05],[-93.052,16.368],[-92.175,15.784],[-91.396,15.492],[-89.545,14.712],[-88.571,14.031],[-87.305,13.349],[-86.623,12.18],[-86.331,11.206],[-86.331,10.621],[-86.916,10.037],[-88.377,9.647],[-90.581,9.185],[-91.883,9.258],[-93.831,9.258],[-95.195,9.16],[-96.851,8.576],[-97.825,8.576],[-99.383,8.868],[-103.571,8.868],[-104.253,8.966],[-107.138,9.235],[-108.534,9.385],[-109.432,10.283],[-109.133,11.579],[-108.149,12.667],[-106.104,14.031],[-104.838,14.712],[-104.058,15.005],[-103.279,15.394],[-101.429,15.589],[-100.065,15.881],[-99.286,15.979],[-98.312,16.66],[-97.922,16.855],[-97.338,17.342],[-96.948,17.829],[-96.851,18.511],[-96.948,18.998],[-97.922,19.875],[-98.312,20.264],[-98.701,20.751],[-99.188,22.115],[-99.091,23.284],[-98.214,24.94],[-97.143,27.18],[-96.461,27.959],[-95.584,28.446],[-94.903,28.738],[-94.026,29.225],[-93.052,29.81],[-92.273,30.005],[-91.299,30.297],[-90.714,30.297],[-89.935,30.492],[-88.961,30.686],[-84.675,30.686],[-84.286,30.297],[-84.048,30.031],[-84.286,29.518]]]}},{"type":"Feature","properties":{"density":1},"geometry":{"type":"Polygon","coordinates":[[[-108.458,30.192],[-108.432,30.253],[-108.338,30.307],[-108.159,30.363],[-108.109,30.367],[-108.074,30.332],[-108.088,30.236],[-108.155,30.194],[-108.402,30.153],[-108.459,30.178],[-108.458,30.192]]]}},{"type":"Feature","properties":{"density":1},"geometry":{"type":"Polygon","coordinates":[[[-86.793,32.155],[-86.738,32.281],[-86.709,32.396],[-86.671,32.412],[-86.671,32.274],[-86.698,32.233],[-86.786,32.154],[-86.784,32.164],[-86.793,32.155]]]}},{"type":"Feature","properties":{"density":1},"geometry":{"type":"Polygon","coordinates":[[[-84.673,32.32],[-84.677,32.697],[-84.65,32.802],[-84.6,32.826],[-84.554,32.788],[-84.547,32.669],[-84.629,32.351],[-84.654,32.304],[-84.673,32.32]]]}},{"type":"Feature","properties":{"density":1},"geometry":{"type":"Polygon","coordinates":[[[-84.549,33.176],[-84.555,33.274],[-84.539,33.386],[-84.492,33.487],[-84.452,33.491],[-84.446,33.398],[-84.488,33.239],[-84.528,33.178],[-84.549,33.176]]]}},{"type":"Feature","properties":{"density":1},"geometry":{"type":"Polygon","coordinates":[[[-81.574,31.929],[-81.582,32.076],[-81.568,32.228],[-81.542,32.282],[-81.519,32.296],[-81.485,32.287],[-81.458,32.252],[-81.46,32.135],[-81.504,31.997],[-81.551,31.929],[-81.574,31.929]]]}},{"type":"Feature","properties":{"density":1},"geometry":{"type":"Polygon","coordinates":[[[-105.468,20.306],[-105.4,20.302],[-105.377,20.285],[-105.368,20.248],[-105.387,20.242],[-105.454,20.274],[-105.468,20.306]]]}},{"type":"Feature","properties":{"density":1},"geometry":{"type":"Polygon","coordinates":[[[-82.718,35.074],[-82.573,35.356],[-82.257,35.752],[-82.039,35.859],[-81.967,35.85],[-81.946,35.812],[-81.975,35.756],[-82.201,35.569],[-82.385,35.33],[-82.598,35.117],[-82.671,35.07],[-82.718,35.074]]]}},{"type":"Feature","properties":{"density":1},"geometry":{"type":"Polygon","coordinates":[[[-82.341,35.308],[-82.221,35.486],[-82.008,35.671],[-81.869,35.726],[-81.724,35.764],[-81.642,35.767],[-81.656,35.72],[-81.754,35.627],[-81.749,35.584],[-81.719,35.537],[-81.751,35.51],[-82.112,35.409],[-82.191,35.365],[-82.256,35.3],[-82.292,35.305],[-82.341,35.308]]]}},{"type":"Feature","properties":{"density":1},"geometry":{"type":"Polygon","coordinates":[[[-84.028,36.688],[-83.975,36.911],[-83.946,36.966],[-83.913,36.99],[-83.878,36.981],[-83.883,36.89],[-83.984,36.698],[-84.003,36.688],[-84.028,36.688]]]}},{"type":"Feature","properties":{"density":1},"geometry":{"type":"Polygon","coordinates":[[[-107.393,27.344],[-106.866,27.599],[-106.687,27.61],[-106.633,27.557],[-106.687,27.503],[-107.073,27.39],[-107.16,27.37],[-107.28,27.37],[-107.393,27.344]]]}},{"type":"Feature","properties":{"density":1},"geometry":{"type":"Polygon","coordinates":[[[-107.159,27.418],[-106.999,27.527],[-106.702,27.663],[-106.538,27.708],[-106.49,27.684],[-106.501,27.643],[-106.548,27.595],[-106.668,27.537],[-107.057,27.39],[-107.135,27.397],[-107.159,27.418]]]}},{"type":"Feature","properties":{"density":1},"geometry":{"type":"Polygon","coordinates":[[[-107.609,28.214],[-107.577,28.321],[-107.524,28.347],[-107.481,28.321],[-107.502,28.214],[-107.55,28.161],[-107.588,28.161],[-107.609,28.214]]]}},{"type":"Feature","properties":{"density":1},"geometry":{"type":"Polygon","coordinates":[[[-102.568,18.436],[-102.527,18.47],[-102.411,18.484],[-102.329,18.548],[-102.254,18.545],[-102.22,18.49],[-102.24,18.46],[-102.329,18.398],[-102.353,18.361],[-102.37,18.279],[-102.408,18.235],[-102.548,18.357],[-102.565,18.422],[-102.568,18.436]]]}},{"type":"Feature","properties":{"density":1},"geometry":{"type":"Polygon","coordinates":[[[-102.543,20.463],[-102.526,20.513],[-102.501,20.531],[-102.477,20.52],[-102.493,20.475],[-102.541,20.459],[-102.543,20.463]]]}},{"type":"Feature","properties":{"density":1},"geometry":{"type":"Polygon","coordinates":[[[-113.425,9.598],[-115.312,9.995],[-116.305,10.938],[-116.504,11.782],[-115.66,13.173],[-114.518,14.364],[-112.681,15.208],[-110.645,15.754],[-108.708,16.4],[-107.12,16.847],[-105.58,17.194],[-104.538,17.343],[-103.148,17.343],[-102.055,17.542],[-100.814,17.74],[-99.027,18.336],[-97.885,19.23],[-97.338,20.273],[-97.19,20.72],[-97.19,21.514],[-97.289,22.11],[-97.537,23.351],[-97.537,23.996],[-97.388,24.94],[-97.09,25.734],[-96.991,26.578],[-97.041,27.075],[-96.693,27.869],[-95.899,28.415],[-94.806,28.962],[-93.615,29.309],[-92.572,29.508],[-91.43,29.458],[-90.685,29.16],[-89.742,29.259],[-88.352,29.657],[-87.657,28.912],[-87.657,28.266],[-87.557,27.323],[-87.806,26.429],[-88.451,25.387],[-89.345,24.195],[-89.941,23.45],[-90.338,22.706],[-90.586,21.911],[-90.636,20.571],[-90.834,19.925],[-91.082,19.23],[-91.43,18.088],[-91.778,16.747],[-91.927,15.407],[-90.983,15.208],[-90.338,14.91],[-89.196,14.414],[-87.309,13.371],[-86.515,11.633],[-87.557,9.796],[-88.352,9.35],[-89.692,9.002],[-92.423,8.903],[-96.991,9.101],[-105.878,8.952],[-112.432,9.449],[-113.425,9.598]]]}}]}