{"type":"FeatureCollection","features":[{"type":"Feature","properties":{"density":1},"geometry":{"type":"Polygon","coordinates":[[[-93.091,16.289],[-92.954,15.606],[-92.134,14.717],[-91.929,14.546],[-91.723,14.478],[-91.518,14.375],[-91.279,13.965],[-91.177,13.624],[-91.279,13.008],[-91.587,12.257],[-91.86,11.778],[-92.612,11.095],[-93.193,10.787],[-94.218,9.864],[-94.97,9.659],[-95.483,9.488],[-96.201,9.488],[-97.26,9.42],[-98.354,9.386],[-100.814,9.454],[-101.43,9.454],[-102.284,9.488],[-103.07,9.557],[-103.754,9.693],[-104.779,10.035],[-104.916,10.24],[-104.881,10.514],[-104.813,10.787],[-104.574,11.197],[-104.574,11.539],[-104.403,11.983],[-103.856,12.769],[-103.583,13.111],[-103.309,13.384],[-102.626,13.829],[-102.421,14.512],[-102.797,14.956],[-103.309,15.093],[-104.027,15.23],[-104.813,15.298],[-105.633,15.196],[-106.249,15.196],[-106.454,15.332],[-107.137,16.016],[-107.376,16.529],[-107.581,17.383],[-107.718,18.545],[-107.752,19.331],[-107.65,20.083],[-107.445,20.459],[-107.137,20.835],[-106.727,20.972],[-106.18,21.04],[-105.77,21.04],[-105.497,20.801],[-104.984,20.459],[-104.574,20.117],[-104.369,19.912],[-103.754,19.502],[-103.446,19.229],[-102.933,18.887],[-102.763,18.818],[-102.079,18.443],[-101.19,17.93],[-100.678,17.725],[-100.336,17.622],[-99.994,17.383],[-99.755,17.178],[-99.345,16.973],[-98.935,16.734],[-98.456,16.494],[-98.114,16.392],[-97.158,16.221],[-96.577,16.221],[-96.303,16.392],[-95.961,16.836],[-95.756,17.246],[-95.654,17.588],[-95.825,17.998],[-96.235,18.306],[-96.508,18.784],[-96.542,19.194],[-96.44,19.673],[-96.098,19.912],[-95.073,19.912],[-94.218,19.468],[-93.808,19.092],[-93.637,18.818],[-93.501,18.545],[-93.466,18.203],[-93.296,17.451],[-93.091,16.289]]]}},{"type":"Feature","properties":{"density":1},"geometry":{"type":"Polygon","coordinates":[[[-81.205,27.73],[-81.296,27.845],[-81.374,27.904],[-81.493,27.931],[-81.562,27.986],[-81.724,28.005],[-81.811,27.93],[-81.743,27.803],[-81.654,27.709],[-81.531,27.672],[-81.392,27.677],[-81.309,27.645],[-81.242,27.645],[-81.181,27.72],[-81.205,27.73]]]}},{"type":"Feature","properties":{"density":1},"geometry":{"type":"Polygon","coordinates":[[[-122.404,39.278],[-123.0,39.496],[-123.557,39.655],[-124.014,39.536],[-124.053,39.119],[-124.033,38.96],[-124.232,38.86],[-124.49,39.059],[-124.59,39.298],[-125.001,39.647],[-125.357,39.749],[-125.822,39.524],[-126.213,39.173],[-126.434,38.899],[-126.408,38.691],[-126.186,38.502],[-126.108,38.137],[-126.265,37.929],[-126.297,37.662],[-126.134,36.9],[-125.666,36.164],[-125.057,35.32],[-124.223,34.758],[-123.588,34.502],[-123.312,34.539],[-123.696,35.045],[-124.317,36.518],[-124.192,36.737],[-123.905,36.857],[-123.603,37.039],[-123.477,37.251],[-123.417,37.489],[-123.219,37.609],[-123.02,37.688],[-122.742,37.708],[-122.543,37.887],[-122.424,37.946],[-121.907,37.927],[-121.609,37.787],[-121.008,37.6],[-120.385,37.485],[-119.99,37.701],[-120.028,38.019],[-120.563,38.795],[-120.893,39.393],[-121.43,40.053],[-122.254,40.334],[-122.47,40.118],[-122.432,39.787],[-122.205,39.476],[-122.205,39.298],[-122.404,39.278]]]}},{"type":"Feature","properties":{"density":1},"geometry":{"type":"Polygon","coordinates":[[[-120.781,39.62],[-121.008,39.728],[-121.259,39.816],[-121.405,40.01],[-121.522,40.283],[-121.911,40.594],[-122.317,40.671],[-122.583,40.448],[-122.612,39.981],[-122.505,39.465],[-122.535,39.386],[-122.628,39.324],[-122.901,39.34],[-123.119,39.386],[-123.351,39.465],[-123.546,39.572],[-123.692,39.611],[-123.819,39.611],[-124.033,39.543],[-124.354,39.504],[-124.626,39.494],[-124.909,39.563],[-125.308,39.582],[-125.765,39.446],[-126.281,39.183],[-126.612,38.881],[-126.631,38.55],[-126.524,38.317],[-126.485,38.074],[-126.495,37.558],[-126.388,37.256],[-125.872,36.789],[-125.609,36.195],[-125.298,35.747],[-125.016,35.446],[-124.5,35.018],[-123.984,34.56],[-123.692,34.424],[-123.381,34.317],[-123.205,34.317],[-123.128,34.395],[-123.166,34.502],[-123.283,34.687],[-123.721,35.134],[-124.149,35.835],[-124.149,35.884],[-123.974,35.903],[-123.663,36.039],[-123.624,36.069],[-123.488,36.254],[-123.429,36.458],[-123.41,36.779],[-123.361,37.188],[-123.186,37.363],[-122.777,37.441],[-122.583,37.577],[-122.248,37.675],[-121.941,37.619],[-121.12,37.081],[-120.793,37.025],[-120.131,37.228],[-119.593,37.571],[-119.565,37.735],[-119.857,38.249],[-120.103,38.532],[-120.315,38.813],[-120.558,39.453],[-120.781,39.62]]]}},{"type":"Feature","properties":{"density":1},"geometry":{"type":"Polygon","coordinates":[[[-81.234,27.785],[-81.351,27.889],[-81.615,28.01],[-81.752,28.006],[-81.795,27.958],[-81.819,27.85],[-81.793,27.746],[-81.737,27.668],[-81.648,27.605],[-81.581,27.59],[-81.449,27.625],[-81.375,27.607],[-81.145,27.633],[-81.113,27.69],[-81.154,27.735],[-81.234,27.785]]]}},{"type":"Feature","properties":{"density":1},"geometry":{"type":"Polygon","coordinates":[[[-81.13,26.057],[-81.301,26.078],[-81.396,26.184],[-81.487,26.371],[-81.637,26.366],[-81.741,26.291],[-81.819,26.137],[-81.814,26.018],[-81.773,25.924],[-81.65,25.81],[-81.524,25.751],[-81.39,25.766],[-81.232,25.82],[-81.052,25.95],[-81.037,26.033],[-81.065,26.061],[-81.13,26.057]]]}},{"type":"Feature","properties":{"density":1},"geometry":{"type":"Polygon","coordinates":[[[-105.258,37.352],[-102.746,36.724],[-99.135,36.462],[-96.519,36.619],[-94.321,37.561],[-92.489,37.98],[-85.215,38.346],[-82.808,38.241],[-81.29,38.137],[-80.976,39.026],[-81.709,39.707],[-86.157,40.125],[-87.884,40.178],[-91.442,40.963],[-93.326,41.591],[-95.577,41.643],[-96.937,41.381],[-99.24,41.015],[-101.438,40.858],[-104.473,40.439],[-107.456,40.596],[-109.13,40.701],[-111.642,40.178],[-111.224,39.55],[-110.857,39.445],[-109.497,39.34],[-108.031,38.66],[-106.671,37.613],[-105.258,37.352]]]}},{"type":"Feature","properties":{"density":2},"geometry":{"type":"Polygon","coordinates":[[[-81.245,27.741],[-81.29,27.786],[-81.341,27.808],[-81.368,27.813],[-81.397,27.784],[-81.394,27.722],[-81.37,27.698],[-81.312,27.677],[-81.226,27.714],[-81.245,27.741]]]}},{"type":"Feature","properties":{"density":2},"geometry":{"type":"Polygon","coordinates":[[[-123.887,37.46],[-124.208,37.178],[-124.733,36.915],[-125.103,36.896],[-125.123,36.682],[-125.045,36.4],[-124.986,36.069],[-124.967,35.855],[-124.889,35.475],[-125.093,35.222],[-125.57,35.582],[-126.096,36.176],[-126.417,36.614],[-126.514,36.954],[-126.359,37.402],[-126.252,37.577],[-126.154,37.898],[-126.193,38.2],[-126.261,38.531],[-126.232,38.765],[-126.135,38.842],[-125.892,38.784],[-125.697,38.852],[-125.531,38.852],[-125.308,38.726],[-125.113,38.677],[-124.743,38.687],[-124.548,38.638],[-124.412,38.521],[-124.286,38.249],[-124.247,38.122],[-124.081,38.025],[-123.896,37.986],[-123.653,37.869],[-123.585,37.684],[-123.624,37.567],[-123.887,37.46]]]}}]}