{"type":"FeatureCollection","features":[{"type":"Feature","properties":{"density":1},"geometry":{"type":"Polygon","coordinates":[[[-105.615,21.008],[-105.662,20.971],[-105.736,20.794],[-106.071,20.403],[-106.23,20.31],[-106.351,20.189],[-106.584,20.04],[-106.844,19.919],[-107.347,19.63],[-107.897,19.341],[-108.409,19.09],[-108.623,19.015],[-108.977,18.95],[-109.182,18.829],[-109.238,18.782],[-109.294,18.68],[-109.275,18.419],[-109.201,18.168],[-109.042,18.009],[-108.828,17.758],[-108.502,17.506],[-107.394,16.817],[-107.068,16.696],[-106.77,16.687],[-106.407,16.705],[-105.326,16.855],[-103.994,16.985],[-102.486,17.208],[-102.244,17.339],[-102.123,17.46],[-102.076,17.553],[-102.067,17.665],[-102.085,17.758],[-102.123,17.832],[-102.253,17.972],[-102.365,18.047],[-102.57,18.121],[-102.84,18.186],[-103.026,18.251],[-103.156,18.335],[-103.296,18.466],[-103.538,18.792],[-103.696,18.969],[-103.808,19.146],[-104.125,19.574],[-104.265,19.704],[-104.954,20.161],[-105.084,20.3],[-105.149,20.394],[-105.242,20.636],[-105.345,20.803],[-105.475,20.962],[-105.55,21.018],[-105.587,21.018],[-105.615,21.008]]]}},{"type":"Feature","properties":{"density":1},"geometry":{"type":"Polygon","coordinates":[[[-96.123,19.321],[-96.076,19.442],[-95.993,19.536],[-95.909,19.666],[-95.862,19.815],[-95.825,20.011],[-95.816,20.383],[-95.853,20.672],[-95.965,20.923],[-95.993,21.314],[-95.993,21.491],[-95.918,21.855],[-95.909,22.171],[-95.927,22.367],[-96.011,22.609],[-96.067,22.721],[-96.291,22.926],[-96.43,23.028],[-96.607,23.103],[-96.905,23.168],[-97.092,23.177],[-97.231,23.14],[-97.315,23.084],[-97.483,22.916],[-97.511,22.842],[-97.511,22.739],[-97.567,22.581],[-97.576,22.441],[-97.65,22.181],[-97.762,21.668],[-97.818,21.147],[-97.772,20.476],[-97.725,20.281],[-97.66,20.122],[-97.511,19.983],[-97.222,19.843],[-97.054,19.731],[-96.943,19.619],[-96.887,19.536],[-96.831,19.442],[-96.766,19.256],[-96.542,19.089],[-96.402,19.051],[-96.3,19.07],[-96.188,19.172],[-96.16,19.238],[-96.123,19.321]]]}},{"type":"Feature","properties":{"density":1},"geometry":{"type":"Polygon","coordinates":[[[-103.566,20.841],[-104.366,20.58],[-105.231,20.547],[-106.569,20.547],[-107.924,20.449],[-108.74,20.041],[-108.985,19.649],[-109.099,19.404],[-109.083,18.964],[-108.903,18.588],[-108.61,18.311],[-108.267,18.164],[-107.859,18.05],[-107.483,17.772],[-107.239,17.544],[-107.206,16.401],[-106.847,16.157],[-106.194,15.993],[-105.443,15.961],[-104.758,15.879],[-104.219,15.977],[-102.832,16.352],[-102.228,16.711],[-101.82,17.136],[-101.33,17.919],[-101.396,18.327],[-101.526,18.425],[-101.82,18.556],[-102.179,18.67],[-102.587,18.85],[-102.734,19.111],[-102.473,19.372],[-102.244,19.731],[-102.228,20.008],[-102.326,20.269],[-102.473,20.498],[-102.832,20.743],[-103.077,20.841],[-103.224,20.841],[-103.566,20.841]]]}}]}