{"type":"FeatureCollection","features":[{"type":"Feature","properties":{"density":1},"geometry":{"type":"Polygon","coordinates":[[[-81.143,26.861],[-81.093,26.88],[-81.089,26.901],[-81.13,26.925],[-81.225,26.934],[-81.246,26.923],[-81.246,26.888],[-81.15,26.862],[-81.143,26.861]]]}},{"type":"Feature","properties":{"density":1},"geometry":{"type":"Polygon","coordinates":[[[-81.272,26.644],[-81.224,26.641],[-81.211,26.655],[-81.22,26.696],[-81.318,26.761],[-81.339,26.758],[-81.344,26.712],[-81.284,26.652],[-81.272,26.644]]]}},{"type":"Feature","properties":{"density":1},"geometry":{"type":"Polygon","coordinates":[[[-81.503,26.626],[-81.446,26.616],[-81.428,26.647],[-81.5,26.714],[-81.584,26.721],[-81.592,26.672],[-81.518,26.631],[-81.503,26.626]]]}},{"type":"Feature","properties":{"density":1},"geometry":{"type":"Polygon","coordinates":[[[-98.512,18.637],[-99.804,19.044],[-100.211,19.149],[-100.607,19.149],[-101.189,19.207],[-101.748,19.231],[-102.179,19.289],[-102.772,19.44],[-103.401,19.72],[-103.96,20.057],[-104.728,20.406],[-105.054,20.511],[-105.322,20.476],[-105.578,20.36],[-105.788,20.15],[-106.102,19.661],[-106.114,19.475],[-105.997,19.079],[-105.706,18.777],[-105.403,18.497],[-104.984,18.323],[-104.554,18.101],[-104.053,17.904],[-103.541,17.566],[-103.471,17.496],[-103.18,17.007],[-103.005,16.541],[-102.924,16.262],[-102.842,15.436],[-102.679,14.923],[-102.33,14.516],[-101.713,14.271],[-100.479,14.167],[-99.897,14.167],[-98.628,14.341],[-97.976,14.446],[-97.72,14.528],[-97.441,14.679],[-97.208,14.83],[-96.998,14.993],[-96.882,15.191],[-96.858,15.459],[-96.858,15.762],[-96.905,16.064],[-97.01,16.402],[-97.475,17.275],[-97.755,17.962],[-97.918,18.253],[-98.139,18.451],[-98.418,18.625],[-98.512,18.637]]]}},{"type":"Feature","properties":{"density":1},"geometry":{"type":"Polygon","coordinates":[[[-90.16,30.261],[-90.943,30.252],[-92.656,30.27],[-92.814,30.261],[-93.14,30.177],[-93.345,30.093],[-93.457,30.0],[-93.587,29.842],[-93.718,29.516],[-93.69,29.283],[-93.587,29.078],[-93.364,28.957],[-93.085,28.845],[-92.451,28.733],[-91.902,28.696],[-91.65,28.65],[-91.352,28.566],[-91.036,28.538],[-90.821,28.547],[-90.635,28.612],[-90.533,28.715],[-90.365,28.994],[-90.319,29.218],[-90.216,29.283],[-89.955,29.292],[-89.452,29.218],[-88.968,29.05],[-88.661,29.013],[-87.702,28.994],[-87.366,29.05],[-87.003,29.283],[-86.817,29.479],[-86.714,29.814],[-86.668,30.028],[-86.677,30.428],[-86.845,30.596],[-87.05,30.708],[-88.018,30.708],[-88.912,30.54],[-89.303,30.428],[-89.918,30.298],[-90.03,30.289],[-90.16,30.261]]]}},{"type":"Feature","properties":{"density":1},"geometry":{"type":"Polygon","coordinates":[[[-105.118,20.334],[-105.277,20.334],[-105.311,20.352],[-105.311,20.369],[-105.271,20.39],[-105.215,20.392],[-105.137,20.365],[-105.116,20.339],[-105.118,20.334]]]}},{"type":"Feature","properties":{"density":1},"geometry":{"type":"Polygon","coordinates":[[[-94.165,16.348],[-94.283,16.242],[-94.312,16.188],[-94.273,16.171],[-94.243,16.176],[-94.197,16.215],[-94.144,16.3],[-94.143,16.34],[-94.155,16.346],[-94.165,16.348]]]}},{"type":"Feature","properties":{"density":1},"geometry":{"type":"Polygon","coordinates":[[[-92.523,14.943],[-92.512,14.862],[-92.493,14.84],[-92.411,14.801],[-92.371,14.805],[-92.341,14.838],[-92.332,14.887],[-92.35,14.925],[-92.392,14.957],[-92.477,14.978],[-92.521,14.962],[-92.523,14.943]]]}},{"type":"Feature","properties":{"density":1},"geometry":{"type":"Polygon","coordinates":[[[-92.615,15.105],[-92.603,15.067],[-92.533,14.976],[-92.493,14.971],[-92.46,14.992],[-92.437,15.058],[-92.481,15.119],[-92.549,15.142],[-92.617,15.123],[-92.615,15.105]]]}},{"type":"Feature","properties":{"density":1},"geometry":{"type":"Polygon","coordinates":[[[-92.476,17.859],[-92.742,17.852],[-92.991,17.866],[-93.184,17.895],[-93.25,17.91],[-93.29,17.943],[-93.305,18.009],[-93.275,18.056],[-93.096,18.063],[-92.947,18.038],[-92.666,17.95],[-92.512,17.936],[-92.45,17.903],[-92.443,17.888],[-92.457,17.881],[-92.476,17.859]]]}},{"type":"Feature","properties":{"density":1},"geometry":{"type":"Polygon","coordinates":[[[-99.02,22.91],[-99.008,23.016],[-98.957,23.137],[-98.819,23.172],[-98.758,23.09],[-98.761,22.997],[-98.873,22.896],[-98.976,22.878],[-99.011,22.892],[-99.02,22.91]]]}},{"type":"Feature","properties":{"density":1},"geometry":{"type":"Polygon","coordinates":[[[-95.186,34.775],[-95.395,34.785],[-95.419,34.803],[-95.419,34.839],[-95.38,34.884],[-95.319,34.887],[-95.186,34.817],[-95.169,34.784],[-95.183,34.779],[-95.186,34.775]]]}},{"type":"Feature","properties":{"density":1},"geometry":{"type":"Polygon","coordinates":[[[-94.918,35.722],[-95.046,35.753],[-95.053,35.818],[-95.014,35.842],[-94.95,35.827],[-94.899,35.771],[-94.893,35.734],[-94.913,35.722],[-94.918,35.722]]]}},{"type":"Feature","properties":{"density":1},"geometry":{"type":"Polygon","coordinates":[[[-80.509,26.791],[-80.711,26.934],[-80.88,26.981],[-81.003,26.934],[-81.038,26.896],[-81.056,26.817],[-81.047,26.779],[-80.988,26.709],[-80.828,26.645],[-80.638,26.613],[-80.521,26.639],[-80.501,26.689],[-80.498,26.759],[-80.509,26.791]]]}},{"type":"Feature","properties":{"density":1},"geometry":{"type":"Polygon","coordinates":[[[-83.685,31.103],[-83.749,30.96],[-83.767,30.881],[-83.764,30.811],[-83.706,30.756],[-83.659,30.759],[-83.633,30.779],[-83.606,30.87],[-83.606,31.016],[-83.624,31.08],[-83.644,31.106],[-83.668,31.109],[-83.685,31.103]]]}},{"type":"Feature","properties":{"density":1},"geometry":{"type":"Polygon","coordinates":[[[-81.853,31.954],[-81.684,31.883],[-81.538,31.857],[-81.447,31.872],[-81.368,31.907],[-81.357,31.942],[-81.365,31.983],[-81.433,32.056],[-81.491,32.062],[-81.856,32.029],[-81.88,32.009],[-81.885,31.977],[-81.862,31.954],[-81.853,31.954]]]}},{"type":"Feature","properties":{"density":1},"geometry":{"type":"Polygon","coordinates":[[[-82.382,32.57],[-82.441,32.43],[-82.49,32.254],[-82.476,32.17],[-82.441,32.149],[-82.382,32.161],[-82.347,32.196],[-82.324,32.325],[-82.321,32.523],[-82.335,32.585],[-82.356,32.593],[-82.388,32.576],[-82.382,32.57]]]}},{"type":"Feature","properties":{"density":1},"geometry":{"type":"Polygon","coordinates":[[[-101.92,20.389],[-101.987,20.377],[-102.224,20.225],[-102.285,20.126],[-102.28,20.047],[-102.224,20.021],[-102.166,20.029],[-101.99,20.143],[-101.873,20.286],[-101.876,20.354],[-101.92,20.392],[-101.92,20.389]]]}},{"type":"Feature","properties":{"density":1},"geometry":{"type":"Polygon","coordinates":[[[-101.312,20.952],[-101.595,20.881],[-101.742,20.759],[-101.92,20.652],[-102.491,20.427],[-102.802,20.417],[-103.475,20.444],[-103.536,20.42],[-103.617,20.351],[-103.649,20.268],[-103.649,20.146],[-103.624,20.085],[-103.571,20.029],[-102.887,19.87],[-102.709,19.814],[-102.311,19.783],[-101.901,19.883],[-101.742,19.941],[-101.566,20.036],[-101.217,20.39],[-101.112,20.471],[-101.007,20.481],[-100.673,20.471],[-100.616,20.5],[-100.599,20.537],[-100.616,20.605],[-100.673,20.681],[-100.807,20.808],[-100.822,20.842],[-101.256,20.952],[-101.312,20.952]]]}},{"type":"Feature","properties":{"density":1},"geometry":{"type":"Polygon","coordinates":[[[-80.596,27.3],[-81.145,27.121],[-81.282,27.048],[-81.408,26.919],[-81.458,26.808],[-81.477,26.694],[-81.443,26.48],[-81.359,26.301],[-81.263,26.194],[-81.0,26.087],[-80.76,26.08],[-80.527,26.205],[-80.443,26.278],[-80.313,26.53],[-80.275,26.694],[-80.26,26.884],[-80.29,27.06],[-80.355,27.182],[-80.428,27.251],[-80.546,27.296],[-80.596,27.3]]]}},{"type":"Feature","properties":{"density":1},"geometry":{"type":"Polygon","coordinates":[[[-81.87,32.0],[-81.847,31.87],[-81.771,31.733],[-81.492,31.443],[-81.313,31.332],[-80.947,31.344],[-80.863,31.474],[-80.859,31.619],[-80.924,31.748],[-81.038,31.847],[-81.572,32.011],[-81.801,32.038],[-81.851,32.023],[-81.87,32.0]]]}},{"type":"Feature","properties":{"density":1},"geometry":{"type":"Polygon","coordinates":[[[-82.907,31.859],[-82.923,31.687],[-82.911,31.462],[-82.846,31.355],[-82.759,31.302],[-82.694,31.302],[-82.659,31.325],[-82.64,31.382],[-82.705,31.683],[-82.743,31.786],[-82.778,31.832],[-82.865,31.886],[-82.892,31.878],[-82.907,31.859]]]}},{"type":"Feature","properties":{"density":1},"geometry":{"type":"Polygon","coordinates":[[[-82.419,31.752],[-82.392,31.538],[-82.358,31.462],[-82.278,31.374],[-82.213,31.359],[-82.171,31.371],[-82.144,31.397],[-82.16,31.493],[-82.324,31.748],[-82.343,31.767],[-82.4,31.771],[-82.419,31.752]]]}},{"type":"Feature","properties":{"density":1},"geometry":{"type":"Polygon","coordinates":[[[-82.472,32.275],[-82.476,32.069],[-82.45,31.996],[-82.419,31.954],[-82.328,31.939],[-82.251,32.038],[-82.221,32.141],[-82.251,32.229],[-82.297,32.309],[-82.343,32.351],[-82.431,32.351],[-82.465,32.301],[-82.472,32.275]]]}},{"type":"Feature","properties":{"density":1},"geometry":{"type":"Polygon","coordinates":[[[-104.543,24.064],[-104.55,24.106],[-104.626,24.159],[-104.699,24.163],[-104.821,24.117],[-104.878,24.075],[-104.951,23.976],[-104.962,23.858],[-104.943,23.827],[-104.89,23.8],[-104.775,23.812],[-104.565,23.964],[-104.535,24.041],[-104.543,24.064]]]}},{"type":"Feature","properties":{"density":1},"geometry":{"type":"Polygon","coordinates":[[[-100.922,22.294],[-101.071,22.309],[-101.468,22.294],[-101.594,22.248],[-101.701,22.175],[-101.743,22.084],[-101.743,22.019],[-101.701,21.977],[-101.643,21.973],[-101.201,22.049],[-101.056,22.095],[-100.934,22.156],[-100.873,22.217],[-100.873,22.267],[-100.888,22.29],[-100.922,22.294]]]}},{"type":"Feature","properties":{"density":1},"geometry":{"type":"Polygon","coordinates":[[[-100.835,22.057],[-101.094,22.019],[-101.262,21.973],[-101.487,21.882],[-101.59,21.821],[-101.659,21.748],[-101.697,21.668],[-101.697,21.607],[-101.636,21.542],[-101.521,21.515],[-101.407,21.519],[-101.273,21.557],[-101.151,21.618],[-100.899,21.809],[-100.827,21.893],[-100.796,21.985],[-100.804,22.038],[-100.823,22.046],[-100.835,22.057]]]}},{"type":"Feature","properties":{"density":1},"geometry":{"type":"Polygon","coordinates":[[[-102.265,22.061],[-102.456,21.931],[-102.525,21.866],[-102.544,21.748],[-102.483,21.679],[-102.315,21.679],[-102.212,21.721],[-102.166,21.759],[-102.124,21.859],[-102.132,21.962],[-102.242,22.065],[-102.265,22.061]]]}},{"type":"Feature","properties":{"density":1},"geometry":{"type":"Polygon","coordinates":[[[-102.555,21.466],[-102.849,21.405],[-103.078,21.29],[-103.154,21.225],[-103.204,21.141],[-103.192,21.027],[-103.146,20.962],[-103.04,20.939],[-102.937,20.939],[-102.746,21.0],[-102.589,21.103],[-102.532,21.168],[-102.463,21.294],[-102.456,21.351],[-102.471,21.409],[-102.521,21.454],[-102.555,21.466]]]}},{"type":"Feature","properties":{"density":1},"geometry":{"type":"Polygon","coordinates":[[[-103.177,20.63],[-103.345,20.661],[-103.665,20.756],[-103.89,20.848],[-103.993,20.867],[-104.234,20.874],[-104.295,20.867],[-104.417,20.813],[-104.466,20.756],[-104.489,20.684],[-104.497,20.577],[-104.447,20.482],[-104.356,20.413],[-104.195,20.352],[-103.902,20.318],[-103.722,20.329],[-103.116,20.417],[-103.047,20.455],[-103.043,20.546],[-103.066,20.577],[-103.154,20.634],[-103.177,20.63]]]}},{"type":"Feature","properties":{"density":1},"geometry":{"type":"Polygon","coordinates":[[[-100.438,21.069],[-100.747,21.229],[-100.934,21.286],[-101.166,21.264],[-101.418,21.203],[-101.727,21.088],[-102.017,21.012],[-102.566,20.909],[-102.708,20.859],[-102.807,20.787],[-102.99,20.6],[-103.261,20.375],[-103.318,20.31],[-103.364,20.066],[-103.272,19.898],[-103.181,19.841],[-102.872,19.741],[-102.422,19.711],[-101.849,19.772],[-101.418,19.936],[-100.85,19.94],[-100.713,19.978],[-100.48,20.173],[-100.095,20.367],[-100.068,20.443],[-100.098,20.619],[-100.198,20.844],[-100.335,21.023],[-100.4,21.069],[-100.438,21.069]]]}},{"type":"Feature","properties":{"density":1},"geometry":{"type":"Polygon","coordinates":[[[-101.147,18.171],[-101.484,18.194],[-101.868,18.264],[-102.404,18.416],[-102.811,18.602],[-103.23,18.835],[-103.929,19.3],[-104.406,19.568],[-104.639,19.661],[-104.965,19.708],[-105.186,19.719],[-105.431,19.626],[-105.663,19.417],[-105.745,19.161],[-105.71,18.788],[-105.419,18.427],[-105.151,18.16],[-104.72,17.799],[-103.999,17.286],[-103.335,16.716],[-102.869,16.46],[-102.544,16.343],[-101.973,16.355],[-101.705,16.437],[-101.449,16.565],[-101.112,16.774],[-100.867,17.065],[-100.681,17.368],[-100.634,17.496],[-100.634,17.834],[-100.681,18.008],[-100.867,18.125],[-100.984,18.148],[-101.147,18.171]]]}},{"type":"Feature","properties":{"density":1},"geometry":{"type":"Polygon","coordinates":[[[-96.315,16.32],[-96.699,16.25],[-97.072,15.994],[-97.305,15.668],[-97.282,15.354],[-97.119,15.133],[-96.758,14.888],[-96.257,14.772],[-95.524,14.783],[-95.174,14.888],[-94.79,15.109],[-94.441,15.4],[-94.278,15.668],[-94.185,15.948],[-94.197,16.204],[-94.325,16.472],[-94.453,16.634],[-94.651,16.693],[-94.814,16.728],[-95.058,16.704],[-95.302,16.658],[-95.559,16.6],[-95.768,16.53],[-96.094,16.378],[-96.315,16.32]]]}},{"type":"Feature","properties":{"density":1},"geometry":{"type":"Polygon","coordinates":[[[-93.323,18.241],[-93.044,18.369],[-92.846,18.509],[-92.695,18.718],[-92.66,18.986],[-92.893,19.161],[-93.172,19.265],[-93.382,19.324],[-93.731,19.359],[-94.08,19.359],[-95.442,19.3],[-95.64,19.231],[-95.78,19.114],[-95.885,18.986],[-95.978,18.718],[-95.989,18.555],[-95.756,18.323],[-95.314,18.136],[-94.942,18.066],[-94.406,18.055],[-94.034,18.066],[-93.789,18.101],[-93.556,18.171],[-93.323,18.241]]]}},{"type":"Feature","properties":{"density":1},"geometry":{"type":"Polygon","coordinates":[[[-99.314,23.046],[-99.496,22.354],[-99.551,21.536],[-99.442,20.899],[-99.187,20.517],[-98.769,20.153],[-98.405,19.881],[-97.786,19.717],[-97.386,19.699],[-97.168,19.753],[-96.986,19.953],[-96.913,20.372],[-96.986,20.972],[-97.132,21.518],[-97.314,22.591],[-97.405,22.991],[-97.714,23.791],[-98.168,24.028],[-98.496,23.991],[-98.751,23.882],[-99.133,23.355],[-99.314,23.046]]]}},{"type":"Feature","properties":{"density":1},"geometry":{"type":"Polygon","coordinates":[[[-92.377,30.057],[-92.768,29.973],[-93.066,29.805],[-93.252,29.591],[-93.336,29.34],[-93.345,29.042],[-93.252,28.79],[-93.085,28.595],[-92.749,28.464],[-92.218,28.352],[-91.371,28.334],[-90.961,28.371],[-90.523,28.446],[-90.179,28.483],[-89.434,28.66],[-89.238,28.716],[-88.922,28.846],[-88.614,29.079],[-88.549,29.191],[-88.503,29.377],[-88.475,29.675],[-88.54,29.908],[-88.782,30.159],[-89.024,30.299],[-89.322,30.401],[-89.741,30.429],[-90.207,30.429],[-90.784,30.355],[-91.66,30.159],[-92.265,30.085],[-92.377,30.057]]]}},{"type":"Feature","properties":{"density":1},"geometry":{"type":"Polygon","coordinates":[[[-81.614,22.623],[-81.822,22.501],[-81.846,22.472],[-81.853,22.435],[-81.839,22.418],[-81.756,22.416],[-81.695,22.445],[-81.582,22.535],[-81.558,22.621],[-81.599,22.631],[-81.614,22.623]]]}},{"type":"Feature","properties":{"density":1},"geometry":{"type":"Polygon","coordinates":[[[-82.049,22.77],[-82.481,22.57],[-82.6,22.494],[-82.659,22.445],[-82.678,22.384],[-82.664,22.34],[-82.581,22.311],[-82.437,22.335],[-82.259,22.443],[-82.044,22.687],[-82.012,22.76],[-82.014,22.777],[-82.034,22.779],[-82.049,22.77]]]}},{"type":"Feature","properties":{"density":1},"geometry":{"type":"Polygon","coordinates":[[[-83.264,22.653],[-83.484,22.582],[-83.623,22.513],[-83.679,22.467],[-83.77,22.372],[-83.787,22.289],[-83.758,22.203],[-83.662,22.181],[-83.565,22.184],[-83.413,22.257],[-83.345,22.321],[-83.264,22.452],[-83.22,22.623],[-83.223,22.643],[-83.247,22.65],[-83.264,22.653]]]}},{"type":"Feature","properties":{"density":1},"geometry":{"type":"Polygon","coordinates":[[[-79.361,21.705],[-79.456,21.652],[-79.6,21.512],[-79.644,21.449],[-79.673,21.332],[-79.646,21.273],[-79.571,21.246],[-79.427,21.278],[-79.346,21.324],[-79.217,21.471],[-79.182,21.544],[-79.173,21.605],[-79.185,21.698],[-79.263,21.742],[-79.341,21.72],[-79.361,21.705]]]}}]}