{"type":"FeatureCollection","features":[{"type":"Feature","properties":{"density":1},"geometry":{"type":"Polygon","coordinates":[[[-76.179,20.482],[-76.5,20.573],[-76.536,20.615],[-76.513,20.653],[-76.443,20.672],[-76.376,20.668],[-76.262,20.632],[-76.16,20.571],[-76.135,20.522],[-76.166,20.482],[-76.179,20.482]]]}},{"type":"Feature","properties":{"density":1},"geometry":{"type":"Polygon","coordinates":[[[-81.046,26.787],[-81.148,26.907],[-81.271,27.013],[-81.297,27.06],[-81.307,27.154],[-81.291,27.177],[-81.224,27.197],[-81.19,27.188],[-81.126,27.131],[-81.095,27.054],[-81.079,26.899],[-81.029,26.804],[-81.037,26.784],[-81.046,26.787]]]}},{"type":"Feature","properties":{"density":1},"geometry":{"type":"Polygon","coordinates":[[[-103.524,21.387],[-103.459,21.17],[-103.371,21.072],[-103.273,21.007],[-103.181,20.98],[-103.07,20.998],[-103.005,21.044],[-102.996,21.114],[-103.023,21.17],[-103.088,21.225],[-103.422,21.373],[-103.496,21.392],[-103.524,21.387]]]}},{"type":"Feature","properties":{"density":1},"geometry":{"type":"Polygon","coordinates":[[[-99.605,17.143],[-99.624,16.937],[-99.613,16.897],[-99.558,16.859],[-99.537,16.892],[-99.541,17.103],[-99.57,17.15],[-99.584,17.16],[-99.603,17.148],[-99.605,17.143]]]}},{"type":"Feature","properties":{"density":1},"geometry":{"type":"Polygon","coordinates":[[[-99.543,22.529],[-99.315,22.431],[-99.164,22.31],[-99.125,22.307],[-99.069,22.33],[-99.063,22.393],[-99.078,22.425],[-99.377,22.571],[-99.52,22.597],[-99.558,22.588],[-99.579,22.556],[-99.567,22.544],[-99.543,22.529]]]}},{"type":"Feature","properties":{"density":1},"geometry":{"type":"Polygon","coordinates":[[[-92.357,18.455],[-92.493,18.6],[-93.225,19.054],[-93.285,19.113],[-93.294,19.169],[-93.276,19.217],[-93.234,19.252],[-93.193,19.261],[-93.098,19.241],[-92.899,19.137],[-92.594,18.923],[-92.484,18.787],[-92.348,18.571],[-92.324,18.482],[-92.33,18.44],[-92.357,18.446],[-92.357,18.455]]]}},{"type":"Feature","properties":{"density":1},"geometry":{"type":"Polygon","coordinates":[[[-80.994,26.676],[-81.067,26.75],[-81.064,26.797],[-81.037,26.803],[-80.994,26.761],[-80.979,26.7],[-80.99,26.677],[-80.994,26.676]]]}},{"type":"Feature","properties":{"density":1},"geometry":{"type":"Polygon","coordinates":[[[-98.173,36.296],[-98.071,36.193],[-97.844,35.857],[-97.725,35.56],[-97.716,35.479],[-97.734,35.44],[-97.765,35.422],[-97.8,35.425],[-97.825,35.452],[-97.874,35.595],[-98.137,36.116],[-98.173,36.216],[-98.18,36.291],[-98.173,36.296]]]}},{"type":"Feature","properties":{"density":1},"geometry":{"type":"Polygon","coordinates":[[[-98.903,35.596],[-98.81,35.468],[-98.724,35.305],[-98.699,35.169],[-98.748,35.118],[-98.782,35.122],[-98.813,35.159],[-98.858,35.374],[-98.911,35.531],[-98.921,35.59],[-98.911,35.599],[-98.903,35.596]]]}},{"type":"Feature","properties":{"density":1},"geometry":{"type":"Polygon","coordinates":[[[-99.436,34.762],[-99.397,34.745],[-99.36,34.684],[-99.298,34.509],[-99.251,34.305],[-99.197,34.22],[-99.067,33.931],[-99.041,33.802],[-99.047,33.674],[-99.113,33.557],[-99.217,33.554],[-99.444,33.591],[-99.49,33.611],[-99.503,33.635],[-99.513,33.702],[-99.466,33.925],[-99.476,34.051],[-99.503,34.145],[-99.496,34.383],[-99.512,34.454],[-99.491,34.53],[-99.476,34.709],[-99.449,34.754],[-99.436,34.762]]]}},{"type":"Feature","properties":{"density":1},"geometry":{"type":"Polygon","coordinates":[[[-100.929,35.047],[-100.859,34.955],[-100.757,34.696],[-100.692,34.215],[-100.692,34.091],[-100.737,33.973],[-100.784,33.926],[-100.864,33.907],[-100.92,33.957],[-100.969,34.108],[-100.914,34.513],[-100.967,34.993],[-100.964,35.024],[-100.945,35.04],[-100.929,35.047]]]}},{"type":"Feature","properties":{"density":1},"geometry":{"type":"Polygon","coordinates":[[[-104.742,22.578],[-104.666,22.586],[-104.567,22.63],[-104.507,22.636],[-104.463,22.628],[-104.421,22.572],[-104.463,22.537],[-104.524,22.525],[-104.731,22.55],[-104.74,22.569],[-104.742,22.578]]]}},{"type":"Feature","properties":{"density":1},"geometry":{"type":"Polygon","coordinates":[[[-103.525,21.381],[-103.369,21.354],[-103.276,21.307],[-103.154,21.211],[-103.142,21.128],[-103.219,21.114],[-103.267,21.141],[-103.501,21.313],[-103.539,21.372],[-103.525,21.381]]]}},{"type":"Feature","properties":{"density":1},"geometry":{"type":"Polygon","coordinates":[[[-92.465,17.918],[-92.547,18.015],[-92.607,18.182],[-92.714,18.303],[-92.816,18.649],[-92.912,18.816],[-93.108,19.06],[-93.196,19.114],[-93.244,19.105],[-93.272,19.037],[-93.261,18.952],[-93.17,18.706],[-92.986,18.485],[-92.742,18.023],[-92.624,17.938],[-92.479,17.881],[-92.465,17.918]]]}},{"type":"Feature","properties":{"density":1},"geometry":{"type":"Polygon","coordinates":[[[-92.887,17.731],[-92.81,17.765],[-92.765,17.862],[-92.745,18.04],[-92.776,18.099],[-92.927,18.026],[-92.961,17.966],[-92.975,17.811],[-92.944,17.748],[-92.887,17.731]]]}},{"type":"Feature","properties":{"density":1},"geometry":{"type":"Polygon","coordinates":[[[-93.136,17.901],[-93.558,18.556],[-93.683,18.683],[-94.065,19.006],[-94.173,19.071],[-94.301,19.114],[-94.471,19.119],[-94.55,19.06],[-94.544,18.961],[-94.488,18.836],[-94.397,18.717],[-94.295,18.635],[-94.037,18.51],[-93.915,18.428],[-93.819,18.318],[-93.493,18.048],[-93.275,17.887],[-93.136,17.813],[-93.136,17.901]]]}},{"type":"Feature","properties":{"density":1},"geometry":{"type":"Polygon","coordinates":[[[-94.53,17.958],[-94.547,18.012],[-94.524,18.207],[-94.53,18.726],[-94.462,18.813],[-94.408,18.85],[-94.32,18.83],[-94.25,18.734],[-94.063,18.34],[-94.049,18.289],[-94.063,17.983],[-94.08,17.935],[-94.119,17.918],[-94.199,18.034],[-94.34,18.02],[-94.42,17.969],[-94.493,17.955],[-94.53,17.958]]]}},{"type":"Feature","properties":{"density":1},"geometry":{"type":"Polygon","coordinates":[[[-92.309,18.462],[-92.558,19.261],[-92.612,19.329],[-92.816,19.406],[-93.131,19.448],[-93.15,19.397],[-93.114,19.292],[-93.065,19.224],[-92.556,18.658],[-92.34,18.442],[-92.309,18.462]]]}},{"type":"Feature","properties":{"density":1},"geometry":{"type":"Polygon","coordinates":[[[-97.423,34.133],[-97.351,34.038],[-97.3,33.933],[-97.024,33.236],[-97.002,33.154],[-97.113,33.049],[-97.205,33.046],[-97.278,33.084],[-97.3,33.144],[-97.408,33.695],[-97.468,33.905],[-97.477,34.066],[-97.461,34.123],[-97.423,34.133]]]}},{"type":"Feature","properties":{"density":1},"geometry":{"type":"Polygon","coordinates":[[[-99.422,34.782],[-99.343,34.614],[-99.191,34.155],[-99.061,33.534],[-98.836,32.98],[-98.805,32.764],[-98.694,32.485],[-98.653,32.333],[-98.694,32.232],[-99.226,31.937],[-99.384,31.931],[-99.578,32.08],[-99.628,32.276],[-99.628,32.498],[-99.568,32.834],[-99.549,33.065],[-99.549,33.68],[-99.514,33.876],[-99.505,34.031],[-99.524,34.307],[-99.521,34.589],[-99.498,34.671],[-99.451,34.75],[-99.422,34.782]]]}},{"type":"Feature","properties":{"density":1},"geometry":{"type":"Polygon","coordinates":[[[-101.652,21.825],[-101.521,21.845],[-101.442,21.928],[-101.367,21.98],[-101.264,22.019],[-101.101,22.031],[-101.014,21.944],[-100.983,21.797],[-100.998,21.659],[-101.125,21.528],[-101.28,21.485],[-101.509,21.508],[-101.588,21.576],[-101.62,21.631],[-101.652,21.75],[-101.652,21.825]]]}},{"type":"Feature","properties":{"density":1},"geometry":{"type":"Polygon","coordinates":[[[-99.565,22.605],[-99.442,22.617],[-99.248,22.581],[-98.868,22.451],[-98.587,22.269],[-98.543,22.189],[-98.563,22.13],[-98.714,22.126],[-99.153,22.3],[-99.41,22.419],[-99.521,22.502],[-99.569,22.585],[-99.565,22.605]]]}},{"type":"Feature","properties":{"density":1},"geometry":{"type":"Polygon","coordinates":[[[-92.409,17.853],[-92.436,17.808],[-92.79,17.628],[-92.849,17.599],[-92.932,17.591],[-93.02,17.622],[-93.026,17.652],[-92.979,17.827],[-93.013,17.859],[-93.097,17.865],[-93.226,17.906],[-93.259,17.944],[-93.243,18.039],[-93.086,18.194],[-92.752,18.406],[-92.738,18.483],[-92.604,18.419],[-92.592,18.311],[-92.657,18.092],[-92.645,18.025],[-92.612,17.981],[-92.446,17.914],[-92.421,17.883],[-92.409,17.853]]]}},{"type":"Feature","properties":{"density":1},"geometry":{"type":"Polygon","coordinates":[[[-92.357,18.429],[-92.306,18.439],[-92.263,18.526],[-92.263,18.573],[-92.296,18.688],[-92.389,18.773],[-92.44,18.684],[-92.44,18.603],[-92.375,18.445],[-92.357,18.429]]]}},{"type":"Feature","properties":{"density":1},"geometry":{"type":"Polygon","coordinates":[[[-94.363,18.018],[-94.252,18.062],[-94.129,18.201],[-94.088,18.42],[-94.084,18.55],[-94.119,18.642],[-94.186,18.712],[-94.271,18.702],[-94.363,18.563],[-94.436,18.293],[-94.446,18.195],[-94.408,18.065],[-94.363,18.018]]]}},{"type":"Feature","properties":{"density":1},"geometry":{"type":"Polygon","coordinates":[[[-83.845,30.439],[-83.679,30.692],[-83.457,30.946],[-83.334,31.001],[-83.22,31.021],[-83.251,30.882],[-83.39,30.716],[-83.584,30.546],[-83.715,30.459],[-83.817,30.419],[-83.845,30.439]]]}},{"type":"Feature","properties":{"density":1},"geometry":{"type":"Polygon","coordinates":[[[-99.128,16.737],[-99.013,16.828],[-98.997,16.862],[-99.016,16.876],[-99.059,16.866],[-99.135,16.791],[-99.15,16.732],[-99.128,16.737]]]}},{"type":"Feature","properties":{"density":1},"geometry":{"type":"Polygon","coordinates":[[[-99.841,16.947],[-99.648,16.935],[-99.517,16.956],[-99.457,16.991],[-99.44,17.04],[-99.441,17.144],[-99.5,17.266],[-99.512,17.349],[-99.553,17.404],[-99.622,17.402],[-99.696,17.329],[-99.668,17.154],[-99.689,17.11],[-99.844,17.114],[-99.947,17.142],[-100.002,17.135],[-100.076,17.098],[-100.086,17.063],[-100.069,17.028],[-100.029,17.011],[-99.999,16.962],[-99.908,16.97],[-99.858,16.949],[-99.841,16.947]]]}},{"type":"Feature","properties":{"density":1},"geometry":{"type":"Polygon","coordinates":[[[-99.637,16.801],[-99.505,16.862],[-99.423,16.929],[-99.389,17.009],[-99.399,17.058],[-99.425,17.055],[-99.493,16.965],[-99.63,16.846],[-99.653,16.809],[-99.637,16.801]]]}},{"type":"Feature","properties":{"density":1},"geometry":{"type":"Polygon","coordinates":[[[-99.558,16.733],[-99.442,16.753],[-99.252,16.835],[-99.247,16.79],[-99.187,16.799],[-99.1,16.864],[-99.074,16.923],[-99.09,16.993],[-99.139,17.032],[-99.175,17.028],[-99.215,16.97],[-99.56,16.748],[-99.558,16.733]]]}},{"type":"Feature","properties":{"density":1},"geometry":{"type":"Polygon","coordinates":[[[-100.16,18.075],[-100.01,18.09],[-99.965,18.074],[-99.849,17.967],[-99.861,17.935],[-99.889,17.919],[-100.034,17.929],[-100.108,17.972],[-100.157,18.063],[-100.16,18.075]]]}},{"type":"Feature","properties":{"density":1},"geometry":{"type":"Polygon","coordinates":[[[-104.617,20.858],[-105.825,21.824],[-106.998,22.204],[-108.482,22.307],[-109.863,22.1],[-111.001,21.168],[-111.45,20.443],[-111.933,19.27],[-112.002,17.924],[-111.726,16.889],[-111.14,15.853],[-109.966,14.784],[-105.928,12.885],[-103.65,11.988],[-101.442,11.022],[-99.475,10.435],[-96.3,9.745],[-92.296,9.676],[-88.189,10.262],[-87.327,10.884],[-87.188,11.643],[-88.017,13.196],[-89.88,14.266],[-91.813,15.232],[-93.263,16.302],[-93.401,17.372],[-93.332,18.752],[-93.711,19.926],[-94.229,21.341],[-94.643,22.376],[-94.954,24.067],[-94.954,24.688],[-94.85,25.517],[-94.781,26.345],[-94.954,27.38],[-95.678,28.692],[-96.507,29.347],[-97.266,29.451],[-98.094,29.278],[-98.991,28.864],[-99.613,28.07],[-99.785,27.139],[-99.613,25.31],[-99.268,24.274],[-99.026,22.997],[-98.784,22.031],[-98.129,20.823],[-97.645,20.512],[-96.817,20.305],[-96.472,19.926],[-96.507,19.546],[-96.645,19.028],[-96.369,18.338],[-95.816,17.924],[-95.506,17.579],[-95.264,17.13],[-95.506,16.923],[-96.369,16.509],[-97.162,16.544],[-97.68,16.82],[-97.887,17.406],[-97.853,17.89],[-97.887,18.476],[-98.439,18.959],[-99.199,19.132],[-100.199,19.408],[-100.924,19.408],[-102.65,19.65],[-103.374,19.891],[-104.272,20.616],[-104.617,20.858]]]}},{"type":"Feature","properties":{"density":1},"geometry":{"type":"Polygon","coordinates":[[[-95.538,18.409],[-95.592,18.562],[-95.705,19.001],[-95.823,19.269],[-95.881,19.338],[-96.001,19.384],[-96.047,19.35],[-96.081,19.291],[-96.074,19.208],[-96.031,19.065],[-96.032,18.838],[-95.966,18.679],[-95.886,18.58],[-95.653,18.465],[-95.56,18.396],[-95.538,18.409]]]}},{"type":"Feature","properties":{"density":1},"geometry":{"type":"Polygon","coordinates":[[[-99.843,23.452],[-99.624,23.443],[-99.453,23.385],[-99.243,23.217],[-99.144,23.069],[-99.084,23.023],[-99.028,23.023],[-98.908,22.984],[-98.797,22.887],[-98.659,22.723],[-98.444,22.506],[-98.292,22.379],[-98.201,22.268],[-98.137,22.109],[-98.054,22.019],[-97.901,21.892],[-97.73,21.672],[-97.65,21.499],[-97.68,21.367],[-97.717,21.349],[-97.927,21.427],[-98.578,21.852],[-99.0,22.025],[-99.15,22.111],[-99.243,22.222],[-99.407,22.335],[-99.568,22.49],[-99.615,22.515],[-99.642,22.55],[-99.624,22.617],[-99.543,22.658],[-99.508,22.704],[-99.527,22.841],[-99.7,23.034],[-99.815,23.21],[-99.871,23.316],[-99.875,23.374],[-99.857,23.439],[-99.843,23.452]]]}},{"type":"Feature","properties":{"density":1},"geometry":{"type":"Polygon","coordinates":[[[-101.672,21.754],[-101.358,21.895],[-101.087,21.956],[-100.9,22.032],[-100.597,22.0],[-100.492,21.913],[-100.463,21.812],[-100.507,21.697],[-100.665,21.531],[-100.849,21.459],[-101.03,21.401],[-101.084,21.401],[-101.333,21.484],[-101.459,21.484],[-101.528,21.408],[-101.795,21.249],[-101.942,21.21],[-102.116,21.253],[-102.123,21.282],[-102.098,21.332],[-102.036,21.394],[-101.845,21.527],[-101.733,21.697],[-101.672,21.754]]]}},{"type":"Feature","properties":{"density":1},"geometry":{"type":"Polygon","coordinates":[[[-105.612,20.427],[-105.666,20.196],[-105.68,19.878],[-105.64,19.388],[-105.5,19.038],[-105.417,18.944],[-105.29,18.724],[-105.157,18.637],[-104.969,18.569],[-104.829,18.547],[-104.684,18.558],[-104.363,18.641],[-104.327,18.67],[-104.262,18.771],[-104.223,18.944],[-104.23,19.157],[-104.324,19.366],[-104.5,19.593],[-105.041,19.868],[-105.142,19.943],[-105.218,20.03],[-105.283,20.142],[-105.276,20.199],[-105.233,20.246],[-105.2,20.344],[-105.2,20.521],[-105.132,20.539],[-105.041,20.484],[-104.991,20.517],[-104.987,20.622],[-105.02,20.737],[-105.114,20.86],[-105.251,20.86],[-105.456,20.831],[-105.478,20.705],[-105.471,20.539],[-105.395,20.246],[-105.395,20.174],[-105.424,20.192],[-105.482,20.401],[-105.518,20.441],[-105.593,20.441],[-105.612,20.427]]]}},{"type":"Feature","properties":{"density":1},"geometry":{"type":"Polygon","coordinates":[[[-105.045,21.711],[-105.153,21.754],[-105.175,21.812],[-105.175,21.949],[-105.135,21.964],[-105.002,21.964],[-104.955,21.946],[-105.016,21.845],[-104.998,21.816],[-104.836,21.751],[-104.821,21.718],[-104.832,21.671],[-104.919,21.668],[-104.995,21.693],[-105.045,21.711]]]}},{"type":"Feature","properties":{"density":1},"geometry":{"type":"Polygon","coordinates":[[[-105.568,22.541],[-105.554,22.57],[-105.424,22.642],[-105.312,22.855],[-105.456,22.811],[-105.673,22.797],[-105.781,22.815],[-105.799,22.855],[-105.788,22.887],[-105.51,22.959],[-105.276,23.071],[-105.15,23.089],[-105.099,23.064],[-105.038,23.003],[-105.045,22.829],[-105.063,22.721],[-105.182,22.436],[-105.171,22.353],[-105.11,22.263],[-104.944,22.245],[-104.984,22.173],[-104.969,22.14],[-104.897,22.137],[-104.865,22.09],[-104.904,22.025],[-104.987,22.003],[-105.11,22.018],[-105.193,22.05],[-105.218,22.079],[-105.236,22.14],[-105.225,22.195],[-105.294,22.227],[-105.478,22.245],[-105.525,22.285],[-105.503,22.429],[-105.568,22.501],[-105.568,22.541]]]}},{"type":"Feature","properties":{"density":1},"geometry":{"type":"Polygon","coordinates":[[[-97.475,34.115],[-97.466,33.913],[-97.44,33.783],[-97.365,33.483],[-97.253,33.171],[-97.094,32.851],[-97.028,32.617],[-96.863,32.513],[-96.765,32.577],[-96.791,32.897],[-96.872,33.27],[-97.048,33.651],[-97.135,33.789],[-97.417,34.112],[-97.466,34.13],[-97.475,34.115]]]}},{"type":"Feature","properties":{"density":1},"geometry":{"type":"Polygon","coordinates":[[[-97.435,34.447],[-97.354,34.311],[-97.296,34.251],[-97.259,34.104],[-97.262,34.023],[-97.412,34.034],[-97.475,34.158],[-97.556,34.485],[-97.521,34.473],[-97.484,34.424],[-97.455,34.464],[-97.435,34.447]]]}},{"type":"Feature","properties":{"density":1},"geometry":{"type":"Polygon","coordinates":[[[-98.641,34.081],[-98.511,33.792],[-98.399,33.627],[-98.309,33.423],[-98.223,33.07],[-98.148,32.542],[-98.087,32.378],[-98.047,32.095],[-98.052,32.003],[-98.104,31.899],[-98.168,31.873],[-98.254,31.876],[-98.332,32.023],[-98.413,32.848],[-98.436,32.967],[-98.523,33.154],[-98.578,33.515],[-98.65,33.697],[-98.676,33.881],[-98.664,34.089],[-98.641,34.081]]]}},{"type":"Feature","properties":{"density":1},"geometry":{"type":"Polygon","coordinates":[[[-99.472,34.72],[-99.399,33.897],[-99.443,33.421],[-99.443,32.916],[-99.306,32.332],[-99.266,31.92],[-99.226,31.743],[-99.176,31.642],[-99.089,31.567],[-98.873,31.527],[-98.801,31.592],[-98.775,31.718],[-98.739,32.097],[-98.721,32.689],[-98.916,33.356],[-99.086,34.096],[-99.313,34.55],[-99.342,34.651],[-99.439,34.76],[-99.472,34.72]]]}},{"type":"Feature","properties":{"density":1},"geometry":{"type":"Polygon","coordinates":[[[-100.715,36.419],[-100.747,36.315],[-100.777,35.837],[-100.731,35.571],[-100.632,35.405],[-100.562,35.481],[-100.558,35.867],[-100.659,36.412],[-100.687,36.426],[-100.715,36.419]]]}},{"type":"Feature","properties":{"density":1},"geometry":{"type":"Polygon","coordinates":[[[-102.213,35.493],[-102.246,35.274],[-102.313,35.147],[-102.368,35.117],[-102.393,35.135],[-102.393,35.177],[-102.357,35.308],[-102.283,35.484],[-102.239,35.514],[-102.213,35.493]]]}},{"type":"Feature","properties":{"density":1},"geometry":{"type":"Polygon","coordinates":[[[-115.377,24.34],[-112.387,23.366],[-111.446,22.627],[-110.404,21.955],[-109.295,21.384],[-108.624,20.88],[-108.086,20.443],[-107.481,20.04],[-106.406,19.603],[-105.364,19.603],[-105.129,19.67],[-104.86,19.804],[-104.457,20.107],[-104.121,20.275],[-103.248,20.476],[-103.012,20.51],[-102.172,20.51],[-101.164,20.275],[-100.526,20.376],[-100.392,20.577],[-100.291,20.846],[-99.988,21.82],[-99.988,23.332],[-100.291,24.273],[-100.526,25.113],[-100.56,26.121],[-100.66,26.86],[-100.56,27.566],[-100.224,28.406],[-99.686,28.91],[-98.006,29.582],[-97.3,29.75],[-95.049,30.556],[-94.613,30.791],[-93.974,31.228],[-93.336,31.598],[-92.664,31.867],[-92.496,31.9],[-91.488,31.564],[-91.152,30.959],[-91.085,30.388],[-91.051,29.38],[-90.917,28.675],[-90.917,27.801],[-90.984,27.028],[-91.185,25.953],[-91.488,24.979],[-91.824,24.004],[-92.025,21.787],[-92.093,20.712],[-92.093,19.939],[-91.958,19.603],[-91.421,18.628],[-91.253,18.024],[-91.253,17.251],[-91.488,17.016],[-91.152,15.941],[-90.917,15.806],[-90.077,15.437],[-89.371,15.033],[-88.565,14.328],[-88.128,13.488],[-88.128,12.816],[-88.531,11.741],[-89.169,11.169],[-90.681,10.598],[-92.697,10.161],[-94.411,9.825],[-97.502,9.489],[-100.627,9.254],[-102.945,9.12],[-105.499,9.12],[-107.28,9.221],[-109.799,9.557],[-111.379,9.859],[-113.126,10.229],[-115.007,10.531],[-116.284,11.707],[-116.183,13.219],[-115.243,14.765],[-114.806,15.974],[-114.839,17.049],[-115.108,18.225],[-115.679,19.401],[-116.116,20.14],[-116.62,21.081],[-116.956,22.257],[-116.956,22.526],[-116.822,23.164],[-116.654,23.5],[-116.351,23.836],[-116.116,24.038],[-115.847,24.172],[-115.377,24.34]]]}},{"type":"Feature","properties":{"density":1},"geometry":{"type":"Polygon","coordinates":[[[-94.514,34.295],[-95.136,33.386],[-95.997,32.286],[-96.81,31.76],[-98.659,31.119],[-100.874,29.827],[-102.12,29.512],[-103.594,29.65],[-104.598,30.156],[-105.384,30.902],[-105.882,31.849],[-105.874,32.636],[-105.625,33.246],[-105.095,33.607],[-104.437,33.663],[-103.699,33.386],[-103.077,33.386],[-102.264,33.53],[-101.881,33.769],[-101.546,34.104],[-101.211,34.726],[-100.877,35.061],[-100.685,35.3],[-100.135,35.565],[-99.421,35.605],[-98.875,35.669],[-98.437,35.683],[-97.911,35.778],[-97.528,35.874],[-95.519,36.017],[-94.897,36.161],[-94.61,36.161],[-94.227,36.113],[-94.084,36.065],[-93.94,35.826],[-93.94,35.683],[-93.988,35.204],[-94.084,34.822],[-94.514,34.295]]]}},{"type":"Feature","properties":{"density":2},"geometry":{"type":"Polygon","coordinates":[[[-92.368,17.789],[-92.512,17.677],[-92.889,17.481],[-93.03,17.355],[-93.182,17.355],[-93.302,17.493],[-93.536,17.601],[-93.595,17.715],[-93.665,17.748],[-93.777,17.748],[-93.885,17.783],[-93.967,17.827],[-94.107,17.935],[-94.23,18.225],[-94.38,18.389],[-94.699,18.623],[-94.877,18.784],[-94.994,18.948],[-95.144,19.109],[-95.278,19.29],[-95.316,19.381],[-95.29,19.44],[-95.185,19.475],[-94.901,19.46],[-94.731,19.346],[-94.637,19.235],[-94.523,19.147],[-94.292,19.185],[-94.142,19.29],[-94.014,19.352],[-93.847,19.323],[-93.756,19.206],[-93.654,19.162],[-93.498,19.261],[-93.378,19.261],[-93.326,19.203],[-93.206,19.162],[-93.015,19.197],[-92.805,19.355],[-92.611,19.384],[-92.465,19.328],[-92.439,19.229],[-92.453,19.103],[-92.491,19.009],[-92.447,18.968],[-92.289,19.074],[-92.184,19.068],[-92.152,18.907],[-92.163,18.825],[-92.225,18.661],[-92.21,18.509],[-92.251,18.406],[-92.357,18.383],[-92.439,18.386],[-92.503,18.307],[-92.415,18.122],[-92.292,18.04],[-92.275,17.976],[-92.28,17.929],[-92.345,17.838],[-92.368,17.789]]]}},{"type":"Feature","properties":{"density":2},"geometry":{"type":"Polygon","coordinates":[[[-94.585,17.964],[-94.623,18.014],[-94.623,18.321],[-94.596,18.365],[-94.538,18.398],[-94.353,18.433],[-94.306,18.377],[-94.301,18.289],[-94.368,18.09],[-94.491,17.938],[-94.558,17.953],[-94.585,17.964]]]}},{"type":"Feature","properties":{"density":2},"geometry":{"type":"Polygon","coordinates":[[[-99.842,16.975],[-99.742,17.031],[-99.662,17.122],[-99.644,17.241],[-99.612,17.261],[-99.574,17.256],[-99.535,17.225],[-99.486,17.108],[-99.488,17.007],[-99.511,16.975],[-99.716,16.95],[-99.814,16.952],[-99.841,16.975],[-99.842,16.975]]]}},{"type":"Feature","properties":{"density":2},"geometry":{"type":"Polygon","coordinates":[[[-99.385,16.818],[-99.187,16.932],[-99.137,16.932],[-99.113,16.905],[-99.121,16.87],[-99.155,16.852],[-99.203,16.839],[-99.276,16.85],[-99.397,16.802],[-99.385,16.818]]]}},{"type":"Feature","properties":{"density":2},"geometry":{"type":"Polygon","coordinates":[[[-99.568,22.566],[-99.541,22.598],[-99.446,22.607],[-99.241,22.584],[-99.176,22.55],[-99.298,22.667],[-99.458,22.898],[-99.501,22.94],[-99.635,23.011],[-99.776,23.27],[-99.836,23.422],[-99.638,23.409],[-99.379,23.286],[-99.282,23.201],[-99.224,23.062],[-99.217,22.924],[-99.192,22.829],[-99.164,22.785],[-98.94,22.552],[-98.728,22.43],[-98.599,22.319],[-98.536,22.176],[-98.539,22.127],[-98.564,22.079],[-98.619,22.049],[-98.839,22.039],[-98.931,22.074],[-99.379,22.397],[-99.555,22.547],[-99.568,22.566]]]}},{"type":"Feature","properties":{"density":2},"geometry":{"type":"Polygon","coordinates":[[[-105.583,20.405],[-105.622,20.217],[-105.593,19.377],[-105.496,19.171],[-105.409,19.081],[-105.168,18.976],[-104.962,18.944],[-104.876,18.955],[-104.796,19.045],[-104.803,19.186],[-104.868,19.355],[-104.959,19.521],[-105.326,19.954],[-105.388,20.052],[-105.435,20.243],[-105.539,20.398],[-105.583,20.405]]]}},{"type":"Feature","properties":{"density":2},"geometry":{"type":"Polygon","coordinates":[[[-105.449,20.791],[-105.413,20.528],[-105.381,20.438],[-105.316,20.365],[-105.294,20.383],[-105.308,20.575],[-105.337,20.701],[-105.409,20.795],[-105.449,20.791]]]}},{"type":"Feature","properties":{"density":2},"geometry":{"type":"Polygon","coordinates":[[[-105.14,21.924],[-105.048,21.931],[-105.041,21.832],[-105.076,21.821],[-105.098,21.832],[-105.131,21.907],[-105.14,21.924]]]}},{"type":"Feature","properties":{"density":2},"geometry":{"type":"Polygon","coordinates":[[[-105.414,22.421],[-105.458,22.478],[-105.441,22.521],[-105.29,22.589],[-105.247,22.704],[-105.203,22.726],[-105.174,22.705],[-105.172,22.641],[-105.246,22.473],[-105.249,22.325],[-105.286,22.293],[-105.388,22.282],[-105.416,22.338],[-105.406,22.393],[-105.414,22.421]]]}},{"type":"Feature","properties":{"density":2},"geometry":{"type":"Polygon","coordinates":[[[-96.607,20.681],[-96.693,21.025],[-96.886,21.584],[-97.08,22.294],[-97.345,23.145],[-97.424,23.541],[-97.424,24.143],[-97.187,24.702],[-96.8,25.347],[-96.134,25.885],[-95.832,26.207],[-94.865,26.788],[-94.177,26.96],[-93.822,26.834],[-93.768,26.551],[-94.005,25.971],[-94.456,25.111],[-94.822,23.885],[-94.843,23.24],[-94.886,22.702],[-95.037,22.1],[-95.424,21.003],[-95.639,20.681],[-96.026,20.401],[-96.263,20.401],[-96.499,20.53],[-96.607,20.681]]]}},{"type":"Feature","properties":{"density":2},"geometry":{"type":"Polygon","coordinates":[[[-98.976,16.631],[-98.85,16.629],[-98.701,16.594],[-98.531,16.578],[-98.351,16.637],[-98.316,16.676],[-98.302,16.764],[-98.303,16.866],[-98.328,16.98],[-98.38,17.047],[-98.45,17.085],[-98.65,17.115],[-98.737,17.118],[-98.842,17.099],[-98.868,17.072],[-98.92,16.909],[-98.955,16.87],[-99.018,16.855],[-99.071,16.805],[-99.063,16.733],[-99.04,16.715],[-98.988,16.709],[-99.001,16.652],[-98.99,16.635],[-98.976,16.631]]]}},{"type":"Feature","properties":{"density":3},"geometry":{"type":"Polygon","coordinates":[[[-92.61,17.803],[-92.627,17.74],[-92.847,17.607],[-93.135,17.561],[-93.251,17.59],[-93.251,17.797],[-93.326,17.844],[-93.349,17.971],[-93.291,18.127],[-93.153,18.259],[-93.06,18.329],[-92.922,18.335],[-92.881,18.283],[-92.858,18.196],[-92.812,18.109],[-92.714,18.092],[-92.662,17.907],[-92.604,17.867],[-92.61,17.803]]]}},{"type":"Feature","properties":{"density":3},"geometry":{"type":"Polygon","coordinates":[[[-105.572,20.362],[-105.59,20.102],[-105.529,19.828],[-105.489,19.741],[-105.384,19.601],[-105.305,19.561],[-105.251,19.557],[-105.193,19.604],[-105.215,19.705],[-105.474,20.106],[-105.539,20.362],[-105.572,20.362]]]}},{"type":"Feature","properties":{"density":3},"geometry":{"type":"Polygon","coordinates":[[[-105.413,20.762],[-105.384,20.571],[-105.33,20.452],[-105.312,20.47],[-105.319,20.539],[-105.381,20.726],[-105.413,20.762]]]}},{"type":"Feature","properties":{"density":3},"geometry":{"type":"Polygon","coordinates":[[[-99.818,23.413],[-99.687,23.378],[-99.478,23.232],[-99.428,23.16],[-99.417,23.103],[-99.439,23.062],[-99.506,23.051],[-99.587,23.075],[-99.692,23.189],[-99.818,23.402],[-99.818,23.413]]]}},{"type":"Feature","properties":{"density":3},"geometry":{"type":"Polygon","coordinates":[[[-99.541,22.57],[-99.384,22.56],[-99.236,22.505],[-99.109,22.422],[-99.095,22.378],[-99.125,22.364],[-99.298,22.408],[-99.446,22.477],[-99.518,22.54],[-99.541,22.57]]]}},{"type":"Feature","properties":{"density":3},"geometry":{"type":"Polygon","coordinates":[[[-99.057,16.758],[-99.041,16.806],[-98.904,16.873],[-98.878,16.873],[-98.843,16.847],[-98.738,16.841],[-98.725,16.826],[-98.728,16.777],[-98.764,16.725],[-98.808,16.682],[-98.855,16.665],[-98.986,16.651],[-98.979,16.679],[-98.88,16.746],[-98.871,16.774],[-98.981,16.733],[-99.019,16.73],[-99.051,16.749],[-99.057,16.758]]]}}]}