{"type":"FeatureCollection","features":[{"type":"Feature","properties":{"density":1},"geometry":{"type":"Polygon","coordinates":[[[-93.379,33.05],[-93.183,33.147],[-92.96,33.21],[-92.94,33.244],[-92.955,33.3],[-92.985,33.319],[-93.039,33.321],[-93.309,33.186],[-93.424,33.098],[-93.411,33.053],[-93.379,33.05]]]}},{"type":"Feature","properties":{"density":1},"geometry":{"type":"Polygon","coordinates":[[[-92.018,32.829],[-91.745,32.735],[-91.686,32.748],[-91.653,32.825],[-91.736,32.89],[-91.876,32.911],[-91.984,32.895],[-92.025,32.854],[-92.018,32.829]]]}},{"type":"Feature","properties":{"density":1},"geometry":{"type":"Polygon","coordinates":[[[-94.437,29.578],[-94.454,29.263],[-94.434,29.202],[-94.279,29.175],[-94.143,29.213],[-94.072,29.28],[-93.829,29.994],[-93.754,30.514],[-93.68,30.775],[-93.589,31.032],[-93.541,31.126],[-93.508,31.248],[-93.457,31.704],[-93.457,31.9],[-93.508,32.191],[-93.538,32.299],[-93.623,32.408],[-93.876,32.57],[-94.204,32.654],[-94.424,32.658],[-94.556,32.641],[-94.762,32.421],[-94.782,31.718],[-94.698,31.17],[-94.627,30.9],[-94.454,30.416],[-94.431,30.18],[-94.458,29.865],[-94.437,29.578]]]}},{"type":"Feature","properties":{"density":1},"geometry":{"type":"Polygon","coordinates":[[[-120.967,47.59],[-120.248,47.539],[-119.529,47.77],[-119.016,48.232],[-118.528,48.848],[-117.732,50.209],[-116.833,51.21],[-115.704,52.109],[-114.959,52.879],[-113.881,53.803],[-112.34,54.728],[-109.311,56.474],[-107.616,57.706],[-106.255,58.528],[-104.946,59.452],[-104.33,60.094],[-104.099,60.736],[-104.201,62.071],[-104.458,63.149],[-104.946,63.945],[-105.665,64.381],[-106.743,64.818],[-107.385,64.972],[-108.309,65.1],[-110.004,64.843],[-111.313,64.407],[-112.546,63.919],[-114.394,63.226],[-115.729,62.507],[-116.653,61.608],[-117.116,60.992],[-117.449,60.402],[-117.886,59.683],[-118.553,58.271],[-118.861,57.526],[-119.195,56.114],[-119.375,55.626],[-119.811,54.83],[-120.376,53.675],[-121.686,51.672],[-122.199,50.568],[-122.456,49.901],[-122.584,49.233],[-122.482,48.72],[-122.225,48.335],[-121.429,47.744],[-120.967,47.59]]]}},{"type":"Feature","properties":{"density":1},"geometry":{"type":"Polygon","coordinates":[[[-58.008,41.454],[-65.229,41.281],[-70.833,41.107],[-75.165,41.107],[-79.209,41.338],[-83.079,41.512],[-87.412,41.627],[-91.282,40.934],[-93.362,40.068],[-95.673,38.103],[-97.001,35.562],[-97.521,33.54],[-97.868,30.594],[-98.561,28.861],[-99.89,26.319],[-101.276,25.048],[-103.702,24.586],[-105.666,24.47],[-110.115,24.586],[-112.079,23.662],[-113.003,21.698],[-113.349,18.751],[-113.234,17.538],[-111.79,14.303],[-110.346,12.975],[-107.168,11.53],[-102.431,10.837],[-99.312,10.722],[-96.135,10.895],[-93.824,11.53],[-91.744,12.397],[-90.936,13.148],[-89.607,14.881],[-88.278,15.516],[-86.719,15.863],[-83.888,15.632],[-80.711,15.574],[-78.978,16.094],[-77.822,16.614],[-76.494,17.596],[-75.05,18.751],[-74.125,20.138],[-73.317,21.235],[-71.295,24.413],[-70.197,26.55],[-69.157,28.052],[-66.616,29.381],[-65.114,29.958],[-62.861,30.42],[-61.532,30.536],[-59.568,30.998],[-58.066,31.287],[-55.813,31.807],[-54.484,33.02],[-54.138,33.713],[-54.138,35.215],[-54.6,37.468],[-55.178,38.45],[-55.986,40.01],[-56.795,40.876],[-57.488,41.396],[-58.008,41.454]]]}},{"type":"Feature","properties":{"density":1},"geometry":{"type":"Polygon","coordinates":[[[-121.185,48.994],[-121.248,49.064],[-121.361,49.141],[-121.399,49.185],[-121.454,49.301],[-121.49,49.322],[-121.546,49.316],[-121.68,49.202],[-122.006,49.046],[-122.068,48.989],[-122.12,48.908],[-122.142,48.809],[-122.127,48.704],[-122.147,48.539],[-122.318,48.418],[-122.737,48.335],[-122.877,48.356],[-122.932,48.429],[-122.963,48.514],[-123.153,48.669],[-123.454,48.696],[-123.742,48.883],[-123.844,48.99],[-123.985,49.177],[-124.026,49.349],[-123.99,49.455],[-123.904,49.536],[-123.722,49.607],[-123.494,49.627],[-123.337,49.597],[-122.725,49.389],[-122.451,49.334],[-122.284,49.278],[-122.061,49.275],[-121.897,49.37],[-121.555,49.532],[-121.501,49.606],[-121.463,49.732],[-121.467,49.761],[-121.568,49.833],[-121.58,49.878],[-121.566,49.901],[-121.526,49.91],[-121.604,50.022],[-121.611,50.058],[-121.602,50.079],[-121.584,50.081],[-121.481,50.034],[-121.251,49.797],[-121.137,49.712],[-121.127,49.688],[-121.123,49.662],[-121.175,49.622],[-121.31,49.635],[-121.347,49.567],[-121.334,49.462],[-121.226,49.38],[-121.101,49.315],[-120.993,49.297],[-120.869,49.32],[-120.851,49.218],[-120.864,49.137],[-121.038,48.718],[-121.068,48.709],[-121.095,48.721],[-121.125,48.756],[-121.248,48.823],[-121.265,48.885],[-121.185,48.994]]]}},{"type":"Feature","properties":{"density":1},"geometry":{"type":"Polygon","coordinates":[[[-120.952,48.379],[-120.92,48.443],[-120.885,48.468],[-120.775,48.456],[-120.655,48.386],[-120.5,48.231],[-120.458,48.17],[-120.107,48.03],[-119.981,47.94],[-119.94,47.867],[-119.943,47.799],[-119.969,47.756],[-120.11,47.658],[-120.236,47.489],[-120.225,47.444],[-120.18,47.406],[-120.189,47.364],[-120.275,47.358],[-120.345,47.382],[-120.389,47.436],[-120.387,47.525],[-120.311,47.643],[-120.275,47.772],[-120.278,47.888],[-120.324,47.964],[-120.477,48.022],[-120.652,48.17],[-120.754,48.314],[-120.799,48.328],[-120.935,48.307],[-120.963,48.333],[-120.952,48.379]]]}},{"type":"Feature","properties":{"density":1},"geometry":{"type":"Polygon","coordinates":[[[-121.199,47.523],[-121.263,47.519],[-121.289,47.431],[-121.276,47.302],[-121.211,47.226],[-121.133,47.193],[-120.976,47.16],[-120.808,47.175],[-120.811,47.214],[-120.851,47.237],[-121.025,47.298],[-121.084,47.444],[-121.168,47.479],[-121.199,47.523]],[[-121.206,47.42],[-121.19,47.303],[-121.143,47.25],[-121.078,47.224],[-121.135,47.322],[-121.149,47.418],[-121.171,47.43],[-121.206,47.42]]]}},{"type":"Feature","properties":{"density":1},"geometry":{"type":"Polygon","coordinates":[[[-118.238,49.735],[-118.317,49.957],[-118.317,50.011],[-118.285,50.045],[-117.968,50.063],[-117.921,50.047],[-117.885,50.0],[-117.898,49.953],[-118.02,49.762],[-118.038,49.649],[-118.029,49.591],[-118.006,49.503],[-117.923,49.451],[-117.75,49.377],[-117.748,49.341],[-117.822,49.316],[-117.903,49.325],[-118.076,49.361],[-118.18,49.411],[-118.218,49.456],[-118.258,49.559],[-118.261,49.654],[-118.238,49.735]]]}},{"type":"Feature","properties":{"density":1},"geometry":{"type":"Polygon","coordinates":[[[-94.435,29.848],[-94.284,30.305],[-94.257,30.45],[-94.156,31.056],[-94.09,31.805],[-94.05,31.947],[-94.004,32.058],[-93.908,32.099],[-93.685,32.119],[-93.544,32.023],[-93.402,31.876],[-93.361,31.724],[-93.356,31.476],[-93.437,31.213],[-93.532,30.976],[-93.781,30.133],[-94.038,29.444],[-94.237,29.161],[-94.335,29.073],[-94.47,29.019],[-94.544,29.056],[-94.578,29.103],[-94.612,29.201],[-94.618,29.329],[-94.537,29.623],[-94.467,29.809],[-94.435,29.848]]]}},{"type":"Feature","properties":{"density":1},"geometry":{"type":"Polygon","coordinates":[[[-93.407,33.102],[-93.335,33.187],[-93.189,33.283],[-93.009,33.342],[-92.949,33.346],[-92.891,33.31],[-92.883,33.244],[-92.961,33.19],[-93.195,33.132],[-93.377,33.048],[-93.402,33.06],[-93.407,33.102]]]}},{"type":"Feature","properties":{"density":1},"geometry":{"type":"Polygon","coordinates":[[[-91.995,32.881],[-91.872,32.864],[-91.636,32.798],[-91.572,32.751],[-91.545,32.702],[-91.564,32.688],[-91.663,32.69],[-91.956,32.771],[-92.02,32.822],[-92.018,32.87],[-91.995,32.881]]]}},{"type":"Feature","properties":{"density":1},"geometry":{"type":"Polygon","coordinates":[[[-89.764,32.146],[-89.695,32.129],[-89.61,32.069],[-89.55,31.997],[-89.54,31.94],[-89.607,31.919],[-89.666,31.927],[-89.739,31.964],[-89.791,32.079],[-89.789,32.117],[-89.764,32.146]]]}},{"type":"Feature","properties":{"density":1},"geometry":{"type":"Polygon","coordinates":[[[-71.49,18.173],[-71.541,18.205],[-71.949,18.335],[-72.183,18.367],[-72.356,18.362],[-72.401,18.256],[-72.396,18.2],[-72.351,18.151],[-72.282,18.124],[-71.681,18.022],[-71.535,18.025],[-71.512,18.043],[-71.478,18.088],[-71.49,18.173]]]}},{"type":"Feature","properties":{"density":1},"geometry":{"type":"Polygon","coordinates":[[[-99.003,22.693],[-99.02,22.769],[-98.997,22.787],[-98.959,22.779],[-98.936,22.753],[-98.936,22.69],[-98.974,22.677],[-99.003,22.693]]]}},{"type":"Feature","properties":{"density":1},"geometry":{"type":"Polygon","coordinates":[[[-110.93,52.715],[-110.953,52.748],[-110.956,52.817],[-110.917,52.83],[-110.869,52.796],[-110.846,52.731],[-110.887,52.706],[-110.93,52.715]]]}},{"type":"Feature","properties":{"density":1},"geometry":{"type":"Polygon","coordinates":[[[-121.57,50.305],[-121.316,49.852],[-121.22,49.753],[-121.23,49.702],[-121.302,49.644],[-121.326,49.603],[-121.335,49.57],[-121.322,49.548],[-121.194,49.521],[-121.089,49.369],[-120.981,49.339],[-120.777,49.339],[-120.719,49.308],[-120.71,49.276],[-120.743,49.192],[-120.933,49.056],[-120.989,48.708],[-121.019,48.681],[-121.064,48.67],[-121.189,48.664],[-121.321,48.599],[-121.361,48.524],[-121.466,48.46],[-121.639,48.404],[-121.872,48.463],[-121.914,48.49],[-121.925,48.532],[-121.914,48.569],[-121.871,48.605],[-121.673,48.587],[-121.542,48.604],[-121.469,48.634],[-121.293,48.788],[-121.275,48.878],[-121.198,48.952],[-121.192,49.024],[-121.22,49.066],[-121.357,49.118],[-121.473,49.277],[-121.512,49.289],[-121.545,49.289],[-121.594,49.235],[-121.701,49.161],[-121.833,49.113],[-122.021,49.015],[-122.088,48.954],[-122.127,48.887],[-122.118,48.716],[-122.135,48.607],[-122.192,48.489],[-122.29,48.435],[-122.664,48.368],[-122.759,48.368],[-122.789,48.348],[-123.194,48.537],[-123.42,48.672],[-123.593,48.736],[-123.707,48.807],[-123.829,48.918],[-124.089,49.104],[-124.207,49.154],[-124.386,49.313],[-124.399,49.529],[-124.318,49.647],[-124.163,49.735],[-124.011,49.745],[-123.829,49.674],[-123.242,49.552],[-122.999,49.465],[-122.29,49.324],[-122.191,49.331],[-122.096,49.389],[-121.847,49.68],[-121.806,49.695],[-121.745,49.68],[-121.68,49.558],[-121.626,49.536],[-121.568,49.536],[-121.511,49.558],[-121.502,49.603],[-121.527,49.743],[-121.579,49.83],[-121.64,50.005],[-121.682,50.283],[-121.619,50.322],[-121.57,50.305]]]}},{"type":"Feature","properties":{"density":1},"geometry":{"type":"Polygon","coordinates":[[[-120.993,48.392],[-120.923,48.526],[-120.886,48.537],[-120.827,48.528],[-120.711,48.482],[-120.621,48.418],[-120.494,48.291],[-120.423,48.178],[-120.406,48.124],[-120.127,48.014],[-120.042,47.965],[-119.995,47.903],[-119.989,47.815],[-120.069,47.714],[-120.156,47.636],[-120.199,47.564],[-120.222,47.468],[-120.189,47.395],[-120.222,47.365],[-120.313,47.38],[-120.358,47.417],[-120.391,47.461],[-120.403,47.524],[-120.279,47.743],[-120.265,47.807],[-120.292,47.936],[-120.514,48.048],[-120.61,48.135],[-120.684,48.255],[-120.73,48.296],[-120.802,48.315],[-120.962,48.307],[-120.994,48.34],[-120.993,48.392]]]}},{"type":"Feature","properties":{"density":1},"geometry":{"type":"Polygon","coordinates":[[[-119.662,37.568],[-119.681,37.629],[-119.792,37.713],[-119.822,37.757],[-119.998,37.863],[-120.119,38.04],[-120.29,38.249],[-120.322,38.32],[-120.293,38.376],[-120.067,38.43],[-119.828,38.451],[-119.725,38.43],[-119.637,38.392],[-119.486,38.295],[-119.419,38.185],[-119.371,37.904],[-119.437,37.762],[-119.508,37.707],[-119.544,37.64],[-119.516,37.547],[-119.522,37.515],[-119.614,37.52],[-119.657,37.539],[-119.662,37.568]]]}},{"type":"Feature","properties":{"density":1},"geometry":{"type":"Polygon","coordinates":[[[-94.334,30.21],[-94.26,30.402],[-94.029,31.302],[-93.846,31.605],[-93.76,31.641],[-93.639,31.641],[-93.598,31.6],[-93.593,31.403],[-93.639,31.099],[-93.881,30.247],[-93.908,29.89],[-93.945,29.714],[-94.267,29.148],[-94.436,29.043],[-94.506,29.02],[-94.679,29.002],[-94.912,29.037],[-95.03,29.121],[-95.043,29.182],[-95.03,29.395],[-94.977,29.513],[-94.806,29.695],[-94.729,29.83],[-94.68,29.956],[-94.462,30.08],[-94.419,30.138],[-94.334,30.21]]]}},{"type":"Feature","properties":{"density":1},"geometry":{"type":"Polygon","coordinates":[[[-93.395,33.125],[-93.207,33.155],[-93.05,33.145],[-92.895,33.101],[-92.852,33.071],[-92.846,33.046],[-92.861,33.017],[-92.972,33.001],[-93.401,33.047],[-93.414,33.077],[-93.395,33.125]]]}},{"type":"Feature","properties":{"density":1},"geometry":{"type":"Polygon","coordinates":[[[-92.407,31.079],[-92.448,31.16],[-92.443,31.219],[-92.422,31.243],[-92.386,31.224],[-92.356,31.119],[-92.364,31.078],[-92.407,31.079]]]}},{"type":"Feature","properties":{"density":1},"geometry":{"type":"Polygon","coordinates":[[[-71.499,18.202],[-72.022,18.328],[-72.262,18.343],[-72.312,18.317],[-72.368,18.26],[-72.39,18.147],[-72.349,17.893],[-72.32,17.813],[-72.188,17.654],[-72.092,17.654],[-71.894,17.795],[-71.753,17.863],[-71.51,18.042],[-71.48,18.14],[-71.499,18.202]]]}},{"type":"Feature","properties":{"density":1},"geometry":{"type":"Polygon","coordinates":[[[-98.919,22.698],[-98.959,22.773],[-99.087,22.799],[-99.151,22.778],[-99.155,22.74],[-99.07,22.686],[-98.949,22.666],[-98.924,22.678],[-98.919,22.698]]]}},{"type":"Feature","properties":{"density":1},"geometry":{"type":"Polygon","coordinates":[[[-98.176,22.183],[-98.154,22.162],[-98.139,22.1],[-98.138,22.074],[-98.159,22.055],[-98.194,22.07],[-98.21,22.136],[-98.208,22.172],[-98.176,22.183]]]}},{"type":"Feature","properties":{"density":1},"geometry":{"type":"Polygon","coordinates":[[[-93.306,30.864],[-93.249,30.896],[-93.186,30.902],[-93.151,30.856],[-93.188,30.813],[-93.242,30.808],[-93.294,30.82],[-93.306,30.864]]]}},{"type":"Feature","properties":{"density":1},"geometry":{"type":"Polygon","coordinates":[[[-91.613,30.44],[-91.691,30.617],[-91.683,30.687],[-91.616,30.682],[-91.516,30.515],[-91.527,30.44],[-91.578,30.429],[-91.613,30.44]]]}},{"type":"Feature","properties":{"density":1},"geometry":{"type":"Polygon","coordinates":[[[-89.885,36.351],[-89.71,36.535],[-89.612,36.571],[-89.567,36.577],[-89.535,36.562],[-89.521,36.524],[-89.537,36.468],[-89.765,36.233],[-89.83,36.192],[-89.938,36.168],[-89.988,36.197],[-89.993,36.253],[-89.96,36.299],[-89.885,36.351]]]}},{"type":"Feature","properties":{"density":1},"geometry":{"type":"Polygon","coordinates":[[[-90.359,36.503],[-90.176,36.559],[-90.086,36.552],[-90.063,36.534],[-90.083,36.488],[-90.21,36.435],[-90.328,36.447],[-90.366,36.465],[-90.359,36.503]]]}},{"type":"Feature","properties":{"density":1},"geometry":{"type":"Polygon","coordinates":[[[-92.122,36.784],[-92.105,36.83],[-92.019,36.931],[-91.933,36.942],[-91.917,36.895],[-91.941,36.852],[-92.099,36.77],[-92.118,36.768],[-92.122,36.784]]]}},{"type":"Feature","properties":{"density":1},"geometry":{"type":"Polygon","coordinates":[[[-89.431,37.345],[-89.515,37.34],[-89.609,37.31],[-89.602,37.244],[-89.56,37.159],[-89.525,37.166],[-89.438,37.24],[-89.365,37.344],[-89.387,37.373],[-89.431,37.345]]]}},{"type":"Feature","properties":{"density":1},"geometry":{"type":"Polygon","coordinates":[[[-94.661,36.31],[-94.782,36.3],[-95.001,36.247],[-95.055,36.204],[-95.069,36.158],[-94.89,36.157],[-94.738,36.199],[-94.668,36.253],[-94.661,36.31]]]}},{"type":"Feature","properties":{"density":1},"geometry":{"type":"Polygon","coordinates":[[[-110.926,52.707],[-110.97,52.738],[-110.974,52.812],[-110.947,52.887],[-110.872,52.942],[-110.802,52.943],[-110.795,52.842],[-110.886,52.72],[-110.926,52.707]]]}},{"type":"Feature","properties":{"density":1},"geometry":{"type":"Polygon","coordinates":[[[-118.029,49.342],[-118.131,49.368],[-118.213,49.467],[-118.228,49.583],[-118.217,49.68],[-118.191,49.747],[-118.149,49.772],[-118.07,49.763],[-118.037,49.732],[-117.91,49.513],[-117.792,49.394],[-117.77,49.335],[-117.849,49.309],[-118.029,49.342]]]}},{"type":"Feature","properties":{"density":1},"geometry":{"type":"Polygon","coordinates":[[[-121.18,47.48],[-121.253,47.557],[-121.305,47.566],[-121.315,47.555],[-121.321,47.497],[-121.276,47.337],[-121.245,47.339],[-121.175,47.429],[-121.18,47.48]]]}},{"type":"Feature","properties":{"density":1},"geometry":{"type":"Polygon","coordinates":[[[-105.462,55.776],[-105.452,55.837],[-105.308,55.946],[-105.154,56.092],[-104.937,56.173],[-104.852,56.227],[-104.639,56.303],[-104.537,56.332],[-104.465,56.322],[-104.468,56.254],[-104.544,56.191],[-104.915,56.01],[-105.311,55.85],[-105.419,55.761],[-105.462,55.776]]]}},{"type":"Feature","properties":{"density":1},"geometry":{"type":"Polygon","coordinates":[[[-110.994,52.773],[-110.948,53.108],[-110.922,53.474],[-110.938,53.618],[-110.909,53.844],[-110.85,53.921],[-110.779,53.963],[-110.687,53.952],[-110.611,53.926],[-110.564,53.855],[-110.553,53.788],[-110.55,53.59],[-110.597,53.287],[-110.644,53.146],[-110.741,52.988],[-110.855,52.724],[-110.886,52.698],[-110.932,52.694],[-110.988,52.729],[-110.994,52.773]]]}},{"type":"Feature","properties":{"density":1},"geometry":{"type":"Polygon","coordinates":[[[-118.218,49.477],[-118.26,49.513],[-118.292,49.573],[-118.299,49.629],[-118.258,49.929],[-118.234,49.995],[-118.197,50.025],[-118.081,50.03],[-118.008,49.988],[-117.978,49.949],[-117.966,49.865],[-117.994,49.537],[-117.97,49.492],[-117.767,49.39],[-117.732,49.361],[-117.732,49.341],[-117.78,49.318],[-117.985,49.345],[-118.065,49.376],[-118.218,49.477]]]}},{"type":"Feature","properties":{"density":1},"geometry":{"type":"Polygon","coordinates":[[[-121.563,49.851],[-121.535,50.032],[-121.376,50.169],[-121.328,50.186],[-121.306,50.176],[-121.283,50.145],[-121.329,50.018],[-121.4,49.934],[-121.52,49.833],[-121.547,49.824],[-121.563,49.851]]]}},{"type":"Feature","properties":{"density":1},"geometry":{"type":"Polygon","coordinates":[[[-121.23,50.166],[-121.214,50.257],[-121.186,50.289],[-121.089,50.329],[-120.973,50.349],[-120.965,50.291],[-121.004,50.214],[-121.146,50.148],[-121.208,50.151],[-121.23,50.166]]]}},{"type":"Feature","properties":{"density":1},"geometry":{"type":"Polygon","coordinates":[[[-121.344,49.694],[-121.232,49.839],[-121.141,49.899],[-120.809,50.199],[-120.603,50.337],[-120.455,50.367],[-120.374,50.355],[-120.324,50.317],[-120.246,50.193],[-120.258,50.145],[-120.388,50.011],[-120.511,49.947],[-120.819,49.883],[-120.92,49.839],[-121.155,49.65],[-121.319,49.66],[-121.344,49.694]]]}},{"type":"Feature","properties":{"density":1},"geometry":{"type":"Polygon","coordinates":[[[-120.981,49.637],[-120.863,49.704],[-120.645,49.773],[-120.408,49.817],[-120.265,49.861],[-120.108,49.88],[-120.028,49.759],[-120.017,49.604],[-120.044,49.544],[-120.177,49.409],[-120.237,49.307],[-120.483,49.133],[-120.59,49.117],[-120.725,49.062],[-120.951,48.863],[-120.973,48.814],[-120.962,48.771],[-120.972,48.72],[-121.046,48.708],[-121.317,48.841],[-121.34,48.861],[-121.356,48.911],[-121.36,49.008],[-121.38,49.074],[-121.477,49.159],[-121.636,49.195],[-121.814,49.141],[-122.017,49.038],[-122.265,48.881],[-122.537,48.6],[-122.682,48.393],[-122.868,48.318],[-123.116,48.302],[-123.306,48.343],[-123.852,48.715],[-124.352,49.12],[-124.409,49.289],[-124.431,49.424],[-124.295,49.526],[-124.087,49.592],[-123.858,49.625],[-123.558,49.62],[-123.102,49.546],[-122.477,49.393],[-122.163,49.426],[-121.849,49.43],[-121.7,49.459],[-121.502,49.611],[-121.406,49.649],[-121.089,49.612],[-120.981,49.637]]]}},{"type":"Feature","properties":{"density":1},"geometry":{"type":"Polygon","coordinates":[[[-120.685,48.847],[-120.619,48.979],[-120.542,48.995],[-120.543,48.939],[-120.624,48.831],[-120.655,48.801],[-120.703,48.803],[-120.685,48.847]]]}},{"type":"Feature","properties":{"density":1},"geometry":{"type":"Polygon","coordinates":[[[-121.033,48.348],[-121.02,48.449],[-120.961,48.574],[-120.798,48.697],[-120.693,48.745],[-120.612,48.772],[-120.325,48.782],[-120.214,48.771],[-120.121,48.716],[-120.052,48.617],[-120.01,48.496],[-119.977,48.386],[-119.966,48.218],[-120.019,48.007],[-120.169,47.715],[-120.204,47.585],[-120.208,47.425],[-120.243,47.386],[-120.309,47.375],[-120.359,47.397],[-120.392,47.474],[-120.392,47.599],[-120.346,47.702],[-120.338,47.801],[-120.373,47.867],[-120.445,47.945],[-120.665,48.103],[-120.733,48.171],[-120.765,48.247],[-120.792,48.272],[-120.842,48.286],[-120.977,48.283],[-121.027,48.321],[-121.033,48.348]]]}},{"type":"Feature","properties":{"density":1},"geometry":{"type":"Polygon","coordinates":[[[-121.214,47.463],[-121.323,47.46],[-121.342,47.509],[-121.204,47.637],[-121.15,47.638],[-121.125,47.573],[-121.165,47.501],[-121.214,47.463]]]}},{"type":"Feature","properties":{"density":1},"geometry":{"type":"Polygon","coordinates":[[[-124.562,48.989],[-124.589,49.019],[-124.592,49.048],[-124.573,49.168],[-124.562,49.202],[-124.504,49.238],[-124.477,49.182],[-124.48,49.067],[-124.526,48.996],[-124.562,48.989]]]}},{"type":"Feature","properties":{"density":1},"geometry":{"type":"Polygon","coordinates":[[[-123.276,44.047],[-123.293,44.024],[-123.352,43.751],[-123.324,43.703],[-123.278,43.694],[-123.227,43.721],[-123.199,43.782],[-123.188,43.999],[-123.193,44.026],[-123.219,44.047],[-123.276,44.047]]]}},{"type":"Feature","properties":{"density":1},"geometry":{"type":"Polygon","coordinates":[[[-94.473,30.424],[-94.304,30.576],[-94.205,30.75],[-94.093,31.002],[-94.043,31.155],[-93.961,31.25],[-93.861,31.296],[-93.775,31.23],[-93.733,30.833],[-93.833,30.452],[-93.895,30.035],[-93.959,29.808],[-93.951,29.532],[-93.912,29.425],[-93.923,29.361],[-93.987,29.292],[-94.081,29.254],[-94.216,29.232],[-94.436,29.24],[-94.535,29.265],[-94.825,29.408],[-94.921,29.48],[-95.13,29.557],[-95.155,29.62],[-95.158,29.689],[-95.001,30.042],[-94.94,30.447],[-94.877,30.505],[-94.772,30.516],[-94.473,30.424]]]}},{"type":"Feature","properties":{"density":1},"geometry":{"type":"Polygon","coordinates":[[[-91.55,34.203],[-91.537,34.3],[-91.479,34.418],[-91.374,34.556],[-91.283,34.644],[-91.181,34.707],[-91.077,34.738],[-91.008,34.727],[-90.964,34.699],[-90.95,34.605],[-90.999,34.481],[-91.259,34.211],[-91.403,33.996],[-91.467,33.948],[-91.531,33.953],[-91.573,33.997],[-91.579,34.133],[-91.55,34.203]]]}},{"type":"Feature","properties":{"density":1},"geometry":{"type":"Polygon","coordinates":[[[-90.981,34.144],[-90.806,34.227],[-90.608,34.359],[-90.526,34.458],[-90.498,34.618],[-90.528,34.697],[-90.566,34.715],[-90.634,34.699],[-90.689,34.664],[-90.886,34.458],[-91.025,34.381],[-91.064,34.331],[-91.073,34.183],[-91.044,34.157],[-90.981,34.144]]]}},{"type":"Feature","properties":{"density":1},"geometry":{"type":"Polygon","coordinates":[[[-92.147,36.788],[-92.093,36.884],[-91.924,37.025],[-91.693,37.128],[-91.583,37.139],[-91.581,37.064],[-91.601,37.025],[-91.717,36.935],[-91.945,36.816],[-92.073,36.77],[-92.125,36.757],[-92.147,36.788]]]}},{"type":"Feature","properties":{"density":1},"geometry":{"type":"Polygon","coordinates":[[[-92.667,33.341],[-92.688,33.481],[-92.672,33.638],[-92.625,33.707],[-92.578,33.724],[-92.502,33.708],[-92.477,33.645],[-92.476,33.554],[-92.492,33.512],[-92.61,33.326],[-92.647,33.314],[-92.667,33.341]]]}},{"type":"Feature","properties":{"density":1},"geometry":{"type":"Polygon","coordinates":[[[-89.908,35.976],[-89.647,36.187],[-89.47,36.423],[-89.3,36.601],[-89.234,36.762],[-89.251,36.849],[-89.313,36.89],[-89.449,36.919],[-89.532,36.906],[-89.594,36.869],[-89.945,36.477],[-90.011,36.344],[-90.09,36.237],[-90.16,36.191],[-90.354,36.117],[-90.445,36.051],[-90.557,35.894],[-90.605,35.71],[-90.594,35.68],[-90.533,35.655],[-90.437,35.677],[-90.076,35.854],[-89.908,35.976]]]}},{"type":"Feature","properties":{"density":1},"geometry":{"type":"Polygon","coordinates":[[[-91.478,30.4],[-91.562,30.422],[-91.632,30.476],[-91.722,30.584],[-91.742,30.641],[-91.731,30.672],[-91.588,30.65],[-91.516,30.604],[-91.47,30.54],[-91.43,30.435],[-91.459,30.391],[-91.478,30.4]]]}},{"type":"Feature","properties":{"density":1},"geometry":{"type":"Polygon","coordinates":[[[-91.234,30.539],[-91.508,30.664],[-91.545,30.702],[-91.556,30.77],[-91.539,30.807],[-91.469,30.815],[-91.363,30.785],[-91.194,30.66],[-91.163,30.55],[-91.177,30.532],[-91.234,30.539]]]}},{"type":"Feature","properties":{"density":1},"geometry":{"type":"Polygon","coordinates":[[[-119.696,37.589],[-119.763,37.664],[-120.016,37.865],[-120.421,38.245],[-120.468,38.306],[-120.606,38.383],[-120.725,38.476],[-120.827,38.592],[-120.898,38.782],[-120.892,39.083],[-120.859,39.191],[-120.793,39.229],[-120.664,39.254],[-120.297,39.235],[-120.135,39.182],[-120.011,39.113],[-119.826,38.975],[-119.749,38.819],[-119.707,38.664],[-119.685,38.35],[-119.644,38.16],[-119.484,37.762],[-119.479,37.709],[-119.484,37.606],[-119.514,37.545],[-119.558,37.524],[-119.618,37.533],[-119.651,37.543],[-119.696,37.589]]]}},{"type":"Feature","properties":{"density":1},"geometry":{"type":"Polygon","coordinates":[[[-91.067,39.891],[-89.656,39.922],[-87.734,39.89],[-85.851,39.953],[-83.089,39.702],[-78.694,39.231],[-76.842,39.294],[-76.152,39.388],[-70.816,39.765],[-69.152,39.765],[-67.459,39.789],[-66.078,39.601],[-65.171,39.349],[-65.032,38.959],[-65.325,38.694],[-65.886,38.604],[-66.455,38.373],[-66.986,37.913],[-67.928,37.16],[-68.145,36.459],[-67.741,35.52],[-66.838,35.12],[-65.788,35.213],[-64.02,34.999],[-61.491,34.409],[-60.018,34.209],[-58.291,33.801],[-57.396,33.562],[-56.987,33.041],[-57.256,32.389],[-57.632,32.012],[-58.762,31.227],[-59.829,30.725],[-61.43,30.442],[-62.78,30.285],[-64.789,30.662],[-68.336,31.729],[-69.937,31.98],[-71.6,31.918],[-72.887,31.918],[-74.457,32.012],[-76.591,32.099],[-77.205,32.057],[-78.237,32.015],[-79.102,32.001],[-80.218,31.75],[-81.139,31.499],[-81.795,30.795],[-82.129,30.251],[-82.813,29.581],[-83.133,29.023],[-83.497,28.451],[-83.865,27.934],[-84.515,27.405],[-85.087,27.251],[-86.602,26.084],[-87.55,25.609],[-88.296,25.433],[-89.504,25.288],[-90.373,25.005],[-91.281,24.805],[-92.202,24.526],[-92.565,24.373],[-92.958,23.863],[-93.144,23.395],[-93.151,22.975],[-92.997,22.322],[-92.453,21.792],[-91.839,20.885],[-91.658,20.104],[-91.442,19.532],[-91.4,18.59],[-91.337,17.921],[-91.337,17.167],[-91.483,16.435],[-91.651,15.256],[-91.511,14.991],[-91.204,14.684],[-89.809,14.266],[-88.121,13.408],[-87.745,12.738],[-87.682,12.131],[-87.766,11.65],[-88.079,11.336],[-89.9,11.168],[-90.8,11.148],[-91.532,11.21],[-92.83,11.357],[-96.533,11.231],[-97.287,11.461],[-98.103,12.026],[-98.542,12.759],[-98.626,13.387],[-98.898,14.349],[-99.358,15.333],[-99.829,15.887],[-101.169,16.369],[-102.947,17.059],[-104.6,17.122],[-105.521,16.892],[-106.4,16.787],[-107.206,16.86],[-108.085,17.519],[-109.403,18.147],[-110.47,18.179],[-111.412,17.771],[-111.694,17.331],[-112.291,16.17],[-112.95,15.134],[-113.421,14.21],[-113.825,13.666],[-114.607,13.289],[-115.792,13.094],[-116.769,13.108],[-117.718,13.442],[-118.513,13.986],[-119.817,15.054],[-120.654,15.619],[-121.345,16.581],[-121.554,17.502],[-121.428,18.276],[-120.863,19.092],[-120.215,19.678],[-119.315,20.348],[-118.248,20.766],[-117.118,21.583],[-116.58,23.108],[-116.58,23.914],[-116.937,24.317],[-117.48,24.505],[-117.898,24.704],[-118.08,25.147],[-117.983,25.9],[-117.829,26.612],[-117.146,28.718],[-117.034,29.332],[-116.783,30.058],[-116.322,30.337],[-115.416,30.392],[-114.258,30.099],[-113.17,29.793],[-112.151,29.555],[-110.965,29.248],[-108.957,28.37],[-108.35,27.637],[-107.534,26.403],[-106.801,25.545],[-106.445,24.896],[-105.406,23.71],[-105.113,23.529],[-104.597,23.11],[-104.109,22.664],[-103.648,22.273],[-102.742,21.631],[-102.114,21.338],[-101.681,21.199],[-101.263,21.325],[-100.914,21.59],[-100.677,22.092],[-100.649,22.538],[-100.621,23.675],[-100.391,24.554],[-100.265,26.647],[-99.951,27.839],[-99.449,29.252],[-98.947,30.476],[-97.66,32.768],[-96.985,33.488],[-96.232,34.037],[-95.255,34.921],[-94.641,36.158],[-93.804,37.26],[-93.486,37.974],[-93.307,38.743],[-93.009,39.252],[-92.424,39.564],[-91.891,39.773],[-91.067,39.891]]]}},{"type":"Feature","properties":{"density":1},"geometry":{"type":"Polygon","coordinates":[[[-133.69,55.207],[-134.108,54.928],[-135.155,53.951],[-135.643,53.219],[-136.34,52.382],[-137.177,50.847],[-138.398,49.731],[-139.689,48.615],[-140.665,47.359],[-141.956,45.546],[-142.374,43.976],[-142.548,42.756],[-142.653,41.64],[-142.618,41.012],[-141.816,40.663],[-140.386,40.524],[-138.328,41.012],[-137.108,42.163],[-136.236,43.174],[-134.283,44.395],[-133.411,44.29],[-132.539,43.523],[-131.946,42.546],[-131.562,41.082],[-131.388,40.001],[-130.76,39.094],[-129.295,38.745],[-127.9,38.954],[-126.401,39.582],[-124.761,40.768],[-124.134,42.023],[-123.75,43.07],[-123.285,45.065],[-123.564,46.011],[-123.882,47.995],[-124.207,48.716],[-124.463,49.158],[-125.277,49.948],[-126.463,50.878],[-126.997,51.343],[-128.664,53.525],[-129.16,53.974],[-129.857,54.517],[-130.524,54.997],[-130.989,55.214],[-132.213,55.586],[-132.74,55.555],[-133.297,55.444],[-133.69,55.207]]]}},{"type":"Feature","properties":{"density":1},"geometry":{"type":"Polygon","coordinates":[[[-92.546,69.134],[-91.186,69.483],[-88.396,70.355],[-86.617,71.262],[-81.839,73.04],[-79.921,73.459],[-76.503,73.982],[-71.306,73.738],[-68.202,74.087],[-64.959,74.226],[-62.657,74.54],[-60.46,74.261],[-58.332,74.191],[-56.937,73.668],[-55.263,72.936],[-54.426,72.064],[-53.763,70.669],[-52.857,68.995],[-52.02,67.041],[-51.043,64.984],[-49.195,62.682],[-48.602,61.705],[-48.392,60.868],[-48.741,60.066],[-50.485,59.857],[-52.333,59.996],[-54.6,60.38],[-57.181,60.868],[-60.006,61.601],[-62.378,62.368],[-64.192,63.1],[-66.145,64.321],[-67.854,65.542],[-71.725,68.088],[-75.038,68.995],[-76.852,69.134],[-78.875,68.995],[-80.932,68.402],[-82.223,67.704],[-83.967,65.995],[-85.327,64.6],[-86.861,62.926],[-88.291,61.81],[-90.0,61.67],[-90.628,62.054],[-91.395,62.961],[-92.546,63.484],[-94.395,64.844],[-94.499,65.437],[-94.395,66.274],[-94.15,67.286],[-93.767,68.367],[-93.0,68.995],[-92.546,69.134]]]}},{"type":"Feature","properties":{"density":1},"geometry":{"type":"Polygon","coordinates":[[[-120.875,69.893],[-115.085,69.962],[-112.19,69.718],[-110.447,69.439],[-108.214,68.777],[-105.634,67.94],[-104.029,66.823],[-102.564,65.707],[-101.518,64.277],[-101.169,63.161],[-101.832,62.08],[-103.715,61.522],[-106.471,61.452],[-109.4,61.592],[-111.946,61.383],[-113.83,60.929],[-115.434,60.371],[-117.003,59.569],[-118.119,58.906],[-119.41,58.279],[-120.77,57.965],[-121.816,57.86],[-123.072,57.79],[-124.362,57.86],[-125.409,58.139],[-126.525,58.941],[-127.013,59.604],[-127.118,60.685],[-126.978,61.383],[-126.385,62.324],[-125.862,63.057],[-125.234,63.894],[-124.293,65.01],[-123.351,65.917],[-122.235,67.765],[-121.851,68.672],[-121.468,69.3],[-121.119,69.718],[-120.875,69.893]]]}},{"type":"Feature","properties":{"density":1},"geometry":{"type":"Polygon","coordinates":[[[-71.799,17.977],[-72.421,18.099],[-72.786,18.099],[-73.226,17.977],[-73.834,17.932],[-74.441,18.007],[-74.836,18.152],[-75.17,18.585],[-75.588,19.177],[-75.588,19.435],[-75.413,19.716],[-75.186,19.86],[-74.639,19.921],[-74.1,19.891],[-73.021,19.633],[-72.54,19.202],[-71.94,18.504],[-71.697,18.283],[-71.492,18.2],[-71.439,18.139],[-71.432,18.048],[-71.492,17.972],[-71.614,17.926],[-71.773,17.949],[-71.799,17.977]]]}},{"type":"Feature","properties":{"density":2},"geometry":{"type":"Polygon","coordinates":[[[-94.383,29.588],[-94.322,29.716],[-94.265,29.963],[-94.241,30.19],[-94.174,30.447],[-94.16,30.693],[-94.177,30.893],[-94.123,31.011],[-94.069,31.055],[-94.035,31.062],[-94.015,31.048],[-93.988,30.95],[-94.015,30.822],[-94.093,30.616],[-94.191,29.679],[-94.255,29.47],[-94.302,29.415],[-94.356,29.422],[-94.383,29.456],[-94.383,29.588]]]}},{"type":"Feature","properties":{"density":2},"geometry":{"type":"Polygon","coordinates":[[[-92.925,20.104],[-93.131,19.796],[-93.233,19.437],[-93.259,19.129],[-93.541,18.846],[-93.901,18.666],[-94.286,18.615],[-94.645,18.692],[-94.902,18.846],[-95.108,19.052],[-95.287,19.411],[-95.313,19.796],[-95.39,20.13],[-95.493,20.438],[-95.749,20.823],[-96.032,21.183],[-96.52,21.645],[-97.418,22.184],[-97.726,22.415],[-97.855,22.415],[-98.357,22.495],[-98.619,22.495],[-98.927,22.415],[-99.156,22.267],[-99.281,22.016],[-99.281,21.81],[-99.167,21.456],[-99.03,21.16],[-98.619,20.464],[-98.334,20.121],[-98.06,19.882],[-97.786,19.574],[-97.341,19.186],[-96.759,18.376],[-96.143,17.577],[-96.04,17.291],[-96.029,16.961],[-96.314,16.698],[-96.52,16.595],[-96.873,16.504],[-97.638,16.538],[-97.957,16.573],[-98.163,16.618],[-98.699,16.801],[-99.087,16.835],[-99.578,16.789],[-99.886,16.618],[-100.148,16.299],[-100.183,15.934],[-100.114,15.477],[-100.023,15.18],[-99.783,14.804],[-99.361,14.473],[-98.779,14.131],[-97.866,13.663],[-97.455,13.309],[-96.611,13.001],[-96.029,12.818],[-95.322,12.716],[-94.671,12.67],[-94.032,12.864],[-93.507,13.058],[-93.256,13.172],[-92.982,13.423],[-92.777,13.686],[-92.435,14.233],[-92.355,14.462],[-92.206,15.066],[-92.583,15.591],[-92.674,15.819],[-92.902,16.287],[-93.017,16.595],[-93.051,16.812],[-93.051,17.006],[-92.937,17.2],[-92.777,17.349],[-92.457,17.428],[-92.206,17.417],[-91.67,17.269],[-91.362,17.349],[-91.316,17.383],[-91.282,17.463],[-91.271,17.702],[-91.328,17.965],[-91.419,18.102],[-91.613,18.49],[-91.716,18.969],[-91.864,19.391],[-91.921,19.836],[-92.058,20.235],[-92.104,20.327],[-92.286,20.475],[-92.423,20.475],[-92.583,20.429],[-92.697,20.372],[-92.925,20.104]]]}},{"type":"Feature","properties":{"density":2},"geometry":{"type":"Polygon","coordinates":[[[-84.331,40.273],[-85.461,40.299],[-86.771,40.17],[-87.695,39.914],[-88.953,39.605],[-89.98,39.246],[-91.135,38.373],[-91.777,37.937],[-92.599,37.064],[-93.163,35.369],[-93.061,34.419],[-92.727,33.392],[-91.649,31.8],[-90.853,31.004],[-90.314,30.517],[-89.492,30.003],[-88.722,29.721],[-87.746,29.669],[-87.156,29.746],[-86.591,30.157],[-86.206,30.722],[-86.052,31.338],[-85.538,32.006],[-84.973,32.34],[-83.946,32.776],[-83.125,33.084],[-82.098,33.187],[-81.353,32.981],[-80.455,32.365],[-78.452,32.057],[-77.143,31.903],[-76.347,31.877],[-75.499,31.826],[-74.524,31.698],[-73.754,31.544],[-73.06,31.467],[-72.316,31.313],[-71.443,31.21],[-70.544,31.338],[-69.671,31.441],[-68.619,31.8],[-67.412,32.442],[-67.104,33.058],[-67.053,33.444],[-67.181,33.649],[-67.412,33.829],[-68.054,33.854],[-70.108,33.854],[-71.52,33.777],[-72.547,33.649],[-73.831,33.521],[-74.601,33.521],[-75.14,33.726],[-75.14,34.06],[-74.96,34.445],[-74.678,34.83],[-74.498,35.035],[-74.19,35.446],[-73.933,35.857],[-73.728,36.293],[-73.523,36.781],[-73.497,37.166],[-73.651,37.423],[-74.267,37.988],[-74.524,38.193],[-74.986,38.347],[-75.499,38.424],[-78.76,38.014],[-79.813,37.937],[-80.84,37.783],[-81.559,37.397],[-83.33,36.165],[-83.536,35.985],[-83.767,35.857],[-84.049,35.883],[-84.254,36.114],[-84.383,36.473],[-84.357,36.73],[-84.152,36.987],[-83.536,37.68],[-83.022,38.296],[-82.894,38.604],[-82.765,38.989],[-82.74,39.246],[-82.791,39.605],[-82.971,39.785],[-83.099,39.965],[-83.561,40.17],[-84.331,40.273]]]}},{"type":"Feature","properties":{"density":2},"geometry":{"type":"Polygon","coordinates":[[[-121.135,49.028],[-121.187,49.087],[-121.294,49.114],[-121.349,49.148],[-121.384,49.19],[-121.447,49.331],[-121.555,49.343],[-121.699,49.217],[-121.786,49.185],[-121.836,49.196],[-121.861,49.246],[-121.843,49.307],[-121.764,49.385],[-121.554,49.446],[-121.453,49.598],[-121.411,49.634],[-121.384,49.574],[-121.365,49.425],[-121.167,49.29],[-121.03,49.248],[-120.944,49.259],[-120.894,49.191],[-120.889,49.128],[-120.97,49.074],[-120.994,49.035],[-120.991,48.951],[-121.009,48.914],[-121.083,48.909],[-121.13,48.963],[-121.135,49.028]],[[-121.406,49.365],[-121.312,49.343],[-121.184,49.261],[-121.122,49.241],[-121.108,49.216],[-121.213,49.188],[-121.296,49.185],[-121.354,49.241],[-121.406,49.365]]]}},{"type":"Feature","properties":{"density":2},"geometry":{"type":"Polygon","coordinates":[[[-121.223,48.883],[-121.035,48.835],[-121.019,48.787],[-121.027,48.747],[-121.058,48.726],[-121.163,48.791],[-121.219,48.805],[-121.243,48.86],[-121.223,48.883]]]}},{"type":"Feature","properties":{"density":2},"geometry":{"type":"Polygon","coordinates":[[[-120.923,48.377],[-120.866,48.417],[-120.734,48.42],[-120.693,48.392],[-120.443,48.118],[-120.239,48.045],[-120.04,47.94],[-120.0,47.882],[-120.0,47.834],[-120.033,47.828],[-120.163,47.861],[-120.259,47.963],[-120.471,48.042],[-120.631,48.204],[-120.728,48.328],[-120.792,48.347],[-120.926,48.321],[-120.937,48.358],[-120.923,48.377]]]}},{"type":"Feature","properties":{"density":2},"geometry":{"type":"Polygon","coordinates":[[[-118.089,49.387],[-118.148,49.471],[-118.179,49.547],[-118.19,49.652],[-118.173,49.687],[-118.076,49.505],[-117.935,49.409],[-117.926,49.372],[-118.059,49.371],[-118.089,49.387]]]}},{"type":"Feature","properties":{"density":2},"geometry":{"type":"Polygon","coordinates":[[[-94.375,29.844],[-94.483,29.436],[-94.52,29.162],[-94.506,29.118],[-94.422,29.122],[-94.273,29.324],[-94.196,29.48],[-94.132,29.729],[-94.118,29.81],[-94.129,29.878],[-94.15,29.896],[-94.235,29.918],[-94.375,29.844]]]}},{"type":"Feature","properties":{"density":2},"geometry":{"type":"Polygon","coordinates":[[[-94.191,30.238],[-94.201,30.43],[-94.073,30.993],[-94.063,31.209],[-93.969,31.496],[-93.908,31.567],[-93.827,31.594],[-93.793,31.587],[-93.756,31.486],[-93.769,31.175],[-93.879,30.577],[-93.966,30.233],[-94.059,30.122],[-94.115,30.026],[-94.137,30.021],[-94.18,30.083],[-94.191,30.238]]]}},{"type":"Feature","properties":{"density":2},"geometry":{"type":"Polygon","coordinates":[[[-98.991,22.697],[-98.994,22.744],[-98.977,22.758],[-98.96,22.742],[-98.954,22.696],[-98.991,22.697]]]}},{"type":"Feature","properties":{"density":2},"geometry":{"type":"Polygon","coordinates":[[[-120.991,49.115],[-120.91,49.208],[-120.851,49.227],[-120.851,49.155],[-120.916,49.123],[-120.968,49.069],[-120.991,49.073],[-120.991,49.115]]]}},{"type":"Feature","properties":{"density":2},"geometry":{"type":"Polygon","coordinates":[[[-121.064,48.903],[-121.141,48.952],[-121.162,49.071],[-121.344,49.152],[-121.406,49.228],[-121.44,49.305],[-121.489,49.351],[-121.573,49.334],[-121.696,49.257],[-121.718,49.261],[-121.722,49.305],[-121.597,49.395],[-121.47,49.429],[-121.445,49.499],[-121.413,49.526],[-121.385,49.421],[-121.26,49.36],[-121.224,49.31],[-121.187,49.291],[-120.99,49.259],[-120.934,49.292],[-120.755,49.302],[-120.74,49.288],[-120.741,49.255],[-120.832,49.147],[-120.924,49.089],[-120.994,48.922],[-121.064,48.903]],[[-121.37,49.356],[-121.334,49.35],[-121.185,49.266],[-121.17,49.245],[-121.18,49.202],[-121.23,49.169],[-121.271,49.182],[-121.348,49.265],[-121.376,49.315],[-121.37,49.356]],[[-121.036,49.206],[-121.086,49.161],[-121.065,49.131],[-120.979,49.157],[-121.036,49.206]]]}},{"type":"Feature","properties":{"density":2},"geometry":{"type":"Polygon","coordinates":[[[-121.199,48.882],[-121.154,48.861],[-121.057,48.851],[-121.012,48.827],[-120.998,48.788],[-121.011,48.748],[-121.061,48.712],[-121.141,48.714],[-121.099,48.773],[-121.2,48.798],[-121.249,48.845],[-121.237,48.89],[-121.199,48.882]]]}},{"type":"Feature","properties":{"density":2},"geometry":{"type":"Polygon","coordinates":[[[-120.822,48.326],[-120.936,48.336],[-120.958,48.381],[-120.874,48.405],[-120.808,48.447],[-120.753,48.445],[-120.723,48.4],[-120.512,48.204],[-120.466,48.134],[-120.425,48.105],[-120.265,48.053],[-120.211,47.998],[-120.249,47.985],[-120.439,48.028],[-120.489,48.053],[-120.564,48.172],[-120.64,48.211],[-120.7,48.306],[-120.76,48.344],[-120.822,48.326]]]}},{"type":"Feature","properties":{"density":2},"geometry":{"type":"Polygon","coordinates":[[[-119.557,37.627],[-119.487,37.772],[-119.478,37.883],[-119.49,37.918],[-119.571,37.976],[-119.728,38.042],[-119.82,38.065],[-119.864,38.053],[-119.952,37.957],[-119.947,37.899],[-119.786,37.779],[-119.759,37.707],[-119.658,37.655],[-119.639,37.624],[-119.651,37.545],[-119.578,37.523],[-119.524,37.527],[-119.557,37.627]]]}},{"type":"Feature","properties":{"density":2},"geometry":{"type":"Polygon","coordinates":[[[-94.189,29.492],[-94.303,29.271],[-94.387,29.147],[-94.454,29.09],[-94.487,29.081],[-94.612,29.071],[-94.648,29.087],[-94.676,29.168],[-94.67,29.216],[-94.561,29.494],[-94.594,29.6],[-94.705,29.732],[-94.7,29.833],[-94.67,29.909],[-94.615,29.947],[-94.495,29.93],[-94.327,29.847],[-94.165,29.73],[-94.09,29.62],[-94.093,29.575],[-94.111,29.546],[-94.189,29.492]]]}},{"type":"Feature","properties":{"density":2},"geometry":{"type":"Polygon","coordinates":[[[-94.086,30.374],[-94.071,30.635],[-94.039,30.739],[-93.922,31.022],[-93.888,31.207],[-93.846,31.279],[-93.792,31.315],[-93.765,31.254],[-93.778,31.117],[-93.859,30.784],[-93.922,30.644],[-93.987,30.415],[-94.028,30.372],[-94.077,30.363],[-94.086,30.374]]]}},{"type":"Feature","properties":{"density":2},"geometry":{"type":"Polygon","coordinates":[[[-92.873,18.002],[-92.94,18.022],[-93.065,18.147],[-93.176,18.197],[-93.34,18.211],[-93.468,18.18],[-93.69,18.03],[-93.801,17.975],[-94.07,17.944],[-94.232,17.886],[-94.32,17.808],[-94.384,17.725],[-94.426,17.575],[-94.404,17.427],[-94.34,17.322],[-94.22,17.236],[-94.12,17.2],[-93.662,17.094],[-93.334,17.064],[-93.193,17.072],[-93.126,17.152],[-93.023,17.352],[-92.987,17.455],[-92.876,17.608],[-92.69,17.675],[-92.604,17.686],[-92.379,17.625],[-92.34,17.639],[-92.295,17.739],[-92.326,17.789],[-92.468,17.875],[-92.657,17.919],[-92.726,17.919],[-92.804,17.947],[-92.873,18.002]]]}},{"type":"Feature","properties":{"density":2},"geometry":{"type":"Polygon","coordinates":[[[-91.558,30.455],[-91.582,30.453],[-91.625,30.509],[-91.625,30.571],[-91.579,30.531],[-91.549,30.469],[-91.558,30.455]]]}},{"type":"Feature","properties":{"density":2},"geometry":{"type":"Polygon","coordinates":[[[-89.956,36.277],[-89.845,36.336],[-89.777,36.444],[-89.714,36.461],[-89.688,36.388],[-89.7,36.345],[-89.801,36.242],[-89.873,36.191],[-89.919,36.18],[-89.962,36.207],[-89.971,36.243],[-89.956,36.277]]]}},{"type":"Feature","properties":{"density":2},"geometry":{"type":"Polygon","coordinates":[[[-90.351,36.49],[-90.258,36.494],[-90.187,36.521],[-90.162,36.488],[-90.218,36.456],[-90.303,36.448],[-90.353,36.473],[-90.351,36.49]]]}},{"type":"Feature","properties":{"density":2},"geometry":{"type":"Polygon","coordinates":[[[-110.921,52.721],[-110.947,52.748],[-110.937,52.793],[-110.908,52.833],[-110.87,52.844],[-110.875,52.771],[-110.921,52.721]]]}},{"type":"Feature","properties":{"density":2},"geometry":{"type":"Polygon","coordinates":[[[-118.127,49.497],[-118.078,49.52],[-118.013,49.492],[-117.955,49.418],[-117.954,49.373],[-118.005,49.359],[-118.115,49.403],[-118.137,49.453],[-118.127,49.497]]]}},{"type":"Feature","properties":{"density":2},"geometry":{"type":"Polygon","coordinates":[[[-110.966,52.775],[-110.849,53.262],[-110.815,53.306],[-110.755,53.336],[-110.652,53.314],[-110.65,53.226],[-110.738,53.101],[-110.846,52.848],[-110.875,52.741],[-110.89,52.721],[-110.929,52.711],[-110.966,52.775]]]}},{"type":"Feature","properties":{"density":2},"geometry":{"type":"Polygon","coordinates":[[[-118.084,49.415],[-118.221,49.553],[-118.219,49.638],[-118.195,49.718],[-118.129,49.745],[-118.073,49.728],[-118.02,49.586],[-118.02,49.457],[-118.046,49.417],[-118.084,49.415]]]}},{"type":"Feature","properties":{"density":2},"geometry":{"type":"Polygon","coordinates":[[[-121.215,49.112],[-121.342,49.142],[-121.386,49.171],[-121.383,49.194],[-121.284,49.169],[-121.199,49.171],[-120.821,49.368],[-120.584,49.537],[-120.409,49.582],[-120.302,49.577],[-120.291,49.553],[-120.299,49.492],[-120.424,49.305],[-120.509,49.249],[-120.691,49.184],[-120.808,49.12],[-120.878,49.061],[-121.02,48.872],[-121.049,48.763],[-121.118,48.772],[-121.242,48.839],[-121.228,48.865],[-121.153,48.847],[-121.102,48.935],[-121.148,49.041],[-121.215,49.112]]]}},{"type":"Feature","properties":{"density":2},"geometry":{"type":"Polygon","coordinates":[[[-121.326,49.695],[-121.227,49.802],[-120.947,49.988],[-120.847,50.102],[-120.766,50.15],[-120.73,50.151],[-120.719,50.135],[-120.739,50.094],[-120.858,49.966],[-121.156,49.753],[-121.224,49.683],[-121.311,49.665],[-121.325,49.668],[-121.326,49.695]]]}},{"type":"Feature","properties":{"density":2},"geometry":{"type":"Polygon","coordinates":[[[-121.556,49.86],[-121.503,50.018],[-121.452,50.04],[-121.405,50.025],[-121.393,49.979],[-121.41,49.949],[-121.53,49.838],[-121.55,49.839],[-121.556,49.86]]]}},{"type":"Feature","properties":{"density":2},"geometry":{"type":"Polygon","coordinates":[[[-121.418,49.366],[-121.399,49.46],[-121.407,49.514],[-121.435,49.52],[-121.467,49.381],[-121.459,49.351],[-121.418,49.366]]]}},{"type":"Feature","properties":{"density":2},"geometry":{"type":"Polygon","coordinates":[[[-120.92,48.422],[-120.856,48.448],[-120.741,48.454],[-120.707,48.442],[-120.554,48.196],[-120.562,48.167],[-120.599,48.164],[-120.638,48.197],[-120.705,48.295],[-120.949,48.344],[-120.953,48.37],[-120.92,48.422]]]}},{"type":"Feature","properties":{"density":2},"geometry":{"type":"Polygon","coordinates":[[[-120.657,48.855],[-120.63,48.929],[-120.602,48.944],[-120.596,48.892],[-120.636,48.854],[-120.657,48.855]]]}},{"type":"Feature","properties":{"density":2},"geometry":{"type":"Polygon","coordinates":[[[-121.234,47.489],[-121.233,47.572],[-121.171,47.595],[-121.161,47.582],[-121.193,47.492],[-121.209,47.475],[-121.234,47.489]]]}},{"type":"Feature","properties":{"density":2},"geometry":{"type":"Polygon","coordinates":[[[-124.575,49.017],[-124.572,49.098],[-124.542,49.107],[-124.505,49.075],[-124.505,49.032],[-124.552,48.996],[-124.575,49.017]]]}},{"type":"Feature","properties":{"density":2},"geometry":{"type":"Polygon","coordinates":[[[-94.119,29.712],[-94.038,29.654],[-94.018,29.565],[-94.04,29.527],[-94.115,29.479],[-94.198,29.466],[-94.534,29.452],[-94.934,29.581],[-95.039,29.564],[-95.077,29.582],[-95.106,29.621],[-95.109,29.673],[-95.083,29.727],[-94.988,29.819],[-94.958,29.869],[-94.932,30.044],[-94.924,30.32],[-94.847,30.438],[-94.745,30.474],[-94.682,30.468],[-94.602,30.416],[-94.469,30.27],[-94.403,30.22],[-94.293,29.917],[-94.153,29.733],[-94.119,29.712]]]}},{"type":"Feature","properties":{"density":2},"geometry":{"type":"Polygon","coordinates":[[[-91.456,34.011],[-91.357,34.177],[-91.191,34.323],[-91.003,34.568],[-91.007,34.645],[-91.047,34.673],[-91.143,34.658],[-91.291,34.56],[-91.434,34.342],[-91.519,34.157],[-91.547,34.041],[-91.539,33.992],[-91.522,33.978],[-91.486,33.978],[-91.456,34.011]]]}},{"type":"Feature","properties":{"density":2},"geometry":{"type":"Polygon","coordinates":[[[-90.974,34.169],[-90.772,34.288],[-90.697,34.384],[-90.743,34.408],[-90.8,34.4],[-91.022,34.29],[-91.05,34.239],[-91.048,34.187],[-91.022,34.158],[-90.974,34.169]]]}},{"type":"Feature","properties":{"density":2},"geometry":{"type":"Polygon","coordinates":[[[-90.497,35.688],[-90.204,35.881],[-89.984,35.991],[-89.921,36.062],[-89.914,36.116],[-89.931,36.14],[-89.962,36.158],[-90.1,36.165],[-90.243,36.112],[-90.432,35.945],[-90.509,35.852],[-90.559,35.708],[-90.539,35.676],[-90.497,35.688]]]}},{"type":"Feature","properties":{"density":2},"geometry":{"type":"Polygon","coordinates":[[[-89.957,35.996],[-89.722,36.225],[-89.686,36.377],[-89.744,36.459],[-89.81,36.459],[-89.893,36.423],[-90.036,36.203],[-90.094,36.027],[-90.039,35.991],[-89.997,35.983],[-89.957,35.996]]]}},{"type":"Feature","properties":{"density":2},"geometry":{"type":"Polygon","coordinates":[[[-94.217,18.16],[-93.924,18.495],[-93.645,19.792],[-93.52,20.281],[-93.129,20.602],[-92.71,20.755],[-92.292,20.769],[-91.985,20.392],[-91.929,19.904],[-92.166,19.22],[-92.111,18.607],[-92.013,18.202],[-92.013,17.853],[-92.041,17.546],[-92.39,17.086],[-92.766,16.751],[-92.766,16.472],[-92.585,15.942],[-92.431,15.649],[-92.166,15.356],[-91.971,15.077],[-91.859,14.854],[-91.79,14.631],[-91.79,14.421],[-92.334,13.696],[-93.017,13.459],[-93.464,13.11],[-93.799,12.915],[-94.217,12.845],[-94.496,13.054],[-94.636,13.417],[-94.705,13.682],[-94.803,13.905],[-94.956,14.338],[-95.124,14.728],[-95.194,15.161],[-95.235,15.579],[-95.208,15.858],[-95.198,16.314],[-95.152,16.742],[-95.04,17.039],[-94.836,17.328],[-94.566,17.616],[-94.417,17.7],[-94.296,17.867],[-94.231,18.035],[-94.217,18.16]]]}},{"type":"Feature","properties":{"density":2},"geometry":{"type":"Polygon","coordinates":[[[-89.019,35.199],[-88.642,35.506],[-87.819,35.743],[-87.261,35.645],[-86.857,35.157],[-86.954,34.348],[-87.136,33.567],[-87.415,32.883],[-87.526,32.018],[-87.303,31.628],[-86.62,31.279],[-85.099,30.679],[-84.415,30.18],[-83.899,29.507],[-83.737,28.855],[-83.732,28.433],[-84.099,27.99],[-84.597,27.749],[-85.252,27.61],[-86.048,27.568],[-87.61,27.833],[-88.475,28.056],[-89.606,28.31],[-90.777,28.378],[-91.753,28.573],[-92.014,28.852],[-92.023,29.261],[-91.884,29.475],[-91.642,29.596],[-91.279,30.173],[-90.805,30.791],[-90.735,31.209],[-90.512,31.628],[-90.289,32.186],[-89.842,33.078],[-89.173,34.899],[-89.019,35.199]]]}},{"type":"Feature","properties":{"density":2},"geometry":{"type":"Polygon","coordinates":[[[-119.679,37.635],[-119.725,37.706],[-119.873,37.814],[-120.037,37.98],[-120.312,38.207],[-120.33,38.354],[-120.297,38.402],[-120.117,38.417],[-120.069,38.448],[-120.004,38.616],[-119.982,38.629],[-119.94,38.619],[-119.888,38.566],[-119.638,37.899],[-119.583,37.798],[-119.53,37.646],[-119.53,37.603],[-119.553,37.565],[-119.597,37.563],[-119.663,37.597],[-119.679,37.635]]]}},{"type":"Feature","properties":{"density":3},"geometry":{"type":"Polygon","coordinates":[[[-121.118,49.048],[-121.149,49.111],[-121.281,49.15],[-121.075,49.217],[-121.075,49.186],[-121.12,49.152],[-121.013,49.06],[-121.017,49.0],[-120.999,48.962],[-121.02,48.925],[-121.091,48.931],[-121.119,48.949],[-121.118,49.048]]]}},{"type":"Feature","properties":{"density":3},"geometry":{"type":"Polygon","coordinates":[[[-121.211,48.858],[-121.11,48.83],[-121.054,48.795],[-121.042,48.748],[-121.071,48.746],[-121.105,48.78],[-121.226,48.818],[-121.228,48.854],[-121.211,48.858]]]}},{"type":"Feature","properties":{"density":3},"geometry":{"type":"Polygon","coordinates":[[[-120.871,48.396],[-120.791,48.402],[-120.727,48.385],[-120.691,48.366],[-120.661,48.311],[-120.774,48.354],[-120.89,48.35],[-120.895,48.37],[-120.871,48.396]]]}},{"type":"Feature","properties":{"density":3},"geometry":{"type":"Polygon","coordinates":[[[-118.057,49.387],[-118.079,49.433],[-118.001,49.435],[-117.989,49.415],[-117.999,49.395],[-118.057,49.387]]]}},{"type":"Feature","properties":{"density":3},"geometry":{"type":"Polygon","coordinates":[[[-121.117,48.979],[-121.125,49.066],[-121.15,49.099],[-121.168,49.117],[-121.328,49.152],[-121.386,49.224],[-121.421,49.321],[-121.491,49.363],[-121.483,49.391],[-121.413,49.353],[-121.342,49.198],[-121.284,49.159],[-121.19,49.159],[-121.072,49.232],[-121.04,49.222],[-121.098,49.15],[-121.052,49.092],[-121.008,49.118],[-120.967,49.103],[-121.011,49.033],[-121.011,48.949],[-121.046,48.91],[-121.106,48.952],[-121.117,48.979]]]}},{"type":"Feature","properties":{"density":3},"geometry":{"type":"Polygon","coordinates":[[[-121.204,48.867],[-121.16,48.842],[-121.073,48.834],[-121.034,48.802],[-121.015,48.762],[-121.061,48.755],[-121.114,48.789],[-121.223,48.818],[-121.23,48.847],[-121.204,48.867]]]}},{"type":"Feature","properties":{"density":3},"geometry":{"type":"Polygon","coordinates":[[[-119.621,37.627],[-119.664,37.687],[-119.775,37.788],[-119.816,37.851],[-119.744,37.853],[-119.663,37.789],[-119.576,37.674],[-119.565,37.623],[-119.578,37.588],[-119.6,37.577],[-119.631,37.592],[-119.621,37.627]]]}},{"type":"Feature","properties":{"density":3},"geometry":{"type":"Polygon","coordinates":[[[-94.389,29.55],[-94.45,29.577],[-94.545,29.57],[-94.569,29.589],[-94.619,29.657],[-94.593,29.744],[-94.463,29.754],[-94.33,29.716],[-94.297,29.689],[-94.28,29.625],[-94.304,29.55],[-94.322,29.54],[-94.389,29.55]]]}},{"type":"Feature","properties":{"density":3},"geometry":{"type":"Polygon","coordinates":[[[-118.051,49.433],[-118.023,49.526],[-118.045,49.559],[-118.114,49.534],[-118.127,49.504],[-118.091,49.439],[-118.059,49.423],[-118.051,49.433]]]}},{"type":"Feature","properties":{"density":3},"geometry":{"type":"Polygon","coordinates":[[[-120.983,49.109],[-120.929,49.225],[-120.896,49.262],[-120.737,49.377],[-120.659,49.355],[-120.648,49.336],[-120.657,49.306],[-120.742,49.196],[-120.868,49.092],[-121.024,48.929],[-121.053,48.921],[-121.098,48.97],[-121.113,49.043],[-121.165,49.12],[-121.161,49.141],[-121.142,49.147],[-121.014,49.102],[-120.983,49.109]]]}},{"type":"Feature","properties":{"density":3},"geometry":{"type":"Polygon","coordinates":[[[-121.312,49.699],[-121.226,49.796],[-121.144,49.834],[-121.158,49.806],[-121.306,49.677],[-121.318,49.679],[-121.312,49.699]]]}},{"type":"Feature","properties":{"density":3},"geometry":{"type":"Polygon","coordinates":[[[-121.147,48.813],[-121.111,48.889],[-121.081,48.895],[-121.084,48.853],[-121.128,48.783],[-121.144,48.788],[-121.147,48.813]]]}},{"type":"Feature","properties":{"density":3},"geometry":{"type":"Polygon","coordinates":[[[-124.55,49.041],[-124.536,49.058],[-124.514,49.055],[-124.533,49.017],[-124.548,49.017],[-124.55,49.041]]]}},{"type":"Feature","properties":{"density":3},"geometry":{"type":"Polygon","coordinates":[[[-94.386,29.546],[-94.447,29.57],[-94.548,29.559],[-94.612,29.577],[-94.7,29.568],[-94.792,29.61],[-94.814,29.646],[-94.907,29.658],[-94.939,29.68],[-94.891,29.763],[-94.874,29.828],[-94.892,30.023],[-94.829,30.218],[-94.83,30.323],[-94.815,30.375],[-94.759,30.435],[-94.722,30.437],[-94.688,30.409],[-94.482,29.994],[-94.201,29.717],[-94.186,29.671],[-94.204,29.627],[-94.333,29.555],[-94.386,29.546]]]}},{"type":"Feature","properties":{"density":3},"geometry":{"type":"Polygon","coordinates":[[[-90.503,35.701],[-90.331,35.837],[-90.327,35.88],[-90.385,35.904],[-90.468,35.876],[-90.544,35.73],[-90.537,35.688],[-90.503,35.701]]]}},{"type":"Feature","properties":{"density":3},"geometry":{"type":"Polygon","coordinates":[[[-119.651,37.62],[-119.684,37.686],[-119.826,37.873],[-119.826,37.93],[-119.813,37.938],[-119.772,37.932],[-119.621,37.777],[-119.546,37.675],[-119.546,37.63],[-119.581,37.572],[-119.62,37.578],[-119.651,37.62]]]}}]}