{"type":"FeatureCollection","features":[{"type":"Feature","properties":{"density":1},"geometry":{"type":"Polygon","coordinates":[[[-87.571,25.908],[-88.042,26.661],[-88.387,27.289],[-89.109,29.078],[-89.235,29.8],[-89.14,30.616],[-88.952,31.307],[-88.419,32.217],[-87.634,33.253],[-86.472,33.881],[-85.531,34.163],[-84.997,34.163],[-84.118,33.787],[-83.93,33.535],[-83.93,33.222],[-84.15,32.845],[-84.401,32.751],[-84.84,32.343],[-85.185,31.809],[-85.311,31.527],[-85.248,31.056],[-85.154,30.962],[-84.777,30.71],[-84.275,30.648],[-83.71,30.71],[-83.239,30.71],[-81.639,30.428],[-80.979,30.459],[-79.159,30.899],[-77.307,31.307],[-75.769,31.778],[-74.607,32.248],[-70.59,33.065],[-66.854,34.289],[-64.689,34.854],[-60.953,36.58],[-59.039,37.177],[-57.469,37.993],[-55.931,38.746],[-53.389,40.158],[-50.94,41.132],[-49.465,41.791],[-48.46,42.45],[-46.295,43.957],[-45.165,44.961],[-44.568,45.4],[-44.129,45.683],[-43.689,45.683],[-43.501,45.526],[-43.47,44.741],[-44.097,43.988],[-45.259,42.795],[-46.797,41.445],[-48.523,39.845],[-50.124,38.432],[-51.694,37.553],[-53.169,36.957],[-54.581,36.172],[-57.877,34.446],[-59.258,33.692],[-61.142,32.5],[-62.272,31.37],[-63.527,30.208],[-64.029,29.298],[-64.594,28.011],[-64.908,27.415],[-66.132,24.684],[-66.415,23.585],[-66.886,22.141],[-67.105,21.231],[-67.388,20.289],[-67.482,18.532],[-67.262,17.904],[-66.697,17.182],[-65.191,16.083],[-63.464,15.487],[-62.68,15.33],[-61.518,15.424],[-59.917,16.115],[-58.379,16.931],[-57.344,17.056],[-56.747,16.742],[-56.276,16.585],[-53.954,16.334],[-52.792,16.272],[-51.003,17.088],[-49.559,17.935],[-48.241,18.94],[-47.362,20.195],[-46.64,20.729],[-46.2,22.235],[-45.259,24.401],[-43.501,25.751],[-41.837,26.347],[-39.42,26.881],[-37.317,27.289],[-36.03,27.76],[-35.434,28.482],[-34.775,29.518],[-33.519,30.585],[-32.232,31.589],[-31.259,32.092],[-30.443,32.343],[-29.91,32.657],[-29.188,32.97],[-27.21,33.567],[-24.919,34.006],[-24.04,34.54],[-23.632,35.199],[-23.381,35.419],[-23.224,36.298],[-23.632,37.02],[-24.605,37.585],[-25.955,37.898],[-26.834,38.432],[-27.744,38.526],[-28.905,38.84],[-29.596,39.28],[-30.286,40.033],[-31.291,41.351],[-32.264,43.078],[-32.64,45.62],[-32.64,47.252],[-32.264,48.571],[-31.887,49.983],[-29.784,52.369],[-27.587,53.781],[-25.609,54.566],[-23.506,55.068],[-21.309,56.01],[-18.327,56.606],[-14.937,57.548],[-11.422,57.893],[-9.35,59.023],[-8.973,61.158],[-9.789,62.507],[-10.825,63.48],[-13.399,65.301],[-18.076,67.53],[-21.215,68.785],[-23.506,69.287],[-26.708,69.852],[-29.282,69.915],[-32.358,69.821],[-38.196,69.947],[-42.34,70.292],[-45.918,69.821],[-50.25,69.695],[-50.94,69.57],[-52.761,69.821],[-56.025,69.695],[-57.5,69.601],[-60.577,68.44],[-62.554,67.843],[-63.621,66.996],[-64.124,66.305],[-64.375,65.175],[-64.343,64.767],[-63.998,63.323],[-63.59,62.35],[-62.962,61.534],[-62.46,60.687],[-59.572,58.458],[-58.191,57.36],[-56.465,55.413],[-55.962,54.472],[-55.554,53.279],[-55.649,52.651],[-55.931,51.992],[-56.716,51.458],[-58.128,50.956],[-59.227,50.862],[-60.608,51.521],[-62.24,52.494],[-64.563,53.781],[-66.132,54.786],[-68.424,55.476],[-71.217,55.727],[-73.289,55.727],[-75.392,55.822],[-78.782,54.974],[-80.006,54.566],[-81.544,53.467],[-82.015,51.615],[-82.392,50.705],[-83.459,50.015],[-85.374,49.575],[-86.127,49.607],[-87.069,50.203],[-87.54,50.799],[-87.854,51.647],[-87.602,52.4],[-86.535,54.095],[-84.683,55.445],[-80.854,57.203],[-76.051,58.019],[-71.845,58.898],[-67.953,61.126],[-67.357,62.319],[-66.854,64.202],[-66.98,65.96],[-68.8,68.126],[-70.15,68.565],[-72.975,67.718],[-74.764,66.557],[-76.648,65.74],[-78.28,64.987],[-80.948,64.077],[-82.957,63.48],[-85.029,63.261],[-86.535,63.261],[-88.042,63.857],[-89.235,64.359],[-91.275,65.678],[-94.414,67.216],[-96.36,68.126],[-98.18,68.503],[-101.131,68.565],[-102.857,68.126],[-104.27,67.655],[-105.463,67.373],[-107.534,66.682],[-112.211,67.875],[-115.444,68.503],[-120.247,69.727],[-122.287,69.978],[-131.484,70.763],[-136.192,71.485],[-140.744,71.987],[-144.542,71.987],[-152.766,72.489],[-157.725,71.736],[-158.573,71.139],[-158.792,70.543],[-158.761,70.072],[-158.541,69.538],[-157.819,68.817],[-156.815,67.938],[-155.528,67.247],[-154.147,66.902],[-149.69,66.148],[-146.739,65.615],[-143.443,65.113],[-139.614,64.642],[-137.511,64.579],[-135.314,64.422],[-134.058,63.888],[-131.798,62.978],[-131.39,62.413],[-130.919,61.817],[-130.637,61.377],[-130.417,60.75],[-130.323,60.342],[-130.511,59.902],[-130.26,59.306],[-128.785,59.023],[-127.874,58.898],[-125.897,58.584],[-125.049,58.395],[-124.39,57.768],[-124.265,57.36],[-124.296,57.14],[-124.924,57.077],[-126.054,57.485],[-126.87,57.83],[-127.749,58.333],[-129.287,58.27],[-129.946,57.736],[-130.385,57.046],[-131.202,55.822],[-131.484,54.66],[-131.955,53.185],[-131.767,51.929],[-131.672,51.113],[-131.515,50.109],[-131.515,48.916],[-131.641,47.88],[-131.735,47.472],[-132.394,46.06],[-132.645,45.463],[-132.802,44.49],[-132.551,43.957],[-132.143,43.517],[-131.672,43.454],[-131.013,43.705],[-130.009,43.988],[-129.099,44.396],[-128.157,44.427],[-127.341,44.333],[-127.121,44.176],[-126.682,43.957],[-126.682,43.392],[-127.121,42.481],[-127.309,41.288],[-127.749,39.28],[-127.78,38.369],[-127.278,36.612],[-125.552,34.697],[-124.359,34.038],[-123.135,32.154],[-122.821,30.616],[-122.821,28.827],[-123.731,27.007],[-124.673,25.28],[-125.426,23.522],[-125.74,21.168],[-125.489,18.783],[-125.049,16.554],[-124.547,15.424],[-123.919,14.577],[-122.57,13.541],[-121.691,13.352],[-121.094,13.541],[-120.78,14.294],[-120.624,15.173],[-119.556,17.339],[-118.332,18.28],[-116.982,19.065],[-115.601,19.41],[-113.906,19.253],[-112.651,18.72],[-111.207,17.213],[-110.422,16.02],[-109.292,14.2],[-106.122,11.783],[-105.18,10.935],[-103.611,9.9],[-102.512,9.24],[-100.974,8.55],[-99.624,8.362],[-98.4,8.55],[-97.741,8.927],[-96.768,9.617],[-95.795,10.778],[-93.629,12.285],[-91.369,12.756],[-90.522,13.321],[-90.302,13.792],[-90.584,14.451],[-91.62,14.859],[-92.625,15.863],[-93.221,16.648],[-93.347,17.307],[-93.441,19.191],[-92.907,20.948],[-91.714,22.141],[-90.114,22.706],[-88.952,23.177],[-87.289,23.899],[-87.069,24.15],[-86.786,24.558],[-86.629,24.935],[-86.629,25.28],[-86.724,25.5],[-86.88,25.782],[-87.069,25.877],[-87.194,25.908],[-87.571,25.908]]]}},{"type":"Feature","properties":{"density":1},"geometry":{"type":"Polygon","coordinates":[[[-89.21,30.902],[-89.235,30.827],[-89.388,30.608],[-89.442,30.571],[-89.508,30.592],[-89.458,30.683],[-89.31,30.848],[-89.252,30.902],[-89.223,30.914],[-89.21,30.902]]]}},{"type":"Feature","properties":{"density":1},"geometry":{"type":"Polygon","coordinates":[[[-93.519,33.641],[-93.05,33.34],[-93.02,33.343],[-93.001,33.363],[-93.009,33.409],[-93.376,33.627],[-93.508,33.657],[-93.519,33.641]]]}},{"type":"Feature","properties":{"density":1},"geometry":{"type":"Polygon","coordinates":[[[-104.814,37.53],[-105.12,37.349],[-105.377,37.299],[-106.116,37.006],[-106.211,37.014],[-106.245,37.084],[-106.216,37.125],[-106.005,37.27],[-105.583,37.535],[-105.364,37.597],[-104.835,37.667],[-104.819,37.654],[-104.814,37.53]]]}},{"type":"Feature","properties":{"density":1},"geometry":{"type":"Polygon","coordinates":[[[-105.013,37.911],[-105.583,37.605],[-106.001,37.44],[-106.753,37.419],[-106.997,37.378],[-107.113,37.415],[-107.183,37.485],[-107.142,37.564],[-107.055,37.634],[-106.174,37.762],[-105.67,37.931],[-105.505,38.006],[-105.385,38.035],[-105.162,38.076],[-105.058,38.068],[-105.058,38.031],[-104.98,37.973],[-104.984,37.944],[-105.013,37.911]]]}},{"type":"Feature","properties":{"density":1},"geometry":{"type":"Polygon","coordinates":[[[-96.551,37.974],[-96.616,37.871],[-96.63,37.819],[-96.636,37.768],[-96.612,37.696],[-96.568,37.663],[-96.322,37.593],[-96.257,37.615],[-96.261,37.667],[-96.344,37.773],[-96.386,37.854],[-96.516,37.974],[-96.551,37.974]]]}},{"type":"Feature","properties":{"density":1},"geometry":{"type":"Polygon","coordinates":[[[-92.474,17.896],[-92.609,18.036],[-92.802,18.177],[-92.921,18.213],[-92.998,18.218],[-93.089,18.196],[-93.232,18.114],[-93.282,18.072],[-93.309,18.02],[-93.293,17.929],[-93.251,17.912],[-93.108,17.91],[-92.893,17.981],[-92.786,17.992],[-92.653,17.959],[-92.471,17.871],[-92.474,17.896]]]}},{"type":"Feature","properties":{"density":1},"geometry":{"type":"Polygon","coordinates":[[[-92.915,17.75],[-93.045,17.786],[-93.097,17.855],[-93.1,17.904],[-93.056,17.915],[-93.014,17.888],[-92.912,17.769],[-92.915,17.75]]]}},{"type":"Feature","properties":{"density":1},"geometry":{"type":"Polygon","coordinates":[[[-93.174,17.888],[-93.439,17.838],[-93.576,17.777],[-93.662,17.777],[-93.673,17.805],[-93.673,17.855],[-93.62,17.882],[-93.328,17.94],[-93.196,17.921],[-93.163,17.89],[-93.174,17.888]]]}},{"type":"Feature","properties":{"density":1},"geometry":{"type":"Polygon","coordinates":[[[-89.909,19.794],[-90.037,19.856],[-90.132,19.93],[-90.161,19.984],[-90.141,20.0],[-90.095,19.996],[-89.901,19.81],[-89.909,19.794]]]}},{"type":"Feature","properties":{"density":1},"geometry":{"type":"Polygon","coordinates":[[[-91.157,18.199],[-91.419,18.411],[-91.485,18.505],[-91.474,18.549],[-91.432,18.549],[-91.372,18.513],[-91.129,18.224],[-91.157,18.199]]]}},{"type":"Feature","properties":{"density":1},"geometry":{"type":"Polygon","coordinates":[[[-79.666,22.591],[-80.098,22.848],[-80.137,22.96],[-80.1,23.003],[-80.032,23.003],[-79.885,22.955],[-79.758,22.856],[-79.718,22.791],[-79.707,22.668],[-79.661,22.619],[-79.666,22.591]]]}},{"type":"Feature","properties":{"density":1},"geometry":{"type":"Polygon","coordinates":[[[-78.202,21.586],[-78.283,21.605],[-78.48,21.689],[-78.509,21.717],[-78.505,21.75],[-78.204,21.63],[-78.18,21.616],[-78.202,21.586]]]}},{"type":"Feature","properties":{"density":1},"geometry":{"type":"Polygon","coordinates":[[[-76.178,20.449],[-76.341,20.515],[-76.359,20.557],[-76.301,20.556],[-76.163,20.453],[-76.178,20.449]]]}},{"type":"Feature","properties":{"density":1},"geometry":{"type":"Polygon","coordinates":[[[-80.812,26.359],[-81.002,26.86],[-81.004,26.982],[-80.981,26.993],[-80.948,26.963],[-80.847,26.723],[-80.805,26.566],[-80.796,26.48],[-80.812,26.359]]]}},{"type":"Feature","properties":{"density":1},"geometry":{"type":"Polygon","coordinates":[[[-79.658,33.162],[-79.184,33.694],[-79.129,33.807],[-79.239,33.791],[-79.465,33.526],[-79.65,33.24],[-79.664,33.204],[-79.658,33.162]]]}},{"type":"Feature","properties":{"density":1},"geometry":{"type":"Polygon","coordinates":[[[-80.242,33.937],[-80.036,34.099],[-79.989,34.157],[-79.961,34.229],[-80.201,34.022],[-80.251,33.967],[-80.259,33.948],[-80.242,33.937]]]}},{"type":"Feature","properties":{"density":1},"geometry":{"type":"Polygon","coordinates":[[[-94.07,32.27],[-94.053,32.231],[-93.926,32.154],[-93.772,32.094],[-93.731,32.085],[-93.695,32.096],[-93.687,32.121],[-93.703,32.149],[-93.772,32.196],[-93.935,32.259],[-94.07,32.27]]]}},{"type":"Feature","properties":{"density":1},"geometry":{"type":"Polygon","coordinates":[[[-129.617,66.37],[-129.989,66.412],[-130.469,66.37],[-130.514,66.333],[-130.477,66.304],[-130.407,66.292],[-130.258,66.284],[-129.939,66.3],[-129.778,66.288],[-129.584,66.329],[-129.617,66.37]]]}},{"type":"Feature","properties":{"density":1},"geometry":{"type":"Polygon","coordinates":[[[-126.802,66.313],[-127.133,66.304],[-127.811,66.383],[-127.914,66.42],[-127.926,66.482],[-127.497,66.499],[-127.009,66.432],[-126.781,66.379],[-126.769,66.346],[-126.802,66.313]]]}},{"type":"Feature","properties":{"density":1},"geometry":{"type":"Polygon","coordinates":[[[-119.443,65.363],[-119.629,65.317],[-120.15,65.309],[-120.208,65.322],[-120.394,65.417],[-120.493,65.594],[-120.481,65.677],[-120.435,65.702],[-120.154,65.66],[-119.807,65.561],[-119.46,65.4],[-119.431,65.367],[-119.443,65.363]]]}},{"type":"Feature","properties":{"density":1},"geometry":{"type":"Polygon","coordinates":[[[-100.991,57.536],[-100.867,57.247],[-100.814,57.164],[-100.698,57.09],[-100.599,57.069],[-100.417,57.114],[-100.342,57.172],[-100.293,57.263],[-100.297,57.367],[-100.355,57.445],[-100.516,57.52],[-100.752,57.582],[-100.942,57.573],[-100.975,57.565],[-100.991,57.536]]]}},{"type":"Feature","properties":{"density":1},"geometry":{"type":"Polygon","coordinates":[[[-101.334,57.681],[-101.157,57.573],[-101.062,57.54],[-101.0,57.54],[-100.929,57.573],[-100.95,57.631],[-101.091,57.718],[-101.293,57.722],[-101.33,57.706],[-101.334,57.681]]]}},{"type":"Feature","properties":{"density":1},"geometry":{"type":"Polygon","coordinates":[[[-103.342,55.499],[-103.092,55.552],[-103.017,55.596],[-103.012,55.632],[-103.103,55.665],[-103.414,55.557],[-103.411,55.516],[-103.342,55.499]]]}},{"type":"Feature","properties":{"density":1},"geometry":{"type":"Polygon","coordinates":[[[-81.017,22.465],[-81.12,22.519],[-81.208,22.514],[-81.234,22.494],[-81.218,22.434],[-81.165,22.412],[-81.043,22.424],[-81.008,22.451],[-81.017,22.465]]]}},{"type":"Feature","properties":{"density":1},"geometry":{"type":"Polygon","coordinates":[[[-89.226,30.929],[-89.257,30.909],[-89.387,30.701],[-89.496,30.602],[-89.505,30.565],[-89.485,30.543],[-89.435,30.539],[-89.33,30.66],[-89.211,30.88],[-89.202,30.917],[-89.226,30.929]]]}},{"type":"Feature","properties":{"density":1},"geometry":{"type":"Polygon","coordinates":[[[-94.066,32.322],[-94.096,32.295],[-94.099,32.226],[-94.052,32.146],[-93.966,32.05],[-93.834,31.994],[-93.765,31.992],[-93.732,32.014],[-93.724,32.102],[-93.76,32.174],[-93.878,32.262],[-94.066,32.322]]]}},{"type":"Feature","properties":{"density":1},"geometry":{"type":"Polygon","coordinates":[[[-93.499,33.664],[-93.517,33.669],[-93.525,33.644],[-93.413,33.528],[-93.34,33.484],[-93.281,33.505],[-93.296,33.563],[-93.329,33.591],[-93.499,33.664]]]}},{"type":"Feature","properties":{"density":1},"geometry":{"type":"Polygon","coordinates":[[[-106.134,38.12],[-106.222,38.082],[-106.247,38.054],[-106.261,37.993],[-106.195,37.894],[-106.046,37.831],[-105.53,37.795],[-105.2,37.801],[-105.04,37.823],[-104.968,37.858],[-104.952,37.894],[-104.941,37.982],[-105.04,38.079],[-105.451,38.178],[-105.558,38.197],[-105.996,38.156],[-106.134,38.12]]]}},{"type":"Feature","properties":{"density":1},"geometry":{"type":"Polygon","coordinates":[[[-96.53,37.975],[-96.673,37.92],[-96.801,37.797],[-96.819,37.745],[-96.832,37.676],[-96.812,37.594],[-96.775,37.531],[-96.664,37.484],[-96.491,37.48],[-96.429,37.513],[-96.372,37.576],[-96.372,37.678],[-96.398,37.748],[-96.44,37.812],[-96.499,37.967],[-96.53,37.975]]]}},{"type":"Feature","properties":{"density":1},"geometry":{"type":"Polygon","coordinates":[[[-69.034,33.534],[-66.774,34.946],[-63.737,36.712],[-60.559,38.477],[-57.734,39.113],[-53.072,40.455],[-50.106,40.949],[-48.788,40.675],[-48.505,40.11],[-49.777,38.627],[-52.853,36.861],[-58.087,35.017],[-61.265,33.604],[-64.16,31.909],[-66.915,30.002],[-68.584,28.205],[-69.81,25.906],[-70.164,22.587],[-69.599,18.702],[-67.892,16.576],[-65.432,14.889],[-62.277,14.351],[-58.675,15.674],[-57.095,17.826],[-55.547,20.149],[-52.387,23.56],[-47.951,26.28],[-42.62,27.531],[-37.278,27.871],[-32.193,28.561],[-28.495,30.002],[-25.599,32.051],[-25.034,35.37],[-25.882,36.994],[-28.0,39.042],[-29.13,41.091],[-30.402,43.845],[-30.402,47.164],[-28.565,52.037],[-26.596,54.049],[-22.986,55.498],[-20.02,55.498],[-16.618,55.561],[-13.228,57.362],[-12.593,61.282],[-14.711,64.672],[-20.797,67.01],[-30.331,69.199],[-41.286,69.916],[-48.113,70.246],[-52.86,70.894],[-59.64,71.247],[-65.432,71.389],[-69.669,71.742],[-76.308,71.812],[-81.393,72.095],[-87.114,71.954],[-94.105,71.318],[-98.343,70.471],[-102.792,69.623],[-108.298,68.231],[-111.248,67.697],[-115.081,67.363],[-119.531,68.493],[-126.099,70.188],[-128.641,70.824],[-134.574,71.601],[-138.741,71.954],[-144.391,71.601],[-146.227,70.329],[-146.792,68.564],[-146.439,66.162],[-143.896,63.479],[-141.212,61.431],[-138.387,58.888],[-136.112,54.802],[-135.264,50.471],[-135.076,45.574],[-132.957,41.525],[-130.273,39.218],[-127.825,38.041],[-126.883,37.24],[-125.463,36.288],[-123.132,33.11],[-122.002,31.697],[-121.437,29.932],[-120.943,27.036],[-119.742,23.858],[-117.977,21.527],[-116.768,20.447],[-115.23,19.317],[-112.437,16.963],[-110.349,15.383],[-105.688,11.993],[-102.015,10.369],[-98.272,10.157],[-95.589,10.581],[-93.752,12.064],[-93.416,14.257],[-93.518,17.484],[-93.295,18.879],[-92.795,20.201],[-91.477,21.425],[-89.489,21.99],[-86.475,21.844],[-84.571,22.21],[-82.52,22.848],[-81.39,23.769],[-80.7,24.794],[-80.114,26.364],[-79.026,27.871],[-78.042,29.126],[-75.845,30.696],[-72.298,31.721],[-70.948,32.38],[-70.603,32.757],[-70.226,33.039],[-69.034,33.534]]]}},{"type":"Feature","properties":{"density":1},"geometry":{"type":"Polygon","coordinates":[[[-94.105,32.305],[-94.149,32.206],[-94.169,32.07],[-94.14,31.894],[-94.101,31.824],[-94.05,31.78],[-93.906,31.727],[-93.827,31.734],[-93.758,31.771],[-93.686,31.842],[-93.646,31.929],[-93.647,31.991],[-93.706,32.098],[-93.813,32.21],[-93.932,32.298],[-94.066,32.326],[-94.105,32.305]]]}},{"type":"Feature","properties":{"density":1},"geometry":{"type":"Polygon","coordinates":[[[-75.499,20.813],[-75.576,20.762],[-75.602,20.681],[-75.589,20.578],[-75.545,20.516],[-75.459,20.466],[-75.249,20.462],[-75.051,20.556],[-74.911,20.598],[-74.911,20.637],[-74.937,20.674],[-75.034,20.738],[-75.269,20.806],[-75.499,20.813]]]}},{"type":"Feature","properties":{"density":1},"geometry":{"type":"Polygon","coordinates":[[[-71.169,19.351],[-71.274,19.338],[-71.31,19.287],[-71.312,19.252],[-71.264,19.221],[-71.162,19.27],[-71.121,19.32],[-71.139,19.346],[-71.169,19.351]]]}},{"type":"Feature","properties":{"density":1},"geometry":{"type":"Polygon","coordinates":[[[-80.937,26.406],[-80.906,26.373],[-80.779,26.356],[-80.741,26.409],[-80.73,26.615],[-80.788,26.8],[-80.862,26.968],[-80.912,27.02],[-81.003,27.073],[-81.044,27.073],[-81.08,27.037],[-81.102,26.954],[-81.091,26.839],[-80.989,26.511],[-80.937,26.406]]]}},{"type":"Feature","properties":{"density":1},"geometry":{"type":"Polygon","coordinates":[[[-105.994,38.158],[-106.156,38.116],[-106.203,38.039],[-106.206,37.951],[-106.145,37.866],[-105.93,37.791],[-105.294,37.777],[-105.117,37.838],[-105.046,37.907],[-105.043,37.968],[-105.062,38.006],[-105.131,38.067],[-105.63,38.147],[-105.994,38.158]]]}},{"type":"Feature","properties":{"density":1},"geometry":{"type":"Polygon","coordinates":[[[-81.924,33.935],[-80.088,32.593],[-77.828,31.04],[-75.356,30.404],[-71.684,30.545],[-67.658,31.322],[-65.963,32.311],[-64.55,33.794],[-62.926,35.701],[-61.09,37.113],[-58.971,38.596],[-56.429,39.303],[-54.522,39.585],[-51.697,40.291],[-49.366,40.645],[-49.013,39.726],[-50.002,38.385],[-54.169,36.478],[-58.9,34.571],[-62.785,32.24],[-67.658,28.003],[-69.565,25.955],[-70.412,23.765],[-70.554,20.87],[-69.353,16.915],[-66.104,15.078],[-62.714,14.372],[-58.547,14.16],[-55.934,14.796],[-53.674,16.35],[-51.556,19.386],[-49.719,21.646],[-46.753,24.542],[-39.549,26.661],[-33.546,27.579],[-30.58,27.932],[-28.037,28.568],[-25.424,29.768],[-23.306,32.523],[-21.822,35.489],[-20.481,38.526],[-19.845,41.492],[-19.28,44.317],[-18.856,46.93],[-18.856,49.543],[-19.421,52.651],[-20.904,56.535],[-22.034,59.36],[-22.741,60.208],[-25.212,62.821],[-27.967,63.81],[-30.297,64.092],[-35.382,64.092],[-37.925,63.174],[-41.527,60.914],[-43.575,59.29],[-45.129,58.371],[-46.682,57.171],[-48.66,56.182],[-52.827,55.335],[-56.994,54.699],[-61.867,55.193],[-68.717,58.442],[-70.977,60.137],[-73.025,63.174],[-74.155,65.928],[-75.85,68.965],[-76.769,70.095],[-80.017,71.296],[-82.701,72.002],[-86.232,71.931],[-93.577,70.66],[-101.275,70.519],[-108.55,71.013],[-112.717,71.437],[-122.11,72.285],[-127.972,72.426],[-133.763,72.708],[-142.52,72.073],[-145.698,70.801],[-147.182,67.482],[-146.758,63.668],[-143.65,61.055],[-142.167,59.784],[-140.896,58.018],[-139.695,55.405],[-138.565,52.58],[-136.447,50.744],[-132.28,49.261],[-130.797,48.555],[-128.607,46.577],[-127.901,44.176],[-127.83,42.34],[-126.842,39.868],[-125.429,37.749],[-122.675,36.972],[-119.073,37.113],[-115.542,38.314],[-111.657,39.02],[-108.197,39.797],[-104.524,40.221],[-97.885,38.808],[-93.86,37.82],[-89.764,36.478],[-86.02,35.418],[-84.961,35.136],[-81.924,33.935]]]}},{"type":"Feature","properties":{"density":1},"geometry":{"type":"Polygon","coordinates":[[[-107.812,18.624],[-107.907,17.683],[-107.53,15.674],[-106.965,14.167],[-106.306,12.786],[-105.521,11.624],[-104.234,10.526],[-103.23,9.867],[-102.005,9.49],[-100.436,9.333],[-98.521,9.427],[-96.764,9.553],[-95.194,10.243],[-93.53,11.781],[-92.777,13.288],[-92.212,14.544],[-91.804,16.019],[-91.553,17.777],[-91.553,19.189],[-91.71,20.256],[-91.898,20.978],[-92.275,22.077],[-93.656,23.395],[-95.037,24.054],[-96.167,24.054],[-96.826,23.584],[-97.391,22.297],[-97.611,20.602],[-97.894,18.624],[-98.615,16.772],[-99.683,16.396],[-100.907,16.553],[-101.66,17.4],[-102.633,19.189],[-103.355,19.943],[-104.203,20.351],[-105.49,20.602],[-106.714,20.256],[-107.624,19.503],[-107.812,18.624]]]}},{"type":"Feature","properties":{"density":1},"geometry":{"type":"Polygon","coordinates":[[[-105.764,38.537],[-105.827,38.471],[-105.835,38.339],[-105.788,38.218],[-105.648,38.033],[-105.502,37.945],[-105.408,37.912],[-105.116,37.881],[-105.036,37.884],[-104.97,37.928],[-104.94,37.983],[-104.951,38.052],[-105.0,38.124],[-105.155,38.231],[-105.438,38.477],[-105.629,38.565],[-105.764,38.537]]]}},{"type":"Feature","properties":{"density":1},"geometry":{"type":"Polygon","coordinates":[[[-98.256,25.019],[-98.305,24.989],[-98.359,24.918],[-98.36,24.826],[-98.316,24.69],[-98.164,24.414],[-98.028,24.236],[-97.967,24.194],[-97.896,24.185],[-97.855,24.208],[-97.826,24.251],[-97.815,24.341],[-97.826,24.596],[-97.864,24.798],[-97.94,24.932],[-98.055,25.011],[-98.19,25.041],[-98.256,25.019]]]}},{"type":"Feature","properties":{"density":1},"geometry":{"type":"Polygon","coordinates":[[[-80.024,22.849],[-80.127,22.855],[-80.314,22.813],[-80.364,22.785],[-80.36,22.721],[-80.31,22.699],[-80.226,22.697],[-80.139,22.724],[-80.035,22.789],[-80.014,22.831],[-80.024,22.849]]]}},{"type":"Feature","properties":{"density":1},"geometry":{"type":"Polygon","coordinates":[[[-74.924,20.637],[-75.139,20.716],[-75.469,20.741],[-75.71,20.689],[-75.766,20.659],[-75.803,20.622],[-75.826,20.517],[-75.803,20.448],[-75.714,20.391],[-75.624,20.362],[-75.373,20.358],[-75.266,20.382],[-75.158,20.442],[-74.886,20.444],[-74.863,20.478],[-74.859,20.528],[-74.869,20.567],[-74.924,20.637]]]}},{"type":"Feature","properties":{"density":1},"geometry":{"type":"Polygon","coordinates":[[[-74.315,20.219],[-74.356,20.217],[-74.801,19.99],[-74.838,19.956],[-74.85,19.914],[-74.823,19.846],[-74.787,19.821],[-74.703,19.811],[-74.599,19.822],[-74.447,19.888],[-74.364,19.967],[-74.311,20.089],[-74.315,20.219]]]}},{"type":"Feature","properties":{"density":1},"geometry":{"type":"Polygon","coordinates":[[[-71.145,19.352],[-71.334,19.363],[-71.426,19.35],[-71.474,19.328],[-71.494,19.273],[-71.448,19.209],[-71.312,19.211],[-71.152,19.282],[-71.13,19.317],[-71.145,19.352]]]}},{"type":"Feature","properties":{"density":1},"geometry":{"type":"Polygon","coordinates":[[[-70.722,18.669],[-70.88,18.586],[-70.981,18.504],[-71.023,18.449],[-71.028,18.39],[-70.931,18.331],[-70.874,18.327],[-70.775,18.406],[-70.72,18.478],[-70.67,18.597],[-70.674,18.66],[-70.722,18.669]]]}},{"type":"Feature","properties":{"density":1},"geometry":{"type":"Polygon","coordinates":[[[-80.812,27.466],[-80.849,27.449],[-80.956,27.272],[-81.018,27.048],[-81.027,26.705],[-80.973,26.515],[-80.911,26.395],[-80.837,26.313],[-80.729,26.292],[-80.589,26.346],[-80.493,26.449],[-80.407,26.573],[-80.369,26.734],[-80.365,26.92],[-80.489,27.247],[-80.547,27.334],[-80.593,27.375],[-80.7,27.429],[-80.812,27.466]]]}},{"type":"Feature","properties":{"density":1},"geometry":{"type":"Polygon","coordinates":[[[-105.768,18.135],[-106.239,17.947],[-106.836,17.037],[-107.338,15.718],[-107.526,14.118],[-106.898,12.58],[-105.831,11.355],[-104.764,10.477],[-103.163,9.974],[-101.625,9.566],[-99.648,9.629],[-98.015,10.1],[-96.006,10.916],[-94.343,11.952],[-93.746,12.853],[-93.411,13.795],[-93.307,14.526],[-93.276,15.216],[-93.495,15.97],[-94.092,16.503],[-95.065,16.786],[-95.661,16.66],[-96.289,16.283],[-96.863,16.121],[-97.639,16.032],[-99.773,15.938],[-101.405,16.503],[-102.661,17.162],[-103.634,17.978],[-104.23,18.23],[-104.733,18.418],[-105.298,18.324],[-105.768,18.135]]]}},{"type":"Feature","properties":{"density":1},"geometry":{"type":"Polygon","coordinates":[[[-92.909,22.939],[-93.494,22.751],[-94.059,22.374],[-94.687,21.767],[-95.064,21.37],[-95.169,20.742],[-95.294,20.219],[-94.917,19.382],[-93.913,18.691],[-92.239,18.189],[-89.665,17.917],[-86.924,18.231],[-84.552,18.97],[-82.92,19.807],[-82.139,20.477],[-81.804,21.23],[-82.111,21.858],[-82.822,22.207],[-83.841,22.137],[-84.943,22.026],[-85.647,22.06],[-86.338,22.249],[-87.384,22.625],[-88.2,22.939],[-88.891,23.128],[-89.979,23.253],[-90.669,23.253],[-91.297,23.232],[-91.883,23.17],[-92.406,23.107],[-92.909,22.939]]]}},{"type":"Feature","properties":{"density":1},"geometry":{"type":"Polygon","coordinates":[[[-121.194,35.771],[-119.311,34.547],[-118.181,33.275],[-117.474,32.098],[-116.957,30.497],[-116.768,28.708],[-116.344,26.072],[-115.544,25.318],[-114.602,25.271],[-114.179,26.401],[-113.943,27.955],[-113.708,29.273],[-113.378,30.45],[-112.625,32.569],[-112.154,34.452],[-111.307,36.1],[-110.459,37.23],[-109.612,37.889],[-107.728,38.266],[-105.374,38.266],[-103.444,37.372],[-101.278,36.147],[-99.442,35.064],[-97.747,34.311],[-95.345,32.804],[-91.532,31.486],[-89.978,31.015],[-85.081,30.592],[-83.716,30.262],[-80.655,30.027],[-76.983,29.838],[-75.476,29.932],[-73.357,30.215],[-71.733,30.333],[-70.038,30.968],[-69.049,31.463],[-66.577,33.158],[-64.671,34.923],[-62.199,36.901],[-60.504,37.324],[-59.162,36.548],[-59.374,35.276],[-61.351,33.864],[-64.529,32.31],[-66.813,30.639],[-68.037,28.944],[-68.979,27.531],[-69.873,25.93],[-70.156,25.13],[-70.909,23.435],[-71.145,22.117],[-71.568,19.197],[-71.003,17.597],[-70.062,16.467],[-67.66,14.63],[-64.365,13.783],[-61.21,13.595],[-59.468,13.642],[-57.396,14.23],[-55.772,15.007],[-53.724,16.137],[-51.323,18.326],[-49.486,21.858],[-45.884,24.541],[-42.071,25.318],[-38.398,26.307],[-33.666,28.073],[-31.618,29.485],[-28.864,31.886],[-26.321,35.347],[-25.191,37.395],[-24.203,40.432],[-24.203,45.517],[-23.849,48.059],[-23.143,50.39],[-21.66,53.144],[-20.459,57.029],[-20.954,62.114],[-23.426,65.08],[-26.745,66.987],[-29.641,67.905],[-31.548,68.399],[-34.443,68.823],[-39.316,68.823],[-43.059,67.199],[-44.613,65.08],[-47.156,61.831],[-48.992,59.359],[-50.969,57.947],[-52.947,57.594],[-54.783,57.382],[-58.385,58.088],[-62.411,59.995],[-66.224,62.396],[-68.131,65.009],[-70.391,67.481],[-73.004,69.176],[-75.123,70.377],[-77.524,70.942],[-80.349,71.083],[-83.245,71.295],[-88.542,71.578],[-91.508,71.578],[-95.463,70.73],[-100.407,68.753],[-104.362,67.623],[-109.376,67.269],[-112.201,67.269],[-114.037,67.976],[-117.145,68.894],[-122.371,70.236],[-125.549,71.154],[-128.586,71.507],[-132.965,72.072],[-136.284,71.86],[-139.745,71.507],[-141.511,70.73],[-143.206,69.388],[-143.982,67.905],[-144.124,66.139],[-143.347,63.526],[-141.722,61.831],[-139.745,60.419],[-137.838,58.159],[-135.79,55.828],[-134.731,53.568],[-134.448,51.944],[-134.166,50.531],[-133.742,48.978],[-133.177,47.706],[-132.047,46.929],[-129.101,45.334],[-127.448,44.497],[-125.902,43.751],[-124.561,42.974],[-123.642,42.056],[-122.936,40.926],[-122.442,39.302],[-122.301,38.219],[-121.945,36.984],[-121.194,35.771]]]}},{"type":"Feature","properties":{"density":1},"geometry":{"type":"Polygon","coordinates":[[[-89.551,30.643],[-89.551,30.549],[-89.473,30.53],[-89.421,30.543],[-89.294,30.678],[-89.228,30.772],[-89.187,30.916],[-89.198,30.94],[-89.236,30.947],[-89.418,30.742],[-89.551,30.643]]]}},{"type":"Feature","properties":{"density":1},"geometry":{"type":"Polygon","coordinates":[[[-94.118,32.301],[-94.134,31.999],[-94.44,31.528],[-94.461,31.421],[-94.461,31.305],[-94.428,31.222],[-94.374,31.169],[-94.258,31.127],[-94.13,31.127],[-93.999,31.2],[-93.897,31.299],[-93.793,31.459],[-93.624,31.652],[-93.594,31.778],[-93.618,31.9],[-93.663,31.991],[-93.85,32.2],[-94.014,32.322],[-94.093,32.322],[-94.118,32.301]]]}},{"type":"Feature","properties":{"density":2},"geometry":{"type":"Polygon","coordinates":[[[-105.058,37.942],[-105.107,37.907],[-105.344,37.862],[-105.397,37.876],[-105.35,37.909],[-105.245,37.931],[-105.071,37.956],[-105.058,37.942]]]}},{"type":"Feature","properties":{"density":2},"geometry":{"type":"Polygon","coordinates":[[[-125.339,52.725],[-125.455,52.878],[-125.714,53.038],[-125.943,53.08],[-126.013,53.08],[-126.046,53.063],[-126.039,53.023],[-125.712,52.915],[-125.387,52.707],[-125.335,52.694],[-125.339,52.725]]]}},{"type":"Feature","properties":{"density":2},"geometry":{"type":"Polygon","coordinates":[[[-96.546,37.909],[-96.61,37.792],[-96.605,37.761],[-96.579,37.735],[-96.549,37.731],[-96.515,37.764],[-96.483,37.865],[-96.483,37.904],[-96.507,37.948],[-96.531,37.946],[-96.546,37.909]]]}},{"type":"Feature","properties":{"density":2},"geometry":{"type":"Polygon","coordinates":[[[-129.596,66.341],[-129.778,66.308],[-129.919,66.321],[-129.84,66.366],[-129.609,66.362],[-129.596,66.341]]]}},{"type":"Feature","properties":{"density":2},"geometry":{"type":"Polygon","coordinates":[[[-126.794,66.337],[-126.856,66.333],[-127.029,66.391],[-126.992,66.416],[-126.848,66.399],[-126.79,66.366],[-126.794,66.337]]]}},{"type":"Feature","properties":{"density":2},"geometry":{"type":"Polygon","coordinates":[[[-100.962,57.54],[-100.781,57.424],[-100.727,57.42],[-100.69,57.462],[-100.723,57.52],[-100.867,57.561],[-100.975,57.565],[-100.962,57.54]]]}},{"type":"Feature","properties":{"density":2},"geometry":{"type":"Polygon","coordinates":[[[-42.572,46.722],[-43.985,44.674],[-45.68,42.626],[-47.021,40.648],[-49.988,38.176],[-54.155,34.927],[-57.545,32.879],[-60.652,30.972],[-62.488,29.136],[-64.325,26.806],[-65.737,24.828],[-66.161,23.345],[-67.008,21.579],[-67.361,19.178],[-65.737,17.342],[-65.031,16.847],[-63.053,16.0],[-61.641,16.494],[-60.299,17.624],[-59.098,18.966],[-58.533,20.167],[-58.533,22.144],[-58.957,23.698],[-58.675,24.757],[-56.626,25.958],[-53.872,27.088],[-51.188,27.229],[-45.75,27.865],[-40.453,29.207],[-36.71,30.619],[-35.227,31.608],[-33.532,32.809],[-33.108,33.586],[-33.108,34.645],[-33.391,36.481],[-34.733,38.317],[-35.651,39.306],[-36.145,41.354],[-36.075,45.168],[-35.933,47.781],[-35.651,49.618],[-36.004,51.313],[-37.063,52.725],[-37.981,52.725],[-39.394,51.666],[-40.806,49.759],[-42.219,47.287],[-42.572,46.722]]]}},{"type":"Feature","properties":{"density":2},"geometry":{"type":"Polygon","coordinates":[[[-134.765,68.059],[-136.173,68.053],[-142.953,68.472],[-143.999,68.367],[-144.355,68.2],[-144.355,67.635],[-143.706,67.342],[-142.576,67.133],[-139.856,66.777],[-135.754,66.379],[-131.192,65.752],[-129.414,65.542],[-127.865,65.228],[-126.651,64.747],[-126.275,64.329],[-126.044,63.994],[-125.731,63.45],[-125.333,62.927],[-125.333,62.571],[-125.647,62.236],[-125.961,62.131],[-126.379,62.069],[-126.986,61.838],[-127.823,61.336],[-129.1,60.855],[-129.748,60.416],[-129.623,59.955],[-129.351,59.83],[-127.991,59.411],[-126.526,59.16],[-124.789,58.741],[-123.575,58.009],[-123.073,57.549],[-122.968,57.046],[-123.366,56.168],[-123.889,55.812],[-125.124,55.644],[-126.442,55.875],[-127.405,55.875],[-128.932,55.812],[-129.832,55.414],[-130.732,55.1],[-131.276,54.619],[-131.276,53.217],[-131.067,51.982],[-130.962,51.187],[-130.941,50.538],[-130.69,49.785],[-130.376,49.262],[-129.79,48.718],[-128.89,48.174],[-128.304,48.111],[-127.76,48.174],[-126.756,48.655],[-126.547,49.136],[-126.526,50.12],[-126.296,50.601],[-126.044,50.936],[-125.438,51.187],[-124.58,51.396],[-123.638,51.166],[-123.052,50.873],[-122.822,50.35],[-122.529,49.506],[-122.473,49.004],[-122.473,48.585],[-122.668,48.097],[-122.822,47.762],[-122.878,47.344],[-122.878,46.772],[-122.682,46.535],[-122.208,46.2],[-121.789,45.851],[-121.734,45.67],[-121.664,45.209],[-121.664,44.707],[-121.734,44.721],[-121.706,44.275],[-121.622,44.163],[-121.65,44.01],[-121.859,43.842],[-121.957,43.703],[-121.789,43.549],[-121.664,43.605],[-121.357,43.786],[-121.245,43.786],[-120.966,43.717],[-120.785,43.493],[-120.51,42.602],[-120.37,41.328],[-120.24,40.602],[-120.008,40.398],[-119.273,40.407],[-118.166,40.733],[-117.552,40.965],[-117.06,41.281],[-116.548,41.849],[-116.334,43.039],[-116.157,43.588],[-115.878,43.988],[-115.506,44.285],[-115.023,44.527],[-113.358,46.043],[-112.484,46.22],[-111.814,46.276],[-110.791,46.071],[-109.917,45.671],[-108.885,44.595],[-108.132,44.093],[-107.365,43.758],[-105.258,43.047],[-102.817,42.182],[-100.696,41.317],[-98.855,40.536],[-97.055,39.727],[-91.503,38.373],[-90.498,38.234],[-90.094,38.262],[-88.168,38.848],[-86.815,39.35],[-85.071,39.908],[-82.923,40.633],[-82.03,41.052],[-81.249,41.512],[-80.928,41.917],[-80.816,42.489],[-81.151,42.991],[-81.681,43.242],[-82.588,43.298],[-83.593,43.075],[-84.458,42.656],[-85.111,43.908],[-82.757,44.756],[-80.591,44.615],[-79.744,46.074],[-79.179,48.193],[-77.955,49.841],[-76.495,50.359],[-76.071,51.159],[-76.401,51.96],[-76.778,52.195],[-77.766,52.007],[-79.414,50.783],[-80.403,49.276],[-82.569,48.334],[-85.865,48.052],[-87.277,48.193],[-88.69,48.805],[-89.443,49.7],[-89.537,51.065],[-89.208,52.383],[-88.407,54.314],[-86.524,56.244],[-84.217,56.903],[-82.145,57.61],[-79.367,58.222],[-78.849,58.74],[-78.896,59.634],[-79.556,60.388],[-80.639,60.623],[-83.558,61.423],[-88.501,62.883],[-90.809,64.437],[-92.927,66.085],[-97.259,67.026],[-99.802,66.979],[-102.25,66.132],[-103.992,65.426],[-106.393,65.19],[-109.124,65.52],[-115.023,66.071],[-115.912,66.112],[-116.709,66.021],[-117.139,65.91],[-118.045,65.749],[-118.698,65.654],[-119.082,65.567],[-119.169,65.459],[-118.97,65.232],[-118.689,65.021],[-118.718,64.93],[-119.653,65.075],[-120.413,64.972],[-121.004,65.141],[-123.666,66.001],[-124.733,66.517],[-124.799,66.943],[-124.985,67.476],[-125.32,67.857],[-126.113,68.051],[-127.395,68.142],[-128.391,68.142],[-129.14,68.015],[-129.709,67.898],[-130.515,67.857],[-131.193,67.927],[-131.888,68.022],[-132.885,67.973],[-133.576,67.994],[-134.765,68.059]]]}},{"type":"Feature","properties":{"density":2},"geometry":{"type":"Polygon","coordinates":[[[-81.177,22.515],[-81.22,22.495],[-81.215,22.456],[-81.198,22.446],[-81.06,22.45],[-81.095,22.491],[-81.177,22.515]]]}},{"type":"Feature","properties":{"density":2},"geometry":{"type":"Polygon","coordinates":[[[-94.049,32.287],[-94.074,32.292],[-94.079,32.248],[-94.041,32.201],[-93.999,32.193],[-93.975,32.229],[-93.983,32.251],[-94.049,32.287]]]}},{"type":"Feature","properties":{"density":2},"geometry":{"type":"Polygon","coordinates":[[[-96.564,37.955],[-96.696,37.767],[-96.703,37.639],[-96.637,37.582],[-96.514,37.564],[-96.467,37.572],[-96.448,37.583],[-96.445,37.641],[-96.489,37.773],[-96.492,37.917],[-96.522,37.95],[-96.564,37.955]]]}},{"type":"Feature","properties":{"density":2},"geometry":{"type":"Polygon","coordinates":[[[-64.029,28.977],[-65.818,26.859],[-66.995,24.316],[-67.278,22.197],[-67.372,19.796],[-66.807,17.207],[-64.876,15.841],[-62.616,15.323],[-59.791,15.841],[-58.567,17.207],[-58.379,19.043],[-58.002,21.303],[-57.39,23.375],[-55.601,25.211],[-53.2,26.812],[-48.774,27.753],[-44.631,28.083],[-41.146,28.601],[-37.756,29.731],[-35.967,30.296],[-34.272,31.285],[-33.425,32.226],[-33.095,33.874],[-33.425,35.051],[-34.461,36.605],[-35.591,37.923],[-36.061,39.995],[-35.92,43.15],[-35.402,45.692],[-35.543,47.717],[-36.768,49.977],[-38.745,51.295],[-40.346,50.589],[-41.052,49.27],[-42.229,47.387],[-44.301,44.939],[-45.619,43.197],[-47.503,40.325],[-48.962,38.206],[-50.704,36.605],[-53.671,34.769],[-56.496,33.262],[-59.603,31.897],[-60.451,31.567],[-63.134,29.966],[-64.029,28.977]]]}},{"type":"Feature","properties":{"density":2},"geometry":{"type":"Polygon","coordinates":[[[-142.078,71.177],[-143.113,70.738],[-143.521,69.702],[-143.608,68.462],[-143.616,67.222],[-141.952,66.5],[-138.782,65.213],[-135.455,64.617],[-132.802,64.225],[-130.754,64.225],[-128.141,63.872],[-126.728,63.73],[-125.975,62.577],[-126.517,61.47],[-127.858,61.258],[-128.565,60.552],[-128.0,59.705],[-126.658,59.14],[-125.033,58.857],[-123.684,58.371],[-123.37,57.429],[-124.186,56.55],[-125.598,56.103],[-128.353,54.761],[-130.966,53.278],[-132.167,52.43],[-133.862,50.312],[-134.144,48.475],[-134.003,46.851],[-132.52,44.803],[-130.966,44.873],[-129.483,45.721],[-127.576,46.921],[-125.504,47.573],[-124.154,47.039],[-123.621,45.791],[-123.276,43.147],[-122.271,41.64],[-120.953,40.793],[-118.63,40.322],[-115.46,41.891],[-111.85,42.833],[-109.708,42.684],[-107.33,41.609],[-104.536,40.604],[-101.272,39.38],[-96.658,38.596],[-93.644,37.999],[-90.851,37.811],[-86.19,38.164],[-82.164,40.141],[-80.116,42.048],[-79.551,44.167],[-80.116,45.909],[-83.066,47.071],[-87.304,47.793],[-90.066,47.887],[-92.954,47.353],[-95.385,47.776],[-96.375,48.985],[-95.277,50.241],[-93.04,51.442],[-88.817,53.002],[-85.568,55.403],[-84.721,58.087],[-85.215,59.782],[-88.04,60.771],[-89.03,62.075],[-88.317,63.373],[-86.999,66.303],[-87.669,68.605],[-90.975,69.735],[-100.538,69.316],[-107.721,68.092],[-113.31,67.05],[-115.923,67.05],[-117.5,67.379],[-119.446,67.693],[-123.056,68.635],[-125.661,69.263],[-128.769,70.11],[-132.849,69.859],[-135.517,69.985],[-138.499,70.769],[-140.696,71.177],[-142.078,71.177]]]}},{"type":"Feature","properties":{"density":2},"geometry":{"type":"Polygon","coordinates":[[[-121.52,65.344],[-121.619,65.381],[-121.644,65.375],[-121.687,65.307],[-121.625,65.208],[-121.569,65.183],[-121.476,65.146],[-121.433,65.146],[-121.377,65.17],[-121.439,65.288],[-121.52,65.344]]]}},{"type":"Feature","properties":{"density":2},"geometry":{"type":"Polygon","coordinates":[[[-96.617,37.578],[-96.733,37.556],[-96.851,37.487],[-96.956,37.363],[-96.984,37.305],[-96.981,37.253],[-96.868,37.225],[-96.749,37.269],[-96.667,37.33],[-96.562,37.44],[-96.559,37.547],[-96.617,37.578]]]}},{"type":"Feature","properties":{"density":2},"geometry":{"type":"Polygon","coordinates":[[[-96.536,37.995],[-96.564,37.987],[-96.576,37.924],[-96.576,37.809],[-96.553,37.741],[-96.514,37.703],[-96.429,37.686],[-96.392,37.707],[-96.388,37.8],[-96.415,37.859],[-96.536,37.995]]]}},{"type":"Feature","properties":{"density":2},"geometry":{"type":"Polygon","coordinates":[[[-94.079,32.296],[-94.094,32.271],[-94.086,32.217],[-94.064,32.179],[-94.007,32.149],[-93.982,32.179],[-93.984,32.223],[-94.035,32.276],[-94.079,32.296]]]}},{"type":"Feature","properties":{"density":2},"geometry":{"type":"Polygon","coordinates":[[[-75.177,20.736],[-75.209,20.725],[-75.203,20.688],[-75.159,20.644],[-75.095,20.611],[-74.97,20.595],[-74.957,20.617],[-74.999,20.661],[-75.102,20.718],[-75.177,20.736]]]}},{"type":"Feature","properties":{"density":2},"geometry":{"type":"Polygon","coordinates":[[[-64.539,29.467],[-65.599,27.56],[-67.082,25.3],[-67.576,22.616],[-67.435,20.71],[-66.87,17.885],[-65.528,16.048],[-62.138,15.272],[-60.584,15.695],[-59.878,17.673],[-59.878,20.215],[-59.595,22.405],[-58.183,24.876],[-56.205,26.642],[-51.827,27.701],[-47.589,27.913],[-41.939,28.337],[-37.49,28.69],[-34.806,29.043],[-32.193,30.244],[-31.628,30.809],[-31.204,32.575],[-31.275,34.623],[-32.758,36.388],[-34.877,39.496],[-35.654,41.968],[-35.724,44.157],[-35.512,45.711],[-35.442,47.9],[-36.219,49.948],[-37.56,50.655],[-39.538,50.655],[-41.445,49.666],[-42.222,48.041],[-42.787,46.417],[-44.27,44.016],[-45.965,41.544],[-47.872,39.849],[-50.273,38.154],[-52.18,36.741],[-54.934,35.329],[-57.547,34.481],[-61.361,32.151],[-62.209,31.656],[-63.197,31.021],[-64.539,29.467]]]}},{"type":"Feature","properties":{"density":2},"geometry":{"type":"Polygon","coordinates":[[[-86.01,40.268],[-84.683,40.364],[-83.951,40.448],[-83.093,40.72],[-82.256,41.139],[-81.251,41.683],[-80.372,42.436],[-80.058,43.189],[-79.975,43.901],[-80.016,44.623],[-80.299,45.062],[-80.864,45.659],[-81.555,46.004],[-82.496,46.255],[-83.815,46.632],[-85.353,47.019],[-85.98,47.374],[-86.42,47.667],[-87.864,48.829],[-89.308,50.022],[-90.218,50.649],[-91.379,51.225],[-92.405,51.769],[-93.095,52.041],[-94.497,52.459],[-97.887,53.234],[-98.285,53.464],[-99.185,54.196],[-99.708,54.929],[-100.001,55.745],[-100.147,56.77],[-99.959,58.026],[-99.143,58.695],[-97.866,58.863],[-96.506,58.591],[-95.188,58.193],[-93.911,57.586],[-92.907,57.0],[-90.186,55.556],[-89.245,55.222],[-88.052,55.075],[-86.922,55.222],[-86.001,55.745],[-85.143,56.728],[-84.829,58.068],[-84.78,58.6],[-84.919,59.186],[-85.212,59.954],[-85.868,60.442],[-86.984,60.874],[-88.239,61.46],[-88.867,62.227],[-89.244,63.832],[-89.104,65.729],[-89.648,66.768],[-91.867,67.019],[-96.205,66.496],[-99.383,66.375],[-100.482,66.407],[-103.15,66.438],[-105.253,66.563],[-108.298,66.563],[-109.8,66.517],[-111.876,66.281],[-114.262,66.281],[-116.271,66.344],[-117.369,66.595],[-118.279,67.191],[-119.472,68.07],[-120.728,68.918],[-122.078,69.42],[-124.84,69.891],[-127.1,70.173],[-130.364,70.173],[-132.907,70.205],[-136.171,69.577],[-137.427,68.918],[-137.803,67.913],[-137.176,66.658],[-135.324,65.496],[-134.413,64.9],[-132.337,63.337],[-132.059,61.447],[-132.436,59.815],[-132.938,58.151],[-133.534,55.923],[-133.66,55.107],[-133.534,52.564],[-133.377,51.685],[-132.31,50.053],[-131.588,49.205],[-131.023,48.64],[-130.113,48.107],[-128.481,48.107],[-127.633,48.201],[-126.541,48.354],[-125.593,48.515],[-124.337,48.609],[-123.584,48.358],[-122.862,47.73],[-122.649,46.491],[-123.678,43.807],[-124.275,41.264],[-124.553,39.9],[-124.055,38.941],[-122.611,37.749],[-120.539,37.56],[-118.987,37.995],[-117.746,38.69],[-116.522,40.009],[-115.266,41.452],[-112.504,43.461],[-111.746,43.938],[-110.558,44.56],[-108.769,44.78],[-107.042,44.78],[-104.5,44.215],[-99.132,42.143],[-97.186,41.484],[-95.366,41.044],[-92.289,40.699],[-89.967,40.542],[-87.926,40.385],[-87.299,40.322],[-86.01,40.268]]]}},{"type":"Feature","properties":{"density":2},"geometry":{"type":"Polygon","coordinates":[[[-119.867,41.014],[-119.896,40.876],[-119.902,40.575],[-119.951,40.481],[-119.979,40.459],[-120.086,40.476],[-120.136,40.633],[-120.139,40.87],[-120.108,41.09],[-120.064,41.187],[-119.913,41.374],[-119.782,41.495],[-119.705,41.497],[-119.654,41.425],[-119.687,41.31],[-119.791,41.179],[-119.867,41.014]]]}},{"type":"Feature","properties":{"density":2},"geometry":{"type":"Polygon","coordinates":[[[-121.995,37.924],[-121.979,37.764],[-121.899,37.604],[-121.872,37.583],[-121.829,37.579],[-121.692,37.624],[-121.664,37.665],[-121.681,37.728],[-121.72,37.773],[-121.805,37.828],[-121.946,37.96],[-121.973,37.963],[-121.995,37.924]]]}},{"type":"Feature","properties":{"density":2},"geometry":{"type":"Polygon","coordinates":[[[-108.445,40.722],[-108.482,40.693],[-108.5,40.564],[-108.432,40.411],[-108.195,40.189],[-108.156,40.184],[-108.129,40.198],[-108.114,40.23],[-108.248,40.371],[-108.316,40.492],[-108.351,40.707],[-108.393,40.729],[-108.445,40.722]]]}},{"type":"Feature","properties":{"density":2},"geometry":{"type":"Polygon","coordinates":[[[-105.737,38.385],[-105.794,38.327],[-105.788,38.274],[-105.745,38.218],[-105.586,38.1],[-105.38,37.995],[-105.14,37.953],[-105.081,37.986],[-105.078,38.014],[-105.106,38.056],[-105.285,38.091],[-105.39,38.146],[-105.574,38.372],[-105.679,38.391],[-105.737,38.385]]]}},{"type":"Feature","properties":{"density":2},"geometry":{"type":"Polygon","coordinates":[[[-97.973,24.824],[-98.002,24.848],[-98.052,24.826],[-98.068,24.783],[-98.079,24.719],[-98.063,24.513],[-98.006,24.361],[-97.885,24.194],[-97.859,24.212],[-97.861,24.26],[-97.923,24.376],[-97.942,24.447],[-97.945,24.717],[-97.954,24.791],[-97.973,24.824]]]}},{"type":"Feature","properties":{"density":2},"geometry":{"type":"Polygon","coordinates":[[[-80.248,22.8],[-80.263,22.763],[-80.244,22.741],[-80.145,22.735],[-80.026,22.796],[-80.018,22.818],[-80.044,22.836],[-80.176,22.831],[-80.248,22.8]]]}},{"type":"Feature","properties":{"density":2},"geometry":{"type":"Polygon","coordinates":[[[-74.965,20.585],[-74.934,20.62],[-74.941,20.65],[-74.986,20.686],[-75.062,20.721],[-75.204,20.753],[-75.394,20.753],[-75.509,20.708],[-75.522,20.672],[-75.519,20.627],[-75.487,20.578],[-75.361,20.525],[-75.153,20.529],[-75.019,20.552],[-74.965,20.585]]]}},{"type":"Feature","properties":{"density":2},"geometry":{"type":"Polygon","coordinates":[[[-75.021,20.528],[-75.025,20.507],[-74.997,20.479],[-74.913,20.476],[-74.912,20.501],[-74.931,20.518],[-75.021,20.528]]]}},{"type":"Feature","properties":{"density":2},"geometry":{"type":"Polygon","coordinates":[[[-74.338,20.208],[-74.574,19.967],[-74.658,19.904],[-74.657,19.885],[-74.631,19.871],[-74.588,19.876],[-74.488,19.945],[-74.326,20.154],[-74.32,20.19],[-74.338,20.208]]]}},{"type":"Feature","properties":{"density":2},"geometry":{"type":"Polygon","coordinates":[[[-71.241,19.346],[-71.283,19.319],[-71.253,19.299],[-71.16,19.301],[-71.18,19.339],[-71.241,19.346]]]}},{"type":"Feature","properties":{"density":2},"geometry":{"type":"Polygon","coordinates":[[[-80.824,27.259],[-80.878,27.21],[-80.899,27.073],[-80.903,26.825],[-80.932,26.523],[-80.899,26.449],[-80.824,26.395],[-80.746,26.391],[-80.638,26.432],[-80.568,26.528],[-80.465,26.829],[-80.46,26.966],[-80.477,27.032],[-80.655,27.135],[-80.704,27.234],[-80.733,27.259],[-80.824,27.259]]]}},{"type":"Feature","properties":{"density":2},"geometry":{"type":"Polygon","coordinates":[[[-62.285,31.822],[-63.415,30.904],[-64.686,29.209],[-65.887,27.514],[-67.229,25.465],[-67.582,23.7],[-67.864,21.652],[-67.935,19.533],[-66.946,18.05],[-65.534,16.708],[-64.404,16.284],[-62.638,15.719],[-61.155,15.719],[-60.237,16.567],[-60.025,18.332],[-60.59,20.31],[-60.66,22.146],[-60.095,24.053],[-58.4,25.748],[-56.211,26.595],[-54.304,27.655],[-53.315,28.432],[-52.468,29.491],[-51.62,29.985],[-49.643,29.562],[-48.301,28.785],[-45.759,28.149],[-39.473,28.149],[-33.54,28.785],[-29.939,30.55],[-28.879,32.175],[-28.738,33.729],[-29.091,35.282],[-29.939,36.271],[-31.28,37.684],[-32.41,39.308],[-33.682,40.862],[-34.035,42.204],[-33.894,45.099],[-32.834,47.147],[-31.139,48.842],[-28.456,50.82],[-27.184,51.738],[-25.419,53.362],[-24.359,54.492],[-23.371,56.611],[-23.3,60.284],[-24.147,62.967],[-25.701,64.309],[-29.091,65.298],[-32.764,65.369],[-35.871,65.015],[-38.696,64.168],[-41.804,62.12],[-44.275,59.648],[-45.335,57.67],[-45.829,55.269],[-47.1,51.597],[-48.584,50.749],[-52.256,51.173],[-54.375,51.032],[-56.988,50.114],[-59.036,48.772],[-60.378,47.218],[-60.519,44.605],[-59.884,43.899],[-58.189,43.263],[-56.494,42.98],[-52.68,42.91],[-49.431,43.545],[-47.242,44.675],[-45.547,45.876],[-43.781,46.653],[-42.863,46.512],[-42.792,45.382],[-43.64,43.404],[-44.77,42.062],[-46.818,40.65],[-47.736,40.155],[-50.349,38.672],[-53.174,36.907],[-55.081,35.565],[-57.553,34.294],[-59.177,33.658],[-61.155,32.81],[-62.285,31.822]]]}},{"type":"Feature","properties":{"density":2},"geometry":{"type":"Polygon","coordinates":[[[-119.732,39.538],[-118.696,39.193],[-117.754,38.942],[-116.624,38.973],[-115.745,39.601],[-115.274,40.323],[-114.835,40.951],[-114.024,41.463],[-112.92,41.924],[-111.225,42.143],[-109.059,41.767],[-106.046,41.17],[-104.226,40.637],[-101.683,40.009],[-100.365,39.664],[-97.948,38.91],[-96.37,38.277],[-94.751,37.719],[-91.984,37.121],[-89.534,37.064],[-86.491,37.341],[-83.886,38.063],[-81.123,39.161],[-79.585,40.354],[-78.832,41.547],[-78.738,43.681],[-79.209,44.937],[-79.836,45.816],[-80.801,46.676],[-82.777,47.48],[-84.325,48.379],[-85.12,49.195],[-85.727,50.263],[-86.167,52.606],[-85.873,53.84],[-85.151,55.001],[-84.617,55.786],[-84.24,56.383],[-83.895,57.167],[-84.24,57.921],[-84.9,58.611],[-86.25,59.198],[-87.192,59.951],[-87.401,60.893],[-87.276,61.772],[-86.03,62.378],[-84.837,61.876],[-83.362,60.149],[-82.263,59.459],[-79.94,59.223],[-77.011,60.207],[-75.357,61.593],[-74.259,63.853],[-73.683,65.982],[-74.039,67.845],[-75.629,69.247],[-77.471,70.084],[-79.668,70.44],[-81.614,70.46],[-83.979,70.168],[-86.239,69.854],[-91.491,69.058],[-95.195,68.431],[-101.661,67.175],[-104.11,66.778],[-107.751,66.422],[-109.969,66.233],[-112.103,66.38],[-114.363,66.798],[-116.33,67.322],[-117.146,67.719],[-118.465,68.263],[-120.243,69.038],[-122.817,69.77],[-125.81,70.021],[-128.718,70.126],[-131.732,69.854],[-133.741,69.728],[-134.976,69.242],[-135.494,68.96],[-136.483,67.924],[-137.095,66.747],[-137.095,64.958],[-136.342,62.933],[-135.4,61.803],[-133.799,61.097],[-131.304,60.391],[-128.95,59.685],[-127.584,58.931],[-126.375,57.732],[-126.522,56.581],[-127.359,55.619],[-129.012,55.221],[-130.268,54.405],[-131.257,52.952],[-131.586,50.597],[-131.586,49.515],[-131.257,48.714],[-130.55,47.82],[-129.467,47.207],[-127.914,46.548],[-126.548,45.748],[-125.277,44.947],[-124.382,44.006],[-122.923,41.887],[-121.793,40.38],[-120.872,39.841],[-119.732,39.538]]]}},{"type":"Feature","properties":{"density":2},"geometry":{"type":"Polygon","coordinates":[[[-97.921,37.049],[-97.957,36.856],[-97.928,36.764],[-97.843,36.656],[-97.645,36.671],[-97.439,36.757],[-97.243,36.902],[-96.901,37.111],[-96.703,37.258],[-96.567,37.396],[-96.537,37.477],[-96.543,37.554],[-96.592,37.604],[-96.701,37.63],[-97.03,37.584],[-97.386,37.512],[-97.649,37.398],[-97.724,37.336],[-97.818,37.235],[-97.921,37.049]]]}},{"type":"Feature","properties":{"density":2},"geometry":{"type":"Polygon","coordinates":[[[-79.466,33.784],[-79.637,33.426],[-79.67,33.305],[-79.681,33.192],[-79.67,33.175],[-79.651,33.181],[-79.455,33.456],[-79.331,33.66],[-79.323,33.715],[-79.35,33.773],[-79.386,33.795],[-79.466,33.784]]]}},{"type":"Feature","properties":{"density":3},"geometry":{"type":"Polygon","coordinates":[[[-125.672,66.091],[-126.188,66.217],[-126.676,66.315],[-127.067,66.37],[-127.681,66.203],[-127.778,66.008],[-127.667,65.882],[-127.429,65.743],[-127.053,65.631],[-126.579,65.52],[-126.272,65.338],[-126.258,65.296],[-126.509,65.282],[-127.123,65.464],[-128.127,65.701],[-128.741,65.896],[-129.731,66.008],[-129.662,65.868],[-129.243,65.729],[-127.709,65.282],[-126.634,64.906],[-126.174,64.627],[-125.546,64.487],[-124.96,64.069],[-124.277,62.98],[-123.788,62.339],[-123.509,61.864],[-123.635,61.306],[-124.026,60.539],[-124.402,59.939],[-124.458,59.507],[-124.277,59.172],[-123.886,58.907],[-123.328,58.753],[-122.798,58.684],[-121.333,58.112],[-121.124,57.763],[-121.333,57.47],[-122.114,56.856],[-122.882,56.019],[-123.691,54.945],[-124.737,54.638],[-125.448,54.624],[-125.853,54.415],[-125.867,54.15],[-125.783,53.871],[-125.867,53.536],[-126.174,53.41],[-126.816,53.452],[-127.499,53.452],[-128.42,53.131],[-128.657,52.81],[-128.657,52.545],[-127.75,52.057],[-126.383,51.973],[-123.007,51.192],[-122.993,51.15],[-123.049,50.857],[-122.658,50.857],[-122.435,50.816],[-122.351,50.774],[-122.31,50.829],[-122.435,50.913],[-122.63,51.011],[-122.686,51.15],[-122.547,51.136],[-122.282,50.997],[-121.891,50.523],[-121.668,50.132],[-121.584,49.881],[-121.542,49.853],[-121.473,49.839],[-121.403,49.965],[-121.431,50.174],[-121.738,50.648],[-121.821,50.871],[-121.779,50.941],[-121.654,50.899],[-121.57,50.662],[-121.417,50.481],[-121.361,50.439],[-121.249,50.481],[-121.207,50.676],[-121.305,50.997],[-121.556,51.262],[-121.682,51.276],[-121.793,51.318],[-121.849,51.29],[-121.863,51.108],[-121.877,51.081],[-122.017,51.234],[-121.933,51.36],[-121.5,51.388],[-120.719,50.704],[-119.952,50.341],[-119.394,50.202],[-119.157,50.23],[-118.948,50.369],[-118.696,50.816],[-118.459,51.164],[-118.069,51.262],[-117.901,51.485],[-118.32,51.667],[-119.227,51.722],[-120.064,51.89],[-121.277,52.476],[-121.347,52.615],[-119.938,52.741],[-117.845,52.643],[-116.701,52.866],[-116.255,52.838],[-112.977,50.983],[-111.721,50.676],[-109.782,49.881],[-108.247,48.988],[-104.006,47.174],[-101.9,46.854],[-100.337,46.519],[-98.022,45.877],[-97.017,45.445],[-95.162,44.454],[-93.711,43.561],[-91.325,42.347],[-89.135,41.664],[-86.191,41.12],[-83.513,40.938],[-82.592,41.204],[-82.285,41.51],[-82.202,41.817],[-82.411,41.999],[-82.773,42.041],[-83.764,42.082],[-85.299,42.068],[-87.517,42.417],[-91.395,43.826],[-97.45,47.774],[-100.826,49.337],[-102.569,50.913],[-102.723,51.792],[-102.514,52.531],[-102.039,53.466],[-101.914,54.736],[-102.207,55.531],[-102.569,55.935],[-103.951,56.731],[-103.853,57.219],[-103.393,57.372],[-102.458,57.317],[-101.188,57.121],[-100.365,57.219],[-99.933,57.428],[-99.891,57.679],[-99.947,57.986],[-100.686,58.363],[-101.788,58.642],[-102.388,58.851],[-103.1,59.674],[-103.169,59.953],[-103.127,60.525],[-102.793,61.027],[-101.342,61.655],[-100.672,62.018],[-100.421,62.534],[-100.742,63.05],[-101.718,63.608],[-103.169,63.734],[-103.923,63.552],[-104.509,63.287],[-105.485,62.785],[-106.294,62.046],[-107.299,61.32],[-107.899,60.776],[-108.457,60.33],[-109.503,60.023],[-110.256,60.218],[-112.154,60.483],[-112.6,60.679],[-112.739,60.93],[-112.377,61.334],[-111.065,62.018],[-110.772,61.92],[-110.689,61.474],[-110.717,61.055],[-110.535,60.679],[-110.354,60.581],[-109.461,60.497],[-109.015,60.637],[-108.903,60.748],[-109.112,60.944],[-109.531,61.125],[-109.74,61.279],[-109.991,61.767],[-110.103,61.934],[-110.452,62.283],[-110.577,62.367],[-110.466,62.701],[-109.921,62.715],[-108.833,62.674],[-108.317,62.813],[-107.787,63.036],[-107.606,63.232],[-107.745,63.483],[-108.122,63.706],[-108.931,63.943],[-110.675,64.682],[-112.195,65.073],[-114.776,65.575],[-115.292,65.701],[-115.669,65.966],[-116.799,66.022],[-117.692,65.785],[-117.762,65.701],[-118.166,65.617],[-118.668,65.422],[-118.696,65.394],[-118.668,65.115],[-118.459,65.031],[-118.166,64.85],[-118.166,64.808],[-118.306,64.752],[-118.738,64.878],[-119.352,65.003],[-119.868,65.059],[-120.036,64.975],[-120.105,64.85],[-120.44,64.85],[-121.138,65.031],[-122.017,65.366],[-122.463,65.45],[-123.188,65.645],[-124.625,65.799],[-125.142,65.924],[-125.672,66.091]]]}},{"type":"Feature","properties":{"density":3},"geometry":{"type":"Polygon","coordinates":[[[-88.211,56.941],[-87.787,56.988],[-87.081,57.317],[-86.657,57.694],[-86.374,58.118],[-86.28,58.683],[-86.422,59.436],[-86.704,60.142],[-87.787,61.037],[-88.781,61.476],[-91.198,62.198],[-93.992,62.889],[-96.377,63.423],[-97.413,63.423],[-97.57,63.14],[-97.036,62.261],[-96.45,61.225],[-95.462,60.237],[-94.284,59.248],[-93.437,58.636],[-93.107,57.882],[-93.39,56.894],[-92.966,56.564],[-92.354,56.423],[-91.93,56.611],[-91.554,57.223],[-91.271,57.647],[-90.753,57.082],[-90.471,56.894],[-89.953,56.894],[-89.482,56.705],[-88.729,56.658],[-88.211,56.941]]]}},{"type":"Feature","properties":{"density":3},"geometry":{"type":"Polygon","coordinates":[[[-121.537,47.279],[-121.439,47.042],[-121.202,46.693],[-121.077,46.33],[-120.812,45.968],[-120.519,45.842],[-120.072,45.884],[-119.542,46.149],[-118.356,46.805],[-117.91,47.377],[-117.729,47.753],[-117.701,48.283],[-117.868,48.646],[-118.273,49.037],[-118.747,49.162],[-119.277,49.148],[-119.975,48.981],[-120.533,48.646],[-120.979,48.297],[-121.16,48.074],[-121.342,47.809],[-121.481,47.53],[-121.537,47.279]]]}},{"type":"Feature","properties":{"density":3},"geometry":{"type":"Polygon","coordinates":[[[-121.51,44.676],[-121.598,44.676],[-121.664,44.624],[-121.724,44.505],[-121.705,44.439],[-121.65,44.39],[-121.507,44.351],[-121.424,44.351],[-121.358,44.39],[-121.314,44.458],[-121.311,44.552],[-121.336,44.616],[-121.38,44.646],[-121.435,44.671],[-121.51,44.676]]]}},{"type":"Feature","properties":{"density":3},"geometry":{"type":"Polygon","coordinates":[[[-120.743,44.828],[-120.894,44.796],[-121.011,44.734],[-121.071,44.66],[-121.085,44.602],[-121.085,44.519],[-121.038,44.42],[-120.964,44.332],[-120.867,44.263],[-120.779,44.246],[-120.741,44.277],[-120.699,44.348],[-120.578,44.373],[-120.424,44.368],[-120.303,44.511],[-120.283,44.585],[-120.292,44.665],[-120.371,44.742],[-120.479,44.814],[-120.584,44.833],[-120.743,44.828]]]}},{"type":"Feature","properties":{"density":3},"geometry":{"type":"Polygon","coordinates":[[[-119.644,44.919],[-119.875,44.85],[-119.886,44.795],[-119.832,44.747],[-119.583,44.789],[-119.525,44.853],[-119.534,44.899],[-119.567,44.919],[-119.644,44.919]]]}},{"type":"Feature","properties":{"density":3},"geometry":{"type":"Polygon","coordinates":[[[-120.575,45.211],[-120.628,45.2],[-120.677,45.161],[-120.677,45.123],[-120.52,45.087],[-120.424,45.04],[-120.371,45.059],[-120.363,45.114],[-120.407,45.153],[-120.451,45.183],[-120.575,45.211]]]}},{"type":"Feature","properties":{"density":3},"geometry":{"type":"Polygon","coordinates":[[[-118.287,45.772],[-118.323,45.749],[-118.372,45.607],[-118.367,45.556],[-118.319,45.501],[-118.286,45.501],[-118.255,45.609],[-118.12,45.67],[-118.108,45.729],[-118.12,45.762],[-118.155,45.784],[-118.22,45.793],[-118.287,45.772]]]}},{"type":"Feature","properties":{"density":3},"geometry":{"type":"Polygon","coordinates":[[[-117.235,45.866],[-117.283,45.802],[-117.343,45.776],[-117.367,45.74],[-117.347,45.723],[-117.299,45.721],[-117.218,45.738],[-117.202,45.756],[-117.193,45.852],[-117.235,45.866]]]}},{"type":"Feature","properties":{"density":3},"geometry":{"type":"Polygon","coordinates":[[[-117.964,46.046],[-118.014,46.033],[-118.018,45.997],[-117.966,45.978],[-117.942,45.999],[-117.937,46.026],[-117.964,46.046]]]}},{"type":"Feature","properties":{"density":3},"geometry":{"type":"Polygon","coordinates":[[[-120.539,49.345],[-120.617,49.276],[-120.641,49.084],[-120.679,48.989],[-120.657,48.932],[-120.565,48.903],[-120.516,48.926],[-120.501,48.96],[-120.503,49.143],[-120.44,49.268],[-120.437,49.305],[-120.451,49.331],[-120.492,49.349],[-120.539,49.345]]]}},{"type":"Feature","properties":{"density":3},"geometry":{"type":"Polygon","coordinates":[[[-122.592,51.527],[-122.73,51.541],[-122.787,51.519],[-122.823,51.411],[-122.815,51.334],[-122.763,51.274],[-122.699,51.238],[-122.622,51.219],[-122.36,51.208],[-122.294,51.191],[-122.225,51.194],[-122.178,51.235],[-122.189,51.304],[-122.242,51.381],[-122.311,51.436],[-122.44,51.519],[-122.592,51.527]]]}},{"type":"Feature","properties":{"density":3},"geometry":{"type":"Polygon","coordinates":[[[-121.911,51.411],[-121.958,51.395],[-121.98,51.359],[-121.986,51.321],[-121.958,51.249],[-121.793,51.152],[-121.718,51.152],[-121.674,51.174],[-121.652,51.213],[-121.649,51.274],[-121.669,51.332],[-121.751,51.398],[-121.831,51.417],[-121.911,51.411]]]}},{"type":"Feature","properties":{"density":3},"geometry":{"type":"Polygon","coordinates":[[[-127.402,66.767],[-128.391,66.908],[-128.744,66.697],[-128.956,66.697],[-129.027,66.414],[-128.038,65.496],[-126.192,64.73],[-124.983,64.19],[-124.387,63.558],[-124.015,62.888],[-123.829,62.079],[-123.783,61.0],[-122.882,59.563],[-121.399,59.281],[-120.184,58.666],[-119.933,58.024],[-120.611,56.824],[-120.695,56.108],[-119.654,55.355],[-116.687,53.941],[-114.659,53.206],[-111.3,51.936],[-109.758,51.207],[-109.451,50.574],[-108.446,49.672],[-107.079,50.407],[-105.926,51.365],[-104.708,51.021],[-101.657,49.328],[-97.952,47.487],[-96.61,46.851],[-96.077,47.217],[-96.719,47.942],[-98.17,48.77],[-100.262,49.775],[-101.467,51.946],[-102.136,53.62],[-102.542,56.385],[-102.542,58.504],[-102.895,60.693],[-103.884,61.753],[-104.944,62.035],[-106.285,61.823],[-106.992,60.905],[-107.557,60.27],[-110.735,60.27],[-112.43,60.482],[-113.348,60.835],[-113.348,61.682],[-111.582,62.318],[-110.339,62.786],[-109.534,63.66],[-110.029,64.366],[-111.441,64.86],[-114.127,65.297],[-115.89,65.708],[-117.559,65.715],[-118.626,65.36],[-118.835,64.858],[-120.128,65.072],[-121.046,65.284],[-122.04,65.448],[-122.92,65.708],[-124.436,66.061],[-124.789,66.202],[-125.99,66.485],[-126.626,66.555],[-127.402,66.767]]]}},{"type":"Feature","properties":{"density":3},"geometry":{"type":"Polygon","coordinates":[[[-120.084,49.197],[-120.242,49.02],[-120.586,48.695],[-120.781,48.341],[-120.865,48.006],[-120.911,47.699],[-120.939,47.197],[-120.986,46.834],[-120.986,46.546],[-120.911,46.304],[-120.651,45.942],[-120.288,45.802],[-119.758,45.793],[-119.135,45.932],[-118.763,46.276],[-118.484,46.667],[-118.205,47.002],[-117.777,47.253],[-117.666,47.541],[-117.786,47.913],[-118.0,48.118],[-118.279,48.257],[-118.958,48.648],[-119.34,48.927],[-119.442,49.085],[-119.609,49.262],[-119.833,49.336],[-120.084,49.197]]]}},{"type":"Feature","properties":{"density":3},"geometry":{"type":"Polygon","coordinates":[[[-98.257,63.365],[-100.392,62.047],[-100.81,61.461],[-100.768,60.854],[-99.701,60.478],[-98.048,60.729],[-96.73,60.959],[-94.721,60.917],[-93.633,60.582],[-92.545,60.331],[-91.833,59.996],[-91.394,59.641],[-91.205,58.887],[-91.122,58.364],[-90.745,57.422],[-90.096,56.878],[-89.782,56.313],[-89.636,55.351],[-89.719,54.514],[-90.117,53.342],[-90.096,52.735],[-89.866,52.128],[-89.175,52.044],[-88.652,52.735],[-87.983,53.907],[-87.773,54.89],[-87.313,55.644],[-86.309,56.209],[-85.492,56.983],[-85.346,57.904],[-85.618,58.385],[-86.016,58.908],[-86.915,59.641],[-88.862,60.708],[-91.247,61.733],[-92.503,62.403],[-93.947,63.114],[-94.595,63.617],[-95.662,64.182],[-96.751,64.265],[-97.274,64.161],[-97.797,63.658],[-98.257,63.365]]]}},{"type":"Feature","properties":{"density":3},"geometry":{"type":"Polygon","coordinates":[[[-122.32,51.287],[-122.243,51.304],[-122.221,51.323],[-122.16,51.444],[-122.174,51.53],[-122.229,51.601],[-122.323,51.662],[-122.405,51.698],[-122.532,51.709],[-122.609,51.698],[-122.827,51.618],[-122.876,51.563],[-122.876,51.499],[-122.816,51.353],[-122.736,51.282],[-122.637,51.238],[-122.507,51.238],[-122.372,51.249],[-122.32,51.287]]]}},{"type":"Feature","properties":{"density":3},"geometry":{"type":"Polygon","coordinates":[[[-121.799,51.4],[-121.86,51.397],[-121.909,51.37],[-121.931,51.317],[-121.926,51.235],[-121.862,51.193],[-121.7,51.182],[-121.609,51.26],[-121.598,51.339],[-121.642,51.373],[-121.799,51.4]]]}},{"type":"Feature","properties":{"density":3},"geometry":{"type":"Polygon","coordinates":[[[-119.425,48.278],[-119.47,48.27],[-119.506,48.237],[-119.514,48.191],[-119.468,48.144],[-119.359,48.107],[-119.165,48.103],[-119.073,48.153],[-119.014,48.167],[-118.874,48.116],[-118.795,48.116],[-118.753,48.149],[-118.72,48.224],[-118.744,48.281],[-118.863,48.333],[-119.177,48.34],[-119.425,48.278]]]}},{"type":"Feature","properties":{"density":3},"geometry":{"type":"Polygon","coordinates":[[[-118.356,48.171],[-118.421,48.167],[-118.522,48.076],[-118.648,47.925],[-118.628,47.879],[-118.531,47.877],[-118.279,47.956],[-118.248,48.02],[-118.237,48.099],[-118.275,48.156],[-118.312,48.175],[-118.356,48.171]]]}},{"type":"Feature","properties":{"density":3},"geometry":{"type":"Polygon","coordinates":[[[-120.99,48.191],[-121.021,48.145],[-121.023,48.099],[-120.957,48.007],[-120.906,47.967],[-120.858,47.956],[-120.786,47.963],[-120.757,47.989],[-120.735,48.02],[-120.755,48.059],[-120.845,48.107],[-120.933,48.189],[-120.99,48.191]]]}},{"type":"Feature","properties":{"density":3},"geometry":{"type":"Polygon","coordinates":[[[-120.899,44.602],[-121.05,44.425],[-121.089,44.354],[-121.056,44.282],[-120.843,44.279],[-120.736,44.348],[-120.67,44.411],[-120.648,44.494],[-120.656,44.544],[-120.711,44.615],[-120.752,44.64],[-120.794,44.64],[-120.879,44.626],[-120.899,44.602]]]}},{"type":"Feature","properties":{"density":3},"geometry":{"type":"Polygon","coordinates":[[[-120.532,44.673],[-120.579,44.662],[-120.626,44.61],[-120.664,44.464],[-120.675,44.367],[-120.595,44.332],[-120.515,44.334],[-120.394,44.389],[-120.309,44.461],[-120.281,44.549],[-120.281,44.61],[-120.375,44.684],[-120.433,44.695],[-120.532,44.673]]]}},{"type":"Feature","properties":{"density":3},"geometry":{"type":"Polygon","coordinates":[[[-121.623,44.894],[-121.612,44.836],[-121.695,44.659],[-121.72,44.549],[-121.651,44.428],[-121.549,44.354],[-121.455,44.351],[-121.334,44.425],[-121.293,44.522],[-121.306,44.64],[-121.395,44.709],[-121.439,44.77],[-121.485,44.902],[-121.516,44.943],[-121.56,44.952],[-121.596,44.938],[-121.623,44.894]]]}},{"type":"Feature","properties":{"density":3},"geometry":{"type":"Polygon","coordinates":[[[-118.252,45.77],[-118.519,45.709],[-118.547,45.682],[-118.582,45.591],[-118.596,45.483],[-118.552,45.406],[-118.458,45.368],[-118.307,45.376],[-118.21,45.42],[-118.108,45.494],[-118.064,45.572],[-118.059,45.646],[-118.081,45.715],[-118.114,45.759],[-118.202,45.787],[-118.252,45.77]]]}},{"type":"Feature","properties":{"density":3},"geometry":{"type":"Polygon","coordinates":[[[-118.004,46.054],[-118.037,46.029],[-118.039,45.968],[-117.987,45.946],[-117.94,45.96],[-117.951,46.026],[-118.004,46.054]]]}},{"type":"Feature","properties":{"density":3},"geometry":{"type":"Polygon","coordinates":[[[-117.263,45.839],[-117.317,45.815],[-117.432,45.725],[-117.46,45.655],[-117.436,45.637],[-117.35,45.633],[-117.232,45.685],[-117.201,45.721],[-117.188,45.795],[-117.223,45.841],[-117.263,45.839]]]}},{"type":"Feature","properties":{"density":3},"geometry":{"type":"Polygon","coordinates":[[[-116.628,48.987],[-116.646,48.954],[-116.633,48.927],[-116.557,48.915],[-116.537,48.934],[-116.549,48.976],[-116.628,48.987]]]}},{"type":"Feature","properties":{"density":3},"geometry":{"type":"Polygon","coordinates":[[[-124.095,65.776],[-124.254,65.772],[-124.339,65.738],[-124.38,65.618],[-124.326,65.536],[-124.132,65.474],[-123.553,65.356],[-123.372,65.424],[-123.318,65.528],[-123.363,65.631],[-123.529,65.691],[-123.944,65.784],[-124.095,65.776]]]}},{"type":"Feature","properties":{"density":3},"geometry":{"type":"Polygon","coordinates":[[[-130.415,66.47],[-130.523,66.47],[-130.688,66.416],[-130.692,66.354],[-130.597,66.288],[-129.423,66.305],[-129.435,66.379],[-129.613,66.441],[-130.146,66.491],[-130.415,66.47]]]}},{"type":"Feature","properties":{"density":3},"geometry":{"type":"Polygon","coordinates":[[[-117.501,66.426],[-117.542,66.423],[-117.572,66.382],[-117.503,66.324],[-117.043,66.205],[-116.82,66.191],[-116.746,66.208],[-116.685,66.233],[-116.649,66.304],[-116.655,66.357],[-116.735,66.423],[-116.803,66.453],[-116.952,66.484],[-117.142,66.478],[-117.501,66.426]]]}},{"type":"Feature","properties":{"density":3},"geometry":{"type":"Polygon","coordinates":[[[-116.231,63.514],[-116.37,63.459],[-116.621,63.235],[-116.621,63.031],[-116.268,62.826],[-115.626,62.807],[-114.752,62.677],[-114.575,62.491],[-114.333,62.166],[-113.989,61.97],[-113.599,61.924],[-113.347,62.008],[-113.115,62.194],[-113.115,62.454],[-113.273,62.882],[-113.506,63.133],[-114.464,63.57],[-115.291,63.607],[-115.933,63.598],[-116.231,63.514]]]}},{"type":"Feature","properties":{"density":3},"geometry":{"type":"Polygon","coordinates":[[[-105.441,56.108],[-105.747,55.899],[-105.887,55.578],[-105.538,55.355],[-105.134,55.327],[-104.799,55.494],[-104.506,55.494],[-103.934,55.536],[-103.864,55.745],[-104.032,55.927],[-104.311,56.052],[-104.827,56.178],[-105.189,56.178],[-105.441,56.108]]]}},{"type":"Feature","properties":{"density":3},"geometry":{"type":"Polygon","coordinates":[[[-103.125,55.592],[-103.418,55.69],[-103.655,55.648],[-103.683,55.48],[-103.376,55.145],[-103.111,55.034],[-102.804,54.95],[-102.636,54.936],[-102.385,54.936],[-102.288,55.034],[-102.33,55.243],[-102.916,55.522],[-103.125,55.592]]]}},{"type":"Feature","properties":{"density":3},"geometry":{"type":"Polygon","coordinates":[[[-96.744,37.495],[-96.769,37.429],[-96.733,37.418],[-96.681,37.432],[-96.595,37.492],[-96.568,37.547],[-96.623,37.556],[-96.744,37.495]]]}},{"type":"Feature","properties":{"density":3},"geometry":{"type":"Polygon","coordinates":[[[-119.603,61.472],[-119.289,61.221],[-119.08,60.698],[-118.829,60.175],[-118.347,59.63],[-117.741,59.17],[-117.113,58.793],[-115.648,58.5],[-114.058,58.417],[-113.242,58.521],[-113.011,58.773],[-113.2,59.086],[-115.209,59.986],[-116.129,60.593],[-116.213,61.325],[-115.941,61.618],[-115.962,61.974],[-116.213,62.1],[-116.799,62.058],[-117.552,62.142],[-117.782,62.581],[-117.008,62.811],[-115.69,62.895],[-114.539,62.246],[-113.89,61.932],[-112.551,62.121],[-111.609,62.476],[-110.626,62.686],[-109.872,62.665],[-108.554,62.518],[-106.817,62.455],[-105.959,62.455],[-105.729,62.707],[-105.855,63.02],[-107.382,63.46],[-109.391,64.213],[-111.316,64.757],[-114.037,65.05],[-116.862,65.301],[-117.887,65.364],[-118.473,65.301],[-118.85,65.113],[-119.498,64.862],[-120.984,64.883],[-121.549,64.925],[-122.114,65.113],[-122.658,65.092],[-123.453,65.008],[-124.374,65.155],[-125.148,65.322],[-125.944,65.532],[-126.781,65.887],[-127.325,66.222],[-128.057,66.473],[-128.706,66.536],[-129.48,66.557],[-130.589,66.557],[-130.903,66.348],[-130.924,65.992],[-129.25,65.427],[-126.948,65.134],[-125.881,64.862],[-124.772,64.213],[-124.332,63.837],[-124.123,63.439],[-123.977,62.916],[-123.767,62.435],[-123.391,62.1],[-122.784,61.911],[-121.947,61.786],[-120.524,61.911],[-120.147,61.786],[-120.001,61.681],[-119.603,61.472]]]}},{"type":"Feature","properties":{"density":3},"geometry":{"type":"Polygon","coordinates":[[[-117.793,57.648],[-118.128,57.292],[-119.007,56.936],[-119.655,56.853],[-120.534,56.685],[-120.995,56.371],[-120.932,55.974],[-120.304,55.262],[-119.111,54.865],[-118.023,54.634],[-116.516,54.467],[-114.675,54.404],[-113.608,54.425],[-112.666,54.551],[-111.578,54.593],[-110.741,54.53],[-109.925,54.383],[-108.732,54.195],[-107.142,54.132],[-106.2,54.216],[-106.033,54.927],[-106.409,55.555],[-107.121,55.995],[-108.0,56.141],[-109.381,56.308],[-110.469,56.204],[-111.745,56.12],[-112.938,56.12],[-113.859,56.141],[-114.654,56.267],[-115.428,56.601],[-115.784,56.978],[-116.433,58.024],[-116.956,58.129],[-117.416,58.087],[-117.667,57.941],[-117.793,57.648]]]}},{"type":"Feature","properties":{"density":3},"geometry":{"type":"Polygon","coordinates":[[[-98.269,61.31],[-99.085,61.142],[-99.566,60.703],[-99.713,60.054],[-99.42,59.51],[-98.248,59.113],[-97.097,59.259],[-95.821,59.573],[-93.812,59.782],[-92.64,59.636],[-91.133,59.406],[-90.359,59.029],[-89.815,58.422],[-89.606,57.711],[-89.543,56.957],[-89.355,55.953],[-88.978,55.178],[-88.664,54.676],[-87.701,54.572],[-86.823,55.304],[-86.467,56.204],[-86.006,57.02],[-85.672,57.418],[-85.483,58.38],[-86.174,59.238],[-86.781,59.636],[-90.84,60.326],[-92.263,60.828],[-94.251,61.373],[-94.942,61.477],[-95.591,61.477],[-96.407,61.435],[-97.955,61.31],[-98.269,61.31]]]}},{"type":"Feature","properties":{"density":3},"geometry":{"type":"Polygon","coordinates":[[[-124.818,52.91],[-125.109,52.848],[-125.332,52.755],[-125.369,52.711],[-125.289,52.625],[-124.948,52.618],[-124.731,52.662],[-124.632,52.749],[-124.65,52.811],[-124.718,52.891],[-124.818,52.91]]]}},{"type":"Feature","properties":{"density":3},"geometry":{"type":"Polygon","coordinates":[[[-122.356,51.924],[-122.461,51.719],[-122.629,51.62],[-122.678,51.564],[-122.691,51.422],[-122.654,51.273],[-122.716,51.192],[-122.815,51.155],[-122.852,51.099],[-122.771,51.019],[-122.579,51.025],[-122.375,51.087],[-122.257,51.18],[-122.058,51.403],[-121.928,51.403],[-121.835,51.31],[-121.767,51.205],[-121.593,51.174],[-121.438,51.18],[-121.172,51.248],[-121.097,51.335],[-121.097,51.391],[-121.184,51.465],[-121.37,51.552],[-121.364,51.626],[-121.259,51.688],[-121.234,51.775],[-121.296,51.893],[-121.525,51.912],[-121.748,51.763],[-121.91,51.676],[-122.052,51.664],[-122.108,51.67],[-122.133,51.719],[-122.145,51.912],[-122.195,51.967],[-122.257,51.974],[-122.356,51.924]]]}},{"type":"Feature","properties":{"density":3},"geometry":{"type":"Polygon","coordinates":[[[-122.294,50.827],[-122.344,50.796],[-122.412,50.653],[-122.424,50.548],[-122.468,50.417],[-122.474,50.287],[-122.406,50.238],[-122.337,50.244],[-122.114,50.43],[-122.096,50.523],[-122.12,50.628],[-122.17,50.727],[-122.207,50.783],[-122.294,50.827]]]}},{"type":"Feature","properties":{"density":3},"geometry":{"type":"Polygon","coordinates":[[[-121.302,50.386],[-121.457,50.337],[-121.6,50.151],[-121.631,50.07],[-121.606,49.99],[-121.519,49.921],[-121.395,49.909],[-121.141,49.946],[-120.961,50.076],[-120.986,50.157],[-121.091,50.256],[-121.116,50.337],[-121.159,50.386],[-121.184,50.399],[-121.302,50.386]]]}},{"type":"Feature","properties":{"density":3},"geometry":{"type":"Polygon","coordinates":[[[-120.787,49.469],[-120.88,49.438],[-121.004,49.363],[-121.079,49.283],[-121.097,49.208],[-121.06,49.104],[-120.837,49.025],[-120.742,48.913],[-120.585,48.843],[-120.322,48.967],[-120.205,48.96],[-120.105,49.016],[-120.068,49.128],[-120.149,49.196],[-120.267,49.258],[-120.409,49.289],[-120.521,49.357],[-120.608,49.444],[-120.67,49.475],[-120.787,49.469]]]}},{"type":"Feature","properties":{"density":3},"geometry":{"type":"Polygon","coordinates":[[[-120.651,48.384],[-120.849,48.235],[-120.899,48.156],[-120.907,48.053],[-120.87,47.995],[-120.717,47.917],[-120.481,47.9],[-120.395,48.028],[-120.395,48.165],[-120.424,48.251],[-120.523,48.346],[-120.651,48.384]]]}},{"type":"Feature","properties":{"density":3},"geometry":{"type":"Polygon","coordinates":[[[-119.051,48.52],[-119.188,48.334],[-119.287,48.272],[-119.332,48.202],[-119.308,48.115],[-119.246,48.082],[-119.109,48.086],[-118.911,48.127],[-118.729,48.127],[-118.679,48.156],[-118.638,48.222],[-118.642,48.289],[-118.688,48.338],[-118.853,48.45],[-118.857,48.504],[-118.886,48.574],[-118.948,48.582],[-119.051,48.52]]]}},{"type":"Feature","properties":{"density":3},"geometry":{"type":"Polygon","coordinates":[[[-120.834,44.658],[-120.931,44.635],[-120.967,44.586],[-120.994,44.503],[-120.986,44.401],[-120.895,44.324],[-120.746,44.291],[-120.573,44.285],[-120.468,44.316],[-120.443,44.409],[-120.501,44.495],[-120.68,44.608],[-120.834,44.658]]]}},{"type":"Feature","properties":{"density":3},"geometry":{"type":"Polygon","coordinates":[[[-120.553,44.691],[-120.614,44.66],[-120.647,44.622],[-120.652,44.561],[-120.611,44.531],[-120.493,44.495],[-120.272,44.492],[-120.156,44.569],[-120.14,44.605],[-120.137,44.666],[-120.187,44.726],[-120.25,44.713],[-120.283,44.663],[-120.38,44.655],[-120.504,44.696],[-120.553,44.691]]]}},{"type":"Feature","properties":{"density":3},"geometry":{"type":"Polygon","coordinates":[[[-119.572,44.955],[-119.625,44.947],[-119.666,44.906],[-119.669,44.864],[-119.594,44.801],[-119.506,44.823],[-119.49,44.872],[-119.506,44.922],[-119.534,44.95],[-119.572,44.955]]]}},{"type":"Feature","properties":{"density":3},"geometry":{"type":"Polygon","coordinates":[[[-121.545,44.522],[-121.63,44.504],[-121.678,44.462],[-121.7,44.41],[-121.672,44.364],[-121.516,44.309],[-121.415,44.291],[-121.334,44.291],[-121.286,44.326],[-121.275,44.366],[-121.29,44.429],[-121.316,44.458],[-121.492,44.535],[-121.545,44.522]]]}},{"type":"Feature","properties":{"density":3},"geometry":{"type":"Polygon","coordinates":[[[-118.249,45.767],[-118.359,45.684],[-118.362,45.654],[-118.329,45.513],[-118.282,45.442],[-118.207,45.37],[-118.036,45.309],[-117.912,45.295],[-117.844,45.318],[-117.791,45.367],[-117.788,45.527],[-117.879,45.665],[-118.003,45.761],[-118.111,45.797],[-118.163,45.797],[-118.249,45.767]]]}},{"type":"Feature","properties":{"density":3},"geometry":{"type":"Polygon","coordinates":[[[-118.012,46.032],[-118.026,46.021],[-117.999,45.951],[-117.927,45.913],[-117.878,45.929],[-117.883,45.962],[-117.927,46.014],[-117.969,46.038],[-118.012,46.032]]]}},{"type":"Feature","properties":{"density":3},"geometry":{"type":"Polygon","coordinates":[[[-121.938,37.889],[-121.976,37.875],[-121.972,37.84],[-121.961,37.782],[-121.896,37.643],[-121.866,37.621],[-121.829,37.619],[-121.728,37.677],[-121.728,37.701],[-121.767,37.758],[-121.883,37.865],[-121.938,37.889]]]}},{"type":"Feature","properties":{"density":3},"geometry":{"type":"Polygon","coordinates":[[[-74.989,20.609],[-74.958,20.621],[-74.99,20.648],[-75.164,20.677],[-75.256,20.677],[-75.281,20.662],[-75.292,20.615],[-75.278,20.594],[-75.203,20.578],[-75.044,20.59],[-74.989,20.609]]]}},{"type":"Feature","properties":{"density":3},"geometry":{"type":"Polygon","coordinates":[[[-121.412,59.757],[-121.098,59.004],[-120.941,58.25],[-121.193,57.466],[-121.318,56.681],[-120.784,55.927],[-120.031,55.457],[-118.901,54.923],[-118.179,54.641],[-115.448,54.138],[-113.0,53.919],[-110.238,53.012],[-108.48,52.272],[-108.257,51.659],[-108.871,51.128],[-110.196,51.017],[-111.34,51.24],[-111.682,50.686],[-110.489,49.744],[-108.574,49.618],[-106.471,49.65],[-104.713,50.372],[-103.175,51.282],[-102.422,52.443],[-102.296,53.762],[-102.296,55.08],[-102.607,56.304],[-103.067,56.974],[-103.552,57.56],[-104.431,58.187],[-106.346,58.909],[-107.319,59.161],[-108.48,59.255],[-109.893,59.412],[-111.493,59.443],[-112.435,59.694],[-112.78,59.914],[-113.377,60.667],[-113.153,61.243],[-112.372,61.577],[-110.712,61.829],[-108.926,61.633],[-107.587,61.382],[-106.659,61.703],[-106.094,62.08],[-105.843,62.802],[-105.906,63.586],[-106.597,64.183],[-107.507,64.371],[-108.543,64.654],[-109.704,64.685],[-111.619,64.434],[-113.031,64.402],[-114.158,64.479],[-115.04,64.685],[-115.856,65.219],[-116.296,65.564],[-116.861,65.784],[-117.332,65.941],[-118.024,65.762],[-118.399,65.156],[-118.995,64.873],[-120.031,64.936],[-120.628,65.062],[-121.318,65.25],[-121.916,65.344],[-122.795,65.525],[-123.716,65.776],[-124.426,65.846],[-125.085,65.941],[-125.618,66.097],[-126.604,66.53],[-127.287,66.669],[-128.305,66.767],[-129.605,66.725],[-130.609,66.788],[-131.394,66.568],[-131.645,66.003],[-131.08,65.721],[-129.793,65.47],[-128.632,65.187],[-127.383,64.912],[-126.588,64.521],[-126.016,64.2],[-125.399,63.806],[-124.398,62.666],[-123.672,62.048],[-122.654,61.564],[-121.883,61.609],[-121.255,61.389],[-121.224,61.107],[-121.224,60.699],[-121.412,60.259],[-121.412,59.757]]]}},{"type":"Feature","properties":{"density":3},"geometry":{"type":"Polygon","coordinates":[[[-92.526,61.08],[-92.798,60.997],[-92.923,60.85],[-92.861,60.557],[-92.17,60.181],[-91.27,60.076],[-89.931,59.699],[-88.362,59.302],[-86.939,58.967],[-85.641,58.569],[-85.139,58.172],[-84.888,57.732],[-84.867,57.23],[-85.223,56.623],[-85.641,56.184],[-85.85,55.786],[-86.06,54.949],[-86.353,54.008],[-86.897,53.108],[-87.566,53.15],[-88.215,54.008],[-88.487,55.368],[-88.864,56.142],[-89.638,56.707],[-90.726,56.874],[-91.835,57.105],[-92.693,57.523],[-93.405,57.921],[-93.97,58.151],[-94.493,58.486],[-95.434,58.883],[-95.937,59.72],[-96.23,60.62],[-95.979,62.148],[-95.309,63.675],[-94.074,65.328],[-93.258,66.04],[-91.71,66.94],[-90.705,67.212],[-89.052,67.316],[-87.692,67.295],[-86.939,66.856],[-86.436,66.291],[-86.102,65.454],[-86.374,64.429],[-87.001,63.445],[-87.859,62.462],[-88.717,61.625],[-89.638,61.018],[-90.245,60.788],[-90.873,60.788],[-91.772,60.892],[-92.526,61.08]]]}},{"type":"Feature","properties":{"density":3},"geometry":{"type":"Polygon","coordinates":[[[-96.963,37.378],[-96.993,37.334],[-96.941,37.292],[-96.773,37.342],[-96.577,37.477],[-96.547,37.518],[-96.555,37.54],[-96.594,37.562],[-96.671,37.549],[-96.924,37.419],[-96.963,37.378]]]}},{"type":"Feature","properties":{"density":3},"geometry":{"type":"Polygon","coordinates":[[[-79.591,33.419],[-79.631,33.349],[-79.675,33.192],[-79.646,33.198],[-79.544,33.36],[-79.547,33.425],[-79.591,33.419]]]}},{"type":"Feature","properties":{"density":3},"geometry":{"type":"Polygon","coordinates":[[[-118.348,48.211],[-118.423,48.149],[-118.431,47.814],[-118.394,47.777],[-118.328,47.76],[-118.253,47.785],[-118.204,47.847],[-118.167,47.946],[-118.167,48.05],[-118.179,48.128],[-118.224,48.186],[-118.274,48.223],[-118.34,48.236],[-118.348,48.211]]]}},{"type":"Feature","properties":{"density":3},"geometry":{"type":"Polygon","coordinates":[[[-132.297,67.741],[-132.508,67.691],[-132.545,67.636],[-132.526,67.574],[-132.446,67.524],[-132.08,67.45],[-131.726,67.4],[-131.305,67.369],[-131.206,67.394],[-131.156,67.468],[-131.137,67.543],[-131.199,67.629],[-131.323,67.698],[-131.503,67.747],[-132.154,67.753],[-132.297,67.741]]]}},{"type":"Feature","properties":{"density":3},"geometry":{"type":"Polygon","coordinates":[[[-117.602,66.513],[-117.68,66.474],[-117.67,66.39],[-117.54,66.269],[-117.298,66.12],[-116.934,65.942],[-116.675,65.925],[-116.508,65.962],[-116.396,66.111],[-116.499,66.251],[-116.647,66.316],[-116.899,66.399],[-117.28,66.493],[-117.522,66.52],[-117.602,66.513]]]}},{"type":"Feature","properties":{"density":3},"geometry":{"type":"Polygon","coordinates":[[[-114.569,66.004],[-114.714,65.942],[-114.738,65.884],[-114.66,65.802],[-114.337,65.694],[-114.094,65.657],[-113.887,65.703],[-113.887,65.765],[-113.945,65.86],[-114.085,65.93],[-114.333,65.992],[-114.569,66.004]]]}},{"type":"Feature","properties":{"density":3},"geometry":{"type":"Polygon","coordinates":[[[-94.981,56.893],[-95.092,56.849],[-95.105,56.787],[-95.061,56.663],[-94.869,56.502],[-94.522,56.341],[-94.286,56.273],[-94.181,56.273],[-94.113,56.316],[-94.075,56.397],[-94.075,56.508],[-94.175,56.607],[-94.286,56.676],[-94.782,56.862],[-94.888,56.893],[-94.981,56.893]]]}},{"type":"Feature","properties":{"density":3},"geometry":{"type":"Polygon","coordinates":[[[-97.858,57.711],[-97.907,57.624],[-97.87,57.55],[-97.771,57.451],[-97.597,57.401],[-97.548,57.413],[-97.492,57.463],[-97.498,57.581],[-97.554,57.655],[-97.659,57.705],[-97.858,57.711]]]}}]}