{"type":"FeatureCollection","features":[{"type":"Feature","properties":{"density":1},"geometry":{"type":"Polygon","coordinates":[[[-80.485,26.542],[-80.675,26.608],[-80.802,26.553],[-80.91,26.578],[-80.968,26.625],[-81.111,26.691],[-81.127,26.76],[-81.1,26.845],[-80.943,26.98],[-80.736,27.115],[-80.664,27.146],[-80.543,27.159],[-80.397,27.143],[-80.353,27.118],[-80.328,27.077],[-80.279,26.903],[-80.334,26.641],[-80.4,26.556],[-80.438,26.545],[-80.485,26.542]]]}},{"type":"Feature","properties":{"density":1},"geometry":{"type":"Polygon","coordinates":[[[-82.88,30.789],[-82.855,30.808],[-82.763,30.816],[-82.594,30.922],[-82.499,30.908],[-82.475,30.868],[-82.468,30.773],[-82.482,30.696],[-82.578,30.612],[-82.643,30.602],[-82.741,30.624],[-82.831,30.696],[-82.872,30.762],[-82.88,30.789]]]}},{"type":"Feature","properties":{"density":1},"geometry":{"type":"Polygon","coordinates":[[[-81.916,31.296],[-81.908,31.333],[-81.85,31.395],[-81.693,31.511],[-81.433,31.788],[-81.284,32.09],[-81.18,32.201],[-80.895,32.35],[-80.73,32.408],[-80.577,32.42],[-80.081,32.358],[-79.845,32.319],[-78.984,32.09],[-78.413,32.028],[-78.295,31.916],[-78.233,31.773],[-78.208,31.488],[-78.215,31.426],[-78.283,31.284],[-78.407,31.098],[-78.636,30.924],[-79.3,30.794],[-79.666,30.769],[-79.969,30.769],[-80.627,30.856],[-81.247,30.905],[-81.78,31.091],[-81.898,31.203],[-81.916,31.296]]]}},{"type":"Feature","properties":{"density":1},"geometry":{"type":"Polygon","coordinates":[[[-108.631,33.37],[-108.649,33.426],[-108.593,33.624],[-108.476,33.823],[-107.812,34.443],[-107.521,34.784],[-107.44,34.995],[-107.353,35.156],[-107.205,35.317],[-106.901,35.559],[-106.634,35.633],[-106.306,35.658],[-105.81,35.67],[-105.283,35.726],[-104.117,35.962],[-103.292,36.098],[-102.957,36.135],[-102.833,36.123],[-102.753,36.067],[-102.654,35.943],[-102.66,35.664],[-102.771,35.46],[-102.858,35.199],[-103.088,34.951],[-103.261,34.852],[-103.546,34.821],[-104.142,34.852],[-104.985,35.063],[-105.531,35.088],[-105.617,35.032],[-105.741,34.914],[-106.089,34.796],[-106.337,34.678],[-107.304,34.102],[-107.515,33.947],[-107.794,33.817],[-108.147,33.624],[-108.271,33.544],[-108.333,33.475],[-108.457,33.426],[-108.556,33.351],[-108.631,33.37]]]}},{"type":"Feature","properties":{"density":1},"geometry":{"type":"Polygon","coordinates":[[[-96.274,18.285],[-96.295,18.384],[-96.267,18.424],[-96.221,18.428],[-96.191,18.41],[-96.156,18.354],[-96.151,18.272],[-96.172,18.252],[-96.218,18.248],[-96.266,18.278],[-96.274,18.285]]]}},{"type":"Feature","properties":{"density":1},"geometry":{"type":"Polygon","coordinates":[[[-95.981,18.18],[-96.091,18.249],[-96.171,18.374],[-96.184,18.453],[-96.145,18.535],[-96.074,18.533],[-96.034,18.485],[-96.003,18.347],[-95.948,18.223],[-95.95,18.196],[-95.972,18.18],[-95.981,18.18]]]}},{"type":"Feature","properties":{"density":1},"geometry":{"type":"Polygon","coordinates":[[[-90.855,17.973],[-91.121,18.293],[-91.147,18.355],[-91.129,18.405],[-91.095,18.418],[-91.047,18.393],[-90.827,18.1],[-90.777,17.963],[-90.809,17.954],[-90.85,17.971],[-90.855,17.973]]]}},{"type":"Feature","properties":{"density":1},"geometry":{"type":"Polygon","coordinates":[[[-91.213,18.249],[-91.378,18.416],[-91.391,18.476],[-91.377,18.521],[-91.334,18.533],[-91.312,18.519],[-91.215,18.379],[-91.164,18.259],[-91.178,18.239],[-91.211,18.245],[-91.213,18.249]]]}},{"type":"Feature","properties":{"density":1},"geometry":{"type":"Polygon","coordinates":[[[-90.851,17.631],[-90.99,17.773],[-91.007,17.848],[-90.985,17.872],[-90.934,17.858],[-90.882,17.793],[-90.823,17.667],[-90.824,17.641],[-90.842,17.628],[-90.851,17.631]]]}},{"type":"Feature","properties":{"density":1},"geometry":{"type":"Polygon","coordinates":[[[-90.433,18.125],[-90.52,18.204],[-90.524,18.25],[-90.481,18.286],[-90.435,18.253],[-90.426,18.227],[-90.406,18.145],[-90.428,18.122],[-90.433,18.125]]]}},{"type":"Feature","properties":{"density":1},"geometry":{"type":"Polygon","coordinates":[[[-90.81,18.534],[-90.907,18.61],[-90.918,18.666],[-90.9,18.693],[-90.856,18.685],[-90.791,18.611],[-90.771,18.549],[-90.807,18.532],[-90.81,18.534]]]}},{"type":"Feature","properties":{"density":1},"geometry":{"type":"Polygon","coordinates":[[[-91.136,17.394],[-91.225,17.465],[-91.286,17.549],[-91.328,17.681],[-91.305,17.733],[-91.272,17.738],[-91.191,17.685],[-91.103,17.518],[-91.029,17.419],[-91.025,17.357],[-91.04,17.349],[-91.099,17.368],[-91.136,17.394]]]}},{"type":"Feature","properties":{"density":1},"geometry":{"type":"Polygon","coordinates":[[[-90.564,17.36],[-90.713,17.523],[-90.729,17.568],[-90.719,17.605],[-90.679,17.6],[-90.604,17.541],[-90.542,17.433],[-90.538,17.375],[-90.556,17.358],[-90.564,17.36]]]}},{"type":"Feature","properties":{"density":1},"geometry":{"type":"Polygon","coordinates":[[[-90.462,17.547],[-90.562,17.643],[-90.573,17.691],[-90.555,17.724],[-90.509,17.72],[-90.432,17.633],[-90.411,17.559],[-90.426,17.542],[-90.458,17.542],[-90.462,17.547]]]}},{"type":"Feature","properties":{"density":1},"geometry":{"type":"Polygon","coordinates":[[[-92.948,17.756],[-93.041,17.857],[-93.19,17.948],[-93.246,18.005],[-93.273,18.099],[-93.263,18.164],[-93.241,18.188],[-93.209,18.206],[-93.158,18.208],[-92.917,17.987],[-92.872,17.877],[-92.867,17.788],[-92.897,17.738],[-92.944,17.749],[-92.948,17.756]]]}},{"type":"Feature","properties":{"density":1},"geometry":{"type":"Polygon","coordinates":[[[-92.25,17.408],[-92.156,17.382],[-92.136,17.289],[-92.16,17.242],[-92.206,17.2],[-92.262,17.186],[-92.318,17.224],[-92.352,17.334],[-92.327,17.381],[-92.259,17.409],[-92.25,17.408]]]}},{"type":"Feature","properties":{"density":1},"geometry":{"type":"Polygon","coordinates":[[[-91.747,15.791],[-91.713,15.857],[-91.689,15.879],[-91.658,15.879],[-91.578,15.751],[-91.569,15.687],[-91.591,15.674],[-91.645,15.681],[-91.746,15.782],[-91.747,15.791]]]}},{"type":"Feature","properties":{"density":1},"geometry":{"type":"Polygon","coordinates":[[[-90.715,16.104],[-90.626,16.17],[-90.55,16.178],[-90.509,16.155],[-90.507,16.12],[-90.539,16.088],[-90.684,16.075],[-90.712,16.098],[-90.715,16.104]]]}},{"type":"Feature","properties":{"density":1},"geometry":{"type":"Polygon","coordinates":[[[-90.4,16.077],[-90.375,16.156],[-90.336,16.168],[-90.311,16.157],[-90.301,16.124],[-90.315,16.098],[-90.352,16.067],[-90.398,16.072],[-90.4,16.077]]]}},{"type":"Feature","properties":{"density":1},"geometry":{"type":"Polygon","coordinates":[[[-90.116,16.211],[-90.13,16.258],[-90.119,16.287],[-90.062,16.293],[-90.049,16.265],[-90.059,16.222],[-90.113,16.209],[-90.116,16.211]]]}},{"type":"Feature","properties":{"density":1},"geometry":{"type":"Polygon","coordinates":[[[-91.085,18.031],[-91.136,18.103],[-91.136,18.159],[-91.1,18.16],[-91.053,18.102],[-91.04,18.042],[-91.049,18.027],[-91.08,18.029],[-91.085,18.031]]]}},{"type":"Feature","properties":{"density":1},"geometry":{"type":"Polygon","coordinates":[[[-90.043,17.031],[-90.123,17.138],[-90.135,17.2],[-90.12,17.217],[-90.092,17.22],[-90.067,17.202],[-89.991,17.099],[-89.991,17.036],[-90.034,17.027],[-90.043,17.031]]]}},{"type":"Feature","properties":{"density":1},"geometry":{"type":"Polygon","coordinates":[[[-89.859,17.048],[-89.981,17.194],[-89.999,17.273],[-89.926,17.276],[-89.876,17.234],[-89.808,17.095],[-89.807,17.058],[-89.85,17.045],[-89.859,17.048]]]}},{"type":"Feature","properties":{"density":1},"geometry":{"type":"Polygon","coordinates":[[[-89.818,16.819],[-89.859,16.906],[-89.856,16.945],[-89.842,16.951],[-89.793,16.941],[-89.76,16.884],[-89.764,16.819],[-89.812,16.813],[-89.818,16.819]]]}},{"type":"Feature","properties":{"density":1},"geometry":{"type":"Polygon","coordinates":[[[-92.972,16.601],[-93.046,16.724],[-93.037,16.783],[-93.015,16.8],[-92.971,16.794],[-92.914,16.707],[-92.906,16.624],[-92.958,16.599],[-92.972,16.601]]]}},{"type":"Feature","properties":{"density":1},"geometry":{"type":"Polygon","coordinates":[[[-97.003,17.657],[-96.993,17.821],[-96.956,17.965],[-96.909,18.022],[-96.831,18.048],[-96.796,18.008],[-96.805,17.941],[-96.86,17.856],[-96.93,17.652],[-96.964,17.63],[-97.002,17.65],[-97.003,17.657]]]}},{"type":"Feature","properties":{"density":1},"geometry":{"type":"Polygon","coordinates":[[[-104.065,21.353],[-103.926,21.395],[-103.857,21.399],[-103.812,21.381],[-103.546,21.214],[-103.443,21.104],[-103.419,21.054],[-103.423,21.02],[-103.661,21.021],[-103.866,21.055],[-103.928,21.101],[-103.987,21.212],[-104.077,21.28],[-104.085,21.315],[-104.067,21.349],[-104.065,21.353]]]}},{"type":"Feature","properties":{"density":1},"geometry":{"type":"Polygon","coordinates":[[[-105.158,20.253],[-105.116,20.253],[-105.07,20.227],[-105.069,20.158],[-105.111,20.121],[-105.195,20.124],[-105.225,20.168],[-105.222,20.228],[-105.205,20.248],[-105.165,20.252],[-105.158,20.253]]]}},{"type":"Feature","properties":{"density":1},"geometry":{"type":"Polygon","coordinates":[[[-66.308,45.82],[-66.26,45.812],[-66.221,45.782],[-66.244,45.7],[-66.323,45.614],[-66.431,45.611],[-66.46,45.663],[-66.442,45.742],[-66.401,45.782],[-66.312,45.82],[-66.308,45.82]]]}},{"type":"Feature","properties":{"density":1},"geometry":{"type":"Polygon","coordinates":[[[-66.206,45.6],[-66.166,45.434],[-66.175,45.401],[-66.198,45.387],[-66.255,45.426],[-66.275,45.497],[-66.26,45.598],[-66.211,45.604],[-66.206,45.6]]]}},{"type":"Feature","properties":{"density":1},"geometry":{"type":"Polygon","coordinates":[[[-80.84,32.055],[-80.553,32.129],[-80.437,32.129],[-80.219,32.098],[-79.647,31.881],[-79.513,31.848],[-79.318,31.842],[-78.416,32.033],[-78.176,32.059],[-78.076,32.053],[-78.018,32.03],[-77.986,31.976],[-77.988,31.897],[-78.036,31.706],[-78.117,31.594],[-78.328,31.42],[-78.664,31.218],[-78.771,31.087],[-78.865,30.9],[-78.99,30.824],[-79.204,30.795],[-79.55,30.793],[-80.005,30.826],[-80.187,30.823],[-80.604,30.784],[-80.88,30.733],[-81.093,30.802],[-81.494,30.963],[-81.756,31.087],[-81.866,31.19],[-81.893,31.263],[-81.873,31.349],[-81.764,31.476],[-81.479,31.708],[-81.185,31.919],[-80.968,32.026],[-80.893,32.044],[-80.84,32.055]]]}},{"type":"Feature","properties":{"density":1},"geometry":{"type":"Polygon","coordinates":[[[-81.17,26.887],[-80.829,27.149],[-80.106,27.603],[-79.469,27.833],[-79.34,27.849],[-79.246,27.836],[-79.175,27.761],[-79.145,27.631],[-79.137,27.387],[-79.17,27.035],[-79.233,26.91],[-79.459,26.789],[-79.671,26.741],[-80.045,26.69],[-80.574,26.552],[-80.783,26.533],[-80.938,26.558],[-81.078,26.618],[-81.166,26.679],[-81.216,26.74],[-81.224,26.792],[-81.224,26.819],[-81.191,26.866],[-81.17,26.887]]]}},{"type":"Feature","properties":{"density":1},"geometry":{"type":"Polygon","coordinates":[[[-81.839,31.388],[-81.764,31.417],[-81.565,31.445],[-81.041,31.601],[-79.614,31.61],[-79.126,31.681],[-78.826,31.747],[-78.462,31.94],[-78.178,32.119],[-77.908,32.194],[-77.608,32.202],[-77.476,32.147],[-77.374,32.015],[-77.387,31.866],[-77.484,31.651],[-77.781,31.114],[-77.894,30.959],[-78.47,30.615],[-78.806,30.572],[-79.198,30.649],[-79.677,30.624],[-79.919,30.568],[-80.305,30.546],[-80.363,30.537],[-80.406,30.506],[-80.471,30.361],[-80.557,30.315],[-80.721,30.299],[-80.82,30.323],[-80.932,30.37],[-81.066,30.455],[-81.872,31.214],[-81.89,31.313],[-81.846,31.385],[-81.839,31.388]]]}},{"type":"Feature","properties":{"density":1},"geometry":{"type":"Polygon","coordinates":[[[-94.245,17.591],[-94.266,17.752],[-94.258,17.847],[-94.227,17.915],[-94.186,17.927],[-94.155,17.874],[-94.158,17.811],[-94.206,17.592],[-94.243,17.587],[-94.245,17.591]]]}},{"type":"Feature","properties":{"density":1},"geometry":{"type":"Polygon","coordinates":[[[-100.318,21.933],[-100.915,22.373],[-101.197,23.032],[-101.197,24.131],[-101.354,24.382],[-101.48,25.292],[-101.731,26.391],[-102.139,27.332],[-102.547,28.086],[-102.829,28.745],[-102.829,29.718],[-102.767,30.346],[-102.672,30.942],[-101.856,32.103],[-101.229,32.731],[-100.821,33.202],[-100.444,34.175],[-100.256,34.928],[-99.753,35.588],[-99.157,36.153],[-98.498,36.498],[-97.87,36.623],[-97.242,36.592],[-96.646,36.404],[-95.924,35.996],[-95.233,35.305],[-94.919,34.771],[-94.48,33.736],[-93.915,33.045],[-92.911,32.26],[-92.063,31.476],[-91.09,30.816],[-88.673,30.0],[-86.57,28.902],[-85.566,28.431],[-83.839,27.332],[-83.274,26.736],[-83.211,26.077],[-83.243,25.355],[-83.4,24.884],[-83.776,24.288],[-84.655,23.471],[-85.126,22.969],[-86.852,21.557],[-87.637,20.835],[-88.391,20.019],[-88.453,19.203],[-88.485,18.418],[-88.516,18.198],[-88.485,17.445],[-88.014,16.943],[-87.449,16.566],[-85.974,16.252],[-85.628,16.001],[-85.409,15.499],[-85.409,15.122],[-85.722,14.651],[-86.287,14.275],[-87.637,13.427],[-88.893,12.768],[-90.933,12.328],[-91.686,12.328],[-92.597,12.485],[-93.381,12.799],[-94.041,13.27],[-94.919,13.835],[-95.736,14.18],[-96.52,14.369],[-97.996,15.059],[-100.13,15.467],[-101.856,16.064],[-102.672,16.378],[-104.273,17.1],[-104.87,17.727],[-105.529,18.512],[-105.811,19.14],[-105.906,19.642],[-105.906,20.144],[-105.811,20.521],[-105.466,20.835],[-104.964,21.149],[-104.43,21.306],[-103.677,21.368],[-102.547,21.4],[-101.699,21.243],[-100.915,20.96],[-100.318,20.678],[-99.942,20.301],[-99.565,19.987],[-99.314,19.956],[-99.094,20.05],[-99.094,20.301],[-99.126,20.646],[-99.188,20.898],[-99.753,21.463],[-100.318,21.933]]]}},{"type":"Feature","properties":{"density":1},"geometry":{"type":"Polygon","coordinates":[[[-91.113,17.039],[-91.171,17.075],[-91.254,17.167],[-91.442,17.269],[-91.464,17.364],[-91.433,17.41],[-91.237,17.426],[-91.184,17.414],[-91.139,17.374],[-91.099,17.325],[-91.068,17.248],[-90.961,17.104],[-90.967,17.074],[-90.995,17.055],[-91.109,17.037],[-91.113,17.039]]]}},{"type":"Feature","properties":{"density":1},"geometry":{"type":"Polygon","coordinates":[[[-90.506,17.065],[-90.687,17.205],[-90.707,17.256],[-90.686,17.303],[-90.617,17.312],[-90.484,17.236],[-90.459,17.159],[-90.459,17.1],[-90.478,17.067],[-90.5,17.067],[-90.506,17.065]]]}},{"type":"Feature","properties":{"density":1},"geometry":{"type":"Polygon","coordinates":[[[-90.866,17.963],[-90.941,18.011],[-91.211,18.314],[-91.283,18.374],[-91.348,18.475],[-91.358,18.555],[-91.346,18.581],[-91.277,18.595],[-91.113,18.495],[-90.952,18.242],[-90.828,18.118],[-90.765,18.024],[-90.754,17.969],[-90.791,17.951],[-90.852,17.956],[-90.866,17.963]]]}},{"type":"Feature","properties":{"density":1},"geometry":{"type":"Polygon","coordinates":[[[-91.093,18.474],[-91.245,18.632],[-91.269,18.711],[-91.254,18.745],[-91.207,18.749],[-91.143,18.702],[-91.082,18.618],[-90.915,18.45],[-90.89,18.397],[-90.936,18.383],[-91.085,18.47],[-91.093,18.474]]]}},{"type":"Feature","properties":{"density":1},"geometry":{"type":"Polygon","coordinates":[[[-90.825,18.143],[-91.02,18.312],[-91.04,18.363],[-91.026,18.394],[-90.972,18.377],[-90.812,18.199],[-90.8,18.164],[-90.803,18.142],[-90.82,18.14],[-90.825,18.143]]]}},{"type":"Feature","properties":{"density":1},"geometry":{"type":"Polygon","coordinates":[[[-90.816,18.515],[-90.976,18.645],[-91.121,18.805],[-91.145,18.844],[-91.172,18.957],[-91.148,19.005],[-91.069,19.011],[-90.999,18.947],[-90.872,18.704],[-90.77,18.582],[-90.764,18.541],[-90.805,18.516],[-90.816,18.515]]]}},{"type":"Feature","properties":{"density":1},"geometry":{"type":"Polygon","coordinates":[[[-90.44,18.12],[-90.535,18.158],[-90.626,18.217],[-90.714,18.305],[-90.802,18.411],[-90.811,18.459],[-90.799,18.496],[-90.75,18.501],[-90.557,18.355],[-90.404,18.177],[-90.396,18.155],[-90.431,18.123],[-90.44,18.12]]]}},{"type":"Feature","properties":{"density":1},"geometry":{"type":"Polygon","coordinates":[[[-90.486,18.038],[-90.553,18.069],[-90.578,18.098],[-90.59,18.137],[-90.58,18.163],[-90.515,18.154],[-90.443,18.104],[-90.428,18.042],[-90.46,18.034],[-90.486,18.038]]]}},{"type":"Feature","properties":{"density":1},"geometry":{"type":"Polygon","coordinates":[[[-90.3,18.091],[-90.417,18.154],[-90.429,18.193],[-90.393,18.196],[-90.329,18.166],[-90.284,18.121],[-90.294,18.09],[-90.3,18.091]]]}},{"type":"Feature","properties":{"density":1},"geometry":{"type":"Polygon","coordinates":[[[-90.277,18.696],[-90.511,18.811],[-90.52,18.837],[-90.5,18.892],[-90.426,18.885],[-90.315,18.81],[-90.262,18.746],[-90.257,18.714],[-90.271,18.694],[-90.277,18.696]]]}},{"type":"Feature","properties":{"density":1},"geometry":{"type":"Polygon","coordinates":[[[-90.029,17.013],[-90.14,17.062],[-90.229,17.135],[-90.258,17.203],[-90.233,17.262],[-90.132,17.235],[-90.057,17.172],[-89.991,17.07],[-89.988,17.032],[-90.02,17.011],[-90.029,17.013]]]}},{"type":"Feature","properties":{"density":1},"geometry":{"type":"Polygon","coordinates":[[[-88.758,17.082],[-88.72,17.242],[-88.72,17.314],[-88.738,17.367],[-88.769,17.385],[-88.81,17.371],[-88.829,17.343],[-88.845,17.216],[-88.825,17.075],[-88.792,17.053],[-88.764,17.075],[-88.758,17.082]]]}},{"type":"Feature","properties":{"density":1},"geometry":{"type":"Polygon","coordinates":[[[-90.459,17.533],[-90.578,17.603],[-90.745,17.736],[-90.778,17.81],[-90.765,17.867],[-90.746,17.882],[-90.689,17.877],[-90.544,17.78],[-90.451,17.673],[-90.408,17.592],[-90.408,17.549],[-90.447,17.531],[-90.459,17.533]]]}},{"type":"Feature","properties":{"density":1},"geometry":{"type":"Polygon","coordinates":[[[-92.949,17.951],[-92.868,17.875],[-92.832,17.683],[-92.872,17.548],[-92.951,17.499],[-92.989,17.503],[-93.036,17.599],[-93.032,17.782],[-93.06,17.92],[-93.042,17.964],[-92.963,17.954],[-92.949,17.951]]]}},{"type":"Feature","properties":{"density":1},"geometry":{"type":"Polygon","coordinates":[[[-92.31,17.534],[-92.253,17.538],[-92.18,17.495],[-92.161,17.459],[-92.152,17.354],[-92.176,17.262],[-92.215,17.212],[-92.349,17.152],[-92.425,17.181],[-92.434,17.27],[-92.39,17.448],[-92.322,17.529],[-92.31,17.534]]]}},{"type":"Feature","properties":{"density":1},"geometry":{"type":"Polygon","coordinates":[[[-104.09,21.302],[-104.109,21.346],[-104.101,21.443],[-104.072,21.602],[-103.989,21.876],[-103.903,22.043],[-103.859,22.087],[-103.811,22.088],[-103.777,22.064],[-103.661,21.843],[-103.628,21.579],[-103.634,21.435],[-103.669,21.36],[-103.787,21.279],[-103.934,21.253],[-104.067,21.282],[-104.09,21.302]]]}},{"type":"Feature","properties":{"density":1},"geometry":{"type":"Polygon","coordinates":[[[-105.074,20.148],[-105.054,20.249],[-105.063,20.31],[-105.096,20.338],[-105.186,20.324],[-105.209,20.261],[-105.186,20.166],[-105.171,20.14],[-105.138,20.126],[-105.08,20.139],[-105.074,20.148]]]}},{"type":"Feature","properties":{"density":1},"geometry":{"type":"Polygon","coordinates":[[[-102.955,18.28],[-103.036,18.294],[-103.121,18.28],[-103.155,18.256],[-103.169,18.185],[-103.147,18.169],[-103.022,18.175],[-102.912,18.146],[-102.891,18.171],[-102.888,18.207],[-102.905,18.247],[-102.947,18.277],[-102.955,18.28]]]}},{"type":"Feature","properties":{"density":1},"geometry":{"type":"Polygon","coordinates":[[[-103.191,18.632],[-103.102,18.644],[-103.045,18.632],[-102.995,18.59],[-102.983,18.543],[-103.0,18.52],[-103.053,18.52],[-103.195,18.561],[-103.216,18.595],[-103.201,18.626],[-103.191,18.632]]]}},{"type":"Feature","properties":{"density":1},"geometry":{"type":"Polygon","coordinates":[[[-93.69,17.718],[-93.684,17.845],[-93.665,17.89],[-93.633,17.915],[-93.611,17.891],[-93.615,17.822],[-93.652,17.722],[-93.687,17.713],[-93.69,17.718]]]}},{"type":"Feature","properties":{"density":1},"geometry":{"type":"Polygon","coordinates":[[[-96.088,18.731],[-96.14,18.772],[-96.2,18.853],[-96.207,18.902],[-96.187,18.926],[-96.141,18.919],[-96.087,18.86],[-96.063,18.79],[-96.067,18.735],[-96.084,18.727],[-96.088,18.731]]]}},{"type":"Feature","properties":{"density":1},"geometry":{"type":"Polygon","coordinates":[[[-98.575,16.597],[-98.515,16.637],[-98.49,16.63],[-98.481,16.599],[-98.512,16.545],[-98.598,16.526],[-98.639,16.545],[-98.635,16.579],[-98.58,16.597],[-98.575,16.597]]]}},{"type":"Feature","properties":{"density":1},"geometry":{"type":"Polygon","coordinates":[[[-90.102,16.718],[-90.189,16.795],[-90.225,16.855],[-90.242,16.92],[-90.225,16.942],[-90.181,16.937],[-90.071,16.833],[-90.053,16.728],[-90.094,16.714],[-90.102,16.718]]]}},{"type":"Feature","properties":{"density":1},"geometry":{"type":"Polygon","coordinates":[[[-90.556,15.582],[-90.493,15.574],[-90.487,15.507],[-90.535,15.416],[-90.577,15.402],[-90.634,15.411],[-90.664,15.435],[-90.669,15.49],[-90.644,15.53],[-90.567,15.575],[-90.556,15.582]]]}},{"type":"Feature","properties":{"density":1},"geometry":{"type":"Polygon","coordinates":[[[-89.209,19.777],[-89.324,19.873],[-89.33,19.92],[-89.304,19.944],[-89.253,19.94],[-89.2,19.889],[-89.165,19.805],[-89.195,19.774],[-89.209,19.777]]]}},{"type":"Feature","properties":{"density":1},"geometry":{"type":"Polygon","coordinates":[[[-90.348,19.259],[-90.403,19.315],[-90.476,19.353],[-90.554,19.361],[-90.582,19.328],[-90.569,19.266],[-90.406,19.139],[-90.376,19.14],[-90.338,19.19],[-90.345,19.257],[-90.348,19.259]]]}},{"type":"Feature","properties":{"density":1},"geometry":{"type":"Polygon","coordinates":[[[-102.398,18.684],[-102.316,18.745],[-102.265,18.758],[-102.229,18.746],[-102.179,18.651],[-102.151,18.505],[-102.19,18.492],[-102.349,18.573],[-102.397,18.627],[-102.402,18.676],[-102.398,18.684]]]}},{"type":"Feature","properties":{"density":1},"geometry":{"type":"Polygon","coordinates":[[[-93.017,17.569],[-93.071,17.795],[-93.258,18.289],[-93.27,18.399],[-93.234,18.696],[-93.256,19.046],[-93.223,19.093],[-93.146,19.102],[-93.005,19.096],[-92.669,18.98],[-92.597,18.917],[-92.545,18.823],[-92.487,18.614],[-92.476,18.363],[-92.437,18.019],[-92.451,17.839],[-92.479,17.776],[-92.567,17.647],[-92.886,17.468],[-92.929,17.468],[-92.992,17.52],[-93.017,17.569]]]}},{"type":"Feature","properties":{"density":1},"geometry":{"type":"Polygon","coordinates":[[[-81.944,23.035],[-81.903,23.195],[-81.847,23.33],[-81.764,23.449],[-81.699,23.492],[-81.646,23.485],[-81.576,23.392],[-81.587,23.29],[-81.628,23.207],[-81.73,23.076],[-81.831,22.996],[-81.895,22.986],[-81.934,23.001],[-81.947,23.025],[-81.944,23.035]]]}},{"type":"Feature","properties":{"density":1},"geometry":{"type":"Polygon","coordinates":[[[-66.28,45.824],[-66.218,45.773],[-66.178,45.65],[-66.09,45.509],[-66.079,45.424],[-66.126,45.407],[-66.241,45.445],[-66.427,45.416],[-66.531,45.443],[-66.559,45.476],[-66.563,45.515],[-66.508,45.639],[-66.405,45.758],[-66.327,45.817],[-66.284,45.825],[-66.28,45.824]]]}},{"type":"Feature","properties":{"density":1},"geometry":{"type":"Polygon","coordinates":[[[-89.808,16.797],[-89.848,16.825],[-89.924,16.935],[-89.941,17.037],[-89.907,17.081],[-89.862,17.062],[-89.785,16.93],[-89.771,16.805],[-89.8,16.794],[-89.808,16.797]]]}},{"type":"Feature","properties":{"density":1},"geometry":{"type":"Polygon","coordinates":[[[-81.132,26.897],[-80.973,27.013],[-80.808,27.175],[-80.628,27.25],[-80.419,27.311],[-80.288,27.285],[-80.225,27.251],[-80.176,27.195],[-80.135,27.061],[-80.162,26.935],[-80.215,26.845],[-80.465,26.567],[-80.91,26.569],[-81.16,26.728],[-81.175,26.798],[-81.166,26.85],[-81.132,26.897]]]}},{"type":"Feature","properties":{"density":1},"geometry":{"type":"Polygon","coordinates":[[[-102.16,18.214],[-102.192,18.367],[-102.174,18.4],[-102.151,18.401],[-102.12,18.372],[-102.099,18.262],[-102.123,18.206],[-102.158,18.21],[-102.16,18.214]]]}},{"type":"Feature","properties":{"density":1},"geometry":{"type":"Polygon","coordinates":[[[-102.176,18.029],[-102.221,18.149],[-102.211,18.183],[-102.186,18.194],[-102.149,18.166],[-102.132,18.12],[-102.13,18.06],[-102.168,18.029],[-102.176,18.029]]]}},{"type":"Feature","properties":{"density":1},"geometry":{"type":"Polygon","coordinates":[[[-102.049,18.316],[-102.04,18.435],[-102.083,18.576],[-102.085,18.631],[-102.061,18.68],[-101.971,18.684],[-101.929,18.666],[-101.892,18.604],[-101.9,18.462],[-101.963,18.29],[-102.014,18.274],[-102.047,18.306],[-102.049,18.316]]]}},{"type":"Feature","properties":{"density":1},"geometry":{"type":"Polygon","coordinates":[[[-101.935,18.063],[-101.918,18.319],[-101.866,18.379],[-101.741,18.387],[-101.636,18.351],[-101.577,18.315],[-101.507,18.221],[-101.495,18.096],[-101.511,18.059],[-101.586,18.009],[-101.683,17.981],[-101.8,17.975],[-101.836,17.985],[-101.931,18.056],[-101.935,18.063]]]}},{"type":"Feature","properties":{"density":1},"geometry":{"type":"Polygon","coordinates":[[[-96.043,18.365],[-96.129,18.588],[-96.176,18.659],[-96.263,18.714],[-96.38,18.739],[-96.483,18.737],[-96.526,18.704],[-96.569,18.585],[-96.553,18.47],[-96.453,18.329],[-96.393,18.279],[-96.328,18.236],[-96.225,18.208],[-96.152,18.208],[-96.048,18.241],[-96.031,18.321],[-96.043,18.365]]]}},{"type":"Feature","properties":{"density":1},"geometry":{"type":"Polygon","coordinates":[[[-96.096,18.732],[-96.152,18.769],[-96.276,18.92],[-96.3,19.005],[-96.265,19.044],[-96.196,19.05],[-96.084,18.954],[-96.053,18.784],[-96.068,18.738],[-96.086,18.729],[-96.096,18.732]]]}},{"type":"Feature","properties":{"density":1},"geometry":{"type":"Polygon","coordinates":[[[-66.343,45.859],[-66.249,45.826],[-66.213,45.792],[-66.041,45.398],[-65.958,45.262],[-65.945,45.094],[-66.019,44.911],[-66.093,44.799],[-66.278,44.636],[-66.436,44.445],[-66.515,44.396],[-66.573,44.395],[-66.659,44.425],[-66.691,44.462],[-66.703,44.524],[-66.675,44.757],[-66.683,44.916],[-66.721,45.032],[-66.71,45.383],[-66.596,45.755],[-66.54,45.852],[-66.48,45.886],[-66.356,45.866],[-66.343,45.859]]]}},{"type":"Feature","properties":{"density":1},"geometry":{"type":"Polygon","coordinates":[[[-81.083,27.013],[-80.869,27.196],[-80.249,27.587],[-80.062,27.674],[-79.788,27.774],[-79.516,27.832],[-79.073,28.067],[-78.816,28.249],[-78.62,28.301],[-78.529,28.287],[-78.502,28.205],[-78.537,28.094],[-78.756,27.745],[-79.207,27.21],[-79.349,27.015],[-79.604,26.834],[-80.269,26.618],[-80.618,26.547],[-80.822,26.547],[-80.943,26.575],[-81.148,26.67],[-81.185,26.73],[-81.203,26.843],[-81.194,26.898],[-81.132,26.967],[-81.083,27.013]]]}},{"type":"Feature","properties":{"density":1},"geometry":{"type":"Polygon","coordinates":[[[-81.978,23.108],[-81.918,23.205],[-81.651,23.492],[-81.388,23.725],[-81.194,23.874],[-81.08,23.913],[-81.012,23.913],[-80.857,23.839],[-80.845,23.756],[-80.999,23.327],[-81.073,23.217],[-81.249,23.035],[-81.361,22.969],[-81.567,22.899],[-81.706,22.877],[-81.815,22.828],[-81.901,22.817],[-81.967,22.872],[-81.989,23.094],[-81.978,23.108]]]}},{"type":"Feature","properties":{"density":1},"geometry":{"type":"Polygon","coordinates":[[[-82.527,24.507],[-82.44,24.511],[-82.373,24.469],[-82.293,24.336],[-82.261,24.244],[-82.278,23.993],[-82.236,23.914],[-82.139,23.807],[-82.125,23.685],[-82.134,23.302],[-82.176,23.157],[-82.26,23.056],[-82.51,22.98],[-82.876,22.835],[-83.209,22.746],[-83.733,22.541],[-84.271,22.26],[-84.409,22.211],[-84.623,22.211],[-84.669,22.257],[-84.696,22.343],[-84.706,22.56],[-84.663,22.713],[-84.408,23.038],[-84.259,23.177],[-84.084,23.43],[-83.917,23.764],[-83.837,23.841],[-83.741,23.888],[-83.614,23.9],[-83.512,23.874],[-83.423,23.77],[-83.343,23.631],[-83.193,23.495],[-83.052,23.494],[-82.939,23.559],[-82.882,23.695],[-82.898,23.857],[-82.971,23.994],[-82.994,24.119],[-82.998,24.28],[-82.978,24.368],[-82.906,24.492],[-82.861,24.525],[-82.741,24.545],[-82.555,24.498],[-82.527,24.507]]]}},{"type":"Feature","properties":{"density":1},"geometry":{"type":"Polygon","coordinates":[[[-91.109,17.005],[-91.356,17.154],[-91.744,17.344],[-91.883,17.397],[-91.924,17.453],[-91.932,17.512],[-91.861,17.634],[-91.742,17.683],[-91.546,17.683],[-91.271,17.648],[-91.183,17.595],[-91.142,17.55],[-91.038,17.357],[-90.946,17.124],[-90.944,17.073],[-90.962,17.032],[-91.079,16.993],[-91.109,17.005]]]}},{"type":"Feature","properties":{"density":1},"geometry":{"type":"Polygon","coordinates":[[[-90.574,17.345],[-90.649,17.359],[-90.823,17.444],[-91.087,17.61],[-91.216,17.71],[-91.316,17.839],[-91.316,17.883],[-91.295,17.922],[-91.223,17.968],[-91.121,17.971],[-91.013,17.911],[-90.777,17.73],[-90.609,17.591],[-90.537,17.496],[-90.522,17.387],[-90.559,17.349],[-90.574,17.345]]]}},{"type":"Feature","properties":{"density":1},"geometry":{"type":"Polygon","coordinates":[[[-90.028,17.003],[-90.114,17.02],[-90.204,17.061],[-90.348,17.176],[-90.476,17.311],[-90.48,17.345],[-90.442,17.408],[-90.355,17.423],[-90.303,17.398],[-90.104,17.228],[-90.012,17.11],[-90.0,17.037],[-90.017,17.006],[-90.028,17.003]]]}},{"type":"Feature","properties":{"density":1},"geometry":{"type":"Polygon","coordinates":[[[-90.814,17.932],[-91.073,17.99],[-91.109,18.013],[-91.264,18.24],[-91.29,18.343],[-91.271,18.392],[-91.185,18.407],[-91.028,18.294],[-90.843,18.085],[-90.792,18.0],[-90.789,17.953],[-90.806,17.936],[-90.814,17.932]]]}},{"type":"Feature","properties":{"density":1},"geometry":{"type":"Polygon","coordinates":[[[-90.475,19.434],[-90.549,19.5],[-90.756,19.61],[-90.897,19.701],[-90.96,19.761],[-91.06,19.816],[-91.159,19.857],[-91.229,19.849],[-91.274,19.811],[-91.314,19.646],[-91.284,19.549],[-91.233,19.489],[-91.142,19.43],[-90.952,19.231],[-90.88,19.195],[-90.688,19.143],[-90.414,18.942],[-90.37,18.96],[-90.351,18.993],[-90.312,19.168],[-90.325,19.252],[-90.464,19.421],[-90.475,19.434]]]}},{"type":"Feature","properties":{"density":1},"geometry":{"type":"Polygon","coordinates":[[[-89.237,19.784],[-89.407,19.852],[-89.569,19.94],[-89.694,20.049],[-89.711,20.089],[-89.708,20.147],[-89.648,20.158],[-89.529,20.126],[-89.399,20.034],[-89.197,19.844],[-89.194,19.817],[-89.226,19.783],[-89.237,19.784]]]}},{"type":"Feature","properties":{"density":1},"geometry":{"type":"Polygon","coordinates":[[[-89.419,18.094],[-89.62,18.11],[-89.673,18.096],[-89.691,18.065],[-89.668,18.04],[-89.503,18.038],[-89.412,18.06],[-89.405,18.087],[-89.419,18.094]]]}},{"type":"Feature","properties":{"density":1},"geometry":{"type":"Polygon","coordinates":[[[-88.779,18.254],[-88.88,18.314],[-89.105,18.377],[-89.186,18.384],[-89.216,18.352],[-89.215,18.31],[-89.184,18.28],[-89.024,18.217],[-88.81,18.195],[-88.77,18.241],[-88.779,18.254]]]}},{"type":"Feature","properties":{"density":1},"geometry":{"type":"Polygon","coordinates":[[[-93.684,17.698],[-93.751,17.752],[-93.812,17.884],[-93.809,18.08],[-93.754,18.129],[-93.685,18.129],[-93.608,18.064],[-93.602,18.009],[-93.636,17.773],[-93.675,17.701],[-93.684,17.698]]]}},{"type":"Feature","properties":{"density":1},"geometry":{"type":"Polygon","coordinates":[[[-94.557,16.715],[-94.591,16.786],[-94.586,16.821],[-94.54,16.802],[-94.506,16.746],[-94.514,16.704],[-94.551,16.71],[-94.557,16.715]]]}},{"type":"Feature","properties":{"density":1},"geometry":{"type":"Polygon","coordinates":[[[-105.192,20.207],[-105.115,20.264],[-105.001,20.28],[-104.879,20.248],[-104.851,20.229],[-104.845,20.204],[-104.872,20.164],[-104.957,20.107],[-105.031,20.002],[-105.139,19.979],[-105.291,20.001],[-105.335,20.059],[-105.326,20.124],[-105.204,20.197],[-105.192,20.207]]]}},{"type":"Feature","properties":{"density":1},"geometry":{"type":"Polygon","coordinates":[[[-104.08,21.299],[-104.075,21.401],[-103.946,21.608],[-103.92,21.698],[-103.903,21.827],[-103.905,22.088],[-103.883,22.222],[-103.834,22.295],[-103.747,22.321],[-103.669,22.294],[-103.591,22.217],[-103.444,22.129],[-103.231,22.069],[-103.14,22.023],[-103.112,21.925],[-103.119,21.819],[-103.173,21.728],[-103.318,21.606],[-103.6,21.481],[-103.671,21.416],[-103.873,21.287],[-104.02,21.27],[-104.079,21.294],[-104.08,21.299]]]}},{"type":"Feature","properties":{"density":1},"geometry":{"type":"Polygon","coordinates":[[[-103.365,21.811],[-103.302,22.013],[-103.231,22.056],[-103.183,22.034],[-103.174,21.974],[-103.216,21.874],[-103.334,21.803],[-103.365,21.806],[-103.365,21.811]]]}},{"type":"Feature","properties":{"density":1},"geometry":{"type":"Polygon","coordinates":[[[-90.356,18.079],[-90.537,18.146],[-90.8,18.292],[-90.932,18.47],[-90.934,18.515],[-90.918,18.542],[-90.865,18.552],[-90.781,18.515],[-90.373,18.226],[-90.286,18.127],[-90.283,18.081],[-90.335,18.068],[-90.356,18.079]]]}},{"type":"Feature","properties":{"density":1},"geometry":{"type":"Polygon","coordinates":[[[-90.866,18.314],[-91.063,18.435],[-91.214,18.582],[-91.306,18.686],[-91.319,18.712],[-91.308,18.758],[-91.239,18.752],[-91.099,18.658],[-90.832,18.388],[-90.807,18.327],[-90.829,18.303],[-90.849,18.306],[-90.866,18.314]]]}},{"type":"Feature","properties":{"density":1},"geometry":{"type":"Polygon","coordinates":[[[-88.79,17.342],[-88.969,17.359],[-89.074,17.344],[-89.158,17.3],[-89.173,17.252],[-89.131,17.232],[-89.053,17.236],[-88.8,17.295],[-88.781,17.331],[-88.79,17.342]]]}},{"type":"Feature","properties":{"density":1},"geometry":{"type":"Polygon","coordinates":[[[-121.657,55.859],[-121.816,55.945],[-121.9,55.959],[-121.959,55.929],[-121.98,55.898],[-121.961,55.839],[-121.895,55.808],[-121.69,55.805],[-121.66,55.817],[-121.646,55.852],[-121.657,55.859]]]}},{"type":"Feature","properties":{"density":1},"geometry":{"type":"Polygon","coordinates":[[[-108.662,33.395],[-108.639,33.449],[-108.503,33.558],[-108.307,33.68],[-107.566,34.085],[-107.147,34.356],[-106.892,34.447],[-106.802,34.458],[-106.734,34.444],[-106.683,34.412],[-106.675,34.319],[-106.76,34.236],[-106.932,34.139],[-107.151,34.045],[-107.625,33.788],[-108.273,33.523],[-108.406,33.459],[-108.597,33.338],[-108.645,33.341],[-108.664,33.382],[-108.662,33.395]]]}},{"type":"Feature","properties":{"density":1},"geometry":{"type":"Polygon","coordinates":[[[-86.091,44.067],[-86.232,44.093],[-86.37,44.143],[-86.574,44.268],[-86.804,44.47],[-86.825,44.517],[-86.824,44.574],[-86.803,44.586],[-86.773,44.569],[-86.621,44.433],[-86.541,44.382],[-86.186,44.21],[-86.05,44.169],[-86.02,44.115],[-86.04,44.072],[-86.091,44.067]]]}},{"type":"Feature","properties":{"density":1},"geometry":{"type":"Polygon","coordinates":[[[-100.0,31.987],[-99.511,34.138],[-98.938,35.765],[-98.287,37.098],[-97.481,38.152],[-96.566,38.85],[-95.757,38.567],[-94.341,37.399],[-93.148,36.557],[-92.021,35.833],[-90.998,34.821],[-90.141,33.705],[-89.207,32.561],[-88.029,31.373],[-87.337,30.163],[-86.954,28.985],[-86.372,28.036],[-84.12,26.455],[-84.12,26.321],[-84.223,25.939],[-84.636,25.329],[-85.184,24.905],[-86.124,24.316],[-86.341,23.851],[-86.362,23.469],[-86.217,23.055],[-86.052,22.745],[-86.183,21.95],[-86.72,21.295],[-86.982,20.916],[-87.306,20.572],[-87.861,20.044],[-88.16,19.309],[-88.112,18.781],[-87.967,18.457],[-87.519,18.037],[-86.837,17.727],[-86.245,17.596],[-85.384,17.217],[-85.094,16.941],[-84.736,16.542],[-84.495,16.122],[-84.406,15.818],[-84.419,15.439],[-84.543,15.088],[-84.674,14.875],[-85.026,14.62],[-86.014,14.149],[-86.586,13.695],[-87.674,12.655],[-88.274,12.489],[-89.256,12.407],[-90.02,12.396],[-90.847,12.551],[-91.643,12.872],[-92.593,13.399],[-92.8,13.76],[-93.11,14.246],[-93.224,15.011],[-93.41,15.486],[-93.751,15.951],[-93.978,16.065],[-94.309,16.116],[-95.182,15.673],[-95.59,15.44],[-97.144,15.173],[-97.936,15.069],[-98.666,15.117],[-99.383,15.386],[-99.948,15.724],[-100.75,16.361],[-101.38,16.702],[-101.939,17.157],[-102.762,17.742],[-103.148,18.128],[-103.576,18.7],[-103.653,19.016],[-103.595,19.239],[-103.423,19.501],[-103.113,19.687],[-102.569,19.742],[-102.121,19.729],[-101.604,19.618],[-101.122,19.432],[-100.619,19.177],[-99.985,18.943],[-99.097,18.034],[-98.415,17.438],[-97.991,16.952],[-97.423,16.663],[-96.823,16.591],[-95.738,16.529],[-95.428,16.653],[-95.294,16.952],[-95.253,17.304],[-95.273,17.665],[-95.511,18.089],[-95.945,18.533],[-96.307,18.864],[-96.811,19.227],[-98.191,20.292],[-98.901,21.016],[-99.459,21.705],[-99.707,22.607],[-99.703,23.782],[-100.137,24.67],[-101.357,26.644],[-101.574,27.77],[-101.036,29.341],[-100.444,30.602],[-100.0,31.987]]]}},{"type":"Feature","properties":{"density":1},"geometry":{"type":"Polygon","coordinates":[[[-105.352,22.384],[-105.162,22.38],[-105.137,22.336],[-105.152,22.284],[-105.279,22.221],[-105.32,22.224],[-105.364,22.265],[-105.38,22.308],[-105.357,22.382],[-105.352,22.384]]]}},{"type":"Feature","properties":{"density":1},"geometry":{"type":"Polygon","coordinates":[[[-63.105,35.337],[-62.817,35.44],[-62.189,35.512],[-61.726,35.481],[-61.15,35.193],[-60.501,34.73],[-59.935,34.112],[-59.266,33.474],[-58.556,33.042],[-57.166,32.044],[-56.24,31.642],[-55.761,31.503],[-54.618,30.952],[-54.093,30.674],[-53.65,30.561],[-53.012,30.509],[-52.23,30.478],[-51.125,30.5],[-49.534,30.845],[-48.454,31.169],[-46.833,31.354],[-45.381,31.632],[-44.409,31.786],[-43.606,31.786],[-42.942,31.323],[-42.51,30.798],[-42.71,30.242],[-43.266,29.393],[-44.625,28.328],[-45.52,27.834],[-46.369,27.556],[-47.666,27.402],[-48.963,27.216],[-50.569,27.139],[-52.051,27.309],[-54.475,27.765],[-55.656,27.765],[-57.925,27.88],[-59.917,28.228],[-61.214,28.529],[-62.603,28.969],[-64.178,29.779],[-65.29,30.729],[-65.938,31.586],[-66.309,32.35],[-66.355,32.975],[-66.008,33.577],[-65.591,34.179],[-65.128,34.527],[-64.387,34.897],[-63.854,35.198],[-63.532,35.323],[-63.299,35.336],[-63.105,35.337]]]}},{"type":"Feature","properties":{"density":2},"geometry":{"type":"Polygon","coordinates":[[[-82.87,30.786],[-82.825,30.805],[-82.656,30.794],[-82.638,30.76],[-82.644,30.708],[-82.695,30.673],[-82.751,30.674],[-82.802,30.7],[-82.859,30.761],[-82.87,30.786]]]}},{"type":"Feature","properties":{"density":2},"geometry":{"type":"Polygon","coordinates":[[[-81.872,31.309],[-81.767,31.394],[-81.247,31.494],[-80.886,31.505],[-80.589,31.55],[-80.102,31.513],[-79.895,31.525],[-79.833,31.554],[-79.845,31.596],[-79.936,31.653],[-80.337,31.749],[-80.598,31.79],[-80.709,31.823],[-80.8,31.885],[-80.804,31.926],[-80.755,31.972],[-80.627,31.984],[-80.428,31.98],[-80.089,31.926],[-79.916,31.885],[-79.63,31.777],[-79.531,31.682],[-79.469,31.579],[-79.461,31.426],[-79.444,31.377],[-79.333,31.323],[-79.172,31.327],[-79.077,31.348],[-79.027,31.381],[-78.965,31.463],[-78.94,31.525],[-78.944,31.608],[-78.915,31.682],[-78.866,31.736],[-78.783,31.782],[-78.68,31.765],[-78.568,31.62],[-78.523,31.472],[-78.535,31.401],[-78.597,31.327],[-78.692,31.269],[-78.87,31.199],[-79.403,31.108],[-79.812,31.071],[-79.866,31.058],[-79.911,31.013],[-79.982,30.976],[-80.064,30.951],[-80.18,30.947],[-80.325,30.967],[-81.218,31.013],[-81.759,31.166],[-81.858,31.224],[-81.867,31.257],[-81.872,31.309]]]}},{"type":"Feature","properties":{"density":2},"geometry":{"type":"Polygon","coordinates":[[[-104.061,21.339],[-103.955,21.375],[-103.911,21.373],[-103.886,21.329],[-103.896,21.253],[-103.929,21.221],[-103.961,21.224],[-104.064,21.284],[-104.078,21.312],[-104.07,21.334],[-104.061,21.339]]]}},{"type":"Feature","properties":{"density":2},"geometry":{"type":"Polygon","coordinates":[[[-105.109,20.157],[-105.167,20.153],[-105.178,20.189],[-105.164,20.231],[-105.11,20.223],[-105.106,20.159],[-105.109,20.157]]]}},{"type":"Feature","properties":{"density":2},"geometry":{"type":"Polygon","coordinates":[[[-66.308,45.805],[-66.25,45.782],[-66.255,45.711],[-66.31,45.637],[-66.357,45.621],[-66.409,45.627],[-66.439,45.661],[-66.428,45.706],[-66.348,45.791],[-66.311,45.805],[-66.308,45.805]]]}},{"type":"Feature","properties":{"density":2},"geometry":{"type":"Polygon","coordinates":[[[-81.787,31.365],[-81.696,31.358],[-81.565,31.289],[-81.395,31.228],[-81.202,31.2],[-81.131,31.115],[-81.127,31.036],[-81.18,30.975],[-81.3,30.952],[-81.428,30.971],[-81.648,31.062],[-81.778,31.151],[-81.854,31.233],[-81.858,31.323],[-81.796,31.365],[-81.787,31.365]]]}},{"type":"Feature","properties":{"density":2},"geometry":{"type":"Polygon","coordinates":[[[-80.473,31.463],[-80.206,31.466],[-79.727,31.366],[-79.583,31.306],[-79.464,31.177],[-79.372,31.108],[-79.253,31.095],[-79.213,31.06],[-79.193,30.973],[-79.237,30.916],[-79.326,30.88],[-79.509,30.879],[-79.691,30.924],[-79.944,30.947],[-80.106,30.924],[-80.387,30.843],[-80.587,30.849],[-80.754,30.931],[-80.826,30.99],[-80.889,31.109],[-80.889,31.153],[-80.86,31.189],[-80.692,31.238],[-80.612,31.28],[-80.566,31.321],[-80.489,31.447],[-80.473,31.463]]]}},{"type":"Feature","properties":{"density":2},"geometry":{"type":"Polygon","coordinates":[[[-81.806,31.372],[-81.671,31.301],[-81.32,31.195],[-81.123,31.103],[-80.821,30.794],[-80.693,30.612],[-80.534,30.446],[-80.527,30.408],[-80.581,30.372],[-80.746,30.378],[-80.926,30.482],[-81.028,30.559],[-81.277,30.803],[-81.503,30.936],[-81.834,31.195],[-81.868,31.259],[-81.871,31.306],[-81.852,31.356],[-81.813,31.371],[-81.806,31.372]]]}},{"type":"Feature","properties":{"density":2},"geometry":{"type":"Polygon","coordinates":[[[-80.135,31.25],[-79.916,31.193],[-79.77,31.194],[-79.679,31.216],[-79.424,31.13],[-79.166,31.079],[-79.127,31.032],[-79.12,30.997],[-79.138,30.929],[-79.217,30.846],[-79.269,30.835],[-79.32,30.842],[-79.417,30.888],[-79.738,30.899],[-79.847,30.931],[-79.97,30.983],[-80.075,31.044],[-80.117,31.087],[-80.186,31.195],[-80.182,31.235],[-80.143,31.252],[-80.135,31.25]]]}},{"type":"Feature","properties":{"density":2},"geometry":{"type":"Polygon","coordinates":[[[-91.147,17.108],[-91.179,17.131],[-91.238,17.223],[-91.254,17.269],[-91.25,17.332],[-91.202,17.322],[-91.17,17.283],[-91.125,17.121],[-91.13,17.105],[-91.145,17.107],[-91.147,17.108]]]}},{"type":"Feature","properties":{"density":2},"geometry":{"type":"Polygon","coordinates":[[[-104.073,21.31],[-104.071,21.529],[-104.061,21.581],[-104.036,21.616],[-104.0,21.6],[-103.984,21.514],[-103.964,21.49],[-103.89,21.471],[-103.879,21.429],[-103.891,21.404],[-103.984,21.352],[-104.026,21.304],[-104.068,21.304],[-104.073,21.31]]]}},{"type":"Feature","properties":{"density":2},"geometry":{"type":"Polygon","coordinates":[[[-90.359,19.259],[-90.421,19.319],[-90.5,19.348],[-90.566,19.333],[-90.564,19.288],[-90.48,19.201],[-90.413,19.162],[-90.37,19.173],[-90.342,19.202],[-90.338,19.229],[-90.357,19.257],[-90.359,19.259]]]}},{"type":"Feature","properties":{"density":2},"geometry":{"type":"Polygon","coordinates":[[[-66.321,45.806],[-66.418,45.698],[-66.456,45.599],[-66.467,45.507],[-66.447,45.45],[-66.424,45.441],[-66.362,45.441],[-66.174,45.502],[-66.144,45.525],[-66.144,45.548],[-66.191,45.607],[-66.221,45.729],[-66.261,45.797],[-66.283,45.819],[-66.316,45.809],[-66.321,45.806]]]}},{"type":"Feature","properties":{"density":2},"geometry":{"type":"Polygon","coordinates":[[[-66.393,45.855],[-66.491,45.864],[-66.539,45.807],[-66.568,45.634],[-66.596,45.13],[-66.584,45.11],[-66.435,45.07],[-66.313,45.057],[-66.221,45.063],[-66.027,45.122],[-65.981,45.163],[-65.97,45.212],[-66.079,45.379],[-66.118,45.545],[-66.258,45.81],[-66.283,45.83],[-66.376,45.85],[-66.393,45.855]]]}},{"type":"Feature","properties":{"density":2},"geometry":{"type":"Polygon","coordinates":[[[-90.43,19.243],[-90.462,19.289],[-90.567,19.369],[-90.667,19.399],[-90.706,19.389],[-90.71,19.327],[-90.621,19.241],[-90.561,19.211],[-90.463,19.203],[-90.429,19.212],[-90.428,19.239],[-90.43,19.243]]]}},{"type":"Feature","properties":{"density":2},"geometry":{"type":"Polygon","coordinates":[[[-104.069,21.325],[-104.042,21.396],[-103.952,21.537],[-103.922,21.54],[-103.893,21.517],[-103.805,21.397],[-103.804,21.362],[-103.828,21.322],[-103.885,21.294],[-104.042,21.285],[-104.062,21.291],[-104.07,21.319],[-104.069,21.325]]]}},{"type":"Feature","properties":{"density":2},"geometry":{"type":"Polygon","coordinates":[[[-103.358,21.827],[-103.254,21.97],[-103.198,21.952],[-103.202,21.916],[-103.249,21.856],[-103.337,21.807],[-103.358,21.807],[-103.359,21.823],[-103.358,21.827]]]}},{"type":"Feature","properties":{"density":2},"geometry":{"type":"Polygon","coordinates":[[[-105.37,22.335],[-105.36,22.362],[-105.321,22.375],[-105.237,22.362],[-105.168,22.37],[-105.159,22.342],[-105.16,22.32],[-105.19,22.289],[-105.261,22.266],[-105.343,22.289],[-105.37,22.331],[-105.37,22.335]]]}},{"type":"Feature","properties":{"density":3},"geometry":{"type":"Polygon","coordinates":[[[-82.86,30.787],[-82.826,30.8],[-82.785,30.754],[-82.853,30.772],[-82.86,30.787]]]}},{"type":"Feature","properties":{"density":3},"geometry":{"type":"Polygon","coordinates":[[[-81.826,31.261],[-81.855,31.31],[-81.826,31.354],[-81.501,31.364],[-81.142,31.353],[-80.981,31.298],[-80.971,31.248],[-81.001,31.208],[-81.062,31.18],[-81.343,31.165],[-81.655,31.185],[-81.761,31.206],[-81.809,31.235],[-81.826,31.261]]]}},{"type":"Feature","properties":{"density":3},"geometry":{"type":"Polygon","coordinates":[[[-80.853,31.089],[-80.853,31.138],[-80.808,31.179],[-80.649,31.229],[-80.194,31.226],[-80.172,31.268],[-80.186,31.331],[-80.365,31.375],[-80.414,31.408],[-80.417,31.455],[-80.357,31.466],[-80.241,31.452],[-80.064,31.403],[-79.706,31.262],[-79.651,31.218],[-79.64,31.157],[-79.659,31.111],[-79.701,31.094],[-79.918,31.124],[-79.996,31.089],[-80.103,30.995],[-80.186,30.995],[-80.246,31.022],[-80.351,31.036],[-80.72,31.011],[-80.789,31.014],[-80.833,31.036],[-80.853,31.089]]]}},{"type":"Feature","properties":{"density":3},"geometry":{"type":"Polygon","coordinates":[[[-66.297,45.802],[-66.288,45.768],[-66.314,45.764],[-66.322,45.793],[-66.3,45.802],[-66.297,45.802]]]}},{"type":"Feature","properties":{"density":3},"geometry":{"type":"Polygon","coordinates":[[[-81.778,31.353],[-81.554,31.26],[-81.267,31.198],[-81.165,31.129],[-81.166,31.06],[-81.194,31.016],[-81.234,30.995],[-81.332,30.983],[-81.454,31.008],[-81.643,31.087],[-81.814,31.206],[-81.841,31.244],[-81.841,31.334],[-81.783,31.354],[-81.778,31.353]]]}},{"type":"Feature","properties":{"density":3},"geometry":{"type":"Polygon","coordinates":[[[-80.064,31.355],[-79.789,31.236],[-79.723,31.178],[-79.679,31.127],[-79.668,31.074],[-79.71,30.999],[-79.797,30.964],[-79.86,30.996],[-79.917,31.078],[-80.038,31.202],[-80.138,31.274],[-80.149,31.352],[-80.115,31.367],[-80.075,31.358],[-80.064,31.355]]]}},{"type":"Feature","properties":{"density":3},"geometry":{"type":"Polygon","coordinates":[[[-81.787,31.369],[-81.738,31.331],[-81.427,31.199],[-81.111,31.016],[-81.035,30.925],[-80.867,30.638],[-80.885,30.598],[-80.97,30.595],[-81.041,30.63],[-81.243,30.812],[-81.42,30.903],[-81.631,31.055],[-81.845,31.244],[-81.857,31.34],[-81.797,31.369],[-81.787,31.369]]]}},{"type":"Feature","properties":{"density":3},"geometry":{"type":"Polygon","coordinates":[[[-66.397,45.653],[-66.428,45.522],[-66.401,45.464],[-66.267,45.502],[-66.204,45.501],[-66.18,45.519],[-66.2,45.574],[-66.295,45.694],[-66.335,45.705],[-66.387,45.666],[-66.397,45.653]]]}},{"type":"Feature","properties":{"density":3},"geometry":{"type":"Polygon","coordinates":[[[-66.358,45.765],[-66.465,45.509],[-66.471,45.447],[-66.429,45.432],[-66.183,45.46],[-66.155,45.476],[-66.157,45.534],[-66.286,45.692],[-66.28,45.813],[-66.329,45.8],[-66.358,45.765]]]}}]}