{"type":"FeatureCollection","features":[{"type":"Feature","properties":{"density":1},"geometry":{"type":"Polygon","coordinates":[[[-104.646,33.507],[-104.891,33.505],[-104.999,33.529],[-105.096,33.682],[-105.148,33.703],[-105.362,33.7],[-105.452,33.644],[-105.452,33.57],[-105.429,33.509],[-105.359,33.435],[-105.238,33.383],[-104.594,33.347],[-104.504,33.417],[-104.502,33.457],[-104.536,33.498],[-104.612,33.507],[-104.646,33.507]]]}},{"type":"Feature","properties":{"density":1},"geometry":{"type":"Polygon","coordinates":[[[-89.994,33.396],[-90.564,33.669],[-91.475,34.318],[-92.022,34.933],[-93.32,36.334],[-93.844,36.79],[-94.095,36.927],[-95.257,36.927],[-95.644,36.733],[-95.94,36.471],[-96.054,36.198],[-96.122,35.902],[-96.088,35.241],[-96.088,34.523],[-96.122,34.216],[-96.168,33.988],[-96.384,33.316],[-96.738,32.541],[-96.795,32.188],[-96.601,31.812],[-96.248,31.448],[-95.621,31.334],[-94.664,31.186],[-94.038,30.969],[-93.753,30.81],[-93.161,30.571],[-92.409,30.206],[-91.737,29.842],[-91.019,29.546],[-90.131,29.511],[-89.539,29.534],[-88.832,29.659],[-88.525,29.921],[-88.263,30.252],[-88.195,30.776],[-88.172,31.174],[-88.092,31.357],[-88.081,31.71],[-88.081,31.96],[-88.149,32.234],[-88.354,32.53],[-88.639,32.758],[-88.958,32.963],[-89.47,33.168],[-89.994,33.396]]]}},{"type":"Feature","properties":{"density":1},"geometry":{"type":"Polygon","coordinates":[[[-80.663,48.814],[-79.683,48.237],[-79.395,47.66],[-79.279,47.084],[-79.279,46.622],[-79.798,46.046],[-80.144,45.93],[-81.067,46.161],[-81.644,46.507],[-81.932,46.622],[-82.682,47.026],[-83.316,47.314],[-84.527,48.237],[-86.257,49.275],[-86.833,49.333],[-87.41,49.333],[-88.16,49.044],[-89.14,48.41],[-90.236,47.949],[-91.85,47.603],[-94.157,47.66],[-96.348,48.179],[-98.02,50.024],[-97.79,51.927],[-97.04,53.427],[-96.29,54.349],[-95.944,55.214],[-95.368,56.483],[-94.907,57.579],[-94.215,58.501],[-93.523,59.309],[-92.831,60.058],[-91.331,61.039],[-90.409,61.5],[-89.717,61.903],[-89.082,62.307],[-88.39,62.365],[-87.698,62.365],[-86.891,62.307],[-86.141,62.307],[-85.565,62.192],[-84.757,61.5],[-84.296,60.577],[-84.123,59.712],[-82.739,57.002],[-82.393,55.445],[-81.99,53.773],[-81.99,51.697],[-81.817,50.197],[-81.644,49.621],[-81.413,49.275],[-80.663,48.814]]]}},{"type":"Feature","properties":{"density":1},"geometry":{"type":"Polygon","coordinates":[[[-109.312,29.395],[-109.377,29.411],[-109.42,29.458],[-109.462,29.571],[-109.539,29.704],[-109.638,29.713],[-109.73,29.616],[-109.717,29.364],[-109.667,29.29],[-109.53,29.134],[-109.435,29.06],[-109.195,28.718],[-109.168,28.696],[-109.071,28.669],[-108.994,28.68],[-108.958,28.709],[-108.911,28.833],[-108.909,28.95],[-108.931,29.044],[-108.981,29.182],[-109.024,29.236],[-109.174,29.344],[-109.242,29.375],[-109.312,29.395]]]}},{"type":"Feature","properties":{"density":1},"geometry":{"type":"Polygon","coordinates":[[[-108.685,27.857],[-108.664,27.848],[-108.563,27.703],[-108.515,27.706],[-108.458,27.782],[-108.476,27.863],[-108.566,28.022],[-108.643,28.073],[-108.703,28.045],[-108.811,27.946],[-108.794,27.899],[-108.698,27.86],[-108.685,27.857]]]}},{"type":"Feature","properties":{"density":1},"geometry":{"type":"Polygon","coordinates":[[[-107.36,28.319],[-107.376,28.398],[-107.325,28.491],[-107.346,28.621],[-107.383,28.671],[-107.437,28.698],[-107.594,28.706],[-107.6,28.638],[-107.512,28.521],[-107.53,28.235],[-107.564,28.114],[-107.551,28.066],[-107.503,28.047],[-107.406,28.113],[-107.354,28.3],[-107.36,28.319]]]}},{"type":"Feature","properties":{"density":1},"geometry":{"type":"Polygon","coordinates":[[[-108.96,25.762],[-108.949,25.827],[-108.973,25.845],[-109.001,25.844],[-109.074,25.797],[-109.059,25.763],[-108.97,25.751],[-108.96,25.762]]]}},{"type":"Feature","properties":{"density":1},"geometry":{"type":"Polygon","coordinates":[[[-97.219,30.542],[-97.962,30.158],[-98.705,29.671],[-99.115,29.235],[-99.653,28.569],[-99.986,28.03],[-100.217,27.005],[-100.345,26.57],[-100.422,25.749],[-100.473,24.519],[-100.371,23.494],[-99.935,22.418],[-99.423,21.444],[-98.936,20.906],[-98.295,20.419],[-97.885,20.009],[-97.757,19.65],[-98.013,19.317],[-98.731,19.599],[-99.884,20.316],[-100.986,20.675],[-101.575,21.136],[-101.934,21.444],[-102.344,21.7],[-103.062,22.059],[-103.831,22.725],[-104.702,23.34],[-105.445,23.622],[-106.317,23.494],[-106.778,22.982],[-106.752,22.315],[-106.394,21.367],[-106.394,20.624],[-106.06,19.496],[-105.779,18.625],[-105.727,17.523],[-105.932,16.882],[-106.189,15.78],[-106.189,15.113],[-105.12,14.117],[-103.685,14.04],[-102.754,14.678],[-102.267,15.318],[-101.78,15.78],[-100.96,16.241],[-100.371,16.549],[-99.525,16.574],[-98.705,16.421],[-98.295,16.216],[-97.654,15.652],[-97.013,15.344],[-94.758,15.293],[-94.297,15.037],[-93.169,14.524],[-92.016,13.935],[-90.914,14.011],[-90.606,14.396],[-90.504,15.242],[-90.863,16.139],[-91.016,16.805],[-91.093,17.548],[-91.247,18.138],[-91.58,18.573],[-92.452,19.393],[-92.785,19.496],[-94.502,20.675],[-95.322,21.495],[-96.193,22.982],[-96.578,23.597],[-96.86,24.494],[-96.962,25.186],[-96.885,26.006],[-96.629,26.544],[-96.373,26.954],[-96.014,27.364],[-95.732,28.235],[-95.527,28.953],[-95.527,29.312],[-95.758,29.696],[-96.014,30.055],[-96.424,30.26],[-96.783,30.593],[-97.219,30.542]]]}},{"type":"Feature","properties":{"density":1},"geometry":{"type":"Polygon","coordinates":[[[-105.389,33.646],[-105.333,33.704],[-105.269,33.733],[-105.044,33.767],[-104.769,33.769],[-104.746,33.759],[-104.728,33.725],[-104.759,33.673],[-104.821,33.651],[-105.179,33.607],[-105.28,33.564],[-105.383,33.567],[-105.395,33.623],[-105.389,33.646]]]}},{"type":"Feature","properties":{"density":1},"geometry":{"type":"Polygon","coordinates":[[[-109.038,28.751],[-109.075,28.774],[-109.111,28.831],[-109.148,28.942],[-109.233,29.076],[-109.262,29.216],[-109.255,29.253],[-109.199,29.297],[-109.108,29.308],[-109.052,29.26],[-109.036,29.081],[-108.963,28.805],[-108.974,28.768],[-109.031,28.75],[-109.038,28.751]]]}},{"type":"Feature","properties":{"density":1},"geometry":{"type":"Polygon","coordinates":[[[-107.234,26.198],[-107.26,26.238],[-107.273,26.331],[-107.264,26.375],[-107.166,26.401],[-107.046,26.5],[-106.978,26.512],[-106.958,26.491],[-106.964,26.417],[-107.109,26.232],[-107.117,26.142],[-107.142,26.135],[-107.219,26.187],[-107.234,26.198]]]}},{"type":"Feature","properties":{"density":1},"geometry":{"type":"Polygon","coordinates":[[[-106.889,26.329],[-106.804,26.388],[-106.727,26.408],[-106.685,26.396],[-106.718,26.338],[-106.831,26.279],[-106.878,26.287],[-106.891,26.322],[-106.889,26.329]]]}},{"type":"Feature","properties":{"density":1},"geometry":{"type":"Polygon","coordinates":[[[-108.566,27.775],[-108.642,27.862],[-108.663,28.011],[-108.661,28.089],[-108.641,28.136],[-108.581,28.189],[-108.54,28.187],[-108.511,28.158],[-108.475,28.073],[-108.471,28.015],[-108.492,27.811],[-108.51,27.778],[-108.562,27.774],[-108.566,27.775]]]}},{"type":"Feature","properties":{"density":1},"geometry":{"type":"Polygon","coordinates":[[[-107.13,25.765],[-107.083,25.814],[-107.01,25.849],[-106.951,25.86],[-106.918,25.846],[-106.931,25.811],[-107.067,25.743],[-107.101,25.736],[-107.132,25.759],[-107.13,25.765]]]}},{"type":"Feature","properties":{"density":1},"geometry":{"type":"Polygon","coordinates":[[[-107.554,28.126],[-107.501,28.385],[-107.488,28.408],[-107.436,28.418],[-107.387,28.378],[-107.399,28.236],[-107.444,28.133],[-107.476,28.102],[-107.534,28.084],[-107.55,28.106],[-107.554,28.126]]]}},{"type":"Feature","properties":{"density":1},"geometry":{"type":"Polygon","coordinates":[[[-104.571,21.252],[-104.567,21.288],[-104.539,21.317],[-104.414,21.407],[-104.339,21.4],[-104.291,21.366],[-104.228,21.284],[-104.199,21.231],[-104.183,21.127],[-104.211,21.113],[-104.299,21.181],[-104.371,21.214],[-104.522,21.201],[-104.57,21.243],[-104.571,21.252]]]}},{"type":"Feature","properties":{"density":1},"geometry":{"type":"Polygon","coordinates":[[[-104.319,22.181],[-104.406,22.192],[-104.437,22.23],[-104.417,22.311],[-104.365,22.37],[-104.333,22.358],[-104.305,22.296],[-104.296,22.208],[-104.315,22.18],[-104.319,22.181]]]}},{"type":"Feature","properties":{"density":1},"geometry":{"type":"Polygon","coordinates":[[[-105.045,21.199],[-104.934,21.185],[-104.843,21.148],[-104.778,21.084],[-104.777,21.054],[-104.841,21.039],[-104.962,21.077],[-105.045,21.136],[-105.062,21.167],[-105.048,21.197],[-105.045,21.199]]]}},{"type":"Feature","properties":{"density":1},"geometry":{"type":"Polygon","coordinates":[[[-104.788,20.086],[-104.65,19.936],[-104.666,19.87],[-104.848,19.839],[-104.989,19.834],[-105.065,19.848],[-105.079,19.895],[-105.072,19.951],[-104.984,20.087],[-104.931,20.126],[-104.865,20.141],[-104.799,20.094],[-104.788,20.086]]]}},{"type":"Feature","properties":{"density":1},"geometry":{"type":"Polygon","coordinates":[[[-98.181,21.883],[-98.17,21.938],[-98.117,22.038],[-98.071,22.077],[-98.032,22.075],[-98.024,22.032],[-98.102,21.89],[-98.138,21.852],[-98.165,21.851],[-98.179,21.876],[-98.181,21.883]]]}},{"type":"Feature","properties":{"density":1},"geometry":{"type":"Polygon","coordinates":[[[-98.217,22.121],[-98.177,22.175],[-98.143,22.175],[-98.113,22.144],[-98.123,22.099],[-98.178,22.037],[-98.205,22.041],[-98.216,22.059],[-98.217,22.112],[-98.217,22.121]]]}},{"type":"Feature","properties":{"density":1},"geometry":{"type":"Polygon","coordinates":[[[-96.943,18.824],[-96.977,18.837],[-96.995,18.869],[-96.984,18.933],[-96.846,18.968],[-96.758,19.053],[-96.72,19.07],[-96.609,19.065],[-96.579,19.029],[-96.584,18.881],[-96.628,18.832],[-96.769,18.807],[-96.934,18.823],[-96.943,18.824]]]}},{"type":"Feature","properties":{"density":1},"geometry":{"type":"Polygon","coordinates":[[[-93.188,16.13],[-93.139,16.121],[-93.094,16.091],[-93.072,16.05],[-93.096,16.0],[-93.191,15.977],[-93.322,16.0],[-93.326,16.035],[-93.194,16.126],[-93.188,16.13]]]}},{"type":"Feature","properties":{"density":1},"geometry":{"type":"Polygon","coordinates":[[[-104.189,21.662],[-104.306,21.683],[-104.336,21.714],[-104.335,21.772],[-104.283,21.787],[-104.219,21.764],[-104.16,21.71],[-104.155,21.682],[-104.182,21.661],[-104.189,21.662]]]}},{"type":"Feature","properties":{"density":1},"geometry":{"type":"Polygon","coordinates":[[[-99.104,22.137],[-99.04,22.084],[-99.039,22.05],[-99.068,22.029],[-99.115,22.037],[-99.152,22.096],[-99.151,22.132],[-99.113,22.141],[-99.104,22.137]]]}},{"type":"Feature","properties":{"density":1},"geometry":{"type":"Polygon","coordinates":[[[-91.453,51.722],[-91.478,51.769],[-91.503,51.783],[-91.705,51.822],[-91.825,51.826],[-91.873,51.813],[-91.909,51.765],[-91.917,51.615],[-91.869,51.544],[-91.822,51.531],[-91.562,51.661],[-91.48,51.685],[-91.454,51.712],[-91.453,51.722]]]}},{"type":"Feature","properties":{"density":1},"geometry":{"type":"Polygon","coordinates":[[[-79.032,35.264],[-79.062,35.291],[-79.1,35.298],[-79.317,35.287],[-79.371,35.251],[-79.379,35.183],[-79.324,35.135],[-79.096,35.118],[-79.037,35.155],[-79.025,35.238],[-79.032,35.264]]]}},{"type":"Feature","properties":{"density":1},"geometry":{"type":"Polygon","coordinates":[[[-109.028,28.742],[-109.084,28.798],[-109.265,29.163],[-109.284,29.312],[-109.27,29.367],[-109.236,29.397],[-109.133,29.359],[-108.995,29.091],[-108.867,28.967],[-108.834,28.894],[-108.836,28.856],[-108.857,28.828],[-109.022,28.74],[-109.028,28.742]]]}},{"type":"Feature","properties":{"density":1},"geometry":{"type":"Polygon","coordinates":[[[-108.563,27.763],[-108.617,27.845],[-108.694,28.201],[-108.688,28.325],[-108.666,28.357],[-108.622,28.376],[-108.561,28.357],[-108.443,28.251],[-108.395,28.132],[-108.372,28.024],[-108.372,27.939],[-108.429,27.826],[-108.509,27.765],[-108.555,27.76],[-108.563,27.763]]]}},{"type":"Feature","properties":{"density":1},"geometry":{"type":"Polygon","coordinates":[[[-107.228,26.183],[-107.226,26.274],[-107.085,26.453],[-106.864,26.642],[-106.8,26.674],[-106.747,26.662],[-106.74,26.635],[-106.759,26.56],[-106.819,26.471],[-107.058,26.285],[-107.126,26.215],[-107.222,26.177],[-107.228,26.183]]]}},{"type":"Feature","properties":{"density":1},"geometry":{"type":"Polygon","coordinates":[[[-104.544,21.265],[-104.501,21.304],[-104.398,21.346],[-104.309,21.344],[-104.263,21.324],[-104.188,21.257],[-104.166,21.2],[-104.162,21.074],[-104.197,21.046],[-104.262,21.054],[-104.536,21.205],[-104.55,21.26],[-104.544,21.265]]]}},{"type":"Feature","properties":{"density":1},"geometry":{"type":"Polygon","coordinates":[[[-105.053,21.199],[-104.923,21.215],[-104.809,21.192],[-104.684,21.121],[-104.663,21.034],[-104.674,21.015],[-104.73,21.0],[-104.822,21.026],[-105.035,21.138],[-105.065,21.163],[-105.06,21.191],[-105.053,21.199]]]}},{"type":"Feature","properties":{"density":1},"geometry":{"type":"Polygon","coordinates":[[[-98.15,22.153],[-98.265,22.175],[-98.339,22.157],[-98.364,22.109],[-98.371,22.022],[-98.339,22.005],[-98.185,22.039],[-98.15,22.069],[-98.142,22.149],[-98.15,22.153]]]}},{"type":"Feature","properties":{"density":1},"geometry":{"type":"Polygon","coordinates":[[[-97.575,21.044],[-97.693,20.985],[-97.719,20.938],[-97.713,20.906],[-97.576,20.942],[-97.487,20.991],[-97.499,21.021],[-97.569,21.046],[-97.575,21.044]]]}},{"type":"Feature","properties":{"density":1},"geometry":{"type":"Polygon","coordinates":[[[-93.137,18.457],[-93.228,18.514],[-93.373,18.548],[-93.424,18.539],[-93.529,18.48],[-93.564,18.446],[-93.58,18.379],[-93.515,18.366],[-93.173,18.4],[-93.131,18.422],[-93.132,18.451],[-93.137,18.457]]]}},{"type":"Feature","properties":{"density":1},"geometry":{"type":"Polygon","coordinates":[[[-101.16,18.778],[-101.091,18.865],[-100.982,18.938],[-100.919,18.941],[-100.904,18.92],[-100.946,18.849],[-101.039,18.778],[-101.135,18.745],[-101.162,18.769],[-101.16,18.778]]]}},{"type":"Feature","properties":{"density":1},"geometry":{"type":"Polygon","coordinates":[[[-105.446,33.617],[-105.318,33.759],[-105.003,33.954],[-104.833,34.015],[-104.727,34.03],[-104.627,34.015],[-104.583,33.984],[-104.588,33.943],[-104.623,33.904],[-104.751,33.821],[-105.264,33.553],[-105.408,33.562],[-105.45,33.595],[-105.446,33.617]]]}},{"type":"Feature","properties":{"density":1},"geometry":{"type":"Polygon","coordinates":[[[-100.549,19.208],[-100.529,19.262],[-100.483,19.315],[-100.426,19.346],[-100.368,19.351],[-100.364,19.298],[-100.419,19.232],[-100.501,19.192],[-100.53,19.187],[-100.549,19.203],[-100.549,19.208]]]}},{"type":"Feature","properties":{"density":1},"geometry":{"type":"Polygon","coordinates":[[[-121.298,36.005],[-121.38,36.015],[-121.411,36.002],[-121.43,35.967],[-121.42,35.925],[-121.368,35.919],[-121.303,35.947],[-121.29,35.958],[-121.292,35.996],[-121.298,36.005]]]}},{"type":"Feature","properties":{"density":1},"geometry":{"type":"Polygon","coordinates":[[[-102.919,53.143],[-103.095,53.19],[-104.005,53.556],[-104.269,53.68],[-104.377,53.779],[-104.426,53.884],[-104.443,53.994],[-104.434,54.099],[-104.341,54.347],[-104.225,54.59],[-104.184,54.722],[-104.109,54.838],[-103.908,54.951],[-103.814,54.984],[-103.734,54.989],[-103.663,54.989],[-103.475,54.865],[-103.211,54.421],[-103.112,54.176],[-102.96,53.562],[-102.899,53.462],[-102.853,53.432],[-102.784,53.347],[-102.768,53.268],[-102.776,53.222],[-102.827,53.167],[-102.904,53.143],[-102.919,53.143]]]}},{"type":"Feature","properties":{"density":1},"geometry":{"type":"Polygon","coordinates":[[[-101.947,56.051],[-101.555,56.286],[-100.597,56.692],[-99.267,57.133],[-98.358,57.402],[-97.221,57.965],[-96.663,58.306],[-96.028,58.523],[-95.268,58.755],[-94.602,58.91],[-93.78,58.988],[-92.912,58.972],[-92.091,58.786],[-91.393,58.492],[-90.014,58.151],[-89.254,57.872],[-88.37,57.624],[-87.332,57.407],[-86.2,57.097],[-85.239,56.709],[-83.999,56.151],[-83.41,55.826],[-82.593,55.489],[-82.209,55.216],[-81.992,54.384],[-81.986,53.449],[-81.935,52.406],[-81.955,51.718],[-81.917,51.13],[-81.985,50.606],[-82.008,50.233],[-82.064,49.886],[-82.072,49.419],[-81.731,48.613],[-81.535,48.199],[-81.328,47.807],[-81.077,47.41],[-80.767,47.045],[-80.521,46.876],[-80.302,46.641],[-80.13,46.332],[-79.995,45.923],[-79.816,45.585],[-79.25,45.065],[-78.723,44.534],[-78.116,43.658],[-77.96,43.346],[-77.97,43.109],[-78.119,42.873],[-78.379,42.64],[-78.733,42.559],[-79.28,42.593],[-80.12,42.979],[-82.832,43.904],[-84.537,44.183],[-85.831,44.479],[-86.316,44.564],[-86.878,44.734],[-87.456,45.023],[-88.221,45.44],[-89.004,45.908],[-89.846,46.478],[-91.249,47.345],[-92.295,47.843],[-93.393,48.302],[-94.617,48.621],[-96.021,49.106],[-97.373,49.539],[-98.049,49.795],[-99.223,50.33],[-99.963,50.688],[-100.728,51.16],[-101.315,51.67],[-101.749,52.295],[-102.055,52.844],[-102.208,53.737],[-102.31,54.894],[-102.37,55.404],[-102.293,55.838],[-102.064,55.991],[-101.947,56.051]]]}},{"type":"Feature","properties":{"density":1},"geometry":{"type":"Polygon","coordinates":[[[-81.758,47.824],[-81.897,47.656],[-82.354,47.446],[-82.48,47.369],[-82.592,47.202],[-82.602,47.137],[-82.564,47.071],[-82.474,46.991],[-82.308,46.932],[-81.855,46.721],[-81.636,46.575],[-81.518,46.469],[-81.207,46.276],[-81.066,46.211],[-80.757,46.19],[-80.63,46.209],[-80.54,46.243],[-80.366,46.408],[-80.335,46.55],[-80.335,46.633],[-80.368,46.68],[-80.66,46.902],[-80.945,47.178],[-81.072,47.27],[-81.673,47.828],[-81.728,47.84],[-81.755,47.829],[-81.758,47.824]]]}},{"type":"Feature","properties":{"density":1},"geometry":{"type":"Polygon","coordinates":[[[-105.431,33.61],[-105.374,33.718],[-105.217,33.865],[-104.631,34.167],[-104.075,34.523],[-103.711,34.653],[-103.598,34.669],[-103.378,34.624],[-103.325,34.594],[-103.3,34.542],[-103.306,34.46],[-103.331,34.389],[-103.413,34.312],[-103.949,33.963],[-104.164,33.866],[-104.626,33.708],[-104.958,33.707],[-105.075,33.692],[-105.145,33.664],[-105.302,33.554],[-105.383,33.556],[-105.414,33.57],[-105.432,33.603],[-105.431,33.61]]]}},{"type":"Feature","properties":{"density":1},"geometry":{"type":"Polygon","coordinates":[[[-121.303,36.018],[-121.341,36.031],[-121.407,36.024],[-121.685,35.871],[-121.731,35.826],[-121.791,35.728],[-121.798,35.641],[-121.744,35.62],[-121.668,35.621],[-121.519,35.663],[-121.329,35.833],[-121.265,35.962],[-121.298,36.017],[-121.303,36.018]]]}},{"type":"Feature","properties":{"density":1},"geometry":{"type":"Polygon","coordinates":[[[-97.437,21.653],[-97.677,21.65],[-97.887,21.611],[-97.993,21.578],[-97.996,21.541],[-97.959,21.515],[-97.63,21.554],[-97.474,21.598],[-97.443,21.617],[-97.434,21.65],[-97.437,21.653]]]}},{"type":"Feature","properties":{"density":1},"geometry":{"type":"Polygon","coordinates":[[[-97.356,21.573],[-97.517,21.562],[-97.57,21.533],[-97.369,21.533],[-97.346,21.546],[-97.353,21.57],[-97.356,21.573]]]}},{"type":"Feature","properties":{"density":1},"geometry":{"type":"Polygon","coordinates":[[[-98.157,22.04],[-98.366,22.022],[-98.535,22.083],[-98.633,22.146],[-98.723,22.247],[-98.718,22.342],[-98.675,22.422],[-98.588,22.445],[-98.434,22.439],[-98.222,22.353],[-98.148,22.239],[-98.147,22.054],[-98.157,22.04]]]}},{"type":"Feature","properties":{"density":1},"geometry":{"type":"Polygon","coordinates":[[[-98.529,21.064],[-98.435,21.102],[-98.329,21.104],[-97.895,21.056],[-97.326,21.091],[-97.285,21.084],[-97.239,21.04],[-97.243,21.007],[-97.346,20.953],[-97.543,20.867],[-97.658,20.838],[-98.096,20.513],[-98.215,20.496],[-98.345,20.564],[-98.542,20.744],[-98.606,20.854],[-98.615,20.911],[-98.601,20.999],[-98.544,21.049],[-98.529,21.064]]]}},{"type":"Feature","properties":{"density":1},"geometry":{"type":"Polygon","coordinates":[[[-109.032,28.744],[-109.154,28.77],[-109.422,28.913],[-109.442,28.943],[-109.438,29.02],[-109.399,29.104],[-109.191,29.271],[-109.126,29.382],[-109.11,29.459],[-109.067,29.531],[-108.903,29.665],[-108.74,29.731],[-108.655,29.682],[-108.582,29.603],[-108.363,29.156],[-108.336,29.0],[-108.35,28.82],[-108.378,28.78],[-108.422,28.761],[-108.512,28.782],[-108.705,28.862],[-108.746,28.86],[-108.814,28.844],[-109.018,28.743],[-109.032,28.744]]]}},{"type":"Feature","properties":{"density":1},"geometry":{"type":"Polygon","coordinates":[[[-108.571,27.764],[-108.764,28.017],[-108.792,28.137],[-108.78,28.17],[-108.691,28.252],[-108.584,28.324],[-108.511,28.34],[-108.411,28.333],[-108.363,28.31],[-108.215,28.164],[-108.201,28.084],[-108.238,27.981],[-108.349,27.908],[-108.515,27.765],[-108.568,27.762],[-108.571,27.764]]]}},{"type":"Feature","properties":{"density":1},"geometry":{"type":"Polygon","coordinates":[[[-107.243,26.218],[-107.216,26.273],[-106.773,26.772],[-106.53,27.01],[-106.428,27.079],[-106.011,27.275],[-105.901,27.267],[-105.838,27.231],[-105.812,27.198],[-105.803,27.143],[-105.841,27.004],[-105.874,26.946],[-106.226,26.647],[-106.317,26.526],[-106.384,26.473],[-106.852,26.263],[-107.172,26.165],[-107.228,26.174],[-107.241,26.201],[-107.243,26.218]]]}},{"type":"Feature","properties":{"density":1},"geometry":{"type":"Polygon","coordinates":[[[-107.144,25.755],[-107.123,25.823],[-107.059,25.858],[-106.984,25.837],[-106.954,25.812],[-106.937,25.757],[-106.954,25.726],[-107.014,25.707],[-107.051,25.707],[-107.14,25.748],[-107.144,25.755]]]}},{"type":"Feature","properties":{"density":1},"geometry":{"type":"Polygon","coordinates":[[[-99.297,26.092],[-98.906,27.122],[-98.373,28.077],[-97.747,28.969],[-96.966,29.732],[-96.422,30.309],[-95.799,31.341],[-95.111,33.009],[-94.887,34.172],[-94.683,34.562],[-94.562,34.878],[-94.543,35.827],[-94.571,36.292],[-94.711,36.58],[-95.315,36.943],[-95.789,37.111],[-96.217,37.176],[-96.682,37.324],[-97.212,37.715],[-97.612,38.096],[-97.854,38.453],[-97.901,38.943],[-97.614,39.362],[-97.236,39.536],[-96.766,39.631],[-95.799,39.78],[-94.208,39.836],[-93.464,39.752],[-92.934,39.557],[-92.367,39.222],[-91.111,38.041],[-90.498,37.278],[-90.051,36.497],[-88.61,35.009],[-88.079,34.265],[-87.726,33.734],[-87.373,32.99],[-87.289,32.386],[-87.354,31.912],[-87.597,31.231],[-88.142,30.599],[-88.554,30.247],[-89.428,29.094],[-89.847,28.601],[-90.2,28.322],[-90.591,28.043],[-91.549,27.392],[-91.939,26.787],[-91.967,26.443],[-91.772,26.062],[-91.474,25.885],[-91.214,25.68],[-91.0,25.401],[-90.795,25.076],[-90.575,24.614],[-90.333,24.267],[-90.141,23.783],[-90.104,23.25],[-90.098,22.847],[-90.228,22.388],[-90.451,22.01],[-91.325,20.751],[-91.48,20.46],[-91.49,20.084],[-91.478,19.572],[-91.375,19.018],[-91.59,18.543],[-91.85,18.22],[-92.084,18.03],[-92.261,17.691],[-92.332,17.356],[-92.344,17.067],[-92.237,16.389],[-92.092,15.893],[-91.931,15.578],[-91.55,14.936],[-90.564,14.603],[-88.886,14.227],[-88.402,13.908],[-87.923,13.842],[-87.439,13.636],[-86.941,13.214],[-86.667,12.63],[-86.314,12.146],[-86.137,11.783],[-85.658,11.233],[-85.518,10.82],[-85.604,10.344],[-85.795,10.01],[-86.133,9.832],[-86.576,9.803],[-87.051,9.803],[-87.467,9.84],[-87.923,9.83],[-88.416,9.858],[-88.797,10.016],[-89.377,10.135],[-89.966,10.222],[-90.49,10.327],[-91.2,10.408],[-91.829,10.56],[-92.601,10.612],[-93.556,10.724],[-94.269,11.115],[-94.954,12.41],[-95.354,13.304],[-95.763,13.499],[-97.149,13.823],[-98.153,13.969],[-99.221,13.99],[-100.016,13.906],[-100.978,13.592],[-101.711,13.299],[-102.699,12.655],[-103.201,12.255],[-103.992,11.856],[-104.81,11.586],[-105.777,11.409],[-106.67,11.409],[-107.637,11.493],[-108.337,11.509],[-108.976,11.589],[-109.534,11.571],[-110.203,11.639],[-110.675,11.639],[-111.338,11.781],[-112.256,12.141],[-113.162,12.618],[-114.32,13.399],[-114.403,13.902],[-114.306,14.613],[-113.747,16.064],[-112.953,17.18],[-110.679,19.538],[-109.567,20.931],[-108.891,21.849],[-108.019,22.602],[-107.572,22.783],[-106.679,23.314],[-106.289,23.509],[-105.703,23.593],[-105.131,23.453],[-104.545,22.951],[-104.154,22.449],[-103.875,21.765],[-103.499,21.04],[-103.024,20.426],[-102.42,20.128],[-101.843,20.063],[-101.425,19.979],[-100.69,19.924],[-100.225,19.719],[-99.934,19.644],[-99.6,19.61],[-99.36,19.638],[-99.167,19.748],[-99.046,19.889],[-99.016,20.208],[-99.052,20.487],[-99.137,20.674],[-99.267,20.851],[-99.527,21.111],[-99.732,21.371],[-99.879,21.987],[-99.963,22.759],[-99.907,23.587],[-99.824,24.396],[-99.577,25.284],[-99.297,26.092]]]}},{"type":"Feature","properties":{"density":1},"geometry":{"type":"Polygon","coordinates":[[[-113.718,42.252],[-113.492,42.347],[-113.335,42.479],[-113.195,42.55],[-113.066,42.6],[-112.997,42.599],[-112.967,42.568],[-112.951,42.508],[-112.969,42.344],[-112.964,42.23],[-112.979,42.186],[-113.107,42.092],[-113.3,41.999],[-113.379,41.967],[-113.486,41.949],[-113.68,42.025],[-113.772,42.111],[-113.797,42.162],[-113.777,42.228],[-113.729,42.251],[-113.718,42.252]]]}},{"type":"Feature","properties":{"density":1},"geometry":{"type":"Polygon","coordinates":[[[-116.256,43.505],[-115.973,43.379],[-115.768,43.254],[-115.273,43.034],[-115.164,42.952],[-115.152,42.924],[-115.174,42.865],[-115.283,42.85],[-115.414,42.889],[-115.936,43.178],[-116.078,43.27],[-116.246,43.406],[-116.291,43.477],[-116.286,43.496],[-116.26,43.506],[-116.256,43.505]]]}},{"type":"Feature","properties":{"density":1},"geometry":{"type":"Polygon","coordinates":[[[-91.439,51.743],[-91.501,51.77],[-91.702,51.806],[-92.821,51.979],[-92.959,51.943],[-93.052,51.869],[-93.088,51.818],[-93.124,51.71],[-93.136,51.593],[-93.123,51.512],[-93.072,51.401],[-93.009,51.346],[-92.947,51.325],[-92.866,51.323],[-92.095,51.424],[-91.86,51.485],[-91.695,51.539],[-91.433,51.678],[-91.421,51.705],[-91.435,51.737],[-91.439,51.743]]]}},{"type":"Feature","properties":{"density":2},"geometry":{"type":"Polygon","coordinates":[[[-105.13,33.59],[-105.2,33.602],[-105.244,33.63],[-105.365,33.639],[-105.43,33.609],[-105.436,33.579],[-105.415,33.528],[-105.329,33.459],[-105.265,33.437],[-105.157,33.432],[-105.109,33.441],[-105.055,33.477],[-105.049,33.54],[-105.098,33.585],[-105.13,33.59]]]}},{"type":"Feature","properties":{"density":2},"geometry":{"type":"Polygon","coordinates":[[[-85.219,52.818],[-85.296,53.228],[-85.424,53.561],[-85.783,53.997],[-86.244,54.663],[-86.551,55.458],[-86.705,55.97],[-86.705,57.047],[-86.526,57.636],[-86.09,58.405],[-85.86,58.636],[-85.526,58.636],[-85.296,58.61],[-84.988,58.508],[-84.629,58.098],[-84.552,57.021],[-84.604,56.099],[-84.681,55.765],[-84.732,55.33],[-84.809,54.971],[-84.347,53.843],[-84.117,53.484],[-83.835,52.997],[-83.681,52.613],[-83.45,52.229],[-83.348,51.819],[-83.348,51.408],[-83.45,51.28],[-83.63,51.203],[-83.86,51.178],[-84.527,51.383],[-84.962,51.434],[-85.424,51.332],[-85.936,51.255],[-86.218,51.357],[-86.705,51.665],[-87.32,52.152],[-87.5,52.639],[-87.705,52.946],[-88.115,53.484],[-88.602,53.997],[-88.986,54.228],[-90.037,54.612],[-90.703,54.561],[-91.242,54.433],[-92.036,54.151],[-92.549,53.946],[-92.856,53.894],[-93.138,54.074],[-93.523,54.663],[-94.035,55.355],[-93.702,55.945],[-93.036,56.355],[-92.549,56.509],[-92.113,56.611],[-91.652,56.791],[-90.857,56.739],[-90.319,56.611],[-90.011,56.509],[-89.832,56.432],[-89.063,55.74],[-88.499,55.33],[-88.115,54.971],[-87.346,54.202],[-86.833,53.792],[-86.218,52.972],[-86.065,52.844],[-85.911,52.664],[-85.501,52.536],[-85.501,52.511],[-85.373,52.511],[-85.296,52.562],[-85.27,52.613],[-85.168,52.664],[-85.219,52.818]]]}},{"type":"Feature","properties":{"density":2},"geometry":{"type":"Polygon","coordinates":[[[-109.24,29.085],[-109.233,28.959],[-109.141,28.806],[-109.062,28.741],[-109.003,28.727],[-108.961,28.768],[-108.945,28.903],[-109.019,29.044],[-109.062,29.182],[-109.084,29.213],[-109.17,29.267],[-109.228,29.272],[-109.273,29.227],[-109.269,29.186],[-109.224,29.123],[-109.24,29.085]]]}},{"type":"Feature","properties":{"density":2},"geometry":{"type":"Polygon","coordinates":[[[-108.482,27.812],[-108.595,28.001],[-108.626,28.007],[-108.671,27.988],[-108.683,27.904],[-108.581,27.746],[-108.523,27.733],[-108.493,27.758],[-108.482,27.794],[-108.482,27.812]]]}},{"type":"Feature","properties":{"density":2},"geometry":{"type":"Polygon","coordinates":[[[-107.526,28.158],[-107.55,28.116],[-107.523,28.068],[-107.422,28.132],[-107.389,28.294],[-107.394,28.379],[-107.418,28.413],[-107.456,28.416],[-107.5,28.378],[-107.483,28.266],[-107.51,28.175],[-107.526,28.158]]]}},{"type":"Feature","properties":{"density":2},"geometry":{"type":"Polygon","coordinates":[[[-107.052,26.43],[-107.114,26.331],[-107.224,26.355],[-107.26,26.34],[-107.187,26.09],[-107.136,26.088],[-107.097,26.144],[-107.098,26.248],[-107.033,26.333],[-107.017,26.386],[-107.018,26.431],[-107.041,26.44],[-107.052,26.43]]]}},{"type":"Feature","properties":{"density":2},"geometry":{"type":"Polygon","coordinates":[[[-106.731,26.454],[-106.776,26.46],[-106.815,26.551],[-106.829,26.558],[-106.867,26.532],[-106.903,26.438],[-106.903,26.33],[-106.873,26.266],[-106.81,26.252],[-106.683,26.316],[-106.658,26.363],[-106.659,26.411],[-106.707,26.451],[-106.731,26.454]]]}},{"type":"Feature","properties":{"density":2},"geometry":{"type":"Polygon","coordinates":[[[-104.241,21.453],[-104.259,21.475],[-104.325,21.491],[-104.356,21.486],[-104.439,21.43],[-104.529,21.345],[-104.561,21.293],[-104.565,21.241],[-104.534,21.187],[-104.464,21.189],[-104.241,21.288],[-104.201,21.354],[-104.214,21.421],[-104.241,21.453]]]}},{"type":"Feature","properties":{"density":2},"geometry":{"type":"Polygon","coordinates":[[[-104.235,21.747],[-104.219,21.666],[-104.16,21.642],[-104.122,21.655],[-104.201,21.77],[-104.221,21.772],[-104.235,21.747]]]}},{"type":"Feature","properties":{"density":2},"geometry":{"type":"Polygon","coordinates":[[[-104.61,19.936],[-104.678,19.972],[-104.676,20.028],[-104.775,20.202],[-104.896,20.247],[-105.0,20.231],[-105.06,20.184],[-105.099,20.118],[-105.117,19.896],[-105.11,19.779],[-105.094,19.736],[-105.029,19.722],[-104.979,19.736],[-104.838,19.725],[-104.631,19.821],[-104.599,19.855],[-104.59,19.905],[-104.61,19.936]]]}},{"type":"Feature","properties":{"density":2},"geometry":{"type":"Polygon","coordinates":[[[-96.672,18.886],[-97.002,18.916],[-97.086,18.886],[-97.177,18.823],[-97.189,18.797],[-97.177,18.772],[-97.029,18.796],[-96.693,18.791],[-96.648,18.818],[-96.648,18.871],[-96.672,18.886]]]}},{"type":"Feature","properties":{"density":2},"geometry":{"type":"Polygon","coordinates":[[[-93.55,17.804],[-93.677,17.84],[-93.77,18.008],[-93.818,18.055],[-93.848,18.059],[-93.92,18.028],[-93.908,17.923],[-93.935,17.887],[-93.995,17.878],[-94.135,17.957],[-94.232,17.948],[-94.268,17.876],[-94.234,17.716],[-93.959,17.471],[-93.917,17.443],[-93.812,17.423],[-93.656,17.446],[-93.478,17.446],[-93.401,17.476],[-93.197,17.702],[-93.208,17.741],[-93.269,17.789],[-93.311,17.801],[-93.511,17.795],[-93.55,17.804]]]}},{"type":"Feature","properties":{"density":2},"geometry":{"type":"Polygon","coordinates":[[[-94.542,18.319],[-95.109,18.633],[-95.493,18.775],[-95.898,19.013],[-96.141,19.216],[-96.309,19.251],[-96.476,19.246],[-96.648,19.104],[-96.719,18.871],[-96.719,18.562],[-96.638,18.264],[-96.43,17.884],[-96.03,17.555],[-95.412,17.206],[-94.997,17.089],[-94.613,17.034],[-94.44,16.942],[-93.99,16.406],[-93.787,16.092],[-93.534,15.849],[-93.317,15.743],[-92.588,15.631],[-92.345,15.626],[-92.147,15.662],[-91.98,15.727],[-91.889,15.874],[-91.99,16.153],[-92.162,16.386],[-92.901,16.72],[-92.952,16.796],[-92.982,16.927],[-92.952,17.074],[-92.871,17.191],[-92.633,17.266],[-92.284,17.277],[-92.071,17.459],[-91.99,17.742],[-91.99,18.056],[-92.01,18.37],[-92.112,18.507],[-92.284,18.603],[-92.486,18.654],[-93.484,18.618],[-93.717,18.532],[-94.127,18.34],[-94.248,18.314],[-94.451,18.304],[-94.542,18.319]]]}},{"type":"Feature","properties":{"density":2},"geometry":{"type":"Polygon","coordinates":[[[-109.049,28.773],[-109.083,28.861],[-109.093,28.938],[-109.082,29.04],[-109.049,29.006],[-109.007,28.805],[-109.009,28.763],[-109.048,28.77],[-109.049,28.773]]]}},{"type":"Feature","properties":{"density":2},"geometry":{"type":"Polygon","coordinates":[[[-107.209,26.221],[-107.124,26.347],[-107.078,26.363],[-107.061,26.351],[-107.074,26.297],[-107.181,26.21],[-107.208,26.219],[-107.209,26.221]]]}},{"type":"Feature","properties":{"density":2},"geometry":{"type":"Polygon","coordinates":[[[-104.545,21.242],[-104.448,21.323],[-104.381,21.353],[-104.349,21.349],[-104.338,21.307],[-104.364,21.265],[-104.489,21.209],[-104.526,21.216],[-104.547,21.238],[-104.545,21.242]]]}},{"type":"Feature","properties":{"density":2},"geometry":{"type":"Polygon","coordinates":[[[-104.329,22.191],[-104.368,22.254],[-104.365,22.299],[-104.346,22.316],[-104.328,22.309],[-104.311,22.245],[-104.31,22.202],[-104.327,22.19],[-104.329,22.191]]]}},{"type":"Feature","properties":{"density":2},"geometry":{"type":"Polygon","coordinates":[[[-105.026,21.19],[-104.888,21.148],[-104.845,21.108],[-104.842,21.078],[-105.042,21.156],[-105.052,21.183],[-105.03,21.189],[-105.026,21.19]]]}},{"type":"Feature","properties":{"density":2},"geometry":{"type":"Polygon","coordinates":[[[-104.787,19.999],[-104.723,19.954],[-104.736,19.911],[-104.776,19.876],[-104.95,19.838],[-105.013,19.847],[-105.04,19.874],[-105.028,19.928],[-104.966,19.97],[-104.867,20.0],[-104.793,20.001],[-104.787,19.999]]]}},{"type":"Feature","properties":{"density":2},"geometry":{"type":"Polygon","coordinates":[[[-93.83,17.813],[-93.486,17.8],[-93.315,17.766],[-93.265,17.739],[-93.249,17.712],[-93.266,17.683],[-93.398,17.615],[-93.514,17.533],[-93.635,17.499],[-93.836,17.491],[-94.041,17.532],[-94.06,17.593],[-94.046,17.665],[-93.847,17.81],[-93.83,17.813]]]}},{"type":"Feature","properties":{"density":2},"geometry":{"type":"Polygon","coordinates":[[[-93.127,17.974],[-92.931,17.924],[-92.872,17.892],[-92.781,17.775],[-92.737,17.748],[-92.556,17.695],[-92.491,17.654],[-92.471,17.593],[-92.488,17.533],[-92.544,17.506],[-92.641,17.505],[-92.753,17.517],[-92.872,17.553],[-92.967,17.611],[-93.138,17.771],[-93.334,17.836],[-93.378,17.867],[-93.396,17.901],[-93.391,17.973],[-93.352,18.012],[-93.279,18.022],[-93.17,17.984],[-93.127,17.974]]]}},{"type":"Feature","properties":{"density":2},"geometry":{"type":"Polygon","coordinates":[[[-93.196,16.077],[-93.117,16.067],[-93.109,16.039],[-93.159,16.014],[-93.239,16.039],[-93.23,16.069],[-93.201,16.079],[-93.196,16.077]]]}},{"type":"Feature","properties":{"density":2},"geometry":{"type":"Polygon","coordinates":[[[-108.554,27.793],[-108.573,27.853],[-108.568,27.897],[-108.539,27.925],[-108.514,27.925],[-108.499,27.882],[-108.51,27.8],[-108.532,27.78],[-108.551,27.787],[-108.554,27.793]]]}},{"type":"Feature","properties":{"density":2},"geometry":{"type":"Polygon","coordinates":[[[-91.473,51.742],[-91.499,51.767],[-91.553,51.779],[-91.646,51.763],[-91.783,51.654],[-91.806,51.621],[-91.797,51.598],[-91.679,51.617],[-91.586,51.685],[-91.52,51.713],[-91.47,51.701],[-91.468,51.733],[-91.473,51.742]]]}},{"type":"Feature","properties":{"density":2},"geometry":{"type":"Polygon","coordinates":[[[-79.087,35.132],[-79.195,35.135],[-79.295,35.227],[-79.301,35.269],[-79.129,35.273],[-79.081,35.257],[-79.052,35.211],[-79.082,35.136],[-79.087,35.132]]]}},{"type":"Feature","properties":{"density":2},"geometry":{"type":"Polygon","coordinates":[[[-109.046,28.777],[-109.034,28.855],[-108.999,28.901],[-108.952,28.91],[-108.914,28.889],[-108.905,28.853],[-108.932,28.802],[-109.016,28.762],[-109.046,28.774],[-109.046,28.777]]]}},{"type":"Feature","properties":{"density":2},"geometry":{"type":"Polygon","coordinates":[[[-108.561,27.776],[-108.582,27.856],[-108.55,27.953],[-108.502,27.973],[-108.431,27.963],[-108.413,27.926],[-108.446,27.856],[-108.5,27.79],[-108.553,27.771],[-108.561,27.776]]]}},{"type":"Feature","properties":{"density":2},"geometry":{"type":"Polygon","coordinates":[[[-107.22,26.199],[-107.212,26.255],[-107.155,26.325],[-107.097,26.337],[-107.059,26.323],[-107.059,26.282],[-107.104,26.234],[-107.186,26.192],[-107.216,26.194],[-107.22,26.199]]]}},{"type":"Feature","properties":{"density":2},"geometry":{"type":"Polygon","coordinates":[[[-98.149,22.127],[-98.183,22.161],[-98.217,22.158],[-98.265,22.066],[-98.192,22.047],[-98.158,22.081],[-98.149,22.12],[-98.149,22.127]]]}},{"type":"Feature","properties":{"density":2},"geometry":{"type":"Polygon","coordinates":[[[-93.967,17.769],[-93.94,17.821],[-93.88,17.83],[-93.782,17.69],[-93.569,17.657],[-93.511,17.629],[-93.452,17.554],[-93.433,17.444],[-93.492,17.33],[-93.591,17.284],[-93.813,17.322],[-93.914,17.37],[-94.013,17.459],[-94.085,17.491],[-94.116,17.556],[-94.113,17.614],[-93.98,17.754],[-93.967,17.769]]]}},{"type":"Feature","properties":{"density":2},"geometry":{"type":"Polygon","coordinates":[[[-92.914,17.774],[-92.96,17.787],[-93.045,17.777],[-93.13,17.652],[-93.114,17.576],[-93.085,17.521],[-93.036,17.487],[-92.839,17.451],[-92.781,17.458],[-92.755,17.48],[-92.734,17.535],[-92.744,17.57],[-92.838,17.661],[-92.905,17.766],[-92.914,17.774]]]}},{"type":"Feature","properties":{"density":2},"geometry":{"type":"Polygon","coordinates":[[[-121.306,35.998],[-121.353,35.996],[-121.354,35.965],[-121.299,35.956],[-121.291,35.984],[-121.302,35.995],[-121.306,35.998]]]}},{"type":"Feature","properties":{"density":2},"geometry":{"type":"Polygon","coordinates":[[[-102.917,53.202],[-103.372,53.424],[-103.581,53.625],[-103.748,53.914],[-103.86,54.208],[-103.911,54.42],[-103.822,54.64],[-103.758,54.72],[-103.674,54.771],[-103.593,54.76],[-103.503,54.723],[-103.424,54.637],[-103.258,54.279],[-103.209,54.062],[-103.061,53.602],[-102.985,53.496],[-102.843,53.365],[-102.792,53.293],[-102.783,53.26],[-102.827,53.2],[-102.856,53.186],[-102.901,53.192],[-102.917,53.202]]]}},{"type":"Feature","properties":{"density":2},"geometry":{"type":"Polygon","coordinates":[[[-100.076,56.349],[-99.642,56.484],[-99.001,56.618],[-98.371,56.721],[-97.74,56.907],[-97.327,56.949],[-96.934,56.928],[-96.438,56.484],[-96.201,56.029],[-96.087,55.75],[-95.963,55.368],[-95.953,55.151],[-96.077,54.903],[-96.314,54.634],[-96.531,54.458],[-97.503,53.921],[-97.751,53.714],[-97.937,53.384],[-98.195,53.032],[-98.34,52.712],[-98.67,52.495],[-99.445,52.35],[-99.735,52.319],[-100.034,52.309],[-100.21,52.361],[-100.479,52.619],[-100.944,53.59],[-101.254,54.035],[-101.595,54.355],[-101.946,54.82],[-102.112,55.295],[-102.039,55.554],[-101.833,55.75],[-101.161,55.957],[-100.799,56.205],[-100.406,56.349],[-100.144,56.363],[-100.076,56.349]]]}},{"type":"Feature","properties":{"density":2},"geometry":{"type":"Polygon","coordinates":[[[-81.739,47.82],[-81.769,47.798],[-81.835,47.68],[-81.938,47.554],[-82.162,47.441],[-82.452,47.323],[-82.525,47.269],[-82.552,47.219],[-82.517,47.134],[-82.45,47.083],[-82.301,47.029],[-82.066,47.039],[-81.947,47.012],[-81.812,47.014],[-81.566,47.104],[-81.366,47.124],[-81.289,47.109],[-81.182,47.014],[-81.122,46.99],[-81.013,46.999],[-81.008,47.037],[-81.065,47.072],[-81.17,47.199],[-81.394,47.333],[-81.486,47.425],[-81.6,47.64],[-81.665,47.708],[-81.698,47.811],[-81.736,47.82],[-81.739,47.82]]]}},{"type":"Feature","properties":{"density":2},"geometry":{"type":"Polygon","coordinates":[[[-81.756,47.817],[-81.956,47.548],[-82.214,47.414],[-82.512,47.296],[-82.557,47.24],[-82.559,47.201],[-82.553,47.157],[-82.515,47.107],[-82.327,47.035],[-81.905,47.002],[-81.787,47.013],[-81.562,47.093],[-81.455,47.083],[-81.36,47.04],[-81.229,46.845],[-81.149,46.644],[-81.108,46.429],[-81.054,46.342],[-80.862,46.231],[-80.752,46.216],[-80.573,46.287],[-80.499,46.345],[-80.451,46.42],[-80.434,46.543],[-80.471,46.625],[-80.553,46.729],[-80.843,46.985],[-81.265,47.423],[-81.577,47.688],[-81.667,47.746],[-81.703,47.823],[-81.752,47.819],[-81.756,47.817]]]}},{"type":"Feature","properties":{"density":2},"geometry":{"type":"Polygon","coordinates":[[[-105.424,33.61],[-105.367,33.681],[-105.271,33.754],[-104.903,33.97],[-104.722,33.994],[-104.619,33.959],[-104.579,33.92],[-104.578,33.891],[-104.62,33.848],[-104.779,33.829],[-104.919,33.78],[-105.196,33.649],[-105.292,33.569],[-105.371,33.567],[-105.421,33.589],[-105.426,33.607],[-105.424,33.61]]]}},{"type":"Feature","properties":{"density":2},"geometry":{"type":"Polygon","coordinates":[[[-121.28,35.997],[-121.329,36.019],[-121.409,36.01],[-121.502,35.839],[-121.518,35.77],[-121.461,35.758],[-121.381,35.808],[-121.286,35.927],[-121.277,35.993],[-121.28,35.997]]]}},{"type":"Feature","properties":{"density":2},"geometry":{"type":"Polygon","coordinates":[[[-109.049,28.752],[-109.221,28.839],[-109.252,28.88],[-109.265,28.951],[-109.185,28.967],[-109.001,28.94],[-108.821,28.975],[-108.766,28.947],[-108.773,28.907],[-108.814,28.87],[-109.04,28.753],[-109.049,28.752]]]}},{"type":"Feature","properties":{"density":2},"geometry":{"type":"Polygon","coordinates":[[[-108.559,27.77],[-108.595,27.869],[-108.585,27.906],[-108.496,27.965],[-108.456,27.974],[-108.423,27.962],[-108.413,27.9],[-108.445,27.85],[-108.489,27.796],[-108.553,27.768],[-108.559,27.77]]]}},{"type":"Feature","properties":{"density":2},"geometry":{"type":"Polygon","coordinates":[[[-107.228,26.233],[-107.163,26.294],[-107.114,26.297],[-107.123,26.257],[-107.188,26.207],[-107.218,26.208],[-107.228,26.23],[-107.228,26.233]]]}},{"type":"Feature","properties":{"density":2},"geometry":{"type":"Polygon","coordinates":[[[-94.32,18.858],[-94.182,18.978],[-94.048,19.128],[-93.671,19.599],[-93.525,19.979],[-93.462,20.305],[-93.412,20.74],[-93.459,21.117],[-93.533,21.5],[-93.731,21.837],[-93.824,21.943],[-94.131,22.027],[-94.274,22.035],[-94.448,22.021],[-94.707,21.933],[-95.24,21.785],[-95.471,21.826],[-95.711,21.896],[-96.017,22.091],[-96.467,22.491],[-96.633,22.751],[-96.671,23.037],[-96.561,23.247],[-96.266,23.508],[-95.689,23.769],[-95.54,23.798],[-95.416,23.802],[-95.272,23.781],[-95.077,23.703],[-94.623,23.269],[-94.35,23.095],[-94.102,23.037],[-93.85,23.078],[-93.639,23.169],[-93.288,23.434],[-93.102,23.537],[-92.924,23.574],[-92.701,23.583],[-92.415,23.484],[-91.981,23.238],[-91.814,23.12],[-91.733,22.89],[-91.69,22.549],[-91.653,21.998],[-91.659,21.582],[-91.715,21.278],[-91.833,20.423],[-91.833,20.187],[-91.94,19.346],[-92.171,18.771],[-92.287,18.563],[-92.312,18.377],[-92.287,17.36],[-92.331,17.149],[-92.393,17.013],[-92.548,16.913],[-92.703,16.87],[-92.876,16.839],[-93.242,16.82],[-93.44,16.876],[-93.825,17.037],[-94.24,17.273],[-94.402,17.403],[-94.519,17.521],[-94.668,17.719],[-94.805,17.949],[-94.854,18.346],[-94.842,18.513],[-94.749,18.643],[-94.495,18.761],[-94.32,18.858]]]}},{"type":"Feature","properties":{"density":2},"geometry":{"type":"Polygon","coordinates":[[[-113.763,42.216],[-113.731,42.24],[-113.634,42.258],[-113.519,42.307],[-113.457,42.305],[-113.368,42.252],[-113.345,42.21],[-113.326,42.108],[-113.355,42.041],[-113.387,42.011],[-113.465,41.984],[-113.522,41.987],[-113.599,42.015],[-113.715,42.098],[-113.773,42.169],[-113.769,42.211],[-113.763,42.216]]]}},{"type":"Feature","properties":{"density":2},"geometry":{"type":"Polygon","coordinates":[[[-116.25,43.495],[-115.878,43.304],[-115.831,43.263],[-115.821,43.234],[-115.881,43.205],[-115.935,43.212],[-116.066,43.293],[-116.266,43.453],[-116.281,43.485],[-116.252,43.496],[-116.25,43.495]]]}},{"type":"Feature","properties":{"density":2},"geometry":{"type":"Polygon","coordinates":[[[-83.354,54.75],[-83.492,54.51],[-83.55,54.301],[-83.587,53.909],[-83.587,53.16],[-83.54,52.833],[-83.513,52.775],[-83.462,52.772],[-83.374,52.836],[-83.124,53.211],[-83.054,53.342],[-82.993,53.923],[-83.023,54.267],[-83.016,54.415],[-82.908,54.642],[-82.875,54.746],[-82.881,54.817],[-82.966,54.868],[-83.077,54.874],[-83.172,54.858],[-83.307,54.804],[-83.33,54.777],[-83.354,54.75]]]}},{"type":"Feature","properties":{"density":2},"geometry":{"type":"Polygon","coordinates":[[[-91.495,51.746],[-91.712,51.78],[-92.126,51.798],[-92.299,51.836],[-92.505,51.857],[-92.571,51.844],[-92.696,51.785],[-92.727,51.668],[-92.717,51.619],[-92.636,51.579],[-92.569,51.568],[-92.418,51.564],[-92.099,51.588],[-91.849,51.541],[-91.751,51.55],[-91.459,51.676],[-91.436,51.712],[-91.473,51.74],[-91.495,51.746]]]}},{"type":"Feature","properties":{"density":3},"geometry":{"type":"Polygon","coordinates":[[[-105.127,33.546],[-105.236,33.542],[-105.287,33.581],[-105.365,33.6],[-105.388,33.599],[-105.401,33.579],[-105.205,33.485],[-105.103,33.498],[-105.085,33.521],[-105.092,33.542],[-105.113,33.548],[-105.127,33.546]]]}},{"type":"Feature","properties":{"density":3},"geometry":{"type":"Polygon","coordinates":[[[-109.111,28.867],[-109.055,28.765],[-109.015,28.745],[-108.999,28.754],[-108.981,28.81],[-108.985,28.867],[-109.055,29.02],[-109.071,29.15],[-109.098,29.168],[-109.15,29.15],[-109.156,29.128],[-109.138,28.943],[-109.111,28.867]]]}},{"type":"Feature","properties":{"density":3},"geometry":{"type":"Polygon","coordinates":[[[-108.634,27.856],[-108.575,27.821],[-108.541,27.766],[-108.514,27.776],[-108.527,27.839],[-108.572,27.883],[-108.604,27.955],[-108.632,27.959],[-108.656,27.941],[-108.662,27.901],[-108.644,27.874],[-108.634,27.856]]]}},{"type":"Feature","properties":{"density":3},"geometry":{"type":"Polygon","coordinates":[[[-107.476,28.334],[-107.478,28.196],[-107.539,28.114],[-107.533,28.089],[-107.51,28.078],[-107.435,28.153],[-107.41,28.294],[-107.426,28.384],[-107.472,28.387],[-107.486,28.35],[-107.476,28.334]]]}},{"type":"Feature","properties":{"density":3},"geometry":{"type":"Polygon","coordinates":[[[-106.725,26.388],[-106.775,26.379],[-106.811,26.426],[-106.851,26.422],[-106.887,26.35],[-106.883,26.291],[-106.856,26.273],[-106.818,26.273],[-106.696,26.323],[-106.683,26.352],[-106.71,26.388],[-106.725,26.388]]]}},{"type":"Feature","properties":{"density":3},"geometry":{"type":"Polygon","coordinates":[[[-107.126,26.217],[-107.136,26.284],[-107.171,26.338],[-107.249,26.342],[-107.212,26.188],[-107.168,26.108],[-107.122,26.121],[-107.116,26.192],[-107.126,26.217]]]}},{"type":"Feature","properties":{"density":3},"geometry":{"type":"Polygon","coordinates":[[[-104.352,21.472],[-104.544,21.283],[-104.551,21.225],[-104.537,21.209],[-104.49,21.195],[-104.264,21.3],[-104.234,21.327],[-104.234,21.384],[-104.257,21.435],[-104.318,21.475],[-104.342,21.475],[-104.352,21.472]]]}},{"type":"Feature","properties":{"density":3},"geometry":{"type":"Polygon","coordinates":[[[-104.725,19.941],[-104.754,19.972],[-104.853,19.95],[-104.937,19.891],[-104.941,19.848],[-104.914,19.826],[-104.883,19.826],[-104.712,19.909],[-104.725,19.941]]]}},{"type":"Feature","properties":{"density":3},"geometry":{"type":"Polygon","coordinates":[[[-93.616,17.699],[-93.797,17.717],[-93.844,17.708],[-93.878,17.668],[-93.884,17.555],[-93.824,17.497],[-93.746,17.495],[-93.575,17.648],[-93.442,17.681],[-93.374,17.723],[-93.376,17.753],[-93.389,17.771],[-93.467,17.783],[-93.592,17.699],[-93.616,17.699]]]}},{"type":"Feature","properties":{"density":3},"geometry":{"type":"Polygon","coordinates":[[[-104.807,19.944],[-104.84,19.909],[-104.833,19.878],[-104.781,19.894],[-104.744,19.938],[-104.757,19.96],[-104.806,19.947],[-104.807,19.944]]]}},{"type":"Feature","properties":{"density":3},"geometry":{"type":"Polygon","coordinates":[[[-93.829,17.507],[-93.867,17.528],[-93.864,17.57],[-93.749,17.657],[-93.671,17.663],[-93.614,17.629],[-93.589,17.594],[-93.592,17.557],[-93.649,17.523],[-93.818,17.505],[-93.829,17.507]]]}},{"type":"Feature","properties":{"density":3},"geometry":{"type":"Polygon","coordinates":[[[-93.881,17.626],[-93.736,17.646],[-93.676,17.629],[-93.648,17.575],[-93.648,17.521],[-93.669,17.469],[-93.773,17.396],[-93.803,17.393],[-93.861,17.404],[-93.937,17.444],[-93.955,17.461],[-93.962,17.537],[-93.93,17.594],[-93.891,17.627],[-93.881,17.626]]]}},{"type":"Feature","properties":{"density":3},"geometry":{"type":"Polygon","coordinates":[[[-102.959,53.277],[-103.08,53.316],[-103.275,53.417],[-103.472,53.574],[-103.588,53.798],[-103.615,53.908],[-103.626,53.99],[-103.613,54.083],[-103.579,54.134],[-103.462,54.16],[-103.418,54.152],[-103.332,54.081],[-103.295,54.031],[-103.22,53.737],[-103.147,53.609],[-103.074,53.521],[-102.852,53.338],[-102.826,53.285],[-102.839,53.265],[-102.872,53.257],[-102.927,53.27],[-102.959,53.277]]]}},{"type":"Feature","properties":{"density":3},"geometry":{"type":"Polygon","coordinates":[[[-81.753,47.804],[-81.815,47.656],[-81.682,47.584],[-81.641,47.582],[-81.615,47.63],[-81.71,47.735],[-81.708,47.814],[-81.737,47.815],[-81.753,47.804]]]}},{"type":"Feature","properties":{"density":3},"geometry":{"type":"Polygon","coordinates":[[[-109.042,28.761],[-109.078,28.82],[-109.066,28.852],[-109.001,28.858],[-108.949,28.835],[-108.969,28.798],[-109.04,28.761],[-109.042,28.761]]]}},{"type":"Feature","properties":{"density":3},"geometry":{"type":"Polygon","coordinates":[[[-108.557,27.783],[-108.571,27.809],[-108.542,27.827],[-108.52,27.787],[-108.554,27.782],[-108.557,27.783]]]}},{"type":"Feature","properties":{"density":3},"geometry":{"type":"Polygon","coordinates":[[[-91.462,51.726],[-91.656,51.769],[-91.717,51.77],[-91.775,51.75],[-91.797,51.713],[-91.799,51.596],[-91.78,51.574],[-91.692,51.584],[-91.6,51.638],[-91.453,51.688],[-91.454,51.722],[-91.462,51.726]]]}}]}