{"type":"FeatureCollection","features":[{"type":"Feature","properties":{"density":1},"geometry":{"type":"Polygon","coordinates":[[[-123.181,41.421],[-123.719,40.703],[-124.488,38.602],[-124.898,37.423],[-125.487,36.013],[-126.461,35.013],[-127.589,34.629],[-128.486,34.501],[-129.511,34.834],[-130.562,36.039],[-131.049,37.218],[-130.946,38.755],[-129.87,41.677],[-128.717,44.624],[-128.101,46.393],[-128.332,48.315],[-129.28,53.056],[-129.857,55.286],[-128.934,56.747],[-127.012,57.323],[-125.205,56.977],[-122.745,55.786],[-119.247,55.094],[-115.095,55.132],[-112.596,56.516],[-110.558,58.9],[-108.598,62.667],[-107.944,65.204],[-107.099,67.28],[-105.369,69.741],[-103.754,70.625],[-102.87,70.51],[-101.832,69.702],[-101.332,68.472],[-101.217,66.204],[-100.755,64.82],[-99.756,63.167],[-97.103,62.052],[-94.566,61.629],[-91.606,62.129],[-89.568,63.321],[-88.338,64.743],[-86.877,66.819],[-85.493,68.357],[-84.263,69.087],[-82.149,69.702],[-78.189,69.894],[-74.345,69.202],[-72.192,68.357],[-70.27,67.28],[-69.539,65.935],[-68.655,63.974],[-67.848,61.283],[-66.733,59.092],[-66.349,56.708],[-66.079,54.479],[-66.041,52.441],[-65.772,47.482],[-65.887,45.329],[-66.118,43.561],[-67.156,41.639],[-69.04,38.332],[-70.27,36.679],[-71.192,35.334],[-72.269,33.45],[-74.306,31.105],[-75.883,29.875],[-77.805,29.26],[-79.304,29.183],[-83.879,30.067],[-86.416,29.683],[-92.49,28.299],[-94.182,26.723],[-94.95,24.954],[-95.104,23.147],[-94.489,21.494],[-93.912,20.764],[-93.374,19.61],[-93.182,18.227],[-93.259,16.151],[-93.759,15.305],[-94.912,14.267],[-96.719,13.536],[-98.564,13.152],[-102.062,13.267],[-103.792,14.19],[-105.407,15.535],[-106.33,16.766],[-107.137,18.688],[-107.445,20.572],[-107.099,21.994],[-106.445,22.763],[-105.253,22.686],[-104.561,22.225],[-103.908,21.456],[-103.139,21.264],[-102.216,21.071],[-101.255,21.34],[-100.679,21.763],[-100.371,23.147],[-100.256,25.031],[-100.371,26.377],[-101.447,28.26],[-102.908,29.26],[-104.907,29.529],[-106.56,28.991],[-107.906,28.414],[-110.366,27.837],[-111.558,27.76],[-113.173,28.299],[-113.942,29.375],[-114.134,30.721],[-114.557,32.297],[-114.941,33.565],[-115.595,34.873],[-116.017,36.218],[-116.44,37.371],[-117.325,38.717],[-118.593,40.255],[-119.324,41.023],[-120.362,41.639],[-121.515,41.908],[-122.783,41.677],[-123.181,41.421]]]}},{"type":"Feature","properties":{"density":1},"geometry":{"type":"Polygon","coordinates":[[[-68.812,18.497],[-68.907,18.481],[-69.205,18.328],[-69.701,17.935],[-70.3,17.77],[-70.35,17.675],[-70.288,17.621],[-70.044,17.621],[-69.705,17.699],[-69.399,17.811],[-69.197,17.952],[-69.056,18.084],[-68.949,18.212],[-68.738,18.373],[-68.709,18.414],[-68.73,18.472],[-68.783,18.518],[-68.812,18.497]]]}},{"type":"Feature","properties":{"density":1},"geometry":{"type":"Polygon","coordinates":[[[-77.935,21.878],[-78.158,21.886],[-78.233,21.864],[-78.271,21.789],[-78.26,21.762],[-78.178,21.74],[-78.012,21.765],[-77.883,21.823],[-77.935,21.878]]]}},{"type":"Feature","properties":{"density":1},"geometry":{"type":"Polygon","coordinates":[[[-79.967,22.83],[-79.979,22.867],[-80.091,22.966],[-80.169,22.987],[-80.244,22.962],[-80.306,22.883],[-80.306,22.801],[-80.281,22.735],[-80.165,22.689],[-79.992,22.743],[-79.946,22.805],[-79.967,22.83]]]}},{"type":"Feature","properties":{"density":1},"geometry":{"type":"Polygon","coordinates":[[[-80.934,23.049],[-80.959,23.136],[-81.025,23.251],[-81.157,23.355],[-81.281,23.375],[-81.343,23.359],[-81.426,23.297],[-81.459,23.165],[-81.451,23.074],[-81.376,22.974],[-81.194,22.921],[-81.025,22.945],[-80.963,22.97],[-80.934,23.049]]]}},{"type":"Feature","properties":{"density":1},"geometry":{"type":"Polygon","coordinates":[[[-68.799,18.473],[-68.915,18.452],[-69.188,18.341],[-69.543,18.155],[-69.981,17.824],[-70.204,17.692],[-70.601,17.464],[-70.862,17.386],[-71.168,17.27],[-71.213,17.225],[-71.205,17.196],[-71.176,17.154],[-71.077,17.105],[-70.874,17.08],[-70.601,17.076],[-70.163,17.179],[-69.944,17.303],[-69.816,17.402],[-69.452,17.774],[-68.791,18.295],[-68.729,18.374],[-68.729,18.444],[-68.799,18.473]]]}},{"type":"Feature","properties":{"density":1},"geometry":{"type":"Polygon","coordinates":[[[-74.892,20.47],[-74.955,20.487],[-75.2,20.498],[-75.275,20.465],[-75.297,20.396],[-75.289,20.352],[-75.242,20.324],[-75.14,20.327],[-74.9,20.412],[-74.873,20.443],[-74.892,20.47]]]}},{"type":"Feature","properties":{"density":1},"geometry":{"type":"Polygon","coordinates":[[[-125.653,65.88],[-124.382,66.798],[-122.003,67.376],[-119.862,67.08],[-116.73,66.387],[-114.564,65.775],[-110.681,64.397],[-108.35,63.832],[-106.584,63.267],[-105.147,62.95],[-103.452,62.479],[-101.287,62.15],[-99.592,61.82],[-96.556,61.572],[-94.365,61.773],[-93.0,62.338],[-92.011,63.044],[-91.682,64.397],[-92.011,66.858],[-91.729,69.165],[-90.975,70.531],[-89.61,71.378],[-85.655,71.943],[-83.018,71.99],[-79.11,71.566],[-75.014,70.954],[-72.543,70.188],[-69.93,68.846],[-67.811,66.515],[-67.105,64.75],[-66.469,62.631],[-66.469,62.278],[-66.752,60.23],[-66.822,58.464],[-67.317,56.981],[-67.952,54.297],[-67.741,52.39],[-67.529,51.049],[-66.611,49.424],[-65.481,48.294],[-62.867,47.601],[-61.314,47.376],[-59.76,47.447],[-57.217,47.659],[-56.229,47.235],[-56.017,46.458],[-55.664,45.681],[-56.087,44.48],[-57.64,42.987],[-59.831,41.726],[-63.432,40.525],[-67.599,39.254],[-69.647,37.912],[-71.554,36.712],[-72.826,35.299],[-74.026,33.887],[-76.286,31.98],[-78.122,30.321],[-80.736,28.59],[-82.077,27.177],[-84.337,25.623],[-85.609,25.27],[-86.668,25.058],[-88.504,24.917],[-90.341,24.917],[-92.389,24.847],[-93.251,24.797],[-94.084,24.493],[-94.296,24.282],[-94.649,23.646],[-94.649,22.304],[-94.225,21.245],[-93.801,20.68],[-92.954,19.479],[-92.247,18.42],[-91.995,17.483],[-92.058,15.82],[-92.874,13.811],[-94.013,12.487],[-96.17,11.425],[-97.991,11.08],[-100.157,11.145],[-101.601,11.488],[-103.406,12.205],[-105.737,13.829],[-107.22,15.1],[-108.883,17.264],[-109.833,19.338],[-110.045,20.75],[-109.974,22.869],[-109.409,24.07],[-108.844,24.564],[-108.067,24.776],[-106.867,24.282],[-105.878,23.505],[-104.896,22.851],[-104.395,22.304],[-103.39,21.784],[-102.135,21.739],[-101.358,22.163],[-100.652,22.587],[-100.016,23.646],[-100.157,24.211],[-100.157,25.341],[-100.087,26.612],[-100.369,27.177],[-101.005,28.59],[-101.994,29.649],[-103.014,29.508],[-104.112,29.1],[-105.023,28.472],[-105.922,28.166],[-106.749,27.844],[-108.224,27.562],[-109.637,27.342],[-110.704,26.934],[-111.332,26.871],[-113.009,27.434],[-113.686,27.876],[-115.193,28.943],[-116.706,30.14],[-117.17,30.606],[-118.175,32.27],[-118.533,32.916],[-118.868,33.725],[-118.938,34.381],[-118.756,35.358],[-118.282,35.748],[-117.903,36.005],[-117.484,36.382],[-117.191,36.759],[-117.128,37.366],[-117.442,37.993],[-117.861,38.265],[-118.384,38.412],[-118.949,38.349],[-119.702,38.014],[-120.456,37.721],[-120.728,37.721],[-121.23,37.784],[-121.628,38.014],[-121.879,38.307],[-122.151,38.809],[-122.444,39.27],[-122.695,39.354],[-122.778,39.605],[-123.323,40.023],[-123.699,39.898],[-123.95,39.437],[-123.846,38.726],[-123.72,37.407],[-123.595,36.717],[-123.72,35.922],[-123.971,35.315],[-124.445,34.664],[-125.31,34.122],[-125.855,33.913],[-126.524,33.913],[-127.466,33.955],[-128.784,34.373],[-129.454,34.666],[-129.998,35.064],[-130.354,35.775],[-130.848,37.018],[-130.898,38.663],[-130.919,39.96],[-130.566,42.134],[-129.906,44.174],[-129.781,44.896],[-130.197,46.772],[-130.252,47.784],[-130.534,50.201],[-130.189,50.986],[-129.726,51.763],[-129.098,52.328],[-128.086,52.618],[-126.995,52.516],[-125.739,52.547],[-124.853,52.775],[-123.95,53.175],[-123.221,53.748],[-122.601,54.493],[-122.193,55.435],[-122.224,56.942],[-122.789,58.135],[-123.448,58.857],[-124.296,59.453],[-125.143,61.022],[-125.551,62.843],[-125.771,64.004],[-125.896,65.134],[-125.739,65.574],[-125.653,65.88]]]}},{"type":"Feature","properties":{"density":2},"geometry":{"type":"Polygon","coordinates":[[[-122.181,52.295],[-121.907,52.098],[-121.558,51.9],[-121.315,51.703],[-121.057,51.52],[-120.89,51.369],[-120.692,51.148],[-120.548,50.943],[-120.495,50.723],[-120.495,50.351],[-120.541,50.07],[-120.541,49.835],[-120.465,49.592],[-120.267,49.333],[-120.055,49.197],[-119.379,49.022],[-118.794,48.809],[-118.407,48.734],[-117.974,48.756],[-117.67,48.832],[-117.321,48.969],[-116.82,49.204],[-116.372,49.44],[-116.083,49.614],[-115.688,49.69],[-115.027,49.546],[-114.435,49.265],[-114.154,48.931],[-113.964,48.658],[-113.835,48.399],[-113.721,48.118],[-113.615,47.944],[-113.349,47.693],[-113.076,47.519],[-112.795,47.405],[-112.453,47.291],[-112.028,47.207],[-111.337,47.033],[-109.476,46.752],[-108.725,46.683],[-108.018,46.653],[-105.664,46.281],[-104.396,46.053],[-103.91,46.015],[-103.219,46.0],[-101.86,45.901],[-100.341,45.924],[-98.951,46.061],[-98.253,46.197],[-97.661,46.349],[-97.106,46.585],[-96.529,46.79],[-95.785,47.154],[-95.58,47.465],[-95.436,47.784],[-95.398,48.012],[-95.398,48.293],[-95.474,48.612],[-95.633,49.045],[-95.642,49.159],[-95.848,49.723],[-96.232,50.235],[-96.745,50.978],[-96.95,51.875],[-96.975,52.798],[-96.898,53.669],[-96.309,54.797],[-93.797,57.309],[-92.106,58.385],[-90.619,58.949],[-89.543,59.385],[-87.236,59.846],[-85.186,59.974],[-82.854,60.051],[-80.829,59.897],[-79.009,59.205],[-77.548,58.436],[-76.677,57.719],[-75.883,56.719],[-75.421,56.079],[-74.96,54.49],[-74.422,53.234],[-73.884,52.157],[-73.397,51.055],[-73.063,49.953],[-72.987,48.954],[-72.961,48.159],[-73.012,47.185],[-73.294,46.237],[-73.986,45.238],[-75.088,44.443],[-76.498,43.546],[-77.856,43.033],[-79.112,42.7],[-80.957,42.572],[-81.649,42.777],[-83.059,43.341],[-83.93,43.29],[-84.878,43.033],[-85.801,42.495],[-86.621,41.829],[-87.339,41.214],[-87.621,40.678],[-87.909,39.979],[-88.114,39.318],[-88.547,37.64],[-88.767,36.911],[-89.177,36.098],[-89.489,35.711],[-89.717,35.278],[-90.316,34.223],[-91.076,32.977],[-91.835,32.416],[-93.498,31.497],[-94.288,31.261],[-94.949,31.163],[-96.156,31.17],[-97.622,31.345],[-98.396,31.481],[-99.307,31.717],[-100.986,31.421],[-102.072,31.185],[-103.112,30.866],[-104.198,30.646],[-105.413,30.35],[-106.635,30.092],[-107.425,29.955],[-107.683,29.925],[-107.964,29.682],[-108.336,29.15],[-108.64,28.839],[-108.853,28.771],[-108.982,28.771],[-109.157,28.907],[-109.263,29.211],[-109.157,29.636],[-108.663,30.418],[-107.737,31.132],[-106.605,31.489],[-105.663,31.808],[-103.613,32.704],[-102.52,33.372],[-101.335,33.927],[-100.492,34.192],[-99.307,34.238],[-98.358,34.238],[-97.546,34.2],[-96.27,34.428],[-95.268,34.929],[-94.447,35.385],[-93.612,35.78],[-92.906,36.212],[-92.23,36.577],[-91.736,37.093],[-91.463,37.534],[-91.387,37.913],[-91.478,38.232],[-91.569,38.407],[-91.79,38.559],[-92.314,38.612],[-92.678,38.544],[-93.156,38.407],[-93.658,38.232],[-95.412,37.526],[-96.057,37.306],[-96.931,37.101],[-97.515,37.033],[-97.778,36.879],[-98.655,36.276],[-99.498,35.991],[-99.953,35.797],[-100.375,35.74],[-101.343,35.672],[-101.799,35.683],[-102.448,35.922],[-102.915,36.276],[-103.689,37.027],[-103.929,37.335],[-104.305,37.711],[-104.829,38.155],[-105.65,38.508],[-105.944,38.568],[-106.281,38.619],[-106.855,38.558],[-107.327,38.322],[-107.692,38.062],[-108.245,37.802],[-108.414,37.657],[-108.465,37.515],[-108.424,37.357],[-108.323,37.229],[-108.053,37.107],[-107.749,37.07],[-107.408,37.121],[-107.138,37.198],[-107.007,37.205],[-106.922,37.161],[-106.936,37.097],[-107.013,37.043],[-107.29,36.921],[-107.344,36.874],[-107.358,36.773],[-107.344,36.611],[-107.287,36.456],[-107.25,36.246],[-107.246,36.054],[-107.324,35.865],[-107.499,35.733],[-107.742,35.7],[-108.073,35.747],[-108.698,35.926],[-109.119,36.132],[-109.356,36.284],[-109.622,36.527],[-109.794,36.766],[-109.994,37.32],[-110.267,37.691],[-110.452,37.754],[-110.763,37.815],[-110.945,37.891],[-111.082,38.058],[-111.211,38.278],[-111.401,38.726],[-111.644,38.833],[-111.91,38.833],[-112.014,38.787],[-112.203,38.628],[-112.331,38.591],[-112.419,38.591],[-112.523,38.632],[-112.574,38.679],[-112.631,38.78],[-112.648,38.878],[-112.608,39.016],[-112.51,39.165],[-112.327,39.367],[-112.196,39.469],[-111.914,39.94],[-111.8,40.384],[-111.789,40.965],[-111.823,41.364],[-112.165,41.967],[-112.905,42.195],[-113.531,42.275],[-114.192,42.241],[-115.627,41.956],[-116.208,41.66],[-116.641,41.5],[-116.914,41.5],[-117.336,41.58],[-117.689,41.854],[-117.951,42.127],[-118.133,42.412],[-118.384,42.696],[-118.748,42.981],[-119.318,43.152],[-121.095,43.505],[-121.847,43.505],[-122.245,43.3],[-122.587,42.981],[-122.712,42.901],[-122.974,42.799],[-123.316,42.64],[-123.51,42.64],[-123.749,42.753],[-124.113,42.81],[-124.375,42.696],[-124.979,42.252],[-125.321,42.036],[-125.856,41.489],[-126.551,40.441],[-126.893,39.678],[-127.041,39.45],[-127.326,39.359],[-127.656,39.427],[-128.009,39.906],[-128.203,40.646],[-128.191,41.557],[-127.827,42.662],[-127.12,43.699],[-126.403,44.451],[-125.264,45.237],[-124.637,45.966],[-124.182,46.774],[-123.612,47.72],[-123.407,47.936],[-123.396,48.198],[-123.589,48.483],[-124.284,48.802],[-124.637,48.927],[-125.093,49.235],[-125.435,49.736],[-125.719,50.237],[-125.765,50.545],[-125.708,50.92],[-125.492,51.126],[-125.252,51.228],[-123.817,51.205],[-123.419,51.228],[-123.1,51.353],[-122.986,51.501],[-122.895,51.889],[-122.872,52.071],[-122.838,52.173],[-122.746,52.333],[-122.667,52.379],[-122.61,52.39],[-122.405,52.356],[-122.181,52.295]]]}},{"type":"Feature","properties":{"density":2},"geometry":{"type":"Polygon","coordinates":[[[-120.728,37.972],[-120.84,38.104],[-120.997,38.365],[-121.142,38.48],[-121.199,38.505],[-121.402,38.48],[-121.526,38.514],[-121.782,38.642],[-121.927,38.745],[-122.059,38.952],[-122.117,39.183],[-122.101,39.435],[-122.014,39.613],[-121.91,39.754],[-121.778,39.849],[-121.394,40.055],[-121.113,40.13],[-120.873,40.138],[-120.679,40.084],[-120.414,39.923],[-120.224,39.737],[-120.104,39.535],[-120.021,39.439],[-119.906,39.208],[-119.885,39.105],[-119.877,39.034],[-119.993,38.6],[-119.993,38.493],[-120.042,38.241],[-120.145,38.129],[-120.365,37.96],[-120.476,37.931],[-120.658,37.943],[-120.728,37.972]]]}},{"type":"Feature","properties":{"density":2},"geometry":{"type":"Polygon","coordinates":[[[-124.005,54.458],[-123.377,54.741],[-121.839,54.96],[-121.023,54.772],[-119.454,54.176],[-118.512,53.548],[-116.284,52.167],[-115.122,51.476],[-114.18,50.535],[-113.615,49.781],[-112.485,48.714],[-111.167,47.835],[-109.504,47.05],[-107.495,46.454],[-105.643,46.14],[-103.163,46.203],[-101.029,46.203],[-98.894,46.391],[-97.576,46.391],[-96.195,46.454],[-94.217,46.642],[-92.554,47.082],[-91.392,47.584],[-90.545,47.898],[-89.383,48.588],[-88.065,49.405],[-86.182,50.378],[-85.303,50.974],[-84.612,51.508],[-84.11,52.386],[-83.827,53.422],[-84.11,54.427],[-84.581,55.055],[-84.895,55.62],[-85.02,56.247],[-84.832,56.906],[-84.33,57.283],[-82.76,57.785],[-81.285,58.162],[-79.307,58.413],[-77.44,58.335],[-75.823,57.942],[-73.877,57.22],[-72.276,56.279],[-71.115,55.211],[-69.922,52.795],[-69.232,51.131],[-68.949,50.095],[-68.258,48.777],[-67.693,48.306],[-66.469,46.768],[-66.187,45.92],[-66.25,45.481],[-66.438,45.01],[-67.034,44.445],[-69.106,44.194],[-70.518,44.257],[-71.492,44.006],[-72.276,43.566],[-74.191,42.436],[-74.944,42.342],[-76.074,42.342],[-77.361,42.562],[-78.334,42.656],[-79.37,42.656],[-80.814,42.216],[-81.913,41.746],[-84.298,40.427],[-85.334,39.517],[-86.056,38.795],[-86.464,38.199],[-86.966,37.069],[-87.186,36.064],[-87.594,35.091],[-87.72,34.244],[-87.782,33.616],[-88.128,32.58],[-88.379,31.89],[-88.975,31.136],[-89.352,30.885],[-90.607,30.289],[-91.549,29.943],[-92.208,29.881],[-94.939,30.1],[-95.755,30.069],[-98.706,30.603],[-99.867,30.728],[-100.997,30.979],[-102.064,31.45],[-102.755,31.827],[-103.069,32.392],[-103.163,33.208],[-102.724,33.961],[-102.661,34.652],[-102.88,34.966],[-103.132,35.405],[-103.508,35.719],[-104.419,36.253],[-105.297,36.441],[-107.149,36.661],[-108.562,37.1],[-109.441,37.445],[-111.669,37.916],[-112.454,38.324],[-113.27,38.513],[-114.149,38.764],[-115.311,38.889],[-115.624,39.046],[-116.221,39.203],[-117.382,39.203],[-117.884,39.58],[-118.041,40.208],[-117.696,40.616],[-117.539,41.055],[-117.476,41.62],[-117.665,42.154],[-118.449,42.436],[-119.266,42.468],[-120.615,42.468],[-121.243,42.625],[-121.871,42.813],[-122.216,42.844],[-122.781,42.719],[-123.315,42.248],[-123.629,41.683],[-123.723,41.181],[-123.974,40.616],[-124.194,39.956],[-124.664,38.042],[-125.167,37.194],[-125.7,37.037],[-126.108,37.006],[-126.328,37.1],[-126.611,37.1],[-126.893,37.037],[-127.646,36.566],[-128.337,36.441],[-128.745,36.441],[-129.09,36.41],[-129.561,36.692],[-130.032,37.069],[-130.534,37.791],[-130.848,38.889],[-130.974,40.113],[-130.503,41.275],[-130.095,42.028],[-129.436,42.938],[-128.494,44.194],[-127.741,45.167],[-127.458,45.575],[-127.05,46.642],[-126.862,47.396],[-126.893,47.929],[-127.081,48.651],[-127.835,49.875],[-127.897,50.566],[-127.489,51.131],[-126.611,51.539],[-125.669,51.57],[-124.884,51.57],[-124.256,51.602],[-123.66,51.947],[-123.44,52.324],[-123.44,52.732],[-123.786,53.203],[-124.099,53.673],[-124.162,53.925],[-124.005,54.458]]]}},{"type":"Feature","properties":{"density":2},"geometry":{"type":"Polygon","coordinates":[[[-116.17,37.173],[-116.214,37.216],[-116.251,37.3],[-116.259,37.508],[-116.246,37.634],[-116.166,37.812],[-116.093,37.884],[-115.977,37.914],[-115.9,37.906],[-115.836,37.868],[-115.794,37.815],[-115.733,37.684],[-115.724,37.426],[-115.759,37.298],[-115.803,37.208],[-115.884,37.127],[-115.937,37.107],[-116.042,37.109],[-116.17,37.173]]]}},{"type":"Feature","properties":{"density":3},"geometry":{"type":"Polygon","coordinates":[[[-122.461,51.476],[-122.355,51.557],[-122.162,51.602],[-121.99,51.597],[-121.565,51.531],[-121.413,51.481],[-121.322,51.39],[-121.271,51.248],[-121.251,51.106],[-121.281,50.564],[-121.15,50.048],[-121.145,49.83],[-121.281,49.527],[-121.357,49.187],[-121.337,49.117],[-121.281,49.076],[-121.023,48.995],[-120.78,48.96],[-120.517,48.995],[-120.304,48.985],[-120.238,48.949],[-120.021,48.884],[-119.818,48.874],[-119.606,48.833],[-119.53,48.793],[-119.398,48.666],[-119.363,48.514],[-119.18,48.165],[-119.044,48.013],[-118.917,47.942],[-118.75,47.942],[-118.654,47.988],[-118.431,48.175],[-118.345,48.307],[-118.289,48.317],[-118.178,48.286],[-118.051,48.053],[-117.955,47.765],[-117.92,47.608],[-117.829,47.421],[-117.733,47.269],[-117.626,47.132],[-117.444,47.021],[-117.226,46.919],[-117.095,46.778],[-117.049,46.676],[-117.059,46.525],[-117.155,46.418],[-117.454,46.312],[-117.854,46.195],[-118.335,45.993],[-118.441,45.902],[-118.441,45.811],[-118.391,45.765],[-118.193,45.76],[-118.122,45.725],[-118.107,45.664],[-118.117,45.593],[-118.213,45.553],[-119.444,45.522],[-119.808,45.583],[-120.157,45.608],[-120.836,45.618],[-121.104,45.588],[-121.17,45.558],[-121.226,45.482],[-121.2,45.406],[-120.937,45.198],[-120.578,45.072],[-120.314,44.96],[-120.264,44.92],[-120.244,44.869],[-120.107,44.768],[-119.93,44.667],[-119.758,44.515],[-119.585,44.434],[-119.373,44.373],[-119.094,44.317],[-118.674,44.282],[-118.578,44.241],[-118.522,44.17],[-118.517,44.11],[-118.608,44.064],[-118.684,44.054],[-118.983,44.049],[-119.515,44.12],[-120.102,44.12],[-120.573,44.019],[-120.719,43.953],[-120.998,43.877],[-121.216,43.841],[-121.357,43.852],[-121.54,43.927],[-121.656,44.069],[-121.656,44.297],[-121.55,44.646],[-121.529,44.834],[-121.519,45.031],[-121.545,45.178],[-121.686,45.299],[-121.945,45.335],[-122.299,45.269],[-122.638,45.107],[-123.241,44.545],[-123.352,44.358],[-123.58,44.059],[-123.691,43.953],[-123.823,43.887],[-124.056,43.786],[-124.516,43.684],[-124.628,43.684],[-124.835,43.781],[-124.992,43.887],[-125.053,44.024],[-125.053,44.135],[-124.997,44.287],[-124.85,44.505],[-124.582,44.778],[-124.334,44.925],[-123.742,45.203],[-123.266,45.482],[-122.79,45.694],[-121.651,46.028],[-121.408,46.155],[-121.241,46.327],[-120.871,47.243],[-120.851,47.471],[-120.866,47.699],[-120.942,47.876],[-121.079,47.952],[-121.327,47.907],[-121.464,47.765],[-121.59,47.491],[-121.732,47.036],[-121.838,46.803],[-122.061,46.545],[-122.218,46.423],[-122.436,46.368],[-122.694,46.403],[-122.932,46.611],[-123.099,46.93],[-123.154,47.238],[-123.175,47.486],[-123.109,47.714],[-123.018,47.952],[-122.987,48.119],[-122.998,48.241],[-123.266,48.605],[-123.514,48.853],[-123.742,49.02],[-124.096,49.172],[-124.192,49.263],[-124.901,49.618],[-125.043,49.749],[-125.083,49.921],[-125.093,50.104],[-125.007,50.23],[-124.855,50.296],[-124.648,50.301],[-124.471,50.235],[-124.02,50.002],[-123.615,49.83],[-123.099,49.704],[-122.603,49.643],[-122.112,49.694],[-122.031,49.795],[-121.929,49.972],[-121.869,50.154],[-121.838,50.337],[-121.843,50.509],[-121.945,50.686],[-122.132,50.899],[-122.38,51.081],[-122.471,51.197],[-122.501,51.319],[-122.501,51.415],[-122.461,51.476]]]}},{"type":"Feature","properties":{"density":3},"geometry":{"type":"Polygon","coordinates":[[[-117.248,44.384],[-117.261,44.299],[-117.194,43.931],[-117.052,43.651],[-116.515,43.078],[-116.212,42.862],[-115.861,42.689],[-115.516,42.629],[-115.354,42.673],[-115.263,42.781],[-115.246,42.885],[-115.31,43.051],[-115.449,43.145],[-115.931,43.402],[-116.168,43.577],[-116.89,44.482],[-117.011,44.573],[-117.113,44.583],[-117.19,44.546],[-117.251,44.451],[-117.248,44.384]]]}},{"type":"Feature","properties":{"density":3},"geometry":{"type":"Polygon","coordinates":[[[-112.432,38.671],[-112.378,38.665],[-112.258,38.692],[-112.192,38.73],[-112.132,38.803],[-112.125,38.865],[-112.204,39.136],[-112.266,39.124],[-112.297,39.075],[-112.303,38.958],[-112.281,38.83],[-112.293,38.8],[-112.33,38.769],[-112.452,38.736],[-112.459,38.686],[-112.432,38.671]]]}},{"type":"Feature","properties":{"density":3},"geometry":{"type":"Polygon","coordinates":[[[-109.428,38.247],[-109.539,38.065],[-109.731,37.827],[-109.792,37.675],[-109.802,37.386],[-109.686,37.072],[-109.564,36.921],[-109.483,36.855],[-109.286,36.799],[-109.094,36.855],[-108.891,36.961],[-108.704,37.153],[-108.658,37.538],[-108.618,37.731],[-108.552,37.898],[-108.451,38.065],[-108.289,38.237],[-108.081,38.358],[-107.686,38.51],[-107.469,38.627],[-107.286,38.703],[-107.134,38.829],[-107.064,38.971],[-107.043,39.087],[-107.033,39.366],[-107.084,39.492],[-107.185,39.629],[-107.362,39.74],[-107.565,39.776],[-107.757,39.776],[-107.944,39.72],[-108.506,39.371],[-108.886,39.027],[-109.023,38.87],[-109.215,38.535],[-109.316,38.429],[-109.428,38.247]]]}},{"type":"Feature","properties":{"density":3},"geometry":{"type":"Polygon","coordinates":[[[-117.201,44.65],[-117.095,44.669],[-116.953,44.663],[-116.723,44.531],[-116.343,43.77],[-116.211,43.595],[-116.037,43.414],[-115.806,43.257],[-115.572,43.149],[-115.355,43.096],[-114.872,43.077],[-114.677,43.055],[-114.566,42.995],[-114.495,42.906],[-114.45,42.766],[-114.456,42.598],[-114.516,42.49],[-114.585,42.441],[-114.742,42.399],[-114.888,42.388],[-115.062,42.399],[-115.454,42.526],[-116.202,42.679],[-116.322,42.724],[-116.407,42.721],[-116.492,42.695],[-116.525,42.662],[-116.583,42.493],[-116.645,42.406],[-116.744,42.332],[-116.827,42.298],[-116.913,42.294],[-116.991,42.313],[-117.066,42.369],[-117.108,42.447],[-117.087,42.542],[-116.946,42.761],[-116.815,42.888],[-116.761,42.967],[-116.748,43.051],[-116.806,43.158],[-117.041,43.472],[-117.149,43.658],[-117.351,44.229],[-117.376,44.402],[-117.364,44.502],[-117.331,44.58],[-117.244,44.642],[-117.201,44.65]]]}},{"type":"Feature","properties":{"density":3},"geometry":{"type":"Polygon","coordinates":[[[-115.075,46.104],[-115.086,46.134],[-115.116,46.155],[-115.267,46.111],[-115.409,46.114],[-115.628,46.2],[-115.696,46.21],[-115.775,46.204],[-115.808,46.185],[-115.817,46.154],[-115.782,46.099],[-115.744,46.077],[-115.397,46.025],[-115.138,46.058],[-115.081,46.082],[-115.075,46.104]]]}},{"type":"Feature","properties":{"density":3},"geometry":{"type":"Polygon","coordinates":[[[-112.513,38.77],[-112.452,38.803],[-112.377,38.922],[-112.278,39.269],[-112.204,39.352],[-112.118,39.363],[-112.028,39.354],[-111.945,39.302],[-111.879,39.233],[-111.81,39.076],[-111.815,38.971],[-111.835,38.903],[-111.898,38.812],[-112.113,38.693],[-112.32,38.61],[-112.394,38.61],[-112.504,38.644],[-112.529,38.674],[-112.535,38.743],[-112.513,38.77]]]}},{"type":"Feature","properties":{"density":3},"geometry":{"type":"Polygon","coordinates":[[[-111.348,39.367],[-111.348,39.422],[-111.328,39.45],[-111.28,39.463],[-111.238,39.458],[-111.216,39.437],[-111.216,39.377],[-111.296,39.318],[-111.34,39.323],[-111.348,39.367]]]}},{"type":"Feature","properties":{"density":3},"geometry":{"type":"Polygon","coordinates":[[[-109.638,37.998],[-109.429,38.361],[-108.996,38.821],[-108.536,39.212],[-108.117,39.533],[-107.727,39.784],[-107.169,40.021],[-106.792,40.063],[-106.401,39.979],[-106.136,39.784],[-106.039,39.547],[-105.983,39.352],[-106.108,39.031],[-106.346,38.71],[-107.211,38.305],[-107.615,38.208],[-107.922,38.054],[-108.131,37.915],[-108.41,37.58],[-108.396,37.357],[-108.494,37.147],[-108.675,37.022],[-108.996,36.882],[-109.317,36.91],[-109.638,37.008],[-109.791,37.161],[-109.819,37.44],[-109.778,37.677],[-109.638,37.998]]]}},{"type":"Feature","properties":{"density":3},"geometry":{"type":"Polygon","coordinates":[[[-122.14,52.148],[-122.308,52.092],[-122.504,51.952],[-122.58,51.807],[-122.685,51.422],[-122.839,51.198],[-122.841,51.05],[-122.699,50.836],[-122.42,50.696],[-122.211,50.501],[-122.197,50.264],[-122.295,49.929],[-122.574,49.761],[-123.006,49.636],[-123.341,49.65],[-123.913,49.748],[-124.094,49.915],[-124.597,50.124],[-124.89,50.082],[-125.029,49.971],[-125.029,49.706],[-124.973,49.538],[-124.708,49.245],[-123.871,48.827],[-123.578,48.576],[-123.313,48.394],[-123.174,48.269],[-123.02,47.99],[-123.104,47.794],[-123.146,47.599],[-123.467,47.292],[-123.676,47.334],[-123.857,47.292],[-123.969,47.041],[-124.15,46.427],[-124.206,45.869],[-124.345,45.116],[-124.763,44.587],[-125.258,44.181],[-125.779,43.647],[-126.102,43.378],[-126.279,43.182],[-126.512,42.885],[-126.898,42.298],[-127.303,41.503],[-127.401,41.0],[-127.373,40.819],[-127.247,40.735],[-126.926,40.763],[-126.619,40.987],[-126.187,41.572],[-125.782,41.963],[-125.479,42.308],[-125.275,42.513],[-124.847,42.866],[-124.642,42.978],[-123.981,43.478],[-123.634,43.791],[-123.348,43.99],[-123.104,44.237],[-122.936,44.502],[-122.797,44.781],[-122.616,45.032],[-122.476,45.172],[-122.099,45.283],[-121.918,45.283],[-121.71,45.188],[-121.597,45.06],[-121.597,44.907],[-121.639,44.767],[-121.737,44.656],[-121.848,44.418],[-121.946,44.07],[-121.974,43.805],[-121.89,43.623],[-121.653,43.526],[-121.374,43.539],[-121.147,43.741],[-120.844,43.958],[-120.565,44.042],[-120.035,44.084],[-119.644,44.139],[-118.763,44.119],[-118.682,44.223],[-118.693,44.404],[-118.905,44.488],[-119.156,44.516],[-119.519,44.53],[-120.075,44.53],[-120.509,44.586],[-120.788,44.697],[-120.816,44.767],[-120.816,44.851],[-120.774,45.06],[-120.648,45.178],[-119.881,45.409],[-118.5,45.52],[-118.291,45.576],[-118.124,45.59],[-118.068,45.688],[-118.151,45.897],[-118.137,45.995],[-118.11,46.092],[-117.97,46.218],[-117.844,46.288],[-117.133,46.218],[-116.919,46.286],[-116.854,46.399],[-116.833,46.899],[-116.868,47.139],[-116.994,47.571],[-117.44,47.99],[-117.858,48.338],[-118.04,48.366],[-118.486,48.311],[-118.668,48.325],[-119.03,48.408],[-119.184,48.492],[-119.491,48.869],[-119.602,48.924],[-119.742,48.938],[-119.909,48.897],[-120.118,48.785],[-120.3,48.841],[-120.425,48.938],[-120.453,49.008],[-120.537,49.106],[-120.969,49.162],[-121.025,49.231],[-121.025,49.301],[-120.928,49.427],[-120.872,49.552],[-120.788,49.943],[-120.718,49.985],[-120.649,50.319],[-120.649,50.668],[-120.76,51.129],[-120.9,51.352],[-121.012,51.577],[-121.137,51.728],[-121.444,51.952],[-121.695,52.105],[-121.793,52.133],[-122.016,52.161],[-122.14,52.148]]]}},{"type":"Feature","properties":{"density":3},"geometry":{"type":"Polygon","coordinates":[[[-111.355,39.421],[-111.31,39.443],[-110.914,39.475],[-110.605,39.434],[-110.579,39.408],[-110.579,39.375],[-110.612,39.322],[-110.8,39.317],[-110.987,39.344],[-111.355,39.359],[-111.355,39.421]]]}},{"type":"Feature","properties":{"density":3},"geometry":{"type":"Polygon","coordinates":[[[-112.516,38.759],[-112.474,38.828],[-112.27,39.021],[-112.138,39.07],[-111.915,39.101],[-111.375,39.04],[-111.237,38.993],[-111.174,38.944],[-111.168,38.894],[-111.179,38.789],[-111.207,38.753],[-111.278,38.731],[-111.62,38.792],[-111.7,38.787],[-111.777,38.759],[-111.816,38.72],[-111.959,38.643],[-112.05,38.665],[-112.077,38.657],[-112.199,38.569],[-112.317,38.574],[-112.477,38.616],[-112.538,38.698],[-112.516,38.759]]]}},{"type":"Feature","properties":{"density":3},"geometry":{"type":"Polygon","coordinates":[[[-121.51,52.565],[-121.677,52.663],[-122.152,52.733],[-122.375,52.677],[-122.528,52.579],[-122.612,52.426],[-122.584,52.3],[-122.542,52.258],[-122.333,52.133],[-121.956,51.979],[-121.887,51.91],[-121.859,51.84],[-121.859,51.77],[-121.97,51.673],[-122.333,51.7],[-122.584,51.7],[-122.765,51.659],[-122.961,51.505],[-123.03,51.296],[-123.03,51.212],[-122.933,51.031],[-122.765,50.863],[-122.514,50.752],[-122.249,50.682],[-122.152,50.556],[-122.193,50.459],[-122.612,50.264],[-122.765,50.096],[-122.877,50.026],[-123.03,49.873],[-123.435,49.817],[-123.826,49.985],[-124.258,50.222],[-124.774,50.417],[-125.332,50.57],[-125.569,50.57],[-125.737,50.459],[-125.611,50.152],[-125.583,50.026],[-125.304,49.747],[-125.249,49.636],[-125.304,49.58],[-125.36,49.454],[-125.486,49.385],[-125.723,49.371],[-126.253,49.413],[-126.365,49.315],[-126.351,49.189],[-126.281,49.064],[-126.072,48.785],[-125.737,48.492],[-125.625,48.115],[-125.542,47.473],[-125.597,46.901],[-125.597,46.553],[-125.458,46.274],[-125.263,46.078],[-125.179,45.939],[-125.095,45.688],[-125.165,45.395],[-125.36,45.032],[-125.974,44.376],[-126.197,44.028],[-126.532,43.637],[-126.803,43.129],[-126.978,42.884],[-127.188,42.549],[-127.411,42.27],[-127.634,41.949],[-127.816,41.823],[-128.025,41.796],[-128.248,41.796],[-128.499,41.837],[-128.736,42.019],[-128.904,42.116],[-129.147,42.082],[-129.35,41.963],[-129.49,41.321],[-129.448,40.275],[-129.322,39.87],[-129.113,39.508],[-129.113,39.145],[-129.308,38.336],[-129.266,37.847],[-129.197,37.359],[-128.876,37.038],[-128.583,36.927],[-128.178,36.899],[-127.843,37.108],[-127.501,37.381],[-127.174,37.61],[-126.741,37.75],[-126.448,37.82],[-126.128,37.764],[-125.897,37.688],[-125.765,37.68],[-125.542,37.917],[-125.458,38.35],[-125.263,38.964],[-125.151,39.536],[-124.872,40.233],[-124.746,40.414],[-124.607,40.666],[-124.495,41.056],[-124.356,41.768],[-124.342,42.13],[-124.453,42.479],[-124.37,43.051],[-124.174,43.288],[-123.812,43.609],[-123.491,43.763],[-122.989,44.056],[-122.696,44.348],[-122.459,44.404],[-122.193,44.293],[-122.04,44.167],[-121.984,43.902],[-122.068,43.511],[-122.193,43.442],[-122.417,43.4],[-122.64,43.26],[-122.654,43.135],[-122.626,43.051],[-122.486,42.981],[-122.193,42.967],[-121.928,43.023],[-121.691,43.037],[-121.538,43.107],[-121.44,43.121],[-121.398,43.107],[-121.231,42.926],[-120.938,42.898],[-120.659,42.939],[-120.24,43.093],[-119.989,43.121],[-119.752,43.107],[-119.529,43.037],[-119.348,43.009],[-119.055,42.912],[-118.622,42.87],[-118.371,42.8],[-118.134,42.716],[-117.925,42.591],[-117.422,42.437],[-117.018,42.242],[-116.795,42.214],[-116.543,42.116],[-116.223,42.047],[-115.734,42.033],[-115.262,42.073],[-114.685,42.268],[-114.562,42.409],[-114.507,42.577],[-114.549,42.73],[-114.744,42.87],[-115.051,42.981],[-115.455,42.995],[-116.097,43.205],[-116.348,43.316],[-116.599,43.497],[-116.711,43.679],[-116.711,43.749],[-116.683,43.846],[-116.557,43.902],[-116.404,43.93],[-116.223,43.86],[-116.041,43.93],[-115.985,44.223],[-116.055,44.53],[-116.167,44.739],[-116.167,45.381],[-116.083,45.562],[-115.999,45.66],[-115.567,45.841],[-115.399,45.841],[-115.178,45.868],[-114.924,45.93],[-114.223,45.998],[-113.949,45.967],[-113.698,45.883],[-113.553,45.75],[-113.454,45.613],[-113.398,45.502],[-113.237,45.437],[-112.484,45.255],[-112.037,45.241],[-111.898,45.255],[-111.87,45.339],[-111.926,45.674],[-112.107,45.953],[-112.358,46.092],[-112.581,46.246],[-112.874,46.343],[-113.076,46.45],[-113.432,46.553],[-113.698,46.731],[-113.781,46.887],[-113.879,47.18],[-113.935,47.432],[-113.963,47.738],[-114.004,47.92],[-114.228,48.352],[-114.632,48.771],[-114.883,49.106],[-115.358,49.608],[-115.497,49.789],[-115.79,50.054],[-116.083,50.264],[-116.362,50.515],[-116.669,50.668],[-116.92,50.724],[-117.213,50.836],[-117.339,50.849],[-117.869,50.738],[-118.176,50.501],[-118.399,50.11],[-118.371,49.929],[-118.259,49.719],[-118.078,49.58],[-117.911,49.385],[-117.785,49.161],[-117.799,49.008],[-117.897,48.785],[-118.19,48.715],[-118.399,48.645],[-118.692,48.603],[-118.943,48.645],[-119.166,48.785],[-119.278,48.966],[-119.501,49.008],[-119.682,49.078],[-119.906,49.12],[-119.906,49.287],[-119.654,49.426],[-119.348,49.399],[-119.138,49.468],[-118.999,49.65],[-118.915,49.929],[-118.957,50.208],[-118.957,50.389],[-118.831,50.696],[-118.789,50.975],[-118.943,51.268],[-119.18,51.477],[-119.473,51.589],[-120.017,51.631],[-120.282,51.756],[-120.45,51.924],[-120.603,52.147],[-120.757,52.286],[-121.161,52.454],[-121.315,52.454],[-121.51,52.565]]]}},{"type":"Feature","properties":{"density":3},"geometry":{"type":"Polygon","coordinates":[[[-112.318,38.948],[-112.249,39.025],[-111.802,39.248],[-111.588,39.276],[-111.439,39.258],[-111.365,39.267],[-111.356,39.313],[-111.402,39.379],[-111.393,39.416],[-111.337,39.462],[-111.179,39.499],[-110.826,39.527],[-110.677,39.555],[-110.502,39.604],[-110.388,39.658],[-109.886,39.769],[-109.43,39.902],[-107.673,40.271],[-107.357,40.355],[-106.912,40.373],[-105.85,40.364],[-105.387,40.28],[-104.966,40.141],[-104.529,39.853],[-104.297,39.546],[-104.176,39.258],[-104.12,39.016],[-104.139,38.793],[-104.241,38.495],[-104.371,38.253],[-104.585,38.123],[-104.818,38.058],[-105.059,38.021],[-105.338,37.881],[-105.478,37.742],[-105.589,37.565],[-105.729,37.388],[-105.924,37.221],[-106.129,37.081],[-106.352,36.979],[-106.64,36.886],[-107.115,36.849],[-107.236,36.849],[-107.588,36.95],[-107.737,37.012],[-107.84,37.1],[-107.868,37.398],[-107.849,37.556],[-107.924,37.658],[-108.119,37.742],[-108.473,37.816],[-108.696,37.844],[-109.077,37.835],[-109.263,37.863],[-109.421,37.909],[-109.933,37.965],[-110.649,38.17],[-110.788,38.272],[-111.086,38.383],[-111.319,38.367],[-111.371,38.346],[-111.45,38.277],[-111.672,38.263],[-111.923,38.281],[-112.1,38.328],[-112.183,38.402],[-112.483,38.588],[-112.537,38.672],[-112.531,38.744],[-112.472,38.821],[-112.347,38.882],[-112.318,38.948]]]}},{"type":"Feature","properties":{"density":3},"geometry":{"type":"Polygon","coordinates":[[[-120.775,38.1],[-120.8,38.199],[-121.003,38.591],[-121.166,38.817],[-121.53,39.126],[-121.796,39.191],[-121.866,39.253],[-121.895,39.348],[-121.879,39.464],[-121.747,39.612],[-121.639,39.687],[-121.528,39.736],[-121.362,39.716],[-121.28,39.741],[-121.189,39.976],[-121.131,40.055],[-121.073,40.088],[-120.937,40.09],[-120.817,40.038],[-120.717,39.931],[-120.668,39.823],[-120.573,39.476],[-120.49,39.323],[-120.436,39.278],[-120.101,39.212],[-120.06,39.129],[-120.06,39.1],[-120.114,39.03],[-120.192,39.003],[-120.249,38.948],[-120.242,38.913],[-120.254,38.893],[-120.176,38.699],[-120.118,38.434],[-120.126,38.323],[-120.192,38.1],[-120.265,38.037],[-120.383,37.992],[-120.473,37.984],[-120.734,38.029],[-120.763,38.042],[-120.775,38.1]]]}},{"type":"Feature","properties":{"density":3},"geometry":{"type":"Polygon","coordinates":[[[-116.203,37.245],[-116.216,37.344],[-116.202,37.432],[-116.114,37.595],[-116.048,37.595],[-115.951,37.518],[-115.924,37.454],[-115.91,37.303],[-115.926,37.234],[-115.968,37.19],[-116.1,37.234],[-116.157,37.213],[-116.203,37.245]]]}},{"type":"Feature","properties":{"density":3},"geometry":{"type":"Polygon","coordinates":[[[-117.617,39.58],[-117.591,39.738],[-117.526,39.824],[-117.425,39.915],[-117.254,39.984],[-116.993,40.061],[-116.604,40.142],[-116.381,40.149],[-116.302,40.13],[-116.249,40.068],[-116.211,39.96],[-116.246,39.884],[-116.353,39.81],[-116.758,39.716],[-117.089,39.606],[-117.213,39.534],[-117.436,39.485],[-117.513,39.497],[-117.613,39.563],[-117.617,39.58]]]}},{"type":"Feature","properties":{"density":3},"geometry":{"type":"Polygon","coordinates":[[[-114.979,39.144],[-114.966,39.232],[-114.883,39.281],[-114.629,39.311],[-114.525,39.303],[-114.478,39.267],[-114.453,39.181],[-114.489,39.068],[-114.588,39.046],[-114.872,39.068],[-114.955,39.102],[-114.979,39.144]]]}},{"type":"Feature","properties":{"density":3},"geometry":{"type":"Polygon","coordinates":[[[-110.537,42.814],[-110.339,42.868],[-110.163,42.895],[-110.069,42.883],[-110.028,42.855],[-110.007,42.794],[-110.049,42.729],[-110.15,42.714],[-110.525,42.746],[-110.546,42.783],[-110.537,42.814]]]}}]}