{"type":"FeatureCollection","features":[{"type":"Feature","properties":{"density":1},"geometry":{"type":"Polygon","coordinates":[[[-102.365,60.524],[-101.84,61.185],[-100.805,62.315],[-99.486,63.068],[-98.356,63.539],[-96.661,64.057],[-94.401,64.387],[-93.036,64.528],[-91.616,64.615],[-89.983,64.584],[-88.327,64.293],[-86.02,63.304],[-84.561,62.55],[-83.046,61.79],[-81.642,61.138],[-80.417,60.808],[-78.393,60.196],[-75.897,59.396],[-74.014,58.831],[-72.037,58.172],[-70.53,57.701],[-69.494,57.465],[-68.182,56.981],[-67.281,56.712],[-66.01,56.241],[-65.699,55.976],[-65.351,55.535],[-65.351,55.158],[-65.727,55.017],[-66.81,54.923],[-68.364,55.017],[-71.001,54.829],[-72.272,54.688],[-73.083,54.619],[-74.909,54.264],[-76.745,53.746],[-78.346,53.275],[-79.193,52.851],[-80.088,52.71],[-81.03,52.663],[-83.478,53.322],[-84.985,53.416],[-86.303,53.181],[-87.386,53.04],[-88.845,53.134],[-89.928,53.463],[-90.917,53.981],[-92.424,54.593],[-93.036,54.452],[-93.742,53.934],[-94.091,53.182],[-93.977,52.192],[-93.036,50.874],[-92.228,50.022],[-91.538,49.331],[-90.87,48.802],[-89.881,48.473],[-88.61,48.473],[-87.762,48.237],[-86.491,47.578],[-85.597,46.872],[-84.467,46.071],[-82.866,45.412],[-82.16,44.988],[-80.747,44.565],[-78.77,44.235],[-77.828,43.953],[-76.886,43.905],[-76.368,43.961],[-76.113,44.048],[-75.537,44.16],[-75.177,44.017],[-75.041,43.49],[-75.438,42.628],[-75.945,41.975],[-76.781,41.181],[-77.687,40.515],[-79.099,39.621],[-80.841,38.868],[-82.677,38.585],[-85.267,38.773],[-87.056,39.338],[-88.845,39.95],[-90.54,40.61],[-92.518,42.21],[-94.448,43.105],[-95.557,43.67],[-96.544,43.81],[-98.639,43.953],[-100.059,44.27],[-101.65,45.003],[-102.568,45.951],[-103.065,48.237],[-103.321,49.801],[-103.551,50.701],[-104.1,51.815],[-104.524,53.416],[-104.43,54.876],[-104.383,55.912],[-103.92,57.302],[-103.488,58.407],[-103.048,59.422],[-102.63,60.148],[-102.365,60.524]]]}},{"type":"Feature","properties":{"density":1},"geometry":{"type":"Polygon","coordinates":[[[-107.119,25.669],[-107.182,25.667],[-107.246,25.738],[-107.29,26.044],[-107.406,26.232],[-107.538,26.389],[-107.665,26.595],[-107.698,26.708],[-107.665,26.926],[-107.601,26.987],[-107.538,27.017],[-107.433,27.036],[-107.337,27.02],[-107.254,26.978],[-107.144,26.813],[-107.067,26.774],[-106.882,26.755],[-106.788,26.714],[-106.675,26.617],[-106.642,26.532],[-106.659,26.32],[-106.714,26.226],[-106.998,26.121],[-107.025,26.085],[-107.039,25.995],[-107.025,25.763],[-107.075,25.68],[-107.102,25.675],[-107.119,25.669]]]}},{"type":"Feature","properties":{"density":1},"geometry":{"type":"Polygon","coordinates":[[[-95.975,28.305],[-96.268,28.263],[-96.644,28.117],[-97.084,27.573],[-97.46,26.819],[-97.732,25.878],[-97.9,25.041],[-97.9,24.057],[-97.858,23.304],[-97.858,22.488],[-97.795,21.902],[-97.188,20.353],[-96.184,18.889],[-95.368,17.633],[-95.179,17.173],[-95.012,16.629],[-94.96,16.1],[-95.138,15.708],[-95.379,15.486],[-95.769,15.328],[-96.54,15.206],[-97.021,15.206],[-97.602,15.17],[-98.187,15.105],[-98.674,15.017],[-99.427,15.038],[-100.348,15.247],[-101.08,15.352],[-101.75,15.415],[-102.608,15.582],[-103.436,15.944],[-104.198,16.252],[-104.826,16.629],[-105.352,17.005],[-105.799,17.637],[-105.873,18.288],[-105.715,18.8],[-105.308,19.474],[-105.077,19.956],[-104.868,20.751],[-104.722,21.672],[-104.701,22.404],[-105.203,23.137],[-105.58,23.45],[-105.935,23.639],[-106.375,23.911],[-106.856,24.015],[-107.233,23.974],[-107.84,23.722],[-108.321,23.325],[-109.053,22.467],[-109.911,20.688],[-110.288,19.872],[-110.434,19.182],[-110.706,18.596],[-110.999,17.905],[-111.418,17.194],[-112.13,16.093],[-113.594,14.871],[-114.034,14.348],[-114.64,13.678],[-115.017,13.134],[-115.226,12.632],[-115.247,12.171],[-114.955,11.469],[-114.138,11.02],[-113.301,10.916],[-112.318,10.853],[-111.104,11.0],[-109.43,11.397],[-107.17,11.857],[-106.186,12.109],[-105.203,12.443],[-104.429,12.632],[-103.717,12.715],[-102.817,12.883],[-102.127,12.987],[-100.243,12.987],[-99.532,12.82],[-98.883,12.715],[-98.151,12.527],[-97.46,12.15],[-96.895,11.878],[-95.98,11.515],[-94.991,11.439],[-94.091,11.544],[-92.66,12.059],[-92.241,12.561],[-92.074,13.287],[-92.145,14.348],[-92.605,15.478],[-93.024,16.566],[-93.589,17.633],[-94.091,18.909],[-94.573,19.663],[-94.824,20.291],[-95.117,22.718],[-95.117,23.597],[-94.845,24.601],[-94.51,25.397],[-94.008,26.296],[-93.715,26.903],[-93.694,27.343],[-93.756,27.824],[-94.028,28.054],[-94.51,28.222],[-94.803,28.305],[-95.2,28.347],[-95.577,28.347],[-95.975,28.305]]]}},{"type":"Feature","properties":{"density":1},"geometry":{"type":"Polygon","coordinates":[[[-109.072,28.736],[-109.028,28.837],[-109.007,28.853],[-108.971,28.848],[-108.949,28.806],[-108.956,28.723],[-109.015,28.694],[-109.062,28.705],[-109.073,28.723],[-109.072,28.736]]]}},{"type":"Feature","properties":{"density":1},"geometry":{"type":"Polygon","coordinates":[[[-82.794,32.067],[-82.855,32.124],[-82.846,32.171],[-82.719,32.157],[-82.694,32.141],[-82.698,32.108],[-82.727,32.075],[-82.79,32.066],[-82.794,32.067]]]}},{"type":"Feature","properties":{"density":1},"geometry":{"type":"Polygon","coordinates":[[[-100.721,47.124],[-100.877,47.705],[-100.859,47.789],[-100.817,47.816],[-100.786,47.797],[-100.756,47.743],[-100.68,47.464],[-100.632,47.195],[-100.639,47.111],[-100.709,47.112],[-100.721,47.124]]]}},{"type":"Feature","properties":{"density":1},"geometry":{"type":"Polygon","coordinates":[[[-100.484,55.417],[-100.411,55.557],[-100.342,55.633],[-100.224,55.731],[-100.133,55.84],[-100.094,55.837],[-100.048,55.674],[-99.995,55.626],[-99.997,55.577],[-100.019,55.536],[-100.114,55.477],[-100.26,55.418],[-100.365,55.344],[-100.456,55.354],[-100.484,55.37],[-100.488,55.397],[-100.484,55.417]]]}},{"type":"Feature","properties":{"density":1},"geometry":{"type":"Polygon","coordinates":[[[-107.244,26.214],[-107.233,26.258],[-107.138,26.382],[-106.997,26.508],[-106.958,26.519],[-106.952,26.462],[-106.976,26.409],[-107.072,26.284],[-107.178,26.179],[-107.237,26.174],[-107.245,26.208],[-107.244,26.214]]]}},{"type":"Feature","properties":{"density":1},"geometry":{"type":"Polygon","coordinates":[[[-107.148,25.894],[-107.127,25.917],[-107.076,25.905],[-107.057,25.866],[-107.053,25.787],[-107.088,25.757],[-107.206,25.725],[-107.229,25.765],[-107.231,25.821],[-107.174,25.857],[-107.152,25.89],[-107.148,25.894]]]}},{"type":"Feature","properties":{"density":1},"geometry":{"type":"Polygon","coordinates":[[[-105.106,22.567],[-105.068,22.551],[-105.004,22.427],[-105.0,22.359],[-105.026,22.331],[-105.081,22.334],[-105.124,22.376],[-105.132,22.539],[-105.109,22.567],[-105.106,22.567]]]}},{"type":"Feature","properties":{"density":1},"geometry":{"type":"Polygon","coordinates":[[[-106.858,26.269],[-106.907,26.363],[-106.919,26.532],[-106.903,26.574],[-106.85,26.593],[-106.748,26.52],[-106.668,26.437],[-106.615,26.32],[-106.624,26.287],[-106.678,26.248],[-106.744,26.242],[-106.843,26.259],[-106.858,26.269]]]}},{"type":"Feature","properties":{"density":1},"geometry":{"type":"Polygon","coordinates":[[[-108.252,26.728],[-108.296,26.824],[-108.303,26.902],[-108.28,26.921],[-108.201,26.925],[-108.139,26.884],[-108.116,26.802],[-108.159,26.734],[-108.247,26.727],[-108.252,26.728]]]}},{"type":"Feature","properties":{"density":1},"geometry":{"type":"Polygon","coordinates":[[[-100.751,47.105],[-100.955,47.533],[-100.99,47.641],[-101.104,48.206],[-101.153,48.536],[-101.227,48.818],[-101.253,48.998],[-101.223,49.102],[-101.137,49.131],[-101.032,49.075],[-100.924,48.918],[-100.875,48.702],[-100.81,48.051],[-100.61,47.205],[-100.612,47.094],[-100.627,47.069],[-100.65,47.05],[-100.68,47.05],[-100.737,47.089],[-100.751,47.105]]]}},{"type":"Feature","properties":{"density":1},"geometry":{"type":"Polygon","coordinates":[[[-96.459,47.66],[-96.558,47.753],[-96.621,47.846],[-96.631,47.943],[-96.543,48.013],[-96.43,48.055],[-96.365,48.061],[-96.343,48.04],[-96.34,48.004],[-96.365,47.917],[-96.389,47.693],[-96.404,47.657],[-96.455,47.656],[-96.459,47.66]]]}},{"type":"Feature","properties":{"density":1},"geometry":{"type":"Polygon","coordinates":[[[-100.417,55.341],[-100.462,55.374],[-100.473,55.43],[-100.272,55.648],[-99.531,56.303],[-99.405,56.393],[-99.071,56.532],[-98.821,56.6],[-98.456,56.611],[-97.695,56.515],[-97.537,56.455],[-97.466,56.37],[-97.512,56.216],[-97.619,56.081],[-97.738,55.97],[-98.126,55.782],[-98.803,55.53],[-99.381,55.488],[-99.871,55.424],[-100.363,55.334],[-100.415,55.34],[-100.417,55.341]]]}},{"type":"Feature","properties":{"density":1},"geometry":{"type":"Polygon","coordinates":[[[-101.936,55.297],[-101.903,55.379],[-101.853,55.42],[-101.403,55.605],[-101.144,55.731],[-100.68,55.877],[-100.603,55.888],[-100.51,55.866],[-100.5,55.84],[-100.514,55.803],[-100.56,55.774],[-100.809,55.639],[-101.366,55.377],[-101.717,55.251],[-101.883,55.252],[-101.925,55.269],[-101.936,55.293],[-101.936,55.297]]]}},{"type":"Feature","properties":{"density":1},"geometry":{"type":"Polygon","coordinates":[[[-82.694,29.005],[-82.914,29.041],[-83.127,29.04],[-83.352,29.008],[-83.401,28.976],[-83.418,28.927],[-83.412,28.891],[-83.362,28.865],[-82.835,28.875],[-82.712,28.89],[-82.649,28.921],[-82.635,28.961],[-82.665,28.991],[-82.694,29.005]]]}},{"type":"Feature","properties":{"density":1},"geometry":{"type":"Polygon","coordinates":[[[-109.075,28.766],[-109.043,28.818],[-108.961,28.863],[-108.925,28.856],[-108.885,28.779],[-108.911,28.735],[-109.044,28.7],[-109.071,28.715],[-109.076,28.757],[-109.075,28.766]]]}},{"type":"Feature","properties":{"density":1},"geometry":{"type":"Polygon","coordinates":[[[-107.239,26.19],[-107.286,26.25],[-107.279,26.308],[-107.235,26.373],[-107.188,26.389],[-107.142,26.36],[-107.118,26.323],[-107.103,26.229],[-107.135,26.19],[-107.235,26.187],[-107.239,26.19]]]}},{"type":"Feature","properties":{"density":1},"geometry":{"type":"Polygon","coordinates":[[[-106.82,26.249],[-106.713,26.234],[-106.643,26.254],[-106.585,26.314],[-106.57,26.402],[-106.616,26.439],[-106.805,26.421],[-106.861,26.366],[-106.865,26.331],[-106.841,26.264],[-106.82,26.249]]]}},{"type":"Feature","properties":{"density":1},"geometry":{"type":"Polygon","coordinates":[[[-107.479,26.29],[-107.495,26.389],[-107.478,26.429],[-107.362,26.487],[-107.303,26.492],[-107.286,26.48],[-107.278,26.438],[-107.296,26.403],[-107.381,26.297],[-107.429,26.278],[-107.478,26.288],[-107.479,26.29]]]}},{"type":"Feature","properties":{"density":1},"geometry":{"type":"Polygon","coordinates":[[[-107.143,25.765],[-107.152,25.838],[-107.099,25.92],[-107.061,25.925],[-107.033,25.879],[-107.035,25.791],[-107.086,25.766],[-107.137,25.762],[-107.143,25.765]]]}},{"type":"Feature","properties":{"density":1},"geometry":{"type":"Polygon","coordinates":[[[-107.415,26.29],[-107.492,26.318],[-107.498,26.368],[-107.473,26.402],[-107.405,26.399],[-107.384,26.302],[-107.409,26.289],[-107.415,26.29]]]}},{"type":"Feature","properties":{"density":1},"geometry":{"type":"Polygon","coordinates":[[[-107.594,26.576],[-107.643,26.618],[-107.651,26.67],[-107.625,26.673],[-107.529,26.629],[-107.526,26.592],[-107.589,26.577],[-107.594,26.576]]]}},{"type":"Feature","properties":{"density":1},"geometry":{"type":"Polygon","coordinates":[[[-108.939,28.801],[-109.029,28.901],[-109.104,28.926],[-109.148,28.917],[-109.208,28.874],[-109.224,28.83],[-109.217,28.688],[-109.164,28.614],[-109.13,28.617],[-108.982,28.702],[-108.937,28.786],[-108.939,28.801]]]}},{"type":"Feature","properties":{"density":1},"geometry":{"type":"Polygon","coordinates":[[[-96.454,47.66],[-96.586,47.794],[-97.167,48.553],[-97.226,48.736],[-97.207,48.812],[-97.16,48.861],[-97.014,48.913],[-96.915,48.92],[-96.845,48.905],[-96.725,48.823],[-96.554,48.52],[-96.382,48.113],[-96.341,47.807],[-96.348,47.708],[-96.384,47.654],[-96.44,47.653],[-96.454,47.66]]]}},{"type":"Feature","properties":{"density":1},"geometry":{"type":"Polygon","coordinates":[[[-98.82,58.167],[-98.39,58.708],[-98.03,58.9],[-97.559,59.117],[-96.79,59.297],[-96.263,59.396],[-95.492,59.569],[-94.432,59.631],[-93.111,59.774],[-91.774,59.6],[-88.77,59.526],[-86.64,59.2],[-82.325,58.014],[-80.167,57.202],[-75.313,56.291],[-73.444,56.152],[-72.635,55.956],[-71.546,55.803],[-70.863,55.65],[-70.221,55.231],[-69.914,54.771],[-69.775,54.241],[-70.012,53.794],[-70.357,53.255],[-71.194,52.808],[-73.098,52.238],[-75.187,51.711],[-76.824,51.438],[-77.992,51.311],[-79.387,51.018],[-80.419,50.739],[-81.41,50.599],[-82.54,50.53],[-84.727,51.111],[-86.209,51.272],[-87.74,51.415],[-88.726,51.216],[-89.346,50.751],[-89.631,50.237],[-89.475,49.525],[-88.781,48.963],[-87.599,48.52],[-86.199,48.063],[-85.195,47.7],[-84.386,47.491],[-83.298,47.156],[-82.809,47.03],[-81.889,46.682],[-80.814,46.361],[-79.921,45.733],[-78.317,44.687],[-77.801,44.24],[-77.145,43.612],[-76.655,43.169],[-76.55,42.896],[-76.531,42.642],[-76.581,42.295],[-76.841,41.938],[-77.074,41.678],[-77.524,41.244],[-77.958,40.686],[-78.23,40.376],[-78.478,40.122],[-78.844,39.706],[-79.297,39.452],[-79.477,39.378],[-79.787,39.353],[-80.078,39.384],[-80.394,39.471],[-81.408,40.007],[-82.18,40.305],[-82.664,40.388],[-83.575,40.305],[-84.803,40.332],[-85.593,40.425],[-86.337,40.491],[-87.881,40.797],[-88.495,40.937],[-90.867,41.69],[-93.543,42.832],[-94.505,43.39],[-95.147,44.213],[-95.635,45.218],[-97.119,47.366],[-97.565,47.943],[-98.188,48.249],[-99.053,48.528],[-100.141,48.714],[-101.044,48.733],[-101.49,48.882],[-101.834,49.077],[-102.113,49.347],[-102.383,49.811],[-102.52,50.494],[-102.396,50.934],[-102.005,51.417],[-101.36,51.702],[-100.601,51.691],[-100.257,51.44],[-99.838,51.049],[-99.383,50.491],[-99.15,50.277],[-98.76,50.007],[-98.223,49.904],[-97.814,49.929],[-97.411,50.028],[-97.293,50.134],[-97.163,50.326],[-97.163,50.735],[-97.217,51.168],[-97.424,51.678],[-97.806,52.125],[-99.664,54.057],[-100.147,54.327],[-100.91,54.677],[-101.325,54.826],[-101.666,54.919],[-101.908,55.012],[-102.007,55.154],[-102.048,55.261],[-102.047,55.338],[-101.998,55.417],[-101.659,55.79],[-101.318,55.963],[-100.996,56.187],[-100.469,56.503],[-100.146,56.763],[-99.576,57.321],[-99.272,57.551],[-99.024,57.836],[-98.937,57.985],[-98.82,58.167]]]}},{"type":"Feature","properties":{"density":1},"geometry":{"type":"Polygon","coordinates":[[[-79.239,35.113],[-78.969,35.245],[-78.746,35.332],[-78.547,35.457],[-77.935,35.773],[-77.803,35.804],[-77.678,35.782],[-77.648,35.762],[-77.634,35.62],[-77.661,35.528],[-77.711,35.453],[-77.931,35.336],[-78.833,35.046],[-79.192,35.016],[-79.251,35.044],[-79.242,35.108],[-79.239,35.113]]]}},{"type":"Feature","properties":{"density":1},"geometry":{"type":"Polygon","coordinates":[[[-82.675,29.001],[-83.041,29.052],[-83.499,29.05],[-83.645,29.029],[-83.7,28.986],[-83.717,28.933],[-83.686,28.903],[-83.59,28.886],[-83.011,28.86],[-82.76,28.874],[-82.656,28.897],[-82.627,28.933],[-82.641,28.983],[-82.675,29.001]]]}},{"type":"Feature","properties":{"density":1},"geometry":{"type":"Polygon","coordinates":[[[-107.299,26.782],[-106.828,26.65],[-106.648,26.553],[-106.536,26.428],[-106.517,26.342],[-106.536,26.25],[-106.58,26.186],[-106.643,26.142],[-106.749,26.116],[-106.87,26.114],[-107.283,26.147],[-107.476,26.22],[-107.563,26.332],[-107.729,26.623],[-107.98,26.895],[-107.997,26.93],[-107.991,27.005],[-107.949,27.025],[-107.857,27.023],[-107.532,26.873],[-107.354,26.809],[-107.299,26.782]]]}},{"type":"Feature","properties":{"density":1},"geometry":{"type":"Polygon","coordinates":[[[-107.173,25.757],[-107.157,25.823],[-107.086,25.916],[-107.001,25.91],[-106.952,25.876],[-106.938,25.848],[-106.929,25.788],[-106.958,25.76],[-107.067,25.744],[-107.171,25.755],[-107.173,25.757]]]}},{"type":"Feature","properties":{"density":1},"geometry":{"type":"Polygon","coordinates":[[[-106.639,24.814],[-106.415,24.926],[-106.163,24.999],[-106.091,24.994],[-106.064,24.971],[-106.05,24.922],[-106.072,24.855],[-106.115,24.818],[-106.275,24.737],[-106.395,24.656],[-106.589,24.577],[-106.736,24.566],[-106.773,24.585],[-106.791,24.617],[-106.786,24.675],[-106.758,24.726],[-106.659,24.812],[-106.639,24.814]]]}},{"type":"Feature","properties":{"density":1},"geometry":{"type":"Polygon","coordinates":[[[-112.017,40.35],[-111.956,40.68],[-111.92,40.778],[-111.842,40.944],[-111.724,41.096],[-111.555,41.27],[-111.408,41.295],[-111.298,41.283],[-111.219,41.249],[-111.181,41.187],[-111.188,41.108],[-111.307,40.873],[-111.498,40.674],[-111.745,40.478],[-111.926,40.309],[-111.991,40.296],[-112.022,40.335],[-112.017,40.35]]]}},{"type":"Feature","properties":{"density":1},"geometry":{"type":"Polygon","coordinates":[[[-98.091,25.676],[-97.915,26.266],[-97.152,27.632],[-96.845,27.985],[-96.51,28.255],[-95.943,28.646],[-95.022,29.176],[-94.697,29.25],[-94.148,29.464],[-93.832,29.52],[-93.497,29.557],[-93.078,29.538],[-92.204,29.38],[-91.679,29.332],[-91.109,29.134],[-90.489,28.83],[-89.999,28.507],[-89.571,28.061],[-89.124,27.922],[-88.659,27.754],[-88.232,27.447],[-87.339,27.001],[-86.832,26.683],[-86.382,26.273],[-85.889,26.05],[-84.56,25.045],[-83.908,24.571],[-83.178,24.235],[-82.789,23.999],[-82.616,23.697],[-82.393,23.39],[-82.411,23.111],[-82.672,22.823],[-83.276,22.553],[-83.825,22.119],[-84.755,21.573],[-85.595,21.028],[-86.041,20.21],[-85.903,19.274],[-85.49,18.53],[-85.118,18.065],[-84.235,16.745],[-84.002,16.252],[-83.956,15.703],[-84.198,15.35],[-84.746,14.978],[-86.495,14.271],[-86.969,14.206],[-87.378,14.252],[-87.946,14.485],[-88.466,14.643],[-88.941,14.727],[-89.955,14.801],[-90.531,14.968],[-91.459,15.189],[-91.902,15.424],[-92.735,15.982],[-93.377,16.261],[-94.102,16.549],[-94.642,16.67],[-95.014,16.735],[-95.442,17.014],[-95.832,17.331],[-97.255,19.126],[-97.869,20.0],[-98.371,20.679],[-98.846,21.488],[-99.096,22.344],[-98.929,23.841],[-98.715,24.687],[-98.511,25.05],[-98.213,25.515],[-98.091,25.676]]]}},{"type":"Feature","properties":{"density":1},"geometry":{"type":"Polygon","coordinates":[[[-106.698,24.352],[-107.064,24.519],[-107.708,24.724],[-108.111,24.724],[-108.471,24.594],[-108.744,24.284],[-109.107,23.103],[-109.2,22.452],[-109.209,20.452],[-108.995,18.899],[-108.735,18.183],[-108.539,17.532],[-107.898,15.737],[-107.619,15.467],[-107.293,15.523],[-106.958,15.811],[-106.679,16.388],[-106.437,17.141],[-106.27,17.801],[-105.253,19.925],[-105.042,20.272],[-104.67,20.545],[-104.41,20.799],[-104.056,21.401],[-103.97,21.686],[-103.995,22.194],[-104.15,22.585],[-104.441,22.882],[-104.856,23.248],[-105.328,23.614],[-105.786,23.93],[-106.041,24.098],[-106.541,24.29],[-106.698,24.352]]]}},{"type":"Feature","properties":{"density":1},"geometry":{"type":"Polygon","coordinates":[[[-70.789,40.207],[-69.911,40.988],[-69.394,41.323],[-68.795,41.588],[-67.525,41.783],[-66.716,42.104],[-66.06,42.397],[-65.391,42.885],[-65.028,43.374],[-64.47,43.876],[-63.926,44.336],[-62.893,44.936],[-61.736,45.243],[-61.08,45.02],[-60.647,44.727],[-59.35,43.681],[-58.89,43.29],[-58.29,42.969],[-57.509,42.565],[-56.964,42.383],[-56.49,42.202],[-55.179,41.769],[-54.795,41.355],[-54.704,40.932],[-54.9,40.598],[-55.43,40.305],[-56.086,40.179],[-56.978,39.956],[-58.429,39.221],[-58.806,38.83],[-59.643,37.547],[-60.187,36.766],[-60.619,36.291],[-62.252,34.931],[-62.984,34.366],[-63.717,33.738],[-64.616,33.132],[-65.746,32.692],[-67.107,32.378],[-68.257,32.295],[-70.58,32.085],[-71.857,32.089],[-72.936,31.922],[-75.508,31.438],[-78.4,31.712],[-79.777,32.623],[-80.139,33.851],[-79.572,35.181],[-78.381,36.232],[-76.958,36.715],[-76.084,37.036],[-75.079,37.317],[-72.457,38.907],[-71.275,39.729],[-70.947,40.057],[-70.789,40.207]]]}},{"type":"Feature","properties":{"density":2},"geometry":{"type":"Polygon","coordinates":[[[-97.117,53.296],[-96.082,52.699],[-95.485,52.166],[-94.924,51.424],[-94.356,50.522],[-94.152,49.852],[-94.17,49.127],[-94.077,48.569],[-94.077,48.215],[-93.994,47.936],[-93.817,47.629],[-93.25,47.267],[-92.626,46.988],[-92.087,46.978],[-91.51,47.164],[-90.906,47.546],[-90.311,47.834],[-89.615,47.928],[-89.05,47.928],[-88.705,47.551],[-88.705,47.206],[-88.925,46.988],[-89.604,46.737],[-89.976,46.55],[-90.413,46.253],[-90.745,46.108],[-91.185,45.816],[-91.641,45.648],[-92.459,45.518],[-93.138,45.434],[-93.622,45.425],[-94.291,45.351],[-94.821,45.481],[-95.391,45.825],[-95.742,46.197],[-96.238,46.955],[-96.844,47.839],[-97.274,48.619],[-97.611,49.35],[-98.281,51.229],[-98.351,52.121],[-98.185,52.605],[-98.028,52.982],[-97.871,53.233],[-97.62,53.39],[-97.212,53.327],[-97.117,53.296]]]}},{"type":"Feature","properties":{"density":2},"geometry":{"type":"Polygon","coordinates":[[[-90.469,55.683],[-90.207,55.641],[-89.718,55.376],[-89.356,55.125],[-89.077,54.86],[-88.56,54.665],[-88.253,54.581],[-87.668,54.623],[-87.11,54.818],[-86.51,55.055],[-85.254,55.613],[-84.766,55.739],[-84.11,55.739],[-83.733,55.767],[-83.008,55.627],[-82.52,55.502],[-82.171,55.209],[-82.032,54.986],[-82.004,54.721],[-82.032,54.637],[-82.115,54.483],[-82.673,54.26],[-83.064,54.358],[-83.454,54.483],[-84.054,54.553],[-84.431,54.567],[-85.547,54.414],[-85.854,54.302],[-86.259,54.19],[-86.968,53.904],[-87.926,53.736],[-88.289,53.736],[-88.652,53.783],[-89.777,54.08],[-90.298,54.285],[-90.754,54.573],[-91.03,54.804],[-91.211,55.055],[-91.253,55.167],[-91.239,55.307],[-91.113,55.516],[-90.89,55.671],[-90.667,55.689],[-90.469,55.683]]]}},{"type":"Feature","properties":{"density":2},"geometry":{"type":"Polygon","coordinates":[[[-100.372,55.363],[-100.419,55.541],[-100.409,55.596],[-100.394,55.606],[-100.35,55.574],[-100.342,55.538],[-100.339,55.414],[-100.355,55.352],[-100.372,55.363]]]}},{"type":"Feature","properties":{"density":2},"geometry":{"type":"Polygon","coordinates":[[[-107.107,25.781],[-107.091,25.814],[-107.098,25.882],[-107.131,25.884],[-107.149,25.818],[-107.195,25.814],[-107.214,25.783],[-107.197,25.754],[-107.159,25.747],[-107.111,25.767],[-107.107,25.781]]]}},{"type":"Feature","properties":{"density":2},"geometry":{"type":"Polygon","coordinates":[[[-107.226,26.195],[-107.212,26.311],[-107.157,26.312],[-107.155,26.246],[-107.203,26.18],[-107.226,26.195]]]}},{"type":"Feature","properties":{"density":2},"geometry":{"type":"Polygon","coordinates":[[[-106.881,26.283],[-106.933,26.287],[-106.956,26.239],[-106.903,26.23],[-106.872,26.257],[-106.881,26.283]]]}},{"type":"Feature","properties":{"density":2},"geometry":{"type":"Polygon","coordinates":[[[-106.822,26.259],[-106.852,26.29],[-106.905,26.542],[-106.881,26.615],[-106.83,26.603],[-106.815,26.571],[-106.789,26.415],[-106.787,26.296],[-106.8,26.266],[-106.822,26.259]]]}},{"type":"Feature","properties":{"density":2},"geometry":{"type":"Polygon","coordinates":[[[-105.108,22.56],[-105.083,22.543],[-105.057,22.47],[-105.057,22.433],[-105.077,22.42],[-105.112,22.429],[-105.132,22.53],[-105.121,22.554],[-105.108,22.56]]]}},{"type":"Feature","properties":{"density":2},"geometry":{"type":"Polygon","coordinates":[[[-107.238,26.205],[-107.178,26.284],[-107.126,26.303],[-107.138,26.247],[-107.172,26.204],[-107.215,26.182],[-107.238,26.204],[-107.238,26.205]]]}},{"type":"Feature","properties":{"density":2},"geometry":{"type":"Polygon","coordinates":[[[-107.149,25.82],[-107.212,25.808],[-107.212,25.739],[-107.184,25.734],[-107.105,25.769],[-107.081,25.801],[-107.11,25.824],[-107.147,25.82],[-107.149,25.82]]]}},{"type":"Feature","properties":{"density":2},"geometry":{"type":"Polygon","coordinates":[[[-100.368,55.41],[-100.319,55.487],[-100.254,55.533],[-100.184,55.548],[-100.112,55.543],[-100.124,55.513],[-100.27,55.434],[-100.358,55.365],[-100.383,55.379],[-100.371,55.404],[-100.368,55.41]]]}},{"type":"Feature","properties":{"density":2},"geometry":{"type":"Polygon","coordinates":[[[-105.108,22.559],[-105.076,22.538],[-105.068,22.499],[-105.08,22.483],[-105.123,22.516],[-105.113,22.557],[-105.108,22.559]]]}},{"type":"Feature","properties":{"density":2},"geometry":{"type":"Polygon","coordinates":[[[-96.442,47.674],[-96.493,47.771],[-96.474,47.817],[-96.436,47.838],[-96.418,47.809],[-96.411,47.683],[-96.417,47.67],[-96.44,47.673],[-96.442,47.674]]]}},{"type":"Feature","properties":{"density":2},"geometry":{"type":"Polygon","coordinates":[[[-100.387,55.376],[-100.377,55.462],[-100.305,55.564],[-100.063,55.774],[-99.883,55.905],[-99.782,55.954],[-99.455,56.176],[-98.96,56.386],[-98.673,56.439],[-98.329,56.442],[-98.122,56.398],[-98.008,56.299],[-97.979,56.218],[-98.004,56.129],[-98.056,56.056],[-98.364,55.822],[-98.852,55.713],[-99.197,55.662],[-99.57,55.511],[-99.676,55.482],[-100.118,55.396],[-100.253,55.385],[-100.35,55.343],[-100.375,55.349],[-100.387,55.372],[-100.387,55.376]]]}},{"type":"Feature","properties":{"density":2},"geometry":{"type":"Polygon","coordinates":[[[-101.92,55.295],[-101.882,55.353],[-101.824,55.386],[-101.472,55.523],[-101.132,55.683],[-100.842,55.776],[-100.798,55.772],[-100.784,55.74],[-100.809,55.695],[-100.924,55.619],[-101.007,55.574],[-101.208,55.505],[-101.319,55.423],[-101.535,55.366],[-101.716,55.285],[-101.856,55.265],[-101.921,55.29],[-101.92,55.295]]]}},{"type":"Feature","properties":{"density":2},"geometry":{"type":"Polygon","coordinates":[[[-107.237,26.202],[-107.223,26.303],[-107.18,26.324],[-107.147,26.277],[-107.15,26.22],[-107.182,26.187],[-107.234,26.197],[-107.237,26.202]]]}},{"type":"Feature","properties":{"density":2},"geometry":{"type":"Polygon","coordinates":[[[-101.924,55.292],[-101.9,55.331],[-101.79,55.4],[-101.184,55.604],[-100.797,55.8],[-100.58,55.879],[-100.192,56.074],[-99.87,56.172],[-99.382,56.274],[-99.378,56.313],[-99.408,56.334],[-99.674,56.303],[-99.732,56.309],[-99.746,56.332],[-99.739,56.384],[-99.676,56.487],[-99.495,56.597],[-99.154,56.767],[-98.665,57.113],[-98.355,57.269],[-98.12,57.458],[-97.965,57.539],[-97.254,57.992],[-97.124,58.047],[-96.761,58.079],[-96.555,58.132],[-96.398,58.124],[-96.252,58.063],[-96.095,57.964],[-95.941,57.901],[-95.766,57.844],[-95.461,57.791],[-94.713,57.795],[-94.196,57.752],[-93.862,57.642],[-93.704,57.455],[-93.752,57.207],[-93.944,57.014],[-94.374,56.782],[-94.85,56.567],[-95.482,56.344],[-96.553,56.038],[-96.941,55.964],[-97.756,55.767],[-98.065,55.72],[-99.063,55.481],[-99.512,55.408],[-100.648,55.291],[-101.861,55.244],[-101.919,55.255],[-101.926,55.289],[-101.924,55.292]]]}},{"type":"Feature","properties":{"density":2},"geometry":{"type":"Polygon","coordinates":[[[-79.219,35.1],[-78.905,35.185],[-78.857,35.175],[-78.839,35.138],[-78.857,35.08],[-78.898,35.062],[-79.207,35.03],[-79.242,35.043],[-79.228,35.094],[-79.219,35.1]]]}},{"type":"Feature","properties":{"density":2},"geometry":{"type":"Polygon","coordinates":[[[-107.235,26.192],[-107.249,26.236],[-107.233,26.283],[-107.152,26.329],[-107.087,26.333],[-107.07,26.291],[-107.101,26.238],[-107.208,26.18],[-107.233,26.187],[-107.235,26.192]]]}},{"type":"Feature","properties":{"density":2},"geometry":{"type":"Polygon","coordinates":[[[-106.579,24.797],[-106.403,24.86],[-106.357,24.854],[-106.371,24.785],[-106.44,24.752],[-106.587,24.762],[-106.599,24.776],[-106.584,24.796],[-106.579,24.797]]]}},{"type":"Feature","properties":{"density":3},"geometry":{"type":"Polygon","coordinates":[[[-100.372,55.403],[-100.321,55.46],[-100.207,55.527],[-99.784,55.676],[-99.209,55.97],[-98.673,56.189],[-98.421,56.33],[-98.285,56.332],[-98.245,56.32],[-98.219,56.27],[-98.277,56.134],[-98.371,56.007],[-98.503,55.867],[-99.01,55.744],[-99.247,55.667],[-99.612,55.518],[-99.791,55.484],[-99.967,55.43],[-100.257,55.399],[-100.354,55.351],[-100.376,55.361],[-100.375,55.401],[-100.372,55.403]]]}},{"type":"Feature","properties":{"density":3},"geometry":{"type":"Polygon","coordinates":[[[-100.358,55.415],[-100.328,55.461],[-100.277,55.495],[-99.636,55.723],[-99.042,56.015],[-98.796,56.094],[-98.684,56.146],[-98.263,56.379],[-97.806,56.557],[-97.111,56.767],[-96.723,56.923],[-94.55,57.608],[-94.251,57.643],[-94.104,57.612],[-94.049,57.515],[-94.089,57.354],[-94.28,57.203],[-95.071,56.966],[-95.481,56.825],[-95.889,56.726],[-96.633,56.486],[-97.008,56.321],[-97.714,55.966],[-98.093,55.862],[-98.296,55.756],[-98.553,55.657],[-99.23,55.479],[-99.933,55.41],[-100.071,55.421],[-100.357,55.356],[-100.378,55.37],[-100.36,55.413],[-100.358,55.415]]]}},{"type":"Feature","properties":{"density":3},"geometry":{"type":"Polygon","coordinates":[[[-99.715,56.368],[-99.678,56.423],[-99.582,56.502],[-99.146,56.755],[-98.839,56.87],[-98.642,56.911],[-98.321,57.025],[-98.037,57.093],[-97.728,57.236],[-97.505,57.419],[-97.411,57.476],[-97.003,57.526],[-96.871,57.526],[-96.791,57.501],[-96.75,57.443],[-96.753,57.372],[-96.86,57.157],[-96.852,57.11],[-96.808,57.09],[-96.444,57.118],[-96.31,57.161],[-96.229,57.162],[-96.184,57.136],[-96.179,57.098],[-96.204,57.045],[-96.264,57.001],[-96.366,56.96],[-96.656,56.891],[-96.876,56.847],[-97.554,56.789],[-98.057,56.678],[-98.351,56.656],[-98.868,56.524],[-99.069,56.416],[-99.511,56.375],[-99.685,56.32],[-99.72,56.334],[-99.718,56.359],[-99.715,56.368]]]}},{"type":"Feature","properties":{"density":3},"geometry":{"type":"Polygon","coordinates":[[[-101.918,55.286],[-101.772,55.366],[-101.648,55.378],[-101.39,55.445],[-101.107,55.465],[-100.889,55.505],[-100.72,55.517],[-100.657,55.507],[-100.649,55.491],[-100.663,55.452],[-100.82,55.389],[-100.954,55.358],[-101.154,55.331],[-101.762,55.298],[-101.91,55.267],[-101.919,55.284],[-101.918,55.286]]]}}]}