{"type":"FeatureCollection","features":[{"type":"Feature","properties":{"density":1},"geometry":{"type":"Polygon","coordinates":[[[-124.185,69.205],[-122.051,69.802],[-119.194,70.273],[-116.024,70.461],[-112.587,70.767],[-108.915,71.002],[-104.677,70.814],[-101.24,70.484],[-98.038,69.684],[-95.119,68.789],[-93.612,68.365],[-91.776,67.753],[-89.705,67.165],[-87.915,66.506],[-86.409,65.423],[-85.938,64.01],[-86.079,62.692],[-86.832,62.033],[-87.727,61.656],[-89.234,61.279],[-90.976,60.903],[-93.0,60.62],[-95.59,60.102],[-96.995,59.663],[-97.991,59.019],[-99.113,58.109],[-100.243,56.979],[-100.432,55.614],[-99.949,54.09],[-98.69,52.271],[-96.618,50.811],[-94.204,50.276],[-90.579,50.511],[-88.99,50.906],[-86.812,51.406],[-85.271,51.518],[-83.717,51.329],[-82.775,51.0],[-82.01,50.511],[-81.122,49.415],[-81.363,47.892],[-82.446,46.668],[-84.8,45.726],[-87.719,44.644],[-91.627,43.561],[-95.158,42.336],[-96.618,42.054],[-98.125,42.054],[-100.432,42.666],[-108.439,46.385],[-110.225,46.668],[-112.297,46.856],[-114.047,46.66],[-116.212,45.718],[-118.755,44.541],[-123.04,41.905],[-125.3,41.245],[-127.371,41.434],[-128.784,42.187],[-129.725,43.552],[-129.957,45.083],[-129.396,46.66],[-127.748,48.685],[-126.43,50.191],[-125.245,52.083],[-124.805,54.264],[-124.452,56.171],[-124.687,58.101],[-126.006,60.597],[-127.065,62.88],[-127.042,65.117],[-126.759,66.953],[-125.912,68.177],[-125.347,68.695],[-124.185,69.205]]]}},{"type":"Feature","properties":{"density":1},"geometry":{"type":"Polygon","coordinates":[[[-105.181,41.89],[-105.121,41.941],[-105.04,42.066],[-105.046,42.146],[-105.079,42.251],[-105.117,42.303],[-105.214,42.381],[-105.335,42.405],[-105.47,42.389],[-105.599,42.334],[-105.694,42.264],[-105.762,42.179],[-105.792,42.018],[-105.773,41.93],[-105.729,41.869],[-105.621,41.807],[-105.539,41.785],[-105.434,41.791],[-105.318,41.816],[-105.181,41.89]]]}},{"type":"Feature","properties":{"density":1},"geometry":{"type":"Polygon","coordinates":[[[-86.871,15.588],[-87.607,15.576],[-87.809,15.535],[-87.917,15.448],[-87.95,15.377],[-87.909,15.311],[-87.607,15.299],[-86.904,15.468],[-86.834,15.535],[-86.871,15.588]]]}},{"type":"Feature","properties":{"density":1},"geometry":{"type":"Polygon","coordinates":[[[-86.979,14.786],[-87.276,14.791],[-87.375,14.766],[-87.52,14.712],[-87.574,14.638],[-87.578,14.571],[-87.541,14.53],[-87.454,14.501],[-87.028,14.633],[-86.933,14.695],[-86.917,14.724],[-86.912,14.753],[-86.979,14.786]]]}},{"type":"Feature","properties":{"density":1},"geometry":{"type":"Polygon","coordinates":[[[-85.912,15.338],[-86.221,15.372],[-86.32,15.347],[-86.326,15.319],[-86.309,15.3],[-86.216,15.29],[-86.002,15.292],[-85.895,15.307],[-85.895,15.331],[-85.912,15.338]]]}},{"type":"Feature","properties":{"density":1},"geometry":{"type":"Polygon","coordinates":[[[-88.321,31.398],[-88.42,31.364],[-88.528,31.288],[-88.55,31.252],[-88.507,31.249],[-88.366,31.31],[-88.289,31.361],[-88.286,31.391],[-88.321,31.398]]]}},{"type":"Feature","properties":{"density":1},"geometry":{"type":"Polygon","coordinates":[[[-91.143,33.764],[-91.229,33.646],[-91.222,33.618],[-91.202,33.618],[-91.161,33.665],[-91.106,33.746],[-91.093,33.792],[-91.143,33.764]]]}},{"type":"Feature","properties":{"density":1},"geometry":{"type":"Polygon","coordinates":[[[-88.495,34.573],[-88.571,34.543],[-88.59,34.494],[-88.574,34.47],[-88.547,34.47],[-88.453,34.535],[-88.453,34.566],[-88.495,34.573]]]}},{"type":"Feature","properties":{"density":1},"geometry":{"type":"Polygon","coordinates":[[[-82.634,33.773],[-82.758,33.747],[-82.807,33.691],[-82.804,33.653],[-82.64,33.641],[-82.571,33.648],[-82.533,33.67],[-82.532,33.716],[-82.634,33.773]]]}},{"type":"Feature","properties":{"density":1},"geometry":{"type":"Polygon","coordinates":[[[-82.173,33.061],[-82.31,33.056],[-82.324,33.031],[-82.298,32.996],[-82.262,32.986],[-82.12,33.008],[-82.122,33.029],[-82.173,33.061]]]}},{"type":"Feature","properties":{"density":1},"geometry":{"type":"Polygon","coordinates":[[[-80.21,34.781],[-80.25,34.777],[-80.283,34.749],[-80.306,34.669],[-80.3,34.625],[-80.273,34.584],[-80.217,34.56],[-80.169,34.583],[-80.128,34.696],[-80.14,34.745],[-80.21,34.781]]]}},{"type":"Feature","properties":{"density":1},"geometry":{"type":"Polygon","coordinates":[[[-89.441,36.901],[-89.453,36.873],[-89.442,36.855],[-89.404,36.848],[-89.22,36.979],[-89.22,37.011],[-89.24,37.027],[-89.289,37.022],[-89.441,36.901]]]}},{"type":"Feature","properties":{"density":1},"geometry":{"type":"Polygon","coordinates":[[[-89.332,36.849],[-89.34,36.815],[-89.312,36.789],[-89.28,36.802],[-89.19,36.893],[-89.124,36.897],[-88.964,36.869],[-88.891,36.882],[-88.71,36.962],[-88.692,36.991],[-88.724,37.027],[-88.894,37.111],[-88.94,37.124],[-89.028,37.119],[-89.127,37.08],[-89.332,36.849]]]}},{"type":"Feature","properties":{"density":1},"geometry":{"type":"Polygon","coordinates":[[[-89.745,36.762],[-89.751,36.729],[-89.707,36.715],[-89.543,36.818],[-89.446,36.807],[-89.335,36.827],[-89.305,36.849],[-89.296,36.888],[-89.384,36.981],[-89.435,37.001],[-89.592,36.918],[-89.745,36.762]]]}},{"type":"Feature","properties":{"density":1},"geometry":{"type":"Polygon","coordinates":[[[-90.339,36.535],[-90.365,36.507],[-90.366,36.479],[-90.316,36.456],[-90.23,36.496],[-90.068,36.513],[-90.032,36.536],[-90.027,36.563],[-90.1,36.62],[-90.339,36.535]]]}},{"type":"Feature","properties":{"density":1},"geometry":{"type":"Polygon","coordinates":[[[-90.06,36.686],[-90.098,36.669],[-90.121,36.585],[-90.082,36.589],[-89.989,36.678],[-90.006,36.696],[-90.06,36.686]]]}},{"type":"Feature","properties":{"density":1},"geometry":{"type":"Polygon","coordinates":[[[-91.782,34.986],[-91.87,34.925],[-91.938,34.828],[-91.916,34.82],[-91.886,34.835],[-91.732,34.984],[-91.782,34.986]]]}},{"type":"Feature","properties":{"density":1},"geometry":{"type":"Polygon","coordinates":[[[-91.893,33.477],[-91.934,33.456],[-91.957,33.417],[-91.967,33.318],[-91.993,33.241],[-91.978,33.176],[-91.931,33.213],[-91.889,33.362],[-91.83,33.445],[-91.837,33.476],[-91.893,33.477]]]}},{"type":"Feature","properties":{"density":1},"geometry":{"type":"Polygon","coordinates":[[[-90.666,35.299],[-90.675,35.269],[-90.663,35.253],[-90.62,35.255],[-90.441,35.408],[-90.408,35.472],[-90.418,35.534],[-90.447,35.556],[-90.5,35.555],[-90.597,35.473],[-90.631,35.429],[-90.666,35.299]]]}},{"type":"Feature","properties":{"density":1},"geometry":{"type":"Polygon","coordinates":[[[-91.541,34.42],[-91.542,34.375],[-91.5,34.382],[-91.326,34.554],[-91.315,34.593],[-91.326,34.611],[-91.354,34.626],[-91.408,34.594],[-91.528,34.474],[-91.541,34.42]]]}},{"type":"Feature","properties":{"density":1},"geometry":{"type":"Polygon","coordinates":[[[-91.999,34.574],[-92.056,34.497],[-92.06,34.463],[-92.047,34.448],[-92.01,34.475],[-91.918,34.603],[-91.945,34.614],[-91.999,34.574]]]}},{"type":"Feature","properties":{"density":1},"geometry":{"type":"Polygon","coordinates":[[[-105.094,42.353],[-105.28,42.215],[-105.351,42.134],[-105.433,42.078],[-105.453,42.014],[-105.371,41.894],[-105.279,41.877],[-105.121,41.97],[-105.031,42.11],[-104.853,42.241],[-104.843,42.302],[-104.855,42.337],[-104.903,42.375],[-105.094,42.353]]]}},{"type":"Feature","properties":{"density":1},"geometry":{"type":"Polygon","coordinates":[[[-91.287,20.07],[-91.314,20.076],[-91.339,20.045],[-91.311,19.999],[-91.23,19.951],[-91.072,19.907],[-90.75,19.861],[-90.455,19.861],[-90.433,19.887],[-90.462,19.931],[-90.587,19.975],[-91.144,20.038],[-91.287,20.07]]]}},{"type":"Feature","properties":{"density":1},"geometry":{"type":"Polygon","coordinates":[[[-86.913,15.578],[-86.939,15.568],[-86.904,15.54],[-86.876,15.54],[-86.913,15.578]]]}},{"type":"Feature","properties":{"density":1},"geometry":{"type":"Polygon","coordinates":[[[-86.991,14.765],[-87.071,14.752],[-87.21,14.655],[-87.217,14.62],[-87.155,14.605],[-86.984,14.685],[-86.962,14.718],[-86.991,14.765]]]}},{"type":"Feature","properties":{"density":1},"geometry":{"type":"Polygon","coordinates":[[[-88.313,31.404],[-88.478,31.35],[-88.698,31.196],[-88.715,31.156],[-88.68,31.142],[-88.624,31.155],[-88.337,31.313],[-88.287,31.365],[-88.29,31.392],[-88.313,31.404]]]}},{"type":"Feature","properties":{"density":1},"geometry":{"type":"Polygon","coordinates":[[[-86.749,32.104],[-86.848,32.09],[-87.056,31.981],[-87.242,31.908],[-87.281,31.876],[-87.285,31.833],[-87.251,31.798],[-87.219,31.789],[-87.131,31.807],[-86.881,31.987],[-86.714,32.058],[-86.716,32.092],[-86.749,32.104]]]}},{"type":"Feature","properties":{"density":1},"geometry":{"type":"Polygon","coordinates":[[[-86.716,32.875],[-86.809,32.884],[-86.991,32.837],[-87.139,32.832],[-87.26,32.789],[-87.337,32.736],[-87.349,32.707],[-87.299,32.662],[-87.212,32.639],[-86.985,32.689],[-86.698,32.802],[-86.691,32.846],[-86.716,32.875]]]}},{"type":"Feature","properties":{"density":1},"geometry":{"type":"Polygon","coordinates":[[[-86.639,33.08],[-86.903,33.064],[-86.998,33.01],[-87.014,32.98],[-86.967,32.946],[-86.855,32.953],[-86.735,33.001],[-86.627,33.021],[-86.606,33.05],[-86.639,33.08]]]}},{"type":"Feature","properties":{"density":1},"geometry":{"type":"Polygon","coordinates":[[[-90.316,34.049],[-90.371,34.011],[-90.403,33.913],[-90.501,33.828],[-90.502,33.788],[-90.471,33.718],[-90.407,33.654],[-90.351,33.675],[-90.331,33.734],[-90.33,33.824],[-90.237,33.932],[-90.25,34.007],[-90.316,34.049]]]}},{"type":"Feature","properties":{"density":1},"geometry":{"type":"Polygon","coordinates":[[[-88.226,34.779],[-88.299,34.726],[-88.371,34.631],[-88.463,34.585],[-88.485,34.541],[-88.485,34.519],[-88.376,34.462],[-88.34,34.418],[-88.31,34.412],[-88.248,34.449],[-88.169,34.664],[-88.158,34.768],[-88.169,34.781],[-88.226,34.779]]]}},{"type":"Feature","properties":{"density":1},"geometry":{"type":"Polygon","coordinates":[[[-82.564,33.708],[-82.652,33.733],[-82.798,33.742],[-82.841,33.734],[-82.857,33.704],[-82.821,33.68],[-82.717,33.681],[-82.596,33.658],[-82.541,33.67],[-82.538,33.696],[-82.564,33.708]]]}},{"type":"Feature","properties":{"density":1},"geometry":{"type":"Polygon","coordinates":[[[-82.16,33.051],[-82.281,33.054],[-82.406,33.02],[-82.479,33.02],[-82.553,32.999],[-82.562,32.98],[-82.494,32.953],[-82.358,32.945],[-82.13,33.015],[-82.131,33.042],[-82.16,33.051]]]}},{"type":"Feature","properties":{"density":1},"geometry":{"type":"Polygon","coordinates":[[[-80.229,34.768],[-80.397,34.703],[-80.405,34.654],[-80.349,34.578],[-80.26,34.563],[-80.176,34.524],[-80.027,34.557],[-79.917,34.521],[-79.849,34.519],[-79.804,34.555],[-79.822,34.615],[-79.865,34.642],[-80.0,34.703],[-80.229,34.768]]]}},{"type":"Feature","properties":{"density":1},"geometry":{"type":"Polygon","coordinates":[[[-79.992,35.165],[-80.028,35.163],[-80.053,35.141],[-80.068,35.026],[-80.035,34.999],[-79.942,34.994],[-79.919,35.018],[-79.907,35.089],[-79.992,35.165]]]}},{"type":"Feature","properties":{"density":1},"geometry":{"type":"Polygon","coordinates":[[[-79.736,35.468],[-79.771,35.436],[-79.763,35.408],[-79.703,35.387],[-79.607,35.301],[-79.493,35.274],[-79.439,35.29],[-79.415,35.32],[-79.422,35.375],[-79.496,35.441],[-79.508,35.523],[-79.536,35.565],[-79.65,35.538],[-79.736,35.468]]]}},{"type":"Feature","properties":{"density":1},"geometry":{"type":"Polygon","coordinates":[[[-79.495,35.607],[-79.508,35.576],[-79.496,35.564],[-79.465,35.61],[-79.495,35.607]]]}},{"type":"Feature","properties":{"density":1},"geometry":{"type":"Polygon","coordinates":[[[-89.351,36.863],[-89.353,36.812],[-89.283,36.801],[-88.838,36.988],[-88.666,37.003],[-88.385,36.996],[-88.188,37.036],[-88.144,37.051],[-88.081,37.102],[-88.045,37.202],[-88.048,37.257],[-88.081,37.299],[-88.159,37.343],[-88.317,37.325],[-88.467,37.247],[-88.64,37.225],[-89.129,37.023],[-89.351,36.863]]]}},{"type":"Feature","properties":{"density":1},"geometry":{"type":"Polygon","coordinates":[[[-89.444,36.914],[-89.459,36.848],[-89.409,36.838],[-89.339,36.873],[-89.15,37.028],[-88.985,37.101],[-88.917,37.204],[-88.911,37.244],[-88.95,37.333],[-88.988,37.353],[-89.038,37.355],[-89.123,37.318],[-89.444,36.914]]]}},{"type":"Feature","properties":{"density":1},"geometry":{"type":"Polygon","coordinates":[[[-90.353,36.524],[-90.359,36.478],[-90.308,36.46],[-90.278,36.466],[-90.212,36.5],[-90.032,36.644],[-89.821,36.677],[-89.745,36.71],[-89.694,36.75],[-89.674,36.805],[-89.677,36.949],[-89.712,36.998],[-89.736,37.004],[-89.813,36.978],[-89.982,36.794],[-90.353,36.524]]]}},{"type":"Feature","properties":{"density":1},"geometry":{"type":"Polygon","coordinates":[[[-89.256,36.649],[-89.333,36.64],[-89.471,36.55],[-89.631,36.475],[-89.785,36.425],[-89.912,36.28],[-90.037,36.17],[-90.041,36.117],[-90.015,36.074],[-89.978,36.041],[-89.938,36.032],[-89.8,36.072],[-89.756,36.118],[-89.675,36.321],[-89.629,36.361],[-89.442,36.456],[-89.168,36.561],[-89.155,36.589],[-89.168,36.611],[-89.256,36.649]]]}},{"type":"Feature","properties":{"density":1},"geometry":{"type":"Polygon","coordinates":[[[-90.432,36.032],[-90.478,35.971],[-90.465,35.949],[-90.43,35.942],[-90.355,35.968],[-90.204,36.06],[-90.118,36.069],[-90.094,36.115],[-90.138,36.151],[-90.232,36.148],[-90.432,36.032]]]}},{"type":"Feature","properties":{"density":1},"geometry":{"type":"Polygon","coordinates":[[[-91.836,34.845],[-91.893,34.834],[-91.944,34.713],[-92.069,34.604],[-92.1,34.533],[-92.084,34.474],[-92.049,34.468],[-91.961,34.54],[-91.915,34.54],[-91.86,34.579],[-91.797,34.658],[-91.773,34.748],[-91.795,34.805],[-91.836,34.845]]]}},{"type":"Feature","properties":{"density":1},"geometry":{"type":"Polygon","coordinates":[[[-91.452,34.428],[-91.498,34.428],[-91.518,34.386],[-91.498,34.294],[-91.545,34.16],[-91.509,34.129],[-91.466,34.138],[-91.444,34.16],[-91.402,34.277],[-91.411,34.353],[-91.452,34.428]]]}},{"type":"Feature","properties":{"density":1},"geometry":{"type":"Polygon","coordinates":[[[-91.47,33.656],[-91.541,33.651],[-91.565,33.592],[-91.563,33.401],[-91.534,33.34],[-91.497,33.316],[-91.442,33.34],[-91.429,33.386],[-91.466,33.529],[-91.444,33.614],[-91.47,33.656]]]}},{"type":"Feature","properties":{"density":1},"geometry":{"type":"Polygon","coordinates":[[[-91.264,33.838],[-91.328,33.829],[-91.4,33.781],[-91.486,33.583],[-91.473,33.487],[-91.416,33.408],[-91.379,33.32],[-91.35,33.329],[-91.282,33.443],[-91.238,33.686],[-91.203,33.761],[-91.209,33.805],[-91.264,33.838]]]}},{"type":"Feature","properties":{"density":1},"geometry":{"type":"Polygon","coordinates":[[[-95.75,31.536],[-95.78,31.55],[-95.835,31.536],[-95.854,31.5],[-95.852,31.462],[-95.816,31.387],[-95.59,31.084],[-95.38,30.944],[-95.267,30.935],[-95.248,30.946],[-95.251,31.01],[-95.419,31.164],[-95.573,31.382],[-95.656,31.47],[-95.75,31.536]]]}},{"type":"Feature","properties":{"density":1},"geometry":{"type":"Polygon","coordinates":[[[-107.683,45.722],[-107.74,45.695],[-107.758,45.65],[-107.679,45.604],[-107.183,45.593],[-106.88,45.531],[-106.711,45.529],[-106.518,45.582],[-106.331,45.696],[-106.083,45.775],[-106.072,45.807],[-106.12,45.88],[-106.182,45.913],[-106.375,45.928],[-106.619,45.887],[-106.823,45.819],[-107.011,45.777],[-107.301,45.74],[-107.683,45.722]]]}},{"type":"Feature","properties":{"density":1},"geometry":{"type":"Polygon","coordinates":[[[-105.284,42.225],[-105.322,42.197],[-105.318,42.098],[-105.353,41.981],[-105.337,41.953],[-105.263,41.936],[-105.236,41.953],[-105.221,41.988],[-105.205,42.203],[-105.239,42.232],[-105.284,42.225]]]}},{"type":"Feature","properties":{"density":1},"geometry":{"type":"Polygon","coordinates":[[[-122.193,38.532],[-122.234,38.53],[-122.245,38.514],[-122.208,38.408],[-122.18,38.381],[-122.106,38.382],[-122.08,38.417],[-122.083,38.459],[-122.131,38.509],[-122.193,38.532]]]}},{"type":"Feature","properties":{"density":1},"geometry":{"type":"Polygon","coordinates":[[[-91.755,17.405],[-91.71,17.384],[-91.69,17.424],[-91.891,17.612],[-91.958,17.654],[-91.993,17.651],[-92.006,17.622],[-91.984,17.576],[-91.849,17.453],[-91.755,17.405]]]}},{"type":"Feature","properties":{"density":1},"geometry":{"type":"Polygon","coordinates":[[[-91.652,17.684],[-91.676,17.66],[-91.663,17.607],[-91.544,17.462],[-91.461,17.289],[-91.436,17.265],[-91.379,17.26],[-91.355,17.309],[-91.384,17.385],[-91.518,17.53],[-91.601,17.668],[-91.652,17.684]]]}},{"type":"Feature","properties":{"density":1},"geometry":{"type":"Polygon","coordinates":[[[-91.559,17.697],[-91.599,17.675],[-91.586,17.629],[-91.507,17.53],[-91.426,17.324],[-91.353,17.252],[-91.331,17.252],[-91.296,17.32],[-91.301,17.412],[-91.276,17.462],[-91.29,17.519],[-91.384,17.638],[-91.559,17.697]]]}},{"type":"Feature","properties":{"density":1},"geometry":{"type":"Polygon","coordinates":[[[-91.037,17.394],[-91.064,17.409],[-91.086,17.392],[-91.074,17.203],[-91.046,17.181],[-91.017,17.24],[-91.037,17.394]]]}},{"type":"Feature","properties":{"density":1},"geometry":{"type":"Polygon","coordinates":[[[-92.39,18.106],[-92.436,18.108],[-92.452,18.045],[-92.384,17.981],[-92.256,17.641],[-92.011,17.364],[-91.98,17.354],[-91.958,17.455],[-91.989,17.547],[-92.16,17.832],[-92.331,18.058],[-92.39,18.106]]]}},{"type":"Feature","properties":{"density":1},"geometry":{"type":"Polygon","coordinates":[[[-91.357,20.216],[-91.405,20.21],[-91.416,20.17],[-91.398,20.124],[-91.282,19.988],[-91.187,19.929],[-91.03,19.891],[-90.514,19.854],[-90.452,19.854],[-90.404,19.876],[-90.419,19.935],[-90.479,19.966],[-90.854,19.995],[-91.111,20.082],[-91.357,20.216]]]}},{"type":"Feature","properties":{"density":1},"geometry":{"type":"Polygon","coordinates":[[[-71.69,18.166],[-71.776,18.156],[-71.871,18.075],[-71.987,18.022],[-72.004,17.999],[-71.997,17.963],[-71.949,17.933],[-71.862,17.934],[-71.735,17.999],[-71.628,18.031],[-71.605,18.066],[-71.608,18.099],[-71.663,18.159],[-71.69,18.166]]]}},{"type":"Feature","properties":{"density":1},"geometry":{"type":"Polygon","coordinates":[[[-76.803,18.221],[-76.844,18.193],[-76.824,18.089],[-76.853,17.921],[-76.817,17.854],[-76.78,17.85],[-76.717,17.891],[-76.68,17.946],[-76.603,17.993],[-76.591,18.052],[-76.633,18.13],[-76.708,18.184],[-76.803,18.221]]]}},{"type":"Feature","properties":{"density":1},"geometry":{"type":"Polygon","coordinates":[[[-77.465,17.893],[-77.518,17.884],[-77.624,17.798],[-77.756,17.741],[-77.784,17.72],[-77.804,17.67],[-77.773,17.638],[-77.709,17.643],[-77.47,17.787],[-77.424,17.823],[-77.415,17.859],[-77.465,17.893]]]}},{"type":"Feature","properties":{"density":1},"geometry":{"type":"Polygon","coordinates":[[[-88.854,31.354],[-88.94,31.274],[-89.029,31.11],[-89.043,31.063],[-89.007,31.031],[-88.893,31.054],[-88.604,31.224],[-88.351,31.325],[-88.315,31.374],[-88.331,31.391],[-88.415,31.402],[-88.699,31.391],[-88.854,31.354]]]}},{"type":"Feature","properties":{"density":1},"geometry":{"type":"Polygon","coordinates":[[[-73.417,67.78],[-70.768,69.369],[-65.683,70.428],[-62.399,70.746],[-59.968,70.924],[-55.195,70.534],[-52.058,69.935],[-49.939,69.017],[-47.962,68.028],[-45.137,67.039],[-41.817,67.322],[-38.357,67.816],[-34.855,68.945],[-31.294,69.511],[-29.453,69.581],[-27.122,68.733],[-25.851,67.25],[-25.957,65.767],[-26.35,63.72],[-28.393,61.529],[-29.665,60.682],[-32.949,59.517],[-36.021,58.881],[-40.046,57.61],[-44.39,56.127],[-50.01,53.621],[-51.429,52.96],[-53.289,51.571],[-53.712,50.406],[-53.712,49.241],[-52.017,47.969],[-51.382,47.44],[-50.958,46.274],[-51.064,45.639],[-52.017,43.202],[-54.56,39.388],[-56.514,38.129],[-59.539,37.799],[-60.916,37.905],[-63.776,37.905],[-66.107,37.588],[-68.12,37.482],[-70.98,36.316],[-73.205,34.727],[-74.582,33.562],[-76.489,31.867],[-78.184,30.808],[-81.574,29.113],[-82.527,28.159],[-85.388,27.206],[-87.295,26.888],[-90.261,26.252],[-92.38,25.723],[-92.591,25.193],[-93.333,23.604],[-93.262,23.042],[-92.62,21.162],[-92.223,20.43],[-91.762,19.823],[-91.553,19.195],[-91.553,18.023],[-91.637,17.27],[-91.448,16.328],[-91.239,15.617],[-90.883,14.759],[-90.318,13.838],[-89.963,13.189],[-89.377,12.624],[-89.167,11.892],[-89.167,11.348],[-89.398,10.322],[-89.774,9.925],[-90.444,9.632],[-91.637,9.59],[-92.725,9.59],[-93.52,9.632],[-94.231,9.778],[-95.068,9.736],[-97.914,9.967],[-98.647,10.281],[-99.965,11.243],[-100.677,11.536],[-101.932,11.85],[-102.958,12.08],[-104.15,12.143],[-105.385,12.185],[-106.766,12.394],[-107.226,12.603],[-107.896,13.357],[-108.628,14.403],[-108.88,15.114],[-108.963,16.014],[-109.089,16.558],[-109.026,17.291],[-109.198,18.1],[-109.449,19.042],[-110.056,19.899],[-110.914,20.569],[-112.023,21.197],[-113.257,21.72],[-117.174,23.676],[-118.552,24.922],[-119.582,26.287],[-120.289,27.684],[-120.776,29.679],[-120.372,31.137],[-119.505,32.292],[-117.422,33.292],[-114.49,33.987],[-112.19,34.856],[-108.84,36.035],[-105.097,36.953],[-102.908,37.448],[-99.942,38.366],[-97.046,39.143],[-95.351,39.425],[-90.69,40.908],[-86.947,41.685],[-82.85,42.815],[-79.813,44.016],[-77.412,45.075],[-74.587,46.911],[-73.033,48.041],[-71.127,49.666],[-69.643,51.926],[-68.584,53.691],[-68.231,55.457],[-69.149,57.364],[-70.562,58.494],[-72.257,59.906],[-74.093,61.813],[-74.799,62.731],[-75.152,64.991],[-74.517,66.263],[-73.881,67.181],[-73.417,67.78]]]}},{"type":"Feature","properties":{"density":1},"geometry":{"type":"Polygon","coordinates":[[[-86.736,32.116],[-86.825,32.098],[-86.932,32.042],[-87.188,31.873],[-87.306,31.838],[-87.566,31.822],[-87.678,31.787],[-87.71,31.763],[-87.773,31.666],[-87.773,31.634],[-87.711,31.607],[-87.599,31.623],[-87.32,31.733],[-87.203,31.811],[-87.045,31.859],[-86.694,32.041],[-86.676,32.086],[-86.736,32.116]]]}},{"type":"Feature","properties":{"density":1},"geometry":{"type":"Polygon","coordinates":[[[-86.734,32.129],[-86.882,32.104],[-87.304,31.943],[-87.724,31.831],[-87.861,31.744],[-87.863,31.662],[-87.72,31.537],[-87.683,31.53],[-87.615,31.547],[-87.108,31.868],[-86.678,32.054],[-86.662,32.07],[-86.666,32.095],[-86.734,32.129]]]}},{"type":"Feature","properties":{"density":1},"geometry":{"type":"Polygon","coordinates":[[[-86.743,32.874],[-86.846,32.861],[-87.044,32.777],[-87.153,32.767],[-87.312,32.788],[-87.481,32.868],[-87.577,32.895],[-87.645,32.899],[-87.713,32.874],[-87.779,32.833],[-87.832,32.729],[-87.92,32.645],[-87.954,32.581],[-87.957,32.506],[-87.884,32.394],[-87.868,32.258],[-87.823,32.215],[-87.695,32.248],[-87.611,32.33],[-87.518,32.456],[-87.436,32.515],[-87.338,32.549],[-87.13,32.581],[-86.691,32.8],[-86.677,32.817],[-86.68,32.85],[-86.743,32.874]]]}},{"type":"Feature","properties":{"density":1},"geometry":{"type":"Polygon","coordinates":[[[-86.644,33.076],[-86.696,33.088],[-86.924,33.076],[-87.094,33.089],[-87.324,33.16],[-87.377,33.162],[-87.482,33.111],[-87.524,33.018],[-87.497,32.944],[-87.42,32.872],[-87.31,32.824],[-87.25,32.779],[-87.079,32.768],[-87.002,32.792],[-86.93,32.849],[-86.628,33.007],[-86.614,33.038],[-86.644,33.076]]]}},{"type":"Feature","properties":{"density":1},"geometry":{"type":"Polygon","coordinates":[[[-88.563,34.936],[-88.646,34.952],[-88.695,34.934],[-88.714,34.854],[-88.764,34.784],[-88.748,34.681],[-88.682,34.59],[-88.645,34.488],[-88.607,34.472],[-88.563,34.477],[-88.525,34.506],[-88.486,34.584],[-88.434,34.766],[-88.448,34.841],[-88.493,34.909],[-88.563,34.936]]]}},{"type":"Feature","properties":{"density":1},"geometry":{"type":"Polygon","coordinates":[[[-88.366,34.877],[-88.44,34.84],[-88.507,34.709],[-88.451,34.54],[-88.41,34.509],[-88.364,34.537],[-88.302,34.684],[-88.283,34.804],[-88.311,34.876],[-88.366,34.877]]]}},{"type":"Feature","properties":{"density":1},"geometry":{"type":"Polygon","coordinates":[[[-88.297,34.691],[-88.278,34.638],[-88.244,34.636],[-88.221,34.734],[-88.137,34.807],[-88.118,34.861],[-88.126,35.005],[-88.162,35.083],[-88.204,35.118],[-88.238,35.111],[-88.25,35.093],[-88.327,34.892],[-88.297,34.691]]]}},{"type":"Feature","properties":{"density":1},"geometry":{"type":"Polygon","coordinates":[[[-90.388,34.23],[-90.477,34.189],[-90.577,34.102],[-90.607,33.888],[-90.593,33.847],[-90.475,33.754],[-90.433,33.679],[-90.388,33.645],[-90.358,33.667],[-90.345,33.717],[-90.345,33.786],[-90.37,33.886],[-90.365,33.965],[-90.347,34.02],[-90.279,34.107],[-90.267,34.171],[-90.297,34.22],[-90.388,34.23]]]}},{"type":"Feature","properties":{"density":1},"geometry":{"type":"Polygon","coordinates":[[[-90.83,34.027],[-90.853,34.009],[-90.873,33.858],[-90.853,33.825],[-90.809,33.866],[-90.78,33.961],[-90.787,34.023],[-90.83,34.027]]]}},{"type":"Feature","properties":{"density":1},"geometry":{"type":"Polygon","coordinates":[[[-83.399,33.86],[-83.449,33.841],[-83.437,33.775],[-83.346,33.705],[-83.296,33.644],[-83.175,33.607],[-83.009,33.607],[-82.797,33.644],[-82.64,33.635],[-82.549,33.668],[-82.534,33.696],[-82.579,33.762],[-82.672,33.792],[-82.95,33.78],[-83.399,33.86]]]}},{"type":"Feature","properties":{"density":1},"geometry":{"type":"Polygon","coordinates":[[[-80.271,34.858],[-80.299,34.853],[-80.312,34.826],[-80.283,34.757],[-80.298,34.671],[-80.274,34.623],[-80.217,34.619],[-80.173,34.643],[-80.117,34.643],[-80.057,34.589],[-80.012,34.573],[-79.905,34.591],[-79.732,34.548],[-79.689,34.56],[-79.68,34.589],[-79.702,34.625],[-79.884,34.682],[-79.994,34.75],[-80.084,34.771],[-80.217,34.849],[-80.271,34.858]]]}},{"type":"Feature","properties":{"density":1},"geometry":{"type":"Polygon","coordinates":[[[-79.766,35.428],[-79.763,35.466],[-79.688,35.569],[-79.627,35.699],[-79.565,35.774],[-79.511,35.805],[-79.433,35.801],[-79.288,35.626],[-79.283,35.582],[-79.31,35.459],[-79.269,35.343],[-79.283,35.307],[-79.335,35.264],[-79.385,35.271],[-79.465,35.352],[-79.654,35.352],[-79.708,35.369],[-79.766,35.428]]]}},{"type":"Feature","properties":{"density":1},"geometry":{"type":"Polygon","coordinates":[[[-89.313,36.961],[-89.417,36.922],[-89.443,36.881],[-89.433,36.797],[-89.377,36.72],[-89.372,36.665],[-89.454,36.524],[-89.468,36.472],[-89.449,36.419],[-89.404,36.387],[-89.369,36.308],[-89.345,36.297],[-89.319,36.303],[-89.263,36.376],[-89.163,36.692],[-89.163,36.799],[-89.185,36.881],[-89.244,36.948],[-89.313,36.961]]]}},{"type":"Feature","properties":{"density":1},"geometry":{"type":"Polygon","coordinates":[[[-90.057,36.446],[-90.116,36.43],[-90.298,36.285],[-90.453,36.03],[-90.463,35.978],[-90.433,35.945],[-90.373,35.95],[-90.307,35.994],[-90.157,36.166],[-90.005,36.271],[-89.994,36.367],[-90.057,36.446]]]}},{"type":"Feature","properties":{"density":1},"geometry":{"type":"Polygon","coordinates":[[[-88.328,37.45],[-88.501,37.466],[-88.782,37.526],[-88.878,37.522],[-88.967,37.486],[-89.199,37.341],[-89.388,37.257],[-89.649,37.201],[-89.918,37.096],[-90.038,36.968],[-90.162,36.759],[-90.303,36.639],[-90.427,36.587],[-90.664,36.539],[-90.917,36.414],[-90.965,36.37],[-91.005,36.294],[-91.021,36.225],[-91.005,36.145],[-90.905,36.057],[-90.704,36.025],[-90.66,36.005],[-90.636,35.916],[-90.66,35.776],[-90.602,35.74],[-90.525,35.761],[-90.41,35.834],[-90.335,35.935],[-90.276,35.946],[-90.142,35.924],[-90.032,35.927],[-89.826,35.954],[-89.674,35.997],[-89.626,36.021],[-89.585,36.077],[-89.476,36.136],[-89.345,36.16],[-89.171,36.342],[-89.038,36.539],[-89.022,36.603],[-88.986,36.655],[-88.842,36.751],[-88.553,36.872],[-88.416,36.96],[-88.324,37.08],[-88.276,37.221],[-88.212,37.317],[-88.236,37.409],[-88.292,37.45],[-88.328,37.45]]]}},{"type":"Feature","properties":{"density":1},"geometry":{"type":"Polygon","coordinates":[[[-90.216,35.79],[-90.26,35.771],[-90.317,35.664],[-90.396,35.587],[-90.39,35.523],[-90.378,35.516],[-90.326,35.542],[-90.251,35.64],[-90.185,35.698],[-90.173,35.74],[-90.216,35.79]]]}},{"type":"Feature","properties":{"density":1},"geometry":{"type":"Polygon","coordinates":[[[-90.353,35.489],[-90.371,35.444],[-90.364,35.41],[-90.346,35.396],[-90.276,35.421],[-90.214,35.482],[-90.123,35.619],[-89.862,35.81],[-89.796,35.894],[-89.773,35.978],[-89.782,36.072],[-89.812,36.097],[-89.852,36.104],[-89.911,36.076],[-90.094,35.792],[-90.249,35.676],[-90.328,35.589],[-90.353,35.489]]]}},{"type":"Feature","properties":{"density":1},"geometry":{"type":"Polygon","coordinates":[[[-90.807,35.87],[-90.887,35.845],[-90.999,35.734],[-91.048,35.65],[-91.169,35.322],[-91.165,35.276],[-91.133,35.236],[-91.069,35.254],[-91.014,35.315],[-90.955,35.425],[-90.903,35.579],[-90.737,35.741],[-90.734,35.825],[-90.807,35.87]]]}},{"type":"Feature","properties":{"density":1},"geometry":{"type":"Polygon","coordinates":[[[-90.461,35.503],[-90.506,35.501],[-90.529,35.483],[-90.575,35.396],[-90.65,35.305],[-90.656,35.23],[-90.609,35.233],[-90.547,35.294],[-90.438,35.465],[-90.434,35.48],[-90.461,35.503]]]}},{"type":"Feature","properties":{"density":1},"geometry":{"type":"Polygon","coordinates":[[[-89.901,35.621],[-89.955,35.633],[-90.003,35.594],[-90.046,35.412],[-90.124,35.251],[-90.129,35.189],[-90.111,35.142],[-90.07,35.139],[-90.042,35.16],[-89.981,35.25],[-89.892,35.497],[-89.885,35.553],[-89.901,35.621]]]}},{"type":"Feature","properties":{"density":1},"geometry":{"type":"Polygon","coordinates":[[[-90.81,34.874],[-90.865,34.881],[-90.899,34.856],[-90.913,34.747],[-90.967,34.631],[-90.953,34.441],[-90.924,34.385],[-90.849,34.428],[-90.803,34.535],[-90.753,34.776],[-90.81,34.874]]]}},{"type":"Feature","properties":{"density":1},"geometry":{"type":"Polygon","coordinates":[[[-90.581,35.667],[-90.616,35.662],[-90.675,35.621],[-90.732,35.519],[-90.87,35.376],[-90.95,35.208],[-90.939,35.167],[-90.868,35.171],[-90.829,35.194],[-90.693,35.392],[-90.547,35.524],[-90.525,35.555],[-90.525,35.596],[-90.549,35.645],[-90.581,35.667]]]}},{"type":"Feature","properties":{"density":1},"geometry":{"type":"Polygon","coordinates":[[[-91.698,35.674],[-91.749,35.674],[-91.794,35.639],[-91.835,35.519],[-92.019,35.342],[-92.073,35.251],[-92.097,35.056],[-92.089,34.973],[-92.046,34.887],[-91.95,34.818],[-91.88,34.826],[-91.77,34.922],[-91.709,35.024],[-91.647,35.195],[-91.505,35.423],[-91.522,35.527],[-91.556,35.58],[-91.615,35.634],[-91.698,35.674]]]}},{"type":"Feature","properties":{"density":1},"geometry":{"type":"Polygon","coordinates":[[[-91.931,34.978],[-92.099,35.008],[-92.26,34.909],[-92.263,34.839],[-92.239,34.788],[-92.121,34.647],[-92.118,34.491],[-92.086,34.454],[-92.011,34.457],[-91.915,34.526],[-91.813,34.548],[-91.733,34.609],[-91.679,34.697],[-91.685,34.887],[-91.706,34.922],[-91.781,34.96],[-91.931,34.978]]]}},{"type":"Feature","properties":{"density":1},"geometry":{"type":"Polygon","coordinates":[[[-91.623,34.925],[-91.661,34.933],[-91.701,34.89],[-91.706,34.759],[-91.722,34.716],[-91.706,34.641],[-91.647,34.566],[-91.599,34.59],[-91.538,34.722],[-91.54,34.788],[-91.623,34.925]]]}},{"type":"Feature","properties":{"density":1},"geometry":{"type":"Polygon","coordinates":[[[-91.289,35.045],[-91.318,35.061],[-91.38,35.061],[-91.431,35.048],[-91.465,35.016],[-91.505,34.914],[-91.591,34.783],[-91.615,34.711],[-91.623,34.572],[-91.57,34.417],[-91.57,34.13],[-91.524,34.087],[-91.467,34.097],[-91.408,34.143],[-91.168,34.524],[-91.15,34.582],[-91.163,34.818],[-91.216,34.952],[-91.289,35.045]]]}},{"type":"Feature","properties":{"density":1},"geometry":{"type":"Polygon","coordinates":[[[-91.744,34.525],[-91.797,34.407],[-91.898,34.316],[-91.905,34.29],[-91.883,34.144],[-91.872,34.118],[-91.828,34.101],[-91.802,34.115],[-91.725,34.276],[-91.594,34.333],[-91.548,34.395],[-91.548,34.498],[-91.594,34.573],[-91.648,34.58],[-91.744,34.525]]]}},{"type":"Feature","properties":{"density":1},"geometry":{"type":"Polygon","coordinates":[[[-91.271,34.201],[-91.33,34.216],[-91.384,34.198],[-91.443,34.108],[-91.546,34.072],[-91.621,34.015],[-91.737,33.899],[-91.752,33.853],[-91.724,33.724],[-91.636,33.639],[-91.575,33.369],[-91.551,33.335],[-91.497,33.304],[-91.348,33.327],[-91.309,33.364],[-91.291,33.415],[-91.286,33.461],[-91.358,33.642],[-91.371,33.765],[-91.332,33.886],[-91.237,33.984],[-91.193,34.054],[-91.201,34.123],[-91.271,34.201]]]}},{"type":"Feature","properties":{"density":1},"geometry":{"type":"Polygon","coordinates":[[[-91.577,33.456],[-91.635,33.458],[-91.671,33.4],[-91.724,33.365],[-91.735,33.323],[-91.682,33.235],[-91.594,33.158],[-91.533,32.993],[-91.517,32.973],[-91.484,32.971],[-91.464,32.987],[-91.442,33.05],[-91.448,33.183],[-91.492,33.37],[-91.577,33.456]]]}},{"type":"Feature","properties":{"density":1},"geometry":{"type":"Polygon","coordinates":[[[-91.979,33.592],[-92.067,33.67],[-92.12,33.66],[-92.131,33.635],[-92.127,33.581],[-92.058,33.49],[-92.054,33.447],[-92.116,33.363],[-92.138,33.242],[-92.092,33.161],[-91.986,33.131],[-91.925,33.144],[-91.863,33.199],[-91.81,33.429],[-91.857,33.497],[-91.979,33.592]]]}},{"type":"Feature","properties":{"density":1},"geometry":{"type":"Polygon","coordinates":[[[-91.807,33.302],[-91.833,33.308],[-91.844,33.276],[-91.82,33.074],[-91.765,32.946],[-91.737,32.909],[-91.695,32.902],[-91.678,32.918],[-91.671,32.966],[-91.697,33.131],[-91.748,33.236],[-91.807,33.302]]]}},{"type":"Feature","properties":{"density":1},"geometry":{"type":"Polygon","coordinates":[[[-91.629,32.909],[-91.568,32.841],[-91.548,32.841],[-91.531,32.865],[-91.529,32.896],[-91.619,33.074],[-91.625,33.232],[-91.652,33.37],[-91.697,33.44],[-91.73,33.451],[-91.829,33.354],[-91.838,33.265],[-91.816,33.207],[-91.629,32.909]]]}},{"type":"Feature","properties":{"density":1},"geometry":{"type":"Polygon","coordinates":[[[-96.859,36.587],[-96.978,36.576],[-97.089,36.44],[-97.188,36.361],[-97.217,36.293],[-97.23,36.124],[-97.23,36.087],[-97.195,36.039],[-97.142,36.034],[-97.089,36.061],[-96.976,36.234],[-96.75,36.285],[-96.706,36.357],[-96.706,36.471],[-96.747,36.528],[-96.859,36.587]]]}},{"type":"Feature","properties":{"density":1},"geometry":{"type":"Polygon","coordinates":[[[-103.711,42.117],[-103.898,42.147],[-104.224,42.15],[-104.607,42.18],[-104.753,42.174],[-105.298,42.048],[-105.345,42.023],[-105.381,41.937],[-105.364,41.91],[-105.298,41.874],[-105.111,41.852],[-104.472,41.943],[-104.246,41.951],[-103.901,41.882],[-103.667,41.869],[-103.546,41.888],[-103.479,41.924],[-103.482,41.971],[-103.54,42.028],[-103.711,42.117]]]}},{"type":"Feature","properties":{"density":1},"geometry":{"type":"Polygon","coordinates":[[[-111.186,44.26],[-111.282,44.31],[-111.395,44.323],[-111.47,44.288],[-111.517,44.246],[-111.668,44.18],[-111.731,44.117],[-111.905,43.88],[-112.092,43.734],[-112.115,43.67],[-112.095,43.626],[-112.015,43.596],[-111.861,43.654],[-111.748,43.726],[-111.409,44.004],[-111.258,44.037],[-111.117,44.04],[-111.043,44.07],[-111.034,44.1],[-111.051,44.133],[-111.186,44.26]]]}},{"type":"Feature","properties":{"density":1},"geometry":{"type":"Polygon","coordinates":[[[-115.21,46.881],[-115.535,46.948],[-115.709,46.956],[-115.874,46.948],[-116.131,46.89],[-116.456,46.653],[-116.514,46.548],[-116.685,46.377],[-116.685,46.3],[-116.638,46.231],[-116.464,46.148],[-116.401,46.099],[-116.387,46.046],[-116.409,45.958],[-116.401,45.925],[-116.357,45.87],[-116.318,45.851],[-116.197,45.843],[-116.018,45.898],[-115.885,45.917],[-115.577,45.911],[-115.425,45.936],[-115.276,45.986],[-115.183,46.06],[-115.141,46.137],[-115.128,46.22],[-115.199,46.363],[-115.199,46.405],[-115.117,46.534],[-115.075,46.658],[-115.086,46.741],[-115.139,46.826],[-115.21,46.881]]]}},{"type":"Feature","properties":{"density":1},"geometry":{"type":"Polygon","coordinates":[[[-117.315,47.227],[-117.345,47.186],[-117.346,47.153],[-117.329,47.124],[-117.293,47.109],[-117.23,47.121],[-117.123,47.196],[-117.006,47.218],[-116.979,47.244],[-116.99,47.267],[-117.035,47.284],[-117.164,47.289],[-117.259,47.27],[-117.315,47.227]]]}},{"type":"Feature","properties":{"density":1},"geometry":{"type":"Polygon","coordinates":[[[-123.963,41.026],[-124.003,41.024],[-124.053,40.997],[-124.066,40.975],[-124.056,40.936],[-123.982,40.867],[-123.908,40.869],[-123.875,40.9],[-123.871,40.949],[-123.963,41.026]]]}},{"type":"Feature","properties":{"density":1},"geometry":{"type":"Polygon","coordinates":[[[-122.171,38.59],[-122.213,38.587],[-122.254,38.515],[-122.153,38.339],[-122.133,38.331],[-122.087,38.348],[-121.956,38.438],[-121.943,38.489],[-121.96,38.52],[-122.171,38.59]]]}},{"type":"Feature","properties":{"density":1},"geometry":{"type":"Polygon","coordinates":[[[-121.338,36.013],[-121.553,36.055],[-121.656,36.11],[-121.694,36.114],[-121.812,36.072],[-121.976,36.053],[-122.038,36.031],[-122.156,35.956],[-122.258,35.917],[-122.304,35.859],[-122.281,35.805],[-122.202,35.774],[-121.966,35.752],[-121.746,35.759],[-121.445,35.822],[-121.329,35.875],[-121.303,35.917],[-121.303,35.95],[-121.338,36.013]]]}},{"type":"Feature","properties":{"density":1},"geometry":{"type":"Polygon","coordinates":[[[-120.035,35.512],[-120.083,35.517],[-120.114,35.503],[-120.217,35.405],[-120.215,35.255],[-120.163,35.207],[-120.101,35.2],[-119.963,35.301],[-119.987,35.468],[-119.994,35.488],[-120.035,35.512]]]}},{"type":"Feature","properties":{"density":1},"geometry":{"type":"Polygon","coordinates":[[[-91.714,17.493],[-91.829,17.603],[-92.174,17.824],[-92.353,17.959],[-92.449,18.016],[-92.538,18.022],[-92.557,17.956],[-92.543,17.917],[-92.502,17.876],[-92.199,17.705],[-92.039,17.554],[-91.863,17.443],[-91.785,17.374],[-91.694,17.344],[-91.667,17.361],[-91.664,17.385],[-91.714,17.493]]]}},{"type":"Feature","properties":{"density":1},"geometry":{"type":"Polygon","coordinates":[[[-92.116,15.886],[-92.427,15.881],[-92.483,15.864],[-92.557,15.828],[-92.596,15.779],[-92.62,15.715],[-92.598,15.68],[-92.554,15.66],[-92.485,15.655],[-92.328,15.688],[-92.033,15.828],[-92.039,15.87],[-92.116,15.886]]]}},{"type":"Feature","properties":{"density":1},"geometry":{"type":"Polygon","coordinates":[[[-90.49,19.935],[-90.71,19.94],[-91.066,19.998],[-91.452,20.084],[-91.705,20.084],[-91.846,20.037],[-91.898,19.987],[-91.923,19.893],[-91.994,19.761],[-91.956,19.67],[-91.876,19.612],[-91.713,19.599],[-91.523,19.508],[-91.424,19.491],[-91.374,19.497],[-91.289,19.543],[-91.237,19.665],[-91.201,19.703],[-90.961,19.736],[-90.639,19.736],[-90.454,19.789],[-90.41,19.827],[-90.402,19.874],[-90.418,19.91],[-90.49,19.935]]]}},{"type":"Feature","properties":{"density":1},"geometry":{"type":"Polygon","coordinates":[[[-113.351,32.726],[-113.623,32.83],[-113.979,32.893],[-114.23,32.893],[-114.502,32.788],[-115.004,32.705],[-115.59,32.83],[-115.904,32.872],[-116.176,32.893],[-116.49,32.893],[-116.867,32.809],[-117.222,32.642],[-117.515,32.412],[-117.808,32.14],[-118.122,31.763],[-118.394,31.365],[-118.834,30.612],[-119.001,30.152],[-119.127,29.168],[-119.085,28.833],[-118.582,28.161],[-118.331,27.973],[-118.038,27.722],[-117.808,27.366],[-117.599,26.927],[-117.536,26.613],[-117.431,25.566],[-117.327,25.273],[-117.013,24.667],[-116.803,24.436],[-116.427,24.164],[-116.134,23.976],[-115.339,23.599],[-114.899,23.369],[-113.916,22.804],[-113.664,22.595],[-113.309,22.26],[-112.848,21.674],[-112.639,20.858],[-112.451,20.356],[-112.179,19.665],[-111.886,19.121],[-111.384,18.493],[-110.819,17.907],[-110.505,17.635],[-109.668,17.07],[-108.684,16.61],[-107.498,16.164],[-107.177,16.094],[-106.829,15.968],[-106.131,15.787],[-105.531,15.689],[-105.21,15.689],[-103.777,15.897],[-103.296,15.918],[-101.517,15.876],[-100.366,15.667],[-99.634,15.478],[-98.859,15.227],[-96.746,14.683],[-96.244,14.495],[-95.658,14.202],[-95.197,13.951],[-94.235,13.26],[-93.921,12.842],[-93.795,12.591],[-93.607,12.298],[-93.398,12.005],[-93.147,11.712],[-92.749,11.168],[-92.205,10.666],[-91.912,10.456],[-91.577,10.289],[-90.656,9.954],[-89.987,9.808],[-88.647,9.682],[-87.392,9.64],[-86.722,9.766],[-86.283,9.933],[-85.802,10.184],[-85.362,10.561],[-85.137,10.949],[-85.053,11.284],[-85.034,11.479],[-85.053,11.73],[-85.611,12.781],[-85.769,13.209],[-85.825,13.442],[-85.853,14.139],[-85.788,14.818],[-85.788,15.19],[-85.843,15.358],[-86.094,15.953],[-86.169,16.046],[-86.64,16.414],[-86.761,16.442],[-86.928,16.433],[-87.087,16.34],[-87.226,16.191],[-87.644,15.924],[-87.978,15.776],[-88.109,15.732],[-89.361,15.462],[-89.522,15.431],[-89.888,15.407],[-90.279,15.456],[-90.496,15.518],[-90.7,15.611],[-90.787,15.661],[-91.06,15.896],[-91.252,16.126],[-91.333,16.238],[-91.401,16.368],[-91.475,16.616],[-91.5,16.758],[-91.519,16.895],[-91.513,17.285],[-91.72,18.743],[-91.72,19.015],[-91.783,19.392],[-91.867,19.726],[-92.222,20.333],[-92.892,21.149],[-93.164,21.547],[-94.346,23.137],[-94.556,23.367],[-94.681,23.556],[-94.932,24.267],[-94.953,24.707],[-94.911,25.125],[-94.828,25.544],[-94.702,26.004],[-94.535,26.381],[-94.346,26.632],[-94.033,26.904],[-93.337,27.346],[-93.003,27.485],[-92.724,27.569],[-92.291,27.625],[-91.426,27.569],[-90.659,27.346],[-89.836,26.997],[-89.431,26.871],[-88.971,26.774],[-88.566,26.718],[-88.19,26.704],[-87.771,26.718],[-87.325,26.788],[-86.906,26.83],[-86.557,26.927],[-86.306,27.039],[-85.93,27.29],[-85.748,27.471],[-85.637,27.625],[-85.567,27.82],[-85.497,28.225],[-85.497,28.643],[-85.413,28.936],[-85.33,29.341],[-85.12,29.759],[-84.967,29.968],[-84.758,30.192],[-84.521,30.373],[-84.228,30.526],[-83.893,30.666],[-83.614,30.722],[-82.902,30.708],[-82.498,30.722],[-82.023,30.806],[-81.521,30.917],[-81.172,31.098],[-80.768,31.433],[-80.088,31.848],[-79.864,31.918],[-79.558,31.946],[-79.223,31.89],[-78.093,31.611],[-77.758,31.555],[-77.06,31.527],[-76.726,31.555],[-75.861,31.82],[-75.442,32.225],[-75.107,32.657],[-74.884,33.062],[-74.382,33.662],[-74.298,33.815],[-74.256,33.941],[-74.242,34.248],[-74.284,34.387],[-74.452,34.736],[-75.179,35.574],[-75.416,35.728],[-75.555,35.797],[-76.406,36.16],[-77.187,36.258],[-77.536,36.286],[-77.885,36.286],[-79.071,36.174],[-79.294,36.132],[-79.475,36.076],[-80.033,35.783],[-80.633,35.407],[-80.94,35.253],[-81.666,34.96],[-82.042,34.891],[-82.349,34.863],[-82.642,34.891],[-82.977,34.96],[-83.228,35.058],[-83.409,35.17],[-83.856,35.658],[-83.954,35.881],[-84.023,36.132],[-84.065,36.844],[-83.995,37.123],[-83.912,37.304],[-83.772,37.458],[-83.549,37.583],[-83.242,37.695],[-82.991,37.764],[-82.447,38.002],[-82.126,38.099],[-81.805,38.225],[-81.442,38.378],[-80.787,38.713],[-80.229,39.104],[-79.643,39.592],[-79.245,39.976],[-79.182,40.059],[-79.12,40.206],[-79.099,40.415],[-79.162,40.687],[-79.287,40.917],[-79.454,41.064],[-79.747,41.189],[-80.061,41.273],[-80.396,41.315],[-81.652,41.315],[-82.426,41.064],[-83.012,40.98],[-83.43,40.959],[-84.079,40.959],[-84.456,40.896],[-84.832,40.771],[-85.146,40.645],[-85.962,40.394],[-86.725,40.204],[-86.948,40.162],[-87.394,40.12],[-89.275,39.806],[-89.68,39.611],[-90.084,39.388],[-90.363,39.262],[-90.614,39.179],[-91.298,39.011],[-91.982,38.942],[-92.4,38.858],[-92.595,38.802],[-96.684,38.16],[-98.881,37.751],[-100.199,37.186],[-100.45,37.03],[-101.204,36.402],[-102.083,35.711],[-102.71,35.366],[-103.244,34.989],[-106.006,33.42],[-106.603,33.106],[-107.23,32.949],[-107.858,32.855],[-108.988,32.604],[-109.585,32.415],[-110.777,32.196],[-111.374,32.164],[-111.97,32.258],[-112.661,32.541],[-113.351,32.726]]]}},{"type":"Feature","properties":{"density":1},"geometry":{"type":"Polygon","coordinates":[[[-100.569,61.272],[-100.977,61.115],[-101.511,60.675],[-102.013,60.079],[-102.327,59.388],[-102.515,58.761],[-102.798,58.039],[-103.174,57.223],[-103.582,56.626],[-103.959,56.124],[-104.493,55.653],[-105.183,55.151],[-106.878,54.115],[-107.757,53.738],[-108.699,53.393],[-109.64,53.111],[-110.708,52.703],[-111.555,52.357],[-112.434,51.886],[-113.407,51.165],[-113.847,50.694],[-114.098,50.16],[-114.16,49.595],[-114.035,49.061],[-113.752,48.591],[-113.407,48.183],[-112.874,47.712],[-112.308,47.429],[-111.398,47.115],[-109.892,46.77],[-109.201,46.519],[-108.542,46.205],[-107.757,45.797],[-106.815,45.358],[-105.874,45.044],[-104.869,44.761],[-103.865,44.541],[-101.982,44.259],[-101.008,44.165],[-99.188,43.914],[-97.336,43.788],[-96.52,43.788],[-95.013,43.851],[-93.601,43.976],[-91.906,44.102],[-91.058,44.228],[-90.242,44.29],[-89.457,44.322],[-88.735,44.416],[-87.951,44.447],[-86.193,44.573],[-85.534,44.636],[-84.937,44.761],[-84.153,44.981],[-83.493,45.232],[-82.897,45.64],[-82.489,46.048],[-82.301,46.519],[-82.238,47.21],[-82.458,47.775],[-82.866,48.245],[-83.493,48.591],[-84.372,48.81],[-85.031,48.936],[-85.596,48.967],[-86.318,48.967],[-88.265,49.281],[-89.3,49.626],[-90.273,50.066],[-91.686,50.631],[-92.722,51.133],[-94.888,52.483],[-95.829,53.236],[-96.52,53.864],[-96.991,54.649],[-97.116,55.402],[-96.991,55.998],[-96.614,56.563],[-95.923,56.972],[-94.95,57.317],[-93.977,57.317],[-93.036,57.191],[-92.439,57.128],[-90.472,57.05],[-89.719,57.081],[-88.495,57.207],[-87.396,57.427],[-86.266,57.709],[-83.049,59.404],[-80.475,60.628],[-79.533,60.974],[-78.466,61.287],[-77.367,61.444],[-76.269,61.507],[-75.264,61.507],[-74.071,61.539],[-72.282,61.664],[-68.139,61.664],[-66.664,61.915],[-65.565,62.009],[-63.619,61.79],[-62.96,61.57],[-62.552,61.382],[-61.893,60.974],[-61.641,60.722],[-61.39,60.346],[-61.265,59.875],[-61.202,59.153],[-61.328,58.619],[-61.61,57.897],[-61.987,57.176],[-62.363,56.516],[-62.866,55.951],[-63.368,55.418],[-63.87,54.759],[-64.215,54.256],[-64.937,52.938],[-65.094,52.499],[-65.377,51.934],[-65.565,51.369],[-65.659,50.709],[-65.722,49.987],[-65.753,49.171],[-65.732,47.518],[-65.67,46.514],[-65.419,45.823],[-65.105,45.133],[-64.728,43.41],[-64.561,40.034],[-64.254,38.932],[-63.598,37.885],[-62.873,37.271],[-62.203,36.755],[-61.185,36.225],[-59.162,36.42],[-57.948,36.825],[-56.637,37.174],[-55.004,37.676],[-53.693,38.248],[-53.051,38.443],[-52.521,38.89],[-52.256,39.169],[-51.698,39.95],[-51.559,40.452],[-51.6,41.303],[-51.768,41.903],[-51.838,42.419],[-51.991,42.824],[-52.437,43.298],[-53.428,43.493],[-54.307,43.8],[-55.228,44.177],[-56.096,44.662],[-56.63,45.101],[-57.1,45.823],[-57.006,46.42],[-56.431,46.849],[-55.96,47.037],[-55.301,47.351],[-54.296,47.979],[-53.323,48.481],[-52.507,48.826],[-50.32,49.967],[-49.337,50.396],[-48.427,50.929],[-47.516,51.212],[-46.951,51.369],[-44.88,51.682],[-43.31,51.996],[-42.463,52.216],[-41.741,52.342],[-39.528,53.126],[-38.869,53.409],[-38.21,53.786],[-36.891,54.727],[-35.432,55.951],[-34.772,56.611],[-34.302,57.223],[-33.972,57.741],[-33.737,58.4],[-33.172,59.53],[-32.983,60.142],[-32.842,60.848],[-32.701,61.366],[-32.607,62.025],[-32.512,62.543],[-32.512,63.014],[-32.56,63.485],[-32.701,64.191],[-32.748,64.944],[-32.748,65.745],[-32.936,66.686],[-33.36,67.346],[-33.878,67.958],[-35.337,69.041],[-35.855,69.37],[-37.566,70.045],[-38.131,70.108],[-38.665,70.139],[-39.23,70.202],[-39.701,70.233],[-40.14,70.171],[-40.768,70.108],[-42.369,69.888],[-43.31,69.825],[-43.938,69.857],[-46.889,70.484],[-47.673,70.736],[-49.933,71.363],[-50.467,71.614],[-52.193,72.117],[-53.302,72.284],[-54.684,72.378],[-56.944,72.629],[-59.988,72.849],[-61.432,72.975],[-65.136,73.132],[-67.49,73.194],[-69.374,73.163],[-71.131,73.163],[-72.921,73.132],[-76.279,72.975],[-77.472,72.692],[-79.983,72.535],[-81.05,72.41],[-82.118,72.378],[-84.346,72.378],[-85.225,72.347],[-86.073,72.347],[-87.108,72.378],[-89.682,72.378],[-91.22,72.41],[-92.821,72.504],[-94.548,72.535],[-95.552,72.598],[-98.408,72.724],[-99.57,72.818],[-102.583,72.818],[-103.745,72.755],[-104.718,72.629],[-105.44,72.504],[-106.224,72.253],[-107.323,71.594],[-107.605,71.123],[-107.731,70.62],[-107.605,69.993],[-107.197,69.239],[-106.789,68.674],[-106.036,67.984],[-105.408,67.544],[-103.933,66.634],[-102.52,65.944],[-102.018,65.755],[-100.794,65.065],[-100.135,64.657],[-99.287,63.84],[-99.162,63.432],[-99.099,62.867],[-99.256,62.397],[-99.507,62.083],[-99.79,61.8],[-100.292,61.486],[-100.569,61.272]]]}},{"type":"Feature","properties":{"density":2},"geometry":{"type":"Polygon","coordinates":[[[-122.762,60.848],[-122.991,60.897],[-123.326,60.91],[-123.673,60.996],[-124.045,61.12],[-124.225,61.282],[-124.368,61.585],[-124.386,61.914],[-124.287,62.162],[-123.977,62.398],[-123.797,62.732],[-123.592,62.999],[-123.313,63.241],[-122.824,63.613],[-122.501,63.78],[-122.197,63.842],[-121.856,63.861],[-121.447,63.817],[-120.945,63.656],[-120.53,63.489],[-119.488,63.166],[-118.477,62.937],[-117.622,62.825],[-117.002,62.838],[-115.923,62.918],[-115.514,62.887],[-115.185,62.807],[-114.856,62.683],[-114.559,62.602],[-114.317,62.515],[-113.774,62.422],[-113.086,62.162],[-112.714,62.06],[-111.989,61.995],[-111.561,61.892],[-111.328,61.613],[-111.254,61.288],[-111.31,61.102],[-111.533,60.906],[-112.342,60.618],[-112.649,60.6],[-112.993,60.609],[-113.737,60.739],[-114.1,60.906],[-114.695,60.972],[-116.044,60.488],[-116.49,60.348],[-116.974,60.246],[-118.294,60.218],[-119.085,60.348],[-119.801,60.423],[-121.019,60.627],[-121.875,60.637],[-122.387,60.73],[-122.762,60.848]]]}},{"type":"Feature","properties":{"density":2},"geometry":{"type":"Polygon","coordinates":[[[-61.428,65.925],[-60.582,65.791],[-59.295,65.634],[-56.972,65.477],[-55.842,65.508],[-54.806,65.508],[-53.355,65.605],[-52.201,65.32],[-51.071,64.755],[-49.69,63.876],[-48.591,62.935],[-47.558,62.319],[-46.742,61.88],[-45.361,61.859],[-44.197,62.275],[-43.506,62.746],[-40.901,64.347],[-39.834,65.069],[-38.578,65.634],[-36.883,66.011],[-35.408,66.293],[-34.843,66.199],[-34.498,65.854],[-34.466,65.163],[-34.654,64.504],[-35.484,63.418],[-37.263,61.566],[-39.614,59.607],[-40.085,59.325],[-40.744,58.885],[-41.999,58.352],[-43.269,58.071],[-44.566,58.071],[-45.578,58.32],[-46.617,58.929],[-49.376,60.455],[-50.279,61.022],[-51.702,61.608],[-54.652,61.859],[-56.291,61.805],[-57.91,61.945],[-61.928,62.475],[-63.127,63.163],[-64.003,64.284],[-64.223,65.163],[-64.191,65.665],[-63.783,66.105],[-62.873,66.262],[-62.277,66.168],[-61.428,65.925]]]}},{"type":"Feature","properties":{"density":2},"geometry":{"type":"Polygon","coordinates":[[[-58.007,55.985],[-57.694,56.026],[-56.773,55.942],[-56.326,55.789],[-55.782,55.468],[-55.252,54.603],[-54.694,54.184],[-54.206,53.975],[-53.215,53.905],[-52.253,53.877],[-51.862,53.849],[-51.541,53.598],[-51.458,53.305],[-51.541,52.971],[-51.862,52.636],[-52.462,52.287],[-52.922,52.092],[-54.472,51.958],[-55.096,51.856],[-55.709,51.837],[-56.453,52.135],[-56.965,52.237],[-59.064,52.287],[-59.702,52.256],[-60.391,52.244],[-61.24,52.312],[-62.393,52.467],[-63.02,52.684],[-63.382,52.991],[-63.875,53.586],[-63.838,54.147],[-63.695,54.792],[-63.336,55.145],[-62.958,55.381],[-62.579,55.554],[-61.904,55.709],[-61.39,55.705],[-60.484,55.649],[-59.423,55.691],[-58.754,55.775],[-58.266,55.9],[-58.461,55.858],[-58.007,55.985]]]}},{"type":"Feature","properties":{"density":2},"geometry":{"type":"Polygon","coordinates":[[[-105.265,41.941],[-105.377,41.866],[-105.456,41.848],[-105.526,41.868],[-105.572,41.916],[-105.585,41.956],[-105.57,42.009],[-105.432,42.164],[-105.362,42.18],[-105.239,42.18],[-105.151,42.127],[-105.136,42.039],[-105.186,41.978],[-105.265,41.941]]]}},{"type":"Feature","properties":{"density":2},"geometry":{"type":"Polygon","coordinates":[[[-86.999,14.751],[-87.183,14.732],[-87.22,14.717],[-87.238,14.673],[-87.203,14.638],[-87.161,14.633],[-86.995,14.706],[-86.973,14.725],[-86.979,14.749],[-86.999,14.751]]]}},{"type":"Feature","properties":{"density":2},"geometry":{"type":"Polygon","coordinates":[[[-88.331,31.377],[-88.358,31.355],[-88.308,31.368],[-88.331,31.377]]]}},{"type":"Feature","properties":{"density":2},"geometry":{"type":"Polygon","coordinates":[[[-80.219,34.757],[-80.238,34.75],[-80.267,34.671],[-80.23,34.636],[-80.205,34.654],[-80.191,34.694],[-80.198,34.74],[-80.219,34.757]]]}},{"type":"Feature","properties":{"density":2},"geometry":{"type":"Polygon","coordinates":[[[-90.326,36.509],[-90.329,36.485],[-90.181,36.534],[-90.163,36.556],[-90.221,36.561],[-90.326,36.509]]]}},{"type":"Feature","properties":{"density":2},"geometry":{"type":"Polygon","coordinates":[[[-105.197,42.117],[-105.265,42.125],[-105.356,42.04],[-105.362,42.024],[-105.316,41.948],[-105.279,41.952],[-105.134,42.032],[-105.148,42.072],[-105.197,42.117]]]}},{"type":"Feature","properties":{"density":2},"geometry":{"type":"Polygon","coordinates":[[[-121.193,48.874],[-121.221,48.88],[-121.214,48.847],[-121.158,48.814],[-121.135,48.776],[-121.106,48.794],[-121.053,48.782],[-121.056,48.806],[-121.127,48.825],[-121.193,48.874]]]}},{"type":"Feature","properties":{"density":2},"geometry":{"type":"Polygon","coordinates":[[[-120.809,48.397],[-120.848,48.385],[-120.85,48.369],[-120.699,48.308],[-120.62,48.217],[-120.563,48.182],[-120.52,48.113],[-120.465,48.065],[-120.368,48.024],[-120.308,48.023],[-120.337,48.049],[-120.451,48.092],[-120.565,48.247],[-120.749,48.38],[-120.809,48.397]]]}},{"type":"Feature","properties":{"density":2},"geometry":{"type":"Polygon","coordinates":[[[-122.944,61.427],[-123.014,61.414],[-123.041,61.376],[-123.037,61.354],[-122.968,61.317],[-122.653,61.273],[-122.521,61.227],[-122.315,61.229],[-122.139,61.198],[-121.989,61.23],[-121.923,61.279],[-121.915,61.303],[-121.926,61.338],[-121.963,61.371],[-122.095,61.441],[-122.268,61.446],[-122.687,61.406],[-122.944,61.427]]]}},{"type":"Feature","properties":{"density":2},"geometry":{"type":"Polygon","coordinates":[[[-86.736,32.851],[-86.811,32.841],[-86.853,32.822],[-86.859,32.805],[-86.837,32.796],[-86.73,32.824],[-86.724,32.844],[-86.736,32.851]]]}},{"type":"Feature","properties":{"density":2},"geometry":{"type":"Polygon","coordinates":[[[-80.223,34.753],[-80.244,34.741],[-80.22,34.678],[-80.198,34.709],[-80.223,34.753]]]}},{"type":"Feature","properties":{"density":2},"geometry":{"type":"Polygon","coordinates":[[[-79.735,35.443],[-79.738,35.408],[-79.677,35.404],[-79.594,35.435],[-79.583,35.475],[-79.601,35.506],[-79.633,35.508],[-79.735,35.443]]]}},{"type":"Feature","properties":{"density":2},"geometry":{"type":"Polygon","coordinates":[[[-91.457,34.257],[-91.435,34.301],[-91.455,34.316],[-91.489,34.29],[-91.511,34.145],[-91.466,34.16],[-91.461,34.204],[-91.478,34.231],[-91.457,34.257]]]}},{"type":"Feature","properties":{"density":2},"geometry":{"type":"Polygon","coordinates":[[[-91.488,33.473],[-91.516,33.451],[-91.477,33.353],[-91.457,33.37],[-91.457,33.398],[-91.488,33.473]]]}},{"type":"Feature","properties":{"density":2},"geometry":{"type":"Polygon","coordinates":[[[-91.342,33.485],[-91.376,33.498],[-91.391,33.477],[-91.373,33.355],[-91.347,33.369],[-91.341,33.392],[-91.342,33.485]]]}},{"type":"Feature","properties":{"density":2},"geometry":{"type":"Polygon","coordinates":[[[-121.252,48.87],[-121.253,48.85],[-121.182,48.804],[-121.138,48.783],[-121.117,48.79],[-121.11,48.809],[-121.127,48.828],[-121.252,48.87]]]}},{"type":"Feature","properties":{"density":2},"geometry":{"type":"Polygon","coordinates":[[[-120.843,48.386],[-120.848,48.354],[-120.759,48.336],[-120.613,48.193],[-120.565,48.182],[-120.552,48.194],[-120.558,48.228],[-120.641,48.27],[-120.703,48.364],[-120.777,48.389],[-120.843,48.386]]]}},{"type":"Feature","properties":{"density":2},"geometry":{"type":"Polygon","coordinates":[[[-122.193,38.513],[-122.22,38.504],[-122.215,38.474],[-122.188,38.439],[-122.139,38.419],[-122.136,38.476],[-122.193,38.513]]]}},{"type":"Feature","properties":{"density":2},"geometry":{"type":"Polygon","coordinates":[[[-93.213,18.308],[-93.241,18.311],[-93.312,18.267],[-93.348,18.165],[-93.409,18.107],[-93.616,18.057],[-93.638,17.994],[-93.621,17.95],[-93.53,17.887],[-93.403,17.862],[-93.329,17.826],[-93.271,17.713],[-93.103,17.677],[-93.018,17.63],[-92.916,17.611],[-92.781,17.625],[-92.665,17.605],[-92.596,17.608],[-92.533,17.641],[-92.522,17.71],[-92.535,17.752],[-92.59,17.823],[-92.814,17.922],[-92.935,18.124],[-93.009,18.214],[-93.1,18.281],[-93.213,18.308]]]}},{"type":"Feature","properties":{"density":2},"geometry":{"type":"Polygon","coordinates":[[[-86.663,33.057],[-86.824,33.048],[-86.948,32.985],[-87.129,32.953],[-87.145,32.937],[-87.134,32.917],[-87.094,32.904],[-86.993,32.909],[-86.822,33.011],[-86.646,33.044],[-86.663,33.057]]]}},{"type":"Feature","properties":{"density":2},"geometry":{"type":"Polygon","coordinates":[[[-88.571,34.696],[-88.62,34.684],[-88.635,34.657],[-88.622,34.506],[-88.598,34.487],[-88.566,34.504],[-88.555,34.537],[-88.544,34.659],[-88.571,34.696]]]}},{"type":"Feature","properties":{"density":2},"geometry":{"type":"Polygon","coordinates":[[[-79.613,35.558],[-79.661,35.55],[-79.74,35.443],[-79.734,35.428],[-79.686,35.428],[-79.629,35.484],[-79.567,35.514],[-79.568,35.548],[-79.613,35.558]]]}},{"type":"Feature","properties":{"density":2},"geometry":{"type":"Polygon","coordinates":[[[-90.439,36.012],[-90.451,35.978],[-90.424,35.957],[-90.383,35.989],[-90.348,36.052],[-90.21,36.173],[-90.173,36.246],[-90.18,36.285],[-90.216,36.282],[-90.255,36.253],[-90.328,36.134],[-90.439,36.012]]]}},{"type":"Feature","properties":{"density":2},"geometry":{"type":"Polygon","coordinates":[[[-90.874,34.667],[-90.897,34.658],[-90.906,34.633],[-90.894,34.564],[-90.924,34.455],[-90.924,34.408],[-90.906,34.398],[-90.879,34.412],[-90.862,34.448],[-90.835,34.646],[-90.874,34.667]]]}},{"type":"Feature","properties":{"density":2},"geometry":{"type":"Polygon","coordinates":[[[-91.393,34.748],[-91.401,34.762],[-91.444,34.748],[-91.474,34.705],[-91.484,34.556],[-91.533,34.446],[-91.53,34.285],[-91.551,34.152],[-91.508,34.103],[-91.466,34.103],[-91.399,34.181],[-91.276,34.443],[-91.281,34.556],[-91.329,34.668],[-91.393,34.748]]]}},{"type":"Feature","properties":{"density":2},"geometry":{"type":"Polygon","coordinates":[[[-91.543,33.972],[-91.601,33.929],[-91.649,33.761],[-91.596,33.636],[-91.524,33.39],[-91.479,33.345],[-91.455,33.378],[-91.452,33.436],[-91.524,33.747],[-91.508,33.934],[-91.527,33.97],[-91.543,33.972]]]}},{"type":"Feature","properties":{"density":2},"geometry":{"type":"Polygon","coordinates":[[[-91.556,33.4],[-91.593,33.401],[-91.598,33.367],[-91.551,33.295],[-91.543,33.154],[-91.503,33.108],[-91.488,33.147],[-91.502,33.216],[-91.496,33.297],[-91.556,33.4]]]}},{"type":"Feature","properties":{"density":2},"geometry":{"type":"Polygon","coordinates":[[[-91.959,33.387],[-91.987,33.339],[-92.055,33.284],[-92.06,33.251],[-92.051,33.227],[-91.972,33.181],[-91.952,33.186],[-91.928,33.225],[-91.884,33.381],[-91.912,33.423],[-91.959,33.387]]]}},{"type":"Feature","properties":{"density":2},"geometry":{"type":"Polygon","coordinates":[[[-105.273,42.01],[-105.323,41.986],[-105.316,41.946],[-105.205,41.922],[-105.011,41.957],[-104.717,41.964],[-104.573,41.999],[-104.23,41.968],[-104.201,41.979],[-104.212,42.014],[-104.283,42.049],[-104.722,42.107],[-104.899,42.096],[-105.273,42.01]]]}},{"type":"Feature","properties":{"density":2},"geometry":{"type":"Polygon","coordinates":[[[-115.59,46.609],[-115.841,46.605],[-115.964,46.576],[-116.203,46.456],[-116.279,46.401],[-116.28,46.379],[-116.225,46.318],[-116.24,46.219],[-116.148,46.184],[-116.154,46.109],[-116.139,46.078],[-116.065,46.056],[-115.97,46.113],[-115.86,46.144],[-115.707,46.157],[-115.538,46.149],[-115.479,46.171],[-115.465,46.217],[-115.485,46.234],[-115.65,46.241],[-115.672,46.256],[-115.674,46.282],[-115.597,46.329],[-115.617,46.362],[-115.757,46.37],[-115.812,46.401],[-115.814,46.423],[-115.647,46.519],[-115.481,46.557],[-115.478,46.574],[-115.5,46.596],[-115.59,46.609]]]}},{"type":"Feature","properties":{"density":2},"geometry":{"type":"Polygon","coordinates":[[[-116.47,46.423],[-116.489,46.397],[-116.466,46.382],[-116.268,46.465],[-115.967,46.49],[-115.807,46.519],[-115.725,46.585],[-115.719,46.638],[-115.734,46.653],[-115.807,46.658],[-116.087,46.59],[-116.255,46.533],[-116.47,46.423]]]}},{"type":"Feature","properties":{"density":2},"geometry":{"type":"Polygon","coordinates":[[[-117.207,47.261],[-117.318,47.185],[-117.321,47.141],[-117.276,47.132],[-117.252,47.143],[-117.131,47.24],[-117.145,47.26],[-117.207,47.261]]]}},{"type":"Feature","properties":{"density":2},"geometry":{"type":"Polygon","coordinates":[[[-120.845,48.404],[-120.864,48.388],[-120.862,48.361],[-120.747,48.326],[-120.586,48.135],[-120.498,48.057],[-120.29,47.993],[-120.241,47.95],[-120.218,47.955],[-120.213,47.992],[-120.24,48.021],[-120.421,48.094],[-120.553,48.196],[-120.682,48.375],[-120.764,48.417],[-120.845,48.404]]]}},{"type":"Feature","properties":{"density":2},"geometry":{"type":"Polygon","coordinates":[[[-120.302,47.917],[-120.246,47.873],[-120.163,47.862],[-120.129,47.774],[-120.156,47.767],[-120.19,47.829],[-120.34,47.898],[-120.335,47.923],[-120.302,47.917]]]}},{"type":"Feature","properties":{"density":2},"geometry":{"type":"Polygon","coordinates":[[[-124.008,40.983],[-124.044,40.971],[-124.016,40.92],[-123.916,40.915],[-123.91,40.941],[-123.926,40.961],[-124.008,40.983]]]}},{"type":"Feature","properties":{"density":2},"geometry":{"type":"Polygon","coordinates":[[[-122.194,38.509],[-122.197,38.488],[-122.165,38.476],[-122.151,38.436],[-122.123,38.414],[-122.039,38.442],[-122.043,38.475],[-122.062,38.49],[-122.194,38.509]]]}},{"type":"Feature","properties":{"density":2},"geometry":{"type":"Polygon","coordinates":[[[-121.379,36.0],[-121.44,36.022],[-121.595,36.023],[-121.622,36.038],[-121.639,36.08],[-121.676,36.087],[-121.785,36.021],[-121.996,36.018],[-122.036,35.962],[-122.105,35.924],[-122.118,35.895],[-122.095,35.875],[-122.044,35.868],[-121.997,35.822],[-121.93,35.817],[-121.605,35.901],[-121.372,35.934],[-121.352,35.958],[-121.379,36.0]]]}},{"type":"Feature","properties":{"density":2},"geometry":{"type":"Polygon","coordinates":[[[-93.015,18.402],[-93.102,18.42],[-93.257,18.42],[-93.493,18.389],[-93.623,18.414],[-93.734,18.451],[-93.815,18.507],[-93.883,18.569],[-94.02,18.743],[-94.1,18.798],[-94.206,18.842],[-94.305,18.829],[-94.367,18.774],[-94.522,18.495],[-94.59,18.408],[-94.702,18.309],[-94.968,18.129],[-95.123,17.992],[-95.291,17.899],[-95.353,17.85],[-95.39,17.788],[-95.408,17.707],[-95.39,17.645],[-95.284,17.534],[-95.229,17.459],[-95.21,17.403],[-95.216,17.106],[-95.198,16.932],[-95.16,16.839],[-95.08,16.727],[-94.838,16.591],[-94.745,16.597],[-94.553,16.734],[-94.361,16.938],[-94.292,16.976],[-94.082,17.025],[-93.784,17.025],[-93.685,17.044],[-93.524,17.112],[-93.338,17.217],[-93.195,17.23],[-92.872,17.217],[-92.711,17.255],[-92.55,17.335],[-92.519,17.372],[-92.482,17.496],[-92.482,17.645],[-92.5,17.701],[-92.618,17.813],[-92.823,17.899],[-92.829,17.986],[-92.73,18.098],[-92.724,18.141],[-92.742,18.197],[-92.779,18.271],[-92.866,18.34],[-93.015,18.402]]]}},{"type":"Feature","properties":{"density":2},"geometry":{"type":"Polygon","coordinates":[[[-60.769,51.113],[-61.026,51.14],[-61.324,51.126],[-61.555,51.045],[-61.907,50.801],[-62.151,50.707],[-62.354,50.666],[-62.638,50.652],[-63.316,50.707],[-63.519,50.747],[-63.735,50.747],[-64.047,50.72],[-64.25,50.652],[-64.467,50.53],[-64.657,50.354],[-64.792,50.151],[-64.914,49.853],[-64.995,49.596],[-65.076,49.257],[-65.117,48.973],[-65.131,48.729],[-65.036,48.458],[-64.9,48.201],[-64.657,47.835],[-64.277,47.456],[-64.101,47.253],[-63.979,46.982],[-63.884,46.602],[-63.83,46.25],[-63.763,45.153],[-63.708,44.814],[-63.614,44.476],[-63.478,44.178],[-63.356,43.988],[-63.139,43.744],[-62.814,43.541],[-62.489,43.406],[-62.137,43.352],[-61.826,43.419],[-61.541,43.555],[-61.338,43.69],[-61.148,43.921],[-60.85,44.476],[-60.728,44.855],[-60.688,45.302],[-60.715,45.817],[-60.783,46.128],[-60.891,46.399],[-60.972,46.697],[-61.013,47.009],[-61.013,47.374],[-60.945,47.781],[-60.837,48.065],[-60.647,48.363],[-60.498,48.539],[-60.173,48.77],[-59.983,48.946],[-59.726,49.217],[-59.604,49.46],[-59.55,49.758],[-59.537,50.056],[-59.631,50.3],[-59.78,50.544],[-59.997,50.761],[-60.295,50.964],[-60.498,51.059],[-60.769,51.113]]]}},{"type":"Feature","properties":{"density":2},"geometry":{"type":"Polygon","coordinates":[[[-56.177,56.673],[-55.71,56.693],[-54.938,56.572],[-54.349,56.45],[-53.231,56.145],[-52.236,55.799],[-51.789,55.678],[-51.342,55.596],[-50.793,55.535],[-50.082,55.515],[-49.757,55.474],[-49.534,55.393],[-49.33,55.19],[-49.188,54.845],[-49.087,54.418],[-48.904,54.072],[-48.66,53.808],[-48.355,53.646],[-47.461,53.361],[-47.299,53.219],[-47.177,53.057],[-47.156,52.792],[-47.238,52.528],[-47.502,52.264],[-47.888,52.041],[-48.375,51.858],[-49.676,51.492],[-50.265,51.37],[-51.504,50.801],[-52.033,50.497],[-52.744,50.172],[-53.069,50.05],[-53.495,50.009],[-53.942,49.989],[-54.471,50.009],[-54.958,50.09],[-56.015,50.476],[-56.299,50.639],[-56.706,50.842],[-57.153,51.187],[-57.742,51.553],[-59.327,52.224],[-59.692,52.467],[-60.058,52.752],[-60.403,53.138],[-60.525,53.565],[-60.505,54.133],[-60.2,54.702],[-59.814,55.068],[-59.327,55.373],[-58.758,55.637],[-57.661,56.226],[-57.193,56.389],[-56.177,56.673]]]}},{"type":"Feature","properties":{"density":2},"geometry":{"type":"Polygon","coordinates":[[[-37.506,67.736],[-36.744,67.492],[-35.951,67.157],[-35.342,66.791],[-34.793,66.334],[-34.519,65.633],[-34.397,64.871],[-34.397,64.14],[-34.488,63.256],[-34.641,62.25],[-34.824,61.214],[-35.22,60.147],[-35.829,59.264],[-36.591,58.502],[-37.445,57.679],[-38.42,57.1],[-39.487,56.917],[-40.614,56.917],[-41.925,57.039],[-43.906,57.648],[-44.759,57.953],[-45.521,58.258],[-46.283,58.685],[-46.831,59.111],[-47.38,59.386],[-48.142,59.538],[-49.269,59.904],[-51.464,60.726],[-54.268,61.946],[-54.603,62.281],[-54.786,62.677],[-54.755,63.226],[-54.268,63.835],[-53.749,64.231],[-53.201,64.384],[-52.5,64.414],[-51.768,64.231],[-51.007,63.866],[-50.367,63.53],[-49.269,63.195],[-48.386,63.134],[-47.471,63.256],[-46.313,63.286],[-45.277,63.286],[-44.576,63.195],[-43.814,63.043],[-43.113,63.012],[-42.351,63.165],[-41.315,63.53],[-40.767,63.926],[-40.34,64.353],[-40.035,64.902],[-39.7,65.389],[-39.487,65.968],[-39.212,66.456],[-38.877,66.883],[-37.993,67.584],[-37.506,67.736]]]}},{"type":"Feature","properties":{"density":3},"geometry":{"type":"Polygon","coordinates":[[[-122.78,61.189],[-122.833,61.228],[-122.984,61.28],[-123.29,61.324],[-123.375,61.374],[-123.392,61.432],[-123.378,61.523],[-123.312,61.594],[-123.138,61.597],[-122.943,61.523],[-122.747,61.426],[-122.623,61.415],[-122.477,61.322],[-122.441,61.269],[-122.433,61.209],[-122.447,61.184],[-122.499,61.164],[-122.78,61.189]]]}},{"type":"Feature","properties":{"density":3},"geometry":{"type":"Polygon","coordinates":[[[-120.821,48.391],[-120.844,48.375],[-120.711,48.343],[-120.735,48.369],[-120.821,48.391]]]}},{"type":"Feature","properties":{"density":3},"geometry":{"type":"Polygon","coordinates":[[[-122.945,61.4],[-123.004,61.372],[-122.975,61.352],[-122.925,61.348],[-122.775,61.356],[-122.754,61.37],[-122.795,61.401],[-122.835,61.409],[-122.945,61.4]]]}},{"type":"Feature","properties":{"density":3},"geometry":{"type":"Polygon","coordinates":[[[-122.655,61.375],[-122.745,61.359],[-122.709,61.327],[-122.644,61.319],[-122.532,61.275],[-122.482,61.281],[-122.495,61.308],[-122.568,61.356],[-122.655,61.375]]]}},{"type":"Feature","properties":{"density":3},"geometry":{"type":"Polygon","coordinates":[[[-79.724,35.435],[-79.733,35.416],[-79.705,35.42],[-79.688,35.447],[-79.724,35.435]]]}},{"type":"Feature","properties":{"density":3},"geometry":{"type":"Polygon","coordinates":[[[-91.476,33.42],[-91.489,33.423],[-91.495,33.406],[-91.468,33.362],[-91.476,33.42]]]}},{"type":"Feature","properties":{"density":3},"geometry":{"type":"Polygon","coordinates":[[[-91.352,33.407],[-91.357,33.46],[-91.374,33.444],[-91.361,33.366],[-91.352,33.407]]]}},{"type":"Feature","properties":{"density":3},"geometry":{"type":"Polygon","coordinates":[[[-122.204,38.504],[-122.21,38.493],[-122.165,38.439],[-122.162,38.48],[-122.204,38.504]]]}},{"type":"Feature","properties":{"density":3},"geometry":{"type":"Polygon","coordinates":[[[-93.195,18.136],[-93.237,18.133],[-93.248,18.092],[-93.283,18.056],[-93.292,18.01],[-93.257,17.975],[-93.186,17.973],[-93.134,17.94],[-93.09,17.986],[-93.088,18.028],[-93.125,18.081],[-93.195,18.136]]]}},{"type":"Feature","properties":{"density":3},"geometry":{"type":"Polygon","coordinates":[[[-88.579,34.62],[-88.614,34.596],[-88.603,34.504],[-88.586,34.492],[-88.56,34.593],[-88.579,34.62]]]}},{"type":"Feature","properties":{"density":3},"geometry":{"type":"Polygon","coordinates":[[[-91.374,34.448],[-91.414,34.419],[-91.516,34.16],[-91.502,34.13],[-91.473,34.133],[-91.445,34.159],[-91.402,34.315],[-91.32,34.414],[-91.326,34.437],[-91.374,34.448]]]}},{"type":"Feature","properties":{"density":3},"geometry":{"type":"Polygon","coordinates":[[[-91.56,33.938],[-91.613,33.823],[-91.622,33.759],[-91.546,33.618],[-91.517,33.412],[-91.483,33.378],[-91.459,33.447],[-91.551,33.723],[-91.529,33.924],[-91.534,33.94],[-91.56,33.938]]]}},{"type":"Feature","properties":{"density":3},"geometry":{"type":"Polygon","coordinates":[[[-105.301,41.988],[-105.308,41.968],[-105.283,41.946],[-105.231,41.946],[-105.161,41.955],[-105.062,42.001],[-104.82,41.99],[-104.647,42.005],[-104.605,42.019],[-104.594,42.038],[-104.616,42.076],[-104.717,42.091],[-104.946,42.065],[-105.301,41.988]]]}},{"type":"Feature","properties":{"density":3},"geometry":{"type":"Polygon","coordinates":[[[-115.77,46.219],[-115.902,46.222],[-116.027,46.189],[-116.078,46.161],[-116.096,46.113],[-116.036,46.111],[-115.821,46.169],[-115.571,46.181],[-115.591,46.203],[-115.727,46.2],[-115.77,46.219]]]}},{"type":"Feature","properties":{"density":3},"geometry":{"type":"Polygon","coordinates":[[[-115.868,46.307],[-116.086,46.256],[-116.137,46.211],[-116.077,46.2],[-115.959,46.248],[-115.829,46.274],[-115.831,46.292],[-115.868,46.307]]]}},{"type":"Feature","properties":{"density":3},"geometry":{"type":"Polygon","coordinates":[[[-116.456,46.415],[-116.468,46.403],[-116.44,46.401],[-116.287,46.476],[-116.185,46.506],[-115.772,46.555],[-115.753,46.594],[-115.767,46.617],[-115.813,46.621],[-116.184,46.535],[-116.35,46.473],[-116.456,46.415]]]}},{"type":"Feature","properties":{"density":3},"geometry":{"type":"Polygon","coordinates":[[[-120.648,48.311],[-120.749,48.401],[-120.784,48.41],[-120.852,48.387],[-120.851,48.376],[-120.737,48.346],[-120.652,48.264],[-120.648,48.311]]]}},{"type":"Feature","properties":{"density":3},"geometry":{"type":"Polygon","coordinates":[[[-124.027,40.971],[-124.031,40.955],[-124.002,40.926],[-123.927,40.942],[-123.946,40.959],[-124.027,40.971]]]}},{"type":"Feature","properties":{"density":3},"geometry":{"type":"Polygon","coordinates":[[[-121.403,35.99],[-121.452,36.001],[-121.685,35.993],[-121.816,35.962],[-121.928,35.969],[-121.947,35.963],[-121.954,35.936],[-121.905,35.9],[-121.732,35.885],[-121.643,35.923],[-121.363,35.96],[-121.403,35.99]]]}},{"type":"Feature","properties":{"density":3},"geometry":{"type":"Polygon","coordinates":[[[-63.207,48.621],[-63.316,48.025],[-63.356,47.605],[-63.343,47.415],[-63.302,47.198],[-63.139,46.779],[-63.018,46.548],[-62.841,46.332],[-62.652,46.277],[-62.516,46.359],[-62.449,46.67],[-62.435,47.104],[-62.394,47.347],[-62.367,47.7],[-62.381,48.065],[-62.476,48.417],[-62.611,48.702],[-62.747,48.864],[-62.841,48.946],[-62.896,48.946],[-63.112,48.688],[-63.207,48.621]]]}}]}