{"type":"FeatureCollection","features":[{"type":"Feature","properties":{"density":1},"geometry":{"type":"Polygon","coordinates":[[[-81.439,29.049],[-81.251,29.052],[-80.853,28.975],[-80.787,28.986],[-80.75,29.055],[-80.775,29.101],[-80.807,29.121],[-80.933,29.138],[-81.376,29.132],[-81.457,29.112],[-81.477,29.078],[-81.462,29.058],[-81.439,29.049]]]}},{"type":"Feature","properties":{"density":1},"geometry":{"type":"Polygon","coordinates":[[[-108.317,34.041],[-108.252,33.837],[-108.184,33.711],[-108.143,33.673],[-108.061,33.654],[-108.004,33.652],[-107.943,33.692],[-107.916,33.724],[-107.905,33.799],[-107.964,33.94],[-108.029,34.001],[-108.115,34.047],[-108.239,34.07],[-108.309,34.049],[-108.317,34.041]]]}},{"type":"Feature","properties":{"density":1},"geometry":{"type":"Polygon","coordinates":[[[-118.825,46.06],[-118.82,45.884],[-118.838,45.798],[-118.953,45.562],[-119.069,45.446],[-119.177,45.407],[-119.306,45.39],[-119.404,45.403],[-119.739,45.502],[-119.765,45.554],[-119.765,45.627],[-119.739,45.734],[-119.679,45.811],[-119.37,45.961],[-119.172,46.009],[-118.984,46.077],[-118.863,46.09],[-118.838,46.077],[-118.825,46.06]]]}},{"type":"Feature","properties":{"density":1},"geometry":{"type":"Polygon","coordinates":[[[-118.879,46.367],[-118.935,46.356],[-119.051,46.298],[-119.114,46.241],[-119.141,46.174],[-119.12,46.151],[-119.07,46.144],[-118.889,46.22],[-118.826,46.291],[-118.836,46.333],[-118.87,46.363],[-118.879,46.367]]]}},{"type":"Feature","properties":{"density":1},"geometry":{"type":"Polygon","coordinates":[[[-127.144,64.924],[-128.245,65.156],[-129.037,65.272],[-129.424,65.349],[-129.617,65.436],[-129.695,65.591],[-129.733,65.736],[-129.733,65.88],[-129.656,66.006],[-129.54,66.083],[-129.24,66.112],[-129.057,66.054],[-128.245,65.88],[-128.023,65.861],[-127.26,65.929],[-126.564,65.851],[-126.11,65.774],[-125.752,65.639],[-125.433,65.465],[-125.298,65.272],[-125.279,65.136],[-125.327,64.934],[-125.53,64.827],[-126.4,64.798],[-126.96,64.847],[-127.105,64.885],[-127.144,64.924]]]}},{"type":"Feature","properties":{"density":1},"geometry":{"type":"Polygon","coordinates":[[[-106.865,46.059],[-105.126,45.929],[-103.887,45.668],[-103.148,45.407],[-102.257,45.059],[-101.3,44.581],[-100.343,44.233],[-98.974,43.929],[-97.713,43.755],[-96.604,43.581],[-95.691,43.494],[-94.191,43.472],[-92.147,43.146],[-90.713,43.037],[-89.756,43.233],[-89.147,43.668],[-88.321,44.385],[-87.712,44.646],[-87.256,44.711],[-86.799,44.668],[-86.625,44.516],[-86.43,44.277],[-86.365,43.864],[-86.473,43.581],[-86.647,43.342],[-87.321,42.95],[-88.06,42.276],[-89.147,40.994],[-89.756,40.342],[-90.452,39.863],[-91.495,39.102],[-92.626,38.45],[-93.713,38.102],[-94.734,37.928],[-96.648,37.928],[-97.3,38.081],[-98.539,38.407],[-99.148,38.95],[-100.691,40.102],[-101.256,40.798],[-102.083,41.755],[-102.561,42.19],[-103.344,42.603],[-104.322,42.972],[-105.235,43.277],[-105.931,43.624],[-106.931,44.364],[-108.039,45.124],[-108.648,45.342],[-109.018,45.69],[-109.039,45.777],[-108.996,46.038],[-108.909,46.146],[-108.692,46.211],[-108.452,46.211],[-108.083,46.146],[-107.387,46.103],[-106.865,46.059]]]}},{"type":"Feature","properties":{"density":1},"geometry":{"type":"Polygon","coordinates":[[[-72.108,41.91],[-73.772,41.567],[-74.946,40.736],[-76.266,40.295],[-77.978,39.268],[-79.397,38.241],[-80.424,37.458],[-81.207,36.676],[-82.185,35.893],[-84.386,34.523],[-87.223,32.469],[-88.593,31.246],[-89.327,29.876],[-89.473,28.751],[-88.837,27.382],[-87.761,26.697],[-87.028,26.306],[-85.756,25.768],[-84.337,25.572],[-82.576,25.719],[-80.718,26.55],[-79.201,27.186],[-77.587,28.116],[-76.217,29.094],[-74.994,30.072],[-72.695,31.05],[-71.424,32.273],[-70.641,33.79],[-69.761,36.431],[-69.565,37.507],[-69.516,38.632],[-69.565,39.513],[-69.956,40.98],[-70.543,41.616],[-71.13,41.91],[-71.637,41.944],[-72.108,41.91]]]}},{"type":"Feature","properties":{"density":1},"geometry":{"type":"Polygon","coordinates":[[[-114.622,29.445],[-114.329,29.787],[-113.644,30.178],[-113.253,30.178],[-112.079,29.787],[-111.247,29.151],[-110.318,28.369],[-109.682,27.292],[-108.997,25.825],[-108.361,24.602],[-106.453,21.471],[-105.133,20.493],[-103.665,19.955],[-101.513,19.564],[-100.926,19.368],[-100.198,19.067],[-99.361,18.683],[-97.6,17.998],[-95.888,16.776],[-95.448,16.042],[-95.056,15.064],[-95.056,14.526],[-96.035,13.4],[-97.355,12.96],[-98.969,12.96],[-100.926,12.813],[-102.394,13.107],[-105.133,13.987],[-106.307,14.966],[-107.285,15.895],[-108.166,16.971],[-108.801,17.901],[-109.535,18.732],[-110.66,19.515],[-112.274,21.325],[-113.302,22.45],[-114.378,23.526],[-115.014,24.896],[-115.258,25.727],[-115.503,26.461],[-115.552,27.488],[-115.258,28.32],[-114.965,29.004],[-114.622,29.445]]]}},{"type":"Feature","properties":{"density":1},"geometry":{"type":"Polygon","coordinates":[[[-121.367,38.665],[-120.993,38.691],[-120.856,38.729],[-120.774,38.768],[-120.736,38.832],[-120.753,38.935],[-120.989,39.0],[-121.414,39.017],[-121.732,38.991],[-121.973,38.897],[-122.093,38.815],[-122.187,38.725],[-122.2,38.656],[-122.187,38.605],[-122.127,38.553],[-122.024,38.54],[-121.921,38.549],[-121.513,38.652],[-121.423,38.656],[-121.367,38.665]]]}},{"type":"Feature","properties":{"density":1},"geometry":{"type":"Polygon","coordinates":[[[-129.084,65.772],[-129.259,65.802],[-129.907,66.035],[-130.022,66.039],[-130.076,66.012],[-130.12,65.958],[-130.117,65.829],[-129.982,65.718],[-129.283,65.512],[-128.966,65.448],[-128.554,65.414],[-128.449,65.387],[-128.007,65.117],[-127.838,65.05],[-127.518,64.982],[-127.197,64.982],[-127.059,65.003],[-127.008,65.08],[-127.005,65.205],[-127.039,65.293],[-127.103,65.35],[-127.572,65.478],[-127.99,65.57],[-128.439,65.64],[-128.929,65.742],[-129.084,65.772]]]}},{"type":"Feature","properties":{"density":1},"geometry":{"type":"Polygon","coordinates":[[[-119.073,45.4],[-119.137,45.245],[-119.117,45.174],[-119.06,45.15],[-118.982,45.197],[-118.874,45.302],[-118.732,45.545],[-118.712,45.606],[-118.712,45.801],[-118.773,45.947],[-118.793,46.095],[-118.824,46.129],[-118.908,46.139],[-118.952,46.119],[-119.009,46.078],[-119.043,46.021],[-119.07,45.855],[-119.07,45.531],[-119.043,45.437],[-119.073,45.4]]]}},{"type":"Feature","properties":{"density":1},"geometry":{"type":"Polygon","coordinates":[[[-107.887,33.694],[-107.87,33.796],[-107.894,33.883],[-107.951,33.998],[-108.025,34.076],[-108.191,34.15],[-108.231,34.15],[-108.275,34.14],[-108.383,34.069],[-108.407,34.005],[-108.37,33.931],[-108.12,33.613],[-108.079,33.583],[-108.032,33.573],[-107.971,33.59],[-107.907,33.64],[-107.887,33.694]]]}},{"type":"Feature","properties":{"density":1},"geometry":{"type":"Polygon","coordinates":[[[-76.407,28.536],[-76.468,28.506],[-76.822,28.242],[-76.913,28.151],[-77.106,27.873],[-77.369,27.417],[-77.495,27.235],[-77.749,26.967],[-77.799,26.865],[-77.794,26.794],[-77.754,26.754],[-77.587,26.734],[-77.475,26.794],[-77.121,27.037],[-77.014,27.169],[-76.944,27.286],[-76.741,27.736],[-76.609,27.888],[-76.316,28.126],[-76.184,28.278],[-76.174,28.435],[-76.235,28.516],[-76.285,28.541],[-76.326,28.541],[-76.407,28.536]]]}},{"type":"Feature","properties":{"density":1},"geometry":{"type":"Polygon","coordinates":[[[-86.049,30.389],[-86.13,30.495],[-86.362,30.632],[-86.474,30.667],[-86.697,30.698],[-86.778,30.657],[-86.818,30.617],[-86.803,30.536],[-86.276,30.288],[-86.17,30.136],[-86.089,30.126],[-86.033,30.161],[-86.008,30.222],[-86.008,30.333],[-86.049,30.389]]]}},{"type":"Feature","properties":{"density":1},"geometry":{"type":"Polygon","coordinates":[[[-93.156,51.452],[-93.536,51.521],[-93.71,51.521],[-93.824,51.475],[-93.9,51.399],[-93.923,51.354],[-93.862,51.247],[-93.741,51.179],[-93.627,51.141],[-93.407,51.019],[-93.346,51.004],[-93.141,51.004],[-93.019,51.088],[-92.928,51.202],[-92.921,51.316],[-92.966,51.338],[-93.057,51.422],[-93.156,51.452]]]}},{"type":"Feature","properties":{"density":1},"geometry":{"type":"Polygon","coordinates":[[[-99.049,48.433],[-99.428,48.817],[-99.494,48.848],[-99.58,48.863],[-99.671,48.807],[-99.682,48.731],[-99.661,48.66],[-99.444,48.377],[-99.125,48.21],[-99.074,48.2],[-99.018,48.21],[-98.978,48.245],[-98.988,48.377],[-99.049,48.433]]]}},{"type":"Feature","properties":{"density":1},"geometry":{"type":"Polygon","coordinates":[[[-126.996,65.821],[-127.113,65.769],[-127.278,65.758],[-129.255,65.762],[-129.393,65.749],[-129.514,65.672],[-129.618,65.582],[-129.771,65.285],[-129.775,65.157],[-129.759,65.112],[-129.687,65.02],[-129.584,64.948],[-129.453,64.941],[-129.233,64.959],[-128.691,65.085],[-128.088,65.076],[-127.478,64.968],[-127.174,64.968],[-127.116,64.984],[-127.001,65.065],[-126.963,65.137],[-126.949,65.227],[-126.9,65.366],[-126.643,65.623],[-126.555,65.746],[-126.54,65.823],[-126.553,65.922],[-126.778,65.931],[-126.909,65.884],[-126.996,65.821]]]}},{"type":"Feature","properties":{"density":1},"geometry":{"type":"Polygon","coordinates":[[[-118.595,45.61],[-118.673,45.526],[-118.838,45.293],[-118.916,45.239],[-118.976,45.225],[-119.025,45.276],[-119.037,45.357],[-119.017,45.495],[-119.145,45.576],[-119.369,45.672],[-119.381,45.738],[-119.341,45.84],[-119.192,45.991],[-119.003,46.12],[-118.946,46.14],[-118.868,46.143],[-118.794,46.11],[-118.794,46.002],[-118.828,45.86],[-118.808,45.796],[-118.666,45.735],[-118.578,45.718],[-118.531,45.674],[-118.55,45.654],[-118.595,45.61]]]}},{"type":"Feature","properties":{"density":1},"geometry":{"type":"Polygon","coordinates":[[[-120.279,46.477],[-120.195,46.562],[-120.171,46.629],[-120.191,46.67],[-120.326,46.71],[-120.401,46.704],[-120.526,46.643],[-120.671,46.542],[-120.742,46.413],[-120.752,46.326],[-120.725,46.278],[-120.627,46.251],[-120.441,46.359],[-120.36,46.44],[-120.279,46.477]]]}},{"type":"Feature","properties":{"density":1},"geometry":{"type":"Polygon","coordinates":[[[-71.298,17.81],[-71.503,17.673],[-71.959,17.411],[-72.118,17.286],[-72.357,17.149],[-72.574,16.99],[-73.166,16.717],[-74.237,16.352],[-75.148,16.238],[-75.854,16.193],[-76.264,16.215],[-76.595,16.352],[-76.697,16.466],[-76.731,16.694],[-76.72,16.933],[-76.424,17.172],[-76.002,17.377],[-75.57,17.537],[-75.034,17.673],[-74.51,17.89],[-74.146,17.992],[-73.656,18.084],[-72.767,18.22],[-72.597,18.289],[-72.209,18.346],[-71.799,18.402],[-71.264,18.414],[-71.196,18.402],[-71.116,18.346],[-71.047,18.243],[-71.013,18.129],[-71.025,17.981],[-71.139,17.878],[-71.298,17.81]]]}},{"type":"Feature","properties":{"density":1},"geometry":{"type":"Polygon","coordinates":[[[-76.487,28.482],[-76.973,28.158],[-77.135,28.006],[-77.241,27.879],[-77.499,27.51],[-77.747,27.237],[-77.843,27.024],[-77.864,26.897],[-77.823,26.801],[-77.752,26.74],[-77.661,26.72],[-77.555,26.72],[-77.388,26.781],[-76.745,27.125],[-76.547,27.257],[-76.411,27.378],[-76.365,27.454],[-76.34,27.54],[-76.304,27.793],[-76.218,27.94],[-76.087,28.092],[-76.041,28.168],[-76.011,28.254],[-76.006,28.34],[-76.031,28.497],[-76.061,28.533],[-76.107,28.553],[-76.244,28.568],[-76.365,28.533],[-76.487,28.482]]]}},{"type":"Feature","properties":{"density":1},"geometry":{"type":"Polygon","coordinates":[[[-108.001,34.176],[-108.175,34.153],[-108.357,34.077],[-108.418,34.001],[-108.433,33.941],[-108.418,33.842],[-108.304,33.804],[-108.054,33.811],[-107.583,34.039],[-107.53,34.077],[-107.469,34.161],[-107.537,34.229],[-107.689,34.229],[-107.94,34.176],[-108.001,34.176]]]}},{"type":"Feature","properties":{"density":1},"geometry":{"type":"Polygon","coordinates":[[[-117.503,32.786],[-117.881,32.881],[-118.242,32.928],[-118.451,32.925],[-118.502,32.888],[-118.505,32.854],[-118.495,32.837],[-118.421,32.823],[-118.121,32.796],[-117.776,32.678],[-117.513,32.638],[-117.439,32.685],[-117.432,32.729],[-117.469,32.773],[-117.503,32.786]]]}},{"type":"Feature","properties":{"density":1},"geometry":{"type":"Polygon","coordinates":[[[-115.839,33.718],[-115.984,33.704],[-116.096,33.65],[-116.16,33.596],[-116.173,33.525],[-116.099,33.441],[-116.018,33.448],[-115.957,33.475],[-115.802,33.576],[-115.755,33.63],[-115.755,33.687],[-115.805,33.718],[-115.839,33.718]]]}},{"type":"Feature","properties":{"density":1},"geometry":{"type":"Polygon","coordinates":[[[-96.313,15.912],[-96.484,16.168],[-96.757,16.51],[-97.167,17.074],[-97.577,17.894],[-97.646,18.013],[-97.782,18.167],[-98.004,18.526],[-98.346,18.851],[-98.808,19.107],[-99.491,19.346],[-100.089,19.397],[-100.926,19.688],[-102.02,20.166],[-102.293,20.166],[-102.43,20.183],[-103.079,20.183],[-103.352,20.2],[-103.745,20.303],[-104.565,20.611],[-105.3,20.918],[-106.274,20.901],[-108.957,20.901],[-109.691,20.918],[-110.204,20.952],[-110.614,21.021],[-111.417,21.397],[-111.724,21.807],[-111.827,22.439],[-111.827,22.968],[-111.947,23.532],[-112.22,24.369],[-112.545,24.916],[-113.023,25.634],[-113.194,26.01],[-113.296,26.317],[-113.587,26.881],[-113.775,27.308],[-114.134,27.65],[-114.697,27.701],[-115.227,27.462],[-115.33,27.069],[-115.21,26.625],[-114.937,26.232],[-114.39,25.19],[-113.587,23.874],[-113.126,22.678],[-112.75,21.875],[-112.408,20.935],[-112.032,19.995],[-111.724,19.397],[-111.349,18.868],[-110.785,18.355],[-110.255,18.013],[-109.777,17.826],[-108.752,17.603],[-108.444,17.569],[-106.445,17.569],[-104.907,17.245],[-103.882,16.886],[-103.233,16.578],[-102.071,15.963],[-101.131,15.519],[-99.867,15.006],[-99.149,14.818],[-97.492,14.443],[-96.791,14.357],[-96.45,14.357],[-96.245,14.46],[-96.074,14.596],[-96.005,14.801],[-96.005,15.126],[-96.022,15.28],[-96.108,15.621],[-96.313,15.912]]]}},{"type":"Feature","properties":{"density":1},"geometry":{"type":"Polygon","coordinates":[[[-80.705,36.095],[-78.629,37.44],[-75.554,38.555],[-74.323,38.901],[-72.901,38.863],[-72.094,38.786],[-70.479,38.517],[-69.21,38.171],[-67.865,37.479],[-67.134,36.71],[-67.096,36.325],[-67.634,35.518],[-68.941,34.634],[-70.248,34.057],[-71.978,33.327],[-73.939,32.289],[-75.169,31.558],[-75.823,30.905],[-77.053,29.559],[-77.937,28.829],[-79.167,27.945],[-80.167,27.56],[-81.474,27.406],[-83.973,27.637],[-85.395,27.791],[-86.894,28.098],[-87.279,28.444],[-87.586,29.406],[-87.586,30.444],[-87.317,31.059],[-86.625,31.866],[-85.933,32.558],[-83.704,34.288],[-82.589,35.018],[-81.551,35.787],[-80.705,36.095]]]}},{"type":"Feature","properties":{"density":1},"geometry":{"type":"Polygon","coordinates":[[[-118.807,46.438],[-118.939,46.452],[-119.04,46.445],[-119.161,46.374],[-119.219,46.273],[-119.276,46.06],[-119.401,45.8],[-119.495,45.638],[-119.735,45.311],[-119.813,45.166],[-119.843,45.051],[-119.732,44.984],[-119.56,44.974],[-119.259,45.071],[-118.996,45.173],[-118.841,45.26],[-118.736,45.328],[-118.53,45.5],[-118.453,45.605],[-118.453,45.713],[-118.594,45.925],[-118.652,46.172],[-118.665,46.32],[-118.685,46.374],[-118.736,46.408],[-118.807,46.438]]]}},{"type":"Feature","properties":{"density":1},"geometry":{"type":"Polygon","coordinates":[[[-119.408,46.33],[-119.468,46.374],[-119.647,46.391],[-119.725,46.374],[-119.87,46.246],[-119.958,46.05],[-120.187,45.699],[-120.197,45.595],[-120.15,45.53],[-120.062,45.47],[-119.948,45.476],[-119.836,45.534],[-119.732,45.618],[-119.59,45.777],[-119.418,46.07],[-119.384,46.175],[-119.377,46.29],[-119.408,46.33]]]}},{"type":"Feature","properties":{"density":1},"geometry":{"type":"Polygon","coordinates":[[[-120.211,46.357],[-120.623,46.361],[-120.734,46.34],[-120.835,46.313],[-121.034,46.175],[-121.129,46.043],[-121.169,45.915],[-121.041,45.46],[-120.97,45.358],[-120.818,45.308],[-120.748,45.328],[-120.214,45.851],[-120.174,45.908],[-120.12,46.064],[-120.113,46.212],[-120.127,46.286],[-120.157,46.317],[-120.211,46.357]]]}},{"type":"Feature","properties":{"density":2},"geometry":{"type":"Polygon","coordinates":[[[-108.302,34.043],[-108.224,33.938],[-108.166,33.892],[-108.092,33.881],[-108.077,33.9],[-108.1,33.942],[-108.225,34.028],[-108.269,34.055],[-108.306,34.047],[-108.302,34.043]]]}},{"type":"Feature","properties":{"density":2},"geometry":{"type":"Polygon","coordinates":[[[-118.876,46.039],[-118.876,45.966],[-118.915,45.88],[-118.953,45.837],[-119.095,45.742],[-119.228,45.717],[-119.288,45.725],[-119.327,45.768],[-119.353,45.815],[-119.349,45.863],[-119.318,45.897],[-119.267,45.927],[-119.035,46.004],[-118.945,46.069],[-118.893,46.06],[-118.876,46.039]]]}},{"type":"Feature","properties":{"density":2},"geometry":{"type":"Polygon","coordinates":[[[-128.112,65.293],[-127.892,65.138],[-127.565,65.087],[-127.197,65.077],[-127.12,65.127],[-127.106,65.175],[-127.177,65.31],[-127.396,65.32],[-127.724,65.394],[-128.014,65.424],[-128.102,65.414],[-128.122,65.397],[-128.129,65.347],[-128.112,65.293]]]}},{"type":"Feature","properties":{"density":2},"geometry":{"type":"Polygon","coordinates":[[[-118.81,45.558],[-118.78,45.666],[-118.78,45.761],[-118.817,45.859],[-118.83,46.017],[-118.851,46.082],[-118.881,46.105],[-118.928,46.109],[-118.992,46.078],[-119.009,45.994],[-119.016,45.457],[-118.996,45.427],[-118.948,45.413],[-118.881,45.457],[-118.84,45.508],[-118.81,45.558]]]}},{"type":"Feature","properties":{"density":2},"geometry":{"type":"Polygon","coordinates":[[[-108.032,33.917],[-108.238,34.099],[-108.302,34.099],[-108.363,34.045],[-108.366,33.985],[-108.221,33.91],[-108.1,33.721],[-108.019,33.715],[-107.981,33.745],[-107.965,33.85],[-107.992,33.877],[-108.032,33.917]]]}},{"type":"Feature","properties":{"density":2},"geometry":{"type":"Polygon","coordinates":[[[-77.37,27.346],[-77.381,27.289],[-77.444,27.179],[-77.665,27.01],[-77.703,26.889],[-77.676,26.833],[-77.622,26.812],[-77.588,26.817],[-77.428,26.925],[-77.332,27.01],[-77.255,27.125],[-77.064,27.35],[-77.071,27.44],[-77.118,27.476],[-77.244,27.463],[-77.352,27.4],[-77.361,27.375],[-77.37,27.346]]]}},{"type":"Feature","properties":{"density":2},"geometry":{"type":"Polygon","coordinates":[[[-126.967,65.713],[-127.048,65.674],[-127.797,65.663],[-128.02,65.614],[-128.103,65.555],[-128.18,65.47],[-128.218,65.335],[-128.173,65.285],[-127.858,65.184],[-127.694,65.155],[-127.561,65.152],[-127.422,65.119],[-127.343,65.078],[-127.174,65.078],[-127.116,65.114],[-127.084,65.157],[-127.003,65.335],[-126.832,65.557],[-126.83,65.681],[-126.85,65.704],[-126.922,65.717],[-126.967,65.713]]]}},{"type":"Feature","properties":{"density":2},"geometry":{"type":"Polygon","coordinates":[[[-118.919,45.921],[-118.889,45.954],[-118.862,46.039],[-118.872,46.066],[-118.895,46.076],[-118.949,46.072],[-118.99,46.042],[-119.01,45.995],[-118.997,45.917],[-118.949,45.904],[-118.919,45.921]]]}},{"type":"Feature","properties":{"density":2},"geometry":{"type":"Polygon","coordinates":[[[-76.638,28.3],[-76.897,28.082],[-77.038,27.935],[-77.372,27.525],[-77.595,27.312],[-77.747,27.14],[-77.793,26.953],[-77.793,26.897],[-77.707,26.781],[-77.6,26.766],[-77.534,26.786],[-77.317,26.902],[-77.008,27.115],[-76.557,27.348],[-76.441,27.48],[-76.426,27.561],[-76.456,27.596],[-76.562,27.642],[-76.593,27.672],[-76.588,27.768],[-76.527,27.854],[-76.375,27.996],[-76.335,28.057],[-76.335,28.148],[-76.37,28.214],[-76.456,28.29],[-76.588,28.31],[-76.638,28.3]]]}},{"type":"Feature","properties":{"density":2},"geometry":{"type":"Polygon","coordinates":[[[-115.998,33.677],[-116.139,33.583],[-116.146,33.529],[-116.133,33.495],[-116.048,33.482],[-115.876,33.563],[-115.856,33.593],[-115.869,33.65],[-115.974,33.677],[-115.998,33.677]]]}},{"type":"Feature","properties":{"density":2},"geometry":{"type":"Polygon","coordinates":[[[-101.932,18.645],[-102.158,18.527],[-102.405,18.348],[-102.479,18.223],[-102.493,18.149],[-102.482,17.994],[-102.52,17.906],[-102.628,17.818],[-102.736,17.784],[-102.864,17.808],[-102.985,17.936],[-103.033,18.038],[-103.033,18.105],[-103.053,18.152],[-103.397,18.399],[-103.667,18.726],[-103.812,18.837],[-103.829,18.935],[-103.805,19.064],[-103.728,19.219],[-103.657,19.29],[-103.525,19.357],[-103.39,19.371],[-103.296,19.357],[-103.195,19.31],[-103.1,19.232],[-102.925,19.134],[-102.685,19.06],[-102.125,18.976],[-101.939,18.915],[-101.892,18.891],[-101.841,18.804],[-101.841,18.767],[-101.882,18.686],[-101.932,18.645]]]}},{"type":"Feature","properties":{"density":2},"geometry":{"type":"Polygon","coordinates":[[[-118.854,46.415],[-118.996,46.418],[-119.074,46.374],[-119.205,46.189],[-119.232,46.121],[-119.219,46.047],[-119.165,46.016],[-118.962,46.03],[-118.8,46.131],[-118.756,46.219],[-118.75,46.33],[-118.76,46.367],[-118.81,46.394],[-118.854,46.415]]]}},{"type":"Feature","properties":{"density":2},"geometry":{"type":"Polygon","coordinates":[[[-119.57,46.354],[-119.681,46.344],[-119.813,46.243],[-119.877,46.131],[-119.894,46.003],[-119.884,45.966],[-119.819,45.935],[-119.765,45.935],[-119.684,45.969],[-119.566,46.047],[-119.468,46.222],[-119.468,46.283],[-119.512,46.337],[-119.57,46.354]]]}},{"type":"Feature","properties":{"density":2},"geometry":{"type":"Polygon","coordinates":[[[-120.278,46.327],[-120.437,46.324],[-120.488,46.307],[-120.643,46.192],[-120.768,46.057],[-120.805,45.966],[-120.812,45.851],[-120.798,45.777],[-120.754,45.726],[-120.704,45.692],[-120.542,45.726],[-120.383,45.811],[-120.211,45.989],[-120.184,46.05],[-120.164,46.205],[-120.231,46.307],[-120.278,46.327]]]}},{"type":"Feature","properties":{"density":3},"geometry":{"type":"Polygon","coordinates":[[[-127.791,65.175],[-127.609,65.175],[-127.248,65.124],[-127.207,65.134],[-127.194,65.168],[-127.211,65.212],[-127.261,65.235],[-127.437,65.252],[-127.757,65.34],[-127.822,65.34],[-127.876,65.306],[-127.882,65.198],[-127.838,65.178],[-127.791,65.175]]]}},{"type":"Feature","properties":{"density":3},"geometry":{"type":"Polygon","coordinates":[[[-118.888,45.923],[-118.867,45.97],[-118.867,46.028],[-118.891,46.071],[-118.948,46.085],[-118.996,46.028],[-118.996,45.909],[-118.942,45.842],[-118.905,45.849],[-118.888,45.893],[-118.888,45.923]]]}},{"type":"Feature","properties":{"density":3},"geometry":{"type":"Polygon","coordinates":[[[-77.487,27.127],[-77.55,27.085],[-77.635,26.972],[-77.658,26.902],[-77.649,26.851],[-77.622,26.839],[-77.602,26.851],[-77.363,27.062],[-77.359,27.121],[-77.377,27.141],[-77.442,27.145],[-77.487,27.127]]]}},{"type":"Feature","properties":{"density":3},"geometry":{"type":"Polygon","coordinates":[[[-126.996,65.474],[-127.192,65.339],[-127.219,65.245],[-127.219,65.157],[-127.237,65.128],[-127.296,65.11],[-127.345,65.112],[-127.714,65.249],[-127.968,65.38],[-127.991,65.434],[-127.98,65.515],[-127.946,65.553],[-127.845,65.614],[-127.75,65.611],[-127.676,65.575],[-127.604,65.461],[-127.496,65.382],[-127.455,65.375],[-127.392,65.389],[-127.329,65.425],[-127.221,65.524],[-127.116,65.593],[-127.005,65.596],[-126.949,65.578],[-126.936,65.533],[-126.965,65.485],[-126.996,65.474]]]}},{"type":"Feature","properties":{"density":3},"geometry":{"type":"Polygon","coordinates":[[[-76.861,27.945],[-77.054,27.783],[-77.16,27.652],[-77.256,27.358],[-77.362,27.237],[-77.626,27.029],[-77.696,26.862],[-77.671,26.821],[-77.61,26.816],[-77.529,26.862],[-77.302,27.014],[-77.018,27.176],[-76.866,27.307],[-76.851,27.343],[-76.861,27.419],[-76.902,27.459],[-76.927,27.525],[-76.922,27.591],[-76.851,27.702],[-76.517,27.966],[-76.507,28.077],[-76.568,28.158],[-76.618,28.158],[-76.699,28.128],[-76.8,28.011],[-76.861,27.945]]]}},{"type":"Feature","properties":{"density":3},"geometry":{"type":"Polygon","coordinates":[[[-118.837,46.391],[-118.932,46.398],[-118.989,46.381],[-119.036,46.344],[-119.067,46.31],[-119.151,46.138],[-119.117,46.091],[-119.04,46.067],[-118.962,46.084],[-118.847,46.155],[-118.79,46.253],[-118.78,46.31],[-118.793,46.367],[-118.837,46.391]]]}},{"type":"Feature","properties":{"density":3},"geometry":{"type":"Polygon","coordinates":[[[-119.563,46.337],[-119.654,46.327],[-119.708,46.3],[-119.819,46.189],[-119.84,46.138],[-119.836,46.043],[-119.796,46.01],[-119.691,46.01],[-119.583,46.084],[-119.516,46.212],[-119.509,46.28],[-119.522,46.31],[-119.563,46.337]]]}},{"type":"Feature","properties":{"density":3},"geometry":{"type":"Polygon","coordinates":[[[-120.231,46.243],[-120.278,46.283],[-120.434,46.283],[-120.599,46.175],[-120.69,46.084],[-120.744,45.983],[-120.751,45.895],[-120.714,45.814],[-120.677,45.777],[-120.575,45.78],[-120.356,45.905],[-120.255,46.02],[-120.214,46.104],[-120.204,46.189],[-120.231,46.243]]]}}]}