{"type":"FeatureCollection","features":[{"type":"Feature","properties":{"density":1},"geometry":{"type":"Polygon","coordinates":[[[-81.977,27.704],[-81.889,27.626],[-81.813,27.596],[-81.754,27.606],[-81.754,27.655],[-81.85,27.726],[-81.938,27.734],[-81.973,27.717],[-81.977,27.704]]]}},{"type":"Feature","properties":{"density":1},"geometry":{"type":"Polygon","coordinates":[[[-83.537,33.819],[-83.45,33.773],[-83.288,33.624],[-83.231,33.598],[-83.157,33.607],[-83.184,33.691],[-83.272,33.769],[-83.449,33.843],[-83.498,33.846],[-83.536,33.82],[-83.537,33.819]]]}},{"type":"Feature","properties":{"density":1},"geometry":{"type":"Polygon","coordinates":[[[-77.71,34.887],[-77.694,34.771],[-77.707,34.665],[-77.69,34.645],[-77.648,34.642],[-77.62,34.66],[-77.599,34.756],[-77.641,34.864],[-77.687,34.902],[-77.707,34.9],[-77.71,34.887]]]}},{"type":"Feature","properties":{"density":1},"geometry":{"type":"Polygon","coordinates":[[[-76.366,35.488],[-76.402,35.333],[-76.38,35.24],[-76.33,35.184],[-76.24,35.186],[-76.176,35.245],[-76.174,35.289],[-76.22,35.361],[-76.354,35.5],[-76.366,35.488]]]}},{"type":"Feature","properties":{"density":1},"geometry":{"type":"Polygon","coordinates":[[[-103.468,42.734],[-103.891,42.071],[-104.14,41.64],[-104.305,41.242],[-104.562,41.068],[-104.827,41.01],[-105.267,40.994],[-105.714,41.093],[-106.153,41.275],[-106.501,41.532],[-106.907,41.897],[-107.148,42.278],[-107.156,42.576],[-106.99,42.825],[-106.684,42.924],[-106.253,42.957],[-105.863,42.883],[-104.919,42.634],[-104.579,42.601],[-104.231,42.643],[-103.891,42.8],[-103.535,42.866],[-103.444,42.808],[-103.46,42.767],[-103.468,42.734]]]}},{"type":"Feature","properties":{"density":1},"geometry":{"type":"Polygon","coordinates":[[[-108.368,34.054],[-108.159,33.485],[-108.131,33.358],[-108.17,32.966],[-108.17,32.524],[-108.153,32.342],[-108.054,32.181],[-107.855,32.071],[-107.623,32.016],[-107.092,32.016],[-106.673,32.087],[-106.153,32.209],[-105.676,32.366],[-104.942,32.752],[-103.886,33.423],[-103.177,33.759],[-102.233,33.945],[-101.524,34.107],[-100.791,34.455],[-100.381,34.778],[-100.145,35.437],[-100.194,35.872],[-100.244,36.095],[-100.99,36.282],[-101.76,36.356],[-103.327,36.145],[-104.619,35.685],[-105.601,35.3],[-106.223,34.977],[-106.968,34.343],[-107.366,34.194],[-107.888,34.119],[-108.311,34.119],[-108.368,34.054]]]}},{"type":"Feature","properties":{"density":1},"geometry":{"type":"Polygon","coordinates":[[[-92.141,45.825],[-95.581,45.825],[-98.014,45.602],[-100.671,44.986],[-101.845,44.455],[-102.768,43.868],[-103.635,43.56],[-104.39,43.336],[-105.677,43.252],[-106.432,43.14],[-107.047,43.085],[-107.55,42.637],[-107.662,41.994],[-107.438,41.211],[-106.711,40.4],[-105.816,40.12],[-104.362,40.12],[-103.439,40.344],[-102.74,40.931],[-101.901,41.546],[-98.741,42.861],[-96.783,43.7],[-95.553,43.924],[-94.098,43.924],[-92.588,43.7],[-91.498,43.476],[-90.435,43.14],[-89.848,43.001],[-89.204,42.917],[-88.729,43.029],[-88.309,43.336],[-88.198,43.756],[-88.253,44.315],[-88.393,44.735],[-88.561,45.042],[-89.092,45.49],[-89.624,45.713],[-90.323,45.853],[-91.553,45.853],[-92.141,45.825]]]}},{"type":"Feature","properties":{"density":1},"geometry":{"type":"Polygon","coordinates":[[[-72.005,39.826],[-75.151,38.526],[-77.123,37.393],[-78.843,35.925],[-80.227,34.415],[-81.57,32.695],[-82.786,31.52],[-84.17,30.598],[-85.345,30.346],[-86.603,30.178],[-87.862,29.549],[-88.407,28.92],[-88.491,27.913],[-87.988,27.116],[-87.275,26.193],[-86.016,25.396],[-84.254,24.892],[-81.863,25.018],[-79.892,25.983],[-79.053,27.158],[-77.458,28.878],[-75.487,30.22],[-73.054,31.269],[-71.25,31.772],[-70.243,32.108],[-69.152,32.737],[-68.23,33.954],[-67.978,34.709],[-68.062,35.967],[-68.901,38.358],[-69.74,39.239],[-70.747,39.952],[-71.627,39.868],[-72.005,39.826]]]}},{"type":"Feature","properties":{"density":1},"geometry":{"type":"Polygon","coordinates":[[[-109.193,27.577],[-110.997,28.71],[-112.004,29.549],[-113.095,30.681],[-113.64,31.185],[-114.437,31.73],[-115.066,31.94],[-115.905,31.73],[-116.576,31.353],[-117.164,30.178],[-117.206,28.752],[-116.367,26.57],[-115.821,25.018],[-114.856,23.34],[-114.185,21.578],[-112.969,19.565],[-112.34,18.139],[-111.333,17.3],[-110.41,16.922],[-108.942,16.628],[-106.634,16.544],[-105.124,16.628],[-103.446,16.167],[-102.565,15.747],[-100.006,14.992],[-98.664,14.992],[-97.573,15.118],[-97.028,15.622],[-96.902,16.461],[-97.405,17.593],[-98.161,18.726],[-99.251,19.607],[-102.481,21.159],[-103.698,21.998],[-104.914,22.921],[-105.795,23.718],[-106.509,24.557],[-107.138,25.228],[-107.557,25.773],[-107.893,26.361],[-108.438,27.032],[-108.522,27.158],[-108.732,27.2],[-109.193,27.577]]]}},{"type":"Feature","properties":{"density":1},"geometry":{"type":"Polygon","coordinates":[[[-81.628,27.667],[-81.797,27.681],[-81.861,27.697],[-81.925,27.735],[-82.0,27.724],[-82.0,27.697],[-81.963,27.643],[-81.763,27.539],[-81.639,27.535],[-81.561,27.569],[-81.531,27.606],[-81.527,27.64],[-81.571,27.667],[-81.628,27.667]]]}},{"type":"Feature","properties":{"density":1},"geometry":{"type":"Polygon","coordinates":[[[-106.602,32.508],[-106.845,32.553],[-106.997,32.614],[-107.119,32.735],[-107.195,32.842],[-107.195,33.032],[-107.134,33.259],[-107.088,33.335],[-107.096,33.495],[-107.172,33.525],[-107.46,33.556],[-107.681,33.768],[-108.03,34.155],[-108.204,34.171],[-108.334,34.133],[-108.47,34.019],[-108.47,33.852],[-108.334,33.677],[-108.113,33.502],[-107.954,33.343],[-107.726,33.009],[-107.536,32.644],[-107.551,32.401],[-107.673,32.166],[-107.855,31.657],[-107.901,31.338],[-107.825,31.08],[-107.643,30.898],[-107.483,30.822],[-107.164,31.004],[-106.86,31.283],[-106.83,31.369],[-106.838,31.429],[-106.807,31.49],[-106.709,31.536],[-106.572,31.536],[-106.39,31.475],[-106.192,31.46],[-106.109,31.505],[-106.025,31.581],[-106.017,32.022],[-106.109,32.249],[-106.207,32.371],[-106.298,32.432],[-106.519,32.477],[-106.602,32.508]]]}},{"type":"Feature","properties":{"density":1},"geometry":{"type":"Polygon","coordinates":[[[-83.556,33.762],[-83.519,33.801],[-83.52,33.835],[-83.658,33.742],[-83.682,33.708],[-83.658,33.696],[-83.591,33.738],[-83.556,33.762]]]}},{"type":"Feature","properties":{"density":1},"geometry":{"type":"Polygon","coordinates":[[[-121.257,39.042],[-121.329,39.054],[-121.431,39.102],[-121.461,39.099],[-121.501,39.054],[-121.497,39.033],[-121.444,38.987],[-121.311,38.961],[-121.216,39.0],[-121.216,39.035],[-121.237,39.042],[-121.257,39.042]]]}},{"type":"Feature","properties":{"density":1},"geometry":{"type":"Polygon","coordinates":[[[-94.124,17.959],[-94.107,17.837],[-94.003,17.635],[-93.878,17.493],[-93.834,17.473],[-93.794,17.489],[-93.787,17.591],[-93.817,17.729],[-93.905,17.844],[-93.962,17.999],[-93.962,18.134],[-93.932,18.249],[-93.908,18.505],[-93.929,18.6],[-93.999,18.694],[-94.037,18.694],[-94.087,18.661],[-94.124,18.6],[-94.141,18.404],[-94.131,18.04],[-94.124,17.959]]]}},{"type":"Feature","properties":{"density":1},"geometry":{"type":"Polygon","coordinates":[[[-71.301,17.83],[-71.306,17.794],[-71.373,17.763],[-71.85,17.779],[-71.904,17.817],[-71.909,17.844],[-71.904,17.88],[-71.837,17.905],[-71.49,17.851],[-71.411,17.853],[-71.369,17.871],[-71.301,17.86],[-71.301,17.83]]]}},{"type":"Feature","properties":{"density":1},"geometry":{"type":"Polygon","coordinates":[[[-77.297,27.83],[-77.709,27.506],[-77.8,27.347],[-77.821,27.26],[-77.81,26.993],[-77.777,26.865],[-77.709,26.753],[-77.662,26.743],[-77.554,26.774],[-77.486,26.919],[-77.486,27.324],[-77.449,27.442],[-77.409,27.496],[-77.345,27.54],[-77.173,27.631],[-77.135,27.688],[-77.129,27.766],[-77.149,27.833],[-77.25,27.85],[-77.297,27.83]]]}},{"type":"Feature","properties":{"density":1},"geometry":{"type":"Polygon","coordinates":[[[-92.639,32.118],[-92.754,31.996],[-93.112,31.528],[-93.15,31.387],[-93.148,31.312],[-93.091,31.236],[-93.026,31.216],[-92.965,31.243],[-92.909,31.303],[-92.621,31.735],[-92.574,31.978],[-92.529,32.098],[-92.551,32.131],[-92.599,32.143],[-92.639,32.118]]]}},{"type":"Feature","properties":{"density":1},"geometry":{"type":"Polygon","coordinates":[[[-103.465,42.831],[-103.66,42.833],[-103.701,42.822],[-103.753,42.766],[-103.807,42.462],[-103.802,42.237],[-103.712,42.122],[-103.613,42.066],[-103.384,42.008],[-102.956,41.99],[-102.819,42.037],[-102.551,42.093],[-102.232,42.147],[-102.029,42.199],[-101.77,42.235],[-101.449,42.334],[-101.341,42.39],[-101.179,42.509],[-101.149,42.604],[-101.17,42.687],[-101.215,42.714],[-101.374,42.721],[-101.968,42.548],[-102.2,42.5],[-102.578,42.462],[-102.866,42.473],[-102.999,42.496],[-103.055,42.521],[-103.262,42.653],[-103.431,42.815],[-103.465,42.831]]]}},{"type":"Feature","properties":{"density":1},"geometry":{"type":"Polygon","coordinates":[[[-121.416,39.217],[-121.502,39.1],[-121.511,39.055],[-121.477,39.023],[-121.376,39.019],[-121.236,39.093],[-121.16,39.1],[-121.011,39.089],[-120.894,39.046],[-120.831,39.046],[-120.777,39.071],[-120.737,39.194],[-120.775,39.336],[-120.809,39.381],[-120.854,39.422],[-120.969,39.453],[-121.115,39.44],[-121.243,39.392],[-121.338,39.336],[-121.392,39.242],[-121.416,39.217]]]}},{"type":"Feature","properties":{"density":1},"geometry":{"type":"Polygon","coordinates":[[[-119.152,36.928],[-119.271,36.942],[-119.348,36.901],[-119.368,36.867],[-119.348,36.78],[-119.227,36.631],[-119.105,36.422],[-118.97,36.273],[-118.859,36.273],[-118.747,36.317],[-118.666,36.388],[-118.575,36.662],[-118.575,36.793],[-118.612,36.867],[-118.687,36.945],[-118.744,36.962],[-118.832,36.962],[-119.071,36.918],[-119.152,36.928]]]}},{"type":"Feature","properties":{"density":1},"geometry":{"type":"Polygon","coordinates":[[[-118.245,35.32],[-118.335,35.326],[-118.483,35.369],[-118.62,35.372],[-118.72,35.323],[-118.764,35.243],[-118.65,35.114],[-118.585,35.078],[-118.254,35.057],[-118.104,34.997],[-118.047,35.039],[-118.03,35.074],[-118.044,35.162],[-118.062,35.216],[-118.107,35.263],[-118.207,35.317],[-118.245,35.32]]]}},{"type":"Feature","properties":{"density":1},"geometry":{"type":"Polygon","coordinates":[[[-117.812,34.72],[-118.082,34.605],[-118.156,34.558],[-118.204,34.497],[-118.146,34.433],[-118.102,34.423],[-118.052,34.429],[-117.934,34.483],[-117.751,34.504],[-117.495,34.331],[-117.309,34.315],[-117.259,34.338],[-117.232,34.429],[-117.292,34.693],[-117.12,34.821],[-117.117,34.848],[-117.218,34.882],[-117.37,34.882],[-117.539,34.807],[-117.768,34.736],[-117.812,34.72]]]}},{"type":"Feature","properties":{"density":1},"geometry":{"type":"Polygon","coordinates":[[[-110.435,32.272],[-110.587,32.31],[-110.777,32.31],[-110.898,32.242],[-110.936,32.188],[-110.853,32.097],[-110.709,32.082],[-110.61,32.052],[-110.359,31.885],[-110.147,31.869],[-110.116,31.923],[-110.124,32.067],[-110.207,32.143],[-110.337,32.219],[-110.435,32.272]]]}},{"type":"Feature","properties":{"density":1},"geometry":{"type":"Polygon","coordinates":[[[-96.659,15.95],[-96.813,16.642],[-97.172,16.924],[-97.351,17.206],[-97.505,17.591],[-97.48,18.001],[-97.428,18.462],[-97.864,19.128],[-98.53,19.59],[-99.402,19.692],[-101.657,19.692],[-103.092,19.948],[-103.989,20.23],[-104.681,20.845],[-105.219,21.614],[-105.655,22.05],[-106.885,23.101],[-107.552,23.947],[-107.859,24.613],[-108.321,25.382],[-109.038,26.407],[-109.423,27.176],[-109.858,27.791],[-110.294,28.201],[-110.807,28.483],[-111.524,28.842],[-112.114,29.226],[-112.985,29.918],[-114.164,30.969],[-115.215,31.379],[-116.342,31.123],[-117.444,30.379],[-118.111,29.585],[-118.47,28.56],[-118.598,27.381],[-118.649,26.176],[-118.265,24.664],[-117.803,23.998],[-116.778,23.178],[-115.907,22.819],[-114.702,22.358],[-113.805,22.204],[-111.652,21.871],[-110.063,21.461],[-108.859,20.897],[-108.064,20.358],[-107.065,19.59],[-105.296,17.898],[-104.117,17.052],[-103.041,16.463],[-102.067,16.078],[-101.221,15.643],[-99.914,14.925],[-97.454,14.336],[-96.839,14.361],[-96.326,14.464],[-96.172,14.618],[-96.198,14.925],[-96.301,15.233],[-96.429,15.361],[-96.659,15.95]]]}},{"type":"Feature","properties":{"density":1},"geometry":{"type":"Polygon","coordinates":[[[-101.203,39.815],[-101.869,39.43],[-102.817,38.969],[-103.535,38.559],[-103.766,38.379],[-103.996,38.046],[-104.15,37.534],[-104.458,36.816],[-104.688,36.227],[-104.893,35.483],[-104.919,35.022],[-104.868,34.509],[-104.56,33.792],[-104.253,33.689],[-103.663,33.638],[-102.92,33.817],[-101.767,34.509],[-100.742,34.817],[-100.255,35.073],[-99.742,35.278],[-98.768,35.945],[-97.794,36.56],[-97.077,37.124],[-96.359,37.739],[-95.821,38.277],[-95.539,38.738],[-95.488,39.148],[-95.693,39.533],[-96.41,39.815],[-97.025,39.892],[-97.794,40.148],[-98.358,40.25],[-100.05,40.25],[-100.767,39.943],[-100.972,39.892],[-101.203,39.815]]]}},{"type":"Feature","properties":{"density":1},"geometry":{"type":"Polygon","coordinates":[[[-68.052,31.806],[-66.745,31.882],[-65.976,32.382],[-65.476,33.151],[-65.476,34.958],[-65.822,35.996],[-66.399,36.688],[-67.437,36.957],[-69.282,37.188],[-71.704,37.226],[-73.011,37.265],[-77.317,37.265],[-79.2,37.111],[-81.776,36.649],[-84.467,35.765],[-87.197,34.65],[-90.003,33.574],[-91.31,32.805],[-92.233,31.882],[-92.809,31.191],[-93.309,30.114],[-93.232,29.307],[-92.656,28.461],[-91.733,27.577],[-90.849,27.116],[-89.734,26.654],[-88.042,26.347],[-84.39,26.193],[-82.161,26.27],[-80.584,26.846],[-79.162,27.154],[-77.624,27.654],[-76.394,28.192],[-75.241,28.884],[-74.51,29.384],[-73.78,29.96],[-72.742,30.614],[-71.742,31.037],[-70.858,31.344],[-70.089,31.498],[-69.09,31.652],[-68.052,31.806]]]}},{"type":"Feature","properties":{"density":1},"geometry":{"type":"Polygon","coordinates":[[[-104.377,54.652],[-104.013,54.607],[-103.883,54.652],[-103.83,54.713],[-103.823,55.191],[-103.845,55.321],[-103.929,55.495],[-104.05,55.662],[-104.202,55.776],[-104.423,55.867],[-104.59,55.875],[-104.749,55.837],[-104.81,55.791],[-104.893,55.708],[-104.939,55.579],[-104.825,55.078],[-104.628,54.819],[-104.529,54.743],[-104.377,54.652]]]}},{"type":"Feature","properties":{"density":2},"geometry":{"type":"Polygon","coordinates":[[[-103.545,42.724],[-104.079,42.237],[-104.278,42.024],[-104.329,42.005],[-104.421,42.013],[-104.491,42.057],[-104.491,42.097],[-104.462,42.145],[-104.049,42.392],[-103.777,42.624],[-103.63,42.731],[-103.563,42.749],[-103.545,42.724]]]}},{"type":"Feature","properties":{"density":2},"geometry":{"type":"Polygon","coordinates":[[[-108.308,34.019],[-108.142,33.798],[-107.895,33.544],[-107.766,33.452],[-107.7,33.426],[-107.656,33.43],[-107.626,33.47],[-107.641,33.526],[-107.95,33.765],[-108.131,33.986],[-108.23,34.063],[-108.263,34.071],[-108.293,34.049],[-108.308,34.019]]]}},{"type":"Feature","properties":{"density":2},"geometry":{"type":"Polygon","coordinates":[[[-108.156,34.02],[-108.231,34.088],[-108.281,34.095],[-108.339,34.061],[-108.366,34.017],[-108.345,33.97],[-108.251,33.929],[-108.17,33.926],[-108.143,33.946],[-108.136,33.99],[-108.156,34.02]]]}},{"type":"Feature","properties":{"density":2},"geometry":{"type":"Polygon","coordinates":[[[-77.699,27.385],[-77.736,27.334],[-77.77,27.216],[-77.777,26.936],[-77.763,26.892],[-77.679,26.797],[-77.625,26.791],[-77.554,26.845],[-77.567,27.229],[-77.534,27.422],[-77.561,27.493],[-77.581,27.493],[-77.621,27.472],[-77.662,27.418],[-77.699,27.385]]]}},{"type":"Feature","properties":{"density":2},"geometry":{"type":"Polygon","coordinates":[[[-92.758,31.879],[-92.968,31.65],[-93.073,31.506],[-93.116,31.393],[-93.118,31.285],[-93.06,31.267],[-93.028,31.283],[-92.837,31.524],[-92.677,31.681],[-92.65,31.742],[-92.648,31.832],[-92.686,31.891],[-92.729,31.897],[-92.758,31.879]]]}},{"type":"Feature","properties":{"density":2},"geometry":{"type":"Polygon","coordinates":[[[-103.564,42.806],[-103.64,42.809],[-103.71,42.773],[-103.737,42.676],[-103.732,42.55],[-103.708,42.464],[-103.638,42.359],[-103.552,42.298],[-103.469,42.291],[-103.375,42.347],[-103.357,42.397],[-103.357,42.568],[-103.444,42.784],[-103.467,42.811],[-103.521,42.811],[-103.564,42.806]]]}},{"type":"Feature","properties":{"density":2},"geometry":{"type":"Polygon","coordinates":[[[-118.329,35.299],[-118.62,35.347],[-118.692,35.327],[-118.744,35.257],[-118.71,35.195],[-118.665,35.174],[-118.47,35.102],[-118.359,35.092],[-118.255,35.132],[-118.221,35.185],[-118.231,35.263],[-118.285,35.296],[-118.329,35.299]]]}},{"type":"Feature","properties":{"density":2},"geometry":{"type":"Polygon","coordinates":[[[-104.415,54.911],[-104.354,54.895],[-104.225,54.797],[-104.066,54.705],[-103.99,54.728],[-103.929,54.865],[-103.944,55.009],[-104.187,55.427],[-104.514,55.807],[-104.612,55.807],[-104.734,55.776],[-104.772,55.655],[-104.764,55.548],[-104.612,55.017],[-104.468,54.926],[-104.415,54.911]]]}},{"type":"Feature","properties":{"density":3},"geometry":{"type":"Polygon","coordinates":[[[-77.628,27.115],[-77.608,27.189],[-77.611,27.307],[-77.675,27.337],[-77.75,27.277],[-77.743,26.983],[-77.719,26.909],[-77.689,26.872],[-77.608,26.831],[-77.581,26.865],[-77.581,26.912],[-77.635,27.047],[-77.628,27.115]]]}},{"type":"Feature","properties":{"density":3},"geometry":{"type":"Polygon","coordinates":[[[-92.909,31.672],[-93.008,31.56],[-93.067,31.465],[-93.096,31.366],[-93.094,31.317],[-93.051,31.308],[-93.022,31.33],[-92.974,31.438],[-92.851,31.587],[-92.731,31.677],[-92.731,31.744],[-92.743,31.771],[-92.785,31.785],[-92.887,31.708],[-92.909,31.672]]]}},{"type":"Feature","properties":{"density":3},"geometry":{"type":"Polygon","coordinates":[[[-103.528,42.775],[-103.615,42.784],[-103.699,42.734],[-103.705,42.581],[-103.674,42.464],[-103.627,42.406],[-103.564,42.401],[-103.505,42.417],[-103.462,42.453],[-103.442,42.5],[-103.431,42.622],[-103.474,42.737],[-103.501,42.768],[-103.528,42.775]]]}},{"type":"Feature","properties":{"density":3},"geometry":{"type":"Polygon","coordinates":[[[-118.599,35.297],[-118.665,35.306],[-118.704,35.278],[-118.701,35.243],[-118.669,35.218],[-118.584,35.209],[-118.48,35.162],[-118.41,35.165],[-118.384,35.189],[-118.372,35.23],[-118.401,35.285],[-118.47,35.305],[-118.57,35.294],[-118.599,35.297]]]}},{"type":"Feature","properties":{"density":3},"geometry":{"type":"Polygon","coordinates":[[[-104.309,55.488],[-104.491,55.723],[-104.643,55.731],[-104.673,55.67],[-104.688,55.579],[-104.666,55.472],[-104.521,55.108],[-104.415,55.017],[-104.316,55.002],[-104.248,55.04],[-104.218,55.184],[-104.218,55.321],[-104.233,55.351],[-104.309,55.488]]]}}]}