{"type":"FeatureCollection","features":[{"type":"Feature","properties":{"density":1},"geometry":{"type":"Polygon","coordinates":[[[-80.34,22.518],[-80.367,22.567],[-80.447,22.618],[-80.513,22.627],[-80.594,22.685],[-80.621,22.666],[-80.627,22.625],[-80.611,22.595],[-80.528,22.522],[-80.353,22.459],[-80.337,22.473],[-80.34,22.518]]]}},{"type":"Feature","properties":{"density":1},"geometry":{"type":"Polygon","coordinates":[[[-80.608,23.098],[-80.663,23.121],[-80.692,23.086],[-80.674,23.034],[-80.632,22.988],[-80.356,22.795],[-80.295,22.793],[-80.327,22.841],[-80.497,22.963],[-80.608,23.098]]]}},{"type":"Feature","properties":{"density":1},"geometry":{"type":"Polygon","coordinates":[[[-80.913,31.916],[-80.958,31.913],[-80.965,31.897],[-80.671,31.722],[-80.397,31.671],[-80.035,31.485],[-79.859,31.443],[-79.746,31.443],[-79.68,31.478],[-79.689,31.533],[-79.752,31.575],[-80.077,31.638],[-80.405,31.817],[-80.645,31.847],[-80.913,31.916]]]}},{"type":"Feature","properties":{"density":1},"geometry":{"type":"Polygon","coordinates":[[[-91.209,30.601],[-91.249,30.595],[-91.247,30.56],[-91.056,30.491],[-90.109,30.422],[-89.853,30.381],[-89.575,30.312],[-89.516,30.308],[-89.475,30.316],[-89.469,30.332],[-89.506,30.379],[-89.573,30.408],[-89.961,30.471],[-90.571,30.538],[-91.095,30.574],[-91.209,30.601]]]}},{"type":"Feature","properties":{"density":1},"geometry":{"type":"Polygon","coordinates":[[[-93.328,30.962],[-93.408,30.912],[-93.58,30.739],[-93.727,30.66],[-93.907,30.485],[-94.054,30.393],[-94.072,30.363],[-94.054,30.33],[-93.944,30.338],[-93.775,30.395],[-93.706,30.442],[-93.538,30.619],[-93.426,30.672],[-93.257,30.698],[-93.095,30.834],[-93.091,30.908],[-93.145,30.96],[-93.219,30.977],[-93.328,30.962]]]}},{"type":"Feature","properties":{"density":1},"geometry":{"type":"Polygon","coordinates":[[[-92.788,30.814],[-92.818,30.812],[-92.821,30.796],[-92.645,30.73],[-92.624,30.735],[-92.627,30.764],[-92.65,30.778],[-92.788,30.814]]]}},{"type":"Feature","properties":{"density":1},"geometry":{"type":"Polygon","coordinates":[[[-92.416,30.875],[-92.439,30.849],[-92.318,30.867],[-92.259,30.9],[-92.248,30.932],[-92.278,30.933],[-92.416,30.875]]]}},{"type":"Feature","properties":{"density":1},"geometry":{"type":"Polygon","coordinates":[[[-104.845,44.694],[-104.886,44.765],[-104.996,44.844],[-105.089,44.948],[-105.178,44.97],[-105.221,44.948],[-105.217,44.881],[-105.189,44.818],[-105.126,44.767],[-105.002,44.71],[-104.902,44.586],[-104.853,44.576],[-104.823,44.594],[-104.827,44.665],[-104.845,44.694]]]}},{"type":"Feature","properties":{"density":1},"geometry":{"type":"Polygon","coordinates":[[[-104.571,44.533],[-104.632,44.584],[-104.766,44.745],[-104.809,44.757],[-104.821,44.655],[-104.805,44.609],[-104.735,44.548],[-104.64,44.43],[-104.599,44.405],[-104.563,44.403],[-104.53,44.428],[-104.546,44.503],[-104.571,44.533]]]}},{"type":"Feature","properties":{"density":1},"geometry":{"type":"Polygon","coordinates":[[[-105.888,45.141],[-105.924,45.149],[-105.983,45.135],[-106.071,45.072],[-106.201,44.909],[-106.327,44.822],[-106.321,44.757],[-106.256,44.745],[-106.168,44.775],[-106.052,44.834],[-105.963,44.911],[-105.884,45.003],[-105.838,45.086],[-105.84,45.104],[-105.888,45.141]]]}},{"type":"Feature","properties":{"density":1},"geometry":{"type":"Polygon","coordinates":[[[-105.485,44.403],[-105.566,44.433],[-105.752,44.464],[-105.853,44.454],[-105.907,44.386],[-105.924,44.295],[-105.88,44.163],[-105.779,44.012],[-105.657,43.877],[-105.637,43.812],[-105.633,43.728],[-105.654,43.674],[-105.782,43.556],[-105.836,43.431],[-105.833,43.357],[-105.806,43.303],[-105.735,43.245],[-105.654,43.229],[-105.512,43.262],[-105.431,43.313],[-105.293,43.468],[-105.228,43.644],[-105.201,43.846],[-105.201,44.008],[-105.222,44.109],[-105.266,44.217],[-105.336,44.309],[-105.39,44.359],[-105.485,44.403]]]}},{"type":"Feature","properties":{"density":1},"geometry":{"type":"Polygon","coordinates":[[[-114.152,35.271],[-114.213,35.342],[-114.309,35.393],[-114.426,35.413],[-114.557,35.393],[-114.694,35.317],[-114.77,35.221],[-114.826,35.109],[-114.881,34.922],[-114.886,34.724],[-114.836,34.583],[-114.78,34.481],[-114.557,34.188],[-114.492,33.995],[-114.492,33.798],[-114.542,33.717],[-114.8,33.525],[-114.866,33.408],[-114.897,33.287],[-114.876,33.196],[-114.821,33.104],[-114.729,33.069],[-114.618,33.064],[-114.441,33.094],[-114.228,33.165],[-113.798,33.155],[-113.504,33.206],[-113.261,33.337],[-113.094,33.479],[-112.942,33.697],[-112.902,33.914],[-112.953,34.097],[-113.14,34.264],[-113.426,34.427],[-113.654,34.624],[-113.866,34.852],[-113.995,35.126],[-114.152,35.271]]]}},{"type":"Feature","properties":{"density":1},"geometry":{"type":"Polygon","coordinates":[[[-114.73,38.872],[-114.781,38.906],[-114.869,38.909],[-114.967,38.882],[-115.071,38.825],[-115.206,38.666],[-115.27,38.548],[-115.372,38.197],[-115.469,37.981],[-115.53,37.894],[-115.79,37.624],[-115.837,37.553],[-115.858,37.492],[-115.847,37.435],[-115.807,37.337],[-115.763,37.3],[-115.706,37.286],[-115.567,37.337],[-115.486,37.391],[-115.372,37.505],[-115.264,37.735],[-115.169,37.856],[-114.798,38.052],[-114.666,38.16],[-114.599,38.255],[-114.551,38.39],[-114.548,38.498],[-114.602,38.663],[-114.73,38.872]]]}},{"type":"Feature","properties":{"density":1},"geometry":{"type":"Polygon","coordinates":[[[-122.447,43.412],[-122.478,43.437],[-122.521,43.446],[-122.553,43.435],[-122.613,43.334],[-122.649,43.309],[-122.699,43.304],[-122.746,43.322],[-122.852,43.392],[-122.924,43.392],[-123.041,43.338],[-123.086,43.289],[-123.115,43.223],[-123.115,43.169],[-123.059,43.03],[-122.942,42.875],[-122.854,42.83],[-122.757,42.821],[-122.638,42.845],[-122.546,42.906],[-122.465,43.019],[-122.368,43.109],[-122.343,43.19],[-122.339,43.298],[-122.364,43.361],[-122.447,43.412]]]}},{"type":"Feature","properties":{"density":1},"geometry":{"type":"Polygon","coordinates":[[[-98.601,24.663],[-98.658,24.73],[-98.746,24.747],[-98.79,24.673],[-98.793,24.562],[-98.847,24.4],[-98.827,24.275],[-98.759,24.049],[-98.739,24.015],[-98.709,24.001],[-98.668,24.011],[-98.597,24.103],[-98.553,24.244],[-98.567,24.555],[-98.601,24.663]]]}},{"type":"Feature","properties":{"density":1},"geometry":{"type":"Polygon","coordinates":[[[-91.888,19.209],[-92.041,19.286],[-92.246,19.465],[-92.451,19.721],[-92.657,20.08],[-92.887,20.644],[-92.99,21.362],[-92.887,21.951],[-92.58,22.361],[-92.246,22.643],[-91.99,22.771],[-90.683,23.181],[-90.247,23.438],[-89.863,23.771],[-89.504,24.309],[-89.402,24.898],[-89.607,25.488],[-90.119,26.129],[-90.862,26.718],[-91.401,27.103],[-92.093,27.538],[-92.81,27.948],[-93.707,28.23],[-94.553,28.358],[-95.476,28.41],[-95.911,28.384],[-96.834,28.076],[-97.295,27.743],[-97.808,27.282],[-98.269,26.513],[-98.628,25.77],[-98.782,24.822],[-98.782,23.899],[-98.628,23.156],[-98.346,22.618],[-97.91,22.002],[-97.423,21.362],[-97.09,20.798],[-96.962,20.157],[-97.039,19.363],[-97.423,18.824],[-98.192,18.389],[-98.961,18.414],[-99.73,18.696],[-101.14,19.311],[-102.216,20.003],[-103.216,20.9],[-103.933,21.721],[-104.676,22.72],[-105.189,23.463],[-105.907,24.412],[-107.367,26.077],[-109.11,27.641],[-110.084,28.281],[-110.699,28.461],[-111.596,28.461],[-112.134,28.153],[-112.75,27.743],[-113.262,27.051],[-113.544,26.18],[-113.544,25.385],[-113.211,24.642],[-112.775,23.925],[-112.16,23.13],[-111.75,22.643],[-111.468,21.695],[-111.545,21.131],[-111.724,20.618],[-111.981,20.029],[-112.134,19.491],[-112.134,18.978],[-112.058,18.645],[-111.699,18.209],[-111.212,17.799],[-110.545,17.44],[-109.802,17.107],[-109.008,16.877],[-107.983,16.672],[-106.855,16.569],[-105.343,16.569],[-104.42,16.518],[-103.216,16.39],[-102.37,16.338],[-101.422,16.313],[-99.961,16.133],[-99.064,16.159],[-98.09,16.005],[-97.167,15.365],[-96.731,15.006],[-95.783,14.16],[-94.963,13.699],[-94.271,13.391],[-93.579,13.109],[-92.81,12.981],[-91.836,13.109],[-90.888,13.571],[-90.555,13.75],[-90.324,13.981],[-90.145,14.262],[-89.863,14.903],[-89.786,15.236],[-89.812,15.775],[-90.017,16.441],[-90.324,16.979],[-91.426,18.543],[-91.631,19.029],[-91.888,19.209]]]}},{"type":"Feature","properties":{"density":1},"geometry":{"type":"Polygon","coordinates":[[[-109.911,71.867],[-109.831,70.811],[-109.754,70.388],[-109.677,69.696],[-109.715,68.851],[-110.138,67.89],[-110.792,67.082],[-111.599,66.429],[-112.714,65.929],[-114.405,65.737],[-116.097,65.775],[-117.558,65.967],[-119.249,66.352],[-120.71,66.89],[-122.094,67.62],[-123.478,68.236],[-124.708,68.697],[-126.169,69.004],[-126.554,68.889],[-127.092,68.697],[-128.091,68.12],[-128.668,67.736],[-129.245,67.313],[-129.821,66.775],[-130.283,66.236],[-130.744,65.583],[-130.975,64.891],[-131.09,64.468],[-131.167,63.776],[-130.782,63.315],[-130.167,63.007],[-129.552,62.661],[-128.976,62.392],[-127.668,61.969],[-127.015,61.7],[-126.361,61.393],[-125.785,61.047],[-125.093,60.585],[-124.555,60.124],[-122.94,58.913],[-122.671,58.644],[-122.017,58.067],[-121.325,57.068],[-121.056,56.606],[-120.826,56.107],[-120.633,55.376],[-120.595,54.838],[-120.672,54.108],[-120.864,53.685],[-121.172,53.262],[-121.671,52.762],[-122.671,52.147],[-123.094,51.839],[-123.324,51.532],[-123.478,51.032],[-123.593,50.571],[-123.67,49.994],[-123.555,49.418],[-123.055,48.418],[-122.671,48.11],[-122.402,47.803],[-122.171,47.38],[-122.056,47.034],[-122.017,46.573],[-122.017,46.15],[-122.197,45.278],[-122.197,45.048],[-122.12,44.74],[-121.761,43.818],[-121.351,43.254],[-121.043,42.997],[-120.454,42.587],[-119.967,42.28],[-119.762,42.1],[-119.608,41.921],[-119.557,41.742],[-119.557,41.28],[-119.583,41.127],[-119.685,40.896],[-119.736,40.383],[-119.608,40.076],[-119.326,39.717],[-118.993,39.538],[-118.455,39.409],[-117.891,39.384],[-117.378,39.461],[-116.866,39.614],[-116.507,39.794],[-116.2,40.025],[-115.815,40.281],[-115.354,40.486],[-114.918,40.563],[-114.38,40.563],[-113.893,40.665],[-113.406,40.819],[-113.022,40.998],[-112.611,41.28],[-112.073,41.716],[-110.664,43.1],[-110.177,43.484],[-109.613,43.843],[-109.075,43.997],[-108.408,43.971],[-107.819,43.818],[-107.409,43.561],[-106.999,43.177],[-106.332,42.818],[-105.564,42.613],[-104.897,42.562],[-104.077,42.536],[-103.142,42.446],[-102.885,42.267],[-102.706,41.985],[-102.552,41.678],[-102.373,41.268],[-101.988,40.806],[-101.476,40.447],[-100.553,40.217],[-100.169,40.089],[-99.964,39.909],[-99.861,39.704],[-99.81,39.448],[-99.784,39.192],[-99.861,38.858],[-100.015,38.576],[-100.425,38.064],[-100.604,37.782],[-100.707,37.5],[-100.784,36.859],[-100.758,36.526],[-100.579,36.244],[-100.092,35.911],[-99.63,35.757],[-99.092,35.604],[-98.708,35.399],[-98.4,35.142],[-97.836,34.553],[-97.657,34.168],[-97.554,33.604],[-97.554,32.733],[-97.503,32.349],[-97.375,31.964],[-97.144,31.682],[-96.811,31.452],[-96.247,31.195],[-95.889,31.093],[-93.233,30.547],[-92.694,30.508],[-91.926,30.201],[-91.157,29.816],[-90.619,29.624],[-89.581,29.47],[-88.927,29.393],[-88.312,29.393],[-87.543,29.355],[-86.928,29.278],[-86.082,29.047],[-85.544,28.855],[-84.89,28.432],[-84.391,28.163],[-83.776,27.894],[-83.161,27.74],[-82.276,27.586],[-81.008,27.548],[-80.162,27.586],[-78.458,28.093],[-77.227,28.4],[-76.881,28.554],[-76.42,28.938],[-75.92,29.438],[-75.459,30.053],[-75.151,30.784],[-74.959,31.629],[-74.805,32.552],[-74.729,33.359],[-74.536,34.244],[-74.267,34.974],[-73.768,35.666],[-73.114,36.204],[-72.537,36.742],[-71.999,37.434],[-71.615,38.126],[-70.423,41.086],[-69.769,41.932],[-69.116,42.624],[-68.578,43.009],[-67.924,43.239],[-65.733,43.239],[-64.618,43.508],[-63.196,44.2],[-62.35,44.469],[-61.197,44.546],[-60.274,44.546],[-58.967,44.469],[-57.929,44.469],[-56.545,44.777],[-55.007,45.315],[-53.546,46.123],[-51.72,47.276],[-51.374,47.737],[-50.855,48.371],[-50.336,49.121],[-49.817,49.64],[-49.01,50.044],[-48.26,50.39],[-47.107,50.793],[-46.069,51.082],[-44.858,51.37],[-43.762,51.831],[-42.889,52.218],[-41.778,52.628],[-40.48,53.363],[-40.258,54.114],[-40.941,55.14],[-42.018,55.874],[-43.071,56.214],[-43.878,56.387],[-46.242,56.387],[-47.28,56.56],[-48.549,56.964],[-49.529,57.31],[-50.855,58.117],[-52.355,59.213],[-53.335,60.135],[-53.969,61.0],[-54.834,62.326],[-55.353,63.653],[-55.468,64.691],[-55.122,65.44],[-54.142,66.651],[-53.508,67.286],[-53.104,67.978],[-52.931,68.497],[-52.874,69.535],[-52.931,70.284],[-53.162,70.976],[-53.796,72.129],[-54.488,72.648],[-55.526,73.225],[-57.198,73.744],[-58.698,74.09],[-60.197,74.378],[-60.889,74.494],[-62.273,74.551],[-63.196,74.551],[-65.964,74.436],[-69.02,73.975],[-70.346,73.629],[-71.096,73.225],[-71.788,72.821],[-72.134,72.302],[-72.249,71.61],[-72.307,70.919],[-71.845,69.938],[-71.269,69.246],[-70.173,68.381],[-68.962,67.632],[-67.809,66.997],[-66.367,66.075],[-65.099,65.152],[-64.291,64.402],[-63.253,62.788],[-62.907,61.634],[-62.792,59.385],[-63.023,58.175],[-63.484,57.252],[-64.061,56.387],[-64.695,55.637],[-65.733,54.888],[-67.059,53.85],[-68.097,52.408],[-68.674,51.543],[-69.596,50.505],[-70.461,49.871],[-71.499,49.236],[-72.941,48.544],[-74.844,48.025],[-76.862,47.91],[-79.745,48.775],[-80.437,49.063],[-82.513,50.274],[-84.705,51.37],[-85.57,51.831],[-87.415,52.696],[-89.03,53.388],[-90.125,53.907],[-91.451,54.426],[-92.72,55.061],[-93.816,55.637],[-97.737,57.425],[-98.602,58.059],[-99.121,58.809],[-99.409,59.731],[-99.525,60.596],[-99.467,61.634],[-99.006,62.903],[-98.544,63.48],[-97.795,64.172],[-96.987,64.748],[-96.007,65.267],[-93.239,66.19],[-92.489,66.478],[-91.797,66.824],[-91.163,67.286],[-90.644,67.92],[-90.413,68.785],[-90.413,69.592],[-90.702,70.573],[-91.624,71.553],[-92.662,72.245],[-94.104,72.879],[-95.892,73.398],[-97.679,73.859],[-99.525,74.263],[-100.851,74.494],[-102.35,74.667],[-103.792,74.782],[-104.772,74.724],[-105.637,74.551],[-106.79,74.263],[-107.713,73.917],[-108.424,73.584],[-108.886,73.199],[-109.296,72.764],[-109.603,72.379],[-109.783,72.2],[-109.911,71.867]]]}},{"type":"Feature","properties":{"density":1},"geometry":{"type":"Polygon","coordinates":[[[-88.862,21.579],[-88.761,21.494],[-88.691,21.464],[-88.55,21.458],[-88.527,21.464],[-88.507,21.494],[-88.547,21.534],[-88.784,21.642],[-88.867,21.642],[-88.889,21.617],[-88.862,21.579]]]}},{"type":"Feature","properties":{"density":1},"geometry":{"type":"Polygon","coordinates":[[[-112.848,34.14],[-112.534,34.09],[-112.337,33.978],[-111.699,33.695],[-111.562,33.604],[-111.532,33.492],[-111.562,33.411],[-111.674,33.305],[-111.988,33.26],[-112.798,33.072],[-113.137,32.865],[-113.263,32.672],[-113.41,32.541],[-113.567,32.5],[-114.033,32.647],[-114.094,32.753],[-114.286,32.834],[-114.494,32.865],[-114.635,32.92],[-114.848,33.047],[-115.035,33.28],[-114.802,33.968],[-114.792,34.475],[-114.494,34.748],[-114.205,34.839],[-113.982,34.829],[-113.749,34.753],[-113.223,34.353],[-113.137,34.226],[-112.904,34.14],[-112.848,34.14]]]}},{"type":"Feature","properties":{"density":1},"geometry":{"type":"Polygon","coordinates":[[[-93.659,16.991],[-93.598,17.173],[-93.446,17.34],[-93.348,17.394],[-93.211,17.553],[-93.18,17.652],[-93.226,17.796],[-93.431,17.91],[-93.621,17.887],[-93.947,17.682],[-94.327,17.5],[-94.426,17.386],[-94.441,17.158],[-94.38,17.06],[-94.084,16.923],[-93.871,16.877],[-93.758,16.877],[-93.72,16.892],[-93.682,16.923],[-93.659,16.991]]]}},{"type":"Feature","properties":{"density":1},"geometry":{"type":"Polygon","coordinates":[[[-92.809,29.825],[-92.809,29.767],[-92.826,29.734],[-92.88,29.693],[-93.005,29.653],[-93.066,29.68],[-93.211,29.808],[-93.248,29.929],[-93.217,29.99],[-93.12,30.064],[-93.005,30.064],[-92.897,30.044],[-92.86,30.01],[-92.809,29.825]]]}},{"type":"Feature","properties":{"density":1},"geometry":{"type":"Polygon","coordinates":[[[-112.897,34.08],[-112.872,33.888],[-112.836,33.827],[-112.578,33.629],[-112.527,33.538],[-112.517,33.462],[-112.598,33.361],[-112.71,33.28],[-112.821,33.245],[-113.231,33.27],[-113.418,33.321],[-113.565,33.321],[-113.621,33.285],[-113.666,33.169],[-113.651,33.078],[-113.58,32.971],[-113.545,32.87],[-113.53,32.738],[-113.57,32.662],[-113.692,32.571],[-114.218,32.602],[-114.39,32.688],[-114.613,32.84],[-114.618,32.87],[-114.795,32.997],[-114.886,33.159],[-114.907,33.275],[-114.978,33.483],[-115.19,33.599],[-115.281,33.619],[-115.464,33.776],[-115.504,33.908],[-115.504,34.029],[-115.423,34.181],[-115.312,34.267],[-115.15,34.272],[-114.967,34.222],[-114.891,34.161],[-114.785,34.115],[-114.694,34.141],[-114.492,34.293],[-114.451,34.353],[-114.37,34.566],[-114.289,34.672],[-114.097,34.743],[-113.919,34.738],[-113.874,34.698],[-113.702,34.657],[-113.54,34.698],[-113.403,34.708],[-113.185,34.677],[-113.023,34.617],[-112.953,34.242],[-112.897,34.08]]]}},{"type":"Feature","properties":{"density":1},"geometry":{"type":"Polygon","coordinates":[[[-114.887,38.18],[-114.853,38.301],[-114.772,38.45],[-114.711,38.514],[-114.391,38.73],[-114.337,38.841],[-114.337,38.943],[-114.367,39.138],[-114.424,39.398],[-114.546,39.57],[-114.6,39.577],[-114.796,39.527],[-115.002,39.385],[-115.474,38.902],[-115.839,38.49],[-115.866,38.43],[-115.886,38.295],[-115.872,38.079],[-115.963,37.842],[-115.967,37.653],[-115.933,37.39],[-115.835,37.262],[-115.781,37.232],[-115.656,37.242],[-115.434,37.329],[-115.359,37.394],[-115.221,37.61],[-115.089,37.876],[-114.954,38.011],[-114.887,38.18]]]}},{"type":"Feature","properties":{"density":1},"geometry":{"type":"Polygon","coordinates":[[[-116.365,42.289],[-116.375,42.117],[-116.456,42.0],[-116.557,41.899],[-116.851,41.671],[-116.952,41.57],[-117.003,41.489],[-117.013,41.367],[-116.917,41.307],[-116.861,41.327],[-116.578,41.539],[-116.375,41.641],[-116.228,41.747],[-116.122,41.919],[-116.071,42.101],[-116.056,42.223],[-116.061,42.37],[-116.112,42.405],[-116.274,42.42],[-116.335,42.39],[-116.365,42.289]]]}},{"type":"Feature","properties":{"density":1},"geometry":{"type":"Polygon","coordinates":[[[-121.931,43.582],[-121.845,43.688],[-121.587,43.835],[-121.45,43.835],[-121.374,43.785],[-121.319,43.643],[-121.324,43.592],[-121.435,43.461],[-121.845,43.187],[-122.053,43.091],[-122.235,43.04],[-122.417,43.0],[-122.63,42.985],[-122.701,43.096],[-122.564,43.339],[-122.331,43.496],[-122.174,43.552],[-122.022,43.552],[-121.931,43.582]]]}},{"type":"Feature","properties":{"density":1},"geometry":{"type":"Polygon","coordinates":[[[-67.388,41.684],[-67.33,39.608],[-67.33,38.801],[-66.638,37.878],[-65.369,37.186],[-62.371,36.725],[-61.333,36.263],[-60.41,34.822],[-60.41,32.861],[-61.506,29.689],[-63.005,27.152],[-65.254,24.961],[-67.099,23.923],[-69.464,23.116],[-72.405,23.577],[-74.019,24.557],[-74.481,25.192],[-75.23,25.711],[-76.21,25.999],[-76.672,26.518],[-78.517,28.248],[-79.959,29.113],[-81.746,29.459],[-83.707,29.574],[-85.783,29.574],[-89.819,30.381],[-92.126,31.246],[-93.279,31.996],[-94.49,34.591],[-94.317,36.263],[-94.49,37.128],[-95.413,38.685],[-96.047,40.3],[-97.431,42.203],[-98.123,43.068],[-99.161,43.241],[-100.66,43.298],[-105.331,43.298],[-107.061,42.722],[-108.734,41.914],[-110.348,41.568],[-112.02,40.761],[-114.039,40.3],[-115.884,40.242],[-116.807,40.358],[-119.229,40.934],[-121.074,41.511],[-121.881,42.606],[-122.631,44.106],[-122.631,47.162],[-122.573,48.258],[-122.112,49.411],[-121.189,50.622],[-120.613,51.66],[-120.44,52.698],[-120.44,53.447],[-120.786,55.293],[-121.42,56.734],[-122.804,57.83],[-124.13,59.099],[-125.802,60.252],[-128.859,62.559],[-130.07,62.905],[-130.992,62.905],[-132.665,63.481],[-133.184,64.404],[-133.472,65.557],[-133.068,68.267],[-131.684,69.132],[-130.127,69.421],[-127.878,69.536],[-125.86,69.536],[-124.303,69.421],[-123.207,69.19],[-121.478,68.959],[-119.229,68.613],[-116.634,67.979],[-115.307,67.979],[-108.849,67.864],[-105.966,67.114],[-103.198,65.903],[-101.698,64.75],[-99.334,63.539],[-97.72,62.559],[-96.278,60.944],[-94.606,59.272],[-93.741,58.349],[-92.184,56.792],[-89.877,55.408],[-87.513,54.024],[-85.264,53.332],[-83.592,53.274],[-82.438,52.986],[-80.016,51.487],[-78.863,50.91],[-77.71,50.91],[-76.672,51.545],[-75.807,52.582],[-75.288,53.159],[-74.538,54.543],[-74.135,55.062],[-73.846,55.869],[-73.616,56.388],[-73.385,56.965],[-72.866,57.83],[-71.251,60.021],[-70.098,61.694],[-69.233,62.732],[-67.676,64.231],[-66.696,64.865],[-65.6,65.269],[-64.677,65.499],[-62.256,65.499],[-60.064,64.865],[-59.026,64.288],[-57.181,63.424],[-55.855,62.674],[-54.471,61.694],[-53.317,61.175],[-50.723,60.367],[-49.512,60.079],[-48.416,59.906],[-46.34,59.387],[-45.59,59.099],[-44.322,57.715],[-43.341,55.523],[-43.284,54.37],[-43.572,52.813],[-45.071,50.622],[-46.571,48.373],[-48.531,46.297],[-51.069,44.336],[-53.029,43.76],[-54.586,43.644],[-57.585,42.837],[-59.488,42.433],[-61.679,42.376],[-64.274,42.376],[-65.023,42.433],[-65.658,42.433],[-66.35,42.491],[-66.984,42.491],[-67.445,42.26],[-67.388,41.684]]]}},{"type":"Feature","properties":{"density":1},"geometry":{"type":"Polygon","coordinates":[[[-103.356,21.006],[-103.399,20.881],[-103.399,20.854],[-103.369,20.831],[-103.329,20.861],[-103.298,20.939],[-103.261,20.979],[-103.251,21.03],[-103.261,21.054],[-103.291,21.06],[-103.356,21.006]]]}},{"type":"Feature","properties":{"density":1},"geometry":{"type":"Polygon","coordinates":[[[-98.708,22.502],[-98.708,21.694],[-98.572,21.227],[-98.412,20.782],[-98.31,20.543],[-98.013,19.996],[-97.843,19.917],[-97.637,19.905],[-97.455,20.019],[-97.319,20.315],[-97.307,20.611],[-97.353,20.851],[-97.66,21.591],[-97.694,21.978],[-97.717,23.209],[-97.786,23.676],[-97.934,24.063],[-98.127,24.405],[-98.332,24.61],[-98.742,24.78],[-98.97,24.667],[-99.095,24.484],[-98.993,24.006],[-98.925,23.505],[-98.833,23.209],[-98.833,23.026],[-98.754,22.89],[-98.708,22.502]]]}},{"type":"Feature","properties":{"density":1},"geometry":{"type":"Polygon","coordinates":[[[-81.881,22.801],[-81.843,22.899],[-81.827,23.0],[-81.833,23.034],[-81.86,23.054],[-81.901,23.04],[-81.965,22.784],[-82.039,22.693],[-82.032,22.635],[-81.975,22.649],[-81.914,22.696],[-81.881,22.801]]]}},{"type":"Feature","properties":{"density":2},"geometry":{"type":"Polygon","coordinates":[[[-122.544,43.18],[-122.634,43.151],[-122.793,43.16],[-122.837,43.132],[-122.855,43.069],[-122.8,42.993],[-122.77,42.986],[-122.711,43.02],[-122.608,43.041],[-122.506,43.122],[-122.504,43.155],[-122.544,43.18]]]}},{"type":"Feature","properties":{"density":2},"geometry":{"type":"Polygon","coordinates":[[[-117.977,46.735],[-118.118,46.715],[-118.372,46.822],[-118.518,46.847],[-118.66,46.852],[-118.933,46.801],[-119.045,46.741],[-119.126,46.66],[-119.298,46.432],[-119.404,46.325],[-119.531,46.255],[-119.703,46.194],[-120.148,46.093],[-120.422,45.991],[-120.721,45.839],[-121.166,45.743],[-121.277,45.708],[-121.374,45.657],[-121.445,45.612],[-121.536,45.485],[-121.566,45.399],[-121.561,45.267],[-121.51,45.196],[-121.429,45.156],[-121.161,45.191],[-120.979,45.247],[-120.837,45.333],[-120.614,45.515],[-120.498,45.566],[-120.381,45.591],[-120.098,45.617],[-119.789,45.723],[-119.622,45.824],[-119.389,46.001],[-119.263,46.072],[-119.101,46.103],[-118.989,46.087],[-118.787,45.986],[-118.574,45.941],[-118.463,45.946],[-118.28,46.006],[-117.779,46.33],[-117.703,46.386],[-117.643,46.462],[-117.622,46.619],[-117.673,46.675],[-117.754,46.72],[-117.855,46.746],[-117.977,46.735]]]}},{"type":"Feature","properties":{"density":2},"geometry":{"type":"Polygon","coordinates":[[[-121.137,44.881],[-121.256,44.825],[-121.292,44.825],[-121.51,44.951],[-121.618,44.971],[-121.648,44.939],[-121.661,44.883],[-121.659,44.762],[-121.612,44.681],[-121.456,44.6],[-121.396,44.546],[-121.346,44.539],[-121.243,44.559],[-121.153,44.604],[-121.096,44.678],[-121.065,44.831],[-121.081,44.867],[-121.137,44.881]]]}},{"type":"Feature","properties":{"density":2},"geometry":{"type":"Polygon","coordinates":[[[-121.504,44.462],[-121.562,44.449],[-121.562,44.411],[-121.407,44.318],[-121.353,44.318],[-121.285,44.397],[-121.281,44.485],[-121.315,44.543],[-121.357,44.546],[-121.393,44.492],[-121.438,44.46],[-121.504,44.462]]]}},{"type":"Feature","properties":{"density":2},"geometry":{"type":"Polygon","coordinates":[[[-120.103,48.5],[-120.027,48.54],[-119.925,48.626],[-119.824,48.793],[-119.758,48.824],[-119.677,48.803],[-119.576,48.728],[-119.526,48.657],[-119.48,48.469],[-119.445,48.388],[-119.384,48.328],[-119.247,48.226],[-118.943,48.09],[-118.847,48.024],[-118.781,47.948],[-118.756,47.852],[-118.761,47.74],[-118.837,47.568],[-119.191,47.543],[-119.424,47.391],[-119.601,47.396],[-119.885,47.467],[-120.168,47.649],[-120.432,47.649],[-120.634,47.705],[-120.756,47.756],[-120.928,47.887],[-120.978,47.963],[-120.989,48.054],[-120.989,48.145],[-120.948,48.231],[-120.892,48.267],[-120.543,48.292],[-120.432,48.323],[-120.26,48.429],[-120.103,48.5]]]}},{"type":"Feature","properties":{"density":2},"geometry":{"type":"Polygon","coordinates":[[[-112.837,51.941],[-113.202,52.032],[-113.612,52.043],[-113.76,52.009],[-113.942,51.93],[-114.386,51.668],[-114.865,51.554],[-115.4,51.508],[-115.674,51.44],[-116.346,51.178],[-116.972,50.756],[-117.28,50.597],[-117.564,50.529],[-117.963,50.494],[-118.305,50.483],[-118.498,50.449],[-118.681,50.358],[-118.806,50.255],[-118.92,50.107],[-119.148,49.948],[-119.387,49.925],[-120.025,50.016],[-120.31,50.027],[-120.458,49.97],[-120.606,49.868],[-120.777,49.686],[-120.879,49.435],[-120.902,49.207],[-120.982,48.968],[-121.312,48.524],[-121.426,48.25],[-121.437,48.057],[-121.346,47.909],[-121.198,47.761],[-120.993,47.59],[-120.811,47.487],[-120.572,47.407],[-120.059,47.282],[-119.501,47.248],[-119.25,47.282],[-118.965,47.362],[-118.783,47.487],[-118.612,47.635],[-118.476,47.795],[-118.293,47.943],[-118.054,48.034],[-117.371,48.114],[-117.132,48.205],[-116.961,48.342],[-116.813,48.581],[-116.733,48.797],[-116.619,49.264],[-116.482,49.481],[-116.334,49.64],[-115.731,50.096],[-115.423,50.21],[-115.104,50.278],[-113.862,50.267],[-113.373,50.301],[-112.928,50.358],[-112.621,50.426],[-112.302,50.551],[-112.108,50.836],[-112.108,51.223],[-112.165,51.383],[-112.348,51.576],[-112.837,51.941]]]}},{"type":"Feature","properties":{"density":2},"geometry":{"type":"Polygon","coordinates":[[[-118.665,63.901],[-118.732,63.894],[-118.756,63.864],[-118.773,63.813],[-118.766,63.759],[-118.729,63.715],[-118.611,63.688],[-118.307,63.675],[-118.148,63.584],[-117.99,63.516],[-117.794,63.499],[-117.622,63.557],[-117.47,63.553],[-117.446,63.591],[-117.446,63.634],[-117.504,63.722],[-117.723,63.82],[-118.27,63.854],[-118.459,63.894],[-118.665,63.901]]]}},{"type":"Feature","properties":{"density":2},"geometry":{"type":"Polygon","coordinates":[[[-119.303,63.672],[-119.38,63.672],[-119.441,63.594],[-119.529,63.53],[-119.535,63.493],[-119.519,63.445],[-119.427,63.408],[-119.053,63.445],[-119.009,63.469],[-118.999,63.506],[-119.009,63.54],[-119.049,63.574],[-119.195,63.587],[-119.252,63.611],[-119.303,63.672]]]}},{"type":"Feature","properties":{"density":2},"geometry":{"type":"Polygon","coordinates":[[[-120.594,63.569],[-120.647,63.591],[-120.799,63.584],[-120.844,63.531],[-120.905,63.318],[-120.973,63.212],[-120.973,63.143],[-120.92,63.075],[-120.821,63.037],[-120.73,63.037],[-120.669,63.098],[-120.647,63.166],[-120.518,63.28],[-120.502,63.341],[-120.51,63.424],[-120.594,63.569]]]}},{"type":"Feature","properties":{"density":2},"geometry":{"type":"Polygon","coordinates":[[[-120.864,62.08],[-121.006,62.219],[-121.175,62.343],[-121.242,62.374],[-121.293,62.374],[-121.317,62.347],[-121.327,62.303],[-121.256,62.121],[-121.165,61.999],[-121.074,61.938],[-120.868,61.857],[-120.787,61.884],[-120.773,61.938],[-120.79,61.982],[-120.864,62.08]]]}},{"type":"Feature","properties":{"density":2},"geometry":{"type":"Polygon","coordinates":[[[-79.056,42.508],[-79.312,42.56],[-79.586,42.56],[-79.91,42.508],[-80.115,42.406],[-80.338,42.252],[-80.508,42.081],[-80.645,41.893],[-80.918,41.62],[-81.158,41.483],[-81.824,41.347],[-82.149,41.261],[-82.405,41.107],[-82.542,40.919],[-82.576,40.595],[-82.49,40.356],[-82.354,40.116],[-82.132,39.843],[-81.516,39.313],[-81.209,39.125],[-80.936,39.006],[-80.474,38.989],[-80.098,39.04],[-79.774,39.16],[-79.449,39.382],[-79.244,39.57],[-79.056,39.689],[-78.766,39.775],[-78.133,39.928],[-77.86,39.946],[-77.587,40.031],[-77.467,40.116],[-77.296,40.407],[-77.228,40.663],[-77.245,40.954],[-77.33,41.227],[-77.433,41.449],[-77.655,41.808],[-77.843,42.03],[-78.116,42.235],[-78.424,42.355],[-78.424,42.372],[-79.056,42.508]]]}},{"type":"Feature","properties":{"density":2},"geometry":{"type":"Polygon","coordinates":[[[-58.621,59.723],[-58.108,59.697],[-57.621,59.569],[-57.263,59.364],[-56.904,59.133],[-56.135,58.595],[-54.879,57.596],[-54.469,57.314],[-54.085,57.109],[-53.598,56.878],[-52.906,56.622],[-52.162,56.391],[-51.342,56.186],[-50.804,56.109],[-49.292,55.853],[-48.856,55.802],[-48.241,55.699],[-47.754,55.545],[-47.293,55.289],[-46.293,54.546],[-45.704,54.008],[-45.422,53.521],[-45.294,52.88],[-45.371,52.444],[-45.601,51.932],[-45.883,51.573],[-46.524,51.137],[-47.165,50.932],[-47.959,50.83],[-48.754,50.676],[-49.548,50.24],[-50.061,49.753],[-50.65,49.394],[-51.47,49.241],[-52.393,49.369],[-54.93,49.805],[-56.135,49.856],[-56.904,49.651],[-57.929,49.164],[-58.467,48.856],[-59.185,48.497],[-60.235,48.267],[-61.081,48.241],[-62.465,48.369],[-64.362,48.472],[-66.438,48.677],[-67.104,49.061],[-67.207,49.625],[-67.13,50.266],[-66.694,50.727],[-66.31,51.163],[-65.976,51.342],[-65.566,51.496],[-65.156,51.675],[-64.669,51.957],[-63.926,52.624],[-63.362,53.341],[-63.157,53.7],[-62.67,54.597],[-62.311,55.212],[-62.183,55.75],[-62.132,56.289],[-62.158,56.75],[-62.235,57.237],[-62.183,57.647],[-62.081,58.083],[-61.876,58.416],[-61.619,58.749],[-61.081,59.108],[-60.697,59.313],[-60.235,59.518],[-59.774,59.672],[-59.287,59.723],[-58.621,59.723]]]}},{"type":"Feature","properties":{"density":2},"geometry":{"type":"Polygon","coordinates":[[[-113.351,64.388],[-116.495,64.388],[-118.152,64.422],[-120.049,64.422],[-120.852,64.405],[-121.945,64.234],[-122.526,64.081],[-123.09,63.875],[-123.79,63.448],[-123.961,63.295],[-124.064,62.833],[-124.064,62.509],[-123.893,61.996],[-123.722,61.859],[-123.483,61.757],[-122.629,61.535],[-122.321,61.296],[-121.996,60.954],[-121.621,60.458],[-120.168,59.536],[-119.587,59.211],[-118.631,58.955],[-117.571,59.04],[-116.785,59.126],[-116.119,59.143],[-115.487,59.262],[-114.837,59.587],[-114.444,60.168],[-114.103,60.954],[-114.069,61.244],[-113.539,62.03],[-112.89,62.509],[-111.967,63.09],[-111.266,63.465],[-110.31,64.012],[-109.814,64.371],[-109.472,65.003],[-109.353,65.567],[-109.455,65.892],[-109.643,66.011],[-110.07,66.062],[-110.617,65.892],[-111.079,65.584],[-111.745,64.969],[-112.223,64.627],[-112.65,64.388],[-113.351,64.388]]]}},{"type":"Feature","properties":{"density":2},"geometry":{"type":"Polygon","coordinates":[[[-125.847,72.126],[-126.292,71.904],[-126.463,71.801],[-126.975,71.374],[-127.436,70.947],[-128.308,70.059],[-128.837,69.563],[-129.538,68.948],[-130.051,68.538],[-130.7,68.06],[-131.349,67.667],[-132.408,67.154],[-133.536,66.727],[-135.142,66.266],[-136.338,66.043],[-137.842,65.873],[-139.021,65.514],[-139.397,65.36],[-139.926,65.087],[-140.37,64.694],[-140.507,64.386],[-140.524,64.113],[-140.422,63.891],[-140.2,63.771],[-139.414,63.737],[-138.611,63.805],[-136.577,63.856],[-132.904,65.343],[-132.033,65.719],[-131.417,65.958],[-129.863,66.727],[-129.196,67.034],[-128.137,67.564],[-127.607,67.906],[-126.924,68.436],[-126.309,68.965],[-125.779,69.444],[-125.181,70.093],[-124.002,71.221],[-123.763,71.511],[-123.558,71.836],[-123.507,72.28],[-123.592,72.57],[-123.831,72.69],[-124.532,72.69],[-125.54,72.314],[-125.847,72.126]]]}},{"type":"Feature","properties":{"density":2},"geometry":{"type":"Polygon","coordinates":[[[-86.623,52.265],[-88.314,52.457],[-89.545,52.803],[-90.967,53.303],[-93.081,53.918],[-93.773,54.149],[-96.195,55.186],[-97.464,55.917],[-99.348,57.301],[-101.462,58.723],[-103.154,59.8],[-104.307,60.492],[-105.383,61.222],[-106.306,61.76],[-107.536,62.375],[-109.65,62.798],[-111.496,63.067],[-112.611,63.298],[-114.148,63.298],[-114.994,63.26],[-115.686,62.952],[-116.186,62.645],[-116.955,62.26],[-117.531,61.876],[-118.377,61.222],[-118.685,60.838],[-118.992,60.492],[-119.377,59.607],[-119.492,58.916],[-119.492,58.147],[-119.607,57.032],[-119.607,55.994],[-119.454,54.687],[-119.3,54.225],[-118.608,53.303],[-117.993,53.072],[-117.493,52.918],[-116.955,52.688],[-116.147,52.265],[-115.917,52.073],[-115.917,51.765],[-115.994,51.419],[-116.416,50.996],[-116.724,50.881],[-117.57,50.727],[-118.185,50.766],[-118.531,50.766],[-119.069,50.881],[-119.876,50.612],[-120.491,50.112],[-120.761,49.843],[-120.876,49.074],[-121.068,48.536],[-121.068,47.844],[-120.862,47.495],[-120.299,47.152],[-119.723,47.075],[-119.377,47.152],[-118.838,47.306],[-118.07,47.613],[-117.378,47.998],[-116.993,48.19],[-116.57,48.536],[-115.994,49.151],[-115.763,49.458],[-114.956,49.997],[-114.494,50.15],[-114.187,50.074],[-114.187,49.804],[-114.84,49.112],[-115.148,48.997],[-115.763,48.613],[-116.07,48.382],[-116.416,48.228],[-117.301,47.652],[-118.031,47.306],[-119.492,46.806],[-120.299,46.691],[-120.914,46.383],[-121.376,45.999],[-121.991,45.383],[-122.106,44.768],[-121.914,44.153],[-121.337,43.077],[-120.568,42.769],[-119.492,42.423],[-118.492,42.308],[-117.224,42.462],[-115.648,42.539],[-115.148,42.27],[-114.84,42.27],[-114.379,42.577],[-114.379,44.615],[-114.225,45.114],[-113.687,45.537],[-112.88,45.806],[-111.38,45.806],[-110.573,45.768],[-107.305,45.768],[-106.229,45.883],[-104.999,46.345],[-103.769,46.921],[-102.423,47.575],[-100.77,48.344],[-100.078,48.69],[-99.386,48.959],[-97.695,48.959],[-96.964,48.92],[-95.772,48.613],[-94.158,48.228],[-93.466,47.882],[-92.774,47.498],[-91.544,46.229],[-90.006,44.999],[-89.006,43.461],[-88.238,42.616],[-87.392,41.424],[-86.738,40.886],[-86.162,40.309],[-83.509,39.502],[-82.163,39.848],[-81.318,40.77],[-80.779,41.539],[-80.434,42.616],[-80.933,43.154],[-81.894,43.692],[-82.779,44.038],[-83.74,44.538],[-83.855,45.345],[-83.586,45.922],[-82.163,47.844],[-82.279,48.843],[-82.817,50.535],[-84.355,51.996],[-84.97,52.073],[-85.892,52.226],[-86.623,52.265]]]}},{"type":"Feature","properties":{"density":2},"geometry":{"type":"Polygon","coordinates":[[[-117.42,53.114],[-116.997,52.998],[-116.19,52.652],[-115.806,52.268],[-115.498,51.807],[-115.114,51.384],[-114.691,51.038],[-114.268,50.807],[-114.037,50.423],[-113.922,49.846],[-113.922,49.116],[-114.345,48.731],[-114.96,48.462],[-115.767,48.308],[-116.498,48.116],[-116.959,47.885],[-117.805,47.347],[-118.304,47.117],[-118.996,46.886],[-119.881,46.732],[-120.573,46.501],[-121.111,46.271],[-121.418,45.963],[-121.764,45.387],[-121.841,44.887],[-121.764,44.464],[-121.341,43.388],[-121.072,42.926],[-120.803,42.58],[-120.342,42.196],[-119.727,41.888],[-119.15,41.927],[-118.343,42.119],[-117.843,42.08],[-117.459,41.542],[-117.074,41.35],[-116.498,41.312],[-115.882,41.504],[-115.498,41.888],[-115.037,42.234],[-114.498,42.388],[-113.96,42.619],[-113.076,43.426],[-112.769,43.887],[-112.384,44.195],[-112.0,44.387],[-111.538,44.541],[-110.001,44.733],[-108.617,45.041],[-107.809,45.387],[-107.117,45.771],[-106.425,46.079],[-105.695,46.194],[-105.195,46.232],[-104.657,46.232],[-102.889,46.771],[-102.581,46.963],[-102.197,47.27],[-101.697,47.578],[-101.236,47.809],[-100.62,47.962],[-99.044,48.001],[-98.506,47.924],[-97.929,47.77],[-97.43,47.616],[-96.507,47.232],[-95.892,46.886],[-95.046,46.271],[-94.623,45.886],[-94.239,45.463],[-93.893,45.041],[-93.585,44.579],[-93.316,44.08],[-93.086,43.58],[-92.893,43.234],[-92.432,42.311],[-92.163,42.042],[-91.778,41.734],[-91.01,41.196],[-90.702,41.081],[-90.318,40.889],[-89.433,40.62],[-89.087,40.543],[-87.934,40.389],[-87.204,40.389],[-86.589,40.466],[-85.474,40.697],[-84.897,40.966],[-84.474,41.196],[-84.09,41.465],[-83.59,41.927],[-83.09,42.58],[-82.783,43.042],[-82.59,43.58],[-82.59,44.656],[-82.744,45.194],[-83.052,45.925],[-83.513,46.425],[-84.051,46.886],[-84.782,47.424],[-85.358,48.001],[-85.704,48.654],[-85.974,49.462],[-86.204,50.23],[-86.781,50.922],[-87.55,51.422],[-88.472,51.845],[-89.51,52.076],[-92.099,52.691],[-92.791,52.87],[-93.534,53.075],[-94.303,53.383],[-94.944,53.716],[-95.789,54.203],[-96.609,54.767],[-97.353,55.331],[-99.403,56.945],[-100.505,57.663],[-101.171,57.97],[-102.068,58.278],[-103.119,58.432],[-103.862,58.457],[-104.58,58.457],[-106.246,58.304],[-107.169,58.252],[-108.168,58.278],[-109.193,58.483],[-110.142,58.816],[-111.064,59.226],[-112.912,60.462],[-113.553,61.257],[-114.527,62.333],[-115.219,62.948],[-116.423,63.871],[-117.064,64.306],[-118.064,64.665],[-118.935,64.819],[-119.678,64.896],[-120.447,64.896],[-121.088,64.793],[-122.574,64.409],[-123.343,64.178],[-123.805,63.896],[-124.189,63.461],[-124.394,62.922],[-124.445,62.205],[-124.394,61.539],[-124.061,60.821],[-123.574,60.155],[-121.549,58.694],[-120.704,57.592],[-120.191,55.875],[-119.986,55.336],[-119.653,54.619],[-119.294,54.055],[-118.807,53.568],[-118.397,53.414],[-117.42,53.114]]]}},{"type":"Feature","properties":{"density":2},"geometry":{"type":"Polygon","coordinates":[[[-113.417,32.652],[-113.417,32.879],[-113.432,33.031],[-113.467,33.178],[-113.513,33.229],[-113.599,33.284],[-113.7,33.34],[-113.867,33.391],[-114.049,33.411],[-114.318,33.512],[-114.551,33.553],[-114.642,33.553],[-114.723,33.507],[-114.789,33.446],[-114.794,33.279],[-114.718,33.229],[-114.657,33.224],[-114.444,33.264],[-114.267,33.274],[-114.044,33.249],[-113.968,33.148],[-113.72,32.889],[-113.619,32.717],[-113.569,32.591],[-113.523,32.56],[-113.482,32.56],[-113.442,32.591],[-113.417,32.652]]]}},{"type":"Feature","properties":{"density":2},"geometry":{"type":"Polygon","coordinates":[[[-88.75,21.532],[-88.604,21.48],[-88.556,21.473],[-88.541,21.489],[-88.543,21.514],[-88.597,21.543],[-88.698,21.561],[-88.777,21.611],[-88.806,21.597],[-88.75,21.532]]]}},{"type":"Feature","properties":{"density":2},"geometry":{"type":"Polygon","coordinates":[[[-120.786,61.922],[-120.535,62.021],[-120.482,62.059],[-120.422,62.15],[-120.422,62.355],[-120.391,62.53],[-120.475,62.666],[-120.505,62.765],[-120.566,62.871],[-120.589,62.993],[-120.589,63.092],[-120.52,63.327],[-120.543,63.403],[-120.657,63.532],[-121.044,63.585],[-121.189,63.578],[-121.69,63.707],[-121.842,63.858],[-121.811,63.98],[-121.561,64.155],[-121.128,64.42],[-121.067,64.527],[-121.105,64.679],[-121.227,64.77],[-121.583,64.777],[-122.191,64.633],[-122.738,64.375],[-122.874,64.284],[-123.064,64.147],[-123.421,63.676],[-123.474,63.532],[-123.71,63.205],[-123.824,62.978],[-123.862,62.826],[-123.846,62.325],[-123.687,62.173],[-123.512,62.173],[-123.33,62.233],[-123.163,62.256],[-122.905,62.264],[-122.616,62.188],[-122.51,62.15],[-122.161,61.854],[-121.993,61.664],[-121.819,61.565],[-121.659,61.504],[-121.5,61.504],[-121.371,61.573],[-121.242,61.747],[-121.135,61.823],[-120.961,61.884],[-120.786,61.922]]]}},{"type":"Feature","properties":{"density":2},"geometry":{"type":"Polygon","coordinates":[[[-110.884,62.966],[-111.127,63.3],[-111.262,63.422],[-111.562,63.648],[-111.674,63.672],[-111.745,63.641],[-111.762,63.591],[-111.701,63.513],[-111.633,63.378],[-111.546,63.307],[-111.323,63.064],[-111.039,62.814],[-110.908,62.72],[-110.877,62.723],[-110.82,62.767],[-110.82,62.902],[-110.884,62.966]]]}},{"type":"Feature","properties":{"density":2},"geometry":{"type":"Polygon","coordinates":[[[-118.65,54.064],[-117.83,53.928],[-116.514,53.911],[-115.984,53.962],[-115.643,54.064],[-115.455,54.184],[-115.284,54.543],[-115.284,54.833],[-115.728,55.175],[-115.967,55.226],[-116.548,55.482],[-117.027,55.551],[-117.402,55.636],[-118.086,55.653],[-118.325,55.534],[-118.633,55.329],[-118.769,55.209],[-118.906,55.004],[-118.923,54.731],[-118.889,54.56],[-118.65,54.064]]]}},{"type":"Feature","properties":{"density":2},"geometry":{"type":"Polygon","coordinates":[[[-116.925,50.614],[-116.904,50.103],[-116.925,49.921],[-116.975,49.708],[-117.097,49.511],[-117.37,49.136],[-117.826,48.402],[-117.998,48.245],[-118.145,48.154],[-118.843,47.992],[-119.415,47.891],[-119.775,47.774],[-119.952,47.744],[-120.347,47.739],[-120.813,47.779],[-121.035,47.855],[-121.172,48.027],[-121.157,48.215],[-121.066,48.488],[-120.838,49.01],[-120.681,49.212],[-120.276,49.647],[-119.719,50.321],[-119.193,50.862],[-118.929,51.111],[-118.484,51.435],[-118.231,51.536],[-117.998,51.546],[-117.694,51.505],[-117.35,51.384],[-117.056,51.192],[-116.955,50.802],[-116.925,50.614]]]}},{"type":"Feature","properties":{"density":2},"geometry":{"type":"Polygon","coordinates":[[[-81.505,50.717],[-81.044,50.204],[-80.813,49.666],[-80.736,49.256],[-80.787,48.539],[-81.095,47.667],[-81.659,46.591],[-81.864,46.027],[-82.325,45.156],[-82.402,44.13],[-82.402,43.49],[-82.248,42.541],[-81.377,41.029],[-80.839,40.389],[-80.275,38.928],[-79.788,38.287],[-79.096,37.646],[-78.788,37.057],[-78.558,36.288],[-78.506,35.391],[-78.66,34.904],[-79.557,34.315],[-80.634,34.084],[-82.453,34.186],[-83.248,34.263],[-84.145,34.263],[-84.734,34.289],[-86.067,35.032],[-87.22,36.057],[-87.784,36.877],[-88.732,38.543],[-89.45,39.953],[-89.988,41.106],[-90.578,42.567],[-91.065,43.72],[-91.731,45.002],[-92.5,46.078],[-92.936,46.642],[-93.653,47.308],[-95.242,48.718],[-95.857,49.051],[-96.319,49.256],[-97.062,49.256],[-97.908,49.051],[-98.548,48.692],[-99.138,48.385],[-99.497,48.18],[-100.009,47.718],[-100.47,47.129],[-101.188,46.437],[-101.778,46.053],[-102.495,45.694],[-103.29,45.463],[-104.392,45.566],[-105.596,45.899],[-105.904,45.822],[-106.647,45.591],[-107.339,45.591],[-108.287,45.617],[-109.21,45.54],[-109.851,45.54],[-110.44,45.489],[-111.44,45.284],[-112.157,45.027],[-112.619,44.822],[-113.234,44.361],[-113.669,43.9],[-113.746,43.618],[-113.746,42.977],[-114.002,42.362],[-114.464,41.901],[-115.156,41.465],[-116.437,41.183],[-117.155,41.644],[-117.744,42.336],[-119.231,42.49],[-119.538,42.721],[-119.795,43.131],[-120.717,43.387],[-121.281,43.49],[-122.024,44.105],[-122.024,44.848],[-121.691,45.463],[-121.332,45.899],[-120.384,46.437],[-119.59,46.796],[-118.872,47.155],[-118.308,47.488],[-117.642,47.821],[-117.155,48.103],[-116.412,48.462],[-115.95,48.667],[-115.156,48.974],[-113.9,49.077],[-112.362,49.564],[-111.927,49.615],[-111.388,49.641],[-109.492,49.897],[-107.852,49.717],[-105.135,50.102],[-104.622,50.307],[-104.135,50.435],[-103.648,50.512],[-103.11,50.768],[-102.854,51.025],[-102.88,51.178],[-103.11,51.563],[-103.495,51.691],[-104.674,52.204],[-105.801,52.716],[-106.109,52.87],[-107.288,53.331],[-109.466,53.946],[-111.004,54.126],[-111.67,54.126],[-113.003,54.023],[-114.002,53.767],[-116.565,53.664],[-117.591,53.844],[-118.667,54.433],[-118.718,55.1],[-118.334,55.638],[-117.539,56.125],[-116.745,56.15],[-115.028,55.997],[-114.002,55.971],[-112.08,56.15],[-110.286,56.125],[-108.723,55.894],[-107.134,55.843],[-106.237,55.843],[-105.289,55.766],[-103.828,55.945],[-102.316,56.689],[-101.393,56.97],[-100.086,56.97],[-98.984,56.74],[-98.036,56.176],[-97.626,55.74],[-96.882,55.023],[-96.575,54.613],[-95.729,53.818],[-94.986,53.306],[-94.063,52.844],[-92.884,52.511],[-91.475,52.357],[-89.091,52.306],[-87.092,51.947],[-86.041,51.793],[-85.144,51.64],[-84.504,51.563],[-83.863,51.563],[-83.017,51.537],[-82.3,51.435],[-81.813,51.127],[-81.505,50.717]]]}},{"type":"Feature","properties":{"density":2},"geometry":{"type":"Polygon","coordinates":[[[-115.355,38.375],[-115.431,38.284],[-115.75,37.646],[-115.788,37.464],[-115.772,37.396],[-115.727,37.365],[-115.659,37.373],[-115.575,37.456],[-115.476,37.745],[-115.362,37.95],[-115.104,38.216],[-115.081,38.314],[-115.097,38.436],[-115.142,38.489],[-115.211,38.489],[-115.294,38.459],[-115.355,38.375]]]}},{"type":"Feature","properties":{"density":2},"geometry":{"type":"Polygon","coordinates":[[[-114.605,33.249],[-114.554,33.32],[-114.438,33.391],[-114.296,33.406],[-114.109,33.391],[-114.002,33.442],[-113.921,33.503],[-113.916,33.624],[-113.957,33.659],[-114.19,33.735],[-114.478,33.685],[-114.661,33.553],[-114.762,33.442],[-114.782,33.254],[-114.772,33.199],[-114.721,33.163],[-114.6,33.219],[-114.605,33.249]]]}},{"type":"Feature","properties":{"density":2},"geometry":{"type":"Polygon","coordinates":[[[-49.5,55.835],[-48.462,55.662],[-47.251,54.566],[-46.616,54.047],[-46.155,53.355],[-46.155,52.548],[-46.732,51.625],[-47.308,51.222],[-48.231,50.933],[-49.5,50.876],[-51.114,50.703],[-52.786,50.587],[-54.516,50.991],[-55.9,52.317],[-56.189,53.759],[-56.419,53.817],[-57.342,54.336],[-58.611,55.662],[-58.957,57.565],[-58.726,58.315],[-57.919,58.776],[-56.592,58.545],[-55.727,58.199],[-54.632,57.277],[-53.882,56.988],[-52.267,56.239],[-51.114,55.662],[-50.249,55.662],[-49.5,55.835]]]}},{"type":"Feature","properties":{"density":2},"geometry":{"type":"Polygon","coordinates":[[[-91.834,31.154],[-91.942,31.154],[-92.428,31.097],[-92.613,31.057],[-92.85,30.881],[-92.866,30.82],[-92.839,30.733],[-92.792,30.706],[-92.698,30.706],[-92.58,30.766],[-92.478,30.773],[-92.272,30.857],[-92.178,30.871],[-92.053,30.918],[-91.847,30.949],[-91.726,31.016],[-91.702,31.08],[-91.726,31.111],[-91.834,31.154]]]}},{"type":"Feature","properties":{"density":2},"geometry":{"type":"Polygon","coordinates":[[[-93.12,29.838],[-93.079,29.757],[-93.015,29.693],[-92.947,29.683],[-92.89,29.72],[-92.89,29.767],[-92.924,29.869],[-92.914,29.973],[-92.961,30.007],[-93.113,30.01],[-93.15,29.997],[-93.174,29.929],[-93.12,29.838]]]}},{"type":"Feature","properties":{"density":2},"geometry":{"type":"Polygon","coordinates":[[[-110.993,63.506],[-111.448,63.643],[-111.661,63.724],[-111.701,63.724],[-111.767,63.673],[-111.752,63.603],[-111.641,63.527],[-111.631,63.476],[-111.484,63.375],[-111.099,63.157],[-110.952,63.005],[-110.912,62.934],[-110.821,62.828],[-110.75,62.772],[-110.669,62.767],[-110.608,62.818],[-110.573,62.894],[-110.628,63.046],[-110.912,63.436],[-110.993,63.506]]]}},{"type":"Feature","properties":{"density":2},"geometry":{"type":"Polygon","coordinates":[[[-113.661,34.404],[-113.742,34.146],[-113.778,34.075],[-113.955,33.857],[-114.076,33.751],[-114.183,33.685],[-114.466,33.619],[-114.709,33.462],[-114.75,33.417],[-114.77,33.356],[-114.755,33.29],[-114.709,33.219],[-114.613,33.199],[-114.522,33.24],[-114.456,33.366],[-114.38,33.422],[-114.249,33.467],[-114.117,33.467],[-113.975,33.508],[-113.823,33.594],[-113.545,33.857],[-113.479,33.969],[-113.428,34.136],[-113.408,34.358],[-113.439,34.434],[-113.499,34.5],[-113.616,34.495],[-113.661,34.404]]]}},{"type":"Feature","properties":{"density":2},"geometry":{"type":"Polygon","coordinates":[[[-114.684,38.912],[-114.705,38.976],[-114.698,39.206],[-114.745,39.331],[-114.819,39.358],[-115.015,39.311],[-115.123,39.206],[-115.184,39.098],[-115.353,38.922],[-115.504,38.727],[-115.606,38.632],[-115.734,38.544],[-115.828,38.389],[-115.832,38.305],[-115.771,38.146],[-115.764,38.055],[-115.778,38.011],[-115.872,37.923],[-115.936,37.826],[-115.94,37.782],[-115.94,37.721],[-115.852,37.424],[-115.805,37.356],[-115.744,37.316],[-115.602,37.34],[-115.447,37.464],[-115.363,37.576],[-115.326,37.734],[-115.292,37.795],[-115.197,37.917],[-114.86,38.501],[-114.786,38.582],[-114.522,38.713],[-114.441,38.774],[-114.421,38.885],[-114.441,38.936],[-114.482,38.939],[-114.61,38.875],[-114.637,38.875],[-114.684,38.912]]]}},{"type":"Feature","properties":{"density":2},"geometry":{"type":"Polygon","coordinates":[[[-121.87,43.481],[-121.83,43.364],[-121.83,43.288],[-121.845,43.253],[-122.083,43.182],[-122.179,43.137],[-122.265,43.132],[-122.473,43.051],[-122.549,43.045],[-122.599,43.061],[-122.62,43.116],[-122.599,43.228],[-122.549,43.283],[-122.336,43.41],[-122.103,43.501],[-121.901,43.506],[-121.87,43.481]]]}},{"type":"Feature","properties":{"density":2},"geometry":{"type":"Polygon","coordinates":[[[-86.828,52.943],[-88.443,52.828],[-90.692,53.058],[-93.114,53.462],[-94.498,54.096],[-95.766,54.846],[-97.208,56.172],[-99.399,58.479],[-102.917,61.304],[-104.474,62.861],[-106.031,64.015],[-107.933,64.995],[-109.49,65.572],[-111.047,66.206],[-111.97,66.552],[-112.604,66.552],[-113.7,66.667],[-117.275,66.898],[-118.832,66.898],[-120.158,66.84],[-121.312,66.61],[-122.119,66.091],[-122.926,65.629],[-123.734,65.053],[-124.31,64.591],[-124.714,64.072],[-124.772,63.669],[-124.599,62.861],[-124.08,62.4],[-123.503,62.054],[-122.58,61.708],[-121.658,61.593],[-119.812,61.016],[-118.774,60.324],[-118.313,59.286],[-118.313,58.709],[-118.659,57.902],[-119.293,57.095],[-119.582,56.46],[-119.87,55.595],[-119.87,55.077],[-119.697,54.212],[-119.12,53.174],[-118.947,52.366],[-119.12,51.963],[-120.158,50.636],[-120.677,50.06],[-121.023,49.368],[-121.369,48.791],[-121.773,47.984],[-122.004,47.349],[-122.119,46.484],[-122.234,44.985],[-122.004,44.178],[-121.715,43.371],[-120.85,42.506],[-119.812,42.044],[-117.737,41.179],[-115.949,41.064],[-114.565,41.064],[-113.469,41.295],[-112.547,41.641],[-111.912,41.987],[-110.759,42.736],[-110.009,43.14],[-107.241,43.601],[-105.685,43.832],[-104.474,44.062],[-101.821,44.235],[-100.956,44.351],[-99.86,44.754],[-99.226,44.754],[-97.438,44.466],[-96.977,43.889],[-96.862,43.198],[-96.862,41.871],[-95.113,40.218],[-94.036,39.565],[-93.229,37.066],[-93.056,34.605],[-92.191,33.279],[-91.557,32.414],[-90.288,31.722],[-88.904,31.146],[-87.289,30.281],[-86.194,30.165],[-84.983,30.165],[-84.118,30.223],[-82.676,30.684],[-76.391,31.837],[-74.488,32.529],[-72.7,33.798],[-70.682,36.451],[-70.336,37.604],[-70.105,38.873],[-69.99,39.853],[-69.356,41.41],[-69.067,42.909],[-68.087,44.524],[-66.242,45.908],[-64.339,46.657],[-59.725,46.657],[-57.65,46.83],[-55.862,46.83],[-54.132,47.292],[-52.287,48.33],[-51.249,49.022],[-50.038,49.714],[-49.346,50.06],[-48.192,50.752],[-47.155,51.444],[-46.232,52.136],[-45.655,52.828],[-45.309,53.981],[-45.309,55.134],[-45.194,56.287],[-45.425,56.979],[-45.771,57.556],[-47.27,57.902],[-49.922,58.363],[-53.036,58.594],[-54.593,58.767],[-56.093,59.055],[-57.304,59.459],[-58.803,60.439],[-60.014,61.939],[-61.974,63.726],[-65.261,63.784],[-67.107,62.458],[-68.491,61.247],[-69.875,59.517],[-70.797,58.075],[-72.123,56.172],[-73.104,54.904],[-73.565,53.635],[-73.68,52.366],[-73.796,51.328],[-74.603,49.598],[-75.699,48.387],[-76.448,47.522],[-77.717,45.677],[-78.697,44.581],[-79.332,44.235],[-79.927,44.37],[-80.37,44.985],[-80.37,45.389],[-80.427,45.965],[-80.427,46.946],[-80.485,48.906],[-80.946,50.348],[-81.811,51.213],[-82.907,51.79],[-83.945,52.193],[-85.559,52.655],[-86.828,52.943]]]}},{"type":"Feature","properties":{"density":2},"geometry":{"type":"Polygon","coordinates":[[[-98.488,21.568],[-98.397,21.416],[-98.291,21.143],[-98.161,20.87],[-98.078,20.634],[-98.048,20.444],[-97.888,20.08],[-97.759,20.019],[-97.562,20.141],[-97.554,20.399],[-97.577,20.596],[-97.683,20.779],[-97.789,20.892],[-97.903,21.325],[-97.918,22.411],[-97.941,22.753],[-98.101,23.452],[-98.23,23.801],[-98.382,23.983],[-98.458,24.135],[-98.594,24.34],[-98.792,24.272],[-98.852,24.12],[-98.564,23.224],[-98.549,22.988],[-98.564,22.669],[-98.549,21.948],[-98.488,21.568]]]}},{"type":"Feature","properties":{"density":3},"geometry":{"type":"Polygon","coordinates":[[[-120.539,45.824],[-120.73,45.752],[-121.304,45.403],[-121.466,45.34],[-121.497,45.297],[-121.493,45.279],[-121.45,45.261],[-121.374,45.288],[-121.052,45.441],[-120.741,45.63],[-120.537,45.682],[-120.462,45.718],[-120.433,45.77],[-120.442,45.806],[-120.539,45.824]]]}},{"type":"Feature","properties":{"density":3},"geometry":{"type":"Polygon","coordinates":[[[-121.279,44.723],[-121.378,44.708],[-121.526,44.755],[-121.558,44.757],[-121.564,44.744],[-121.488,44.645],[-121.308,44.613],[-121.193,44.663],[-121.164,44.705],[-121.162,44.759],[-121.195,44.773],[-121.279,44.723]]]}},{"type":"Feature","properties":{"density":3},"geometry":{"type":"Polygon","coordinates":[[[-120.339,48.127],[-120.456,48.184],[-120.513,48.186],[-120.582,48.148],[-120.67,48.139],[-120.783,48.152],[-120.837,48.123],[-120.864,48.082],[-120.87,48.024],[-120.846,47.972],[-120.717,47.821],[-120.546,47.702],[-120.285,47.675],[-120.22,47.682],[-120.13,47.738],[-120.108,47.833],[-120.15,47.918],[-120.339,48.127]]]}},{"type":"Feature","properties":{"density":3},"geometry":{"type":"Polygon","coordinates":[[[-119.338,48.645],[-119.419,48.682],[-119.473,48.682],[-119.531,48.628],[-119.544,48.544],[-119.483,48.479],[-119.443,48.459],[-119.396,48.334],[-119.355,48.294],[-119.213,48.25],[-119.136,48.206],[-119.092,48.199],[-119.061,48.216],[-119.045,48.297],[-119.068,48.341],[-119.129,48.392],[-119.196,48.422],[-119.338,48.645]]]}},{"type":"Feature","properties":{"density":3},"geometry":{"type":"Polygon","coordinates":[[[-118.27,49.531],[-118.311,49.566],[-118.376,49.581],[-118.447,49.581],[-118.508,49.541],[-118.538,49.505],[-118.599,49.364],[-118.599,49.293],[-118.64,49.202],[-118.797,49.1],[-118.857,49.019],[-118.903,48.883],[-118.938,48.675],[-118.913,48.447],[-118.943,48.326],[-118.938,48.275],[-118.903,48.25],[-118.857,48.25],[-118.797,48.275],[-118.766,48.316],[-118.705,48.473],[-118.564,48.716],[-118.523,48.751],[-118.417,48.797],[-118.184,48.842],[-118.113,48.878],[-118.062,48.933],[-118.037,48.999],[-118.032,49.106],[-118.068,49.227],[-118.179,49.435],[-118.27,49.531]]]}},{"type":"Feature","properties":{"density":3},"geometry":{"type":"Polygon","coordinates":[[[-118.209,48.852],[-118.164,48.782],[-118.159,48.731],[-118.219,48.437],[-118.316,48.265],[-118.326,48.159],[-118.275,48.128],[-118.093,48.23],[-118.037,48.29],[-117.86,48.67],[-117.708,48.807],[-117.673,48.868],[-117.668,48.908],[-117.728,49.065],[-117.733,49.121],[-117.728,49.187],[-117.647,49.364],[-117.632,49.43],[-117.637,49.521],[-117.663,49.561],[-117.759,49.607],[-117.804,49.607],[-117.9,49.561],[-117.997,49.566],[-118.184,49.652],[-118.285,49.607],[-118.316,49.465],[-118.316,49.303],[-118.28,48.979],[-118.209,48.852]]]}},{"type":"Feature","properties":{"density":3},"geometry":{"type":"Polygon","coordinates":[[[-120.506,49.495],[-120.557,49.505],[-120.611,49.424],[-120.617,49.367],[-120.584,49.185],[-120.665,49.016],[-120.654,48.969],[-120.614,48.949],[-120.543,48.965],[-120.506,49.003],[-120.452,49.097],[-120.438,49.154],[-120.425,49.269],[-120.449,49.424],[-120.506,49.495]]]}},{"type":"Feature","properties":{"density":3},"geometry":{"type":"Polygon","coordinates":[[[-118.871,45.587],[-119.235,45.648],[-119.508,45.655],[-119.797,45.579],[-119.919,45.526],[-120.154,45.382],[-120.632,45.192],[-120.746,45.071],[-120.777,44.949],[-120.731,44.858],[-120.701,44.729],[-120.708,44.622],[-120.792,44.531],[-120.891,44.455],[-120.944,44.364],[-120.921,44.22],[-120.83,44.129],[-120.42,43.985],[-120.298,43.916],[-120.23,43.825],[-120.177,43.704],[-120.184,43.605],[-120.23,43.529],[-120.397,43.347],[-120.48,43.218],[-120.465,43.157],[-120.162,42.853],[-119.645,42.572],[-119.524,42.549],[-119.387,42.549],[-119.136,42.595],[-118.878,42.754],[-118.764,42.868],[-118.567,42.952],[-118.461,42.952],[-118.05,42.861],[-117.792,42.846],[-117.602,42.868],[-117.489,42.906],[-117.405,42.975],[-117.291,43.104],[-117.139,43.491],[-117.071,43.696],[-117.048,43.871],[-117.048,44.03],[-116.987,44.205],[-116.82,44.44],[-116.767,44.547],[-116.706,44.782],[-116.691,44.934],[-116.349,45.446],[-116.11,45.771],[-115.854,46.181],[-115.632,46.437],[-115.41,46.66],[-115.119,46.899],[-114.931,47.001],[-114.675,47.052],[-114.35,47.035],[-114.06,46.984],[-113.787,46.984],[-113.376,47.052],[-112.898,47.223],[-112.659,47.258],[-112.215,47.24],[-112.01,47.172],[-111.787,47.001],[-111.651,46.813],[-111.548,46.608],[-111.189,46.027],[-111.036,45.805],[-110.865,45.651],[-110.694,45.532],[-110.472,45.463],[-110.045,45.481],[-109.788,45.532],[-109.447,45.634],[-109.19,45.771],[-108.951,45.942],[-108.78,46.113],[-108.558,46.386],[-108.217,46.865],[-108.097,46.967],[-107.858,47.07],[-107.089,47.24],[-106.85,47.326],[-106.645,47.445],[-106.405,47.616],[-106.047,48.009],[-105.842,48.197],[-105.551,48.3],[-104.799,48.522],[-104.543,48.676],[-104.372,48.812],[-104.013,49.257],[-103.894,49.53],[-103.552,50.008],[-103.33,50.265],[-103.057,50.487],[-102.664,50.623],[-101.416,50.828],[-101.058,50.794],[-100.801,50.658],[-100.682,50.555],[-100.357,50.333],[-100.118,50.265],[-99.93,50.265],[-99.776,50.384],[-99.691,50.504],[-99.674,50.709],[-99.708,51.051],[-99.81,51.341],[-99.913,51.478],[-100.186,51.768],[-100.374,51.888],[-100.818,52.11],[-101.04,52.178],[-101.468,52.247],[-102.031,52.247],[-102.322,52.23],[-102.869,52.076],[-103.313,51.871],[-103.843,51.58],[-104.133,51.392],[-104.287,51.256],[-104.97,50.555],[-105.483,50.128],[-106.217,49.786],[-107.089,49.718],[-107.96,49.701],[-108.883,49.718],[-110.113,49.769],[-110.54,49.803],[-110.933,49.803],[-111.309,49.786],[-111.839,49.718],[-112.232,49.581],[-112.642,49.41],[-113.394,49.017],[-116.127,47.719],[-116.896,47.292],[-117.238,47.018],[-117.614,46.506],[-117.699,46.369],[-117.973,46.01],[-118.109,45.856],[-118.314,45.686],[-118.451,45.617],[-118.707,45.583],[-118.871,45.587]]]}},{"type":"Feature","properties":{"density":3},"geometry":{"type":"Polygon","coordinates":[[[-121.107,62.161],[-121.205,62.202],[-121.225,62.175],[-121.225,62.134],[-121.117,62.009],[-120.996,61.938],[-120.912,61.911],[-120.814,61.905],[-120.8,61.922],[-120.807,61.962],[-120.837,62.003],[-121.04,62.134],[-121.107,62.161]]]}},{"type":"Feature","properties":{"density":3},"geometry":{"type":"Polygon","coordinates":[[[-117.427,63.83],[-117.89,63.83],[-118.361,63.853],[-118.695,63.898],[-118.801,63.853],[-118.847,63.777],[-118.968,63.655],[-119.158,63.557],[-119.158,63.435],[-119.014,63.427],[-118.908,63.443],[-118.665,63.488],[-118.543,63.534],[-117.981,63.534],[-117.89,63.572],[-117.753,63.587],[-117.693,63.617],[-117.298,63.625],[-117.207,63.686],[-117.207,63.777],[-117.427,63.83]]]}},{"type":"Feature","properties":{"density":3},"geometry":{"type":"Polygon","coordinates":[[[-120.578,60.561],[-120.066,60.612],[-119.792,60.732],[-119.707,60.851],[-119.656,61.21],[-119.656,61.518],[-119.758,61.757],[-119.946,62.03],[-120.032,62.252],[-120.39,62.953],[-120.442,63.192],[-120.766,63.67],[-121.245,63.807],[-121.774,63.841],[-122.116,63.841],[-122.697,63.773],[-123.192,63.688],[-123.466,63.534],[-123.62,63.397],[-123.756,63.158],[-123.859,62.902],[-123.876,62.543],[-123.722,62.099],[-123.432,61.979],[-123.141,61.825],[-122.936,61.757],[-122.475,61.706],[-122.201,61.654],[-121.911,61.432],[-121.672,61.176],[-121.586,60.885],[-121.398,60.732],[-121.262,60.646],[-120.937,60.595],[-120.578,60.561]]]}},{"type":"Feature","properties":{"density":3},"geometry":{"type":"Polygon","coordinates":[[[-115.831,55.245],[-116.395,55.194],[-116.805,55.177],[-117.659,55.177],[-118.086,55.194],[-119.026,55.416],[-119.231,55.348],[-119.402,55.126],[-119.402,54.903],[-119.299,54.698],[-119.026,54.34],[-118.496,53.981],[-118.137,53.844],[-117.198,53.707],[-116.36,53.554],[-115.882,53.554],[-115.54,53.656],[-115.387,53.759],[-115.25,53.878],[-115.079,54.254],[-114.994,54.357],[-114.754,54.357],[-114.549,54.323],[-113.08,53.776],[-111.986,53.759],[-110.893,53.707],[-109.834,53.554],[-108.347,53.434],[-107.032,53.195],[-105.391,52.751],[-103.016,52.17],[-102.316,52.067],[-101.957,52.067],[-101.667,52.204],[-101.496,52.477],[-101.444,52.887],[-101.667,53.127],[-102.042,53.366],[-102.76,53.571],[-103.58,53.707],[-104.417,53.707],[-105.904,53.759],[-107.185,53.776],[-107.886,53.827],[-108.706,53.912],[-109.577,54.118],[-110.449,54.357],[-112.943,55.416],[-113.661,55.57],[-114.208,55.587],[-114.771,55.553],[-115.301,55.348],[-115.831,55.245]]]}},{"type":"Feature","properties":{"density":3},"geometry":{"type":"Polygon","coordinates":[[[-117.675,50.665],[-117.903,50.654],[-118.095,50.518],[-118.186,50.396],[-118.287,50.067],[-118.363,49.733],[-118.601,49.429],[-118.682,49.298],[-118.723,49.166],[-118.763,48.893],[-118.849,48.599],[-118.951,48.366],[-118.976,48.255],[-118.94,48.164],[-118.839,48.088],[-118.743,48.123],[-118.672,48.235],[-118.667,48.422],[-118.637,48.513],[-118.515,48.751],[-118.373,48.817],[-118.328,48.68],[-118.47,48.356],[-118.46,48.265],[-118.379,48.133],[-118.272,48.093],[-117.968,48.295],[-117.746,48.397],[-117.675,48.528],[-117.634,48.665],[-117.574,49.196],[-117.518,49.328],[-117.31,49.49],[-117.077,49.612],[-117.057,49.698],[-117.128,49.804],[-117.219,49.885],[-117.29,50.032],[-117.29,50.153],[-117.219,50.432],[-117.239,50.518],[-117.285,50.579],[-117.417,50.649],[-117.675,50.665]]]}},{"type":"Feature","properties":{"density":3},"geometry":{"type":"Polygon","coordinates":[[[-119.366,48.265],[-119.264,48.245],[-119.224,48.184],[-119.113,48.154],[-119.062,48.174],[-119.037,48.224],[-119.042,48.275],[-119.087,48.356],[-119.087,48.397],[-119.153,48.478],[-119.209,48.488],[-119.33,48.619],[-119.34,48.69],[-119.32,48.837],[-119.406,48.923],[-119.614,49.019],[-119.7,49.156],[-119.72,49.237],[-119.892,49.267],[-120.014,49.343],[-120.373,49.465],[-120.601,49.52],[-120.677,49.49],[-120.702,49.455],[-120.702,49.308],[-120.763,49.181],[-120.763,49.095],[-120.722,48.964],[-120.677,48.903],[-120.616,48.872],[-120.54,48.888],[-120.459,48.964],[-120.53,49.171],[-120.51,49.222],[-120.459,49.283],[-120.252,49.262],[-119.933,49.176],[-119.786,48.979],[-119.669,48.888],[-119.594,48.442],[-119.538,48.397],[-119.467,48.285],[-119.366,48.265]]]}},{"type":"Feature","properties":{"density":3},"geometry":{"type":"Polygon","coordinates":[[[-119.963,47.9],[-120.181,47.941],[-120.333,47.941],[-120.414,47.981],[-120.469,48.184],[-120.56,48.265],[-120.652,48.265],[-120.753,48.23],[-120.834,48.184],[-120.879,48.118],[-120.859,47.956],[-120.819,47.911],[-120.733,47.865],[-120.636,47.855],[-120.5,47.754],[-120.459,47.673],[-120.368,47.652],[-120.282,47.652],[-120.095,47.738],[-119.963,47.754],[-119.877,47.84],[-119.877,47.865],[-119.897,47.88],[-119.963,47.9]]]}},{"type":"Feature","properties":{"density":3},"geometry":{"type":"Polygon","coordinates":[[[-120.204,46.066],[-120.491,45.965],[-121.119,45.638],[-121.45,45.418],[-121.5,45.371],[-121.527,45.27],[-121.487,45.212],[-121.423,45.202],[-121.362,45.239],[-121.251,45.351],[-121.035,45.503],[-120.819,45.621],[-120.346,45.918],[-120.167,45.972],[-120.076,46.029],[-120.076,46.059],[-120.103,46.08],[-120.204,46.066]]]}},{"type":"Feature","properties":{"density":3},"geometry":{"type":"Polygon","coordinates":[[[-121.251,44.865],[-121.278,44.848],[-121.517,44.851],[-121.561,44.821],[-121.581,44.784],[-121.561,44.73],[-121.494,44.652],[-121.392,44.628],[-121.234,44.628],[-121.136,44.709],[-121.122,44.79],[-121.176,44.865],[-121.251,44.865]]]}},{"type":"Feature","properties":{"density":3},"geometry":{"type":"Polygon","coordinates":[[[-119.712,45.692],[-120.069,45.516],[-120.258,45.496],[-120.454,45.378],[-120.596,45.263],[-120.657,45.185],[-120.68,45.087],[-120.67,44.848],[-120.808,44.703],[-120.873,44.554],[-120.9,44.429],[-120.94,44.379],[-120.947,44.321],[-120.893,44.267],[-120.606,44.264],[-120.518,44.308],[-120.484,44.335],[-120.468,44.406],[-120.518,44.406],[-120.555,44.446],[-120.528,44.46],[-120.437,44.45],[-120.373,44.48],[-119.928,44.777],[-119.712,44.878],[-119.674,44.925],[-119.725,45.044],[-119.735,45.121],[-119.705,45.29],[-119.647,45.378],[-119.553,45.428],[-119.381,45.432],[-119.222,45.509],[-119.135,45.587],[-119.094,45.705],[-119.118,45.762],[-119.172,45.81],[-119.3,45.843],[-119.425,45.847],[-119.509,45.816],[-119.712,45.692]]]}},{"type":"Feature","properties":{"density":3},"geometry":{"type":"Polygon","coordinates":[[[-118.802,44.878],[-119.025,44.878],[-119.162,44.807],[-119.48,44.686],[-120.042,44.504],[-120.225,44.372],[-120.457,44.271],[-120.68,44.22],[-120.781,44.119],[-120.746,44.058],[-120.594,44.028],[-120.361,43.926],[-120.351,43.845],[-120.422,43.764],[-120.422,43.673],[-120.336,43.562],[-120.26,43.542],[-120.149,43.44],[-120.058,43.4],[-120.032,43.273],[-120.103,43.106],[-120.027,42.899],[-119.885,42.742],[-119.789,42.671],[-119.663,42.605],[-119.561,42.524],[-119.258,42.484],[-119.045,42.549],[-118.944,42.61],[-118.665,42.833],[-118.438,42.833],[-118.357,42.792],[-117.972,42.782],[-117.704,42.828],[-117.142,42.873],[-117.071,42.919],[-116.888,43.152],[-116.843,43.364],[-116.848,43.44],[-116.731,43.511],[-116.661,43.597],[-116.559,43.926],[-116.64,44.063],[-116.737,44.336],[-116.696,44.473],[-116.711,44.671],[-116.828,44.843],[-116.747,45.081],[-116.64,45.217],[-116.575,45.46],[-116.544,45.632],[-116.554,45.784],[-116.585,45.86],[-116.661,45.916],[-116.747,46.012],[-116.904,46.113],[-117.015,46.144],[-117.445,46.108],[-117.774,46.199],[-118.109,46.194],[-118.346,46.073],[-118.397,46.032],[-118.443,45.962],[-118.427,45.506],[-118.397,45.283],[-118.503,45.05],[-118.569,44.959],[-118.731,44.868],[-118.802,44.878]]]}},{"type":"Feature","properties":{"density":3},"geometry":{"type":"Polygon","coordinates":[[[-108.13,49.415],[-110.488,49.415],[-113.131,48.8],[-114.361,48.208],[-114.703,48.026],[-115.363,47.627],[-115.66,47.399],[-116.001,46.83],[-116.035,46.283],[-115.751,46.249],[-115.386,46.374],[-115.181,46.545],[-114.885,46.841],[-114.76,46.887],[-114.555,46.887],[-114.27,46.853],[-114.099,46.909],[-113.917,47.069],[-113.564,47.251],[-113.359,47.479],[-113.29,47.593],[-113.108,47.684],[-112.584,48.026],[-111.639,48.254],[-111.32,48.379],[-110.819,48.39],[-110.283,48.436],[-109.702,48.436],[-108.632,48.288],[-108.073,48.174],[-107.458,48.071],[-106.98,48.014],[-106.274,47.957],[-105.864,48.046],[-105.613,48.162],[-105.34,48.322],[-104.679,48.629],[-104.406,48.789],[-103.984,48.926],[-103.734,49.074],[-103.46,49.21],[-102.834,49.279],[-102.173,49.267],[-102.014,49.347],[-101.9,49.586],[-101.888,49.78],[-101.922,50.122],[-101.922,50.406],[-101.831,50.6],[-101.706,50.794],[-101.524,50.93],[-101.398,50.999],[-101.273,51.044],[-100.647,51.34],[-100.362,51.352],[-99.792,51.34],[-99.143,51.249],[-98.779,51.227],[-98.482,51.17],[-97.856,50.976],[-97.104,50.794],[-96.614,50.782],[-96.136,50.737],[-95.68,50.737],[-94.963,50.691],[-94.803,50.703],[-93.858,50.566],[-93.322,50.52],[-92.73,50.315],[-92.639,50.304],[-92.138,50.144],[-91.591,49.951],[-90.851,49.518],[-90.315,49.313],[-89.814,49.199],[-89.324,49.153],[-89.04,49.062],[-88.63,48.903],[-88.197,48.697],[-87.975,48.319],[-87.975,47.986],[-87.821,46.986],[-87.616,46.346],[-87.154,45.961],[-86.744,45.705],[-85.976,45.577],[-85.514,45.679],[-85.002,45.961],[-84.182,46.704],[-83.874,47.294],[-83.874,47.704],[-84.005,48.128],[-84.284,48.396],[-85.002,49.37],[-86.437,50.241],[-86.744,50.369],[-87.334,50.703],[-89.769,51.497],[-90.64,51.651],[-91.537,51.702],[-93.152,51.958],[-93.997,52.24],[-95.33,52.753],[-96.483,53.24],[-97.304,53.624],[-98.457,54.419],[-98.918,54.778],[-99.943,55.444],[-100.353,55.444],[-100.789,55.341],[-101.045,55.188],[-102.07,54.419],[-102.609,54.111],[-102.993,53.804],[-103.096,53.445],[-103.209,53.309],[-103.583,53.06],[-104.172,53.086],[-106.427,53.317],[-108.683,53.906],[-109.913,54.162],[-111.271,54.342],[-112.322,54.778],[-114.475,55.341],[-115.295,55.495],[-115.577,55.393],[-115.679,55.264],[-115.756,54.906],[-115.474,54.649],[-115.269,54.547],[-114.782,54.342],[-114.167,54.009],[-113.065,53.752],[-112.245,53.778],[-110.015,53.291],[-109.426,53.291],[-107.837,53.086],[-106.427,53.06],[-104.685,52.727],[-103.454,52.471],[-102.942,52.343],[-102.557,52.035],[-102.481,51.702],[-102.481,51.497],[-102.737,51.215],[-103.147,50.908],[-103.967,50.216],[-104.556,49.857],[-104.992,49.626],[-105.94,49.498],[-106.632,49.447],[-107.248,49.447],[-108.13,49.415]]]}},{"type":"Feature","properties":{"density":3},"geometry":{"type":"Polygon","coordinates":[[[-104.537,59.031],[-105.588,59.415],[-106.126,59.646],[-106.69,59.902],[-107.28,60.21],[-108.228,60.364],[-109.458,60.466],[-110.176,60.466],[-110.842,60.159],[-110.688,59.261],[-109.894,57.878],[-109.279,57.442],[-108.715,57.109],[-107.844,56.852],[-107.177,56.852],[-106.716,56.827],[-106.306,56.724],[-105.64,56.519],[-105.281,55.904],[-105.46,55.597],[-106.101,55.289],[-107.023,55.186],[-107.434,55.186],[-108.202,55.238],[-109.099,55.238],[-109.766,55.34],[-110.099,55.366],[-111.304,55.827],[-112.482,56.519],[-114.046,57.186],[-115.173,57.749],[-116.045,58.646],[-116.66,59.082],[-117.198,59.979],[-117.301,60.671],[-117.07,60.927],[-116.352,60.927],[-115.609,60.85],[-115.071,61.081],[-114.507,61.44],[-113.815,61.85],[-113.123,62.081],[-111.944,62.081],[-110.765,62.004],[-109.33,61.85],[-108.407,61.671],[-107.562,61.414],[-106.46,61.004],[-105.742,60.825],[-104.922,60.569],[-104.486,60.364],[-104.102,60.133],[-103.794,59.902],[-103.487,59.543],[-103.435,59.159],[-103.846,58.928],[-104.127,58.954],[-104.537,59.031]]]}},{"type":"Feature","properties":{"density":3},"geometry":{"type":"Polygon","coordinates":[[[-120.755,62.595],[-120.634,62.524],[-120.603,62.382],[-120.613,62.114],[-120.583,62.048],[-120.548,62.038],[-120.512,62.048],[-120.477,62.129],[-120.462,62.514],[-120.568,62.671],[-120.745,62.767],[-120.816,62.767],[-120.836,62.757],[-120.841,62.665],[-120.755,62.595]]]}},{"type":"Feature","properties":{"density":3},"geometry":{"type":"Polygon","coordinates":[[[-121.439,62.777],[-121.383,62.716],[-121.353,62.655],[-121.337,62.554],[-121.251,62.367],[-121.191,62.19],[-121.165,62.033],[-121.089,61.947],[-120.912,61.845],[-120.831,61.855],[-120.765,61.886],[-120.765,61.962],[-120.958,62.245],[-120.958,62.559],[-120.983,62.66],[-121.049,62.787],[-121.226,63.0],[-121.287,63.03],[-121.373,63.03],[-121.444,63.02],[-121.52,62.969],[-121.515,62.858],[-121.439,62.777]]]}},{"type":"Feature","properties":{"density":3},"geometry":{"type":"Polygon","coordinates":[[[-120.762,48.696],[-120.878,48.61],[-120.914,48.554],[-120.975,48.357],[-120.969,48.205],[-120.924,48.053],[-120.883,48.012],[-120.828,47.916],[-120.762,47.886],[-120.64,47.936],[-120.625,48.073],[-120.478,48.225],[-120.448,48.422],[-120.468,48.61],[-120.519,48.701],[-120.57,48.741],[-120.691,48.726],[-120.762,48.696]]]}},{"type":"Feature","properties":{"density":3},"geometry":{"type":"Polygon","coordinates":[[[-117.593,45.757],[-117.789,45.8],[-118.049,45.811],[-118.133,45.797],[-118.305,45.709],[-118.329,45.662],[-118.322,45.608],[-118.258,45.557],[-118.214,45.544],[-118.116,45.382],[-118.025,45.352],[-117.958,45.352],[-117.728,45.48],[-117.6,45.588],[-117.559,45.662],[-117.559,45.716],[-117.593,45.757]]]}},{"type":"Feature","properties":{"density":3},"geometry":{"type":"Polygon","coordinates":[[[-120.729,45.8],[-120.968,45.723],[-121.103,45.709],[-121.265,45.622],[-121.495,45.446],[-121.532,45.372],[-121.535,45.257],[-121.441,45.196],[-121.373,45.244],[-121.326,45.301],[-120.995,45.453],[-120.799,45.601],[-120.745,45.632],[-120.597,45.676],[-120.55,45.703],[-120.519,45.743],[-120.519,45.77],[-120.56,45.811],[-120.729,45.8]]]}},{"type":"Feature","properties":{"density":3},"geometry":{"type":"Polygon","coordinates":[[[-121.515,44.913],[-121.555,44.92],[-121.623,44.893],[-121.626,44.818],[-121.458,44.643],[-121.39,44.599],[-121.279,44.602],[-121.198,44.643],[-121.15,44.683],[-121.11,44.768],[-121.042,44.845],[-121.069,44.879],[-121.177,44.909],[-121.515,44.913]]]}},{"type":"Feature","properties":{"density":3},"geometry":{"type":"Polygon","coordinates":[[[-119.568,45.608],[-119.767,45.497],[-120.124,45.345],[-120.31,45.237],[-120.469,45.102],[-120.671,44.842],[-120.853,44.548],[-120.87,44.481],[-120.82,44.413],[-120.712,44.373],[-120.573,44.467],[-120.344,44.471],[-120.286,44.528],[-120.246,44.606],[-120.178,44.663],[-119.976,44.791],[-119.76,44.899],[-119.645,44.99],[-119.611,45.048],[-119.638,45.146],[-119.632,45.26],[-119.537,45.365],[-119.493,45.487],[-119.493,45.568],[-119.51,45.601],[-119.568,45.608]]]}},{"type":"Feature","properties":{"density":3},"geometry":{"type":"Polygon","coordinates":[[[-118.768,45.136],[-119.318,44.808],[-119.669,44.636],[-119.807,44.542],[-119.875,44.461],[-119.881,44.39],[-119.841,44.315],[-119.75,44.309],[-119.615,44.38],[-119.152,44.737],[-118.72,44.963],[-118.616,45.034],[-118.575,45.098],[-118.575,45.163],[-118.606,45.203],[-118.633,45.213],[-118.71,45.183],[-118.768,45.136]]]}},{"type":"Feature","properties":{"density":3},"geometry":{"type":"Polygon","coordinates":[[[-118.245,43.978],[-118.255,43.902],[-118.295,43.846],[-118.376,43.821],[-118.508,43.902],[-118.548,44.003],[-118.69,44.145],[-118.771,44.145],[-119.11,43.958],[-119.353,43.786],[-119.485,43.659],[-119.53,43.578],[-119.551,43.421],[-119.52,43.33],[-119.373,43.203],[-119.257,43.173],[-119.206,43.143],[-119.171,43.072],[-119.186,42.991],[-119.287,42.869],[-119.348,42.829],[-119.379,42.768],[-119.308,42.712],[-119.196,42.677],[-119.105,42.677],[-118.953,42.707],[-118.842,42.763],[-118.639,42.819],[-118.472,42.814],[-118.361,42.834],[-118.219,42.895],[-118.002,42.895],[-117.678,42.834],[-117.581,42.874],[-117.516,42.976],[-117.516,43.062],[-117.637,43.274],[-117.738,43.375],[-117.779,43.456],[-117.779,43.558],[-117.617,43.826],[-117.612,43.922],[-117.652,44.079],[-117.708,44.104],[-117.794,44.115],[-117.86,44.099],[-117.951,44.049],[-118.169,44.034],[-118.245,43.978]]]}},{"type":"Feature","properties":{"density":3},"geometry":{"type":"Polygon","coordinates":[[[-101.265,51.54],[-101.47,51.426],[-101.664,51.267],[-101.857,51.062],[-102.245,50.412],[-102.507,50.059],[-102.757,49.866],[-103.122,49.649],[-103.611,49.49],[-104.591,49.421],[-106.47,49.399],[-107.222,49.467],[-107.723,49.467],[-108.771,49.547],[-109.66,49.535],[-110.298,49.49],[-110.879,49.444],[-111.391,49.364],[-112.018,49.171],[-112.189,49.102],[-112.792,48.966],[-113.134,48.783],[-113.168,48.738],[-113.054,48.601],[-112.895,48.465],[-112.747,48.259],[-112.451,48.146],[-112.211,48.214],[-111.915,48.385],[-111.653,48.465],[-111.368,48.533],[-111.061,48.578],[-110.639,48.601],[-110.32,48.601],[-109.888,48.556],[-109.478,48.442],[-108.384,48.259],[-107.849,48.316],[-106.721,48.316],[-106.174,48.191],[-105.73,48.146],[-104.796,48.157],[-104.397,48.214],[-104.01,48.328],[-103.372,48.681],[-103.099,48.761],[-102.529,48.875],[-102.108,48.92],[-101.755,49.057],[-101.459,49.273],[-101.242,49.467],[-101.003,49.638],[-100.274,50.048],[-99.887,50.207],[-99.249,50.367],[-97.54,50.367],[-97.028,50.344],[-95.422,50.321],[-95.011,50.241],[-94.453,50.093],[-92.87,49.558],[-92.301,49.421],[-88.792,48.231],[-88.245,47.855],[-87.801,47.479],[-87.459,47.274],[-86.298,46.659],[-85.546,46.557],[-84.657,47.172],[-84.384,47.787],[-84.538,48.556],[-85.204,49.222],[-85.836,49.564],[-87.049,49.974],[-88.792,50.521],[-90.193,50.914],[-92.312,51.46],[-93.474,51.819],[-94.396,52.178],[-95.439,52.776],[-96.207,53.306],[-96.823,54.006],[-97.882,54.963],[-98.292,55.407],[-98.77,55.698],[-99.283,55.578],[-99.42,55.407],[-99.488,55.065],[-99.488,54.638],[-99.591,54.348],[-99.932,54.04],[-100.325,53.801],[-100.65,53.579],[-100.906,53.357],[-101.06,53.049],[-101.162,52.759],[-101.231,52.417],[-101.094,52.075],[-100.957,51.904],[-100.923,51.665],[-101.009,51.614],[-101.265,51.54]]]}},{"type":"Feature","properties":{"density":3},"geometry":{"type":"Polygon","coordinates":[[[-92.198,31.077],[-92.428,31.033],[-92.657,30.952],[-92.812,30.844],[-92.823,30.783],[-92.779,30.77],[-92.573,30.901],[-92.536,30.908],[-92.495,30.908],[-92.468,30.874],[-92.468,30.834],[-92.445,30.83],[-92.293,30.922],[-92.117,30.962],[-91.992,31.053],[-91.992,31.094],[-92.046,31.104],[-92.198,31.077]]]}},{"type":"Feature","properties":{"density":3},"geometry":{"type":"Polygon","coordinates":[[[-102.366,45.96],[-102.498,45.869],[-102.614,45.828],[-102.888,45.828],[-103.075,45.853],[-103.455,45.95],[-103.551,45.95],[-103.601,45.909],[-103.632,45.828],[-103.617,45.762],[-103.51,45.6],[-103.48,45.474],[-103.414,45.418],[-103.328,45.403],[-103.105,45.545],[-102.807,45.6],[-102.705,45.605],[-102.589,45.646],[-102.402,45.681],[-102.164,45.767],[-102.103,45.813],[-102.068,45.909],[-102.073,45.96],[-102.164,46.036],[-102.285,46.031],[-102.366,45.96]]]}},{"type":"Feature","properties":{"density":3},"geometry":{"type":"Polygon","coordinates":[[[-115.363,37.946],[-115.289,38.017],[-115.289,38.108],[-115.221,38.192],[-115.174,38.351],[-115.13,38.398],[-114.972,38.489],[-114.951,38.523],[-115.012,38.742],[-115.073,38.817],[-115.161,38.861],[-115.269,38.85],[-115.377,38.807],[-115.417,38.776],[-115.464,38.601],[-115.555,38.56],[-115.593,38.57],[-115.67,38.543],[-115.721,38.493],[-115.765,38.395],[-115.785,38.324],[-115.744,38.256],[-115.728,38.189],[-115.68,38.125],[-115.66,38.054],[-115.704,37.976],[-115.755,37.932],[-115.849,37.892],[-115.869,37.865],[-115.876,37.686],[-115.812,37.467],[-115.741,37.382],[-115.687,37.376],[-115.606,37.413],[-115.589,37.497],[-115.62,37.568],[-115.613,37.635],[-115.555,37.7],[-115.512,37.828],[-115.363,37.946]]]}},{"type":"Feature","properties":{"density":3},"geometry":{"type":"Polygon","coordinates":[[[-113.13,48.402],[-113.32,48.31],[-114.003,48.796],[-114.269,48.888],[-114.573,48.948],[-114.907,48.857],[-115.302,48.69],[-115.568,48.333],[-115.583,48.189],[-115.712,47.862],[-116.008,47.338],[-116.122,47.209],[-116.274,47.103],[-116.38,47.05],[-116.6,47.05],[-116.843,47.111],[-117.064,47.187],[-117.352,47.293],[-117.572,47.414],[-117.815,47.483],[-118.043,47.43],[-118.286,47.247],[-118.461,46.982],[-118.597,46.837],[-118.689,46.693],[-118.871,46.518],[-119.038,46.382],[-119.357,46.192],[-119.539,46.154],[-119.676,46.154],[-119.888,46.275],[-119.949,46.351],[-120.192,46.321],[-120.435,46.253],[-120.678,46.154],[-121.058,45.956],[-121.43,45.569],[-121.529,45.417],[-121.475,45.258],[-121.422,45.167],[-121.369,45.121],[-121.407,45.03],[-121.468,44.939],[-121.529,44.916],[-121.582,44.848],[-121.559,44.719],[-121.422,44.605],[-121.233,44.536],[-121.058,44.559],[-120.914,44.536],[-120.777,44.483],[-120.648,44.4],[-120.481,44.377],[-120.04,44.354],[-119.79,44.316],[-119.38,44.301],[-119.311,44.278],[-119.266,44.149],[-119.494,43.777],[-119.463,43.64],[-119.326,43.466],[-119.22,43.466],[-119.053,43.511],[-118.97,43.511],[-118.886,43.435],[-118.886,43.306],[-118.954,43.185],[-118.977,43.101],[-118.78,42.919],[-118.218,42.82],[-117.884,42.813],[-117.77,42.828],[-117.291,43.071],[-117.102,43.056],[-117.079,43.04],[-117.079,42.942],[-117.344,42.721],[-117.36,42.63],[-117.352,42.577],[-117.322,42.524],[-117.238,42.448],[-117.147,42.41],[-117.048,42.403],[-116.942,42.425],[-116.726,42.57],[-116.657,42.592],[-116.543,42.57],[-116.429,42.501],[-116.236,42.239],[-116.065,42.08],[-115.94,41.875],[-115.712,41.59],[-115.518,41.567],[-115.233,41.613],[-114.607,41.863],[-114.117,42.034],[-113.832,42.182],[-113.57,42.342],[-113.354,42.478],[-113.081,42.684],[-113.012,42.866],[-113.172,43.151],[-113.775,43.572],[-114.14,43.595],[-114.47,43.595],[-114.789,43.572],[-115.085,43.595],[-115.359,43.754],[-115.735,44.21],[-115.792,44.392],[-115.792,44.677],[-115.632,45.338],[-115.495,45.748],[-115.336,46.055],[-115.176,46.272],[-114.96,46.442],[-114.744,46.545],[-114.561,46.556],[-114.447,46.534],[-114.402,46.374],[-114.425,46.123],[-114.311,45.736],[-114.094,45.679],[-113.924,45.759],[-113.81,45.987],[-113.867,46.283],[-113.741,46.83],[-113.741,46.944],[-113.57,47.058],[-113.32,47.319],[-113.058,47.445],[-112.739,47.456],[-112.329,47.542],[-112.073,47.559],[-110.928,47.542],[-110.381,47.439],[-109.937,47.302],[-109.39,47.183],[-109.1,47.149],[-107.288,46.277],[-106.793,46.089],[-106.229,45.901],[-105.597,45.833],[-105.289,45.85],[-104.606,45.833],[-104.145,45.645],[-103.376,45.098],[-102.914,45.098],[-102.573,45.132],[-102.299,45.269],[-102.043,45.423],[-101.667,45.594],[-101.428,45.662],[-100.676,45.73],[-100.386,45.799],[-100.061,45.953],[-99.309,46.414],[-99.07,46.687],[-98.558,46.995],[-98.113,47.114],[-97.464,47.114],[-97.242,47.029],[-96.815,47.029],[-96.507,47.268],[-96.2,47.986],[-95.858,48.225],[-95.482,48.157],[-95.277,48.088],[-95.072,47.764],[-94.764,46.995],[-94.423,46.687],[-94.149,46.551],[-93.551,46.499],[-93.158,46.482],[-92.56,46.209],[-92.202,45.987],[-91.672,45.696],[-91.142,45.064],[-90.801,44.534],[-90.425,44.005],[-90.305,43.39],[-90.288,42.997],[-90.1,42.45],[-89.523,41.895],[-88.883,41.587],[-88.652,41.408],[-88.063,41.075],[-86.73,40.639],[-86.166,40.588],[-85.705,40.588],[-84.961,40.485],[-84.244,40.203],[-83.577,39.665],[-82.68,39.127],[-82.091,38.947],[-81.681,38.947],[-81.117,39.101],[-80.451,39.562],[-79.836,39.819],[-79.323,39.896],[-78.862,40.024],[-78.298,40.331],[-77.888,40.639],[-77.632,40.972],[-77.273,41.92],[-77.042,42.74],[-76.965,43.202],[-76.811,43.689],[-76.478,44.176],[-76.222,44.663],[-76.043,45.38],[-75.684,46.175],[-75.735,46.892],[-76.248,47.149],[-77.35,46.662],[-77.965,46.123],[-78.452,45.252],[-78.657,44.586],[-78.887,43.714],[-79.169,42.92],[-79.605,42.279],[-80.143,42.048],[-80.835,42.202],[-81.502,42.843],[-81.835,43.561],[-82.065,44.663],[-81.886,45.483],[-81.988,46.662],[-82.373,47.892],[-82.706,48.302],[-83.167,48.738],[-84.141,49.327],[-85.346,49.788],[-86.345,50.224],[-87.268,50.583],[-88.908,50.942],[-89.395,50.967],[-90.062,51.07],[-90.907,51.172],[-91.727,51.454],[-92.753,51.967],[-93.675,52.684],[-95.367,54.273],[-95.982,54.812],[-96.802,55.401],[-97.417,55.888],[-98.519,56.708],[-99.16,57.272],[-100.185,58.118],[-100.903,58.605],[-101.876,58.861],[-103.209,58.938],[-104.132,58.81],[-105.823,58.169],[-106.669,57.81],[-107.566,57.503],[-108.309,57.272],[-109.36,57.195],[-111.513,57.195],[-114.076,57.426],[-114.845,58.348],[-115.101,58.605],[-115.665,58.784],[-116.024,58.835],[-116.408,58.81],[-116.793,58.553],[-117.126,57.272],[-117.023,56.144],[-116.69,55.273],[-116.229,54.35],[-115.87,53.889],[-115.409,53.018],[-114.947,51.89],[-114.537,51.531],[-113.486,51.377],[-112.205,51.377],[-111.077,51.275],[-110.642,50.967],[-110.513,50.583],[-110.667,50.301],[-111.129,49.993],[-111.513,49.763],[-111.872,49.481],[-112.154,49.122],[-112.487,48.789],[-113.13,48.402]]]}},{"type":"Feature","properties":{"density":3},"geometry":{"type":"Polygon","coordinates":[[[-120.47,61.813],[-119.741,62.234],[-119.684,62.348],[-119.764,62.656],[-119.912,62.929],[-120.037,63.066],[-120.026,63.202],[-119.946,63.453],[-119.946,63.624],[-119.992,63.772],[-120.22,64.0],[-120.766,64.068],[-121.154,64.091],[-121.757,64.205],[-122.133,64.205],[-122.35,64.068],[-122.589,63.863],[-122.68,63.647],[-122.84,63.407],[-122.84,63.02],[-122.748,62.792],[-122.737,62.576],[-122.623,62.382],[-122.373,62.177],[-122.19,62.086],[-121.541,61.653],[-121.154,61.494],[-121.017,61.516],[-120.903,61.585],[-120.675,61.687],[-120.47,61.813]]]}},{"type":"Feature","properties":{"density":3},"geometry":{"type":"Polygon","coordinates":[[[-117.03,64.148],[-118.192,64.159],[-118.625,64.068],[-118.944,64.022],[-119.286,63.84],[-119.4,63.715],[-119.479,63.567],[-119.491,63.453],[-119.4,63.385],[-119.286,63.339],[-119.149,63.328],[-119.081,63.339],[-118.648,63.487],[-118.226,63.498],[-118.055,63.544],[-117.6,63.544],[-117.372,63.601],[-117.235,63.658],[-117.121,63.738],[-117.03,63.829],[-117.008,63.931],[-116.939,64.045],[-116.962,64.102],[-117.03,64.148]]]}}]}