{"type":"FeatureCollection","features":[{"type":"Feature","properties":{"density":1},"geometry":{"type":"Polygon","coordinates":[[[-81.125,27.948],[-81.171,28.009],[-81.157,28.057],[-81.026,28.143],[-80.88,28.284],[-80.818,28.3],[-80.797,28.281],[-80.816,28.169],[-80.888,28.081],[-80.973,28.012],[-81.037,27.967],[-81.093,27.951],[-81.125,27.948]]]}},{"type":"Feature","properties":{"density":1},"geometry":{"type":"Polygon","coordinates":[[[-108.697,33.271],[-108.708,33.281],[-108.692,33.343],[-108.636,33.393],[-108.564,33.423],[-108.481,33.409],[-108.431,33.351],[-108.428,33.319],[-108.449,33.281],[-108.503,33.252],[-108.655,33.252],[-108.679,33.268],[-108.697,33.271]]]}},{"type":"Feature","properties":{"density":1},"geometry":{"type":"Polygon","coordinates":[[[-110.712,33.62],[-110.722,33.671],[-110.674,33.807],[-110.466,33.983],[-109.93,34.266],[-109.751,34.317],[-109.631,34.33],[-109.562,34.33],[-109.49,34.282],[-109.482,34.223],[-109.551,34.108],[-110.082,33.719],[-110.354,33.618],[-110.637,33.586],[-110.674,33.599],[-110.712,33.62]]]}},{"type":"Feature","properties":{"density":1},"geometry":{"type":"Polygon","coordinates":[[[-114.259,37.358],[-114.419,37.483],[-114.477,37.569],[-114.523,37.726],[-114.512,37.761],[-114.456,37.82],[-114.195,37.857],[-113.984,37.844],[-113.933,37.825],[-113.896,37.793],[-113.885,37.739],[-113.898,37.601],[-113.939,37.531],[-114.109,37.398],[-114.211,37.35],[-114.259,37.358]]]}},{"type":"Feature","properties":{"density":1},"geometry":{"type":"Polygon","coordinates":[[[-113.654,58.927],[-113.69,58.963],[-113.75,59.149],[-113.744,59.287],[-113.684,59.407],[-113.552,59.521],[-113.474,59.551],[-113.366,59.551],[-113.258,59.485],[-113.209,59.431],[-113.185,59.299],[-113.252,59.155],[-113.558,58.921],[-113.612,58.897],[-113.654,58.927]]]}},{"type":"Feature","properties":{"density":1},"geometry":{"type":"Polygon","coordinates":[[[-114.735,59.433],[-114.78,59.452],[-114.799,59.497],[-114.799,59.615],[-114.711,59.772],[-114.674,59.876],[-114.607,59.98],[-114.527,60.06],[-114.479,60.082],[-114.375,60.074],[-114.329,60.052],[-114.279,59.962],[-114.279,59.906],[-114.308,59.804],[-114.529,59.543],[-114.655,59.425],[-114.7,59.417],[-114.735,59.433]]]}},{"type":"Feature","properties":{"density":1},"geometry":{"type":"Polygon","coordinates":[[[-130.057,64.876],[-131.79,65.423],[-134.221,65.787],[-136.257,65.909],[-137.442,65.848],[-138.262,65.666],[-139.843,65.544],[-140.724,65.787],[-141.058,66.334],[-140.572,67.246],[-139.508,68.006],[-137.807,68.735],[-135.163,69.434],[-131.698,70.224],[-129.48,70.315],[-125.772,70.376],[-120.758,70.011],[-118.661,69.647],[-115.714,69.373],[-111.246,68.522],[-109.636,67.702],[-107.508,66.821],[-105.32,66.061],[-103.679,65.088],[-101.613,64.663],[-99.759,64.025],[-97.905,62.536],[-96.447,61.077],[-95.353,59.831],[-95.049,58.312],[-95.018,57.825],[-95.292,56.974],[-96.021,55.637],[-96.629,54.817],[-97.784,54.027],[-98.604,53.662],[-99.546,53.358],[-100.337,53.024],[-100.914,52.72],[-101.127,52.386],[-100.61,51.687],[-99.334,50.836],[-97.936,50.046],[-95.262,48.344],[-92.922,46.46],[-92.557,45.913],[-92.435,45.305],[-92.648,44.879],[-93.195,44.91],[-93.955,45.244],[-95.322,46.186],[-97.358,47.371],[-99.759,48.708],[-103.892,50.532],[-107.508,51.96],[-116.716,53.662],[-119.664,54.422],[-122.49,55.573],[-123.676,57.187],[-124.283,58.342],[-124.587,59.436],[-125.499,61.047],[-126.958,62.414],[-127.869,63.174],[-129.298,64.207],[-130.057,64.876]]]}},{"type":"Feature","properties":{"density":1},"geometry":{"type":"Polygon","coordinates":[[[-112.488,38.173],[-112.62,38.173],[-112.788,38.249],[-112.824,38.281],[-112.882,38.482],[-112.706,38.603],[-111.612,38.765],[-111.342,39.157],[-111.342,39.765],[-111.423,40.237],[-111.518,41.102],[-111.518,41.723],[-111.126,42.696],[-110.707,43.587],[-110.032,44.235],[-109.424,44.748],[-108.789,45.235],[-108.506,45.329],[-107.993,45.343],[-107.425,45.086],[-106.953,44.654],[-106.79,44.357],[-106.736,43.803],[-106.79,43.398],[-107.344,42.412],[-107.655,41.696],[-107.722,41.264],[-107.682,40.791],[-107.682,40.467],[-107.722,40.116],[-107.871,39.778],[-107.979,39.4],[-107.993,39.008],[-107.763,38.495],[-107.439,38.346],[-106.831,38.265],[-106.412,38.455],[-106.196,38.698],[-105.953,39.17],[-105.71,39.44],[-105.264,39.643],[-104.71,39.589],[-104.13,39.4],[-102.968,39.143],[-102.104,38.792],[-101.564,38.427],[-101.591,38.198],[-101.536,37.685],[-101.942,37.374],[-102.36,37.198],[-103.346,37.144],[-104.062,37.279],[-104.805,37.469],[-105.548,37.779],[-106.088,37.86],[-106.588,37.752],[-106.939,37.563],[-107.317,37.415],[-108.249,37.428],[-108.843,37.617],[-109.424,37.779],[-110.127,37.847],[-111.369,37.995],[-111.626,38.049],[-112.488,38.173]]]}},{"type":"Feature","properties":{"density":1},"geometry":{"type":"Polygon","coordinates":[[[-93.973,36.388],[-94.486,36.766],[-94.945,37.442],[-95.067,38.265],[-95.067,38.995],[-94.932,39.778],[-94.675,40.264],[-94.27,40.534],[-93.595,40.724],[-92.676,40.791],[-91.758,40.697],[-90.205,40.264],[-89.219,39.954],[-88.57,39.657],[-87.855,39.481],[-86.923,39.481],[-86.112,39.67],[-85.099,39.954],[-83.033,40.224],[-81.79,40.48],[-81.304,40.413],[-80.723,40.17],[-80.48,39.778],[-80.358,39.278],[-80.318,38.617],[-80.372,38.117],[-80.723,37.415],[-81.115,36.766],[-82.979,34.592],[-83.681,34.078],[-84.802,33.592],[-85.545,33.228],[-86.261,32.728],[-87.314,31.89],[-88.462,30.796],[-89.057,30.256],[-89.732,29.824],[-90.488,29.189],[-90.934,28.743],[-92.217,27.852],[-93.811,26.623],[-94.081,26.312],[-94.324,26.002],[-94.621,25.704],[-94.891,25.502],[-95.229,25.448],[-95.472,25.475],[-95.742,25.583],[-96.499,26.042],[-96.958,26.582],[-97.282,27.217],[-97.687,28.082],[-97.93,28.919],[-98.025,29.702],[-97.998,30.148],[-97.93,30.553],[-97.93,31.31],[-98.2,32.147],[-98.295,32.674],[-98.849,33.39],[-99.227,34.065],[-99.362,34.659],[-99.348,35.186],[-99.159,35.753],[-98.997,36.05],[-98.511,36.32],[-97.822,36.361],[-97.12,36.266],[-96.431,35.929],[-95.486,35.145],[-94.878,34.956],[-94.5,34.97],[-94.081,35.199],[-93.892,35.443],[-93.824,35.672],[-93.824,35.942],[-93.851,36.131],[-93.973,36.388]]]}},{"type":"Feature","properties":{"density":1},"geometry":{"type":"Polygon","coordinates":[[[-71.514,18.163],[-71.536,18.281],[-71.666,18.422],[-71.865,18.521],[-72.398,18.602],[-72.72,18.788],[-72.956,18.98],[-73.266,19.191],[-73.563,19.24],[-73.873,19.247],[-75.151,19.036],[-75.51,19.16],[-75.709,19.29],[-76.087,19.47],[-76.329,19.507],[-76.527,19.488],[-76.868,19.364],[-76.93,19.271],[-76.961,19.129],[-76.936,18.974],[-76.8,18.589],[-76.496,18.422],[-76.068,18.292],[-75.337,18.261],[-74.586,17.938],[-74.32,17.895],[-73.818,17.851],[-72.844,17.932],[-71.865,17.969],[-71.635,18.044],[-71.573,18.081],[-71.514,18.163]]]}},{"type":"Feature","properties":{"density":1},"geometry":{"type":"Polygon","coordinates":[[[-84.159,22.3],[-84.248,22.199],[-84.316,22.165],[-84.388,22.157],[-84.474,22.193],[-84.531,22.237],[-84.529,22.358],[-84.462,22.447],[-84.394,22.474],[-84.292,22.469],[-84.162,22.405],[-84.132,22.364],[-84.137,22.323],[-84.159,22.3]]]}},{"type":"Feature","properties":{"density":1},"geometry":{"type":"Polygon","coordinates":[[[-96.615,19.931],[-96.839,19.833],[-97.257,19.806],[-97.843,19.945],[-98.415,20.378],[-99.14,20.894],[-99.838,21.229],[-100.522,21.521],[-101.08,21.591],[-101.805,21.452],[-102.307,21.27],[-102.796,21.019],[-103.228,20.991],[-104.372,21.173],[-104.804,21.48],[-105.655,22.4],[-107.706,23.712],[-108.822,24.786],[-109.366,25.358],[-110.58,27.255],[-110.664,28.078],[-110.175,28.943],[-109.562,29.39],[-108.738,29.669],[-108.027,29.794],[-107.26,30.073],[-106.451,30.896],[-106.186,31.552],[-106.032,32.487],[-105.209,33.114],[-104.344,33.352],[-103.144,33.561],[-102.084,33.589],[-100.884,33.728],[-100.089,33.742],[-99.517,33.603],[-99.085,33.421],[-98.624,33.087],[-98.289,32.445],[-97.969,31.203],[-97.955,29.864],[-97.899,29.18],[-97.452,27.604],[-97.229,26.892],[-97.173,26.125],[-97.215,25.525],[-97.411,24.828],[-97.62,24.284],[-97.717,23.461],[-97.829,22.721],[-97.745,22.135],[-97.327,21.41],[-97.048,21.033],[-96.643,20.573],[-96.504,20.378],[-96.42,20.238],[-96.448,20.126],[-96.615,19.931]]]}},{"type":"Feature","properties":{"density":1},"geometry":{"type":"Polygon","coordinates":[[[-71.639,53.613],[-72.12,54.388],[-72.643,54.66],[-73.313,54.848],[-74.443,54.953],[-75.594,55.015],[-76.996,55.622],[-79.528,55.664],[-81.014,55.748],[-84.09,55.769],[-84.613,55.434],[-84.885,55.162],[-85.011,54.701],[-84.99,54.304],[-84.78,54.011],[-84.655,53.655],[-84.508,53.132],[-84.99,52.504],[-86.099,52.462],[-86.936,52.881],[-87.543,53.237],[-88.129,53.299],[-88.861,52.923],[-89.133,52.651],[-89.342,52.19],[-89.3,51.876],[-89.112,51.311],[-88.861,50.893],[-87.71,49.972],[-86.727,49.533],[-85.743,49.24],[-83.964,48.905],[-82.918,48.738],[-80.721,48.926],[-79.109,49.198],[-75.991,50.223],[-74.213,51.081],[-71.827,52.588],[-71.576,53.111],[-71.576,53.216],[-71.639,53.613]]]}},{"type":"Feature","properties":{"density":1},"geometry":{"type":"Polygon","coordinates":[[[-159.62,65.268],[-159.536,65.343],[-159.518,65.408],[-159.601,65.464],[-160.187,65.38],[-160.717,65.222],[-160.745,65.082],[-160.699,65.055],[-160.252,65.082],[-160.076,65.129],[-159.834,65.166],[-159.62,65.268]]]}},{"type":"Feature","properties":{"density":1},"geometry":{"type":"Polygon","coordinates":[[[-81.017,28.195],[-81.152,28.015],[-81.155,27.962],[-81.137,27.949],[-81.084,27.957],[-80.948,28.055],[-80.879,28.165],[-80.858,28.28],[-80.877,28.295],[-80.938,28.298],[-80.966,28.287],[-80.996,28.242],[-81.017,28.195]]]}},{"type":"Feature","properties":{"density":1},"geometry":{"type":"Polygon","coordinates":[[[-86.43,35.525],[-86.473,35.515],[-86.485,35.475],[-86.406,35.475],[-86.394,35.49],[-86.41,35.522],[-86.43,35.525]]]}},{"type":"Feature","properties":{"density":1},"geometry":{"type":"Polygon","coordinates":[[[-100.103,54.623],[-100.126,54.596],[-100.125,54.55],[-100.069,54.477],[-100.04,54.478],[-100.028,54.593],[-100.049,54.622],[-100.091,54.629],[-100.103,54.623]]]}},{"type":"Feature","properties":{"density":1},"geometry":{"type":"Polygon","coordinates":[[[-102.088,61.584],[-102.522,61.925],[-102.901,62.31],[-103.186,62.471],[-103.508,62.452],[-103.731,62.198],[-103.849,61.733],[-104.004,61.293],[-104.24,60.871],[-104.981,59.94],[-105.325,59.624],[-105.549,59.516],[-105.727,59.396],[-106.636,59.261],[-106.962,59.252],[-107.297,59.178],[-107.475,59.007],[-107.557,58.759],[-107.585,58.517],[-107.451,58.143],[-106.952,57.885],[-106.673,57.82],[-106.329,57.708],[-105.698,57.56],[-105.223,57.318],[-105.037,57.169],[-104.804,56.946],[-104.665,56.76],[-104.33,56.136],[-103.983,55.659],[-103.834,55.328],[-103.296,54.816],[-102.784,54.712],[-102.251,54.741],[-101.865,54.862],[-101.684,54.989],[-101.449,55.097],[-101.176,55.134],[-100.849,55.13],[-100.312,55.011],[-100.08,54.903],[-99.87,54.745],[-99.51,54.659],[-99.117,54.663],[-98.121,55.031],[-97.691,55.254],[-97.308,55.42],[-96.922,55.742],[-96.685,56.034],[-96.545,56.304],[-96.434,56.667],[-96.369,57.057],[-96.341,57.308],[-96.322,57.848],[-96.415,58.266],[-96.723,58.952],[-96.975,59.291],[-97.265,59.742],[-97.764,60.024],[-98.438,60.304],[-99.028,60.498],[-100.424,60.917],[-101.056,61.047],[-101.66,61.312],[-102.088,61.584]]]}},{"type":"Feature","properties":{"density":1},"geometry":{"type":"Polygon","coordinates":[[[-112.262,38.565],[-112.404,38.54],[-112.583,38.457],[-112.627,38.391],[-112.633,38.328],[-112.59,38.149],[-112.485,38.056],[-112.007,37.976],[-111.704,38.013],[-111.156,38.113],[-110.632,38.248],[-110.519,38.319],[-110.461,38.471],[-110.497,38.639],[-110.574,38.793],[-110.69,38.882],[-110.927,38.887],[-111.123,38.835],[-111.425,38.689],[-111.815,38.583],[-112.069,38.552],[-112.262,38.565]]]}},{"type":"Feature","properties":{"density":1},"geometry":{"type":"Polygon","coordinates":[[[-113.597,59.114],[-113.654,59.219],[-113.693,59.238],[-113.728,59.225],[-113.732,59.175],[-113.662,58.956],[-113.614,58.963],[-113.598,59.072],[-113.597,59.114]]]}},{"type":"Feature","properties":{"density":1},"geometry":{"type":"Polygon","coordinates":[[[-114.433,59.566],[-114.613,59.405],[-114.799,59.386],[-114.942,59.448],[-115.028,59.566],[-115.109,59.783],[-115.221,59.944],[-115.382,60.267],[-115.407,60.453],[-115.4,60.589],[-115.32,60.763],[-115.19,60.899],[-114.83,61.141],[-114.669,61.216],[-114.483,61.271],[-114.278,61.321],[-113.999,61.364],[-113.435,61.371],[-113.218,61.302],[-113.119,61.209],[-113.038,60.992],[-112.995,60.757],[-113.106,60.478],[-113.274,60.279],[-113.671,60.143],[-114.012,59.994],[-114.148,59.876],[-114.278,59.734],[-114.433,59.566]]]}},{"type":"Feature","properties":{"density":1},"geometry":{"type":"Polygon","coordinates":[[[-122.127,61.761],[-122.18,61.743],[-122.219,61.754],[-122.406,61.84],[-122.722,61.945],[-122.799,62.0],[-122.891,62.12],[-122.939,62.252],[-122.926,62.362],[-122.897,62.408],[-122.761,62.498],[-122.667,62.513],[-122.581,62.498],[-122.465,62.434],[-122.415,62.368],[-122.347,62.201],[-122.292,62.131],[-122.228,62.068],[-122.127,62.022],[-122.048,61.956],[-122.048,61.866],[-122.096,61.787],[-122.127,61.761]]]}},{"type":"Feature","properties":{"density":1},"geometry":{"type":"Polygon","coordinates":[[[-122.937,61.405],[-122.97,61.376],[-123.067,61.374],[-123.137,61.392],[-123.194,61.449],[-123.187,61.495],[-123.145,61.55],[-123.047,61.576],[-122.963,61.574],[-122.93,61.534],[-122.924,61.44],[-122.937,61.405]]]}},{"type":"Feature","properties":{"density":1},"geometry":{"type":"Polygon","coordinates":[[[-127.617,70.58],[-128.37,70.329],[-129.04,70.036],[-129.619,69.75],[-129.933,69.478],[-130.247,68.788],[-130.728,68.285],[-131.23,67.909],[-131.942,67.755],[-132.583,67.651],[-133.176,67.26],[-133.218,66.821],[-132.946,66.423],[-132.59,65.984],[-131.858,65.544],[-131.251,65.335],[-130.958,65.251],[-129.891,65.063],[-128.363,64.477],[-127.631,64.31],[-126.752,63.996],[-126.187,63.619],[-125.831,63.242],[-125.559,62.824],[-125.413,62.447],[-125.35,61.505],[-125.183,61.024],[-124.848,60.564],[-124.304,60.292],[-123.446,60.208],[-122.651,60.355],[-120.077,61.631],[-119.533,61.924],[-118.772,62.475],[-117.852,62.88],[-116.959,63.047],[-116.15,63.019],[-115.159,63.054],[-114.699,63.41],[-114.594,63.891],[-114.762,64.414],[-115.299,65.042],[-115.899,65.67],[-116.261,65.963],[-116.289,66.311],[-115.996,66.73],[-115.271,67.079],[-114.824,67.693],[-114.971,68.641],[-115.724,69.227],[-116.75,69.792],[-118.675,70.566],[-119.763,70.755],[-121.437,70.922],[-123.048,70.922],[-125.162,70.755],[-127.066,70.671],[-127.617,70.58]]]}},{"type":"Feature","properties":{"density":1},"geometry":{"type":"Polygon","coordinates":[[[-73.644,19.207],[-73.682,19.117],[-73.677,19.035],[-73.661,18.876],[-73.595,18.698],[-73.467,18.574],[-73.289,18.446],[-72.864,18.194],[-72.45,18.07],[-71.896,17.987],[-71.681,17.983],[-71.557,18.041],[-71.504,18.128],[-71.495,18.219],[-71.533,18.347],[-71.574,18.463],[-71.69,18.674],[-72.012,19.136],[-72.198,19.302],[-72.748,19.484],[-72.934,19.525],[-73.252,19.525],[-73.451,19.446],[-73.595,19.289],[-73.644,19.207]]]}},{"type":"Feature","properties":{"density":1},"geometry":{"type":"Polygon","coordinates":[[[-75.539,20.867],[-75.593,20.859],[-75.611,20.842],[-75.606,20.766],[-75.553,20.722],[-75.465,20.685],[-75.06,20.659],[-75.012,20.662],[-75.001,20.68],[-75.07,20.735],[-75.504,20.859],[-75.539,20.867]]]}},{"type":"Feature","properties":{"density":1},"geometry":{"type":"Polygon","coordinates":[[[-78.166,26.938],[-78.222,26.941],[-78.219,26.884],[-78.153,26.769],[-78.079,26.686],[-78.066,26.692],[-78.069,26.724],[-78.142,26.917],[-78.166,26.938]]]}},{"type":"Feature","properties":{"density":1},"geometry":{"type":"Polygon","coordinates":[[[-80.856,28.201],[-80.931,28.18],[-81.15,28.046],[-81.174,27.991],[-81.168,27.939],[-81.129,27.919],[-81.055,27.936],[-80.921,28.001],[-80.801,28.1],[-80.797,28.16],[-80.823,28.188],[-80.856,28.201]]]}},{"type":"Feature","properties":{"density":1},"geometry":{"type":"Polygon","coordinates":[[[-79.371,35.099],[-79.349,35.134],[-79.055,35.327],[-79.0,35.348],[-78.783,35.358],[-78.735,35.343],[-78.7,35.311],[-78.691,35.261],[-78.727,35.225],[-78.774,35.207],[-79.064,35.145],[-79.172,35.11],[-79.287,35.05],[-79.358,35.054],[-79.372,35.072],[-79.371,35.099]]]}},{"type":"Feature","properties":{"density":1},"geometry":{"type":"Polygon","coordinates":[[[-94.675,31.452],[-94.592,31.514],[-94.528,31.509],[-94.442,31.437],[-94.421,31.301],[-94.467,31.189],[-94.59,30.972],[-94.666,30.745],[-94.686,30.722],[-94.726,30.711],[-94.747,30.713],[-94.772,30.767],[-94.778,31.02],[-94.754,31.239],[-94.702,31.41],[-94.675,31.452]]]}},{"type":"Feature","properties":{"density":1},"geometry":{"type":"Polygon","coordinates":[[[-82.15,55.086],[-82.237,55.167],[-82.621,55.433],[-82.813,55.495],[-82.894,55.446],[-82.919,55.34],[-82.826,55.142],[-82.652,54.943],[-82.371,54.727],[-81.889,54.478],[-81.449,54.303],[-80.949,54.179],[-80.002,54.087],[-78.585,54.113],[-78.126,54.181],[-77.878,54.286],[-77.872,54.379],[-77.94,54.497],[-78.237,54.529],[-78.498,54.517],[-78.866,54.463],[-79.614,54.45],[-79.916,54.471],[-80.321,54.522],[-81.015,54.652],[-81.679,54.844],[-81.967,54.96],[-82.15,55.086]]]}},{"type":"Feature","properties":{"density":1},"geometry":{"type":"Polygon","coordinates":[[[-98.735,55.44],[-98.643,55.486],[-98.589,55.494],[-98.509,55.484],[-98.48,55.443],[-98.503,55.402],[-98.548,55.394],[-98.689,55.4],[-98.737,55.413],[-98.745,55.435],[-98.735,55.44]]]}},{"type":"Feature","properties":{"density":1},"geometry":{"type":"Polygon","coordinates":[[[-98.687,55.5],[-98.61,55.52],[-98.569,55.55],[-98.557,55.592],[-98.585,55.633],[-98.65,55.659],[-98.876,55.67],[-99.004,55.672],[-99.064,55.647],[-99.062,55.626],[-98.996,55.585],[-98.729,55.504],[-98.687,55.5]]]}},{"type":"Feature","properties":{"density":1},"geometry":{"type":"Polygon","coordinates":[[[-109.485,59.063],[-109.926,58.898],[-110.289,58.535],[-110.665,57.907],[-110.701,57.647],[-110.624,57.21],[-110.484,56.861],[-110.275,56.443],[-109.912,56.094],[-109.312,55.689],[-108.705,55.409],[-108.238,55.215],[-107.68,54.908],[-106.871,54.42],[-106.131,53.862],[-105.741,53.68],[-105.085,53.541],[-103.719,53.369],[-103.261,53.276],[-102.758,53.201],[-102.101,53.208],[-101.57,53.485],[-101.291,53.764],[-101.252,54.175],[-101.177,54.578],[-100.743,54.931],[-100.241,54.931],[-99.072,54.727],[-98.344,54.689],[-97.552,54.838],[-96.385,55.117],[-95.794,55.494],[-95.473,55.829],[-95.348,56.289],[-95.264,56.819],[-95.375,57.377],[-95.543,57.907],[-96.025,58.689],[-96.296,58.968],[-97.036,59.888],[-97.625,60.759],[-98.612,61.632],[-99.449,62.051],[-100.035,62.204],[-101.095,62.316],[-101.653,62.316],[-102.63,62.093],[-103.132,61.8],[-103.76,61.381],[-105.239,60.042],[-106.006,59.665],[-106.615,59.501],[-107.624,59.302],[-108.824,59.149],[-109.485,59.063]]]}},{"type":"Feature","properties":{"density":1},"geometry":{"type":"Polygon","coordinates":[[[-114.77,59.39],[-114.551,59.374],[-114.192,59.494],[-113.813,59.696],[-113.578,59.851],[-113.41,60.118],[-113.305,60.322],[-113.249,60.515],[-113.249,60.657],[-113.33,60.769],[-113.516,60.868],[-113.727,60.942],[-113.925,60.942],[-114.084,60.87],[-114.204,60.787],[-114.423,60.539],[-114.621,60.271],[-114.83,59.783],[-114.865,59.667],[-114.88,59.516],[-114.824,59.423],[-114.77,59.39]]]}},{"type":"Feature","properties":{"density":1},"geometry":{"type":"Polygon","coordinates":[[[-113.719,58.924],[-113.796,59.026],[-113.832,59.117],[-113.821,59.421],[-113.752,59.635],[-113.678,59.718],[-113.545,59.751],[-113.405,59.754],[-113.241,59.68],[-113.171,59.589],[-113.162,59.502],[-113.187,59.312],[-113.286,59.093],[-113.357,59.018],[-113.448,58.96],[-113.592,58.911],[-113.719,58.924]]]}},{"type":"Feature","properties":{"density":1},"geometry":{"type":"Polygon","coordinates":[[[-127.423,70.197],[-127.688,70.099],[-128.804,69.82],[-130.31,69.346],[-131.985,68.774],[-132.445,68.565],[-132.947,68.286],[-133.407,67.811],[-133.575,67.574],[-133.533,67.03],[-133.017,66.514],[-132.543,66.277],[-132.026,66.096],[-131.315,65.914],[-130.785,65.844],[-130.241,65.719],[-129.711,65.551],[-129.25,65.37],[-128.86,65.105],[-128.539,64.938],[-127.967,64.687],[-126.544,63.654],[-125.958,63.375],[-125.609,63.236],[-125.135,63.082],[-124.605,62.943],[-124.033,62.859],[-123.628,62.943],[-122.847,63.138],[-122.359,63.305],[-121.619,63.654],[-120.866,63.947],[-119.722,64.31],[-119.066,64.477],[-118.062,64.687],[-116.541,65.049],[-115.885,65.328],[-114.853,65.719],[-114.476,65.9],[-114.156,66.137],[-113.821,66.444],[-113.639,67.156],[-113.681,67.505],[-113.891,67.993],[-114.797,68.635],[-115.481,69.025],[-116.918,69.569],[-118.313,69.96],[-119.331,70.099],[-120.406,70.281],[-121.368,70.42],[-123.782,70.685],[-125.205,70.643],[-126.014,70.532],[-126.767,70.337],[-127.423,70.197]]]}},{"type":"Feature","properties":{"density":1},"geometry":{"type":"Polygon","coordinates":[[[-73.108,20.053],[-73.327,20.264],[-73.505,20.309],[-73.608,20.32],[-73.769,20.239],[-73.862,20.14],[-73.893,19.972],[-73.862,19.78],[-73.658,19.383],[-73.534,19.21],[-73.317,19.03],[-72.616,18.577],[-72.436,18.484],[-72.163,18.348],[-71.717,18.162],[-71.581,18.125],[-71.469,18.149],[-71.413,18.205],[-71.506,18.404],[-71.612,18.528],[-71.984,18.832],[-72.25,19.098],[-72.573,19.371],[-72.746,19.545],[-73.031,19.948],[-73.108,20.053]]]}},{"type":"Feature","properties":{"density":1},"geometry":{"type":"Polygon","coordinates":[[[-78.498,38.887],[-77.131,39.169],[-75.799,39.264],[-74.072,39.044],[-73.005,38.416],[-72.283,37.725],[-72.032,37.223],[-71.906,36.595],[-72.063,35.654],[-72.346,34.712],[-73.099,33.645],[-75.139,31.762],[-76.772,30.569],[-77.588,29.91],[-78.749,28.811],[-80.224,27.712],[-81.543,26.99],[-84.452,26.005],[-85.945,25.74],[-87.981,25.224],[-89.697,24.82],[-90.506,24.345],[-91.092,23.578],[-91.329,22.574],[-91.326,21.571],[-91.493,20.127],[-92.163,18.955],[-94.349,17.542],[-97.3,17.385],[-98.922,17.846],[-100.7,19.415],[-101.537,21.215],[-102.354,23.349],[-102.667,24.73],[-102.605,26.321],[-102.354,28.079],[-101.373,29.652],[-100.089,30.843],[-97.987,32.182],[-96.936,33.168],[-95.774,34.293],[-94.841,35.361],[-92.644,36.47],[-90.761,37.098],[-89.542,37.443],[-88.621,37.592],[-86.766,37.932],[-84.376,38.165],[-83.213,38.23],[-81.065,38.509],[-79.586,38.723],[-78.498,38.887]]]}},{"type":"Feature","properties":{"density":1},"geometry":{"type":"Polygon","coordinates":[[[-114.271,37.328],[-114.264,37.422],[-114.238,37.503],[-114.207,37.576],[-114.124,37.695],[-114.018,37.795],[-113.946,37.835],[-113.862,37.852],[-113.828,37.822],[-113.808,37.736],[-113.836,37.626],[-113.88,37.558],[-114.021,37.427],[-114.258,37.319],[-114.271,37.328]]]}},{"type":"Feature","properties":{"density":1},"geometry":{"type":"Polygon","coordinates":[[[-112.562,38.391],[-112.437,38.533],[-112.327,38.594],[-112.052,38.7],[-111.908,38.735],[-111.682,38.783],[-111.557,38.726],[-111.499,38.627],[-111.537,38.54],[-111.662,38.426],[-111.898,38.288],[-112.158,38.211],[-112.513,38.175],[-112.576,38.214],[-112.588,38.305],[-112.562,38.391]]]}},{"type":"Feature","properties":{"density":1},"geometry":{"type":"Polygon","coordinates":[[[-110.674,33.559],[-110.76,33.561],[-110.822,33.588],[-110.834,33.672],[-110.776,33.738],[-110.694,33.776],[-110.429,33.854],[-109.972,33.925],[-109.812,33.928],[-109.795,33.881],[-109.823,33.834],[-109.919,33.793],[-110.194,33.73],[-110.423,33.614],[-110.581,33.564],[-110.674,33.559]]]}},{"type":"Feature","properties":{"density":1},"geometry":{"type":"Polygon","coordinates":[[[-111.685,35.05],[-111.715,34.981],[-111.749,34.948],[-111.799,34.941],[-111.868,34.975],[-111.867,35.092],[-111.778,35.198],[-111.699,35.245],[-111.634,35.307],[-111.524,35.474],[-111.422,35.514],[-111.337,35.502],[-111.287,35.463],[-111.261,35.363],[-111.31,35.265],[-111.655,35.081],[-111.685,35.05]]]}},{"type":"Feature","properties":{"density":1},"geometry":{"type":"Polygon","coordinates":[[[-101.239,66.4],[-101.351,66.488],[-101.504,66.466],[-101.575,66.364],[-101.605,65.95],[-101.59,65.515],[-101.544,65.364],[-101.412,65.151],[-101.331,65.105],[-101.252,65.086],[-101.17,65.082],[-101.091,65.107],[-101.037,65.194],[-101.0,65.305],[-100.959,65.558],[-100.951,65.823],[-101.059,66.117],[-101.141,66.256],[-101.239,66.4]]]}},{"type":"Feature","properties":{"density":1},"geometry":{"type":"Polygon","coordinates":[[[-129.039,67.703],[-128.919,67.783],[-128.877,67.849],[-128.877,67.911],[-128.898,67.965],[-128.927,68.01],[-128.997,68.056],[-129.218,68.07],[-129.543,68.006],[-129.865,67.874],[-129.944,67.808],[-130.055,67.67],[-130.097,67.527],[-130.105,67.411],[-130.064,67.312],[-129.904,67.251],[-129.75,67.25],[-129.642,67.303],[-129.543,67.403],[-129.32,67.576],[-129.124,67.664],[-129.039,67.703]]]}},{"type":"Feature","properties":{"density":1},"geometry":{"type":"Polygon","coordinates":[[[-132.025,69.217],[-132.593,68.863],[-132.967,68.433],[-133.323,68.057],[-133.699,67.471],[-133.804,66.948],[-133.318,66.315],[-132.004,65.776],[-131.376,65.545],[-130.707,65.253],[-128.259,64.743],[-127.226,64.316],[-126.212,63.795],[-125.459,63.292],[-124.952,63.013],[-124.408,62.641],[-123.906,62.521],[-123.143,62.651],[-122.441,63.223],[-122.085,63.558],[-121.416,64.018],[-120.704,64.436],[-119.972,64.585],[-119.281,64.604],[-118.591,64.583],[-117.628,64.499],[-116.828,64.455],[-115.996,64.457],[-114.887,64.541],[-114.322,64.792],[-113.799,65.148],[-113.506,65.671],[-113.464,66.362],[-113.652,67.073],[-114.196,67.701],[-114.95,68.245],[-115.912,68.684],[-117.0,69.019],[-118.354,69.412],[-119.525,69.617],[-121.102,69.856],[-123.969,69.919],[-125.915,69.919],[-128.314,70.007],[-129.3,70.026],[-130.205,69.793],[-130.695,69.7],[-131.579,69.44],[-132.025,69.217]]]}},{"type":"Feature","properties":{"density":1},"geometry":{"type":"Polygon","coordinates":[[[-101.099,65.213],[-101.206,65.117],[-101.251,65.122],[-101.3,65.167],[-101.355,65.255],[-101.424,65.481],[-101.408,65.566],[-101.341,65.643],[-101.223,65.674],[-101.058,65.66],[-100.917,65.58],[-100.898,65.536],[-100.906,65.453],[-100.994,65.313],[-101.06,65.252],[-101.099,65.213]]]}},{"type":"Feature","properties":{"density":1},"geometry":{"type":"Polygon","coordinates":[[[-100.68,64.595],[-101.322,64.497],[-101.866,64.349],[-103.317,63.861],[-103.763,63.624],[-104.14,63.275],[-104.656,62.843],[-104.907,62.578],[-105.214,62.006],[-105.535,61.336],[-105.758,60.736],[-106.009,60.164],[-106.4,59.732],[-106.753,59.304],[-107.321,58.746],[-107.888,57.872],[-107.962,57.109],[-107.795,56.635],[-107.307,56.132],[-106.288,55.644],[-105.8,55.365],[-105.186,55.058],[-104.586,54.835],[-103.917,54.556],[-103.149,54.347],[-102.48,54.193],[-101.517,54.179],[-100.22,54.235],[-99.634,54.319],[-98.629,54.528],[-97.792,54.765],[-96.885,55.198],[-96.439,55.853],[-96.146,56.649],[-96.062,57.555],[-96.23,58.113],[-96.858,59.606],[-96.941,60.108],[-96.802,60.666],[-96.3,61.057],[-95.839,61.266],[-95.225,61.615],[-94.556,62.279],[-94.444,62.871],[-94.681,63.526],[-95.114,64.015],[-95.728,64.405],[-96.258,64.628],[-97.081,64.824],[-97.82,64.921],[-99.215,64.832],[-99.843,64.762],[-100.68,64.595]]]}},{"type":"Feature","properties":{"density":1},"geometry":{"type":"Polygon","coordinates":[[[-84.43,55.716],[-84.911,55.318],[-85.309,54.879],[-85.56,54.167],[-85.79,52.179],[-85.099,50.798],[-84.409,49.877],[-83.718,49.501],[-82.735,49.04],[-80.684,48.789],[-79.701,48.706],[-78.299,48.831],[-77.189,48.978],[-75.85,49.396],[-74.636,50.108],[-73.506,50.631],[-72.272,51.175],[-71.519,51.635],[-70.702,51.97],[-69.928,52.326],[-68.819,53.016],[-68.359,53.477],[-68.149,54.209],[-68.254,54.858],[-68.526,55.339],[-69.175,55.674],[-69.949,55.779],[-70.849,55.737],[-71.581,55.737],[-72.335,55.695],[-73.506,55.695],[-74.72,55.59],[-75.578,55.569],[-76.604,55.632],[-78.131,56.113],[-79.701,56.365],[-81.626,56.406],[-82.484,56.302],[-83.509,56.155],[-84.43,55.716]]]}},{"type":"Feature","properties":{"density":1},"geometry":{"type":"Polygon","coordinates":[[[-119.327,40.397],[-119.191,40.726],[-119.067,40.887],[-118.961,40.986],[-118.86,41.019],[-118.715,41.023],[-118.62,41.007],[-118.533,40.949],[-118.471,40.842],[-118.471,40.73],[-118.719,40.445],[-118.951,40.325],[-119.063,40.284],[-119.137,40.267],[-119.271,40.286],[-119.327,40.397]]]}},{"type":"Feature","properties":{"density":2},"geometry":{"type":"Polygon","coordinates":[[[-112.549,38.29],[-112.549,38.325],[-112.452,38.397],[-112.231,38.45],[-112.122,38.445],[-112.034,38.416],[-111.999,38.381],[-111.999,38.362],[-112.026,38.352],[-112.146,38.349],[-112.292,38.312],[-112.295,38.218],[-112.308,38.202],[-112.501,38.213],[-112.557,38.266],[-112.549,38.29]]]}},{"type":"Feature","properties":{"density":2},"geometry":{"type":"Polygon","coordinates":[[[-127.963,65.98],[-128.335,65.92],[-128.809,65.872],[-129.188,65.872],[-129.806,65.812],[-130.046,65.74],[-130.244,65.71],[-130.364,65.746],[-130.466,65.836],[-130.466,65.914],[-130.436,65.974],[-130.31,66.046],[-130.118,66.124],[-129.632,66.226],[-129.416,66.214],[-129.212,66.178],[-128.743,66.13],[-128.431,66.148],[-128.227,66.196],[-127.987,66.28],[-127.813,66.286],[-127.747,66.238],[-127.753,66.13],[-127.813,66.052],[-127.963,65.98]]]}},{"type":"Feature","properties":{"density":2},"geometry":{"type":"Polygon","coordinates":[[[-114.734,59.453],[-114.726,59.549],[-114.626,59.709],[-114.546,59.705],[-114.55,59.629],[-114.662,59.465],[-114.718,59.433],[-114.734,59.453]]]}},{"type":"Feature","properties":{"density":2},"geometry":{"type":"Polygon","coordinates":[[[-104.364,58.505],[-104.473,58.433],[-104.597,58.393],[-104.705,58.401],[-104.825,58.461],[-105.173,58.681],[-105.225,58.749],[-105.249,58.845],[-105.217,58.889],[-105.109,58.929],[-104.969,58.921],[-104.641,58.661],[-104.412,58.621],[-104.336,58.633],[-104.304,58.597],[-104.308,58.549],[-104.332,58.521],[-104.364,58.505]]]}},{"type":"Feature","properties":{"density":2},"geometry":{"type":"Polygon","coordinates":[[[-100.487,57.948],[-100.391,57.908],[-100.259,57.88],[-100.014,57.888],[-99.782,57.908],[-99.73,57.932],[-99.706,57.976],[-99.714,58.02],[-99.794,58.088],[-100.154,58.241],[-100.174,58.333],[-100.239,58.401],[-100.371,58.481],[-100.467,58.509],[-100.875,58.529],[-100.959,58.493],[-101.023,58.441],[-101.039,58.401],[-101.027,58.349],[-100.971,58.245],[-100.775,58.08],[-100.567,57.96],[-100.487,57.948]]]}},{"type":"Feature","properties":{"density":2},"geometry":{"type":"Polygon","coordinates":[[[-97.553,59.063],[-97.497,59.115],[-97.481,59.159],[-97.489,59.219],[-97.513,59.291],[-97.557,59.327],[-97.609,59.339],[-97.665,59.307],[-97.729,59.211],[-97.773,59.127],[-97.821,58.963],[-97.813,58.935],[-97.745,58.931],[-97.625,58.995],[-97.553,59.063]]]}},{"type":"Feature","properties":{"density":2},"geometry":{"type":"Polygon","coordinates":[[[-72.952,53.819],[-73.412,53.799],[-73.512,53.847],[-73.472,53.876],[-73.048,53.916],[-72.872,53.912],[-72.84,53.892],[-72.848,53.868],[-72.884,53.847],[-72.952,53.819]]]}},{"type":"Feature","properties":{"density":2},"geometry":{"type":"Polygon","coordinates":[[[-75.069,53.9],[-75.421,53.904],[-75.577,53.944],[-75.601,54.012],[-75.565,54.044],[-75.241,54.056],[-75.085,54.016],[-75.029,53.976],[-75.021,53.96],[-75.057,53.916],[-75.069,53.9]]]}},{"type":"Feature","properties":{"density":2},"geometry":{"type":"Polygon","coordinates":[[[-78.421,53.514],[-78.537,53.553],[-78.582,53.549],[-78.617,53.524],[-78.606,53.483],[-78.583,53.474],[-78.494,53.512],[-78.42,53.492],[-78.42,53.503],[-78.421,53.514]]]}},{"type":"Feature","properties":{"density":2},"geometry":{"type":"Polygon","coordinates":[[[-71.567,18.237],[-71.676,18.285],[-71.779,18.286],[-72.464,18.237],[-72.496,18.224],[-72.499,18.199],[-72.474,18.169],[-72.421,18.149],[-72.135,18.128],[-71.69,18.123],[-71.567,18.141],[-71.555,18.155],[-71.564,18.215],[-71.567,18.237]]]}},{"type":"Feature","properties":{"density":2},"geometry":{"type":"Polygon","coordinates":[[[-76.516,53.936],[-76.495,53.876],[-76.46,53.833],[-76.345,53.776],[-76.158,53.73],[-75.923,53.727],[-75.777,53.741],[-75.134,53.901],[-75.05,53.947],[-75.037,54.006],[-75.066,54.037],[-75.138,54.072],[-75.245,54.103],[-75.646,54.121],[-76.338,54.061],[-76.456,54.012],[-76.512,53.958],[-76.516,53.936]]]}},{"type":"Feature","properties":{"density":2},"geometry":{"type":"Polygon","coordinates":[[[-74.12,53.819],[-74.158,53.801],[-74.175,53.77],[-74.155,53.739],[-74.101,53.719],[-73.96,53.693],[-73.685,53.69],[-73.442,53.717],[-72.948,53.803],[-72.864,53.831],[-72.828,53.871],[-72.865,53.921],[-73.033,53.945],[-73.559,53.917],[-74.055,53.847],[-74.12,53.819]]]}},{"type":"Feature","properties":{"density":2},"geometry":{"type":"Polygon","coordinates":[[[-73.048,54.197],[-73.119,54.133],[-73.127,54.106],[-73.113,54.075],[-73.07,54.05],[-72.946,54.059],[-72.788,54.134],[-72.64,54.279],[-72.626,54.299],[-72.63,54.336],[-72.683,54.355],[-72.75,54.345],[-73.022,54.207],[-73.048,54.197]]]}},{"type":"Feature","properties":{"density":2},"geometry":{"type":"Polygon","coordinates":[[[-78.098,52.833],[-78.142,52.84],[-78.201,52.82],[-78.22,52.785],[-78.214,52.755],[-78.144,52.724],[-78.005,52.736],[-77.991,52.755],[-78.009,52.8],[-78.074,52.825],[-78.098,52.833]]]}},{"type":"Feature","properties":{"density":2},"geometry":{"type":"Polygon","coordinates":[[[-78.929,53.606],[-79.063,53.562],[-79.108,53.523],[-79.125,53.451],[-79.099,53.414],[-79.037,53.397],[-78.878,53.393],[-78.285,53.432],[-78.249,53.45],[-78.253,53.466],[-78.346,53.519],[-78.559,53.597],[-78.742,53.615],[-78.89,53.61],[-78.929,53.606]]]}},{"type":"Feature","properties":{"density":2},"geometry":{"type":"Polygon","coordinates":[[[-71.849,53.488],[-71.917,53.478],[-71.973,53.44],[-71.984,53.368],[-71.947,53.28],[-71.866,53.222],[-71.76,53.188],[-71.661,53.2],[-71.613,53.232],[-71.603,53.317],[-71.651,53.397],[-71.704,53.444],[-71.816,53.484],[-71.849,53.488]]]}},{"type":"Feature","properties":{"density":2},"geometry":{"type":"Polygon","coordinates":[[[-100.039,54.481],[-100.055,54.472],[-100.086,54.496],[-100.097,54.547],[-100.077,54.556],[-100.064,54.545],[-100.04,54.49],[-100.039,54.481]]]}},{"type":"Feature","properties":{"density":2},"geometry":{"type":"Polygon","coordinates":[[[-97.66,59.084],[-97.777,58.985],[-97.833,58.972],[-97.901,58.98],[-98.003,59.083],[-98.01,59.155],[-97.986,59.217],[-97.909,59.298],[-97.885,59.345],[-97.854,59.489],[-97.807,59.514],[-97.739,59.508],[-97.589,59.434],[-97.499,59.287],[-97.487,59.247],[-97.522,59.219],[-97.586,59.26],[-97.626,59.263],[-97.632,59.221],[-97.545,59.083],[-97.572,59.065],[-97.623,59.074],[-97.66,59.084]]]}},{"type":"Feature","properties":{"density":2},"geometry":{"type":"Polygon","coordinates":[[[-98.988,55.683],[-99.056,55.687],[-99.085,55.669],[-99.095,55.645],[-99.079,55.608],[-98.906,55.529],[-98.808,55.504],[-98.757,55.507],[-98.703,55.539],[-98.712,55.605],[-98.963,55.673],[-98.988,55.683]]]}},{"type":"Feature","properties":{"density":2},"geometry":{"type":"Polygon","coordinates":[[[-102.723,56.3],[-102.82,56.24],[-102.964,56.119],[-103.059,55.966],[-103.15,55.767],[-103.138,55.618],[-103.047,55.465],[-102.791,55.333],[-102.574,55.303],[-102.404,55.33],[-102.219,55.328],[-102.117,55.242],[-102.014,55.189],[-101.888,55.168],[-101.761,55.222],[-101.673,55.366],[-101.582,55.435],[-101.467,55.499],[-101.141,55.606],[-100.947,55.709],[-100.865,55.854],[-100.865,56.032],[-100.96,56.181],[-101.092,56.317],[-101.261,56.4],[-101.456,56.453],[-101.687,56.482],[-101.964,56.482],[-102.39,56.43],[-102.617,56.358],[-102.723,56.3]]]}},{"type":"Feature","properties":{"density":2},"geometry":{"type":"Polygon","coordinates":[[[-99.318,58.257],[-99.374,58.221],[-99.372,58.19],[-99.346,58.158],[-99.2,58.075],[-99.171,58.073],[-99.161,58.089],[-99.199,58.155],[-99.291,58.249],[-99.318,58.257]]]}},{"type":"Feature","properties":{"density":2},"geometry":{"type":"Polygon","coordinates":[[[-100.263,58.476],[-100.421,58.581],[-100.602,58.663],[-100.726,58.742],[-100.867,58.787],[-100.983,58.796],[-101.051,58.728],[-101.086,58.559],[-101.065,58.346],[-100.977,58.204],[-100.843,58.116],[-100.755,58.028],[-100.727,57.908],[-100.707,57.701],[-100.652,57.536],[-100.578,57.487],[-100.481,57.495],[-100.421,57.574],[-100.391,57.721],[-100.314,57.874],[-100.204,57.947],[-100.068,57.955],[-99.839,57.906],[-99.74,57.908],[-99.652,57.975],[-99.613,58.065],[-99.657,58.159],[-100.136,58.393],[-100.263,58.476]]]}},{"type":"Feature","properties":{"density":2},"geometry":{"type":"Polygon","coordinates":[[[-102.071,58.271],[-102.111,58.289],[-102.166,58.283],[-102.201,58.228],[-102.191,58.189],[-102.163,58.161],[-102.061,58.143],[-101.92,58.092],[-101.913,58.13],[-102.039,58.249],[-102.071,58.271]]]}},{"type":"Feature","properties":{"density":2},"geometry":{"type":"Polygon","coordinates":[[[-102.949,58.538],[-103.037,58.574],[-103.085,58.564],[-103.104,58.54],[-103.107,58.467],[-103.042,58.38],[-102.923,58.31],[-102.76,58.255],[-102.678,58.254],[-102.673,58.284],[-102.744,58.393],[-102.9,58.506],[-102.949,58.538]]]}},{"type":"Feature","properties":{"density":2},"geometry":{"type":"Polygon","coordinates":[[[-103.884,58.929],[-103.939,59.026],[-103.977,59.053],[-104.042,59.058],[-104.06,59.036],[-104.078,58.998],[-104.07,58.953],[-104.038,58.907],[-103.819,58.734],[-103.777,58.73],[-103.775,58.786],[-103.857,58.902],[-103.884,58.929]]]}},{"type":"Feature","properties":{"density":2},"geometry":{"type":"Polygon","coordinates":[[[-103.913,59.36],[-103.969,59.358],[-104.004,59.33],[-104.022,59.284],[-103.976,59.137],[-103.89,59.043],[-103.83,59.001],[-103.71,58.923],[-103.678,58.934],[-103.676,58.956],[-103.751,59.075],[-103.79,59.27],[-103.862,59.348],[-103.913,59.36]]]}},{"type":"Feature","properties":{"density":2},"geometry":{"type":"Polygon","coordinates":[[[-102.896,59.492],[-102.948,59.661],[-102.983,59.69],[-103.054,59.681],[-103.083,59.637],[-103.054,59.538],[-102.998,59.451],[-102.896,59.354],[-102.872,59.352],[-102.859,59.376],[-102.881,59.461],[-102.896,59.492]]]}},{"type":"Feature","properties":{"density":2},"geometry":{"type":"Polygon","coordinates":[[[-106.765,58.697],[-106.824,58.695],[-106.842,58.677],[-106.824,58.574],[-106.726,58.435],[-106.688,58.405],[-106.646,58.398],[-106.631,58.418],[-106.73,58.677],[-106.765,58.697]]]}},{"type":"Feature","properties":{"density":2},"geometry":{"type":"Polygon","coordinates":[[[-103.906,61.278],[-103.931,61.312],[-103.936,61.364],[-103.91,61.392],[-103.875,61.393],[-103.849,61.363],[-103.848,61.305],[-103.892,61.274],[-103.906,61.278]]]}},{"type":"Feature","properties":{"density":2},"geometry":{"type":"Polygon","coordinates":[[[-102.467,57.642],[-102.56,57.658],[-102.621,57.604],[-102.619,57.583],[-102.443,57.482],[-102.423,57.496],[-102.416,57.556],[-102.449,57.627],[-102.467,57.642]]]}},{"type":"Feature","properties":{"density":2},"geometry":{"type":"Polygon","coordinates":[[[-112.145,38.444],[-112.209,38.447],[-112.498,38.391],[-112.561,38.333],[-112.569,38.228],[-112.522,38.192],[-112.434,38.17],[-112.344,38.19],[-112.227,38.272],[-112.106,38.322],[-111.946,38.316],[-111.921,38.333],[-111.927,38.374],[-111.99,38.416],[-112.067,38.438],[-112.145,38.444]]]}},{"type":"Feature","properties":{"density":2},"geometry":{"type":"Polygon","coordinates":[[[-122.237,61.793],[-122.209,61.77],[-122.171,61.773],[-122.111,61.866],[-122.113,61.921],[-122.139,61.97],[-122.188,62.008],[-122.338,62.065],[-122.452,62.086],[-122.587,62.074],[-122.613,62.049],[-122.616,62.015],[-122.558,61.964],[-122.416,61.92],[-122.282,61.833],[-122.237,61.793]]]}},{"type":"Feature","properties":{"density":2},"geometry":{"type":"Polygon","coordinates":[[[-122.982,61.486],[-123.012,61.497],[-123.048,61.488],[-123.054,61.438],[-122.991,61.397],[-122.968,61.401],[-122.968,61.454],[-122.982,61.486]]]}},{"type":"Feature","properties":{"density":2},"geometry":{"type":"Polygon","coordinates":[[[-117.46,66.539],[-117.489,66.564],[-117.526,66.56],[-117.552,66.511],[-117.45,66.398],[-117.424,66.415],[-117.442,66.516],[-117.46,66.539]]]}},{"type":"Feature","properties":{"density":2},"geometry":{"type":"Polygon","coordinates":[[[-117.905,66.0],[-118.039,66.04],[-118.088,66.022],[-118.107,65.961],[-118.101,65.93],[-118.042,65.865],[-117.745,65.75],[-117.598,65.619],[-117.554,65.597],[-117.499,65.594],[-117.462,65.625],[-117.445,65.709],[-117.469,65.781],[-117.622,65.893],[-117.848,65.979],[-117.905,66.0]]]}},{"type":"Feature","properties":{"density":2},"geometry":{"type":"Polygon","coordinates":[[[-114.535,59.933],[-114.633,59.928],[-114.69,59.882],[-114.691,59.702],[-114.768,59.51],[-114.76,59.453],[-114.741,59.429],[-114.702,59.426],[-114.647,59.454],[-114.565,59.577],[-114.488,59.817],[-114.52,59.92],[-114.535,59.933]]]}},{"type":"Feature","properties":{"density":2},"geometry":{"type":"Polygon","coordinates":[[[-71.891,18.762],[-71.976,18.798],[-72.047,18.774],[-72.041,18.686],[-71.986,18.576],[-71.889,18.418],[-71.738,18.244],[-71.621,18.165],[-71.567,18.165],[-71.545,18.184],[-71.547,18.253],[-71.854,18.707],[-71.891,18.762]]]}},{"type":"Feature","properties":{"density":2},"geometry":{"type":"Polygon","coordinates":[[[-75.268,20.766],[-75.392,20.791],[-75.422,20.765],[-75.387,20.721],[-75.274,20.688],[-75.074,20.658],[-74.989,20.677],[-75.028,20.705],[-75.237,20.759],[-75.268,20.766]]]}},{"type":"Feature","properties":{"density":2},"geometry":{"type":"Polygon","coordinates":[[[-94.703,30.745],[-94.713,30.732],[-94.746,30.737],[-94.77,30.859],[-94.747,30.951],[-94.681,30.973],[-94.658,30.897],[-94.691,30.783],[-94.703,30.745]]]}},{"type":"Feature","properties":{"density":2},"geometry":{"type":"Polygon","coordinates":[[[-79.404,53.588],[-79.47,53.539],[-79.491,53.502],[-79.482,53.444],[-79.4,53.415],[-79.11,53.386],[-78.664,53.39],[-78.527,53.406],[-78.403,53.435],[-78.337,53.468],[-78.321,53.522],[-78.329,53.559],[-78.37,53.613],[-78.544,53.65],[-78.986,53.671],[-79.185,53.646],[-79.321,53.601],[-79.404,53.588]]]}},{"type":"Feature","properties":{"density":2},"geometry":{"type":"Polygon","coordinates":[[[-78.073,52.882],[-78.201,52.882],[-78.536,52.795],[-78.618,52.708],[-78.622,52.658],[-78.602,52.605],[-78.527,52.563],[-78.461,52.572],[-78.044,52.683],[-77.986,52.724],[-77.969,52.77],[-77.986,52.836],[-78.04,52.869],[-78.073,52.882]]]}},{"type":"Feature","properties":{"density":2},"geometry":{"type":"Polygon","coordinates":[[[-77.243,54.247],[-77.357,54.22],[-77.498,54.121],[-77.509,54.06],[-77.481,53.961],[-77.429,53.867],[-77.346,53.809],[-77.144,53.751],[-76.958,53.722],[-76.495,53.689],[-75.924,53.705],[-75.131,53.88],[-74.998,53.937],[-74.998,53.995],[-75.048,54.049],[-75.131,54.09],[-75.317,54.123],[-76.515,54.293],[-76.805,54.318],[-77.119,54.28],[-77.243,54.247]]]}},{"type":"Feature","properties":{"density":2},"geometry":{"type":"Polygon","coordinates":[[[-71.798,53.457],[-71.899,53.472],[-71.961,53.409],[-71.963,53.364],[-71.888,53.275],[-71.744,53.259],[-71.678,53.279],[-71.647,53.325],[-71.649,53.376],[-71.676,53.415],[-71.75,53.459],[-71.798,53.457]]]}},{"type":"Feature","properties":{"density":2},"geometry":{"type":"Polygon","coordinates":[[[-72.461,54.326],[-72.505,54.392],[-72.651,54.417],[-72.775,54.392],[-72.949,54.298],[-73.268,54.083],[-73.469,53.995],[-74.277,53.915],[-74.682,53.849],[-74.825,53.761],[-74.822,53.7],[-74.682,53.612],[-74.605,53.587],[-74.354,53.593],[-73.784,53.639],[-73.442,53.703],[-73.274,53.717],[-72.761,53.821],[-72.599,53.865],[-72.373,54.003],[-72.356,54.061],[-72.384,54.116],[-72.45,54.171],[-72.442,54.254],[-72.461,54.326]]]}},{"type":"Feature","properties":{"density":2},"geometry":{"type":"Polygon","coordinates":[[[-76.747,54.831],[-76.852,54.834],[-77.072,54.804],[-77.229,54.754],[-77.422,54.724],[-77.645,54.666],[-77.755,54.624],[-77.802,54.578],[-77.824,54.517],[-77.777,54.445],[-77.631,54.407],[-77.323,54.421],[-77.119,54.462],[-76.606,54.605],[-76.405,54.693],[-76.383,54.759],[-76.424,54.798],[-76.659,54.831],[-76.747,54.831]]]}},{"type":"Feature","properties":{"density":2},"geometry":{"type":"Polygon","coordinates":[[[-78.453,55.384],[-78.56,55.387],[-78.649,55.34],[-78.701,55.265],[-78.706,55.188],[-78.668,55.094],[-78.588,55.012],[-78.326,54.885],[-77.927,54.819],[-77.51,54.805],[-77.213,54.827],[-77.105,54.866],[-77.092,54.948],[-77.114,55.026],[-77.191,55.097],[-77.312,55.155],[-77.444,55.191],[-77.891,55.216],[-78.412,55.37],[-78.453,55.384]]]}},{"type":"Feature","properties":{"density":2},"geometry":{"type":"Polygon","coordinates":[[[-71.175,55.197],[-71.269,55.191],[-71.285,55.16],[-71.271,55.127],[-70.977,54.986],[-70.837,54.846],[-70.74,54.804],[-70.666,54.802],[-70.589,54.853],[-70.558,54.927],[-70.56,54.998],[-70.62,55.066],[-70.812,55.153],[-70.935,55.184],[-71.139,55.199],[-71.175,55.197]]]}},{"type":"Feature","properties":{"density":2},"geometry":{"type":"Polygon","coordinates":[[[-97.698,59.463],[-97.742,59.43],[-97.731,59.349],[-97.804,59.332],[-97.847,59.303],[-97.863,59.25],[-97.856,59.213],[-97.82,59.154],[-97.758,59.109],[-97.676,59.075],[-97.555,59.064],[-97.539,59.071],[-97.545,59.104],[-97.633,59.218],[-97.634,59.242],[-97.612,59.262],[-97.503,59.221],[-97.495,59.279],[-97.543,59.376],[-97.603,59.445],[-97.713,59.462],[-97.698,59.463]]]}},{"type":"Feature","properties":{"density":2},"geometry":{"type":"Polygon","coordinates":[[[-99.054,59.263],[-99.117,59.187],[-99.135,59.14],[-99.131,59.086],[-99.089,59.036],[-98.818,58.875],[-98.777,58.874],[-98.733,58.895],[-98.704,58.927],[-98.687,58.983],[-98.687,59.037],[-98.73,59.162],[-98.693,59.207],[-98.582,59.268],[-98.568,59.355],[-98.593,59.387],[-98.736,59.404],[-98.879,59.38],[-99.02,59.305],[-99.054,59.263]]]}},{"type":"Feature","properties":{"density":2},"geometry":{"type":"Polygon","coordinates":[[[-102.519,58.082],[-102.631,58.048],[-102.697,57.994],[-102.697,57.901],[-102.565,57.726],[-102.52,57.539],[-102.473,57.482],[-102.438,57.473],[-102.026,57.735],[-101.809,57.825],[-101.743,57.904],[-101.784,58.02],[-102.008,58.099],[-102.263,58.127],[-102.449,58.093],[-102.519,58.082]]]}},{"type":"Feature","properties":{"density":2},"geometry":{"type":"Polygon","coordinates":[[[-101.967,58.543],[-101.801,58.537],[-101.569,58.484],[-101.525,58.448],[-101.515,58.396],[-101.526,58.348],[-101.589,58.287],[-101.901,58.095],[-101.937,58.091],[-101.97,58.121],[-101.972,58.184],[-102.013,58.231],[-102.079,58.239],[-102.217,58.183],[-102.268,58.189],[-102.285,58.216],[-102.284,58.263],[-102.225,58.434],[-102.135,58.51],[-102.022,58.533],[-101.967,58.543]]]}},{"type":"Feature","properties":{"density":2},"geometry":{"type":"Polygon","coordinates":[[[-102.873,58.583],[-102.952,58.618],[-103.012,58.612],[-103.023,58.553],[-102.981,58.504],[-102.838,58.41],[-102.794,58.362],[-102.735,58.25],[-102.7,58.243],[-102.671,58.261],[-102.66,58.289],[-102.658,58.355],[-102.682,58.428],[-102.818,58.557],[-102.873,58.583]]]}},{"type":"Feature","properties":{"density":2},"geometry":{"type":"Polygon","coordinates":[[[-103.802,59.338],[-103.862,59.409],[-103.907,59.436],[-104.021,59.412],[-104.048,59.333],[-103.997,59.133],[-103.896,58.924],[-103.863,58.777],[-103.842,58.729],[-103.791,58.703],[-103.743,58.721],[-103.686,58.793],[-103.613,58.916],[-103.609,58.982],[-103.616,59.059],[-103.655,59.142],[-103.763,59.303],[-103.802,59.338]]]}},{"type":"Feature","properties":{"density":2},"geometry":{"type":"Polygon","coordinates":[[[-102.844,59.681],[-102.927,59.756],[-102.985,59.754],[-103.042,59.712],[-103.035,59.624],[-102.94,59.47],[-102.91,59.362],[-102.865,59.357],[-102.816,59.45],[-102.813,59.577],[-102.828,59.652],[-102.844,59.681]]]}},{"type":"Feature","properties":{"density":2},"geometry":{"type":"Polygon","coordinates":[[[-104.481,59.129],[-104.569,59.031],[-104.575,58.964],[-104.554,58.896],[-104.472,58.801],[-104.412,58.58],[-104.383,58.538],[-104.343,58.536],[-104.151,58.721],[-104.133,58.781],[-104.136,58.852],[-104.19,58.969],[-104.283,59.07],[-104.38,59.128],[-104.433,59.135],[-104.481,59.129]]]}},{"type":"Feature","properties":{"density":2},"geometry":{"type":"Polygon","coordinates":[[[-106.624,59.006],[-106.658,59.033],[-106.762,59.03],[-106.812,58.977],[-106.812,58.897],[-106.743,58.757],[-106.713,58.624],[-106.71,58.575],[-106.748,58.437],[-106.724,58.387],[-106.685,58.363],[-106.611,58.354],[-106.536,58.41],[-106.454,58.583],[-106.462,58.69],[-106.495,58.782],[-106.594,58.967],[-106.624,59.006]]]}},{"type":"Feature","properties":{"density":2},"geometry":{"type":"Polygon","coordinates":[[[-101.609,56.665],[-101.727,56.74],[-101.833,56.777],[-101.994,56.789],[-102.124,56.771],[-102.31,56.69],[-102.428,56.578],[-102.477,56.436],[-102.601,56.219],[-102.75,56.095],[-102.876,55.963],[-102.963,55.719],[-102.899,55.562],[-102.533,55.421],[-102.314,55.392],[-102.19,55.33],[-101.938,55.121],[-101.833,55.128],[-101.74,55.239],[-101.628,55.334],[-101.541,55.38],[-101.376,55.376],[-100.636,55.467],[-100.506,55.512],[-100.444,55.568],[-100.4,55.642],[-100.425,55.729],[-100.545,55.983],[-100.644,56.095],[-100.748,56.188],[-100.865,56.262],[-101.126,56.38],[-101.343,56.448],[-101.463,56.512],[-101.541,56.591],[-101.609,56.665]]]}},{"type":"Feature","properties":{"density":2},"geometry":{"type":"Polygon","coordinates":[[[-114.779,59.413],[-114.83,59.476],[-114.817,59.581],[-114.764,59.749],[-114.662,59.936],[-114.525,60.099],[-114.395,60.173],[-114.177,60.193],[-113.957,60.157],[-113.844,60.116],[-113.75,60.022],[-113.739,59.923],[-113.858,59.804],[-113.954,59.76],[-114.221,59.727],[-114.301,59.699],[-114.478,59.581],[-114.591,59.443],[-114.643,59.41],[-114.737,59.396],[-114.779,59.413]]]}},{"type":"Feature","properties":{"density":2},"geometry":{"type":"Polygon","coordinates":[[[-113.644,60.309],[-113.764,60.319],[-113.789,60.336],[-113.794,60.394],[-113.738,60.607],[-113.665,60.73],[-113.629,60.749],[-113.601,60.744],[-113.582,60.714],[-113.574,60.595],[-113.574,60.383],[-113.61,60.322],[-113.644,60.309]]]}},{"type":"Feature","properties":{"density":2},"geometry":{"type":"Polygon","coordinates":[[[-113.61,58.949],[-113.66,58.945],[-113.679,58.974],[-113.685,59.029],[-113.65,59.255],[-113.604,59.396],[-113.532,59.453],[-113.494,59.455],[-113.446,59.422],[-113.437,59.371],[-113.454,59.249],[-113.498,59.106],[-113.591,58.961],[-113.61,58.949]]]}},{"type":"Feature","properties":{"density":2},"geometry":{"type":"Polygon","coordinates":[[[-117.541,66.684],[-117.655,66.836],[-117.712,66.853],[-117.757,66.846],[-117.779,66.785],[-117.772,66.71],[-117.728,66.64],[-117.506,66.449],[-117.473,66.373],[-117.414,66.372],[-117.388,66.405],[-117.375,66.462],[-117.39,66.53],[-117.511,66.658],[-117.541,66.684]]]}},{"type":"Feature","properties":{"density":2},"geometry":{"type":"Polygon","coordinates":[[[-117.772,66.127],[-117.871,66.179],[-118.012,66.212],[-118.072,66.172],[-118.098,66.125],[-118.092,66.058],[-117.795,65.826],[-117.616,65.644],[-117.568,65.618],[-117.493,65.629],[-117.445,65.657],[-117.419,65.697],[-117.403,65.751],[-117.419,65.839],[-117.464,65.89],[-117.717,66.081],[-117.772,66.127]]]}},{"type":"Feature","properties":{"density":2},"geometry":{"type":"Polygon","coordinates":[[[-119.442,66.31],[-119.616,66.128],[-119.676,66.04],[-119.701,65.952],[-119.693,65.891],[-119.646,65.825],[-119.47,65.673],[-119.31,65.505],[-119.263,65.511],[-119.222,65.555],[-119.216,65.624],[-119.158,65.715],[-119.1,65.718],[-119.034,65.682],[-118.996,65.627],[-118.946,65.602],[-118.844,65.638],[-118.734,65.77],[-118.698,65.839],[-118.698,66.04],[-118.742,66.172],[-118.819,66.299],[-118.987,66.451],[-119.081,66.5],[-119.147,66.511],[-119.224,66.503],[-119.301,66.464],[-119.409,66.351],[-119.442,66.31]]]}},{"type":"Feature","properties":{"density":2},"geometry":{"type":"Polygon","coordinates":[[[-119.978,65.111],[-120.021,65.247],[-120.018,65.362],[-119.996,65.4],[-119.96,65.419],[-119.906,65.414],[-119.88,65.397],[-119.848,65.294],[-119.863,65.096],[-119.914,65.04],[-119.942,65.044],[-119.971,65.085],[-119.978,65.111]]]}},{"type":"Feature","properties":{"density":2},"geometry":{"type":"Polygon","coordinates":[[[-121.357,65.737],[-121.421,65.783],[-121.504,65.779],[-121.572,65.757],[-121.607,65.705],[-121.609,65.641],[-121.577,65.599],[-121.399,65.505],[-121.172,65.274],[-121.106,65.263],[-121.057,65.345],[-121.081,65.458],[-121.304,65.691],[-121.357,65.737]]]}},{"type":"Feature","properties":{"density":2},"geometry":{"type":"Polygon","coordinates":[[[-122.186,61.767],[-122.09,61.826],[-122.071,61.924],[-122.028,62.027],[-122.03,62.067],[-122.071,62.14],[-122.137,62.189],[-122.313,62.261],[-122.386,62.255],[-122.453,62.209],[-122.464,62.121],[-122.45,62.063],[-122.326,61.853],[-122.218,61.765],[-122.186,61.767]]]}},{"type":"Feature","properties":{"density":2},"geometry":{"type":"Polygon","coordinates":[[[-122.996,61.474],[-123.098,61.5],[-123.132,61.495],[-123.164,61.452],[-123.131,61.401],[-123.001,61.369],[-122.962,61.395],[-122.98,61.453],[-122.996,61.474]]]}},{"type":"Feature","properties":{"density":2},"geometry":{"type":"Polygon","coordinates":[[[-126.887,65.013],[-126.989,65.086],[-127.22,65.129],[-127.331,65.121],[-127.361,65.097],[-127.367,65.065],[-127.36,65.023],[-127.282,64.959],[-127.164,64.904],[-127.003,64.861],[-126.91,64.867],[-126.862,64.894],[-126.849,64.95],[-126.873,64.998],[-126.887,65.013]]]}},{"type":"Feature","properties":{"density":2},"geometry":{"type":"Polygon","coordinates":[[[-127.153,66.934],[-127.516,67.06],[-128.353,67.172],[-128.744,67.158],[-129.162,66.981],[-129.427,66.502],[-129.483,65.888],[-129.176,65.33],[-128.604,64.972],[-128.13,64.786],[-126.791,64.13],[-126.191,63.949],[-125.563,63.823],[-125.214,63.935],[-125.005,64.228],[-124.796,64.437],[-124.266,64.688],[-123.847,64.744],[-123.359,64.912],[-122.898,65.023],[-122.373,65.288],[-122.131,65.623],[-122.089,65.958],[-122.089,66.209],[-122.131,66.502],[-122.298,66.907],[-122.564,67.074],[-122.759,67.088],[-123.098,66.981],[-123.619,66.73],[-124.186,66.507],[-124.717,66.395],[-125.349,66.414],[-125.935,66.497],[-126.521,66.637],[-127.153,66.934]]]}},{"type":"Feature","properties":{"density":2},"geometry":{"type":"Polygon","coordinates":[[[-73.399,19.7],[-73.551,19.873],[-73.617,19.901],[-73.677,19.854],[-73.677,19.785],[-73.585,19.642],[-73.231,19.226],[-73.11,19.024],[-73.041,18.956],[-73.0,18.925],[-72.818,18.876],[-72.6,18.843],[-72.344,18.73],[-72.068,18.537],[-71.699,18.143],[-71.616,18.093],[-71.542,18.09],[-71.462,18.132],[-71.451,18.211],[-71.482,18.337],[-71.638,18.557],[-71.849,18.758],[-72.007,18.874],[-72.183,18.971],[-72.647,19.126],[-72.881,19.234],[-73.239,19.587],[-73.325,19.644],[-73.399,19.7]]]}},{"type":"Feature","properties":{"density":2},"geometry":{"type":"Polygon","coordinates":[[[-96.458,28.834],[-97.016,28.472],[-98.097,28.316],[-99.708,28.358],[-100.357,28.211],[-100.88,27.542],[-100.838,26.098],[-100.336,25.177],[-99.269,24.507],[-97.971,24.34],[-96.486,24.507],[-94.463,25.179],[-92.391,26.56],[-91.252,26.938],[-90.52,27.001],[-89.306,26.269],[-88.658,25.955],[-87.381,25.892],[-86.439,26.415],[-85.644,27.126],[-85.477,28.194],[-85.874,29.784],[-85.749,30.726],[-85.288,31.563],[-83.824,32.923],[-82.235,34.196],[-81.248,34.564],[-80.268,34.845],[-79.396,35.129],[-78.894,35.475],[-78.517,36.103],[-78.454,36.699],[-78.831,37.17],[-79.49,37.484],[-80.526,37.703],[-81.816,37.753],[-84.621,37.188],[-86.776,37.126],[-87.927,37.0],[-88.555,36.623],[-89.182,35.807],[-89.852,34.866],[-90.982,34.154],[-92.133,33.819],[-93.2,33.045],[-94.016,31.727],[-95.188,29.927],[-95.875,29.166],[-96.458,28.834]]]}},{"type":"Feature","properties":{"density":2},"geometry":{"type":"Polygon","coordinates":[[[-114.033,37.705],[-114.126,37.672],[-114.176,37.621],[-114.264,37.427],[-114.256,37.349],[-114.14,37.38],[-114.067,37.425],[-113.966,37.525],[-113.955,37.631],[-113.992,37.674],[-114.033,37.705]]]}},{"type":"Feature","properties":{"density":2},"geometry":{"type":"Polygon","coordinates":[[[-112.209,38.578],[-112.563,38.335],[-112.573,38.276],[-112.522,38.237],[-112.389,38.27],[-112.041,38.478],[-111.973,38.555],[-111.974,38.585],[-112.009,38.614],[-112.063,38.629],[-112.116,38.624],[-112.171,38.596],[-112.209,38.578]]]}},{"type":"Feature","properties":{"density":2},"geometry":{"type":"Polygon","coordinates":[[[-110.724,33.633],[-110.671,33.702],[-110.524,33.79],[-110.432,33.812],[-110.349,33.812],[-110.327,33.79],[-110.327,33.752],[-110.437,33.669],[-110.658,33.597],[-110.697,33.591],[-110.724,33.606],[-110.724,33.633]]]}},{"type":"Feature","properties":{"density":2},"geometry":{"type":"Polygon","coordinates":[[[-101.161,65.165],[-101.232,65.119],[-101.285,65.132],[-101.438,65.281],[-101.5,65.413],[-101.517,65.553],[-101.484,65.677],[-101.401,65.715],[-101.182,65.706],[-101.104,65.677],[-101.021,65.595],[-101.008,65.516],[-101.017,65.413],[-101.037,65.334],[-101.091,65.252],[-101.161,65.165]]]}},{"type":"Feature","properties":{"density":2},"geometry":{"type":"Polygon","coordinates":[[[-128.972,67.87],[-129.018,67.907],[-129.229,67.924],[-129.535,67.882],[-129.729,67.725],[-129.766,67.634],[-129.729,67.551],[-129.617,67.527],[-129.452,67.568],[-129.258,67.676],[-129.113,67.738],[-129.014,67.758],[-128.981,67.808],[-128.972,67.87]]]}},{"type":"Feature","properties":{"density":2},"geometry":{"type":"Polygon","coordinates":[[[-127.087,65.243],[-127.425,65.335],[-127.731,65.359],[-127.847,65.34],[-127.917,65.258],[-127.902,65.157],[-127.818,65.087],[-127.668,65.001],[-127.189,64.81],[-127.07,64.797],[-126.913,64.827],[-126.814,64.879],[-126.8,64.948],[-126.891,65.1],[-127.012,65.199],[-127.087,65.243]]]}},{"type":"Feature","properties":{"density":2},"geometry":{"type":"Polygon","coordinates":[[[-125.02,63.921],[-124.884,63.914],[-124.735,63.834],[-124.635,63.728],[-124.623,63.518],[-124.663,63.366],[-124.663,63.273],[-124.626,63.124],[-124.477,62.994],[-124.375,62.938],[-124.124,62.882],[-123.687,63.02],[-123.233,63.249],[-122.957,63.593],[-122.932,63.943],[-123.125,64.348],[-123.45,64.681],[-124.136,65.04],[-124.865,65.712],[-125.156,65.774],[-125.392,65.706],[-125.603,65.619],[-125.795,65.495],[-125.931,65.297],[-126.031,64.789],[-126.003,64.435],[-125.9,64.193],[-125.779,63.961],[-125.473,63.868],[-125.107,63.896],[-125.02,63.921]]]}},{"type":"Feature","properties":{"density":2},"geometry":{"type":"Polygon","coordinates":[[[-125.595,65.985],[-125.678,65.886],[-125.843,65.861],[-125.959,65.927],[-126.037,66.039],[-126.05,66.212],[-125.996,66.332],[-125.855,66.44],[-125.703,66.514],[-125.541,66.568],[-125.351,66.601],[-125.211,66.605],[-125.103,66.539],[-125.116,66.402],[-125.219,66.32],[-125.351,66.262],[-125.454,66.196],[-125.541,66.109],[-125.595,65.985]]]}},{"type":"Feature","properties":{"density":2},"geometry":{"type":"Polygon","coordinates":[[[-122.257,62.425],[-122.392,62.347],[-122.494,62.237],[-122.53,62.163],[-122.549,62.036],[-122.53,61.975],[-122.474,61.898],[-122.276,61.78],[-122.144,61.73],[-122.102,61.772],[-122.102,61.989],[-121.995,62.152],[-121.967,62.273],[-121.987,62.389],[-122.069,62.425],[-122.188,62.438],[-122.257,62.425]]]}},{"type":"Feature","properties":{"density":2},"geometry":{"type":"Polygon","coordinates":[[[-121.414,66.301],[-121.55,66.292],[-121.827,66.201],[-121.918,66.143],[-121.943,66.007],[-121.93,65.871],[-121.815,65.751],[-121.484,65.581],[-121.348,65.313],[-121.236,65.238],[-121.071,65.218],[-120.967,65.259],[-120.789,65.573],[-120.69,65.854],[-120.686,65.978],[-120.773,66.081],[-120.93,66.185],[-121.116,66.247],[-121.302,66.288],[-121.414,66.301]]]}},{"type":"Feature","properties":{"density":2},"geometry":{"type":"Polygon","coordinates":[[[-119.306,66.696],[-119.5,66.651],[-119.612,66.589],[-119.686,66.481],[-119.802,66.205],[-119.897,66.089],[-119.996,66.031],[-120.153,65.89],[-120.178,65.771],[-120.124,65.638],[-119.976,65.556],[-119.571,65.489],[-119.343,65.411],[-118.897,65.436],[-118.814,65.514],[-118.765,65.638],[-118.649,65.754],[-118.376,65.866],[-118.231,65.895],[-118.082,65.911],[-117.963,65.82],[-117.826,65.762],[-117.578,65.597],[-117.458,65.584],[-117.173,65.646],[-116.991,65.638],[-116.76,65.742],[-116.739,65.828],[-116.776,65.965],[-116.892,66.043],[-117.045,66.076],[-117.4,66.105],[-117.599,66.225],[-117.876,66.444],[-118.033,66.548],[-118.186,66.626],[-118.347,66.659],[-118.512,66.663],[-118.727,66.61],[-119.174,66.667],[-119.306,66.696]]]}},{"type":"Feature","properties":{"density":2},"geometry":{"type":"Polygon","coordinates":[[[-115.536,65.041],[-115.652,65.088],[-115.715,65.068],[-115.773,65.0],[-115.779,64.939],[-115.732,64.87],[-115.69,64.815],[-115.572,64.721],[-115.352,64.655],[-115.236,64.639],[-115.123,64.641],[-115.048,64.702],[-115.062,64.787],[-115.115,64.84],[-115.478,65.005],[-115.536,65.041]]]}},{"type":"Feature","properties":{"density":2},"geometry":{"type":"Polygon","coordinates":[[[-117.061,65.399],[-117.284,65.292],[-117.333,65.19],[-117.339,65.132],[-117.309,65.071],[-117.248,65.041],[-117.118,65.025],[-116.854,65.096],[-116.711,65.113],[-116.41,65.096],[-116.358,65.151],[-116.363,65.237],[-116.418,65.328],[-116.666,65.432],[-116.909,65.457],[-117.0,65.43],[-117.061,65.399]]]}},{"type":"Feature","properties":{"density":2},"geometry":{"type":"Polygon","coordinates":[[[-127.164,64.665],[-127.405,64.907],[-127.726,65.088],[-127.977,65.158],[-128.452,65.242],[-129.01,65.298],[-129.414,65.312],[-129.833,65.354],[-130.642,65.521],[-130.963,65.633],[-131.479,65.87],[-131.563,66.177],[-131.549,66.497],[-131.102,66.776],[-130.158,67.0],[-129.665,67.279],[-129.331,67.683],[-129.163,68.172],[-128.954,68.562],[-128.522,68.925],[-127.936,69.148],[-126.252,69.446],[-124.578,69.511],[-123.871,69.464],[-122.788,69.12],[-122.253,68.888],[-121.839,68.73],[-121.323,68.464],[-120.695,68.185],[-119.816,67.627],[-118.24,66.818],[-117.515,66.386],[-117.124,66.065],[-116.97,65.66],[-117.096,65.242],[-117.584,64.893],[-118.282,64.865],[-119.244,64.935],[-120.918,64.837],[-122.346,64.712],[-122.811,64.656],[-123.397,64.563],[-123.89,64.396],[-124.262,64.014],[-124.597,63.8],[-125.155,63.735],[-126.01,63.805],[-126.61,64.21],[-126.931,64.405],[-127.164,64.665]]]}},{"type":"Feature","properties":{"density":2},"geometry":{"type":"Polygon","coordinates":[[[-117.777,65.342],[-117.939,65.334],[-118.031,65.288],[-118.046,65.203],[-118.027,65.165],[-117.974,65.123],[-117.796,65.075],[-117.696,65.069],[-117.64,65.088],[-117.59,65.163],[-117.592,65.295],[-117.647,65.345],[-117.739,65.35],[-117.777,65.342]]]}},{"type":"Feature","properties":{"density":2},"geometry":{"type":"Polygon","coordinates":[[[-102.989,57.801],[-102.953,57.658],[-102.773,57.415],[-102.592,57.313],[-102.394,57.341],[-102.326,57.384],[-102.246,57.496],[-102.072,57.645],[-101.706,57.7],[-101.477,57.812],[-101.235,58.079],[-101.142,58.228],[-101.142,58.37],[-101.185,58.494],[-101.297,58.606],[-101.514,58.693],[-101.75,58.761],[-102.053,58.748],[-102.388,58.668],[-102.574,58.606],[-102.698,58.538],[-102.866,58.401],[-102.977,58.24],[-103.021,57.949],[-102.989,57.801]]]}},{"type":"Feature","properties":{"density":2},"geometry":{"type":"Polygon","coordinates":[[[-103.883,59.73],[-103.978,59.755],[-104.143,59.718],[-104.329,59.647],[-104.408,59.54],[-104.47,59.412],[-104.491,59.271],[-104.466,59.098],[-104.466,58.903],[-104.503,58.647],[-104.486,58.527],[-104.416,58.478],[-104.226,58.436],[-104.028,58.449],[-103.746,58.54],[-103.618,58.651],[-103.465,58.75],[-103.341,58.874],[-103.279,59.011],[-103.279,59.172],[-103.387,59.366],[-103.507,59.515],[-103.614,59.627],[-103.755,59.701],[-103.883,59.73]]]}},{"type":"Feature","properties":{"density":2},"geometry":{"type":"Polygon","coordinates":[[[-102.626,60.288],[-102.767,60.329],[-102.969,60.284],[-103.102,60.189],[-103.164,60.019],[-103.176,59.85],[-103.143,59.676],[-103.056,59.516],[-103.004,59.381],[-102.891,59.324],[-102.709,59.348],[-102.557,59.492],[-102.469,59.607],[-102.398,59.872],[-102.45,60.092],[-102.489,60.181],[-102.546,60.238],[-102.626,60.288]]]}},{"type":"Feature","properties":{"density":2},"geometry":{"type":"Polygon","coordinates":[[[-98.919,59.298],[-99.008,59.314],[-99.045,59.299],[-99.092,59.254],[-99.1,59.166],[-98.981,59.015],[-98.728,58.88],[-98.651,58.888],[-98.607,58.921],[-98.609,59.001],[-98.64,59.07],[-98.863,59.276],[-98.919,59.298]]]}},{"type":"Feature","properties":{"density":2},"geometry":{"type":"Polygon","coordinates":[[[-106.508,58.953],[-106.562,58.961],[-106.645,58.932],[-106.686,58.878],[-106.74,58.734],[-106.765,58.502],[-106.752,58.39],[-106.661,58.341],[-106.517,58.366],[-106.393,58.448],[-106.302,58.56],[-106.281,58.672],[-106.293,58.791],[-106.335,58.891],[-106.422,58.94],[-106.508,58.953]]]}},{"type":"Feature","properties":{"density":2},"geometry":{"type":"Polygon","coordinates":[[[-102.08,56.594],[-102.322,56.458],[-102.452,56.309],[-102.588,56.067],[-102.644,55.869],[-102.675,55.621],[-102.594,55.323],[-102.303,55.106],[-101.987,55.007],[-101.677,55.019],[-101.218,55.323],[-100.567,55.571],[-100.257,55.763],[-100.158,55.993],[-100.269,56.222],[-100.461,56.452],[-100.778,56.582],[-101.032,56.644],[-101.565,56.675],[-101.863,56.656],[-102.08,56.594]]]}},{"type":"Feature","properties":{"density":2},"geometry":{"type":"Polygon","coordinates":[[[-97.786,56.716],[-97.676,56.819],[-97.599,56.847],[-97.47,56.861],[-97.376,56.833],[-97.255,56.781],[-97.169,56.712],[-97.117,56.637],[-97.128,56.464],[-97.2,56.387],[-97.269,56.353],[-97.326,56.367],[-97.497,56.494],[-97.607,56.632],[-97.665,56.648],[-97.773,56.645],[-97.791,56.668],[-97.786,56.716]]]}},{"type":"Feature","properties":{"density":2},"geometry":{"type":"Polygon","coordinates":[[[-102.643,63.929],[-102.775,63.889],[-102.834,63.825],[-102.846,63.772],[-102.823,63.664],[-102.758,63.531],[-102.71,63.481],[-102.663,63.463],[-102.608,63.467],[-102.575,63.516],[-102.487,63.742],[-102.487,63.808],[-102.507,63.864],[-102.547,63.905],[-102.595,63.917],[-102.643,63.929]]]}},{"type":"Feature","properties":{"density":2},"geometry":{"type":"Polygon","coordinates":[[[-71.094,55.246],[-71.277,55.212],[-71.301,55.174],[-71.301,55.129],[-71.274,55.065],[-70.988,54.891],[-70.833,54.779],[-70.576,54.54],[-70.376,54.422],[-70.305,54.327],[-70.09,54.104],[-70.012,54.05],[-69.867,53.986],[-69.642,53.966],[-69.471,54.005],[-69.315,54.065],[-69.222,54.219],[-69.181,54.331],[-69.169,54.442],[-69.197,54.624],[-69.334,54.786],[-69.813,55.021],[-70.057,55.116],[-70.4,55.191],[-70.95,55.264],[-71.094,55.246]]]}},{"type":"Feature","properties":{"density":2},"geometry":{"type":"Polygon","coordinates":[[[-72.098,53.568],[-72.186,53.513],[-72.225,53.461],[-72.242,53.4],[-72.181,53.312],[-71.746,53.061],[-71.646,52.978],[-71.489,52.926],[-71.329,52.934],[-71.252,52.976],[-71.227,53.053],[-71.261,53.193],[-71.374,53.389],[-71.453,53.461],[-71.569,53.54],[-71.737,53.568],[-72.016,53.582],[-72.098,53.568]]]}},{"type":"Feature","properties":{"density":2},"geometry":{"type":"Polygon","coordinates":[[[-76.213,52.48],[-76.188,52.356],[-76.114,52.25],[-76.102,52.101],[-76.12,51.934],[-76.312,51.785],[-76.672,51.705],[-77.23,51.705],[-77.831,51.742],[-78.114,51.74],[-78.589,51.814],[-78.878,51.901],[-79.122,52.07],[-79.597,52.356],[-79.927,52.622],[-80.2,52.796],[-80.429,53.025],[-80.516,53.41],[-80.541,53.676],[-80.417,53.918],[-80.15,54.16],[-79.933,54.278],[-79.75,54.464],[-79.383,55.476],[-79.205,55.642],[-78.796,55.749],[-78.312,55.745],[-77.695,55.635],[-77.199,55.437],[-76.678,55.158],[-76.337,54.947],[-75.606,54.377],[-74.137,54.083],[-73.534,54.174],[-73.12,54.311],[-72.735,54.461],[-72.344,54.433],[-72.167,54.33],[-72.074,54.2],[-71.991,53.949],[-72.009,53.8],[-72.233,53.53],[-72.716,53.354],[-73.786,53.261],[-74.595,53.242],[-75.441,53.196],[-75.813,53.196],[-75.943,53.149],[-76.096,53.046],[-76.212,52.827],[-76.241,52.6],[-76.213,52.48]]]}},{"type":"Feature","properties":{"density":2},"geometry":{"type":"Polygon","coordinates":[[[-119.289,40.416],[-119.283,40.46],[-119.198,40.592],[-119.107,40.686],[-119.032,40.736],[-118.853,40.771],[-118.784,40.755],[-118.71,40.686],[-118.707,40.614],[-118.737,40.548],[-118.872,40.465],[-119.162,40.35],[-119.236,40.339],[-119.278,40.372],[-119.289,40.416]]]}},{"type":"Feature","properties":{"density":3},"geometry":{"type":"Polygon","coordinates":[[[-71.574,18.231],[-71.605,18.246],[-71.756,18.254],[-71.832,18.214],[-71.793,18.18],[-71.651,18.18],[-71.605,18.189],[-71.573,18.217],[-71.574,18.231]]]}},{"type":"Feature","properties":{"density":3},"geometry":{"type":"Polygon","coordinates":[[[-75.785,53.969],[-75.883,53.917],[-75.919,53.862],[-75.897,53.826],[-75.844,53.798],[-75.693,53.787],[-75.492,53.844],[-75.081,53.928],[-75.04,53.947],[-75.023,53.98],[-75.031,54.013],[-75.078,54.041],[-75.144,54.068],[-75.215,54.072],[-75.53,54.055],[-75.716,54.004],[-75.785,53.969]]]}},{"type":"Feature","properties":{"density":3},"geometry":{"type":"Polygon","coordinates":[[[-73.57,53.877],[-73.711,53.838],[-73.73,53.804],[-73.725,53.778],[-73.703,53.759],[-73.622,53.753],[-73.116,53.827],[-72.954,53.825],[-72.897,53.834],[-72.864,53.856],[-72.868,53.891],[-72.903,53.924],[-72.959,53.94],[-73.217,53.929],[-73.519,53.888],[-73.57,53.877]]]}},{"type":"Feature","properties":{"density":3},"geometry":{"type":"Polygon","coordinates":[[[-78.519,53.577],[-78.741,53.571],[-78.872,53.519],[-78.907,53.482],[-78.907,53.462],[-78.853,53.436],[-78.701,53.421],[-78.251,53.448],[-78.309,53.49],[-78.485,53.567],[-78.519,53.577]]]}},{"type":"Feature","properties":{"density":3},"geometry":{"type":"Polygon","coordinates":[[[-97.677,59.245],[-97.759,59.241],[-97.776,59.22],[-97.774,59.192],[-97.638,59.127],[-97.58,59.081],[-97.549,59.082],[-97.656,59.236],[-97.677,59.245]]]}},{"type":"Feature","properties":{"density":3},"geometry":{"type":"Polygon","coordinates":[[[-97.641,59.42],[-97.687,59.428],[-97.704,59.408],[-97.709,59.367],[-97.692,59.325],[-97.557,59.247],[-97.513,59.238],[-97.508,59.252],[-97.617,59.408],[-97.641,59.42]]]}},{"type":"Feature","properties":{"density":3},"geometry":{"type":"Polygon","coordinates":[[[-101.901,55.305],[-101.912,55.226],[-101.956,55.184],[-102.013,55.182],[-102.068,55.21],[-102.156,55.357],[-102.16,55.656],[-102.123,55.746],[-101.952,55.895],[-101.772,55.915],[-101.719,55.901],[-101.653,55.844],[-101.629,55.783],[-101.636,55.667],[-101.844,55.491],[-101.897,55.333],[-101.901,55.305]]]}},{"type":"Feature","properties":{"density":3},"geometry":{"type":"Polygon","coordinates":[[[-100.497,57.937],[-100.481,57.961],[-100.497,57.979],[-100.586,58.033],[-100.687,58.058],[-100.71,58.036],[-100.704,58.008],[-100.517,57.944],[-100.497,57.937]]]}},{"type":"Feature","properties":{"density":3},"geometry":{"type":"Polygon","coordinates":[[[-102.004,58.199],[-102.049,58.215],[-102.057,58.182],[-102.002,58.13],[-101.921,58.099],[-101.928,58.131],[-101.982,58.179],[-102.004,58.199]]]}},{"type":"Feature","properties":{"density":3},"geometry":{"type":"Polygon","coordinates":[[[-102.85,58.412],[-102.875,58.391],[-102.867,58.354],[-102.725,58.25],[-102.681,58.257],[-102.694,58.301],[-102.729,58.342],[-102.84,58.412],[-102.85,58.412]]]}},{"type":"Feature","properties":{"density":3},"geometry":{"type":"Polygon","coordinates":[[[-102.941,59.504],[-103.0,59.518],[-103.017,59.489],[-102.884,59.364],[-102.872,59.385],[-102.929,59.494],[-102.941,59.504]]]}},{"type":"Feature","properties":{"density":3},"geometry":{"type":"Polygon","coordinates":[[[-103.774,59.05],[-103.81,59.039],[-103.8,59.012],[-103.723,58.953],[-103.685,58.944],[-103.685,58.962],[-103.763,59.042],[-103.774,59.05]]]}},{"type":"Feature","properties":{"density":3},"geometry":{"type":"Polygon","coordinates":[[[-103.871,58.901],[-103.91,58.889],[-103.905,58.849],[-103.823,58.768],[-103.781,58.747],[-103.783,58.775],[-103.859,58.893],[-103.871,58.901]]]}},{"type":"Feature","properties":{"density":3},"geometry":{"type":"Polygon","coordinates":[[[-106.683,58.487],[-106.735,58.559],[-106.756,58.573],[-106.777,58.563],[-106.779,58.522],[-106.737,58.456],[-106.682,58.404],[-106.652,58.396],[-106.641,58.422],[-106.672,58.468],[-106.683,58.487]]]}},{"type":"Feature","properties":{"density":3},"geometry":{"type":"Polygon","coordinates":[[[-117.663,65.835],[-117.874,65.927],[-117.9,65.927],[-117.912,65.905],[-117.901,65.872],[-117.637,65.716],[-117.582,65.627],[-117.563,65.618],[-117.49,65.632],[-117.464,65.69],[-117.472,65.733],[-117.506,65.771],[-117.626,65.823],[-117.663,65.835]]]}},{"type":"Feature","properties":{"density":3},"geometry":{"type":"Polygon","coordinates":[[[-114.609,59.704],[-114.634,59.71],[-114.676,59.683],[-114.75,59.467],[-114.741,59.441],[-114.699,59.441],[-114.681,59.459],[-114.599,59.587],[-114.569,59.646],[-114.593,59.692],[-114.609,59.704]]]}},{"type":"Feature","properties":{"density":3},"geometry":{"type":"Polygon","coordinates":[[[-125.464,64.26],[-125.581,64.295],[-125.626,64.258],[-125.616,64.207],[-125.49,64.087],[-125.383,64.064],[-125.306,64.06],[-125.277,64.075],[-125.263,64.137],[-125.411,64.245],[-125.464,64.26]]]}},{"type":"Feature","properties":{"density":3},"geometry":{"type":"Polygon","coordinates":[[[-127.052,65.067],[-127.162,65.09],[-127.382,65.184],[-127.459,65.157],[-127.463,65.109],[-127.432,65.061],[-127.36,65.013],[-127.083,64.853],[-126.959,64.841],[-126.836,64.953],[-126.836,64.988],[-126.864,65.026],[-126.928,65.059],[-127.0,65.07],[-127.052,65.067]]]}},{"type":"Feature","properties":{"density":3},"geometry":{"type":"Polygon","coordinates":[[[-125.719,65.967],[-125.802,65.987],[-125.826,66.009],[-125.834,66.034],[-125.816,66.071],[-125.753,66.071],[-125.711,65.976],[-125.719,65.967]]]}},{"type":"Feature","properties":{"density":3},"geometry":{"type":"Polygon","coordinates":[[[-71.716,18.443],[-71.759,18.446],[-71.761,18.383],[-71.646,18.196],[-71.625,18.178],[-71.583,18.183],[-71.566,18.23],[-71.586,18.285],[-71.692,18.41],[-71.716,18.443]]]}},{"type":"Feature","properties":{"density":3},"geometry":{"type":"Polygon","coordinates":[[[-78.577,53.604],[-78.844,53.601],[-79.029,53.57],[-79.073,53.537],[-79.101,53.482],[-79.087,53.427],[-78.905,53.394],[-78.693,53.391],[-78.387,53.449],[-78.351,53.482],[-78.337,53.526],[-78.348,53.559],[-78.464,53.59],[-78.577,53.604]]]}},{"type":"Feature","properties":{"density":3},"geometry":{"type":"Polygon","coordinates":[[[-78.088,52.865],[-78.202,52.862],[-78.233,52.84],[-78.24,52.807],[-78.187,52.759],[-78.002,52.735],[-77.978,52.753],[-77.978,52.779],[-78.02,52.84],[-78.053,52.856],[-78.088,52.865]]]}},{"type":"Feature","properties":{"density":3},"geometry":{"type":"Polygon","coordinates":[[[-76.083,54.066],[-76.391,53.98],[-76.449,53.928],[-76.471,53.862],[-76.419,53.807],[-76.3,53.779],[-75.893,53.782],[-75.537,53.815],[-75.044,53.9],[-74.98,53.922],[-74.964,53.969],[-74.991,54.019],[-75.069,54.066],[-75.482,54.101],[-75.981,54.085],[-76.083,54.066]]]}},{"type":"Feature","properties":{"density":3},"geometry":{"type":"Polygon","coordinates":[[[-72.627,54.346],[-72.697,54.364],[-72.748,54.359],[-72.812,54.322],[-72.814,54.293],[-72.768,54.214],[-72.791,54.096],[-72.761,54.066],[-72.607,54.092],[-72.535,54.128],[-72.508,54.201],[-72.517,54.246],[-72.571,54.314],[-72.627,54.346]]]}},{"type":"Feature","properties":{"density":3},"geometry":{"type":"Polygon","coordinates":[[[-73.864,53.873],[-74.073,53.831],[-74.132,53.797],[-74.152,53.75],[-74.112,53.707],[-73.875,53.713],[-73.696,53.761],[-73.652,53.792],[-73.639,53.82],[-73.718,53.867],[-73.814,53.875],[-73.864,53.873]]]}},{"type":"Feature","properties":{"density":3},"geometry":{"type":"Polygon","coordinates":[[[-77.899,55.089],[-78.089,55.113],[-78.149,55.105],[-78.199,55.062],[-78.162,55.005],[-77.977,54.942],[-77.222,54.878],[-77.149,54.879],[-77.1,54.911],[-77.097,54.951],[-77.118,55.0],[-77.269,55.056],[-77.437,55.079],[-77.841,55.083],[-77.899,55.089]]]}},{"type":"Feature","properties":{"density":3},"geometry":{"type":"Polygon","coordinates":[[[-102.39,57.526],[-102.244,57.7],[-102.118,57.727],[-101.997,57.78],[-101.94,57.833],[-101.933,57.883],[-101.96,57.931],[-102.002,57.953],[-102.07,57.949],[-102.149,57.925],[-102.274,57.853],[-102.335,57.793],[-102.407,57.675],[-102.478,57.495],[-102.46,57.471],[-102.41,57.504],[-102.39,57.526]]]}},{"type":"Feature","properties":{"density":3},"geometry":{"type":"Polygon","coordinates":[[[-101.826,58.352],[-101.883,58.322],[-101.898,58.289],[-101.912,58.199],[-101.956,58.108],[-101.93,58.092],[-101.746,58.226],[-101.729,58.256],[-101.73,58.322],[-101.793,58.354],[-101.826,58.352]]]}},{"type":"Feature","properties":{"density":3},"geometry":{"type":"Polygon","coordinates":[[[-102.139,58.381],[-102.17,58.384],[-102.217,58.354],[-102.258,58.207],[-102.25,58.19],[-102.227,58.179],[-102.19,58.196],[-102.113,58.266],[-102.093,58.326],[-102.111,58.371],[-102.139,58.381]]]}},{"type":"Feature","properties":{"density":3},"geometry":{"type":"Polygon","coordinates":[[[-103.794,58.746],[-103.836,58.819],[-103.858,58.924],[-103.837,58.967],[-103.797,58.981],[-103.654,58.884],[-103.68,58.818],[-103.771,58.735],[-103.794,58.746]]]}},{"type":"Feature","properties":{"density":3},"geometry":{"type":"Polygon","coordinates":[[[-102.863,59.552],[-102.917,59.605],[-102.951,59.609],[-102.957,59.565],[-102.903,59.445],[-102.898,59.368],[-102.867,59.371],[-102.844,59.411],[-102.854,59.534],[-102.863,59.552]]]}},{"type":"Feature","properties":{"density":3},"geometry":{"type":"Polygon","coordinates":[[[-106.666,58.809],[-106.688,58.776],[-106.695,58.707],[-106.654,58.57],[-106.67,58.521],[-106.742,58.421],[-106.732,58.389],[-106.704,58.381],[-106.639,58.394],[-106.588,58.432],[-106.552,58.477],[-106.523,58.595],[-106.528,58.685],[-106.567,58.753],[-106.594,58.798],[-106.654,58.815],[-106.666,58.809]]]}},{"type":"Feature","properties":{"density":3},"geometry":{"type":"Polygon","coordinates":[[[-101.775,55.721],[-101.858,55.723],[-101.918,55.69],[-101.975,55.589],[-102.01,55.451],[-102.069,55.328],[-102.078,55.264],[-102.047,55.234],[-101.994,55.234],[-101.881,55.309],[-101.733,55.587],[-101.72,55.644],[-101.744,55.688],[-101.775,55.721]]]}},{"type":"Feature","properties":{"density":3},"geometry":{"type":"Polygon","coordinates":[[[-117.459,65.663],[-117.436,65.765],[-117.445,65.804],[-117.528,65.894],[-117.574,65.905],[-117.618,65.89],[-117.631,65.859],[-117.622,65.824],[-117.535,65.738],[-117.519,65.664],[-117.493,65.64],[-117.463,65.651],[-117.459,65.663]]]}},{"type":"Feature","properties":{"density":3},"geometry":{"type":"Polygon","coordinates":[[[-119.001,65.726],[-119.071,65.891],[-119.057,65.96],[-118.98,65.989],[-118.874,65.984],[-118.826,65.971],[-118.746,65.905],[-118.734,65.852],[-118.745,65.805],[-118.837,65.726],[-118.919,65.613],[-118.978,65.624],[-118.991,65.683],[-119.001,65.726]]]}},{"type":"Feature","properties":{"density":3},"geometry":{"type":"Polygon","coordinates":[[[-121.098,65.378],[-121.195,65.45],[-121.217,65.456],[-121.236,65.437],[-121.238,65.408],[-121.167,65.337],[-121.135,65.259],[-121.107,65.253],[-121.093,65.274],[-121.086,65.35],[-121.098,65.378]]]}},{"type":"Feature","properties":{"density":3},"geometry":{"type":"Polygon","coordinates":[[[-125.609,64.459],[-125.459,64.451],[-125.403,64.425],[-125.286,64.319],[-125.256,64.223],[-125.256,64.163],[-125.258,64.117],[-125.293,64.078],[-125.335,64.075],[-125.392,64.108],[-125.503,64.218],[-125.628,64.249],[-125.67,64.282],[-125.703,64.376],[-125.686,64.424],[-125.646,64.448],[-125.609,64.459]]]}},{"type":"Feature","properties":{"density":3},"geometry":{"type":"Polygon","coordinates":[[[-126.707,66.561],[-126.789,66.562],[-126.795,66.548],[-126.771,66.516],[-126.711,66.49],[-126.545,66.47],[-126.413,66.426],[-126.404,66.456],[-126.415,66.48],[-126.462,66.516],[-126.677,66.554],[-126.707,66.561]]]}},{"type":"Feature","properties":{"density":3},"geometry":{"type":"Polygon","coordinates":[[[-126.842,66.453],[-126.882,66.453],[-126.896,66.437],[-126.857,66.392],[-126.751,66.361],[-126.71,66.388],[-126.711,66.41],[-126.812,66.453],[-126.842,66.453]]]}},{"type":"Feature","properties":{"density":3},"geometry":{"type":"Polygon","coordinates":[[[-125.742,65.97],[-125.712,65.98],[-125.712,66.008],[-125.774,66.121],[-125.816,66.15],[-125.869,66.15],[-125.896,66.106],[-125.89,66.08],[-125.775,65.995],[-125.742,65.97]]]}},{"type":"Feature","properties":{"density":3},"geometry":{"type":"Polygon","coordinates":[[[-114.119,37.437],[-114.213,37.359],[-114.242,37.356],[-114.264,37.376],[-114.227,37.477],[-114.145,37.563],[-114.08,37.576],[-114.066,37.552],[-114.08,37.483],[-114.119,37.437]]]}},{"type":"Feature","properties":{"density":3},"geometry":{"type":"Polygon","coordinates":[[[-112.509,38.347],[-112.436,38.407],[-112.373,38.432],[-112.234,38.447],[-112.23,38.425],[-112.402,38.32],[-112.525,38.307],[-112.528,38.329],[-112.509,38.347]]]}},{"type":"Feature","properties":{"density":3},"geometry":{"type":"Polygon","coordinates":[[[-124.409,64.262],[-124.488,64.27],[-124.525,64.22],[-124.529,64.113],[-124.463,64.038],[-124.318,63.931],[-124.157,63.852],[-123.934,63.658],[-123.826,63.588],[-123.777,63.58],[-123.715,63.629],[-123.735,63.741],[-123.814,63.865],[-123.913,63.981],[-124.074,64.109],[-124.335,64.241],[-124.409,64.262]]]}},{"type":"Feature","properties":{"density":3},"geometry":{"type":"Polygon","coordinates":[[[-124.099,63.005],[-124.025,63.022],[-123.992,63.079],[-123.959,63.228],[-123.955,63.336],[-123.979,63.389],[-124.033,63.422],[-124.099,63.418],[-124.302,63.34],[-124.459,63.319],[-124.562,63.286],[-124.595,63.245],[-124.583,63.166],[-124.513,63.108],[-124.244,63.017],[-124.182,63.013],[-124.099,63.005]]]}},{"type":"Feature","properties":{"density":3},"geometry":{"type":"Polygon","coordinates":[[[-125.505,64.898],[-125.67,64.844],[-125.744,64.749],[-125.786,64.65],[-125.786,64.547],[-125.753,64.46],[-125.463,64.133],[-125.389,64.076],[-125.314,64.067],[-125.261,64.092],[-125.232,64.158],[-125.182,64.406],[-125.145,64.737],[-125.153,64.803],[-125.19,64.865],[-125.302,64.915],[-125.397,64.915],[-125.505,64.898]]]}},{"type":"Feature","properties":{"density":3},"geometry":{"type":"Polygon","coordinates":[[[-121.106,65.651],[-121.185,65.715],[-121.276,65.742],[-121.319,65.74],[-121.355,65.714],[-121.375,65.654],[-121.353,65.601],[-121.195,65.439],[-121.165,65.282],[-121.118,65.237],[-121.08,65.246],[-121.047,65.419],[-121.047,65.505],[-121.083,65.609],[-121.106,65.651]]]}},{"type":"Feature","properties":{"density":3},"geometry":{"type":"Polygon","coordinates":[[[-119.304,65.538],[-119.346,65.54],[-119.39,65.566],[-119.419,65.687],[-119.414,65.766],[-119.388,65.827],[-119.3,65.937],[-119.175,65.955],[-119.12,65.922],[-119.124,65.872],[-119.249,65.713],[-119.282,65.553],[-119.304,65.538]]]}},{"type":"Feature","properties":{"density":3},"geometry":{"type":"Polygon","coordinates":[[[-118.942,65.538],[-118.958,65.483],[-119.004,65.459],[-119.114,65.536],[-119.164,65.624],[-119.157,65.716],[-119.05,65.816],[-118.988,65.85],[-118.914,65.865],[-118.793,65.825],[-118.776,65.608],[-118.81,65.516],[-118.846,65.511],[-118.922,65.549],[-118.942,65.538]]]}},{"type":"Feature","properties":{"density":3},"geometry":{"type":"Polygon","coordinates":[[[-117.7,66.116],[-117.79,66.129],[-117.803,66.107],[-117.796,66.059],[-117.609,65.848],[-117.566,65.707],[-117.518,65.628],[-117.474,65.62],[-117.361,65.694],[-117.092,65.753],[-117.01,65.793],[-116.973,65.846],[-116.989,65.911],[-117.03,65.942],[-117.399,66.001],[-117.667,66.103],[-117.7,66.116]]]}},{"type":"Feature","properties":{"density":3},"geometry":{"type":"Polygon","coordinates":[[[-115.497,64.931],[-115.58,64.942],[-115.618,64.918],[-115.641,64.853],[-115.62,64.782],[-115.571,64.725],[-115.407,64.722],[-115.277,64.701],[-115.228,64.717],[-115.21,64.758],[-115.242,64.825],[-115.431,64.892],[-115.497,64.931]]]}},{"type":"Feature","properties":{"density":3},"geometry":{"type":"Polygon","coordinates":[[[-117.184,65.105],[-117.117,65.234],[-116.987,65.306],[-116.814,65.317],[-116.757,65.293],[-116.737,65.24],[-116.746,65.199],[-116.807,65.179],[-117.004,65.166],[-117.044,65.148],[-117.128,65.067],[-117.16,65.059],[-117.187,65.091],[-117.184,65.105]]]}},{"type":"Feature","properties":{"density":3},"geometry":{"type":"Polygon","coordinates":[[[-101.814,58.399],[-101.917,58.269],[-101.963,58.1],[-101.921,58.098],[-101.759,58.2],[-101.572,58.275],[-101.572,58.374],[-101.638,58.422],[-101.686,58.436],[-101.783,58.417],[-101.814,58.399]]]}},{"type":"Feature","properties":{"density":3},"geometry":{"type":"Polygon","coordinates":[[[-106.579,58.423],[-106.729,58.366],[-106.757,58.39],[-106.755,58.48],[-106.663,58.621],[-106.615,58.647],[-106.557,58.656],[-106.479,58.608],[-106.474,58.531],[-106.544,58.452],[-106.579,58.423]]]}},{"type":"Feature","properties":{"density":3},"geometry":{"type":"Polygon","coordinates":[[[-71.099,55.199],[-71.21,55.199],[-71.272,55.162],[-71.277,55.12],[-71.082,55.001],[-70.479,54.558],[-70.132,54.252],[-69.846,54.091],[-69.603,54.025],[-69.474,54.037],[-69.309,54.124],[-69.235,54.232],[-69.218,54.356],[-69.251,54.484],[-69.33,54.666],[-69.421,54.757],[-69.702,54.934],[-70.421,55.108],[-71.012,55.199],[-71.099,55.199]]]}},{"type":"Feature","properties":{"density":3},"geometry":{"type":"Polygon","coordinates":[[[-72.69,54.402],[-72.74,54.406],[-72.826,54.356],[-72.835,54.278],[-72.777,54.141],[-72.814,54.067],[-72.905,54.009],[-73.145,53.93],[-73.508,53.872],[-74.211,53.728],[-74.314,53.691],[-74.364,53.604],[-74.302,53.538],[-74.145,53.5],[-73.98,53.48],[-73.566,53.488],[-73.207,53.513],[-72.946,53.583],[-72.657,53.699],[-72.487,53.781],[-72.334,53.881],[-72.235,53.984],[-72.223,54.129],[-72.26,54.211],[-72.384,54.306],[-72.611,54.393],[-72.69,54.402]]]}},{"type":"Feature","properties":{"density":3},"geometry":{"type":"Polygon","coordinates":[[[-79.576,53.898],[-79.986,53.787],[-80.187,53.694],[-80.234,53.582],[-80.085,53.433],[-79.899,53.34],[-79.49,53.275],[-79.136,53.247],[-78.736,53.275],[-78.569,53.303],[-78.243,53.396],[-77.974,53.443],[-77.109,53.483],[-76.672,53.554],[-76.272,53.557],[-74.914,53.886],[-74.811,54.038],[-74.886,54.131],[-75.193,54.205],[-75.565,54.245],[-76.244,54.261],[-76.56,54.289],[-76.895,54.298],[-77.509,54.28],[-78.085,54.177],[-78.541,54.121],[-79.111,54.01],[-79.347,53.948],[-79.576,53.898]]]}},{"type":"Feature","properties":{"density":3},"geometry":{"type":"Polygon","coordinates":[[[-77.713,55.451],[-77.961,55.458],[-78.067,55.433],[-78.234,55.309],[-78.296,55.154],[-78.277,55.03],[-78.067,54.869],[-77.794,54.769],[-77.595,54.726],[-77.068,54.676],[-76.839,54.639],[-76.61,54.652],[-76.455,54.683],[-76.331,54.738],[-76.424,54.862],[-76.641,54.955],[-76.92,55.036],[-77.118,55.123],[-77.614,55.396],[-77.713,55.451]]]}},{"type":"Feature","properties":{"density":3},"geometry":{"type":"Polygon","coordinates":[[[-78.211,52.929],[-78.29,52.929],[-78.373,52.882],[-78.398,52.821],[-78.392,52.775],[-78.211,52.725],[-78.062,52.717],[-77.99,52.735],[-77.963,52.777],[-77.979,52.816],[-78.031,52.86],[-78.142,52.904],[-78.211,52.929]]]}},{"type":"Feature","properties":{"density":3},"geometry":{"type":"Polygon","coordinates":[[[-71.779,53.44],[-71.832,53.449],[-71.895,53.425],[-71.904,53.335],[-71.864,53.285],[-71.797,53.232],[-71.656,53.16],[-71.588,53.142],[-71.472,53.162],[-71.527,53.282],[-71.632,53.381],[-71.695,53.412],[-71.779,53.44]]]}}]}