{"type":"FeatureCollection","features":[{"type":"Feature","properties":{"density":1},"geometry":{"type":"Polygon","coordinates":[[[-81.764,29.568],[-81.73,29.503],[-81.578,29.415],[-81.498,29.389],[-81.398,29.388],[-81.293,29.428],[-81.195,29.518],[-81.126,29.634],[-81.111,29.74],[-81.122,29.868],[-81.159,29.927],[-81.206,29.957],[-81.306,29.96],[-81.401,29.927],[-81.633,29.736],[-81.758,29.596],[-81.764,29.568]]]}},{"type":"Feature","properties":{"density":1},"geometry":{"type":"Polygon","coordinates":[[[-78.429,33.922],[-78.421,33.904],[-78.213,33.867],[-77.891,33.875],[-77.727,33.919],[-77.704,33.964],[-77.756,34.016],[-77.898,34.017],[-78.412,33.95],[-78.431,33.941],[-78.429,33.922]]]}},{"type":"Feature","properties":{"density":1},"geometry":{"type":"Polygon","coordinates":[[[-78.335,34.508],[-77.989,34.471],[-77.875,34.487],[-77.842,34.502],[-77.829,34.531],[-77.848,34.56],[-77.919,34.564],[-78.316,34.537],[-78.335,34.53],[-78.335,34.508]]]}},{"type":"Feature","properties":{"density":1},"geometry":{"type":"Polygon","coordinates":[[[-109.868,38.18],[-109.577,38.388],[-109.286,38.447],[-108.953,38.489],[-108.774,38.542],[-108.578,38.643],[-108.305,38.834],[-108.025,38.875],[-107.371,38.792],[-107.103,38.703],[-106.765,38.637],[-104.997,38.339],[-104.368,38.218],[-103.699,38.191],[-103.071,38.312],[-102.642,38.218],[-102.335,38.098],[-102.081,37.87],[-101.867,37.589],[-101.759,37.255],[-101.746,36.599],[-101.907,36.038],[-102.134,35.543],[-102.495,35.262],[-103.151,35.155],[-103.673,35.302],[-104.194,35.489],[-104.689,35.556],[-105.184,35.489],[-105.934,35.476],[-106.616,35.409],[-107.245,35.262],[-107.807,35.208],[-108.235,35.221],[-108.783,35.422],[-109.158,35.609],[-109.439,35.917],[-109.532,36.238],[-109.706,36.613],[-110.041,37.429],[-109.987,37.87],[-109.868,38.18]]]}},{"type":"Feature","properties":{"density":1},"geometry":{"type":"Polygon","coordinates":[[[-133.285,58.986],[-128.104,59.697],[-123.837,60.713],[-117.538,60.611],[-114.287,59.291],[-111.442,57.868],[-109.207,55.554],[-107.717,54.29],[-105.369,52.213],[-103.834,51.31],[-102.163,50.046],[-101.306,49.052],[-100.854,48.059],[-100.357,46.343],[-100.312,44.944],[-100.764,43.544],[-101.667,42.28],[-104.376,41.015],[-106.001,40.609],[-107.446,40.293],[-108.801,40.022],[-109.568,39.751],[-110.607,39.254],[-111.375,38.396],[-112.368,36.455],[-112.368,34.829],[-111.736,32.978],[-109.298,31.127],[-106.995,30.405],[-103.789,29.863],[-102.434,29.095],[-99.274,26.973],[-98.371,25.844],[-98.055,24.896],[-97.829,23.18],[-97.874,21.826],[-98.777,20.922],[-100.719,20.652],[-102.75,21.148],[-103.924,21.871],[-104.827,22.638],[-106.047,23.541],[-107.04,23.903],[-108.304,24.083],[-110.201,23.586],[-110.923,22.864],[-111.194,22.051],[-111.013,20.787],[-109.93,19.252],[-108.575,17.626],[-107.491,16.678],[-105.55,16.001],[-104.376,15.73],[-101.17,15.278],[-99.861,15.278],[-96.655,14.962],[-95.165,15.053],[-93.901,15.324],[-92.907,16.227],[-92.049,17.265],[-91.688,18.349],[-91.688,19.342],[-91.914,21.239],[-92.591,23.0],[-92.817,24.399],[-92.817,25.167],[-92.049,26.296],[-90.695,26.973],[-88.798,27.741],[-86.225,27.921],[-84.599,28.237],[-83.561,28.418],[-82.567,28.553],[-77.149,29.998],[-74.711,30.856],[-73.266,31.308],[-72.227,31.849],[-70.647,33.655],[-69.834,34.92],[-69.202,36.5],[-69.247,38.442],[-69.609,40.203],[-70.286,43.995],[-70.015,45.756],[-69.518,47.156],[-68.796,48.872],[-67.125,52.168],[-66.177,53.839],[-65.455,55.193],[-65.048,56.548],[-64.01,59.121],[-63.965,60.476],[-64.1,61.831],[-64.642,62.959],[-65.59,64.675],[-66.448,66.662],[-67.486,68.197],[-68.841,69.281],[-70.692,70.003],[-76.472,71.629],[-80.265,72.893],[-84.96,73.661],[-90.469,73.841],[-95.616,73.48],[-102.841,73.661],[-113.677,72.983],[-118.734,72.17],[-123.972,71.358],[-130.79,70.229],[-135.351,69.19],[-137.563,68.333],[-139.595,67.7],[-140.949,66.436],[-142.485,64.946],[-143.342,63.501],[-143.613,62.282],[-143.613,61.063],[-143.252,59.528],[-142.259,58.67],[-140.995,58.038],[-138.24,57.947],[-135.802,58.264],[-133.285,58.986]]]}},{"type":"Feature","properties":{"density":1},"geometry":{"type":"Polygon","coordinates":[[[-118.611,44.614],[-118.21,44.454],[-117.907,44.311],[-117.621,44.249],[-117.309,44.347],[-117.211,44.481],[-116.703,45.515],[-116.411,45.839],[-116.346,45.952],[-116.328,46.113],[-116.346,46.232],[-116.435,46.369],[-116.56,46.398],[-116.685,46.398],[-116.845,46.285],[-116.994,46.024],[-117.167,45.833],[-117.785,45.465],[-118.201,45.274],[-118.314,45.191],[-118.403,45.114],[-118.635,44.846],[-118.677,44.716],[-118.611,44.614]]]}},{"type":"Feature","properties":{"density":1},"geometry":{"type":"Polygon","coordinates":[[[-123.048,42.385],[-122.638,42.224],[-122.049,42.233],[-121.567,42.474],[-120.943,42.831],[-120.577,43.303],[-118.535,45.618],[-117.96,46.14],[-117.411,46.581],[-116.796,47.25],[-116.622,47.598],[-116.515,48.013],[-116.769,48.548],[-116.97,48.748],[-117.652,48.708],[-118.776,47.304],[-119.284,46.728],[-119.806,46.073],[-120.221,45.591],[-121.879,43.919],[-122.602,43.451],[-122.99,43.063],[-123.07,42.782],[-123.07,42.554],[-123.048,42.385]]]}},{"type":"Feature","properties":{"density":1},"geometry":{"type":"Polygon","coordinates":[[[-123.179,42.488],[-123.251,42.745],[-123.293,43.075],[-123.221,43.425],[-122.943,44.032],[-122.377,44.968],[-121.769,45.535],[-121.399,45.638],[-121.1,45.535],[-120.925,45.36],[-120.822,45.071],[-120.833,44.876],[-120.915,44.608],[-121.296,44.042],[-121.543,43.785],[-121.821,43.404],[-122.397,42.539],[-122.531,42.437],[-122.737,42.354],[-123.066,42.364],[-123.159,42.447],[-123.179,42.488]]]}},{"type":"Feature","properties":{"density":1},"geometry":{"type":"Polygon","coordinates":[[[-118.553,44.684],[-118.645,44.723],[-118.724,44.8],[-118.785,44.94],[-118.776,45.053],[-118.703,45.291],[-118.428,45.772],[-118.257,46.007],[-118.151,46.123],[-118.013,46.266],[-117.885,46.352],[-117.705,46.385],[-117.525,46.349],[-117.449,46.288],[-117.37,46.141],[-117.37,46.026],[-117.409,45.91],[-117.724,45.58],[-117.989,45.181],[-118.196,44.836],[-118.263,44.766],[-118.388,44.696],[-118.553,44.684]]]}},{"type":"Feature","properties":{"density":1},"geometry":{"type":"Polygon","coordinates":[[[-112.478,38.26],[-112.531,38.282],[-112.57,38.347],[-112.58,38.425],[-112.567,38.5],[-112.523,38.551],[-112.476,38.569],[-112.425,38.557],[-112.356,38.484],[-112.321,38.339],[-112.376,38.268],[-112.423,38.254],[-112.478,38.26]]]}},{"type":"Feature","properties":{"density":1},"geometry":{"type":"Polygon","coordinates":[[[-155.811,64.755],[-156.696,65.953],[-156.071,68.819],[-154.821,70.174],[-151.903,71.164],[-147.786,71.477],[-145.181,71.789],[-142.471,71.946],[-139.762,72.154],[-135.385,72.362],[-130.539,72.623],[-126.423,72.675],[-119.686,73.086],[-115.715,73.144],[-109.697,73.3],[-104.471,73.242],[-100.928,73.347],[-96.291,73.399],[-93.425,73.555],[-89.048,73.659],[-85.244,73.659],[-82.263,73.613],[-78.355,73.847],[-73.989,73.816],[-69.601,74.004],[-64.599,74.004],[-61.55,73.769],[-58.111,73.535],[-55.845,73.144],[-53.109,72.206],[-51.468,71.034],[-50.764,69.314],[-50.842,66.969],[-51.233,65.094],[-52.015,63.687],[-53.734,62.436],[-55.61,61.42],[-58.268,60.013],[-60.824,58.896],[-62.074,58.386],[-63.116,57.807],[-65.554,56.238],[-67.021,54.386],[-68.194,52.823],[-68.819,51.963],[-69.523,50.009],[-69.523,48.758],[-69.013,45.913],[-68.741,44.616],[-67.803,42.349],[-67.6,40.54],[-67.624,37.9],[-68.11,35.538],[-69.21,33.908],[-70.773,32.501],[-72.001,31.763],[-73.761,31.138],[-74.988,30.721],[-75.914,30.35],[-76.794,30.188],[-77.651,29.91],[-78.763,29.679],[-80.309,29.531],[-84.686,28.437],[-85.757,28.266],[-87.265,28.124],[-88.883,27.78],[-90.235,27.186],[-91.592,26.437],[-92.519,25.603],[-93.127,24.138],[-93.518,21.324],[-93.439,19.996],[-93.439,19.136],[-93.283,18.276],[-93.439,17.182],[-93.83,16.088],[-94.377,15.15],[-94.846,14.603],[-96.253,13.977],[-97.868,13.491],[-99.188,13.422],[-101.333,13.821],[-103.053,14.446],[-104.772,15.541],[-105.806,16.531],[-106.648,17.573],[-107.43,18.901],[-108.446,20.23],[-108.993,21.637],[-108.993,22.731],[-108.203,23.825],[-106.961,24.294],[-105.632,24.06],[-104.225,22.575],[-102.35,21.793],[-101.177,21.168],[-99.067,21.324],[-98.598,21.793],[-98.051,23.2],[-98.129,23.825],[-98.285,25.467],[-98.598,26.874],[-100.239,29.14],[-102.193,30.547],[-103.444,31.094],[-104.147,31.329],[-106.023,31.563],[-107.43,31.954],[-109.462,32.267],[-110.947,33.048],[-112.041,34.142],[-112.667,35.08],[-113.214,36.409],[-113.436,37.62],[-113.243,40.103],[-112.267,41.489],[-110.808,42.584],[-107.821,44.069],[-106.336,45.163],[-105.372,45.727],[-104.147,46.335],[-103.366,47.117],[-103.201,48.159],[-103.522,49.462],[-103.913,50.556],[-104.772,51.572],[-106.648,53.135],[-107.977,54.698],[-109.462,56.34],[-110.478,57.668],[-111.885,58.294],[-113.292,58.685],[-114.777,58.45],[-117.426,57.642],[-119.154,57.512],[-122.063,57.173],[-124.147,57.173],[-126.596,57.121],[-129.879,57.017],[-132.953,57.173],[-136.913,57.434],[-139.102,57.799],[-141.238,58.789],[-147.838,60.717],[-150.418,61.42],[-152.606,62.436],[-154.326,63.296],[-155.42,64.156],[-155.811,64.755]]]}},{"type":"Feature","properties":{"density":1},"geometry":{"type":"Polygon","coordinates":[[[-123.407,42.554],[-123.442,42.941],[-123.293,43.431],[-122.223,44.855],[-121.847,45.504],[-121.619,45.948],[-121.414,46.301],[-120.776,46.916],[-120.184,47.338],[-119.409,47.85],[-118.532,48.283],[-117.678,48.614],[-117.256,48.83],[-116.653,49.012],[-116.038,49.035],[-115.331,48.796],[-114.637,48.386],[-114.272,47.953],[-114.078,47.554],[-113.987,46.985],[-114.021,46.381],[-114.227,46.108],[-114.728,45.777],[-115.423,45.493],[-116.379,45.196],[-117.131,44.855],[-118.099,44.251],[-118.68,43.818],[-119.295,43.488],[-119.774,43.135],[-120.491,42.736],[-121.437,42.36],[-122.018,42.155],[-122.416,42.11],[-122.804,42.144],[-123.168,42.212],[-123.293,42.337],[-123.419,42.52],[-123.407,42.554]]]}},{"type":"Feature","properties":{"density":1},"geometry":{"type":"Polygon","coordinates":[[[-120.262,39.644],[-120.295,39.708],[-120.305,39.836],[-120.245,39.998],[-120.049,40.298],[-119.924,40.335],[-119.782,40.278],[-119.755,40.18],[-119.762,40.092],[-119.806,39.978],[-120.046,39.664],[-120.167,39.603],[-120.214,39.61],[-120.231,39.596],[-120.262,39.644]]]}},{"type":"Feature","properties":{"density":1},"geometry":{"type":"Polygon","coordinates":[[[-121.126,39.988],[-121.169,40.038],[-121.2,40.109],[-121.203,40.221],[-121.136,40.356],[-121.038,40.487],[-120.872,40.626],[-120.66,40.724],[-120.508,40.69],[-120.434,40.612],[-120.427,40.558],[-120.44,40.487],[-120.484,40.413],[-120.616,40.275],[-121.031,39.978],[-121.105,39.974],[-121.126,39.988]]]}},{"type":"Feature","properties":{"density":1},"geometry":{"type":"Polygon","coordinates":[[[-121.274,40.855],[-121.294,40.919],[-121.277,41.037],[-121.223,41.166],[-121.099,41.294],[-120.974,41.358],[-120.866,41.355],[-120.798,41.304],[-120.775,41.233],[-120.771,41.129],[-120.815,41.027],[-120.94,40.913],[-121.088,40.815],[-121.193,40.788],[-121.264,40.811],[-121.274,40.855]]]}},{"type":"Feature","properties":{"density":1},"geometry":{"type":"Polygon","coordinates":[[[-158.826,66.143],[-158.394,69.257],[-157.096,70.987],[-153.463,72.371],[-151.128,72.717],[-147.235,73.149],[-142.565,73.236],[-137.288,73.063],[-129.157,72.89],[-115.923,72.89],[-110.464,72.868],[-106.149,72.976],[-101.392,72.803],[-96.807,72.717],[-93.607,72.89],[-89.474,72.829],[-82.189,72.976],[-78.364,73.098],[-72.848,73.236],[-65.236,73.063],[-56.99,72.906],[-55.289,72.803],[-52.694,72.457],[-50.099,70.901],[-49.147,69.257],[-48.542,67.008],[-49.493,64.846],[-50.012,63.202],[-51.742,61.559],[-53.732,60.348],[-55.106,59.912],[-56.874,59.259],[-58.489,58.445],[-59.787,57.926],[-61.603,56.801],[-63.246,55.244],[-65.197,53.848],[-66.139,52.416],[-66.947,51.301],[-67.523,50.109],[-68.331,48.648],[-68.753,46.611],[-68.436,45.038],[-68.09,43.567],[-67.658,42.702],[-67.312,40.972],[-67.312,38.55],[-67.571,37.426],[-68.436,35.523],[-70.426,33.707],[-71.637,32.323],[-74.491,30.506],[-76.308,30.16],[-81.324,29.295],[-83.573,28.863],[-86.034,28.667],[-88.504,28.43],[-90.147,28.344],[-91.618,27.479],[-92.569,26.668],[-92.829,25.403],[-92.483,24.451],[-92.31,23.413],[-92.396,21.683],[-92.62,20.261],[-92.396,18.051],[-93.175,15.802],[-93.902,14.546],[-95.51,13.034],[-97.326,12.688],[-99.835,12.861],[-102.776,13.553],[-105.284,14.591],[-105.976,15.369],[-107.36,16.84],[-109.074,18.954],[-110.561,21.568],[-110.817,23.285],[-109.997,24.259],[-108.917,24.711],[-107.62,24.451],[-105.976,24.019],[-104.333,23.846],[-103.987,23.327],[-102.43,22.894],[-101.219,22.721],[-99.662,22.894],[-98.97,23.932],[-99.056,25.316],[-100.008,27.219],[-102.343,28.776],[-103.295,29.295],[-106.495,29.987],[-108.312,30.679],[-110.042,30.766],[-112.204,32.323],[-113.501,35.264],[-113.415,37.167],[-113.934,39.848],[-112.809,41.924],[-110.647,43.74],[-109.35,44.519],[-107.879,45.557],[-106.928,45.903],[-105.025,47.114],[-104.765,47.979],[-104.246,49.363],[-104.679,50.314],[-105.717,52.304],[-107.187,53.082],[-108.485,54.985],[-110.82,56.715],[-112.55,57.926],[-112.723,58.272],[-114.107,58.704],[-115.577,59.05],[-117.134,58.964],[-119.297,58.877],[-120.681,58.531],[-122.67,57.839],[-123.968,57.32],[-125.438,57.061],[-127.947,57.061],[-130.628,57.407],[-132.877,58.099],[-134.866,58.358],[-137.548,58.791],[-139.364,59.656],[-141.181,60.088],[-142.392,60.002],[-144.208,59.829],[-146.543,60.088],[-148.619,60.348],[-151.906,61.299],[-154.501,62.164],[-157.442,63.548],[-158.567,64.586],[-159.086,66.316],[-158.826,66.143]]]}},{"type":"Feature","properties":{"density":2},"geometry":{"type":"Polygon","coordinates":[[[-109.612,37.8],[-109.674,37.918],[-109.656,38.008],[-109.624,38.042],[-109.563,38.065],[-109.499,38.063],[-109.383,38.019],[-109.251,37.938],[-109.122,37.786],[-108.792,37.067],[-108.543,36.799],[-108.4,36.68],[-108.228,36.627],[-108.049,36.692],[-107.972,36.894],[-107.978,37.138],[-107.954,37.298],[-107.752,37.667],[-107.692,37.97],[-107.722,38.196],[-107.811,38.327],[-107.984,38.422],[-108.15,38.488],[-108.21,38.559],[-108.21,38.642],[-108.162,38.642],[-107.901,38.505],[-107.71,38.297],[-107.508,38.137],[-107.447,38.12],[-107.339,38.041],[-107.307,37.983],[-107.291,37.864],[-107.357,37.724],[-107.422,37.456],[-107.499,37.259],[-107.535,37.087],[-107.529,36.962],[-107.487,36.748],[-107.416,36.582],[-107.297,36.469],[-107.041,36.344],[-106.827,36.32],[-106.69,36.219],[-106.666,36.124],[-106.767,35.993],[-106.815,35.963],[-107.184,35.809],[-107.386,35.696],[-107.725,35.63],[-108.147,35.66],[-108.563,35.939],[-108.742,36.106],[-108.825,36.362],[-108.872,36.802],[-108.944,37.01],[-108.979,37.176],[-109.039,37.325],[-109.193,37.521],[-109.562,37.735],[-109.612,37.8]]]}},{"type":"Feature","properties":{"density":2},"geometry":{"type":"Polygon","coordinates":[[[-104.97,37.451],[-104.608,37.451],[-104.292,37.404],[-103.864,37.398],[-103.567,37.427],[-103.288,37.493],[-103.133,37.57],[-102.967,37.618],[-102.776,37.641],[-102.574,37.57],[-102.467,37.445],[-102.378,37.237],[-102.348,36.999],[-102.348,36.827],[-102.425,36.714],[-102.747,36.625],[-102.967,36.595],[-103.805,36.666],[-104.512,36.88],[-104.857,37.011],[-105.095,37.023],[-105.184,37.071],[-105.297,37.213],[-105.309,37.338],[-105.25,37.427],[-105.089,37.451],[-104.97,37.451]]]}},{"type":"Feature","properties":{"density":2},"geometry":{"type":"Polygon","coordinates":[[[-127.172,68.238],[-123.74,68.735],[-112.181,68.418],[-108.163,68.418],[-103.512,69.005],[-97.552,69.186],[-94.843,69.005],[-93.037,68.418],[-92.314,67.606],[-92.721,67.064],[-94.888,66.432],[-101.299,66.161],[-109.833,65.664],[-115.071,64.806],[-117.916,63.542],[-119.993,62.278],[-122.837,61.33],[-125.185,61.646],[-127.849,62.278],[-129.971,63.723],[-131.371,64.49],[-132.455,65.664],[-132.545,66.658],[-132.093,67.47],[-130.423,67.786],[-127.172,68.238]]]}},{"type":"Feature","properties":{"density":2},"geometry":{"type":"Polygon","coordinates":[[[-78.612,51.135],[-79.148,51.055],[-79.87,51.015],[-80.218,51.095],[-80.325,51.095],[-80.419,51.055],[-80.445,50.975],[-80.432,50.841],[-79.91,50.573],[-79.281,49.904],[-78.291,49.155],[-78.158,48.941],[-78.104,48.794],[-78.251,48.62],[-78.72,48.647],[-79.362,49.021],[-79.763,49.409],[-80.057,49.824],[-80.459,50.306],[-80.713,50.493],[-80.887,50.533],[-81.101,50.466],[-81.141,50.359],[-81.154,50.118],[-81.034,49.597],[-80.807,49.235],[-80.111,48.593],[-79.602,48.285],[-78.934,47.924],[-78.653,47.63],[-78.439,47.443],[-78.345,47.269],[-78.184,46.252],[-78.064,45.904],[-77.703,45.637],[-77.301,45.503],[-76.739,45.61],[-76.311,45.757],[-75.669,45.837],[-75.348,45.971],[-75.054,46.172],[-75.0,46.613],[-75.147,47.028],[-75.455,47.429],[-75.683,47.71],[-76.686,48.393],[-77.194,48.834],[-77.97,49.383],[-78.291,49.663],[-78.358,49.757],[-78.345,49.931],[-78.305,50.145],[-78.305,50.346],[-78.385,50.6],[-78.425,50.787],[-78.345,51.068],[-78.452,51.282],[-78.452,51.456],[-78.345,51.483],[-77.97,51.47],[-77.917,51.51],[-77.863,51.643],[-77.917,51.764],[-78.01,51.858],[-78.372,51.965],[-78.639,51.938],[-78.786,51.858],[-78.827,51.684],[-78.827,51.51],[-78.72,51.282],[-78.62,51.216],[-78.612,51.135]]]}},{"type":"Feature","properties":{"density":2},"geometry":{"type":"Polygon","coordinates":[[[-123.016,42.604],[-122.992,42.662],[-122.86,42.82],[-122.641,42.984],[-122.276,43.082],[-122.202,43.069],[-122.175,42.982],[-122.191,42.937],[-122.3,42.834],[-122.358,42.754],[-122.384,42.604],[-122.416,42.556],[-122.456,42.553],[-122.522,42.651],[-122.667,42.651],[-122.762,42.575],[-122.82,42.49],[-122.87,42.466],[-122.958,42.485],[-123.021,42.569],[-123.016,42.604]]]}},{"type":"Feature","properties":{"density":2},"geometry":{"type":"Polygon","coordinates":[[[-132.858,68.798],[-131.791,69.269],[-130.379,69.645],[-129.343,69.896],[-127.836,70.085],[-126.204,70.336],[-122.72,70.587],[-121.056,70.618],[-119.707,70.713],[-117.29,70.838],[-115.343,70.995],[-112.895,70.932],[-110.51,70.775],[-109.128,70.618],[-105.864,70.148],[-104.451,69.834],[-100.12,68.986],[-98.55,68.735],[-96.604,68.578],[-94.533,68.704],[-92.273,69.08],[-89.228,69.394],[-87.69,69.677],[-86.528,69.865],[-85.398,70.022],[-84.896,70.022],[-84.488,69.583],[-84.3,68.923],[-84.676,68.201],[-85.869,67.511],[-87.407,67.103],[-88.914,66.82],[-89.918,66.601],[-95.694,65.973],[-97.797,65.69],[-100.81,65.565],[-102.254,65.596],[-104.483,65.502],[-105.676,65.439],[-107.465,65.282],[-111.012,64.623],[-112.77,63.995],[-114.433,63.524],[-116.191,62.897],[-117.541,62.238],[-118.765,61.673],[-119.926,61.013],[-120.774,60.699],[-121.684,60.417],[-122.563,60.229],[-123.316,60.166],[-124.383,59.946],[-126.989,59.883],[-128.213,59.978],[-131.163,60.26],[-132.388,60.543],[-133.235,60.982],[-133.894,61.516],[-134.742,63.022],[-135.024,64.089],[-135.087,65.345],[-134.71,66.883],[-134.145,67.762],[-133.675,68.139],[-133.298,68.484],[-132.858,68.798]]]}},{"type":"Feature","properties":{"density":2},"geometry":{"type":"Polygon","coordinates":[[[-78.544,52.108],[-78.798,52.053],[-78.965,51.816],[-79.007,51.537],[-79.105,51.313],[-79.286,51.202],[-79.551,51.16],[-80.18,51.247],[-80.447,51.209],[-80.664,51.085],[-80.757,50.986],[-81.005,50.49],[-81.017,50.162],[-80.955,49.783],[-80.776,49.387],[-80.515,49.12],[-80.109,48.788],[-79.141,48.202],[-78.742,47.868],[-78.296,47.309],[-78.031,46.905],[-77.822,46.627],[-77.793,46.486],[-77.818,46.371],[-78.226,46.138],[-78.282,45.956],[-78.282,45.789],[-78.133,45.644],[-77.961,45.51],[-77.361,45.37],[-76.989,45.337],[-76.398,45.398],[-75.91,45.649],[-75.669,45.82],[-75.366,46.082],[-75.185,46.305],[-75.087,46.458],[-74.975,46.765],[-75.003,46.947],[-75.171,47.072],[-75.436,47.156],[-76.036,47.533],[-76.552,48.007],[-76.928,48.314],[-77.04,48.467],[-77.18,48.621],[-77.324,48.824],[-77.715,49.475],[-77.863,49.848],[-78.017,50.128],[-78.282,50.672],[-78.308,50.806],[-78.277,50.937],[-78.003,51.271],[-77.891,51.467],[-77.835,51.816],[-77.863,51.913],[-77.998,52.022],[-78.212,52.081],[-78.407,52.108],[-78.544,52.108]]]}},{"type":"Feature","properties":{"density":2},"geometry":{"type":"Polygon","coordinates":[[[-108.811,37.77],[-108.836,37.781],[-108.897,37.9],[-108.91,38.043],[-108.853,38.1],[-108.781,38.106],[-108.698,38.046],[-108.68,37.934],[-108.743,37.79],[-108.782,37.767],[-108.811,37.77]]]}},{"type":"Feature","properties":{"density":2},"geometry":{"type":"Polygon","coordinates":[[[-107.698,38.364],[-107.781,38.426],[-107.962,38.62],[-108.045,38.674],[-108.219,38.691],[-108.264,38.662],[-108.297,38.616],[-108.285,38.517],[-108.078,38.389],[-107.83,38.166],[-107.772,38.05],[-107.768,37.852],[-107.801,37.633],[-107.801,37.463],[-107.925,37.232],[-108.029,37.108],[-108.231,36.946],[-108.289,36.917],[-108.392,36.917],[-108.496,36.951],[-108.636,37.05],[-108.686,37.103],[-108.839,37.36],[-108.864,37.471],[-109.054,37.819],[-109.211,37.996],[-109.26,38.087],[-109.335,38.178],[-109.413,38.253],[-109.517,38.302],[-109.632,38.319],[-109.769,38.298],[-109.864,38.248],[-109.955,38.124],[-109.984,38.038],[-109.955,37.798],[-109.765,37.62],[-109.649,37.562],[-109.326,37.335],[-109.24,37.244],[-109.107,36.967],[-108.963,36.74],[-108.876,36.368],[-108.855,36.082],[-109.025,35.744],[-109.021,35.574],[-108.963,35.483],[-108.38,35.305],[-108.227,35.289],[-108.066,35.293],[-107.822,35.322],[-107.644,35.367],[-107.524,35.417],[-106.507,35.872],[-106.383,35.975],[-106.346,36.074],[-106.359,36.178],[-106.408,36.268],[-106.549,36.31],[-106.718,36.293],[-107.074,36.206],[-107.223,36.264],[-107.446,36.587],[-107.512,36.756],[-107.52,36.913],[-107.495,37.248],[-107.454,37.38],[-107.417,37.661],[-107.355,37.909],[-107.293,38.075],[-107.297,38.133],[-107.313,38.211],[-107.359,38.265],[-107.516,38.335],[-107.636,38.331],[-107.698,38.364]]]}},{"type":"Feature","properties":{"density":2},"geometry":{"type":"Polygon","coordinates":[[[-104.926,37.044],[-104.466,37.086],[-104.047,37.1],[-103.266,37.197],[-102.778,37.281],[-102.345,37.295],[-101.941,36.974],[-101.829,36.723],[-101.801,36.374],[-101.801,36.04],[-102.011,35.761],[-102.262,35.496],[-102.499,35.37],[-102.806,35.328],[-103.448,35.384],[-103.964,35.579],[-104.313,35.816],[-104.731,36.067],[-104.996,36.207],[-105.233,36.374],[-105.47,36.5],[-105.582,36.695],[-105.582,36.932],[-105.429,37.03],[-105.191,37.058],[-104.926,37.044]]]}},{"type":"Feature","properties":{"density":2},"geometry":{"type":"Polygon","coordinates":[[[-102.903,56.533],[-103.004,56.499],[-103.087,56.44],[-103.251,56.221],[-103.277,56.087],[-103.262,56.025],[-103.203,55.962],[-103.115,55.921],[-102.994,55.943],[-102.862,56.244],[-102.791,56.316],[-102.774,56.359],[-102.782,56.393],[-102.838,56.461],[-102.84,56.522],[-102.903,56.533]]]}},{"type":"Feature","properties":{"density":2},"geometry":{"type":"Polygon","coordinates":[[[-141.412,70.157],[-137.903,70.191],[-134.534,70.087],[-128.276,70.555],[-125.742,70.555],[-123.479,70.393],[-120.784,70.124],[-118.682,70.124],[-116.903,70.447],[-114.963,70.825],[-112.376,71.202],[-110.705,71.471],[-108.927,71.417],[-107.471,71.471],[-105.854,71.094],[-104.561,70.663],[-103.052,70.016],[-101.219,69.639],[-99.656,69.531],[-97.177,69.208],[-95.776,69.1],[-93.889,69.046],[-92.003,69.208],[-90.44,69.315],[-89.146,69.693],[-87.637,70.178],[-86.128,70.501],[-83.918,70.771],[-82.086,70.825],[-80.038,70.555],[-79.714,70.339],[-78.798,69.477],[-78.744,68.669],[-79.122,68.022],[-80.415,67.429],[-81.601,67.106],[-83.649,66.513],[-85.913,66.189],[-88.23,65.758],[-89.254,65.543],[-93.081,65.219],[-95.991,65.219],[-97.932,65.165],[-99.98,65.058],[-102.728,64.842],[-106.124,64.842],[-107.364,64.788],[-109.358,64.572],[-112.376,64.087],[-114.155,63.548],[-115.664,63.225],[-117.442,62.524],[-119.275,61.824],[-120.73,61.069],[-121.916,60.422],[-123.317,59.937],[-124.934,59.722],[-127.198,59.668],[-129.569,59.937],[-131.477,59.805],[-133.909,59.701],[-137.452,59.944],[-140.3,60.604],[-144.469,61.785],[-148.082,64.321],[-149.992,66.613],[-149.575,68.524],[-147.908,69.566],[-144.677,70.157],[-141.412,70.157]]]}},{"type":"Feature","properties":{"density":2},"geometry":{"type":"Polygon","coordinates":[[[-75.026,54.998],[-74.946,55.101],[-74.84,55.127],[-74.648,55.08],[-74.554,55.03],[-74.529,55.009],[-74.511,54.937],[-74.564,54.892],[-74.632,54.89],[-74.901,54.951],[-74.998,54.957],[-75.015,54.962],[-75.026,54.998]]]}},{"type":"Feature","properties":{"density":2},"geometry":{"type":"Polygon","coordinates":[[[-76.101,52.693],[-76.513,52.683],[-77.481,52.704],[-77.82,52.652],[-78.129,52.57],[-78.366,52.529],[-78.603,52.416],[-78.771,52.213],[-79.004,51.685],[-79.23,51.345],[-79.364,51.211],[-79.539,51.15],[-79.807,51.012],[-79.992,50.889],[-80.15,50.738],[-80.342,50.46],[-80.397,50.285],[-80.39,50.038],[-80.28,49.365],[-80.019,48.899],[-79.683,48.583],[-79.32,48.295],[-79.038,48.021],[-78.623,47.712],[-78.139,47.022],[-77.964,46.683],[-77.954,46.456],[-78.088,46.219],[-78.201,46.096],[-78.489,45.907],[-78.702,45.742],[-78.777,45.561],[-78.777,45.386],[-78.767,45.242],[-78.603,45.005],[-78.314,44.892],[-77.872,44.778],[-77.556,44.748],[-77.285,44.758],[-76.939,44.878],[-76.774,44.898],[-76.65,44.947],[-76.503,44.953],[-75.937,45.046],[-75.69,45.118],[-75.388,45.18],[-75.01,45.355],[-74.815,45.478],[-74.695,45.592],[-74.64,45.89],[-74.64,46.106],[-74.784,46.363],[-75.124,46.61],[-75.504,46.816],[-75.916,47.156],[-76.163,47.454],[-76.595,48.031],[-76.873,48.473],[-77.09,48.998],[-77.388,49.472],[-77.594,50.192],[-77.584,50.913],[-77.316,51.561],[-77.151,51.726],[-76.997,51.819],[-76.647,51.942],[-76.462,52.024],[-75.968,52.323],[-75.926,52.395],[-75.896,52.529],[-75.906,52.611],[-75.968,52.663],[-76.101,52.693]]]}},{"type":"Feature","properties":{"density":2},"geometry":{"type":"Polygon","coordinates":[[[-76.749,67.066],[-75.614,67.043],[-74.433,66.87],[-73.646,66.789],[-72.245,66.383],[-71.207,65.77],[-70.091,64.577],[-69.369,63.639],[-68.736,62.929],[-68.35,62.327],[-67.66,61.694],[-66.687,61.103],[-65.714,60.617],[-65.124,59.887],[-64.985,59.366],[-64.95,58.567],[-65.228,58.081],[-65.988,57.633],[-67.104,57.525],[-67.764,57.629],[-68.702,58.151],[-69.327,58.949],[-69.64,59.922],[-70.234,60.891],[-71.068,61.493],[-72.009,61.987],[-72.658,62.28],[-73.306,62.543],[-74.078,62.805],[-75.252,62.991],[-76.413,63.257],[-77.664,63.674],[-78.556,64.226],[-78.942,64.936],[-78.915,65.862],[-78.633,66.542],[-78.15,66.835],[-77.212,67.009],[-76.749,67.066]]]}},{"type":"Feature","properties":{"density":2},"geometry":{"type":"Polygon","coordinates":[[[-109.953,38.382],[-109.726,38.485],[-109.356,38.516],[-109.129,38.423],[-108.831,38.331],[-108.563,38.289],[-108.316,38.31],[-108.028,38.3],[-107.513,38.413],[-107.328,38.361],[-107.143,38.228],[-106.855,37.888],[-106.669,37.744],[-106.484,37.435],[-106.206,37.167],[-105.959,37.034],[-105.228,36.89],[-104.734,36.879],[-104.467,36.982],[-104.035,37.054],[-103.293,37.219],[-102.727,37.229],[-102.161,37.095],[-101.976,37.013],[-101.729,36.735],[-101.585,36.498],[-101.492,36.046],[-101.451,35.737],[-101.564,35.387],[-101.811,35.119],[-102.007,34.996],[-102.408,34.934],[-102.748,34.934],[-103.077,34.975],[-103.366,35.13],[-104.282,35.572],[-104.559,35.593],[-104.92,35.593],[-105.136,35.531],[-105.825,35.274],[-106.083,35.16],[-106.32,35.016],[-106.844,34.759],[-107.359,34.79],[-107.575,34.841],[-107.709,34.924],[-107.894,35.14],[-108.038,35.51],[-108.193,35.85],[-108.409,36.149],[-108.656,36.344],[-108.872,36.612],[-109.109,36.807],[-109.397,36.931],[-109.623,36.982],[-109.819,37.003],[-110.015,37.065],[-110.138,37.219],[-110.231,37.404],[-110.272,37.579],[-110.272,37.816],[-110.22,38.042],[-110.128,38.207],[-110.025,38.341],[-109.953,38.382]]]}},{"type":"Feature","properties":{"density":2},"geometry":{"type":"Polygon","coordinates":[[[-103.341,56.043],[-103.353,56.104],[-103.329,56.235],[-103.274,56.39],[-103.173,56.54],[-102.832,56.82],[-102.695,56.9],[-102.444,57.003],[-102.277,57.031],[-102.146,57.009],[-102.014,56.951],[-101.941,56.836],[-101.923,56.677],[-101.941,56.585],[-102.024,56.506],[-102.146,56.427],[-102.411,56.342],[-102.493,56.287],[-102.725,56.085],[-102.813,55.942],[-102.911,55.847],[-103.03,55.823],[-103.167,55.844],[-103.295,55.948],[-103.341,56.043]]]}},{"type":"Feature","properties":{"density":2},"geometry":{"type":"Polygon","coordinates":[[[-89.759,51.393],[-89.717,51.462],[-89.631,51.521],[-89.46,51.601],[-89.284,51.65],[-89.072,51.702],[-88.663,51.767],[-88.576,51.749],[-88.533,51.715],[-88.515,51.629],[-88.529,51.582],[-88.59,51.534],[-89.688,51.322],[-89.763,51.353],[-89.759,51.393]]]}},{"type":"Feature","properties":{"density":2},"geometry":{"type":"Polygon","coordinates":[[[-91.504,49.279],[-91.226,49.454],[-90.696,49.634],[-90.397,49.717],[-89.61,49.804],[-88.859,49.917],[-88.54,49.886],[-88.426,49.835],[-88.179,49.773],[-87.706,49.464],[-87.51,49.228],[-87.222,48.981],[-86.821,48.878],[-86.543,48.785],[-86.203,48.548],[-85.791,48.322],[-85.194,48.106],[-84.999,47.9],[-84.927,47.55],[-84.968,47.385],[-85.21,47.205],[-85.436,47.102],[-86.61,46.824],[-86.898,46.835],[-87.176,46.907],[-87.546,47.092],[-87.732,47.277],[-87.979,47.411],[-88.277,47.411],[-88.658,47.288],[-89.152,47.205],[-89.903,47.164],[-90.516,47.344],[-90.886,47.591],[-91.195,47.828],[-91.329,47.982],[-91.586,48.023],[-91.833,48.034],[-92.121,48.023],[-92.296,48.044],[-92.492,48.209],[-92.44,48.456],[-92.317,48.692],[-92.111,48.898],[-91.818,49.099],[-91.504,49.279]]]}},{"type":"Feature","properties":{"density":2},"geometry":{"type":"Polygon","coordinates":[[[-123.009,42.502],[-123.051,42.539],[-123.097,42.615],[-123.125,42.755],[-123.118,42.908],[-123.033,43.216],[-122.963,43.368],[-122.82,43.603],[-122.691,43.734],[-122.573,43.813],[-122.478,43.82],[-122.374,43.798],[-122.319,43.768],[-122.265,43.688],[-122.255,43.551],[-122.31,43.432],[-122.551,43.051],[-122.679,42.889],[-122.737,42.783],[-122.798,42.597],[-122.847,42.499],[-122.917,42.475],[-122.984,42.484],[-123.009,42.502]]]}},{"type":"Feature","properties":{"density":2},"geometry":{"type":"Polygon","coordinates":[[[-118.166,44.97],[-118.239,44.992],[-118.282,45.05],[-118.288,45.095],[-118.239,45.242],[-118.175,45.285],[-118.114,45.278],[-118.093,45.245],[-118.09,45.202],[-118.163,45.071],[-118.135,44.976],[-118.166,44.97]]]}},{"type":"Feature","properties":{"density":2},"geometry":{"type":"Polygon","coordinates":[[[-118.529,44.696],[-118.584,44.739],[-118.617,44.9],[-118.605,45.041],[-118.562,45.129],[-118.507,45.178],[-118.44,45.166],[-118.388,45.053],[-118.401,44.827],[-118.431,44.711],[-118.483,44.684],[-118.529,44.696]]]}},{"type":"Feature","properties":{"density":2},"geometry":{"type":"Polygon","coordinates":[[[-149.986,68.372],[-149.063,69.468],[-147.276,70.217],[-145.2,70.506],[-142.662,70.679],[-138.972,70.736],[-136.55,70.736],[-133.09,70.852],[-129.169,71.082],[-126.401,70.967],[-123.114,70.563],[-120.75,70.102],[-117.982,69.756],[-114.176,69.525],[-109.966,69.583],[-105.814,70.275],[-103.623,70.679],[-99.76,70.679],[-97.684,70.852],[-91.11,70.563],[-88.342,70.39],[-86.439,70.102],[-84.075,69.814],[-82.172,69.41],[-81.076,69.237],[-80.384,68.66],[-80.326,67.968],[-80.499,67.622],[-81.018,67.219],[-82.921,66.7],[-84.767,66.642],[-87.073,66.411],[-92.494,65.719],[-93.935,65.604],[-95.435,65.2],[-101.778,64.451],[-103.912,64.566],[-105.353,64.624],[-106.795,64.624],[-107.89,64.739],[-110.255,64.451],[-111.523,64.335],[-113.599,63.701],[-116.021,62.548],[-117.924,61.798],[-120.0,61.048],[-122.134,60.126],[-123.691,59.78],[-125.536,59.665],[-128.246,59.434],[-129.861,59.203],[-132.744,59.088],[-134.82,59.03],[-136.781,59.261],[-138.165,59.607],[-139.203,60.011],[-141.509,60.645],[-145.949,62.432],[-147.968,63.816],[-149.294,65.373],[-149.871,66.527],[-150.217,67.334],[-149.986,68.372]]]}},{"type":"Feature","properties":{"density":2},"geometry":{"type":"Polygon","coordinates":[[[-75.038,55.093],[-74.961,55.14],[-74.782,55.17],[-74.505,55.154],[-74.387,55.127],[-74.151,55.046],[-74.066,54.998],[-74.009,54.941],[-73.992,54.867],[-74.002,54.809],[-74.05,54.742],[-74.117,54.688],[-74.276,54.617],[-74.357,54.614],[-74.667,54.759],[-74.809,54.846],[-75.055,54.927],[-75.089,54.967],[-75.089,55.019],[-75.038,55.093]]]}},{"type":"Feature","properties":{"density":2},"geometry":{"type":"Polygon","coordinates":[[[-76.144,54.821],[-76.116,54.866],[-76.064,54.904],[-75.959,54.939],[-75.881,54.931],[-75.82,54.89],[-75.807,54.853],[-75.815,54.794],[-75.881,54.771],[-76.101,54.779],[-76.136,54.789],[-76.144,54.821]]]}},{"type":"Feature","properties":{"density":2},"geometry":{"type":"Polygon","coordinates":[[[-76.157,54.851],[-76.045,54.956],[-75.883,55.026],[-75.671,55.047],[-75.559,55.013],[-75.499,54.902],[-75.499,54.804],[-75.539,54.76],[-75.674,54.706],[-76.012,54.696],[-76.136,54.723],[-76.167,54.773],[-76.157,54.851]]]}},{"type":"Feature","properties":{"density":2},"geometry":{"type":"Polygon","coordinates":[[[-80.771,51.365],[-80.651,51.553],[-80.309,51.707],[-79.745,51.638],[-79.216,51.621],[-78.891,51.655],[-78.737,51.826],[-78.566,52.373],[-78.396,52.612],[-78.02,52.629],[-77.661,52.441],[-77.285,52.322],[-76.909,52.305],[-76.602,52.356],[-76.089,52.595],[-75.696,52.954],[-75.303,53.022],[-75.013,52.766],[-75.064,52.527],[-75.286,52.236],[-75.679,52.083],[-76.123,51.98],[-76.79,51.792],[-76.892,51.655],[-76.892,51.348],[-76.755,50.784],[-76.499,50.254],[-76.448,49.759],[-76.414,49.161],[-76.345,48.631],[-76.089,47.931],[-75.679,47.281],[-75.508,46.957],[-75.115,46.581],[-74.756,46.359],[-74.158,46.085],[-74.022,45.915],[-73.885,45.692],[-73.936,45.47],[-74.158,45.18],[-74.329,44.906],[-74.705,44.787],[-75.03,44.804],[-75.32,44.77],[-75.918,44.531],[-76.192,44.291],[-76.687,44.086],[-77.114,44.103],[-77.678,44.291],[-77.934,44.189],[-78.327,44.172],[-78.498,44.291],[-78.772,44.428],[-79.096,44.718],[-79.438,45.146],[-79.797,45.812],[-79.78,46.102],[-79.643,46.256],[-79.079,46.239],[-78.618,46.102],[-78.447,46.137],[-78.327,46.188],[-78.276,46.273],[-78.225,46.461],[-78.379,46.786],[-78.925,47.384],[-79.387,47.845],[-79.78,48.119],[-80.087,48.665],[-80.395,49.041],[-80.583,49.468],[-80.89,50.032],[-80.993,50.511],[-80.856,51.297],[-80.771,51.365]]]}},{"type":"Feature","properties":{"density":2},"geometry":{"type":"Polygon","coordinates":[[[-74.06,51.099],[-74.166,51.054],[-74.257,50.887],[-74.303,50.659],[-74.318,50.476],[-74.234,50.325],[-74.044,50.218],[-73.9,50.218],[-73.809,50.279],[-73.718,50.438],[-73.718,50.659],[-73.832,50.97],[-73.946,51.076],[-74.06,51.099]]]}},{"type":"Feature","properties":{"density":2},"geometry":{"type":"Polygon","coordinates":[[[-69.311,53.576],[-69.18,53.516],[-68.719,53.182],[-68.41,52.868],[-68.405,52.792],[-68.435,52.736],[-68.506,52.741],[-68.618,52.802],[-69.033,53.121],[-69.387,53.531],[-69.387,53.556],[-69.311,53.576]]]}},{"type":"Feature","properties":{"density":2},"geometry":{"type":"Polygon","coordinates":[[[-67.615,52.989],[-67.489,52.979],[-67.236,52.923],[-67.185,52.883],[-67.124,52.787],[-67.129,52.751],[-67.21,52.655],[-67.251,52.655],[-67.403,52.721],[-67.625,52.903],[-67.635,52.964],[-67.615,52.989]]]}},{"type":"Feature","properties":{"density":2},"geometry":{"type":"Polygon","coordinates":[[[-72.663,53.895],[-72.222,53.804],[-71.65,53.602],[-71.559,53.506],[-71.442,53.414],[-71.442,53.298],[-71.463,53.227],[-71.539,53.192],[-71.716,53.217],[-72.288,53.587],[-72.587,53.723],[-72.683,53.814],[-72.688,53.86],[-72.663,53.895]]]}},{"type":"Feature","properties":{"density":2},"geometry":{"type":"Polygon","coordinates":[[[-92.895,48.306],[-93.015,48.852],[-92.844,49.502],[-92.503,50.066],[-91.699,50.783],[-90.828,51.227],[-89.239,51.791],[-88.419,51.894],[-87.582,51.842],[-86.095,51.586],[-85.224,51.227],[-84.643,50.869],[-83.994,50.168],[-83.396,49.365],[-83.071,48.801],[-82.61,47.93],[-81.943,46.956],[-81.909,46.29],[-82.063,45.965],[-82.695,45.726],[-83.362,45.726],[-84.165,45.811],[-84.831,46.17],[-85.258,46.307],[-85.754,46.324],[-86.198,46.187],[-86.762,45.948],[-87.411,45.828],[-87.889,45.794],[-88.453,45.828],[-88.863,45.982],[-89.29,46.255],[-89.615,46.358],[-90.093,46.426],[-90.452,46.426],[-90.862,46.495],[-91.204,46.495],[-91.563,46.648],[-91.836,46.819],[-92.178,47.178],[-92.503,47.571],[-92.708,47.964],[-92.725,48.066],[-92.895,48.306]]]}},{"type":"Feature","properties":{"density":2},"geometry":{"type":"Polygon","coordinates":[[[-110.143,38.499],[-109.839,38.651],[-109.6,38.64],[-109.349,38.491],[-109.156,38.309],[-108.871,38.173],[-108.598,38.116],[-108.279,38.013],[-108.153,38.036],[-108.074,38.116],[-108.074,38.195],[-108.037,38.292],[-107.948,38.355],[-107.663,38.378],[-107.399,38.347],[-107.174,38.241],[-106.843,38.024],[-106.57,37.523],[-106.422,37.068],[-105.887,36.43],[-105.59,36.304],[-105.085,36.145],[-104.599,36.039],[-104.235,35.86],[-104.007,35.621],[-103.495,35.348],[-103.164,35.336],[-102.868,35.393],[-102.629,35.587],[-102.481,35.792],[-102.378,36.042],[-102.093,36.304],[-101.547,36.715],[-101.262,36.783],[-100.897,36.692],[-100.601,36.43],[-100.453,36.042],[-100.453,35.53],[-100.647,35.017],[-100.841,34.676],[-101.239,34.322],[-101.558,34.197],[-102.435,33.81],[-102.971,33.616],[-103.7,33.662],[-104.075,33.833],[-104.224,33.981],[-104.531,34.239],[-105.009,34.721],[-105.154,34.96],[-105.363,35.177],[-105.568,35.336],[-105.784,35.336],[-106.046,35.234],[-106.388,34.881],[-106.752,34.55],[-107.151,34.368],[-107.55,34.117],[-107.834,34.015],[-108.165,33.981],[-108.632,34.117],[-108.985,34.277],[-109.19,34.448],[-109.247,34.74],[-109.118,34.93],[-108.598,35.2],[-108.449,35.359],[-108.415,35.587],[-108.427,36.566],[-108.541,36.794],[-108.632,36.92],[-108.814,36.942],[-109.03,36.851],[-109.304,36.794],[-109.429,36.703],[-109.885,36.715],[-110.169,36.76],[-110.523,36.874],[-110.659,36.988],[-110.807,37.204],[-110.807,37.375],[-110.705,37.603],[-110.454,37.876],[-110.306,38.252],[-110.318,38.298],[-110.143,38.499]]]}},{"type":"Feature","properties":{"density":2},"geometry":{"type":"Polygon","coordinates":[[[-112.897,40.365],[-112.633,40.349],[-112.407,40.392],[-112.191,40.406],[-112.033,40.396],[-111.941,40.325],[-111.914,40.251],[-111.914,40.156],[-111.948,40.102],[-112.073,40.058],[-112.174,40.065],[-112.613,39.937],[-112.745,39.94],[-112.947,40.085],[-113.005,40.183],[-113.015,40.247],[-112.984,40.305],[-112.954,40.345],[-112.897,40.365]]]}},{"type":"Feature","properties":{"density":2},"geometry":{"type":"Polygon","coordinates":[[[-123.103,42.637],[-123.072,42.809],[-122.976,43.032],[-122.738,43.493],[-122.531,43.751],[-122.338,44.039],[-122.166,44.207],[-121.943,44.262],[-121.797,44.222],[-121.64,44.126],[-121.569,43.994],[-121.569,43.857],[-121.655,43.609],[-121.999,43.143],[-122.262,42.83],[-122.495,42.617],[-122.647,42.516],[-122.905,42.47],[-122.976,42.485],[-123.052,42.536],[-123.103,42.637]]]}},{"type":"Feature","properties":{"density":2},"geometry":{"type":"Polygon","coordinates":[[[-118.629,44.694],[-118.676,44.771],[-118.7,44.987],[-118.619,45.473],[-118.403,45.885],[-118.18,46.077],[-117.981,46.175],[-117.755,46.239],[-117.181,46.33],[-117.043,46.33],[-116.789,46.243],[-116.671,46.185],[-116.607,46.114],[-116.587,46.057],[-116.59,45.983],[-116.641,45.905],[-116.722,45.828],[-117.144,45.723],[-117.755,45.331],[-117.893,45.223],[-118.015,45.088],[-118.143,44.818],[-118.227,44.717],[-118.342,44.619],[-118.436,44.592],[-118.538,44.616],[-118.578,44.629],[-118.629,44.694]]]}},{"type":"Feature","properties":{"density":2},"geometry":{"type":"Polygon","coordinates":[[[-120.238,39.674],[-120.283,39.74],[-120.218,39.957],[-120.142,40.008],[-120.046,39.993],[-119.995,39.912],[-120.0,39.836],[-120.086,39.679],[-120.187,39.638],[-120.238,39.674]]]}},{"type":"Feature","properties":{"density":2},"geometry":{"type":"Polygon","coordinates":[[[-121.099,39.988],[-121.149,40.038],[-121.153,40.153],[-121.109,40.271],[-121.012,40.378],[-120.916,40.423],[-120.866,40.393],[-120.835,40.342],[-120.825,40.281],[-121.002,40.008],[-121.038,39.973],[-121.099,39.988]]]}},{"type":"Feature","properties":{"density":2},"geometry":{"type":"Polygon","coordinates":[[[-121.255,40.889],[-121.24,41.0],[-121.154,41.152],[-121.068,41.188],[-120.977,41.167],[-120.957,41.071],[-121.038,40.95],[-121.124,40.879],[-121.195,40.848],[-121.225,40.853],[-121.255,40.889]]]}},{"type":"Feature","properties":{"density":2},"geometry":{"type":"Polygon","coordinates":[[[-77.269,66.556],[-76.577,67.12],[-75.808,67.3],[-74.808,67.428],[-73.501,67.53],[-72.092,67.479],[-70.708,67.223],[-69.529,66.941],[-68.504,66.531],[-67.786,65.993],[-66.838,65.172],[-66.171,63.763],[-65.886,63.028],[-65.601,61.969],[-65.635,61.616],[-65.624,61.377],[-65.464,61.126],[-65.02,60.773],[-64.685,60.662],[-64.2,60.306],[-63.557,59.56],[-63.084,59.338],[-62.711,59.124],[-62.122,58.868],[-61.686,58.509],[-61.276,57.561],[-61.174,56.536],[-61.456,55.844],[-61.968,55.613],[-62.25,55.51],[-62.788,55.51],[-63.762,56.049],[-64.198,56.125],[-65.992,55.895],[-66.889,55.92],[-67.991,56.049],[-69.862,56.869],[-70.938,57.484],[-72.399,59.303],[-72.681,60.098],[-72.553,60.636],[-72.322,61.277],[-72.322,61.841],[-72.681,62.2],[-73.527,62.533],[-74.501,62.712],[-74.885,62.738],[-76.346,63.02],[-77.14,63.532],[-77.73,63.891],[-78.089,64.557],[-77.986,65.326],[-77.73,65.967],[-77.345,66.377],[-77.269,66.556]]]}},{"type":"Feature","properties":{"density":3},"geometry":{"type":"Polygon","coordinates":[[[-109.576,37.845],[-109.6,37.93],[-109.573,37.977],[-109.515,37.988],[-109.436,37.975],[-109.325,37.906],[-109.285,37.853],[-109.272,37.737],[-109.306,37.703],[-109.349,37.689],[-109.402,37.703],[-109.483,37.753],[-109.576,37.845]]]}},{"type":"Feature","properties":{"density":3},"geometry":{"type":"Polygon","coordinates":[[[-115.282,67.305],[-116.867,67.546],[-118.372,67.586],[-119.998,67.867],[-120.6,68.007],[-121.583,68.067],[-122.727,68.168],[-123.831,68.087],[-124.573,67.806],[-124.974,67.546],[-125.175,67.305],[-125.215,67.084],[-125.255,66.422],[-125.396,65.137],[-125.576,64.395],[-125.677,63.833],[-125.677,63.291],[-125.396,62.709],[-124.934,62.448],[-124.272,62.288],[-123.028,62.268],[-121.282,62.569],[-120.459,62.769],[-119.255,63.331],[-117.911,64.214],[-117.188,64.575],[-116.767,64.736],[-114.72,65.418],[-113.556,65.86],[-112.191,66.101],[-110.164,66.261],[-109.643,66.442],[-109.301,66.763],[-109.281,67.044],[-109.382,67.265],[-109.663,67.465],[-110.104,67.525],[-110.827,67.465],[-111.991,67.325],[-113.415,67.265],[-114.419,67.244],[-115.282,67.305]]]}},{"type":"Feature","properties":{"density":3},"geometry":{"type":"Polygon","coordinates":[[[-124.054,64.785],[-123.907,65.622],[-123.677,66.48],[-123.363,67.213],[-122.924,67.82],[-122.212,68.196],[-121.271,68.426],[-120.371,68.51],[-119.513,68.405],[-117.504,68.113],[-116.144,68.071],[-114.261,67.966],[-112.9,67.945],[-111.143,67.799],[-108.422,67.715],[-103.798,67.401],[-102.165,67.359],[-100.366,67.213],[-98.064,67.338],[-97.038,67.422],[-96.034,67.527],[-95.051,67.715],[-94.506,67.652],[-94.234,67.38],[-94.193,67.192],[-94.276,66.92],[-94.695,66.773],[-95.825,66.606],[-97.311,66.418],[-98.315,66.25],[-99.361,66.104],[-100.136,65.978],[-101.161,66.041],[-101.935,66.145],[-102.814,66.208],[-103.609,66.292],[-104.907,66.313],[-106.288,66.271],[-107.878,66.187],[-109.092,66.104],[-110.201,66.02],[-111.938,65.811],[-112.733,65.664],[-113.507,65.434],[-114.135,65.099],[-114.888,64.534],[-115.495,64.158],[-116.248,63.865],[-117.274,63.53],[-118.362,63.279],[-119.262,63.027],[-119.931,62.86],[-120.476,62.797],[-120.957,62.651],[-121.689,62.567],[-122.275,62.525],[-123.133,62.735],[-123.74,63.111],[-124.033,63.509],[-124.159,64.199],[-124.054,64.785]]]}},{"type":"Feature","properties":{"density":3},"geometry":{"type":"Polygon","coordinates":[[[-78.881,50.851],[-78.886,50.958],[-78.85,51.057],[-78.72,51.288],[-78.642,51.384],[-78.534,51.421],[-78.464,51.421],[-78.352,51.375],[-78.282,51.317],[-78.233,51.247],[-78.191,51.16],[-78.195,51.102],[-78.216,51.057],[-78.29,50.983],[-78.522,50.883],[-78.715,50.826],[-78.838,50.829],[-78.881,50.851]]]}},{"type":"Feature","properties":{"density":3},"geometry":{"type":"Polygon","coordinates":[[[-78.593,51.683],[-78.63,51.729],[-78.637,51.766],[-78.617,51.78],[-78.541,51.771],[-78.494,51.786],[-78.352,51.88],[-78.31,51.889],[-78.273,51.883],[-78.143,51.806],[-77.983,51.797],[-77.952,51.733],[-77.977,51.661],[-78.099,51.6],[-78.29,51.599],[-78.341,51.665],[-78.359,51.668],[-78.464,51.63],[-78.582,51.632],[-78.598,51.644],[-78.593,51.683]]]}},{"type":"Feature","properties":{"density":3},"geometry":{"type":"Polygon","coordinates":[[[-78.436,50.585],[-78.487,50.551],[-78.5,50.486],[-78.466,50.416],[-78.423,50.396],[-78.344,50.415],[-78.314,50.458],[-78.229,50.512],[-78.246,50.552],[-78.436,50.585]]]}},{"type":"Feature","properties":{"density":3},"geometry":{"type":"Polygon","coordinates":[[[-78.674,50.409],[-78.716,50.405],[-78.804,50.338],[-78.959,50.317],[-79.05,50.284],[-79.1,50.245],[-79.105,50.186],[-79.082,50.153],[-78.921,50.071],[-78.892,50.032],[-78.832,49.995],[-78.74,49.949],[-78.648,49.944],[-78.566,50.022],[-78.485,50.049],[-78.447,50.102],[-78.413,50.197],[-78.386,50.216],[-78.277,50.233],[-78.254,50.257],[-78.277,50.298],[-78.502,50.388],[-78.674,50.409]]]}},{"type":"Feature","properties":{"density":3},"geometry":{"type":"Polygon","coordinates":[[[-109.466,38.027],[-109.516,38.069],[-109.607,38.098],[-109.706,38.085],[-109.76,38.048],[-109.78,38.003],[-109.76,37.895],[-109.714,37.821],[-109.569,37.693],[-109.396,37.593],[-109.309,37.581],[-109.247,37.602],[-109.222,37.651],[-109.226,37.755],[-109.305,37.903],[-109.367,37.974],[-109.466,38.027]]]}},{"type":"Feature","properties":{"density":3},"geometry":{"type":"Polygon","coordinates":[[[-107.656,38.281],[-107.711,38.266],[-107.75,38.225],[-107.776,38.16],[-107.778,38.086],[-107.763,38.011],[-107.693,37.945],[-107.652,37.941],[-107.556,37.961],[-107.507,38.003],[-107.482,38.085],[-107.482,38.151],[-107.49,38.222],[-107.511,38.255],[-107.598,38.284],[-107.656,38.281]]]}},{"type":"Feature","properties":{"density":3},"geometry":{"type":"Polygon","coordinates":[[[-108.814,37.789],[-108.85,37.896],[-108.845,37.963],[-108.814,37.985],[-108.76,37.933],[-108.752,37.865],[-108.767,37.795],[-108.796,37.779],[-108.814,37.789]]]}},{"type":"Feature","properties":{"density":3},"geometry":{"type":"Polygon","coordinates":[[[-102.849,56.479],[-102.892,56.48],[-103.019,56.436],[-103.171,56.276],[-103.193,56.229],[-103.176,56.099],[-103.149,56.042],[-103.055,55.986],[-103.025,56.011],[-103.0,56.105],[-102.95,56.207],[-102.862,56.301],[-102.807,56.328],[-102.796,56.361],[-102.807,56.414],[-102.849,56.479]]]}},{"type":"Feature","properties":{"density":3},"geometry":{"type":"Polygon","coordinates":[[[-125.042,66.656],[-124.646,67.447],[-124.036,68.166],[-123.461,68.453],[-122.491,68.525],[-120.946,68.273],[-119.796,68.13],[-118.574,68.058],[-117.317,68.058],[-116.059,68.273],[-114.945,68.561],[-113.795,68.776],[-112.071,68.884],[-110.13,69.1],[-108.98,69.172],[-107.507,69.208],[-106.25,69.136],[-104.956,69.1],[-103.231,68.74],[-101.866,68.381],[-100.644,68.202],[-97.914,67.842],[-96.476,67.878],[-94.716,68.022],[-93.71,68.13],[-93.278,68.094],[-92.919,67.95],[-92.668,67.591],[-92.596,67.339],[-92.632,66.908],[-92.775,66.728],[-93.278,66.513],[-93.997,66.369],[-94.931,66.477],[-96.8,66.477],[-97.842,66.369],[-100.105,65.83],[-101.147,65.65],[-101.83,65.507],[-103.339,65.507],[-106.034,65.399],[-107.435,65.471],[-108.477,65.471],[-109.879,65.435],[-111.711,65.004],[-113.148,64.572],[-113.975,64.249],[-115.053,63.854],[-116.167,63.495],[-117.496,62.991],[-118.754,62.74],[-119.868,62.381],[-120.478,62.273],[-121.305,61.985],[-122.059,61.626],[-122.67,61.554],[-123.784,61.662],[-124.503,61.985],[-125.185,62.848],[-125.509,63.423],[-125.688,64.465],[-125.437,65.471],[-125.293,65.794],[-125.221,66.333],[-125.042,66.656]]]}},{"type":"Feature","properties":{"density":3},"geometry":{"type":"Polygon","coordinates":[[[-78.586,51.644],[-78.633,51.764],[-78.633,51.819],[-78.582,51.901],[-78.513,51.933],[-78.363,51.885],[-78.298,51.899],[-78.225,51.947],[-78.107,51.96],[-77.899,51.863],[-77.871,51.844],[-77.854,51.796],[-77.888,51.695],[-77.976,51.632],[-78.143,51.55],[-78.277,51.552],[-78.332,51.642],[-78.365,51.653],[-78.498,51.619],[-78.586,51.644]]]}},{"type":"Feature","properties":{"density":3},"geometry":{"type":"Polygon","coordinates":[[[-79.079,50.91],[-79.057,50.966],[-79.016,51.011],[-78.747,51.163],[-78.701,51.219],[-78.631,51.389],[-78.55,51.454],[-78.467,51.488],[-78.382,51.499],[-78.24,51.48],[-78.178,51.448],[-78.095,51.328],[-78.087,51.196],[-78.14,51.13],[-78.383,50.986],[-78.516,50.852],[-78.552,50.833],[-78.66,50.809],[-78.827,50.851],[-78.871,50.822],[-78.902,50.833],[-78.911,50.902],[-79.076,50.881],[-79.079,50.91]]]}},{"type":"Feature","properties":{"density":3},"geometry":{"type":"Polygon","coordinates":[[[-79.111,50.242],[-78.974,50.358],[-78.879,50.408],[-78.715,50.464],[-78.673,50.497],[-78.576,50.638],[-78.427,50.74],[-78.302,50.742],[-78.142,50.699],[-78.082,50.649],[-78.024,50.553],[-78.026,50.495],[-78.095,50.421],[-78.07,50.292],[-78.078,50.257],[-78.182,50.205],[-78.194,50.118],[-78.265,50.022],[-78.368,49.999],[-78.495,49.894],[-78.617,49.881],[-78.746,49.912],[-78.804,49.945],[-78.924,50.113],[-79.128,50.184],[-79.111,50.242]]]}},{"type":"Feature","properties":{"density":3},"geometry":{"type":"Polygon","coordinates":[[[-77.96,50.974],[-77.943,51.004],[-77.896,51.024],[-77.769,51.02],[-77.698,50.997],[-77.694,50.927],[-77.725,50.889],[-77.824,50.875],[-77.939,50.908],[-77.96,50.974]]]}},{"type":"Feature","properties":{"density":3},"geometry":{"type":"Polygon","coordinates":[[[-75.002,55.007],[-74.966,55.051],[-74.93,55.066],[-74.798,55.076],[-74.652,55.037],[-74.629,55.022],[-74.621,54.986],[-74.654,54.936],[-74.697,54.935],[-74.91,54.982],[-75.002,54.986],[-75.002,55.007]]]}},{"type":"Feature","properties":{"density":3},"geometry":{"type":"Polygon","coordinates":[[[-76.135,54.809],[-76.104,54.857],[-76.043,54.872],[-75.974,54.861],[-75.954,54.825],[-75.963,54.808],[-75.993,54.803],[-76.135,54.809]]]}},{"type":"Feature","properties":{"density":3},"geometry":{"type":"Polygon","coordinates":[[[-109.513,37.921],[-109.535,37.956],[-109.589,37.989],[-109.666,38.014],[-109.745,38.017],[-109.8,37.996],[-109.88,37.928],[-109.952,37.776],[-109.968,37.672],[-109.945,37.548],[-109.894,37.462],[-109.806,37.425],[-109.733,37.444],[-109.557,37.705],[-109.498,37.767],[-109.477,37.855],[-109.513,37.921]]]}},{"type":"Feature","properties":{"density":3},"geometry":{"type":"Polygon","coordinates":[[[-108.785,37.866],[-108.835,37.876],[-108.955,37.842],[-109.11,37.773],[-109.24,37.673],[-109.275,37.626],[-109.285,37.559],[-109.273,37.529],[-109.222,37.496],[-109.173,37.488],[-109.077,37.5],[-108.842,37.714],[-108.756,37.754],[-108.734,37.787],[-108.736,37.832],[-108.785,37.866]]]}},{"type":"Feature","properties":{"density":3},"geometry":{"type":"Polygon","coordinates":[[[-107.526,38.248],[-107.575,38.269],[-107.658,38.248],[-107.707,38.226],[-107.762,38.147],[-107.786,37.951],[-107.772,37.901],[-107.736,37.852],[-107.638,37.815],[-107.538,37.827],[-107.384,37.886],[-107.303,37.988],[-107.294,38.076],[-107.319,38.143],[-107.457,38.181],[-107.526,38.248]]]}},{"type":"Feature","properties":{"density":3},"geometry":{"type":"Polygon","coordinates":[[[-102.829,56.54],[-102.996,56.479],[-103.06,56.433],[-103.146,56.305],[-103.17,56.213],[-103.173,56.11],[-103.158,56.061],[-103.118,56.015],[-103.009,55.991],[-102.926,56.043],[-102.823,56.137],[-102.606,56.235],[-102.539,56.317],[-102.548,56.403],[-102.582,56.467],[-102.63,56.5],[-102.737,56.537],[-102.829,56.54]]]}},{"type":"Feature","properties":{"density":3},"geometry":{"type":"Polygon","coordinates":[[[-89.745,51.383],[-89.715,51.416],[-89.544,51.507],[-89.345,51.57],[-89.286,51.572],[-89.257,51.55],[-89.257,51.483],[-89.275,51.448],[-89.353,51.42],[-89.652,51.381],[-89.719,51.359],[-89.745,51.365],[-89.745,51.383]]]}},{"type":"Feature","properties":{"density":3},"geometry":{"type":"Polygon","coordinates":[[[-123.019,42.573],[-123.043,42.693],[-123.011,42.772],[-122.962,42.813],[-122.895,42.809],[-122.834,42.777],[-122.781,42.677],[-122.828,42.567],[-122.858,42.547],[-122.952,42.539],[-122.994,42.547],[-123.019,42.573]]]}},{"type":"Feature","properties":{"density":3},"geometry":{"type":"Polygon","coordinates":[[[-127.556,66.026],[-127.479,66.641],[-127.121,67.948],[-126.582,68.614],[-125.66,69.229],[-124.635,69.511],[-123.071,69.64],[-121.944,69.358],[-120.637,68.896],[-119.791,68.461],[-118.05,67.657],[-116.743,67.503],[-114.744,67.811],[-113.629,67.965],[-111.399,68.234],[-107.516,68.81],[-102.749,69.156],[-100.866,69.118],[-99.405,68.887],[-96.445,68.157],[-95.291,67.811],[-94.478,67.709],[-92.701,67.606],[-91.676,67.675],[-90.255,68.003],[-88.795,68.272],[-88.064,68.387],[-86.719,68.464],[-84.412,68.657],[-81.757,68.717],[-81.424,68.691],[-81.142,68.563],[-81.117,68.409],[-81.296,68.281],[-81.937,68.204],[-84.414,67.572],[-86.037,66.974],[-86.883,66.769],[-88.113,66.615],[-88.652,66.513],[-89.6,66.487],[-90.369,66.308],[-91.83,66.154],[-93.675,65.898],[-94.521,65.975],[-95.366,66.0],[-96.289,65.898],[-97.263,65.77],[-98.134,65.616],[-99.416,65.334],[-100.364,65.18],[-101.184,65.283],[-101.748,65.436],[-102.508,65.71],[-103.363,65.975],[-104.413,66.18],[-105.9,66.051],[-108.232,65.949],[-109.283,65.846],[-110.616,65.59],[-111.974,65.359],[-113.23,65.078],[-114.357,64.693],[-115.254,64.437],[-116.664,64.001],[-117.535,63.642],[-118.304,63.386],[-120.585,62.258],[-121.175,61.797],[-121.884,61.421],[-123.609,61.003],[-124.378,61.028],[-125.019,61.156],[-125.788,61.361],[-126.634,61.976],[-127.249,62.95],[-127.454,63.719],[-127.403,64.24],[-127.368,64.992],[-127.428,65.462],[-127.556,66.026]]]}},{"type":"Feature","properties":{"density":3},"geometry":{"type":"Polygon","coordinates":[[[-77.228,51.907],[-77.363,52.031],[-77.475,52.092],[-77.545,52.156],[-77.674,52.224],[-77.856,52.261],[-77.92,52.298],[-78.018,52.426],[-78.126,52.494],[-78.345,52.524],[-78.42,52.467],[-78.436,52.42],[-78.42,52.345],[-78.355,52.258],[-78.362,52.177],[-78.524,51.964],[-78.602,51.741],[-78.609,51.67],[-78.582,51.589],[-78.544,51.562],[-78.538,51.444],[-78.578,51.4],[-78.791,51.275],[-78.872,51.201],[-78.98,51.086],[-79.108,50.914],[-79.091,50.874],[-78.966,50.857],[-78.983,50.773],[-78.956,50.749],[-78.764,50.705],[-78.666,50.722],[-78.649,50.719],[-78.649,50.698],[-78.723,50.665],[-78.764,50.56],[-78.791,50.54],[-78.848,50.519],[-79.007,50.523],[-79.051,50.513],[-79.095,50.479],[-79.138,50.411],[-79.176,50.3],[-79.084,50.141],[-78.845,50.077],[-78.804,50.01],[-78.69,50.006],[-78.619,50.027],[-78.544,50.027],[-78.457,49.993],[-78.288,49.784],[-78.234,49.76],[-78.126,49.753],[-77.88,49.797],[-77.812,49.858],[-77.765,49.939],[-77.66,49.993],[-77.583,50.01],[-77.529,50.054],[-77.495,50.125],[-77.383,50.206],[-77.343,50.287],[-77.353,50.476],[-77.367,50.53],[-77.481,50.695],[-77.68,50.85],[-77.701,50.911],[-77.684,50.948],[-77.647,50.955],[-77.579,50.918],[-77.414,50.793],[-77.367,50.722],[-77.316,50.681],[-77.235,50.654],[-77.151,50.668],[-77.093,50.658],[-76.962,50.712],[-76.908,50.759],[-76.897,50.813],[-76.911,50.881],[-77.245,51.124],[-77.36,51.154],[-77.562,51.073],[-77.775,51.022],[-77.819,51.026],[-77.876,51.086],[-77.819,51.171],[-77.697,51.279],[-77.704,51.383],[-77.778,51.539],[-77.772,51.596],[-77.728,51.613],[-77.458,51.556],[-77.23,51.569],[-77.192,51.598],[-77.167,51.718],[-77.174,51.846],[-77.228,51.907]]]}},{"type":"Feature","properties":{"density":3},"geometry":{"type":"Polygon","coordinates":[[[-77.008,51.998],[-77.001,52.038],[-76.76,52.207],[-76.524,52.281],[-76.387,52.288],[-76.22,52.328],[-76.141,52.319],[-76.103,52.263],[-76.119,52.207],[-76.308,52.157],[-76.351,52.121],[-76.387,52.052],[-76.501,51.993],[-76.909,51.989],[-76.981,51.966],[-77.014,51.984],[-77.008,51.998]]]}},{"type":"Feature","properties":{"density":3},"geometry":{"type":"Polygon","coordinates":[[[-76.212,52.496],[-76.165,52.519],[-76.009,52.528],[-75.979,52.499],[-75.994,52.456],[-76.015,52.445],[-76.17,52.456],[-76.21,52.469],[-76.212,52.496]]]}},{"type":"Feature","properties":{"density":3},"geometry":{"type":"Polygon","coordinates":[[[-75.003,55.013],[-74.957,55.062],[-74.853,55.106],[-74.757,55.118],[-74.61,55.1],[-74.414,55.034],[-74.265,54.962],[-74.217,54.924],[-74.201,54.848],[-74.279,54.801],[-74.465,54.752],[-74.531,54.783],[-74.565,54.894],[-74.603,54.93],[-74.637,54.936],[-74.721,54.891],[-74.789,54.887],[-74.837,54.905],[-74.919,54.971],[-74.991,54.971],[-75.012,54.992],[-75.003,55.013]]]}},{"type":"Feature","properties":{"density":3},"geometry":{"type":"Polygon","coordinates":[[[-76.141,54.845],[-76.055,54.908],[-75.983,54.924],[-75.905,54.92],[-75.858,54.887],[-75.869,54.814],[-75.932,54.785],[-76.102,54.77],[-76.159,54.8],[-76.141,54.845]]]}},{"type":"Feature","properties":{"density":3},"geometry":{"type":"Polygon","coordinates":[[[-74.053,51.045],[-74.091,51.023],[-74.129,50.969],[-74.136,50.834],[-74.082,50.775],[-74.015,50.764],[-73.97,50.795],[-73.949,50.856],[-73.952,50.926],[-73.983,51.02],[-74.053,51.045]]]}},{"type":"Feature","properties":{"density":3},"geometry":{"type":"Polygon","coordinates":[[[-109.577,38.042],[-109.678,38.039],[-109.766,37.981],[-109.82,37.88],[-109.938,37.752],[-110.198,37.647],[-110.545,37.458],[-110.586,37.391],[-110.596,37.327],[-110.549,37.232],[-110.468,37.148],[-110.323,37.077],[-110.184,37.04],[-110.012,37.07],[-109.745,37.215],[-109.499,37.495],[-109.425,37.546],[-109.33,37.549],[-109.239,37.607],[-109.205,37.691],[-109.286,37.914],[-109.411,38.002],[-109.577,38.042]]]}},{"type":"Feature","properties":{"density":3},"geometry":{"type":"Polygon","coordinates":[[[-108.76,37.873],[-108.838,37.904],[-108.949,37.921],[-109.101,37.917],[-109.138,37.86],[-109.148,37.762],[-109.128,37.728],[-108.919,37.708],[-108.827,37.735],[-108.743,37.806],[-108.76,37.873]]]}},{"type":"Feature","properties":{"density":3},"geometry":{"type":"Polygon","coordinates":[[[-107.322,38.268],[-107.403,38.309],[-107.636,38.316],[-107.758,38.292],[-107.923,38.224],[-107.95,38.174],[-107.947,38.11],[-107.882,37.965],[-107.903,37.762],[-107.862,37.695],[-107.764,37.597],[-107.693,37.566],[-107.582,37.58],[-107.38,37.708],[-107.302,37.819],[-107.272,37.914],[-107.261,38.103],[-107.268,38.187],[-107.322,38.268]]]}},{"type":"Feature","properties":{"density":3},"geometry":{"type":"Polygon","coordinates":[[[-112.535,40.271],[-112.617,40.296],[-112.777,40.283],[-112.816,40.256],[-112.828,40.22],[-112.807,40.127],[-112.693,40.058],[-112.63,40.046],[-112.474,40.086],[-112.449,40.14],[-112.45,40.192],[-112.471,40.232],[-112.535,40.271]]]}},{"type":"Feature","properties":{"density":3},"geometry":{"type":"Polygon","coordinates":[[[-123.039,42.627],[-122.983,42.745],[-122.848,42.897],[-122.635,43.181],[-122.554,43.235],[-122.47,43.197],[-122.416,43.076],[-122.477,42.884],[-122.581,42.701],[-122.784,42.573],[-122.878,42.549],[-123.0,42.57],[-123.039,42.627]]]}},{"type":"Feature","properties":{"density":3},"geometry":{"type":"Polygon","coordinates":[[[-118.592,44.744],[-118.619,44.862],[-118.565,45.045],[-118.457,45.244],[-118.288,45.497],[-117.826,45.804],[-117.657,45.882],[-117.198,46.027],[-116.884,46.027],[-116.847,45.966],[-116.843,45.929],[-116.897,45.885],[-117.296,45.706],[-117.714,45.406],[-117.913,45.315],[-118.069,45.217],[-118.133,45.112],[-118.133,45.051],[-118.075,44.95],[-118.092,44.906],[-118.119,44.876],[-118.214,44.845],[-118.268,44.802],[-118.416,44.646],[-118.501,44.64],[-118.551,44.66],[-118.592,44.744]]]}},{"type":"Feature","properties":{"density":3},"geometry":{"type":"Polygon","coordinates":[[[-91.485,48.606],[-91.435,48.674],[-90.969,48.978],[-90.834,49.022],[-90.655,49.038],[-90.594,49.025],[-90.54,48.978],[-90.513,48.9],[-90.551,48.833],[-91.023,48.633],[-91.094,48.617],[-91.283,48.62],[-91.34,48.6],[-91.374,48.559],[-91.428,48.529],[-91.479,48.542],[-91.485,48.606]]]}}]}