{"type":"FeatureCollection","features":[{"type":"Feature","properties":{"density":1},"geometry":{"type":"Polygon","coordinates":[[[-105.097,46.971],[-105.191,46.971],[-106.0,47.244],[-106.294,47.391],[-106.661,47.549],[-107.039,47.685],[-107.826,47.79],[-108.246,47.811],[-109.055,47.801],[-109.454,47.727],[-110.598,47.37],[-111.238,47.139],[-111.983,46.824],[-112.151,46.782],[-112.414,46.646],[-112.697,46.3],[-112.718,45.943],[-112.571,45.649],[-112.466,45.491],[-112.214,45.439],[-111.899,45.397],[-110.503,45.481],[-109.107,45.943],[-108.057,46.048],[-107.008,46.048],[-106.483,46.027],[-105.517,45.88],[-105.307,45.869],[-105.076,45.88],[-104.866,45.953],[-104.719,46.048],[-104.614,46.184],[-104.572,46.331],[-104.562,46.426],[-104.625,46.678],[-104.677,46.814],[-104.866,46.929],[-105.097,46.971]]]}},{"type":"Feature","properties":{"density":1},"geometry":{"type":"Polygon","coordinates":[[[-99.512,46.887],[-99.806,46.887],[-100.394,46.772],[-100.887,46.699],[-101.192,46.615],[-102.221,46.384],[-103.9,45.943],[-104.131,45.859],[-104.142,45.638],[-104.089,45.302],[-103.732,44.935],[-103.459,44.704],[-102.714,44.62],[-100.562,45.008],[-99.953,45.145],[-99.722,45.26],[-99.113,45.743],[-98.725,45.995],[-98.567,46.132],[-98.483,46.3],[-98.483,46.468],[-98.557,46.583],[-98.641,46.636],[-99.029,46.782],[-99.449,46.877],[-99.512,46.887]]]}},{"type":"Feature","properties":{"density":1},"geometry":{"type":"Polygon","coordinates":[[[-105.18,34.366],[-105.421,34.03],[-105.495,33.894],[-105.516,33.801],[-105.495,33.6],[-105.474,33.548],[-105.4,33.485],[-105.327,33.485],[-105.211,33.569],[-105.19,33.621],[-105.19,33.716],[-105.159,33.82],[-105.085,33.904],[-104.991,34.072],[-104.97,34.261],[-105.009,34.346],[-105.096,34.387],[-105.18,34.366]]]}},{"type":"Feature","properties":{"density":1},"geometry":{"type":"Polygon","coordinates":[[[-92.838,27.385],[-93.33,27.881],[-93.653,28.766],[-94.007,29.829],[-94.362,30.821],[-94.362,32.947],[-94.68,34.506],[-95.177,35.144],[-96.31,35.64],[-97.054,35.604],[-97.692,35.002],[-98.117,33.797],[-97.834,32.309],[-97.798,31.459],[-98.259,30.254],[-98.861,29.333],[-99.357,28.518],[-99.676,27.42],[-99.782,26.995],[-100.03,25.648],[-100.066,24.869],[-100.066,24.338],[-99.959,22.743],[-99.747,21.751],[-100.03,20.972],[-100.385,20.724],[-100.881,21.078],[-101.766,21.751],[-102.298,22.85],[-103.361,23.239],[-104.99,22.956],[-105.841,22.46],[-106.372,22.035],[-106.549,21.007],[-106.549,20.511],[-106.868,19.625],[-107.754,18.775],[-108.179,18.279],[-108.817,17.429],[-109.242,16.933],[-109.951,16.189],[-110.305,15.728],[-110.305,14.984],[-110.022,14.559],[-108.108,13.957],[-106.16,13.319],[-103.786,13.0],[-100.845,12.752],[-99.676,12.221],[-98.294,11.618],[-96.098,11.193],[-94.645,11.193],[-93.653,11.477],[-92.944,11.796],[-91.917,12.292],[-90.819,12.929],[-90.11,13.567],[-90.11,14.524],[-91.067,16.118],[-91.952,16.791],[-92.696,17.783],[-93.44,19.307],[-93.192,21.574],[-93.192,22.247],[-93.299,22.602],[-93.37,23.098],[-93.795,24.231],[-93.759,24.763],[-93.582,25.294],[-93.086,25.684],[-92.874,26.038],[-92.732,26.357],[-92.448,26.711],[-92.413,26.853],[-92.484,27.137],[-92.838,27.385]]]}},{"type":"Feature","properties":{"density":1},"geometry":{"type":"Polygon","coordinates":[[[-82.121,29.341],[-82.168,29.332],[-82.177,29.297],[-82.166,29.267],[-82.108,29.264],[-82.104,29.33],[-82.121,29.341]]]}},{"type":"Feature","properties":{"density":1},"geometry":{"type":"Polygon","coordinates":[[[-108.257,29.339],[-108.279,29.362],[-108.37,29.354],[-108.439,29.294],[-108.446,29.233],[-108.416,29.202],[-108.219,29.172],[-108.15,29.21],[-108.15,29.263],[-108.203,29.278],[-108.257,29.339]]]}},{"type":"Feature","properties":{"density":1},"geometry":{"type":"Polygon","coordinates":[[[-105.12,20.137],[-105.117,20.215],[-105.135,20.283],[-105.207,20.32],[-105.258,20.317],[-105.312,20.284],[-105.324,20.259],[-105.314,20.079],[-105.272,19.986],[-105.243,19.99],[-105.192,20.061],[-105.125,20.115],[-105.12,20.137]]]}},{"type":"Feature","properties":{"density":1},"geometry":{"type":"Polygon","coordinates":[[[-104.681,20.145],[-104.787,20.187],[-104.88,20.193],[-104.928,20.178],[-105.018,19.926],[-105.012,19.891],[-104.964,19.878],[-104.864,19.936],[-104.771,19.935],[-104.739,19.953],[-104.661,20.056],[-104.667,20.131],[-104.681,20.145]]]}},{"type":"Feature","properties":{"density":1},"geometry":{"type":"Polygon","coordinates":[[[-104.676,19.59],[-104.729,19.641],[-104.85,19.645],[-104.891,19.62],[-104.919,19.567],[-104.88,19.372],[-104.798,19.315],[-104.45,19.186],[-104.319,19.195],[-104.231,19.227],[-104.174,19.275],[-104.153,19.342],[-104.187,19.414],[-104.24,19.416],[-104.354,19.359],[-104.417,19.363],[-104.369,19.426],[-104.28,19.489],[-104.285,19.519],[-104.462,19.614],[-104.534,19.626],[-104.589,19.614],[-104.64,19.542],[-104.667,19.566],[-104.676,19.59]]]}},{"type":"Feature","properties":{"density":1},"geometry":{"type":"Polygon","coordinates":[[[-98.592,16.871],[-98.74,17.041],[-98.817,17.044],[-98.989,16.955],[-99.087,16.88],[-99.108,16.841],[-99.111,16.781],[-99.084,16.73],[-99.025,16.685],[-98.976,16.67],[-98.808,16.669],[-98.688,16.691],[-98.605,16.729],[-98.563,16.766],[-98.551,16.799],[-98.562,16.843],[-98.592,16.871]]]}},{"type":"Feature","properties":{"density":1},"geometry":{"type":"Polygon","coordinates":[[[-96.666,17.692],[-96.799,17.717],[-96.876,17.693],[-96.943,17.64],[-96.91,17.616],[-96.743,17.605],[-96.654,17.643],[-96.64,17.684],[-96.656,17.688],[-96.666,17.692]]]}},{"type":"Feature","properties":{"density":1},"geometry":{"type":"Polygon","coordinates":[[[-92.624,16.025],[-92.814,16.023],[-92.823,15.999],[-92.801,15.985],[-92.622,15.98],[-92.607,15.991],[-92.612,16.016],[-92.624,16.025]]]}},{"type":"Feature","properties":{"density":1},"geometry":{"type":"Polygon","coordinates":[[[-100.765,19.364],[-100.804,19.395],[-100.833,19.499],[-100.869,19.537],[-100.925,19.523],[-100.921,19.404],[-100.896,19.319],[-100.842,19.294],[-100.77,19.289],[-100.716,19.321],[-100.738,19.355],[-100.765,19.364]]]}},{"type":"Feature","properties":{"density":1},"geometry":{"type":"Polygon","coordinates":[[[-103.241,20.284],[-103.478,20.442],[-103.763,20.761],[-103.883,20.815],[-103.934,20.815],[-103.991,20.784],[-104.004,20.759],[-103.943,20.671],[-103.685,20.395],[-103.509,20.253],[-103.336,20.165],[-103.253,20.138],[-103.147,20.127],[-103.005,20.131],[-102.938,20.176],[-102.931,20.201],[-102.947,20.237],[-103.203,20.262],[-103.241,20.284]]]}},{"type":"Feature","properties":{"density":1},"geometry":{"type":"Polygon","coordinates":[[[-103.95,19.346],[-104.328,19.734],[-104.51,19.957],[-104.618,20.2],[-104.713,20.271],[-105.108,20.382],[-105.246,20.399],[-105.327,20.402],[-105.438,20.379],[-105.503,20.335],[-105.543,20.247],[-105.543,19.943],[-105.435,19.623],[-105.334,19.403],[-105.263,19.275],[-105.037,19.002],[-104.925,18.924],[-104.733,18.752],[-104.544,18.695],[-104.24,18.637],[-103.889,18.627],[-103.812,18.664],[-103.744,18.715],[-103.7,18.786],[-103.626,18.965],[-103.646,19.039],[-103.687,19.093],[-103.893,19.289],[-103.95,19.346]]]}},{"type":"Feature","properties":{"density":1},"geometry":{"type":"Polygon","coordinates":[[[-104.201,21.688],[-104.373,21.975],[-104.393,22.174],[-104.17,22.674],[-104.133,22.775],[-104.127,22.863],[-104.16,22.92],[-104.238,22.971],[-104.343,22.978],[-104.403,22.957],[-104.498,22.876],[-104.575,22.738],[-104.626,22.539],[-104.646,22.512],[-104.663,22.522],[-104.697,22.633],[-104.751,22.708],[-104.808,22.738],[-104.913,22.704],[-105.088,22.566],[-105.284,22.303],[-105.318,22.147],[-105.308,22.029],[-105.264,21.911],[-105.166,21.823],[-104.974,21.742],[-104.822,21.634],[-104.66,21.364],[-104.444,21.175],[-104.336,21.169],[-104.268,21.209],[-104.204,21.28],[-104.164,21.351],[-104.127,21.52],[-104.164,21.628],[-104.201,21.688]]]}},{"type":"Feature","properties":{"density":1},"geometry":{"type":"Polygon","coordinates":[[[-105.345,23.528],[-105.385,23.696],[-105.433,23.75],[-105.477,23.767],[-105.571,23.767],[-105.632,23.74],[-105.709,23.619],[-105.743,23.484],[-105.747,23.335],[-105.733,23.264],[-105.615,23.167],[-105.558,23.14],[-105.321,23.102],[-105.24,23.116],[-105.217,23.146],[-105.237,23.21],[-105.348,23.312],[-105.342,23.477],[-105.345,23.528]]]}},{"type":"Feature","properties":{"density":1},"geometry":{"type":"Polygon","coordinates":[[[-94.216,31.952],[-94.302,31.947],[-94.383,31.85],[-94.525,31.749],[-94.56,31.699],[-94.565,31.653],[-94.449,31.658],[-94.231,31.785],[-94.181,31.85],[-94.181,31.896],[-94.216,31.952]]]}},{"type":"Feature","properties":{"density":1},"geometry":{"type":"Polygon","coordinates":[[[-121.255,35.985],[-121.215,35.958],[-121.175,35.983],[-121.246,36.094],[-121.273,36.109],[-121.311,36.094],[-121.321,36.07],[-121.305,36.01],[-121.281,35.989],[-121.255,35.985]]]}},{"type":"Feature","properties":{"density":1},"geometry":{"type":"Polygon","coordinates":[[[-108.299,29.567],[-108.383,29.452],[-108.403,29.395],[-108.413,29.243],[-108.4,29.213],[-108.366,29.199],[-108.312,29.23],[-108.288,29.385],[-108.194,29.466],[-108.16,29.527],[-108.167,29.608],[-108.187,29.625],[-108.248,29.608],[-108.299,29.567]]]}},{"type":"Feature","properties":{"density":1},"geometry":{"type":"Polygon","coordinates":[[[-104.593,22.108],[-104.643,22.113],[-104.694,22.159],[-104.78,22.29],[-104.8,22.402],[-104.886,22.498],[-104.967,22.493],[-105.059,22.412],[-105.069,22.326],[-104.998,21.971],[-104.937,21.921],[-104.795,21.86],[-104.684,21.84],[-104.633,21.85],[-104.512,21.911],[-104.476,21.981],[-104.476,22.042],[-104.512,22.088],[-104.593,22.108]]]}},{"type":"Feature","properties":{"density":1},"geometry":{"type":"Polygon","coordinates":[[[-104.441,20.204],[-104.618,20.311],[-104.674,20.372],[-104.942,20.493],[-105.119,20.508],[-105.236,20.488],[-105.352,20.437],[-105.423,20.356],[-105.448,20.255],[-105.443,20.083],[-105.337,19.784],[-105.2,19.617],[-104.937,19.445],[-104.527,19.253],[-104.218,19.131],[-104.016,18.974],[-103.778,18.716],[-103.646,18.691],[-103.52,18.797],[-103.479,18.924],[-103.54,19.116],[-103.732,19.481],[-104.097,19.906],[-104.173,20.017],[-104.304,20.129],[-104.441,20.204]]]}},{"type":"Feature","properties":{"density":1},"geometry":{"type":"Polygon","coordinates":[[[-93.116,17.078],[-93.194,17.18],[-93.251,17.335],[-93.288,17.362],[-93.437,17.399],[-93.801,17.605],[-93.896,17.605],[-93.957,17.571],[-93.99,17.5],[-93.997,17.419],[-93.943,17.207],[-93.876,17.078],[-93.741,16.937],[-93.437,16.808],[-93.366,16.802],[-93.275,16.835],[-93.238,16.869],[-93.224,16.937],[-93.106,17.004],[-93.093,17.038],[-93.116,17.078]]]}},{"type":"Feature","properties":{"density":1},"geometry":{"type":"Polygon","coordinates":[[[-81.977,27.674],[-81.852,27.545],[-81.605,27.218],[-81.558,27.181],[-81.494,27.194],[-81.497,27.259],[-81.848,27.718],[-81.889,27.758],[-81.953,27.785],[-81.98,27.772],[-81.994,27.731],[-81.977,27.711],[-81.977,27.674]]]}},{"type":"Feature","properties":{"density":1},"geometry":{"type":"Polygon","coordinates":[[[-84.481,30.043],[-84.515,30.337],[-84.555,30.495],[-84.66,30.731],[-84.704,30.765],[-84.758,30.748],[-84.775,30.718],[-84.771,30.583],[-84.673,30.185],[-84.586,29.959],[-84.542,29.945],[-84.488,29.982],[-84.481,30.043]]]}},{"type":"Feature","properties":{"density":1},"geometry":{"type":"Polygon","coordinates":[[[-98.452,52.473],[-98.59,52.453],[-98.857,52.497],[-99.39,52.686],[-99.677,52.848],[-99.859,53.013],[-99.879,53.044],[-99.879,53.128],[-99.842,53.148],[-99.717,53.155],[-99.555,53.105],[-99.339,53.01],[-99.241,52.922],[-99.086,52.851],[-98.62,52.787],[-98.465,52.743],[-97.928,52.521],[-97.8,52.45],[-97.702,52.355],[-97.692,52.315],[-97.702,52.247],[-97.793,52.187],[-97.901,52.2],[-98.097,52.301],[-98.306,52.45],[-98.414,52.477],[-98.452,52.473]]]}},{"type":"Feature","properties":{"density":1},"geometry":{"type":"Polygon","coordinates":[[[-98.117,51.427],[-98.293,51.586],[-98.549,51.748],[-98.61,51.751],[-98.661,51.734],[-98.668,51.687],[-98.556,51.593],[-98.36,51.39],[-98.05,51.14],[-97.854,51.005],[-97.601,50.931],[-97.55,50.928],[-97.503,50.951],[-97.503,51.002],[-97.571,51.1],[-97.804,51.208],[-98.067,51.38],[-98.117,51.427]]]}},{"type":"Feature","properties":{"density":1},"geometry":{"type":"Polygon","coordinates":[[[-103.868,51.395],[-104.043,51.532],[-104.696,51.805],[-104.818,51.805],[-104.924,51.744],[-104.894,51.653],[-104.605,51.547],[-104.081,51.213],[-103.846,51.22],[-103.808,51.258],[-103.8,51.319],[-103.868,51.395]]]}},{"type":"Feature","properties":{"density":1},"geometry":{"type":"Polygon","coordinates":[[[-103.056,52.033],[-103.147,52.139],[-103.238,52.215],[-103.398,52.299],[-103.443,52.284],[-103.436,52.2],[-103.284,52.033],[-103.155,51.949],[-103.117,51.942],[-103.026,51.98],[-103.056,52.033]]]}},{"type":"Feature","properties":{"density":1},"geometry":{"type":"Polygon","coordinates":[[[-99.284,50.67],[-99.899,50.687],[-100.343,50.789],[-101.009,51.097],[-101.761,51.37],[-102.479,51.729],[-102.889,52.02],[-103.128,52.156],[-103.401,52.208],[-104.17,52.259],[-105.674,52.259],[-106.152,52.276],[-106.819,52.378],[-107.058,52.378],[-107.263,52.276],[-107.263,52.156],[-107.212,51.968],[-106.989,51.678],[-106.511,51.285],[-106.238,51.012],[-105.964,50.875],[-105.537,50.533],[-104.615,49.867],[-104.239,49.679],[-103.914,49.542],[-103.641,49.474],[-103.333,49.303],[-102.769,49.03],[-101.351,48.38],[-99.779,47.868],[-99.044,47.697],[-98.446,47.697],[-98.019,47.765],[-97.507,47.765],[-96.994,47.714],[-96.601,47.56],[-95.815,47.424],[-95.268,47.663],[-94.79,47.953],[-94.585,48.397],[-94.517,48.825],[-94.585,49.013],[-94.653,49.337],[-95.029,49.747],[-95.781,50.243],[-96.191,50.362],[-96.635,50.396],[-98.105,50.602],[-98.617,50.636],[-99.284,50.67]]]}},{"type":"Feature","properties":{"density":1},"geometry":{"type":"Polygon","coordinates":[[[-109.77,48.349],[-110.196,48.141],[-110.302,48.035],[-110.403,47.888],[-110.454,47.787],[-110.494,47.569],[-110.51,47.382],[-110.499,47.255],[-110.464,47.21],[-110.403,47.185],[-110.297,47.179],[-109.932,47.412],[-109.224,47.66],[-109.128,47.721],[-108.844,47.995],[-108.571,48.197],[-108.419,48.283],[-108.237,48.425],[-108.216,48.506],[-108.287,48.587],[-108.419,48.648],[-108.51,48.729],[-108.616,48.779],[-108.849,48.789],[-108.915,48.759],[-109.031,48.668],[-109.122,48.455],[-109.239,48.349],[-109.31,48.329],[-109.669,48.349],[-109.77,48.349]]]}},{"type":"Feature","properties":{"density":1},"geometry":{"type":"Polygon","coordinates":[[[-113.574,42.202],[-113.655,42.263],[-113.689,42.333],[-113.723,42.346],[-113.849,42.324],[-113.925,42.256],[-113.943,42.211],[-113.939,42.18],[-113.885,42.101],[-113.768,42.04],[-113.698,42.045],[-113.633,42.072],[-113.585,42.121],[-113.554,42.184],[-113.574,42.202]]]}},{"type":"Feature","properties":{"density":1},"geometry":{"type":"Polygon","coordinates":[[[-107.556,30.32],[-107.678,30.225],[-108.235,29.55],[-108.528,29.324],[-108.545,29.287],[-108.542,29.186],[-108.491,29.135],[-108.386,29.135],[-108.316,29.169],[-108.056,29.317],[-107.877,29.459],[-107.765,29.621],[-107.617,29.918],[-107.529,30.05],[-107.435,30.138],[-107.246,30.256],[-107.222,30.306],[-107.225,30.387],[-107.263,30.404],[-107.347,30.408],[-107.522,30.337],[-107.556,30.32]]]}},{"type":"Feature","properties":{"density":1},"geometry":{"type":"Polygon","coordinates":[[[-94.155,31.934],[-94.175,31.949],[-94.266,31.949],[-94.661,31.701],[-94.808,31.59],[-94.848,31.524],[-94.843,31.478],[-94.762,31.458],[-94.671,31.499],[-94.145,31.807],[-94.119,31.838],[-94.114,31.873],[-94.155,31.934]]]}},{"type":"Feature","properties":{"density":1},"geometry":{"type":"Polygon","coordinates":[[[-104.295,22.144],[-104.279,22.317],[-104.279,22.681],[-104.295,22.772],[-104.325,22.803],[-104.497,22.818],[-104.644,22.752],[-104.806,22.651],[-105.029,22.418],[-105.14,22.291],[-105.206,22.185],[-105.231,22.003],[-105.13,21.81],[-105.034,21.77],[-104.953,21.77],[-104.679,21.891],[-104.411,21.947],[-104.345,21.977],[-104.29,22.053],[-104.295,22.144]]]}},{"type":"Feature","properties":{"density":1},"geometry":{"type":"Polygon","coordinates":[[[-93.472,17.044],[-93.607,17.13],[-93.656,17.206],[-93.726,17.517],[-93.782,17.573],[-93.823,17.573],[-93.915,17.526],[-93.935,17.472],[-93.933,17.406],[-93.854,17.114],[-93.784,16.999],[-93.645,16.828],[-93.602,16.81],[-93.51,16.812],[-93.458,16.837],[-93.418,16.878],[-93.395,16.936],[-93.395,16.995],[-93.436,17.024],[-93.472,17.044]]]}},{"type":"Feature","properties":{"density":1},"geometry":{"type":"Polygon","coordinates":[[[-90.453,17.299],[-90.615,17.366],[-90.73,17.447],[-90.791,17.518],[-90.919,17.589],[-91.027,17.629],[-91.091,17.629],[-91.179,17.569],[-91.176,17.525],[-91.128,17.464],[-90.845,17.346],[-90.781,17.285],[-90.713,17.248],[-90.544,17.231],[-90.521,17.211],[-90.463,17.204],[-90.42,17.231],[-90.416,17.261],[-90.453,17.299]]]}},{"type":"Feature","properties":{"density":1},"geometry":{"type":"Polygon","coordinates":[[[-91.059,19.477],[-91.475,20.181],[-91.649,20.964],[-91.52,21.579],[-91.264,22.578],[-91.187,23.373],[-91.392,24.5],[-91.649,25.167],[-91.879,26.371],[-92.238,27.935],[-92.315,28.447],[-92.315,29.216],[-92.443,29.985],[-92.648,30.651],[-93.289,31.19],[-93.673,31.343],[-94.186,31.318],[-94.801,31.087],[-96.057,30.37],[-96.774,29.78],[-97.364,29.319],[-98.03,28.499],[-98.466,27.909],[-98.85,27.268],[-99.183,26.781],[-99.465,26.295],[-99.619,25.577],[-99.67,24.962],[-99.696,24.398],[-99.619,23.117],[-99.542,22.604],[-99.183,22.04],[-98.978,21.63],[-98.543,21.015],[-98.338,20.374],[-98.44,19.939],[-99.107,19.734],[-99.773,19.682],[-100.875,20.22],[-101.362,20.4],[-102.259,20.81],[-103.489,21.553],[-104.027,21.733],[-104.694,21.733],[-105.257,21.528],[-106.206,21.271],[-106.616,21.117],[-107.231,20.938],[-108.384,20.656],[-108.769,20.4],[-109.076,20.092],[-109.102,19.375],[-108.974,18.657],[-108.871,17.786],[-109.102,16.761],[-109.256,16.248],[-109.256,15.684],[-109.153,14.967],[-108.589,14.018],[-107.923,13.583],[-107.051,13.224],[-106.257,13.019],[-105.001,12.737],[-104.181,12.865],[-103.258,13.198],[-102.438,13.454],[-100.362,13.07],[-99.286,12.711],[-97.825,12.557],[-96.928,12.66],[-95.98,12.66],[-94.955,12.583],[-93.827,12.455],[-92.802,12.199],[-92.187,12.301],[-91.777,12.583],[-91.469,12.891],[-91.469,13.352],[-91.93,14.018],[-92.11,14.608],[-92.033,15.095],[-91.751,15.428],[-91.341,15.556],[-90.7,15.915],[-90.29,16.453],[-90.136,17.094],[-90.29,17.863],[-90.854,19.17],[-91.059,19.477]]]}},{"type":"Feature","properties":{"density":2},"geometry":{"type":"Polygon","coordinates":[[[-105.152,20.154],[-105.143,20.208],[-105.177,20.289],[-105.252,20.301],[-105.3,20.274],[-105.302,20.178],[-105.284,20.131],[-105.24,20.106],[-105.152,20.139],[-105.152,20.154]]]}},{"type":"Feature","properties":{"density":2},"geometry":{"type":"Polygon","coordinates":[[[-104.708,20.125],[-104.772,20.163],[-104.871,20.16],[-104.919,20.139],[-104.931,20.115],[-104.895,20.022],[-104.864,19.995],[-104.775,20.013],[-104.718,20.064],[-104.7,20.106],[-104.708,20.125]]]}},{"type":"Feature","properties":{"density":2},"geometry":{"type":"Polygon","coordinates":[[[-104.685,19.549],[-104.702,19.602],[-104.763,19.632],[-104.811,19.626],[-104.85,19.561],[-104.796,19.368],[-104.774,19.335],[-104.738,19.324],[-104.669,19.384],[-104.687,19.528],[-104.685,19.549]]]}},{"type":"Feature","properties":{"density":2},"geometry":{"type":"Polygon","coordinates":[[[-98.715,16.925],[-98.778,16.964],[-98.853,16.952],[-98.922,16.886],[-98.997,16.849],[-99.004,16.805],[-98.97,16.775],[-98.74,16.76],[-98.638,16.817],[-98.638,16.844],[-98.703,16.904],[-98.715,16.925]]]}},{"type":"Feature","properties":{"density":2},"geometry":{"type":"Polygon","coordinates":[[[-96.706,17.693],[-96.816,17.698],[-96.856,17.677],[-96.867,17.652],[-96.822,17.621],[-96.705,17.629],[-96.674,17.657],[-96.694,17.687],[-96.706,17.693]]]}},{"type":"Feature","properties":{"density":2},"geometry":{"type":"Polygon","coordinates":[[[-103.588,20.505],[-103.631,20.586],[-103.748,20.71],[-103.869,20.788],[-103.932,20.786],[-103.923,20.714],[-103.703,20.473],[-103.466,20.305],[-103.43,20.289],[-103.379,20.293],[-103.399,20.368],[-103.541,20.444],[-103.577,20.485],[-103.588,20.505]]]}},{"type":"Feature","properties":{"density":2},"geometry":{"type":"Polygon","coordinates":[[[-104.544,19.825],[-104.618,19.933],[-104.63,20.082],[-104.657,20.163],[-104.801,20.228],[-104.956,20.233],[-105.156,20.32],[-105.345,20.334],[-105.417,20.316],[-105.476,20.28],[-105.534,20.181],[-105.53,20.05],[-105.406,19.753],[-105.08,19.353],[-105.044,19.272],[-105.021,19.15],[-104.969,19.087],[-104.742,19.006],[-104.54,18.955],[-104.157,18.916],[-104.049,19.02],[-104.004,19.193],[-104.011,19.249],[-104.069,19.366],[-104.369,19.693],[-104.51,19.758],[-104.531,19.792],[-104.544,19.825]]]}},{"type":"Feature","properties":{"density":2},"geometry":{"type":"Polygon","coordinates":[[[-98.173,19.527],[-98.515,19.715],[-98.925,19.988],[-99.301,20.193],[-100.326,20.586],[-100.736,20.842],[-101.351,21.116],[-101.898,21.458],[-102.445,21.44],[-102.769,21.184],[-103.043,20.877],[-103.213,20.535],[-103.299,20.159],[-103.231,19.783],[-103.231,19.476],[-103.333,18.758],[-103.043,18.177],[-102.496,17.921],[-100.394,16.742],[-100.001,16.673],[-99.779,16.776],[-99.437,17.015],[-98.959,17.237],[-98.583,17.289],[-98.344,17.289],[-97.934,17.357],[-97.592,17.494],[-97.49,17.733],[-97.438,18.28],[-97.421,18.69],[-97.558,19.066],[-97.695,19.202],[-97.9,19.356],[-98.173,19.527]]]}},{"type":"Feature","properties":{"density":2},"geometry":{"type":"Polygon","coordinates":[[[-93.867,16.195],[-94.277,16.332],[-94.602,16.571],[-94.927,17.118],[-94.961,17.374],[-95.081,17.579],[-95.251,17.733],[-95.508,17.921],[-95.781,17.904],[-95.986,17.767],[-96.225,17.545],[-96.413,16.844],[-96.516,16.537],[-96.704,16.212],[-96.704,16.058],[-96.67,15.802],[-96.396,15.529],[-96.277,15.272],[-96.191,14.897],[-96.037,14.555],[-95.679,14.367],[-95.098,14.281],[-94.636,14.384],[-94.38,14.692],[-94.141,15.375],[-93.833,15.614],[-93.748,15.734],[-93.714,15.888],[-93.714,16.058],[-93.867,16.195]]]}},{"type":"Feature","properties":{"density":2},"geometry":{"type":"Polygon","coordinates":[[[-104.727,22.171],[-104.812,22.296],[-104.788,22.424],[-104.741,22.471],[-104.748,22.62],[-104.791,22.66],[-104.852,22.66],[-104.97,22.613],[-105.007,22.579],[-105.055,22.441],[-105.092,22.232],[-105.122,22.181],[-105.139,22.053],[-105.065,21.972],[-104.899,21.921],[-104.677,21.695],[-104.511,21.601],[-104.397,21.597],[-104.282,21.661],[-104.275,21.702],[-104.484,22.043],[-104.484,22.08],[-104.478,22.134],[-104.376,22.411],[-104.248,22.664],[-104.211,22.802],[-104.204,22.866],[-104.221,22.9],[-104.37,22.917],[-104.444,22.876],[-104.518,22.802],[-104.565,22.363],[-104.633,22.154],[-104.673,22.134],[-104.69,22.141],[-104.727,22.171]]]}},{"type":"Feature","properties":{"density":2},"geometry":{"type":"Polygon","coordinates":[[[-105.483,23.609],[-105.527,23.649],[-105.615,23.656],[-105.642,23.636],[-105.645,23.585],[-105.527,23.491],[-105.456,23.464],[-105.429,23.47],[-105.419,23.494],[-105.436,23.545],[-105.483,23.609]]]}},{"type":"Feature","properties":{"density":2},"geometry":{"type":"Polygon","coordinates":[[[-105.615,23.393],[-105.662,23.413],[-105.679,23.403],[-105.679,23.325],[-105.618,23.281],[-105.585,23.308],[-105.578,23.356],[-105.615,23.393]]]}},{"type":"Feature","properties":{"density":2},"geometry":{"type":"Polygon","coordinates":[[[-104.856,20.21],[-105.008,20.26],[-105.028,20.311],[-105.109,20.356],[-105.216,20.341],[-105.256,20.285],[-105.281,20.134],[-105.276,20.078],[-105.231,20.022],[-105.054,20.037],[-104.988,20.032],[-104.876,19.992],[-104.745,19.992],[-104.669,20.032],[-104.649,20.144],[-104.689,20.194],[-104.805,20.199],[-104.856,20.21]]]}},{"type":"Feature","properties":{"density":2},"geometry":{"type":"Polygon","coordinates":[[[-104.289,19.582],[-104.633,19.683],[-104.78,19.703],[-104.831,19.632],[-104.836,19.531],[-104.745,19.47],[-104.684,19.45],[-104.613,19.45],[-104.522,19.42],[-104.421,19.359],[-104.345,19.349],[-104.249,19.369],[-104.198,19.4],[-104.178,19.501],[-104.233,19.551],[-104.289,19.582]]]}},{"type":"Feature","properties":{"density":2},"geometry":{"type":"Polygon","coordinates":[[[-93.298,17.318],[-93.457,17.348],[-93.575,17.399],[-93.822,17.575],[-93.906,17.568],[-93.933,17.548],[-93.96,17.477],[-93.916,17.244],[-93.825,17.112],[-93.72,17.038],[-93.656,17.024],[-93.575,17.031],[-93.322,17.163],[-93.268,17.217],[-93.271,17.288],[-93.298,17.318]]]}},{"type":"Feature","properties":{"density":2},"geometry":{"type":"Polygon","coordinates":[[[-84.704,30.448],[-84.609,30.168],[-84.589,30.04],[-84.542,30.016],[-84.511,30.036],[-84.508,30.117],[-84.599,30.485],[-84.646,30.58],[-84.67,30.596],[-84.7,30.59],[-84.731,30.559],[-84.727,30.515],[-84.704,30.448]]]}},{"type":"Feature","properties":{"density":2},"geometry":{"type":"Polygon","coordinates":[[[-99.413,53.007],[-99.623,53.051],[-99.781,53.105],[-99.832,53.111],[-99.859,53.094],[-99.856,53.061],[-99.562,52.868],[-99.13,52.689],[-98.749,52.588],[-98.664,52.578],[-98.617,52.602],[-98.607,52.642],[-98.63,52.696],[-98.674,52.73],[-98.792,52.764],[-98.887,52.767],[-99.221,52.828],[-99.322,52.885],[-99.373,52.99],[-99.413,53.007]]]}},{"type":"Feature","properties":{"density":2},"geometry":{"type":"Polygon","coordinates":[[[-113.691,42.294],[-113.705,42.321],[-113.75,42.335],[-113.86,42.292],[-113.918,42.238],[-113.912,42.159],[-113.842,42.094],[-113.795,42.076],[-113.7,42.076],[-113.624,42.126],[-113.59,42.177],[-113.602,42.211],[-113.671,42.247],[-113.678,42.265],[-113.691,42.294]]]}},{"type":"Feature","properties":{"density":2},"geometry":{"type":"Polygon","coordinates":[[[-107.921,29.834],[-107.995,29.756],[-108.15,29.537],[-108.197,29.496],[-108.44,29.375],[-108.488,29.311],[-108.481,29.223],[-108.44,29.199],[-108.326,29.206],[-108.147,29.314],[-108.008,29.429],[-107.836,29.766],[-107.83,29.834],[-107.863,29.834],[-107.921,29.834]]]}},{"type":"Feature","properties":{"density":2},"geometry":{"type":"Polygon","coordinates":[[[-104.36,22.529],[-104.355,22.676],[-104.411,22.803],[-104.477,22.803],[-104.558,22.762],[-104.705,22.6],[-104.902,22.489],[-104.988,22.418],[-105.12,22.134],[-105.145,22.058],[-105.145,21.993],[-105.039,21.912],[-104.958,21.912],[-104.715,22.053],[-104.568,22.048],[-104.371,22.236],[-104.35,22.423],[-104.36,22.529]]]}},{"type":"Feature","properties":{"density":2},"geometry":{"type":"Polygon","coordinates":[[[-102.477,19.942],[-102.751,19.957],[-103.237,20.033],[-103.48,20.087],[-103.867,20.185],[-104.459,20.428],[-104.603,20.443],[-104.968,20.428],[-105.15,20.337],[-105.249,20.261],[-105.302,20.155],[-105.332,20.033],[-105.287,19.859],[-105.067,19.487],[-104.854,19.312],[-104.619,19.183],[-104.095,18.932],[-103.89,18.818],[-103.662,18.651],[-103.138,18.363],[-102.318,18.135],[-102.037,18.127],[-101.885,18.089],[-101.642,18.074],[-101.05,17.922],[-100.624,17.892],[-100.48,17.983],[-100.381,18.181],[-100.381,18.272],[-100.495,18.499],[-100.753,18.773],[-101.126,18.993],[-101.429,19.122],[-101.536,19.137],[-102.219,19.35],[-102.295,19.441],[-102.295,19.509],[-102.318,19.563],[-102.325,19.836],[-102.378,19.897],[-102.477,19.942]]]}},{"type":"Feature","properties":{"density":2},"geometry":{"type":"Polygon","coordinates":[[[-92.813,17.827],[-92.993,17.861],[-93.299,18.021],[-93.474,18.016],[-93.596,17.967],[-93.719,17.895],[-93.767,17.769],[-93.753,17.58],[-93.609,17.328],[-93.542,17.267],[-93.481,17.254],[-93.238,17.413],[-93.308,17.53],[-93.303,17.557],[-93.272,17.575],[-93.231,17.575],[-93.029,17.485],[-92.446,17.472],[-92.396,17.49],[-92.374,17.519],[-92.372,17.573],[-92.394,17.659],[-92.763,17.805],[-92.813,17.827]]]}},{"type":"Feature","properties":{"density":2},"geometry":{"type":"Polygon","coordinates":[[[-93.766,17.415],[-93.776,17.512],[-93.803,17.538],[-93.844,17.53],[-93.869,17.463],[-93.865,17.289],[-93.808,17.098],[-93.79,17.082],[-93.761,17.086],[-93.727,17.119],[-93.718,17.179],[-93.743,17.368],[-93.757,17.385],[-93.766,17.415]]]}},{"type":"Feature","properties":{"density":2},"geometry":{"type":"Polygon","coordinates":[[[-90.452,17.27],[-90.603,17.333],[-90.922,17.534],[-90.979,17.534],[-90.994,17.509],[-90.979,17.455],[-90.776,17.315],[-90.664,17.259],[-90.614,17.259],[-90.495,17.219],[-90.459,17.225],[-90.439,17.25],[-90.452,17.27]]]}},{"type":"Feature","properties":{"density":2},"geometry":{"type":"Polygon","coordinates":[[[-92.8,18.542],[-93.723,18.935],[-93.928,19.533],[-93.928,20.234],[-94.065,20.746],[-94.543,21.173],[-95.107,21.361],[-95.619,21.361],[-95.978,21.156],[-96.388,21.037],[-96.85,20.986],[-97.106,20.917],[-97.277,20.712],[-97.208,20.268],[-96.815,19.824],[-96.371,19.414],[-95.961,18.901],[-95.483,18.047],[-95.466,17.295],[-95.654,16.629],[-95.807,16.424],[-96.098,16.321],[-96.833,16.253],[-97.157,16.253],[-98.046,16.304],[-99.19,16.509],[-99.635,16.543],[-100.591,16.526],[-101.07,16.372],[-101.275,16.27],[-101.839,15.843],[-102.608,15.398],[-103.103,15.142],[-103.462,14.835],[-103.564,14.151],[-103.103,13.587],[-102.505,13.228],[-101.241,12.733],[-100.831,12.716],[-100.335,12.938],[-99.737,13.092],[-98.746,13.246],[-97.858,13.57],[-96.867,13.416],[-95.312,12.887],[-94.748,12.836],[-94.082,13.075],[-93.655,13.399],[-93.313,13.809],[-93.142,14.271],[-93.074,14.664],[-93.176,15.005],[-93.398,15.279],[-93.962,15.621],[-94.304,15.979],[-93.894,16.338],[-93.279,16.663],[-92.937,17.004],[-92.817,17.466],[-92.766,17.739],[-92.732,18.149],[-92.674,18.3],[-92.681,18.423],[-92.8,18.542]]]}},{"type":"Feature","properties":{"density":3},"geometry":{"type":"Polygon","coordinates":[[[-105.164,20.202],[-105.198,20.281],[-105.251,20.289],[-105.278,20.272],[-105.288,20.196],[-105.267,20.157],[-105.201,20.157],[-105.165,20.19],[-105.164,20.202]]]}},{"type":"Feature","properties":{"density":3},"geometry":{"type":"Polygon","coordinates":[[[-103.694,20.617],[-103.858,20.766],[-103.887,20.782],[-103.928,20.779],[-103.928,20.75],[-103.736,20.577],[-103.676,20.557],[-103.673,20.597],[-103.694,20.617]]]}},{"type":"Feature","properties":{"density":3},"geometry":{"type":"Polygon","coordinates":[[[-104.315,19.454],[-104.396,19.51],[-104.387,19.623],[-104.425,19.657],[-104.481,19.65],[-104.546,19.58],[-104.582,19.497],[-104.589,19.342],[-104.578,19.297],[-104.54,19.281],[-104.513,19.292],[-104.398,19.382],[-104.36,19.398],[-104.288,19.398],[-104.285,19.434],[-104.315,19.454]]]}},{"type":"Feature","properties":{"density":3},"geometry":{"type":"Polygon","coordinates":[[[-104.652,19.477],[-104.684,19.612],[-104.735,19.623],[-104.758,19.609],[-104.747,19.459],[-104.787,19.427],[-104.884,19.418],[-104.9,19.398],[-104.913,19.308],[-104.861,19.22],[-104.83,19.209],[-104.796,19.218],[-104.731,19.267],[-104.668,19.353],[-104.643,19.447],[-104.652,19.477]]]}},{"type":"Feature","properties":{"density":3},"geometry":{"type":"Polygon","coordinates":[[[-104.706,20.172],[-104.787,20.161],[-104.909,20.176],[-104.938,20.158],[-105.001,19.915],[-104.983,19.897],[-104.94,19.895],[-104.715,20.014],[-104.684,20.086],[-104.688,20.154],[-104.706,20.172]]]}},{"type":"Feature","properties":{"density":3},"geometry":{"type":"Polygon","coordinates":[[[-105.1,20.212],[-105.147,20.235],[-105.17,20.273],[-105.219,20.293],[-105.291,20.287],[-105.314,20.257],[-105.314,20.224],[-105.226,20.118],[-105.118,20.14],[-105.077,20.163],[-105.08,20.197],[-105.1,20.212]]]}},{"type":"Feature","properties":{"density":3},"geometry":{"type":"Polygon","coordinates":[[[-93.687,17.44],[-93.832,17.544],[-93.889,17.504],[-93.906,17.453],[-93.889,17.359],[-93.828,17.234],[-93.717,17.139],[-93.602,17.129],[-93.464,17.2],[-93.454,17.284],[-93.592,17.375],[-93.687,17.44]]]}},{"type":"Feature","properties":{"density":3},"geometry":{"type":"Polygon","coordinates":[[[-113.664,42.198],[-113.689,42.216],[-113.707,42.276],[-113.732,42.301],[-113.804,42.292],[-113.88,42.252],[-113.891,42.22],[-113.853,42.148],[-113.768,42.108],[-113.687,42.112],[-113.646,42.135],[-113.624,42.162],[-113.619,42.202],[-113.633,42.211],[-113.651,42.195],[-113.664,42.198]]]}},{"type":"Feature","properties":{"density":3},"geometry":{"type":"Polygon","coordinates":[[[-108.184,29.483],[-108.417,29.358],[-108.44,29.287],[-108.427,29.233],[-108.41,29.22],[-108.332,29.226],[-108.143,29.382],[-108.1,29.436],[-108.123,29.483],[-108.137,29.483],[-108.184,29.483]]]}},{"type":"Feature","properties":{"density":3},"geometry":{"type":"Polygon","coordinates":[[[-105.069,20.351],[-105.191,20.276],[-105.245,20.206],[-105.231,20.158],[-105.157,20.152],[-105.069,20.074],[-105.015,20.067],[-104.941,20.084],[-104.897,20.128],[-104.873,20.222],[-104.89,20.283],[-104.948,20.33],[-105.015,20.347],[-105.069,20.351]]]}},{"type":"Feature","properties":{"density":3},"geometry":{"type":"Polygon","coordinates":[[[-93.029,17.852],[-93.312,17.96],[-93.569,17.913],[-93.708,17.839],[-93.728,17.796],[-93.704,17.683],[-93.546,17.332],[-93.461,17.314],[-93.407,17.35],[-93.413,17.476],[-93.443,17.566],[-93.443,17.625],[-93.42,17.683],[-93.362,17.697],[-93.258,17.672],[-93.022,17.571],[-92.835,17.539],[-92.655,17.537],[-92.547,17.553],[-92.529,17.571],[-92.534,17.645],[-92.804,17.773],[-92.975,17.827],[-93.029,17.852]]]}},{"type":"Feature","properties":{"density":3},"geometry":{"type":"Polygon","coordinates":[[[-93.797,17.514],[-93.821,17.527],[-93.845,17.506],[-93.862,17.37],[-93.811,17.194],[-93.779,17.167],[-93.752,17.206],[-93.752,17.278],[-93.788,17.364],[-93.79,17.487],[-93.797,17.514]]]}}]}