{"type":"FeatureCollection","features":[{"type":"Feature","properties":{"density":1},"geometry":{"type":"Polygon","coordinates":[[[-93.242,31.369],[-93.366,31.286],[-93.498,31.238],[-93.518,31.247],[-93.49,31.286],[-93.352,31.371],[-93.256,31.402],[-93.242,31.369]]]}},{"type":"Feature","properties":{"density":1},"geometry":{"type":"Polygon","coordinates":[[[-92.017,31.755],[-92.087,31.707],[-92.231,31.659],[-92.401,31.674],[-92.401,31.692],[-92.375,31.711],[-92.237,31.723],[-91.981,31.844],[-91.971,31.799],[-92.017,31.755]]]}},{"type":"Feature","properties":{"density":1},"geometry":{"type":"Polygon","coordinates":[[[-111.601,39.165],[-111.653,39.11],[-111.671,39.032],[-111.617,39.052],[-111.536,39.146],[-111.553,39.175],[-111.601,39.165]]]}},{"type":"Feature","properties":{"density":1},"geometry":{"type":"Polygon","coordinates":[[[-113.918,44.172],[-114.219,43.936],[-114.235,43.9],[-114.222,43.879],[-114.188,43.868],[-113.855,44.077],[-113.776,44.149],[-113.774,44.201],[-113.79,44.217],[-113.846,44.217],[-113.918,44.172]]]}},{"type":"Feature","properties":{"density":1},"geometry":{"type":"Polygon","coordinates":[[[-115.852,30.682],[-115.963,30.61],[-115.99,30.56],[-116.001,30.493],[-115.999,30.434],[-115.918,30.153],[-115.897,30.02],[-115.852,29.899],[-115.733,29.775],[-115.679,29.766],[-115.627,29.777],[-115.6,29.822],[-115.589,30.061],[-115.632,30.425],[-115.72,30.668],[-115.852,30.682]]]}},{"type":"Feature","properties":{"density":1},"geometry":{"type":"Polygon","coordinates":[[[-96.132,46.858],[-97.08,46.627],[-98.156,46.832],[-100.027,47.652],[-101.027,47.857],[-102.026,47.909],[-102.872,47.781],[-104.205,47.242],[-106.153,46.32],[-106.691,45.987],[-107.152,45.602],[-107.485,45.192],[-107.895,44.577],[-108.28,44.116],[-108.587,43.577],[-108.69,42.937],[-108.126,42.193],[-106.486,41.168],[-104.23,41.296],[-102.078,41.604],[-101.36,41.553],[-99.745,40.963],[-98.079,40.066],[-97.772,39.4],[-97.772,39.195],[-98.028,38.477],[-98.438,37.939],[-99.181,36.863],[-99.72,36.171],[-100.437,35.094],[-101.104,33.915],[-101.924,31.532],[-102.078,30.02],[-102.18,29.174],[-102.231,28.277],[-102.308,27.559],[-102.257,26.509],[-102.026,25.432],[-101.616,24.638],[-100.822,24.023],[-99.412,23.407],[-98.9,23.407],[-98.156,23.587],[-97.362,24.074],[-96.337,24.945],[-95.67,25.791],[-94.799,26.996],[-93.774,27.611],[-92.595,28.174],[-91.877,28.559],[-91.108,29.02],[-90.519,29.507],[-90.083,30.276],[-89.801,31.122],[-88.904,32.557],[-88.75,33.352],[-88.289,34.454],[-87.879,35.351],[-87.162,36.017],[-86.188,36.709],[-85.265,37.247],[-84.394,37.657],[-83.676,37.913],[-82.548,37.965],[-80.831,38.221],[-80.447,38.324],[-79.422,38.477],[-78.858,38.682],[-78.115,39.169],[-77.833,40.015],[-77.781,40.707],[-77.833,41.527],[-78.678,42.014],[-79.319,42.04],[-80.062,41.963],[-81.779,41.348],[-82.369,41.168],[-83.497,40.784],[-84.086,40.681],[-85.214,40.451],[-86.982,40.374],[-89.084,40.425],[-89.827,40.604],[-90.647,41.091],[-91.083,41.655],[-91.083,42.501],[-90.698,43.244],[-90.032,43.706],[-89.186,43.834],[-88.264,43.936],[-87.315,43.936],[-85.906,43.859],[-84.496,43.654],[-83.317,43.296],[-80.959,43.116],[-80.421,43.193],[-79.652,43.603],[-79.217,44.577],[-79.473,45.551],[-80.19,46.192],[-81.267,46.474],[-81.984,46.627],[-85.342,46.781],[-87.956,46.755],[-92.339,46.755],[-96.132,46.858]]]}},{"type":"Feature","properties":{"density":2},"geometry":{"type":"Polygon","coordinates":[[[-93.359,31.321],[-93.258,31.364],[-93.252,31.389],[-93.28,31.39],[-93.376,31.344],[-93.378,31.326],[-93.359,31.321]]]}},{"type":"Feature","properties":{"density":2},"geometry":{"type":"Polygon","coordinates":[[[-92.053,31.743],[-91.976,31.799],[-91.977,31.824],[-92.053,31.805],[-92.124,31.757],[-92.094,31.734],[-92.053,31.743]]]}},{"type":"Feature","properties":{"density":2},"geometry":{"type":"Polygon","coordinates":[[[-115.925,30.328],[-115.863,30.04],[-115.771,29.928],[-115.719,29.922],[-115.689,29.963],[-115.681,30.126],[-115.729,30.266],[-115.727,30.471],[-115.762,30.565],[-115.805,30.592],[-115.876,30.601],[-115.937,30.558],[-115.945,30.479],[-115.925,30.328]]]}},{"type":"Feature","properties":{"density":2},"geometry":{"type":"Polygon","coordinates":[[[-92.051,40.927],[-92.349,40.999],[-92.592,41.212],[-92.666,41.474],[-92.666,41.799],[-92.529,42.397],[-92.393,42.704],[-92.307,43.131],[-92.461,43.678],[-92.803,44.088],[-93.52,44.601],[-94.289,44.977],[-94.99,45.011],[-95.673,44.669],[-95.929,44.481],[-96.015,44.156],[-95.741,43.678],[-95.195,43.234],[-94.87,42.943],[-94.443,42.482],[-94.34,42.209],[-94.358,41.969],[-94.563,41.679],[-94.956,41.508],[-95.571,41.286],[-96.134,41.269],[-96.767,41.32],[-97.04,41.166],[-97.279,40.876],[-97.365,40.21],[-96.972,39.629],[-96.408,39.458],[-95.417,39.338],[-94.204,39.714],[-93.93,39.714],[-93.862,39.56],[-93.93,39.304],[-94.255,39.048],[-94.631,38.706],[-95.485,37.988],[-95.605,37.561],[-95.793,37.083],[-95.827,36.519],[-95.673,35.767],[-95.383,35.374],[-94.511,34.571],[-93.76,34.435],[-93.11,34.247],[-92.751,33.922],[-92.683,33.649],[-92.803,33.392],[-93.247,33.051],[-94.17,32.675],[-94.614,32.316],[-94.819,31.957],[-94.836,31.513],[-94.733,31.376],[-94.153,31.017],[-93.486,31.017],[-92.871,31.171],[-92.0,31.667],[-91.573,31.855],[-90.906,31.923],[-90.411,31.923],[-89.727,32.196],[-89.351,32.623],[-89.351,33.068],[-89.454,33.461],[-89.761,33.7],[-90.325,33.871],[-90.616,33.922],[-90.855,34.007],[-91.162,34.315],[-91.18,34.435],[-91.538,34.998],[-91.743,35.169],[-92.205,35.34],[-92.82,35.374],[-93.401,35.374],[-93.691,35.408],[-94.033,35.494],[-94.285,35.707],[-94.306,35.819],[-94.238,35.921],[-93.965,36.058],[-93.144,36.058],[-92.668,36.117],[-91.863,36.468],[-91.214,36.912],[-90.957,37.322],[-90.821,37.954],[-90.599,38.501],[-90.53,38.894],[-90.547,39.167],[-90.855,39.714],[-91.641,40.739],[-91.795,40.859],[-92.051,40.927]]]}},{"type":"Feature","properties":{"density":2},"geometry":{"type":"Polygon","coordinates":[[[-96.408,33.614],[-96.989,33.649],[-97.228,33.871],[-97.365,34.417],[-97.382,35.494],[-97.946,36.006],[-98.629,35.989],[-99.142,35.528],[-99.347,34.947],[-99.552,33.717],[-99.569,32.521],[-99.654,30.812],[-99.757,30.539],[-100.338,29.702],[-100.696,29.035],[-100.936,28.403],[-101.021,27.634],[-100.833,26.985],[-100.594,26.336],[-100.44,25.857],[-99.962,24.884],[-99.757,24.627],[-99.381,24.422],[-98.971,24.32],[-98.817,24.593],[-98.527,25.02],[-98.441,25.447],[-98.441,27.327],[-98.424,27.805],[-98.287,28.386],[-97.877,29.275],[-97.604,29.668],[-97.279,30.095],[-96.886,30.847],[-96.442,31.598],[-96.1,31.991],[-95.861,32.367],[-95.81,32.658],[-95.81,32.999],[-95.861,33.136],[-96.066,33.478],[-96.408,33.614]]]}},{"type":"Feature","properties":{"density":3},"geometry":{"type":"Polygon","coordinates":[[[-115.736,30.226],[-115.767,30.393],[-115.815,30.541],[-115.846,30.578],[-115.893,30.574],[-115.931,30.529],[-115.897,30.27],[-115.848,30.102],[-115.76,29.962],[-115.732,29.952],[-115.708,29.967],[-115.699,30.043],[-115.736,30.226]]]}}]}