{"type":"FeatureCollection","features":[{"type":"Feature","properties":{"density":1},"geometry":{"type":"Polygon","coordinates":[[[-103.645,42.667],[-104.003,42.863],[-104.286,43.059],[-104.496,43.288],[-104.586,43.509],[-104.613,43.686],[-104.604,43.882],[-104.518,43.995],[-104.37,44.028],[-103.83,43.983],[-103.576,44.023],[-103.237,44.136],[-103.115,44.212],[-102.907,44.384],[-102.648,44.489],[-102.297,44.533],[-101.868,44.477],[-101.558,44.406],[-101.237,44.221],[-100.96,43.978],[-100.889,43.674],[-100.839,43.184],[-100.69,42.709],[-100.27,41.722],[-100.24,41.544],[-100.245,41.337],[-100.28,41.251],[-100.307,41.056],[-100.421,40.864],[-100.572,40.786],[-100.769,40.809],[-100.998,40.946],[-101.561,41.188],[-101.826,41.362],[-102.585,41.778],[-102.805,41.975],[-103.011,42.099],[-103.25,42.352],[-103.425,42.571],[-103.507,42.626],[-103.623,42.657],[-103.645,42.667]]]}},{"type":"Feature","properties":{"density":1},"geometry":{"type":"Polygon","coordinates":[[[-108.64,32.965],[-109.01,33.043],[-109.308,33.18],[-109.509,33.376],[-109.71,33.678],[-109.879,34.081],[-109.994,34.374],[-110.04,34.694],[-109.898,35.362],[-109.715,35.604],[-109.468,35.847],[-109.175,36.089],[-108.795,36.249],[-108.086,36.51],[-107.716,36.601],[-107.584,36.662],[-107.527,36.76],[-107.496,36.977],[-107.495,37.292],[-107.441,37.484],[-107.286,37.59],[-106.842,37.818],[-106.577,37.91],[-106.234,37.974],[-105.518,38.03],[-105.039,37.95],[-104.801,37.822],[-104.755,37.761],[-104.67,37.569],[-104.676,37.112],[-104.731,36.856],[-105.048,36.38],[-105.53,35.904],[-105.582,35.779],[-105.609,35.639],[-105.457,35.05],[-105.469,34.513],[-105.646,34.3],[-106.082,34.135],[-106.387,34.053],[-106.787,33.974],[-107.308,33.821],[-107.778,33.733],[-107.878,33.699],[-108.055,33.592],[-108.192,33.345],[-108.256,33.178],[-108.488,32.983],[-108.598,32.964],[-108.64,32.965]]]}},{"type":"Feature","properties":{"density":1},"geometry":{"type":"Polygon","coordinates":[[[-90.398,33.595],[-89.848,34.033],[-89.173,34.395],[-88.285,34.72],[-84.204,35.787],[-83.145,35.929],[-82.395,36.179],[-81.344,36.504],[-80.335,36.741],[-79.26,37.066],[-78.61,37.383],[-77.768,37.758],[-77.092,38.042],[-76.284,38.317],[-75.179,38.305],[-74.279,38.468],[-73.453,38.818],[-72.115,39.468],[-71.515,39.731],[-70.327,40.206],[-69.314,40.544],[-68.464,40.594],[-68.113,40.494],[-67.838,40.344],[-67.05,39.806],[-66.725,39.506],[-66.338,39.006],[-66.225,38.768],[-66.075,37.78],[-66.075,36.817],[-66.112,36.304],[-66.3,35.479],[-66.513,34.979],[-66.825,34.529],[-67.238,34.016],[-67.576,33.728],[-68.051,33.378],[-68.476,33.103],[-69.426,32.578],[-69.989,32.303],[-70.552,32.103],[-71.521,32.027],[-72.209,32.178],[-72.759,32.178],[-74.435,31.852],[-75.11,31.652],[-75.798,31.215],[-76.523,30.664],[-77.686,29.964],[-78.137,29.601],[-79.275,28.839],[-79.787,28.601],[-81.088,28.138],[-82.676,27.388],[-83.089,27.163],[-83.614,26.95],[-84.327,26.775],[-87.115,26.6],[-87.67,26.385],[-88.489,25.964],[-89.228,25.752],[-89.951,25.502],[-90.768,25.397],[-91.679,25.252],[-92.733,25.313],[-93.525,25.53],[-93.866,26.322],[-94.075,27.022],[-94.131,27.613],[-94.262,28.288],[-94.262,28.832],[-93.962,29.283],[-93.475,29.845],[-93.118,30.408],[-92.687,30.99],[-92.218,31.552],[-91.824,31.871],[-91.43,32.359],[-90.773,33.222],[-90.554,33.459],[-90.398,33.595]]]}},{"type":"Feature","properties":{"density":1},"geometry":{"type":"Polygon","coordinates":[[[-116.499,31.833],[-115.907,32.03],[-115.003,31.969],[-114.198,31.764],[-113.15,31.377],[-112.497,30.8],[-111.589,30.031],[-110.605,28.967],[-109.576,28.064],[-108.89,27.302],[-108.524,26.608],[-108.425,25.388],[-108.038,24.253],[-107.526,23.547],[-107.275,22.989],[-106.82,22.419],[-106.671,21.873],[-106.785,21.162],[-106.79,20.524],[-106.352,20.15],[-105.299,19.765],[-104.989,19.683],[-104.513,19.663],[-104.228,19.674],[-103.386,19.937],[-102.725,19.891],[-101.281,19.408],[-100.854,19.027],[-100.554,18.671],[-100.519,18.168],[-100.346,17.741],[-99.546,16.987],[-98.916,16.515],[-97.041,16.314],[-96.562,16.155],[-96.095,15.904],[-95.765,15.46],[-95.719,15.061],[-96.095,14.754],[-96.79,14.332],[-97.405,14.047],[-99.148,13.592],[-100.253,13.478],[-101.13,13.455],[-102.064,13.523],[-102.907,13.637],[-103.419,13.74],[-103.915,13.882],[-104.581,14.258],[-105.248,14.822],[-105.709,15.352],[-106.307,16.257],[-106.82,17.129],[-107.264,18.137],[-107.776,19.008],[-108.272,19.794],[-108.836,20.546],[-109.622,21.212],[-111.928,22.818],[-112.498,23.194],[-113.5,23.741],[-114.377,24.128],[-115.824,24.584],[-116.336,24.777],[-116.724,25.119],[-116.986,25.666],[-117.054,26.201],[-116.986,26.748],[-116.947,27.69],[-116.894,28.385],[-116.917,29.425],[-117.05,30.583],[-116.936,31.46],[-116.499,31.833]]]}},{"type":"Feature","properties":{"density":1},"geometry":{"type":"Polygon","coordinates":[[[-78.263,35.227],[-78.106,35.263],[-77.911,35.227],[-77.867,35.205],[-77.81,35.113],[-77.807,35.01],[-77.839,34.939],[-77.923,34.894],[-78.011,34.915],[-78.241,35.116],[-78.271,35.166],[-78.274,35.218],[-78.263,35.227]]]}},{"type":"Feature","properties":{"density":1},"geometry":{"type":"Polygon","coordinates":[[[-81.275,29.716],[-81.148,29.764],[-80.732,29.825],[-80.365,29.906],[-80.227,29.899],[-80.171,29.836],[-80.17,29.804],[-80.23,29.749],[-80.771,29.662],[-81.005,29.602],[-81.235,29.593],[-81.287,29.662],[-81.283,29.698],[-81.275,29.716]]]}},{"type":"Feature","properties":{"density":1},"geometry":{"type":"Polygon","coordinates":[[[-121.545,37.714],[-121.558,37.808],[-121.541,38.057],[-121.5,38.094],[-121.362,38.162],[-121.293,38.183],[-121.234,38.182],[-121.199,38.148],[-121.163,38.029],[-121.162,37.865],[-121.195,37.747],[-121.259,37.69],[-121.356,37.66],[-121.423,37.656],[-121.54,37.702],[-121.545,37.714]]]}},{"type":"Feature","properties":{"density":1},"geometry":{"type":"Polygon","coordinates":[[[-112.488,41.676],[-112.475,41.725],[-112.407,41.775],[-112.333,41.815],[-112.107,41.89],[-111.921,41.893],[-111.817,41.836],[-111.776,41.775],[-111.783,41.752],[-111.864,41.714],[-111.989,41.731],[-112.073,41.725],[-112.421,41.637],[-112.451,41.637],[-112.485,41.664],[-112.488,41.676]]]}},{"type":"Feature","properties":{"density":1},"geometry":{"type":"Polygon","coordinates":[[[-103.711,42.734],[-103.719,42.894],[-103.643,43.127],[-103.51,43.352],[-103.317,43.553],[-103.032,43.789],[-102.756,43.942],[-102.503,44.038],[-102.23,44.122],[-101.917,44.167],[-101.688,44.183],[-101.375,44.179],[-101.166,44.155],[-100.905,44.066],[-100.769,43.97],[-100.612,43.761],[-100.552,43.496],[-100.548,43.304],[-100.616,43.179],[-100.749,43.103],[-100.95,43.055],[-101.837,43.007],[-102.061,42.971],[-102.43,42.854],[-102.816,42.686],[-103.225,42.589],[-103.558,42.577],[-103.663,42.65],[-103.687,42.706],[-103.711,42.734]]]}},{"type":"Feature","properties":{"density":1},"geometry":{"type":"Polygon","coordinates":[[[-109.234,33.34],[-109.316,33.566],[-109.279,33.9],[-109.117,34.297],[-108.873,34.559],[-108.557,34.776],[-108.322,35.001],[-107.961,35.272],[-107.519,35.832],[-107.248,36.04],[-106.778,36.257],[-106.309,36.383],[-105.541,36.491],[-105.09,36.482],[-104.665,36.32],[-104.43,36.058],[-104.177,35.616],[-104.132,35.399],[-104.132,35.11],[-104.232,34.848],[-104.475,34.667],[-104.837,34.586],[-106.29,34.451],[-106.968,34.333],[-107.23,34.216],[-107.446,34.062],[-107.636,33.954],[-107.88,33.701],[-108.015,33.512],[-108.223,33.295],[-108.367,33.205],[-108.53,33.159],[-108.819,33.123],[-109.072,33.214],[-109.189,33.304],[-109.234,33.34]]]}},{"type":"Feature","properties":{"density":1},"geometry":{"type":"Polygon","coordinates":[[[-121.541,37.729],[-121.517,37.792],[-121.389,37.877],[-121.3,37.891],[-121.235,37.871],[-121.205,37.818],[-121.208,37.677],[-121.224,37.643],[-121.292,37.613],[-121.433,37.607],[-121.52,37.668],[-121.544,37.722],[-121.541,37.729]]]}},{"type":"Feature","properties":{"density":1},"geometry":{"type":"Polygon","coordinates":[[[-96.574,42.775],[-96.352,42.942],[-96.149,43.033],[-95.931,43.085],[-95.782,43.081],[-95.697,43.033],[-95.657,42.884],[-95.665,42.838],[-95.694,42.797],[-95.777,42.752],[-95.93,42.719],[-96.476,42.64],[-96.546,42.653],[-96.591,42.723],[-96.574,42.775]]]}},{"type":"Feature","properties":{"density":1},"geometry":{"type":"Polygon","coordinates":[[[-103.692,42.801],[-103.608,42.879],[-102.851,43.269],[-102.374,43.561],[-101.772,43.97],[-101.465,44.097],[-101.14,44.125],[-100.867,44.076],[-100.65,43.989],[-100.439,43.803],[-100.328,43.598],[-100.284,43.4],[-100.29,43.251],[-100.371,43.096],[-100.507,42.966],[-100.954,42.835],[-101.444,42.786],[-102.107,42.693],[-102.975,42.513],[-103.417,42.481],[-103.558,42.501],[-103.645,42.544],[-103.689,42.59],[-103.713,42.742],[-103.692,42.801]]]}},{"type":"Feature","properties":{"density":1},"geometry":{"type":"Polygon","coordinates":[[[-109.322,33.353],[-109.405,33.52],[-109.461,33.678],[-109.452,33.957],[-109.34,34.301],[-109.089,34.701],[-108.28,35.51],[-107.424,36.161],[-107.052,36.384],[-106.373,36.691],[-104.764,37.24],[-103.462,37.528],[-102.811,37.575],[-102.29,37.566],[-101.881,37.389],[-101.453,37.045],[-101.286,36.738],[-101.277,36.254],[-101.36,35.938],[-101.574,35.631],[-102.123,35.38],[-102.886,35.268],[-103.834,35.082],[-104.355,34.924],[-105.49,34.515],[-106.401,34.087],[-106.848,33.929],[-107.155,33.771],[-108.001,33.408],[-108.55,33.139],[-108.745,33.101],[-108.977,33.129],[-109.238,33.241],[-109.322,33.362],[-109.322,33.353]]]}},{"type":"Feature","properties":{"density":1},"geometry":{"type":"Polygon","coordinates":[[[-116.619,32.257],[-116.709,32.242],[-116.751,32.215],[-116.771,32.178],[-116.762,32.112],[-116.731,32.09],[-116.659,32.088],[-116.58,32.126],[-116.556,32.16],[-116.555,32.2],[-116.558,32.222],[-116.594,32.251],[-116.619,32.257]]]}},{"type":"Feature","properties":{"density":1},"geometry":{"type":"Polygon","coordinates":[[[-103.629,42.961],[-103.378,43.073],[-102.643,43.268],[-102.039,43.473],[-101.267,43.835],[-99.955,44.542],[-99.602,44.784],[-99.239,45.063],[-98.635,45.333],[-98.253,45.416],[-97.761,45.472],[-97.398,45.472],[-97.119,45.454],[-96.831,45.351],[-96.617,45.24],[-96.496,45.035],[-96.458,44.682],[-96.496,44.375],[-96.57,44.096],[-96.747,43.873],[-97.017,43.696],[-97.426,43.538],[-97.928,43.501],[-98.505,43.389],[-98.914,43.24],[-99.277,43.082],[-100.114,42.561],[-100.476,42.422],[-100.811,42.319],[-101.788,42.133],[-102.262,42.068],[-102.634,42.078],[-102.959,42.143],[-103.341,42.264],[-103.564,42.384],[-103.722,42.598],[-103.75,42.682],[-103.741,42.766],[-103.704,42.859],[-103.629,42.961]]]}},{"type":"Feature","properties":{"density":1},"geometry":{"type":"Polygon","coordinates":[[[-95.995,42.795],[-96.021,42.952],[-95.947,43.287],[-95.789,43.594],[-95.659,43.78],[-95.454,43.863],[-95.212,43.863],[-95.008,43.78],[-94.868,43.649],[-94.719,43.408],[-94.688,43.32],[-94.71,43.166],[-94.842,43.002],[-95.061,42.829],[-95.338,42.741],[-95.813,42.71],[-95.915,42.745],[-95.995,42.795]]]}},{"type":"Feature","properties":{"density":1},"geometry":{"type":"Polygon","coordinates":[[[-104.292,41.674],[-104.171,41.727],[-103.752,41.859],[-103.372,41.947],[-102.799,42.033],[-102.567,42.033],[-102.427,41.931],[-102.371,41.696],[-102.378,41.596],[-102.452,41.454],[-102.607,41.342],[-102.843,41.224],[-103.146,41.129],[-103.636,41.082],[-103.922,41.113],[-104.058,41.169],[-104.306,41.324],[-104.405,41.454],[-104.424,41.534],[-104.405,41.596],[-104.38,41.621],[-104.292,41.674]]]}},{"type":"Feature","properties":{"density":1},"geometry":{"type":"Polygon","coordinates":[[[-109.124,33.179],[-109.189,33.309],[-109.45,33.998],[-109.496,34.398],[-109.506,34.686],[-109.487,35.142],[-109.375,35.449],[-109.171,35.858],[-108.715,36.276],[-108.241,36.574],[-107.376,36.853],[-104.205,37.642],[-103.048,37.949],[-102.122,38.135],[-101.089,38.304],[-100.131,38.415],[-98.7,38.451],[-98.114,38.404],[-97.611,38.293],[-96.951,38.074],[-96.561,37.865],[-96.133,37.326],[-95.905,36.944],[-95.882,36.582],[-95.918,36.211],[-95.975,36.033],[-96.282,35.8],[-96.858,35.679],[-97.686,35.605],[-98.447,35.579],[-99.405,35.495],[-101.991,35.207],[-102.716,35.058],[-103.47,34.872],[-104.325,34.704],[-104.875,34.545],[-105.47,34.415],[-105.87,34.303],[-106.354,34.191],[-106.865,34.005],[-107.135,33.838],[-107.349,33.671],[-107.553,33.486],[-107.729,33.235],[-107.99,33.021],[-108.306,32.937],[-108.566,32.9],[-108.808,32.947],[-108.864,32.984],[-109.003,33.03],[-109.124,33.179]]]}},{"type":"Feature","properties":{"density":1},"geometry":{"type":"Polygon","coordinates":[[[-85.41,32.638],[-84.468,32.983],[-83.118,33.611],[-81.894,34.239],[-79.854,35.651],[-76.903,38.162],[-76.024,39.167],[-75.177,40.046],[-73.545,41.929],[-72.729,42.777],[-71.661,43.844],[-70.688,44.723],[-69.747,45.099],[-69.056,45.319],[-68.303,45.288],[-67.424,45.037],[-66.545,44.377],[-65.76,43.247],[-65.164,42.149],[-64.442,41.207],[-63.783,40.422],[-62.433,39.355],[-61.272,38.916],[-60.55,38.57],[-60.11,38.131],[-59.953,37.723],[-59.828,36.154],[-59.985,35.494],[-60.55,34.678],[-61.303,34.207],[-63.029,33.485],[-64.034,33.14],[-65.289,32.826],[-66.514,32.764],[-67.926,32.92],[-69.433,33.046],[-71.159,33.14],[-72.634,33.109],[-73.45,32.858],[-74.047,32.512],[-75.428,31.571],[-76.589,30.692],[-77.5,30.127],[-79.446,29.185],[-80.45,28.871],[-81.517,28.62],[-83.024,28.369],[-84.813,28.4],[-86.728,28.903],[-87.858,29.374],[-88.486,29.907],[-88.831,30.504],[-88.549,31.037],[-87.984,31.696],[-87.324,32.073],[-86.163,32.481],[-85.567,32.607],[-85.41,32.638]]]}},{"type":"Feature","properties":{"density":1},"geometry":{"type":"Polygon","coordinates":[[[-117.364,34.176],[-117.897,34.05],[-118.807,33.454],[-119.404,32.92],[-119.875,32.136],[-120.314,31.32],[-120.502,30.378],[-120.597,29.499],[-120.22,28.212],[-119.153,27.114],[-117.52,26.235],[-116.139,25.638],[-114.35,24.759],[-113.471,24.414],[-112.624,23.943],[-111.776,23.378],[-110.835,22.562],[-110.301,22.06],[-109.642,21.683],[-108.857,20.993],[-108.198,20.177],[-106.88,18.67],[-105.279,17.038],[-104.525,16.347],[-103.27,15.845],[-101.638,15.343],[-99.943,15.123],[-98.624,14.997],[-97.651,15.123],[-96.961,15.374],[-96.521,15.814],[-96.553,16.441],[-97.337,17.069],[-98.562,18.168],[-99.754,18.67],[-101.261,19.455],[-101.92,20.177],[-102.736,20.899],[-103.364,21.715],[-104.274,22.688],[-105.059,23.567],[-105.499,23.943],[-106.315,24.728],[-107.131,25.607],[-107.884,26.643],[-109.767,28.118],[-110.646,28.714],[-111.494,29.499],[-112.153,30.064],[-112.592,30.629],[-113.157,31.288],[-113.879,32.324],[-114.695,33.203],[-115.072,33.642],[-115.417,33.956],[-115.794,34.207],[-116.516,34.27],[-116.893,34.176],[-117.364,34.176]]]}},{"type":"Feature","properties":{"density":1},"geometry":{"type":"Polygon","coordinates":[[[-89.985,37.11],[-89.856,37.195],[-89.757,37.223],[-89.679,37.22],[-89.635,37.198],[-89.619,37.165],[-89.633,37.099],[-89.679,37.068],[-89.806,37.035],[-89.955,37.032],[-89.996,37.046],[-90.002,37.099],[-89.985,37.11]]]}},{"type":"Feature","properties":{"density":1},"geometry":{"type":"Polygon","coordinates":[[[-89.806,37.388],[-89.678,37.413],[-89.645,37.371],[-89.653,37.326],[-89.794,37.326],[-89.82,37.336],[-89.819,37.38],[-89.806,37.388]]]}},{"type":"Feature","properties":{"density":2},"geometry":{"type":"Polygon","coordinates":[[[-103.61,42.734],[-103.612,42.868],[-103.686,43.012],[-103.706,43.123],[-103.702,43.152],[-103.633,43.244],[-103.567,43.305],[-103.38,43.428],[-103.066,43.471],[-102.951,43.546],[-102.826,43.601],[-102.559,43.815],[-102.489,43.84],[-102.434,43.816],[-102.426,43.782],[-102.474,43.685],[-102.806,43.37],[-103.018,43.178],[-103.276,42.975],[-103.516,42.717],[-103.574,42.701],[-103.608,42.72],[-103.61,42.734]]]}},{"type":"Feature","properties":{"density":2},"geometry":{"type":"Polygon","coordinates":[[[-108.179,33.704],[-108.256,33.327],[-108.326,33.192],[-108.421,33.118],[-108.583,33.053],[-108.745,33.083],[-108.919,33.144],[-109.217,33.295],[-109.329,33.442],[-109.364,33.551],[-109.385,33.696],[-109.355,34.446],[-109.2,34.968],[-109.053,35.23],[-108.912,35.572],[-108.658,35.844],[-108.449,35.989],[-108.184,36.083],[-107.967,36.117],[-107.763,35.982],[-107.671,35.833],[-107.573,35.789],[-107.367,35.824],[-107.152,35.883],[-106.939,35.857],[-106.86,35.786],[-106.845,35.745],[-106.88,35.671],[-106.925,35.624],[-107.063,35.556],[-107.786,35.062],[-107.98,34.775],[-108.02,34.629],[-108.042,34.456],[-108.024,34.403],[-107.812,34.372],[-107.529,34.501],[-107.158,34.779],[-107.055,35.058],[-106.99,35.111],[-106.787,35.188],[-106.648,35.194],[-106.448,35.129],[-106.098,35.148],[-105.869,35.045],[-105.753,34.926],[-105.745,34.854],[-105.683,34.739],[-105.657,34.655],[-105.657,34.602],[-105.692,34.487],[-105.754,34.381],[-105.865,34.306],[-106.303,34.16],[-106.63,34.12],[-107.351,33.939],[-107.74,33.868],[-108.143,33.736],[-108.179,33.704]]]}},{"type":"Feature","properties":{"density":2},"geometry":{"type":"Polygon","coordinates":[[[-121.532,37.728],[-121.519,37.914],[-121.514,37.937],[-121.487,37.952],[-121.393,37.852],[-121.371,37.811],[-121.355,37.706],[-121.421,37.69],[-121.527,37.718],[-121.532,37.728]]]}},{"type":"Feature","properties":{"density":2},"geometry":{"type":"Polygon","coordinates":[[[-103.647,42.73],[-103.438,42.983],[-103.34,43.057],[-103.124,43.31],[-102.989,43.388],[-102.739,43.435],[-102.631,43.411],[-102.561,43.344],[-102.554,43.286],[-102.598,43.172],[-102.672,43.06],[-102.81,42.956],[-102.996,42.861],[-103.269,42.77],[-103.485,42.659],[-103.583,42.655],[-103.644,42.689],[-103.654,42.716],[-103.647,42.73]]]}},{"type":"Feature","properties":{"density":2},"geometry":{"type":"Polygon","coordinates":[[[-108.225,34.103],[-108.237,34.199],[-108.335,34.403],[-108.456,34.431],[-108.653,34.367],[-108.903,34.15],[-109.018,33.989],[-109.086,33.797],[-109.09,33.696],[-109.062,33.576],[-109.014,33.516],[-108.932,33.465],[-108.849,33.456],[-108.725,33.48],[-108.583,33.621],[-108.5,33.895],[-108.412,33.969],[-108.259,33.974],[-108.23,34.008],[-108.215,34.066],[-108.225,34.103]]]}},{"type":"Feature","properties":{"density":2},"geometry":{"type":"Polygon","coordinates":[[[-103.652,42.742],[-103.627,42.791],[-103.509,42.863],[-103.143,43.017],[-102.88,43.096],[-102.724,43.164],[-102.096,43.272],[-101.761,43.395],[-101.604,43.477],[-101.547,43.477],[-101.494,43.45],[-101.447,43.364],[-101.447,43.273],[-101.508,43.136],[-101.735,42.952],[-101.877,42.918],[-102.535,42.828],[-102.798,42.75],[-102.9,42.739],[-103.048,42.684],[-103.209,42.561],[-103.294,42.54],[-103.409,42.549],[-103.575,42.605],[-103.655,42.678],[-103.655,42.709],[-103.652,42.742]]]}},{"type":"Feature","properties":{"density":2},"geometry":{"type":"Polygon","coordinates":[[[-108.138,34.614],[-108.19,34.688],[-108.289,34.773],[-108.358,34.804],[-108.405,34.809],[-108.504,34.787],[-108.582,34.732],[-108.703,34.556],[-108.763,34.396],[-108.805,34.17],[-108.89,33.969],[-109.039,33.701],[-109.031,33.641],[-109.003,33.6],[-108.94,33.589],[-108.863,33.605],[-108.435,33.798],[-108.179,33.955],[-108.121,34.018],[-108.006,34.231],[-108.025,34.385],[-108.055,34.476],[-108.119,34.583],[-108.138,34.614]]]}},{"type":"Feature","properties":{"density":2},"geometry":{"type":"Polygon","coordinates":[[[-103.562,42.802],[-103.349,42.885],[-102.342,43.16],[-101.587,43.508],[-101.346,43.676],[-101.114,43.799],[-100.801,43.937],[-100.542,44.02],[-100.165,44.194],[-99.746,44.52],[-99.579,44.669],[-99.12,45.016],[-98.884,45.103],[-98.51,45.194],[-98.246,45.159],[-98.146,45.072],[-98.029,44.93],[-97.942,44.632],[-97.942,44.514],[-97.991,44.415],[-98.053,44.334],[-98.274,44.245],[-98.971,44.043],[-99.124,43.966],[-99.628,43.628],[-99.796,43.466],[-100.168,42.896],[-100.285,42.76],[-100.472,42.598],[-100.67,42.487],[-100.961,42.381],[-101.705,42.363],[-101.873,42.326],[-102.443,42.14],[-102.735,42.152],[-103.328,42.379],[-103.559,42.557],[-103.646,42.654],[-103.665,42.685],[-103.659,42.722],[-103.612,42.77],[-103.562,42.802]]]}},{"type":"Feature","properties":{"density":2},"geometry":{"type":"Polygon","coordinates":[[[-104.462,36.578],[-104.17,36.745],[-103.62,36.898],[-102.963,37.047],[-102.269,37.169],[-101.897,37.169],[-101.562,37.123],[-101.367,37.048],[-101.218,36.871],[-101.069,36.565],[-101.06,36.36],[-101.097,36.155],[-101.171,35.951],[-101.357,35.821],[-101.674,35.681],[-102.232,35.551],[-103.413,35.346],[-104.064,35.263],[-104.473,35.253],[-104.724,35.29],[-104.845,35.365],[-104.929,35.458],[-105.026,35.613],[-105.026,35.877],[-104.908,36.2],[-104.734,36.423],[-104.462,36.578]]]}},{"type":"Feature","properties":{"density":2},"geometry":{"type":"Polygon","coordinates":[[[-108.753,33.745],[-108.805,33.809],[-108.852,33.977],[-108.82,34.25],[-108.71,34.618],[-108.609,34.781],[-108.498,34.917],[-108.349,35.045],[-108.2,35.141],[-108.047,35.174],[-107.779,35.161],[-107.593,35.091],[-107.469,35.0],[-107.398,34.888],[-107.334,34.618],[-107.339,34.502],[-107.386,34.378],[-107.488,34.243],[-107.728,34.039],[-107.849,33.909],[-107.969,33.818],[-108.06,33.772],[-108.353,33.702],[-108.548,33.68],[-108.701,33.721],[-108.753,33.745]]]}},{"type":"Feature","properties":{"density":3},"geometry":{"type":"Polygon","coordinates":[[[-103.597,42.747],[-103.456,43.07],[-103.356,43.142],[-103.249,43.191],[-102.952,43.46],[-102.887,43.462],[-102.88,43.425],[-102.909,43.39],[-103.073,43.252],[-103.415,42.893],[-103.521,42.737],[-103.575,42.717],[-103.598,42.743],[-103.597,42.747]]]}},{"type":"Feature","properties":{"density":3},"geometry":{"type":"Polygon","coordinates":[[[-108.223,33.981],[-108.258,33.864],[-108.27,33.676],[-108.305,33.607],[-108.384,33.536],[-108.542,33.463],[-108.837,33.364],[-108.935,33.345],[-109.036,33.349],[-109.111,33.37],[-109.127,33.418],[-109.119,33.507],[-109.082,33.595],[-108.789,33.931],[-108.681,33.997],[-108.44,34.105],[-108.364,34.199],[-108.309,34.225],[-108.242,34.126],[-108.21,34.019],[-108.223,33.981]]]}},{"type":"Feature","properties":{"density":3},"geometry":{"type":"Polygon","coordinates":[[[-103.614,42.758],[-103.217,42.914],[-102.908,43.095],[-102.872,43.083],[-102.852,43.051],[-102.88,42.955],[-102.924,42.898],[-103.012,42.854],[-103.338,42.778],[-103.434,42.746],[-103.486,42.702],[-103.562,42.682],[-103.61,42.686],[-103.634,42.722],[-103.618,42.742],[-103.614,42.758]]]}},{"type":"Feature","properties":{"density":3},"geometry":{"type":"Polygon","coordinates":[[[-108.243,34.058],[-108.263,34.138],[-108.412,34.29],[-108.492,34.318],[-108.568,34.31],[-108.64,34.206],[-108.685,34.082],[-108.721,34.03],[-108.885,33.861],[-108.962,33.676],[-108.941,33.644],[-108.889,33.616],[-108.805,33.636],[-108.653,33.785],[-108.56,34.013],[-108.496,34.058],[-108.42,34.082],[-108.376,34.074],[-108.299,33.977],[-108.271,33.965],[-108.243,33.981],[-108.239,34.021],[-108.243,34.058]]]}},{"type":"Feature","properties":{"density":3},"geometry":{"type":"Polygon","coordinates":[[[-103.595,42.754],[-103.308,42.857],[-102.507,43.048],[-102.41,43.052],[-102.322,43.021],[-102.298,42.951],[-102.318,42.908],[-102.388,42.883],[-102.939,42.828],[-103.262,42.677],[-103.404,42.638],[-103.54,42.642],[-103.567,42.655],[-103.621,42.71],[-103.621,42.732],[-103.599,42.745],[-103.595,42.754]]]}},{"type":"Feature","properties":{"density":3},"geometry":{"type":"Polygon","coordinates":[[[-108.265,34.068],[-108.259,34.112],[-108.149,34.286],[-108.146,34.333],[-108.215,34.435],[-108.331,34.495],[-108.391,34.501],[-108.499,34.484],[-108.617,34.426],[-108.719,34.319],[-108.783,34.2],[-108.841,34.043],[-108.882,33.916],[-108.896,33.801],[-108.893,33.724],[-108.865,33.66],[-108.774,33.661],[-108.738,33.697],[-108.616,33.879],[-108.482,34.121],[-108.411,34.134],[-108.298,33.999],[-108.244,34.008],[-108.245,34.035],[-108.265,34.068]]]}},{"type":"Feature","properties":{"density":3},"geometry":{"type":"Polygon","coordinates":[[[-103.544,42.792],[-103.348,42.848],[-103.169,42.875],[-102.985,42.892],[-102.826,42.873],[-102.692,42.827],[-102.628,42.739],[-102.61,42.646],[-102.615,42.506],[-102.65,42.432],[-102.727,42.371],[-102.857,42.338],[-103.087,42.362],[-103.253,42.407],[-103.467,42.533],[-103.596,42.644],[-103.629,42.704],[-103.617,42.748],[-103.584,42.775],[-103.544,42.792]]]}},{"type":"Feature","properties":{"density":3},"geometry":{"type":"Polygon","coordinates":[[[-108.288,33.943],[-108.52,33.833],[-108.63,33.839],[-108.693,33.894],[-108.732,33.996],[-108.693,34.213],[-108.583,34.425],[-108.429,34.58],[-108.332,34.635],[-108.219,34.651],[-108.106,34.632],[-108.029,34.591],[-107.941,34.45],[-107.936,34.34],[-107.993,34.211],[-108.156,34.037],[-108.244,33.971],[-108.288,33.943]]]}}]}