{"type":"FeatureCollection","features":[{"type":"Feature","properties":{"density":1},"geometry":{"type":"Polygon","coordinates":[[[-109.479,61.734],[-109.917,61.771],[-111.348,62.068],[-111.53,62.144],[-111.61,62.245],[-111.607,62.363],[-111.554,62.45],[-111.427,62.519],[-111.261,62.528],[-110.845,62.474],[-110.52,62.402],[-109.545,62.096],[-109.238,61.966],[-109.232,61.85],[-109.285,61.759],[-109.369,61.722],[-109.479,61.734]]]}},{"type":"Feature","properties":{"density":1},"geometry":{"type":"Polygon","coordinates":[[[-109.86,63.035],[-110.58,63.295],[-110.816,63.411],[-111.036,63.582],[-111.058,63.637],[-111.056,63.679],[-111.034,63.711],[-111.001,63.725],[-110.85,63.735],[-110.466,63.621],[-109.926,63.295],[-109.807,63.2],[-109.77,63.155],[-109.761,63.078],[-109.805,63.031],[-109.86,63.035]]]}},{"type":"Feature","properties":{"density":1},"geometry":{"type":"Polygon","coordinates":[[[-122.531,43.165],[-122.617,43.205],[-122.881,43.241],[-123.005,43.214],[-123.055,43.181],[-123.058,43.161],[-123.042,43.115],[-122.927,43.02],[-122.802,42.987],[-122.661,43.004],[-122.512,43.053],[-122.49,43.111],[-122.531,43.165]]]}},{"type":"Feature","properties":{"density":1},"geometry":{"type":"Polygon","coordinates":[[[-121.054,56.946],[-121.334,57.864],[-122.906,60.743],[-123.59,62.424],[-124.944,65.039],[-124.804,66.346],[-124.353,67.607],[-122.89,69.443],[-121.536,70.439],[-119.311,71.015],[-117.225,71.233],[-114.751,71.342],[-112.561,70.968],[-110.681,69.638],[-109.794,68.68],[-108.44,67.28],[-107.109,67.07],[-105.009,67.397],[-101.297,69.194],[-97.632,70.921],[-95.764,71.272],[-91.562,71.412],[-90.629,71.003],[-90.675,70.42],[-91.492,69.603],[-92.8,68.856],[-97.025,66.685],[-99.009,65.587],[-99.803,64.607],[-100.433,63.136],[-100.223,62.483],[-99.243,62.086],[-98.075,61.759],[-97.025,61.666],[-95.694,61.666],[-93.15,61.712],[-91.796,62.039],[-90.815,62.202],[-89.706,61.899],[-88.621,61.409],[-88.236,60.708],[-88.271,59.588],[-89.076,59.063],[-90.057,58.713],[-93.842,58.522],[-94.823,58.506],[-95.725,58.273],[-96.535,57.635],[-96.784,56.903],[-96.752,56.234],[-96.503,55.83],[-95.803,55.549],[-93.212,55.246],[-91.578,55.012],[-89.85,54.896],[-87.633,54.919],[-84.761,55.549],[-83.501,55.643],[-79.812,55.386],[-78.739,55.082],[-77.665,54.429],[-76.708,53.799],[-75.797,53.262],[-74.513,52.888],[-72.062,52.515],[-70.241,52.515],[-68.07,52.55],[-63.448,53.985],[-62.013,54.826],[-59.982,56.086],[-58.966,56.857],[-58.161,57.942],[-56.83,58.572],[-54.869,58.923],[-51.578,59.098],[-49.022,58.292],[-47.761,57.207],[-47.236,55.176],[-47.586,54.406],[-48.496,52.76],[-49.722,51.394],[-51.718,49.923],[-55.955,47.928],[-57.425,47.367],[-59.561,46.807],[-61.032,45.967],[-62.643,44.741],[-64.604,43.095],[-66.32,42.08],[-67.685,41.134],[-68.596,40.189],[-69.226,39.209],[-69.121,38.298],[-66.985,38.088],[-66.074,38.158],[-64.254,38.683],[-63.651,38.788],[-62.601,39.251],[-58.693,41.099],[-57.243,41.835],[-55.563,42.36],[-54.449,42.633],[-53.903,42.633],[-40.748,44.98],[-35.145,44.49],[-31.276,41.549],[-29.49,37.872],[-30.436,36.139],[-33.534,33.618],[-37.631,29.888],[-41.623,27.052],[-45.878,25.056],[-49.187,24.216],[-52.916,24.006],[-56.382,25.424],[-61.367,29.386],[-62.669,29.933],[-64.833,30.71],[-66.598,31.298],[-69.067,30.914],[-71.168,30.097],[-73.409,29.91],[-75.837,29.023],[-77.495,28.276],[-78.195,27.565],[-77.98,26.045],[-77.36,23.845],[-76.006,22.841],[-73.648,22.118],[-70.987,21.394],[-69.846,20.291],[-68.97,18.926],[-69.531,17.665],[-70.453,17.286],[-71.667,17.146],[-73.067,16.819],[-74.351,16.703],[-75.565,16.726],[-76.826,16.726],[-78.086,16.353],[-80.071,16.446],[-82.089,15.663],[-83.186,15.406],[-85.541,15.31],[-86.116,15.372],[-86.583,15.497],[-87.167,15.527],[-87.731,15.732],[-88.333,15.796],[-88.969,15.625],[-89.891,15.894],[-90.416,16.009],[-91.044,16.214],[-91.39,16.739],[-91.864,17.098],[-92.35,17.265],[-92.555,16.996],[-92.441,16.471],[-92.133,15.785],[-91.755,15.337],[-91.222,14.791],[-90.662,14.16],[-90.27,13.88],[-89.99,13.628],[-89.934,13.39],[-90.144,13.166],[-91.755,13.208],[-92.931,13.796],[-93.996,14.146],[-95.186,14.426],[-96.573,14.581],[-98.058,14.791],[-102.505,15.694],[-105.047,16.345],[-107.757,17.123],[-109.396,18.068],[-110.614,18.803],[-111.455,19.77],[-113.892,23.93],[-114.774,25.926],[-116.113,28.609],[-118.65,31.955],[-118.588,33.34],[-117.965,33.807],[-115.911,33.962],[-114.044,33.9],[-111.024,33.869],[-109.405,33.935],[-107.435,34.365],[-106.539,35.359],[-105.67,36.69],[-105.222,37.782],[-105.012,38.945],[-104.858,40.878],[-105.39,41.676],[-106.23,41.914],[-107.001,41.886],[-108.415,41.564],[-110.404,41.312],[-112.085,41.34],[-113.248,41.606],[-114.452,41.62],[-115.867,41.522],[-117.225,41.648],[-117.996,41.998],[-118.794,42.418],[-119.495,42.712],[-120.209,42.951],[-120.817,43.102],[-120.985,43.139],[-121.62,43.189],[-121.913,43.189],[-122.492,42.965],[-122.809,42.915],[-123.17,42.996],[-123.401,43.201],[-123.606,43.568],[-123.637,43.985],[-123.513,44.471],[-123.282,44.82],[-122.436,45.825],[-122.408,46.89],[-122.707,47.431],[-122.968,47.814],[-123.654,48.052],[-124.515,48.247],[-125.242,48.7],[-125.568,49.183],[-125.633,49.874],[-123.879,51.04],[-123.963,51.446],[-124.341,51.81],[-124.355,52.455],[-124.103,53.407],[-123.64,54.136],[-123.22,54.71],[-122.772,55.228],[-122.058,55.83],[-121.609,56.18],[-121.217,56.671],[-121.054,56.946]]]}},{"type":"Feature","properties":{"density":1},"geometry":{"type":"Polygon","coordinates":[[[-120.466,45.517],[-119.608,45.854],[-119.497,45.88],[-119.441,45.857],[-119.443,45.79],[-119.523,45.731],[-120.017,45.465],[-120.182,45.396],[-120.383,45.344],[-120.455,45.357],[-120.484,45.437],[-120.484,45.499],[-120.466,45.517]]]}},{"type":"Feature","properties":{"density":1},"geometry":{"type":"Polygon","coordinates":[[[-116.099,42.569],[-116.146,42.685],[-116.231,42.791],[-116.352,42.852],[-116.596,43.017],[-116.612,43.118],[-116.563,43.187],[-116.434,43.203],[-116.267,43.177],[-116.122,43.082],[-115.839,42.798],[-115.8,42.726],[-115.813,42.662],[-115.865,42.613],[-116.058,42.523],[-116.102,42.543],[-116.099,42.569]]]}},{"type":"Feature","properties":{"density":1},"geometry":{"type":"Polygon","coordinates":[[[-117.341,42.876],[-117.221,42.821],[-117.159,42.748],[-117.128,42.651],[-117.113,42.493],[-117.066,42.273],[-117.008,42.118],[-116.989,41.999],[-117.001,41.863],[-117.097,41.782],[-117.205,41.79],[-117.31,41.844],[-117.414,41.944],[-117.596,42.242],[-117.607,42.555],[-117.58,42.682],[-117.526,42.814],[-117.472,42.868],[-117.395,42.891],[-117.341,42.876]]]}},{"type":"Feature","properties":{"density":1},"geometry":{"type":"Polygon","coordinates":[[[-119.195,43.243],[-118.997,43.353],[-118.585,43.428],[-118.371,43.438],[-118.175,43.405],[-118.08,43.371],[-117.99,43.307],[-117.966,43.219],[-118.003,43.124],[-118.051,43.088],[-118.35,43.049],[-118.78,43.044],[-118.881,43.052],[-118.968,43.078],[-119.187,43.176],[-119.216,43.212],[-119.195,43.243]]]}},{"type":"Feature","properties":{"density":1},"geometry":{"type":"Polygon","coordinates":[[[-129.105,40.258],[-128.622,40.649],[-128.01,41.093],[-127.319,41.367],[-126.536,41.419],[-125.949,41.119],[-125.676,40.584],[-125.571,39.828],[-125.754,39.15],[-125.989,38.746],[-126.315,38.329],[-126.914,38.055],[-127.605,38.016],[-127.984,38.211],[-128.336,38.628],[-128.414,39.124],[-128.44,39.528],[-128.557,39.828],[-128.844,39.971],[-129.053,39.958],[-129.209,39.971],[-129.235,40.024],[-129.148,40.206],[-129.105,40.258]]]}},{"type":"Feature","properties":{"density":1},"geometry":{"type":"Polygon","coordinates":[[[-122.483,43.156],[-122.544,43.184],[-122.809,43.213],[-123.03,43.322],[-123.082,43.305],[-123.092,43.286],[-123.086,43.215],[-123.023,43.13],[-122.773,43.001],[-122.658,42.984],[-122.598,42.997],[-122.515,43.059],[-122.483,43.156]]]}},{"type":"Feature","properties":{"density":1},"geometry":{"type":"Polygon","coordinates":[[[-92.75,17.679],[-92.863,17.585],[-92.93,17.573],[-92.965,17.592],[-92.971,17.655],[-92.947,17.69],[-92.903,17.71],[-92.762,17.706],[-92.75,17.679]]]}},{"type":"Feature","properties":{"density":1},"geometry":{"type":"Polygon","coordinates":[[[-119.012,43.101],[-119.045,43.184],[-119.049,43.308],[-119.008,43.387],[-118.726,43.763],[-118.59,43.895],[-118.375,44.044],[-118.197,44.106],[-118.061,44.127],[-117.978,44.077],[-117.941,44.003],[-117.962,43.912],[-118.14,43.655],[-118.239,43.54],[-118.569,43.238],[-118.805,43.06],[-118.879,43.035],[-118.979,43.048],[-119.012,43.101]]]}},{"type":"Feature","properties":{"density":1},"geometry":{"type":"Polygon","coordinates":[[[-121.231,48.781],[-121.401,48.796],[-121.442,48.859],[-121.44,48.943],[-121.413,48.98],[-121.345,49.026],[-121.251,49.059],[-121.086,49.254],[-120.964,49.347],[-120.838,49.404],[-120.584,49.428],[-120.476,49.404],[-120.364,49.349],[-120.296,49.29],[-120.264,49.222],[-120.268,49.083],[-120.341,48.943],[-120.408,48.888],[-120.509,48.844],[-120.847,48.774],[-121.007,48.754],[-121.231,48.781]]]}},{"type":"Feature","properties":{"density":1},"geometry":{"type":"Polygon","coordinates":[[[-112.659,40.286],[-115.421,40.443],[-118.717,40.662],[-120.443,41.039],[-121.134,41.227],[-123.802,42.765],[-124.241,43.676],[-124.398,44.366],[-124.775,47.191],[-125.403,48.164],[-125.716,48.823],[-125.842,49.451],[-125.654,50.613],[-125.246,51.774],[-124.555,53.249],[-123.864,55.195],[-124.429,57.455],[-124.618,58.993],[-125.151,60.123],[-126.03,61.222],[-127.349,62.164],[-127.976,63.105],[-128.667,65.899],[-128.855,67.814],[-128.604,69.069],[-127.098,70.105],[-125.873,70.764],[-124.21,71.078],[-121.95,71.549],[-116.645,71.549],[-114.762,71.612],[-113.851,71.612],[-112.502,71.329],[-111.152,71.11],[-109.834,71.078],[-107.448,71.172],[-105.502,71.298],[-103.305,71.047],[-103.022,71.047],[-100.543,71.172],[-99.287,71.172],[-97.529,71.549],[-93.982,71.486],[-91.973,71.612],[-90.121,71.455],[-87.861,71.486],[-85.225,71.11],[-80.108,70.858],[-78.413,70.733],[-76.248,70.513],[-74.082,70.074],[-72.701,69.823],[-70.598,69.477],[-68.369,68.818],[-65.701,67.971],[-65.073,67.217],[-65.199,66.527],[-66.078,66.087],[-67.71,65.836],[-70.503,65.93],[-72.983,65.585],[-74.145,65.334],[-74.929,65.208],[-75.777,64.518],[-76.153,63.89],[-76.342,62.886],[-75.777,62.038],[-74.521,61.442],[-73.015,60.688],[-70.158,58.962],[-68.149,58.303],[-63.755,57.267],[-61.903,56.545],[-60.302,55.415],[-58.827,53.689],[-58.513,53.061],[-57.022,51.444],[-54.856,50.55],[-53.255,49.985],[-51.654,49.561],[-50.242,48.808],[-49.253,47.913],[-48.688,47.348],[-47.794,45.936],[-47.229,44.476],[-46.475,42.263],[-46.193,40.992],[-46.428,39.627],[-46.711,37.79],[-47.417,36.802],[-48.641,35.672],[-51.419,33.741],[-52.784,31.905],[-54.997,30.304],[-56.269,29.692],[-58.199,29.457],[-60.93,28.75],[-65.497,27.762],[-68.086,26.679],[-69.216,25.549],[-70.017,24.23],[-70.582,23.147],[-71.382,22.206],[-72.465,20.982],[-74.772,20.275],[-78.021,19.098],[-79.622,18.204],[-82.635,16.462],[-84.895,15.755],[-86.214,15.379],[-89.839,15.332],[-93.606,15.049],[-97.466,14.625],[-101.233,14.955],[-107.448,17.968],[-112.91,21.735],[-113.522,23.242],[-113.946,24.937],[-114.228,27.667],[-113.475,29.221],[-111.827,32.799],[-111.215,33.741],[-110.932,33.977],[-109.944,34.683],[-108.908,35.342],[-108.437,35.86],[-108.107,36.566],[-108.06,38.073],[-108.625,39.156],[-109.049,39.768],[-110.32,40.474],[-111.686,40.38],[-112.659,40.286]]]}},{"type":"Feature","properties":{"density":2},"geometry":{"type":"Polygon","coordinates":[[[-109.464,61.771],[-109.789,61.786],[-109.978,61.856],[-110.772,61.99],[-111.086,62.064],[-111.162,62.147],[-111.158,62.196],[-111.099,62.31],[-110.942,62.397],[-110.725,62.378],[-110.143,62.225],[-109.824,62.08],[-109.418,61.927],[-109.381,61.896],[-109.351,61.835],[-109.382,61.783],[-109.464,61.771]]]}},{"type":"Feature","properties":{"density":2},"geometry":{"type":"Polygon","coordinates":[[[-109.921,63.077],[-110.404,63.261],[-110.525,63.325],[-110.583,63.412],[-110.596,63.464],[-110.603,63.529],[-110.583,63.563],[-110.535,63.581],[-110.403,63.539],[-110.024,63.322],[-109.785,63.141],[-109.773,63.114],[-109.796,63.065],[-109.828,63.049],[-109.878,63.053],[-109.921,63.077]]]}},{"type":"Feature","properties":{"density":2},"geometry":{"type":"Polygon","coordinates":[[[-117.329,42.753],[-117.285,42.722],[-117.249,42.654],[-117.203,42.491],[-117.203,42.419],[-117.236,42.268],[-117.261,42.217],[-117.307,42.189],[-117.353,42.206],[-117.423,42.279],[-117.475,42.403],[-117.44,42.654],[-117.399,42.737],[-117.329,42.753]]]}},{"type":"Feature","properties":{"density":2},"geometry":{"type":"Polygon","coordinates":[[[-122.565,43.154],[-122.661,43.168],[-122.794,43.147],[-122.948,43.187],[-123.001,43.183],[-123.023,43.16],[-122.957,43.103],[-122.863,43.06],[-122.688,43.032],[-122.526,43.076],[-122.523,43.123],[-122.565,43.154]]]}},{"type":"Feature","properties":{"density":2},"geometry":{"type":"Polygon","coordinates":[[[-116.072,42.617],[-116.088,42.723],[-116.048,42.727],[-115.995,42.698],[-115.975,42.644],[-116.001,42.591],[-116.046,42.562],[-116.077,42.582],[-116.072,42.617]]]}},{"type":"Feature","properties":{"density":2},"geometry":{"type":"Polygon","coordinates":[[[-111.616,63.448],[-111.747,63.558],[-111.989,63.721],[-112.446,63.999],[-112.66,64.09],[-112.758,64.149],[-112.784,64.192],[-112.789,64.26],[-112.75,64.326],[-112.592,64.331],[-112.31,64.193],[-111.695,63.807],[-111.505,63.659],[-111.393,63.532],[-111.392,63.503],[-111.431,63.474],[-111.556,63.435],[-111.616,63.448]]]}},{"type":"Feature","properties":{"density":2},"geometry":{"type":"Polygon","coordinates":[[[-119.8,70.475],[-118.389,70.578],[-116.946,70.815],[-115.148,70.677],[-113.481,70.234],[-112.028,69.162],[-111.551,68.298],[-111.51,67.212],[-111.027,66.195],[-110.724,65.895],[-110.318,65.619],[-109.953,65.402],[-109.497,65.158],[-108.999,64.983],[-108.674,64.754],[-108.668,64.539],[-108.861,64.387],[-109.059,64.347],[-109.709,64.462],[-111.033,64.473],[-111.486,64.344],[-111.661,64.369],[-112.19,64.507],[-112.279,64.467],[-112.297,64.4],[-112.124,64.123],[-111.792,63.915],[-111.609,63.78],[-111.413,63.589],[-111.385,63.531],[-111.391,63.485],[-111.52,63.427],[-111.582,63.42],[-111.668,63.442],[-111.791,63.513],[-112.024,63.697],[-112.286,63.823],[-112.192,63.5],[-112.171,63.34],[-112.081,63.057],[-111.922,62.829],[-111.726,62.338],[-111.689,62.162],[-111.532,61.95],[-111.283,61.807],[-110.998,61.692],[-110.181,61.517],[-109.647,61.374],[-108.28,61.081],[-107.427,60.638],[-106.722,60.237],[-106.51,59.983],[-106.427,59.702],[-106.772,59.614],[-107.344,59.753],[-108.005,60.007],[-108.534,60.235],[-109.084,60.505],[-109.468,60.474],[-110.1,60.37],[-111.003,60.381],[-111.418,60.391],[-111.937,60.433],[-112.456,60.505],[-112.85,60.588],[-113.016,60.536],[-113.358,60.36],[-113.607,60.101],[-113.752,59.841],[-113.804,59.478],[-113.669,59.084],[-113.358,58.638],[-112.692,58.333],[-112.36,58.333],[-111.703,58.264],[-111.336,58.126],[-110.914,57.835],[-110.534,57.483],[-110.271,57.185],[-110.119,56.763],[-110.133,56.48],[-110.285,56.189],[-110.541,56.092],[-111.315,56.037],[-111.689,55.989],[-112.028,56.002],[-112.579,56.13],[-113.181,56.483],[-114.146,57.23],[-114.623,57.51],[-115.215,57.77],[-115.63,58.036],[-116.245,58.562],[-117.145,59.233],[-117.539,59.488],[-118.597,59.772],[-119.206,59.834],[-120.644,60.035],[-121.047,60.149],[-121.691,60.564],[-122.334,61.218],[-122.967,61.985],[-123.838,63.272],[-124.222,64.195],[-124.544,65.119],[-124.513,65.596],[-123.818,67.588],[-123.361,68.522],[-122.956,69.134],[-122.427,69.559],[-121.794,69.891],[-121.193,70.161],[-120.632,70.369],[-120.134,70.467],[-119.8,70.475]]]}},{"type":"Feature","properties":{"density":2},"geometry":{"type":"Polygon","coordinates":[[[-120.826,43.468],[-120.928,43.637],[-121.168,43.772],[-121.546,44.119],[-121.635,44.282],[-121.66,44.494],[-121.617,44.707],[-121.491,44.86],[-121.083,45.108],[-120.836,45.139],[-120.55,45.209],[-120.202,45.247],[-119.785,45.468],[-119.364,45.831],[-118.662,46.265],[-117.943,46.798],[-117.646,46.984],[-117.535,47.144],[-117.5,47.365],[-117.563,47.524],[-117.763,47.524],[-118.095,47.406],[-118.427,47.261],[-118.801,47.019],[-119.216,46.722],[-119.651,46.493],[-120.087,46.417],[-120.53,46.542],[-120.869,46.735],[-121.139,47.04],[-121.201,47.379],[-121.044,47.932],[-120.924,48.153],[-120.717,48.352],[-120.375,48.633],[-119.808,48.965],[-118.688,49.352],[-118.144,49.62],[-117.931,49.79],[-117.881,50.026],[-117.982,50.205],[-118.153,50.353],[-118.31,50.339],[-118.748,50.178],[-118.858,49.984],[-118.974,49.841],[-119.218,49.707],[-119.61,49.638],[-119.896,49.606],[-120.145,49.532],[-121.046,49.675],[-121.496,49.668],[-121.738,49.786],[-121.966,50.014],[-122.277,50.076],[-122.522,50.104],[-122.702,50.196],[-122.785,50.307],[-122.785,50.445],[-122.683,50.547],[-122.425,50.737],[-122.342,50.829],[-122.284,50.925],[-122.299,50.974],[-122.342,51.078],[-122.428,51.155],[-122.499,51.168],[-122.653,50.98],[-122.782,50.943],[-122.923,50.986],[-123.04,51.069],[-123.141,51.18],[-123.144,51.266],[-123.111,51.404],[-122.948,51.586],[-122.736,51.779],[-122.247,52.07],[-121.836,52.44],[-121.733,52.782],[-121.401,53.28],[-120.903,53.778],[-120.124,54.297],[-118.527,55.2],[-118.06,55.418],[-117.074,55.708],[-116.441,55.77],[-115.985,55.77],[-115.622,55.708],[-113.93,55.252],[-113.225,54.857],[-112.302,54.442],[-111.855,54.214],[-111.389,53.934],[-110.794,53.609],[-110.399,53.464],[-109.874,53.36],[-109.493,53.298],[-108.612,53.382],[-107.505,53.389],[-106.274,53.223],[-105.382,53.126],[-104.414,53.085],[-102.823,52.932],[-102.048,52.988],[-101.329,53.14],[-100.775,53.327],[-100.098,53.783],[-99.465,54.094],[-98.438,54.458],[-97.265,55.028],[-95.854,55.246],[-94.131,55.096],[-93.478,55.003],[-92.181,54.754],[-90.593,54.385],[-87.559,54.619],[-84.742,54.914],[-81.537,55.077],[-80.085,54.848],[-79.161,54.361],[-78.757,53.531],[-78.529,52.732],[-78.103,51.985],[-77.512,51.393],[-76.339,50.698],[-74.762,50.4],[-73.361,50.307],[-72.054,49.902],[-71.711,49.062],[-71.909,48.242],[-73.039,46.713],[-73.311,45.843],[-74.208,45.032],[-76.027,44.716],[-78.13,44.738],[-79.513,44.017],[-80.234,42.951],[-81.559,42.634],[-83.404,43.268],[-85.479,43.7],[-87.381,43.758],[-90.522,42.72],[-92.251,42.029],[-93.865,42.259],[-96.632,43.153],[-99.217,44.795],[-102.157,46.063],[-104.234,47.094],[-105.666,47.094],[-106.537,47.032],[-107.362,47.094],[-109.027,47.172],[-110.304,47.265],[-111.782,47.156],[-113.26,46.876],[-114.303,46.752],[-114.941,46.472],[-116.39,45.714],[-116.579,45.552],[-116.768,45.285],[-116.874,44.907],[-116.865,44.662],[-116.768,44.376],[-116.5,43.841],[-116.44,43.689],[-116.477,43.574],[-116.593,43.5],[-117.077,43.473],[-117.583,43.639],[-117.735,43.708],[-117.956,43.894],[-118.196,44.203],[-118.298,44.254],[-118.556,44.254],[-118.768,44.24],[-118.994,44.203],[-119.261,44.111],[-119.639,43.908],[-119.686,43.816],[-119.699,43.507],[-119.921,43.346],[-120.294,43.299],[-120.475,43.299],[-120.596,43.329],[-120.826,43.468]]]}},{"type":"Feature","properties":{"density":2},"geometry":{"type":"Polygon","coordinates":[[[-119.008,43.288],[-118.803,43.349],[-118.515,43.359],[-118.333,43.334],[-118.224,43.283],[-118.156,43.207],[-118.143,43.147],[-118.156,43.126],[-118.226,43.106],[-118.834,43.071],[-118.934,43.091],[-119.027,43.16],[-119.064,43.233],[-119.008,43.288]]]}},{"type":"Feature","properties":{"density":2},"geometry":{"type":"Polygon","coordinates":[[[-120.7,48.965],[-120.682,49.274],[-120.609,49.509],[-120.545,49.547],[-120.442,49.563],[-120.406,49.499],[-120.414,49.388],[-120.485,49.191],[-120.497,49.051],[-120.533,48.943],[-120.596,48.887],[-120.647,48.882],[-120.679,48.905],[-120.7,48.965]]]}},{"type":"Feature","properties":{"density":2},"geometry":{"type":"Polygon","coordinates":[[[-122.538,43.117],[-122.631,43.038],[-122.721,43.029],[-122.757,43.053],[-122.744,43.085],[-122.606,43.141],[-122.569,43.142],[-122.538,43.117]]]}},{"type":"Feature","properties":{"density":2},"geometry":{"type":"Polygon","coordinates":[[[-118.999,43.192],[-118.838,43.42],[-118.59,43.68],[-118.458,43.759],[-118.396,43.755],[-118.35,43.684],[-118.4,43.585],[-118.677,43.312],[-118.855,43.106],[-118.896,43.085],[-118.937,43.085],[-118.995,43.143],[-118.999,43.192]]]}},{"type":"Feature","properties":{"density":2},"geometry":{"type":"Polygon","coordinates":[[[-120.639,48.928],[-120.648,48.995],[-120.632,49.041],[-120.617,49.077],[-120.575,49.108],[-120.452,49.14],[-120.382,49.112],[-120.354,49.079],[-120.356,48.998],[-120.433,48.941],[-120.584,48.908],[-120.639,48.928]]]}},{"type":"Feature","properties":{"density":2},"geometry":{"type":"Polygon","coordinates":[[[-121.212,48.804],[-121.234,48.829],[-121.236,48.86],[-121.216,48.917],[-121.124,48.925],[-121.091,48.905],[-121.076,48.879],[-121.084,48.853],[-121.128,48.813],[-121.17,48.798],[-121.212,48.804]]]}},{"type":"Feature","properties":{"density":2},"geometry":{"type":"Polygon","coordinates":[[[-121.013,49.176],[-121.042,49.199],[-121.05,49.23],[-121.028,49.244],[-120.958,49.235],[-120.895,49.19],[-120.876,49.127],[-120.898,49.104],[-120.925,49.108],[-121.013,49.176]]]}},{"type":"Feature","properties":{"density":2},"geometry":{"type":"Polygon","coordinates":[[[-122.509,43.002],[-122.142,43.274],[-122.071,43.357],[-121.881,43.704],[-121.765,44.113],[-121.778,44.299],[-121.827,44.493],[-121.927,44.584],[-122.055,44.597],[-122.22,44.531],[-122.369,44.378],[-122.592,43.981],[-122.691,43.617],[-122.741,43.274],[-122.679,43.042],[-122.642,43.001],[-122.584,42.985],[-122.509,43.002]]]}},{"type":"Feature","properties":{"density":2},"geometry":{"type":"Polygon","coordinates":[[[-115.867,43.454],[-115.681,43.255],[-115.551,42.945],[-115.557,42.753],[-115.706,42.555],[-115.781,42.511],[-116.103,42.4],[-116.475,42.344],[-116.717,42.325],[-117.436,42.487],[-117.659,42.648],[-117.883,42.846],[-118.143,42.927],[-118.422,42.914],[-118.757,42.952],[-118.881,42.989],[-119.402,43.243],[-119.557,43.373],[-119.668,43.541],[-119.817,43.658],[-120.102,43.813],[-120.363,43.863],[-120.635,43.894],[-121.131,43.919],[-121.342,43.968],[-121.652,44.142],[-121.826,44.557],[-121.882,44.781],[-121.931,45.103],[-121.851,45.332],[-121.494,45.825],[-121.118,46.104],[-120.727,46.286],[-120.336,46.509],[-120.085,46.76],[-119.932,46.983],[-119.904,47.151],[-119.89,47.444],[-119.946,47.555],[-120.322,47.82],[-120.671,47.806],[-121.131,47.82],[-121.41,48.03],[-121.466,48.099],[-121.55,48.49],[-121.564,48.839],[-121.703,49.201],[-121.759,49.453],[-121.871,49.634],[-122.108,49.829],[-122.457,49.913],[-122.652,49.899],[-123.098,50.122],[-123.489,50.471],[-123.657,50.862],[-123.782,51.406],[-123.196,53.638],[-122.819,55.003],[-122.49,56.51],[-122.584,57.781],[-123.055,59.052],[-124.279,60.182],[-125.268,61.03],[-126.539,61.924],[-127.151,62.725],[-127.81,64.655],[-127.904,65.597],[-127.81,67.951],[-126.916,69.411],[-125.362,70.023],[-123.29,70.541],[-119.853,71.106],[-115.616,70.494],[-114.062,69.834],[-112.979,69.222],[-111.849,68.469],[-110.437,66.68],[-109.919,66.115],[-108.883,65.691],[-107.564,65.785],[-106.905,66.256],[-106.199,67.009],[-105.163,67.951],[-103.609,68.799],[-101.915,69.222],[-100.172,69.128],[-99.607,68.516],[-99.325,67.904],[-99.325,66.962],[-99.749,65.785],[-99.984,64.702],[-99.843,63.855],[-98.948,62.395],[-98.383,61.689],[-97.112,60.653],[-95.417,59.711],[-90.332,57.875],[-87.884,57.64],[-86.377,57.64],[-84.117,58.016],[-81.669,58.064],[-79.785,58.016],[-77.055,58.111],[-74.842,58.111],[-72.676,57.64],[-69.757,56.321],[-68.627,55.615],[-66.555,53.92],[-66.084,51.896],[-65.99,50.059],[-66.414,49.118],[-67.355,47.705],[-68.391,47.234],[-69.71,46.057],[-71.593,45.021],[-74.606,44.551],[-75.595,44.268],[-77.337,43.891],[-79.409,43.138],[-81.245,43.044],[-82.328,43.421],[-84.682,44.645],[-85.812,45.304],[-88.072,46.151],[-90.803,46.716],[-91.462,46.716],[-94.052,46.575],[-98.383,46.575],[-101.067,46.01],[-101.962,45.963],[-105.943,46.481],[-108.245,46.941],[-109.521,46.837],[-110.881,46.774],[-111.844,46.607],[-113.936,46.188],[-114.92,45.853],[-115.255,45.665],[-115.506,45.372],[-115.862,44.849],[-115.945,44.409],[-115.945,43.928],[-115.924,43.551],[-115.867,43.454]]]}},{"type":"Feature","properties":{"density":3},"geometry":{"type":"Polygon","coordinates":[[[-122.011,51.049],[-122.102,51.14],[-122.356,51.272],[-122.485,51.289],[-122.631,51.256],[-122.714,51.195],[-122.747,51.071],[-122.816,50.999],[-122.893,51.013],[-122.995,51.201],[-122.976,51.305],[-122.874,51.429],[-122.518,51.697],[-122.323,51.79],[-122.146,52.005],[-121.882,52.149],[-121.711,52.299],[-121.624,52.448],[-121.244,52.749],[-120.549,53.237],[-120.239,53.386],[-120.045,53.506],[-119.764,53.634],[-119.442,53.737],[-119.256,53.824],[-119.119,53.915],[-118.788,54.072],[-118.375,54.175],[-118.239,54.2],[-118.106,54.204],[-117.787,54.295],[-117.543,54.272],[-117.316,54.226],[-117.125,54.148],[-116.733,54.044],[-116.389,54.049],[-115.203,53.847],[-114.838,53.669],[-114.722,53.539],[-114.656,53.363],[-114.572,53.27],[-114.451,53.182],[-114.321,53.143],[-114.196,53.134],[-113.264,53.193],[-113.037,53.243],[-112.545,53.205],[-112.152,53.156],[-111.33,53.181],[-110.986,53.168],[-109.912,53.263],[-109.655,53.222],[-109.283,53.135],[-108.982,53.032],[-108.771,52.995],[-108.32,52.99],[-107.841,52.945],[-107.37,52.933],[-106.704,52.866],[-106.2,52.78],[-105.952,52.693],[-105.596,52.598],[-105.212,52.523],[-105.026,52.54],[-103.782,52.428],[-102.792,52.42],[-102.147,52.389],[-101.787,52.389],[-101.564,52.445],[-100.882,52.538],[-100.392,52.693],[-99.624,52.909],[-99.078,53.095],[-98.499,53.38],[-98.16,53.521],[-97.333,53.793],[-95.874,54.415],[-95.031,54.682],[-94.69,54.725],[-94.008,54.713],[-93.903,54.564],[-93.878,54.341],[-93.936,54.098],[-94.089,53.887],[-94.461,53.66],[-94.758,53.436],[-95.521,53.07],[-96.122,52.81],[-96.86,52.537],[-97.517,52.27],[-98.317,51.985],[-99.557,51.415],[-100.475,51.074],[-101.238,50.77],[-101.678,50.67],[-103.005,50.559],[-103.662,50.534],[-105.435,50.509],[-106.204,50.429],[-106.681,50.404],[-107.469,50.305],[-107.977,50.205],[-109.087,50.131],[-109.825,50.038],[-110.513,50.026],[-111.032,50.127],[-111.503,50.164],[-111.989,50.094],[-112.485,49.988],[-113.279,49.871],[-114.45,50.013],[-114.773,50.125],[-115.095,50.267],[-115.938,50.726],[-116.174,50.819],[-116.819,50.987],[-117.496,50.95],[-117.941,50.819],[-118.425,50.615],[-118.84,50.329],[-119.423,49.858],[-119.661,49.8],[-120.33,49.8],[-121.029,49.776],[-121.182,49.813],[-121.628,49.751],[-121.67,49.796],[-121.732,50.015],[-121.773,50.098],[-121.897,50.21],[-122.393,50.21],[-122.558,50.226],[-122.67,50.272],[-122.695,50.317],[-122.686,50.408],[-122.624,50.449],[-122.459,50.491],[-122.257,50.503],[-122.157,50.462],[-122.029,50.474],[-122.054,50.515],[-122.281,50.677],[-122.313,50.748],[-122.288,50.794],[-122.131,50.812],[-122.157,50.841],[-122.163,50.877],[-122.008,50.882],[-121.972,50.903],[-121.971,50.976],[-122.011,51.049]]]}},{"type":"Feature","properties":{"density":3},"geometry":{"type":"Polygon","coordinates":[[[-120.801,48.033],[-120.658,47.958],[-120.591,47.904],[-120.37,47.821],[-120.302,47.832],[-120.272,47.88],[-120.23,47.909],[-120.162,47.917],[-119.976,47.86],[-119.84,47.75],[-119.738,47.636],[-119.614,47.456],[-119.598,47.408],[-119.609,47.386],[-119.706,47.377],[-119.952,47.509],[-120.131,47.583],[-120.235,47.578],[-120.249,47.553],[-120.211,47.517],[-120.23,47.484],[-120.266,47.465],[-120.426,47.498],[-120.552,47.589],[-120.751,47.851],[-120.861,47.928],[-120.905,47.983],[-120.916,48.053],[-120.907,48.071],[-120.864,48.087],[-120.801,48.033]]]}},{"type":"Feature","properties":{"density":3},"geometry":{"type":"Polygon","coordinates":[[[-120.585,44.638],[-120.671,44.709],[-120.741,44.739],[-120.844,44.594],[-120.96,44.579],[-121.024,44.54],[-121.015,44.41],[-121.055,44.171],[-121.035,44.081],[-120.919,43.839],[-120.716,43.653],[-120.6,43.623],[-120.487,43.656],[-120.311,43.772],[-120.256,43.829],[-120.063,43.84],[-119.978,43.874],[-119.892,43.94],[-119.832,44.022],[-119.818,44.116],[-119.845,44.314],[-119.743,44.491],[-119.732,44.568],[-119.779,44.642],[-119.862,44.681],[-120.038,44.607],[-120.179,44.64],[-120.292,44.7],[-120.35,44.711],[-120.402,44.706],[-120.518,44.637],[-120.585,44.638]]]}},{"type":"Feature","properties":{"density":3},"geometry":{"type":"Polygon","coordinates":[[[-121.561,44.401],[-121.562,44.46],[-121.528,44.492],[-121.426,44.511],[-121.381,44.489],[-121.373,44.446],[-121.446,44.334],[-121.484,44.305],[-121.552,44.345],[-121.561,44.401]]]}},{"type":"Feature","properties":{"density":3},"geometry":{"type":"Polygon","coordinates":[[[-118.253,45.795],[-118.124,45.778],[-118.099,45.744],[-118.171,45.664],[-118.284,45.629],[-118.364,45.653],[-118.447,45.716],[-118.44,45.758],[-118.378,45.798],[-118.253,45.795]]]}},{"type":"Feature","properties":{"density":3},"geometry":{"type":"Polygon","coordinates":[[[-119.367,48.152],[-119.526,48.321],[-119.547,48.373],[-119.53,48.468],[-119.462,48.511],[-119.406,48.506],[-119.231,48.438],[-119.097,48.299],[-119.075,48.241],[-119.075,48.212],[-119.137,48.168],[-119.278,48.126],[-119.343,48.13],[-119.367,48.152]]]}},{"type":"Feature","properties":{"density":3},"geometry":{"type":"Polygon","coordinates":[[[-122.565,43.137],[-122.632,43.151],[-122.746,43.122],[-122.771,43.105],[-122.776,43.054],[-122.748,43.042],[-122.701,43.049],[-122.553,43.089],[-122.532,43.118],[-122.565,43.137]]]}},{"type":"Feature","properties":{"density":3},"geometry":{"type":"Polygon","coordinates":[[[-118.965,43.143],[-118.992,43.182],[-118.977,43.233],[-118.909,43.294],[-118.845,43.296],[-118.832,43.217],[-118.858,43.143],[-118.9,43.118],[-118.965,43.143]]]}},{"type":"Feature","properties":{"density":3},"geometry":{"type":"Polygon","coordinates":[[[-116.426,59.272],[-116.816,59.524],[-117.5,59.747],[-118.337,59.914],[-119.02,59.956],[-120.625,60.179],[-121.42,60.556],[-122.689,62.091],[-123.247,62.942],[-123.75,63.751],[-124.126,64.476],[-124.322,65.09],[-124.294,65.676],[-123.601,67.089],[-123.396,67.787],[-123.099,68.466],[-122.336,69.256],[-121.471,69.74],[-120.606,70.056],[-119.797,70.205],[-118.002,70.326],[-116.784,70.261],[-116.133,70.28],[-115.435,69.991],[-114.524,69.405],[-113.594,68.875],[-113.37,68.643],[-112.924,68.364],[-112.543,68.085],[-112.04,67.703],[-111.789,67.313],[-111.529,66.801],[-111.296,66.29],[-111.101,65.76],[-111.073,64.844],[-111.151,64.605],[-111.33,64.454],[-111.542,64.426],[-111.793,64.462],[-112.357,64.708],[-112.708,65.085],[-112.987,65.281],[-113.513,65.543],[-113.724,65.474],[-113.823,65.313],[-113.854,65.016],[-113.804,64.805],[-113.643,64.464],[-113.594,64.259],[-113.507,64.048],[-113.37,63.899],[-113.048,63.744],[-112.726,63.538],[-112.61,63.488],[-112.513,63.42],[-112.436,63.33],[-112.362,63.12],[-112.248,62.89],[-112.136,62.705],[-111.963,62.482],[-111.774,61.93],[-111.333,61.679],[-110.87,61.455],[-110.54,61.271],[-110.479,61.059],[-110.596,60.814],[-110.903,60.691],[-111.472,60.607],[-111.947,60.663],[-112.717,60.987],[-113.405,61.245],[-113.749,61.195],[-114.167,61.245],[-114.502,61.245],[-114.895,61.095],[-115.079,61.002],[-115.247,60.71],[-115.138,60.417],[-114.971,60.149],[-114.318,59.596],[-114.117,59.278],[-113.908,58.876],[-113.774,58.533],[-113.723,58.123],[-113.732,57.864],[-114.008,57.629],[-114.736,57.83],[-115.272,58.131],[-115.607,58.424],[-115.866,58.793],[-116.142,59.052],[-116.327,59.178],[-116.426,59.272]]]}},{"type":"Feature","properties":{"density":3},"geometry":{"type":"Polygon","coordinates":[[[-112.996,63.119],[-113.358,63.29],[-113.73,63.57],[-114.028,63.771],[-114.087,63.858],[-114.067,63.957],[-113.933,64.051],[-113.827,64.076],[-113.7,64.079],[-113.579,64.032],[-113.336,63.833],[-113.127,63.712],[-112.77,63.56],[-112.636,63.486],[-112.446,63.322],[-112.419,63.28],[-112.442,63.191],[-112.527,63.134],[-112.557,63.069],[-112.639,63.02],[-112.78,63.025],[-112.914,63.067],[-112.996,63.119]]]}},{"type":"Feature","properties":{"density":3},"geometry":{"type":"Polygon","coordinates":[[[-111.643,63.516],[-111.967,63.757],[-112.111,63.837],[-112.171,63.895],[-112.158,63.919],[-112.111,63.938],[-112.022,63.94],[-111.911,63.893],[-111.627,63.713],[-111.473,63.585],[-111.431,63.519],[-111.449,63.49],[-111.51,63.482],[-111.524,63.458],[-111.571,63.448],[-111.611,63.471],[-111.643,63.516]]]}},{"type":"Feature","properties":{"density":3},"geometry":{"type":"Polygon","coordinates":[[[-120.65,48.935],[-120.65,49.033],[-120.604,49.087],[-120.549,49.077],[-120.532,48.991],[-120.549,48.947],[-120.599,48.922],[-120.65,48.935]]]}},{"type":"Feature","properties":{"density":3},"geometry":{"type":"Polygon","coordinates":[[[-121.55,44.388],[-121.591,44.454],[-121.591,44.562],[-121.566,44.691],[-121.536,44.788],[-121.407,44.967],[-121.115,45.173],[-120.754,45.388],[-120.219,45.664],[-120.084,45.76],[-119.874,45.851],[-119.723,45.95],[-119.238,46.196],[-118.924,46.284],[-118.83,46.265],[-118.742,46.198],[-118.692,46.135],[-118.659,45.909],[-118.601,45.821],[-118.521,45.785],[-118.417,45.782],[-118.334,45.815],[-118.202,45.95],[-118.116,46.08],[-118.031,46.13],[-117.816,46.196],[-117.64,46.223],[-117.273,46.218],[-117.102,46.154],[-117.0,46.077],[-116.948,45.967],[-116.94,45.846],[-117.022,45.747],[-117.127,45.686],[-117.645,45.474],[-117.709,45.408],[-117.72,45.35],[-117.783,45.262],[-117.852,45.237],[-118.028,45.22],[-118.232,45.289],[-118.34,45.306],[-118.453,45.295],[-118.747,45.209],[-119.095,44.997],[-119.224,44.892],[-119.464,44.636],[-119.704,44.495],[-119.855,44.451],[-119.932,44.449],[-120.029,44.476],[-120.156,44.484],[-120.382,44.418],[-120.693,44.264],[-120.811,44.223],[-120.889,44.217],[-121.07,44.33],[-121.203,44.347],[-121.47,44.338],[-121.503,44.344],[-121.55,44.388]]]}},{"type":"Feature","properties":{"density":3},"geometry":{"type":"Polygon","coordinates":[[[-122.573,43.11],[-122.606,43.277],[-122.617,43.521],[-122.573,43.61],[-122.51,43.646],[-122.485,43.606],[-122.481,43.536],[-122.547,43.292],[-122.54,43.11],[-122.573,43.11]]]}},{"type":"Feature","properties":{"density":3},"geometry":{"type":"Polygon","coordinates":[[[-118.937,43.2],[-118.832,43.379],[-118.524,43.674],[-118.419,43.826],[-118.284,43.928],[-118.215,43.961],[-118.154,43.98],[-118.127,43.963],[-118.132,43.897],[-118.413,43.644],[-118.557,43.539],[-118.692,43.374],[-118.86,43.128],[-118.89,43.115],[-118.929,43.145],[-118.937,43.2]]]}},{"type":"Feature","properties":{"density":3},"geometry":{"type":"Polygon","coordinates":[[[-120.788,47.927],[-120.606,48.042],[-120.482,48.059],[-120.267,48.034],[-120.159,48.047],[-119.977,48.125],[-119.928,48.237],[-119.961,48.34],[-120.085,48.489],[-120.238,48.51],[-120.589,48.361],[-120.767,48.257],[-120.92,48.076],[-120.936,48.022],[-120.932,47.943],[-120.891,47.902],[-120.862,47.898],[-120.796,47.91],[-120.788,47.927]]]}},{"type":"Feature","properties":{"density":3},"geometry":{"type":"Polygon","coordinates":[[[-119.341,48.193],[-119.242,48.295],[-119.203,48.402],[-119.12,48.507],[-119.052,48.54],[-118.985,48.512],[-118.969,48.482],[-118.974,48.416],[-118.991,48.38],[-119.087,48.289],[-119.087,48.242],[-119.115,48.184],[-119.242,48.129],[-119.311,48.132],[-119.341,48.193]]]}},{"type":"Feature","properties":{"density":3},"geometry":{"type":"Polygon","coordinates":[[[-122.9,51.055],[-122.937,51.146],[-122.95,51.233],[-122.929,51.308],[-122.855,51.365],[-122.702,51.531],[-122.441,51.692],[-122.334,51.795],[-122.144,51.928],[-121.854,52.072],[-121.4,52.167],[-120.523,52.502],[-120.04,52.646],[-119.901,52.646],[-119.65,52.609],[-119.538,52.562],[-119.371,52.432],[-119.305,52.283],[-119.278,52.106],[-119.343,51.902],[-119.408,51.725],[-119.529,51.595],[-119.808,51.437],[-120.161,51.325],[-120.868,51.046],[-121.175,50.972],[-121.417,50.823],[-121.826,50.442],[-122.216,50.191],[-122.43,50.116],[-122.626,50.191],[-122.644,50.302],[-122.579,50.442],[-122.105,50.656],[-121.975,50.786],[-121.956,50.86],[-121.993,50.99],[-122.123,51.093],[-122.598,51.009],[-122.793,51.046],[-122.895,51.093],[-122.9,51.055]]]}},{"type":"Feature","properties":{"density":3},"geometry":{"type":"Polygon","coordinates":[[[-106.128,62.609],[-107.252,63.158],[-107.525,63.34],[-108.05,63.642],[-108.323,63.853],[-108.637,64.018],[-108.695,64.142],[-108.662,64.183],[-108.612,64.196],[-108.343,64.088],[-108.05,63.931],[-107.777,63.762],[-106.938,63.311],[-106.537,63.047],[-106.33,62.943],[-105.958,62.708],[-105.925,62.658],[-105.934,62.625],[-106.0,62.604],[-106.128,62.609]]]}},{"type":"Feature","properties":{"density":3},"geometry":{"type":"Polygon","coordinates":[[[-109.517,61.777],[-109.757,61.992],[-109.955,62.136],[-110.666,62.413],[-110.898,62.533],[-110.952,62.603],[-110.927,62.719],[-110.815,62.773],[-110.675,62.789],[-110.406,62.727],[-110.249,62.628],[-109.989,62.529],[-109.592,62.273],[-109.298,61.963],[-109.265,61.905],[-109.261,61.835],[-109.311,61.76],[-109.426,61.76],[-109.526,61.822],[-109.517,61.777]]]}},{"type":"Feature","properties":{"density":3},"geometry":{"type":"Polygon","coordinates":[[[-110.059,63.175],[-110.717,63.634],[-111.107,63.944],[-111.237,64.055],[-111.244,64.155],[-111.194,64.186],[-111.101,64.198],[-110.965,64.161],[-110.723,64.006],[-110.593,63.894],[-110.258,63.51],[-110.09,63.336],[-110.016,63.28],[-109.948,63.156],[-109.973,63.138],[-110.059,63.175]]]}},{"type":"Feature","properties":{"density":3},"geometry":{"type":"Polygon","coordinates":[[[-111.585,63.454],[-113.001,64.456],[-113.385,64.803],[-113.974,65.187],[-114.353,65.528],[-114.588,65.677],[-114.842,65.745],[-115.041,65.844],[-115.153,65.875],[-115.238,65.858],[-115.329,65.759],[-115.308,65.693],[-115.238,65.618],[-115.068,65.482],[-114.829,65.329],[-114.622,65.143],[-114.2,64.829],[-113.927,64.672],[-113.795,64.535],[-113.357,64.221],[-112.803,63.75],[-112.592,63.593],[-112.448,63.415],[-112.41,63.333],[-112.423,63.237],[-112.472,63.151],[-112.696,63.002],[-113.56,63.287],[-114.171,63.614],[-114.772,63.812],[-114.939,63.812],[-115.232,63.707],[-115.442,63.561],[-115.609,63.352],[-116.153,62.933],[-116.885,62.159],[-117.869,61.615],[-119.229,61.175],[-121.092,61.008],[-122.096,60.945],[-123.665,61.385],[-125.172,61.971],[-126.365,63.059],[-126.825,63.498],[-127.223,64.649],[-127.223,65.528],[-127.014,66.511],[-126.449,67.6],[-125.988,68.206],[-124.398,69.106],[-123.896,69.42],[-122.724,69.65],[-120.631,69.65],[-117.492,69.483],[-116.265,69.204],[-115.818,68.934],[-115.595,68.739],[-115.465,68.646],[-114.888,67.911],[-114.795,67.716],[-114.563,67.307],[-114.479,67.102],[-113.977,66.321],[-113.595,65.679],[-113.512,65.577],[-113.075,64.879],[-112.824,64.656],[-112.033,64.163],[-111.652,63.866],[-111.414,63.551],[-111.411,63.509],[-111.447,63.454],[-111.524,63.432],[-111.585,63.454]]]}}]}