{"type":"FeatureCollection","features":[{"type":"Feature","properties":{"density":1},"geometry":{"type":"Polygon","coordinates":[[[-84.104,31.133],[-84.139,31.107],[-84.119,31.076],[-84.06,31.063],[-84.054,31.109],[-84.104,31.133]]]}},{"type":"Feature","properties":{"density":1},"geometry":{"type":"Polygon","coordinates":[[[-87.689,32.411],[-87.799,32.248],[-87.87,32.177],[-87.898,32.196],[-87.843,32.298],[-87.752,32.408],[-87.702,32.441],[-87.683,32.436],[-87.689,32.411]]]}},{"type":"Feature","properties":{"density":1},"geometry":{"type":"Polygon","coordinates":[[[-92.696,30.545],[-92.729,30.559],[-92.759,30.534],[-92.911,30.336],[-93.23,30.005],[-93.305,29.865],[-93.296,29.834],[-93.205,29.79],[-93.137,29.785],[-92.952,29.901],[-92.765,30.107],[-92.682,30.25],[-92.66,30.328],[-92.652,30.443],[-92.668,30.521],[-92.696,30.545]]]}},{"type":"Feature","properties":{"density":1},"geometry":{"type":"Polygon","coordinates":[[[-92.316,29.802],[-92.264,29.791],[-92.234,29.714],[-92.275,29.535],[-92.38,29.326],[-92.509,29.135],[-92.878,28.692],[-93.036,28.551],[-93.104,28.518],[-93.193,28.507],[-93.242,28.537],[-93.223,28.598],[-93.099,28.75],[-92.829,29.014],[-92.788,29.086],[-92.713,29.312],[-92.545,29.648],[-92.446,29.758],[-92.341,29.808],[-92.316,29.802]]]}},{"type":"Feature","properties":{"density":1},"geometry":{"type":"Polygon","coordinates":[[[-93.996,37.751],[-94.018,37.725],[-93.991,37.707],[-93.908,37.698],[-93.897,37.718],[-93.996,37.751]]]}},{"type":"Feature","properties":{"density":1},"geometry":{"type":"Polygon","coordinates":[[[-94.873,36.002],[-95.037,35.982],[-95.167,35.942],[-95.285,35.954],[-95.255,35.98],[-95.141,36.0],[-94.844,36.028],[-94.84,36.013],[-94.873,36.002]]]}},{"type":"Feature","properties":{"density":1},"geometry":{"type":"Polygon","coordinates":[[[-89.684,20.927],[-90.022,21.15],[-90.115,21.183],[-90.155,21.175],[-90.161,21.154],[-90.089,21.081],[-89.923,20.985],[-89.706,20.892],[-89.671,20.901],[-89.684,20.927]]]}},{"type":"Feature","properties":{"density":1},"geometry":{"type":"Polygon","coordinates":[[[-90.41,20.423],[-90.335,20.437],[-90.335,20.494],[-90.557,20.581],[-90.68,20.683],[-90.769,20.716],[-91.176,20.816],[-91.807,20.943],[-91.898,20.913],[-91.909,20.88],[-91.851,20.822],[-91.744,20.761],[-91.322,20.582],[-90.675,20.439],[-90.454,20.414],[-90.41,20.423]]]}},{"type":"Feature","properties":{"density":1},"geometry":{"type":"Polygon","coordinates":[[[-90.608,19.772],[-90.584,19.815],[-90.651,19.864],[-90.936,19.971],[-91.432,20.19],[-91.795,20.322],[-91.911,20.33],[-91.963,20.314],[-91.972,20.278],[-91.825,20.173],[-91.514,20.01],[-91.266,19.903],[-90.996,19.817],[-90.767,19.765],[-90.621,19.754],[-90.608,19.772]]]}},{"type":"Feature","properties":{"density":1},"geometry":{"type":"Polygon","coordinates":[[[-92.877,17.867],[-92.864,17.832],[-93.031,17.832],[-93.055,17.847],[-92.877,17.867]]]}},{"type":"Feature","properties":{"density":1},"geometry":{"type":"Polygon","coordinates":[[[-92.901,17.738],[-92.937,17.714],[-93.106,17.694],[-93.182,17.663],[-93.312,17.672],[-93.406,17.698],[-93.481,17.731],[-93.599,17.823],[-93.663,17.915],[-93.689,17.983],[-93.676,18.018],[-93.648,18.034],[-93.591,18.034],[-93.29,17.977],[-93.196,17.942],[-93.059,17.81],[-92.917,17.784],[-92.901,17.738]]]}},{"type":"Feature","properties":{"density":1},"geometry":{"type":"Polygon","coordinates":[[[-119.503,37.855],[-119.522,37.929],[-119.497,38.072],[-119.553,38.14],[-119.609,38.171],[-119.683,38.134],[-119.757,37.936],[-119.826,37.855],[-119.943,37.78],[-120.018,37.756],[-120.185,37.743],[-120.315,37.656],[-120.328,37.576],[-120.216,37.421],[-120.198,37.322],[-120.247,37.179],[-120.241,37.03],[-120.198,36.95],[-120.191,36.881],[-120.216,36.782],[-120.365,36.59],[-120.309,36.398],[-120.229,36.274],[-120.21,36.137],[-120.297,35.908],[-120.303,35.654],[-120.111,35.263],[-120.049,35.195],[-119.912,35.17],[-119.553,35.003],[-119.454,34.972],[-119.1,34.99],[-118.958,35.108],[-118.896,35.245],[-118.871,35.362],[-118.914,35.424],[-119.051,35.499],[-119.156,35.61],[-119.23,35.809],[-119.199,35.92],[-119.144,36.026],[-119.1,36.181],[-119.082,36.317],[-118.97,36.553],[-118.97,36.664],[-119.044,36.764],[-119.094,36.892],[-119.148,36.958],[-119.193,37.094],[-119.144,37.189],[-119.177,37.256],[-119.115,37.437],[-119.168,37.566],[-119.226,37.59],[-119.292,37.549],[-119.325,37.491],[-119.47,37.487],[-119.511,37.442],[-119.623,37.413],[-119.652,37.433],[-119.64,37.483],[-119.499,37.607],[-119.483,37.681],[-119.507,37.789],[-119.503,37.855]]]}},{"type":"Feature","properties":{"density":1},"geometry":{"type":"Polygon","coordinates":[[[-100.507,51.409],[-100.532,51.52],[-100.528,51.599],[-100.507,51.64],[-100.421,51.661],[-99.722,51.516],[-99.652,51.479],[-99.557,51.322],[-99.503,51.169],[-99.503,51.041],[-99.54,50.921],[-99.627,50.871],[-99.73,50.888],[-99.809,50.921],[-100.131,51.144],[-100.371,51.219],[-100.499,51.339],[-100.507,51.409]]]}},{"type":"Feature","properties":{"density":1},"geometry":{"type":"Polygon","coordinates":[[[-86.51,43.612],[-86.741,43.618],[-86.993,43.603],[-87.118,43.619],[-87.112,43.64],[-87.064,43.656],[-86.717,43.682],[-86.512,43.662],[-86.482,43.634],[-86.499,43.605],[-86.51,43.612]]]}},{"type":"Feature","properties":{"density":1},"geometry":{"type":"Polygon","coordinates":[[[-115.271,47.747],[-115.217,47.817],[-115.11,47.875],[-115.043,47.887],[-114.965,47.867],[-114.99,47.796],[-115.134,47.705],[-115.209,47.681],[-115.279,47.701],[-115.271,47.747]]]}},{"type":"Feature","properties":{"density":1},"geometry":{"type":"Polygon","coordinates":[[[-96.789,54.653],[-96.6,54.809],[-96.035,55.186],[-95.408,55.531],[-94.905,55.751],[-93.556,56.504],[-91.39,56.85],[-90.95,57.164],[-90.636,57.446],[-90.166,57.666],[-89.538,57.76],[-89.036,57.666],[-88.282,57.352],[-88.251,56.944],[-87.717,56.222],[-86.807,55.657],[-86.493,55.061],[-86.462,54.464],[-86.744,53.523],[-86.87,52.644],[-86.744,51.419],[-86.305,50.603],[-85.865,49.976],[-84.673,49.065],[-83.919,48.657],[-83.072,48.343],[-82.287,48.155],[-77.736,47.747],[-75.413,47.872],[-73.938,48.281],[-72.525,48.563],[-68.115,50.745],[-66.279,53.428],[-64.725,54.935],[-60.958,56.771],[-58.322,57.43],[-52.201,58.137],[-50.411,58.09],[-47.916,57.195],[-43.914,56.348],[-41.324,55.688],[-39.488,55.971],[-35.345,57.478],[-33.414,58.419],[-31.249,59.408],[-28.235,60.114],[-26.258,60.397],[-22.491,61.338],[-20.702,62.28],[-19.384,63.787],[-18.96,65.623],[-19.901,66.988],[-22.067,67.177],[-24.61,66.47],[-27.294,65.435],[-31.249,64.069],[-34.45,63.222],[-37.087,62.704],[-40.289,62.515],[-42.266,62.468],[-44.102,62.515],[-46.409,63.175],[-47.916,63.975],[-53.048,67.648],[-54.319,68.354],[-60.346,68.307],[-63.312,66.8],[-66.844,65.67],[-69.527,66.047],[-71.364,66.659],[-73.012,67.13],[-75.083,67.506],[-77.579,67.365],[-84.123,67.695],[-86.43,67.6],[-89.302,67.506],[-91.327,67.459],[-93.869,67.13],[-101.905,67.977],[-104.856,68.165],[-107.116,67.914],[-110.255,67.349],[-113.519,67.004],[-114.555,66.847],[-116.783,66.659],[-120.111,64.901],[-122.276,64.085],[-123.689,63.457],[-124.505,62.484],[-124.937,62.045],[-125.478,61.637],[-125.635,60.883],[-125.353,60.255],[-124.662,59.596],[-124.066,59.188],[-123.155,58.812],[-122.276,58.372],[-120.613,57.713],[-116.721,56.552],[-115.34,56.426],[-113.613,56.489],[-112.923,56.457],[-112.044,56.332],[-111.447,56.018],[-111.322,55.578],[-111.29,54.888],[-112.075,54.229],[-113.99,53.224],[-114.869,52.785],[-116.25,52.188],[-117.725,51.623],[-121.366,50.085],[-123.815,49.301],[-124.631,48.736],[-125.007,47.857],[-124.819,47.009],[-124.191,46.57],[-123.469,46.413],[-122.12,46.507],[-120.99,46.758],[-120.299,46.884],[-117.16,48.014],[-116.218,48.736],[-114.304,49.991],[-112.923,51.027],[-111.636,51.906],[-110.631,52.691],[-109.972,53.067],[-109.25,53.35],[-108.434,53.695],[-107.21,53.915],[-104.322,54.197],[-102.596,54.7],[-99.865,54.166],[-98.672,54.229],[-97.762,54.417],[-97.259,54.448],[-96.789,54.653]],[[-106.156,57.242],[-105.109,57.305],[-104.272,57.577],[-103.561,58.079],[-103.393,58.372],[-103.54,59.0],[-104.126,59.293],[-105.402,59.397],[-106.804,59.188],[-107.662,59.125],[-108.416,58.916],[-108.939,58.853],[-110.906,59.021],[-111.513,59.105],[-112.078,59.209],[-113.229,59.105],[-113.04,58.791],[-111.848,58.581],[-111.052,58.414],[-109.504,57.933],[-108.73,57.807],[-108.123,57.661],[-107.6,57.514],[-107.202,57.368],[-106.658,57.242],[-106.156,57.242]]]}},{"type":"Feature","properties":{"density":1},"geometry":{"type":"Polygon","coordinates":[[[-97.881,36.372],[-97.183,36.093],[-96.597,35.828],[-95.844,35.66],[-94.895,35.256],[-94.142,35.061],[-93.751,35.047],[-93.472,35.088],[-93.235,35.102],[-93.054,35.075],[-92.803,34.977],[-92.426,34.865],[-90.891,34.935],[-89.789,34.837],[-89.12,34.74],[-87.543,34.837],[-87.153,34.879],[-86.664,34.823],[-86.246,34.712],[-85.855,34.447],[-85.451,34.014],[-85.325,33.652],[-85.409,33.219],[-85.465,32.828],[-85.241,32.508],[-85.074,32.117],[-85.074,31.796],[-85.199,31.559],[-85.395,31.364],[-85.646,31.224],[-85.813,31.029],[-86.009,30.861],[-86.092,30.694],[-86.092,30.513],[-85.883,30.289],[-85.744,30.08],[-85.73,29.941],[-85.827,29.773],[-85.827,29.55],[-85.381,29.187],[-85.018,28.992],[-84.641,28.825],[-83.421,28.057],[-82.974,28.057],[-82.109,28.364],[-81.468,28.671],[-80.742,28.978],[-80.128,29.215],[-79.668,29.243],[-79.333,28.992],[-79.305,28.434],[-79.57,28.043],[-79.933,27.723],[-80.226,27.374],[-81.244,26.076],[-81.44,25.449],[-81.412,24.905],[-81.454,24.486],[-81.607,24.109],[-81.942,23.747],[-82.542,23.482],[-82.905,23.342],[-83.421,23.244],[-84.09,23.175],[-84.397,23.105],[-84.732,22.924],[-85.546,22.768],[-85.89,22.74],[-86.299,22.619],[-86.625,22.359],[-86.885,22.117],[-87.164,21.921],[-87.583,21.856],[-88.373,21.893],[-88.978,21.838],[-89.313,21.782],[-89.619,21.698],[-89.805,21.633],[-89.964,21.54],[-90.382,21.28],[-91.126,19.913],[-91.303,19.354],[-91.461,19.066],[-91.526,18.638],[-91.331,18.183],[-91.303,17.904],[-91.349,17.494],[-91.461,17.234],[-91.61,17.178],[-91.917,17.169],[-92.447,17.225],[-92.679,17.225],[-92.968,17.169],[-93.182,17.104],[-93.321,16.992],[-93.498,16.741],[-93.581,16.527],[-93.619,16.267],[-92.333,14.163],[-91.97,13.814],[-91.496,13.521],[-90.91,13.27],[-90.324,13.06],[-89.919,12.823],[-89.501,12.391],[-89.236,11.916],[-89.222,11.4],[-89.487,11.01],[-90.129,10.675],[-90.491,10.605],[-90.729,10.452],[-91.133,9.894],[-91.426,9.643],[-91.859,9.531],[-92.361,9.615],[-92.765,9.768],[-93.686,9.88],[-94.146,10.075],[-94.439,10.438],[-94.691,10.786],[-94.9,11.107],[-95.095,11.526],[-95.221,11.986],[-95.221,12.349],[-95.276,12.656],[-95.416,12.935],[-95.695,13.2],[-95.974,13.409],[-96.783,13.632],[-97.271,13.856],[-97.62,14.149],[-97.857,14.483],[-98.025,15.279],[-98.29,16.144],[-98.597,16.548],[-100.257,17.804],[-100.857,18.055],[-101.401,18.194],[-102.21,18.306],[-102.684,18.334],[-103.131,18.278],[-103.521,18.013],[-103.898,17.287],[-104.01,16.841],[-104.316,15.097],[-104.526,14.33],[-104.4,12.433],[-104.442,11.93],[-104.554,11.554],[-104.805,11.317],[-105.195,11.135],[-105.642,11.01],[-106.186,10.968],[-108.376,11.498],[-109.046,11.351],[-109.548,11.205],[-110.071,10.975],[-110.511,10.849],[-110.95,10.912],[-111.369,10.996],[-112.038,10.996],[-112.54,10.933],[-113.587,11.247],[-113.942,11.393],[-114.884,11.896],[-115.407,12.147],[-115.847,12.356],[-116.307,12.523],[-117.27,12.461],[-117.751,12.209],[-118.19,11.665],[-118.546,11.184],[-118.86,10.912],[-119.237,10.661],[-119.885,10.577],[-120.429,10.577],[-121.12,10.912],[-121.413,11.289],[-121.539,11.728],[-121.392,12.293],[-120.681,13.109],[-120.304,13.758],[-120.053,14.449],[-119.446,15.516],[-119.132,15.83],[-118.734,16.123],[-117.186,16.75],[-115.784,16.625],[-115.135,16.688],[-114.738,16.813],[-114.256,17.043],[-112.938,16.939],[-112.499,16.771],[-112.059,16.625],[-111.473,16.583],[-110.866,16.562],[-110.322,16.75],[-109.757,17.232],[-109.422,17.964],[-109.401,18.466],[-109.715,18.927],[-110.113,19.241],[-110.845,20.329],[-111.243,20.768],[-111.599,21.061],[-112.017,21.856],[-112.038,22.191],[-111.913,23.384],[-111.934,23.761],[-111.808,24.158],[-111.62,24.598],[-110.824,25.414],[-110.511,25.769],[-110.176,26.041],[-110.092,26.272],[-110.343,26.816],[-110.197,27.297],[-109.862,27.548],[-109.422,27.695],[-108.899,27.736],[-108.46,27.695],[-107.895,27.402],[-107.351,26.92],[-106.932,26.502],[-106.451,25.958],[-105.258,24.556],[-105.007,24.242],[-104.609,23.844],[-104.233,23.405],[-103.751,22.882],[-103.396,22.379],[-103.082,22.003],[-102.726,21.647],[-102.496,21.312],[-101.115,19.534],[-100.508,19.01],[-99.566,18.299],[-98.018,17.294],[-97.683,17.253],[-97.306,17.253],[-96.846,17.483],[-96.574,17.859],[-96.532,18.383],[-96.741,18.989],[-97.704,19.847],[-98.101,20.475],[-98.332,21.019],[-98.876,22.4],[-99.043,22.944],[-99.085,23.468],[-99.106,25.079],[-98.855,26.125],[-98.792,26.502],[-98.771,27.004],[-98.792,27.569],[-98.897,28.029],[-99.19,28.322],[-99.42,28.594],[-100.194,29.327],[-100.32,29.724],[-100.152,30.059],[-99.106,30.185],[-98.771,30.373],[-98.541,30.541],[-98.29,30.938],[-98.185,31.294],[-98.604,32.696],[-98.834,33.073],[-99.022,33.596],[-99.985,34.6],[-100.299,34.83],[-100.487,35.186],[-100.508,35.667],[-100.403,36.023],[-100.152,36.337],[-99.922,36.525],[-99.692,36.672],[-99.42,36.777],[-99.043,36.797],[-98.52,36.714],[-97.881,36.372]]]}},{"type":"Feature","properties":{"density":1},"geometry":{"type":"Polygon","coordinates":[[[-118.199,49.698],[-118.113,49.777],[-118.04,49.781],[-118.02,49.758],[-118.022,49.72],[-118.058,49.579],[-118.016,49.485],[-117.906,49.41],[-117.65,49.347],[-117.627,49.334],[-117.632,49.299],[-117.911,49.331],[-118.102,49.39],[-118.152,49.419],[-118.209,49.508],[-118.222,49.574],[-118.199,49.698]]]}},{"type":"Feature","properties":{"density":1},"geometry":{"type":"Polygon","coordinates":[[[-92.759,30.924],[-92.888,30.828],[-92.892,30.764],[-92.833,30.754],[-92.752,30.825],[-92.713,30.905],[-92.72,30.926],[-92.759,30.924]]]}},{"type":"Feature","properties":{"density":1},"geometry":{"type":"Polygon","coordinates":[[[-92.285,29.8],[-92.647,29.672],[-92.97,29.626],[-93.033,29.601],[-93.104,29.532],[-93.108,29.496],[-93.026,29.408],[-92.997,29.312],[-92.997,29.211],[-93.012,29.095],[-93.175,28.662],[-93.15,28.627],[-93.103,28.612],[-93.009,28.668],[-92.677,28.995],[-92.547,29.207],[-92.368,29.609],[-92.261,29.737],[-92.251,29.779],[-92.285,29.8]]]}},{"type":"Feature","properties":{"density":1},"geometry":{"type":"Polygon","coordinates":[[[-92.061,30.906],[-92.097,30.894],[-92.14,30.793],[-92.134,30.77],[-92.11,30.769],[-92.072,30.809],[-92.044,30.891],[-92.061,30.906]]]}},{"type":"Feature","properties":{"density":1},"geometry":{"type":"Polygon","coordinates":[[[-91.926,31.016],[-92.006,30.925],[-92.037,30.835],[-92.032,30.808],[-91.987,30.825],[-91.887,30.986],[-91.894,31.019],[-91.926,31.016]]]}},{"type":"Feature","properties":{"density":1},"geometry":{"type":"Polygon","coordinates":[[[-92.145,30.954],[-92.244,30.889],[-92.393,30.668],[-92.374,30.636],[-92.297,30.631],[-92.202,30.708],[-92.116,30.925],[-92.125,30.95],[-92.145,30.954]]]}},{"type":"Feature","properties":{"density":1},"geometry":{"type":"Polygon","coordinates":[[[-88.836,31.062],[-88.913,31.049],[-88.972,31.02],[-89.049,30.935],[-89.054,30.892],[-88.985,30.896],[-88.862,30.966],[-88.818,31.035],[-88.822,31.061],[-88.836,31.062]]]}},{"type":"Feature","properties":{"density":1},"geometry":{"type":"Polygon","coordinates":[[[-87.82,31.668],[-87.894,31.629],[-87.952,31.569],[-88.013,31.476],[-88.015,31.419],[-87.942,31.437],[-87.839,31.547],[-87.792,31.628],[-87.8,31.662],[-87.82,31.668]]]}},{"type":"Feature","properties":{"density":1},"geometry":{"type":"Polygon","coordinates":[[[-89.433,34.3],[-89.362,34.264],[-89.346,34.225],[-89.378,34.142],[-89.414,34.099],[-89.472,34.065],[-89.499,34.08],[-89.504,34.195],[-89.464,34.286],[-89.433,34.3]]]}},{"type":"Feature","properties":{"density":1},"geometry":{"type":"Polygon","coordinates":[[[-90.105,33.598],[-90.225,33.5],[-90.259,33.43],[-90.256,33.387],[-90.203,33.392],[-90.154,33.418],[-90.084,33.492],[-90.064,33.56],[-90.07,33.583],[-90.105,33.598]]]}},{"type":"Feature","properties":{"density":1},"geometry":{"type":"Polygon","coordinates":[[[-91.544,32.934],[-91.69,32.808],[-91.71,32.748],[-91.701,32.736],[-91.679,32.724],[-91.651,32.737],[-91.534,32.828],[-91.487,32.892],[-91.474,32.936],[-91.544,32.934]]]}},{"type":"Feature","properties":{"density":1},"geometry":{"type":"Polygon","coordinates":[[[-92.829,31.949],[-92.952,31.92],[-92.971,31.895],[-92.971,31.851],[-92.932,31.85],[-92.805,31.912],[-92.806,31.939],[-92.829,31.949]]]}},{"type":"Feature","properties":{"density":1},"geometry":{"type":"Polygon","coordinates":[[[-93.669,30.504],[-93.7,30.501],[-93.76,30.456],[-93.801,30.356],[-93.758,30.35],[-93.658,30.417],[-93.613,30.482],[-93.621,30.497],[-93.669,30.504]]]}},{"type":"Feature","properties":{"density":1},"geometry":{"type":"Polygon","coordinates":[[[-89.972,30.831],[-90.067,30.746],[-90.113,30.658],[-90.115,30.603],[-90.02,30.634],[-89.961,30.689],[-89.935,30.801],[-89.944,30.828],[-89.972,30.831]]]}},{"type":"Feature","properties":{"density":1},"geometry":{"type":"Polygon","coordinates":[[[-90.382,32.426],[-90.43,32.404],[-90.442,32.358],[-90.415,32.349],[-90.371,32.38],[-90.353,32.416],[-90.382,32.426]]]}},{"type":"Feature","properties":{"density":1},"geometry":{"type":"Polygon","coordinates":[[[-91.109,35.148],[-91.296,35.018],[-91.362,34.929],[-91.403,34.83],[-91.398,34.754],[-91.383,34.732],[-91.329,34.722],[-91.298,34.738],[-91.177,34.886],[-91.077,35.055],[-91.073,35.129],[-91.109,35.148]]]}},{"type":"Feature","properties":{"density":1},"geometry":{"type":"Polygon","coordinates":[[[-91.336,33.738],[-91.375,33.71],[-91.377,33.685],[-91.32,33.699],[-91.315,33.728],[-91.336,33.738]]]}},{"type":"Feature","properties":{"density":1},"geometry":{"type":"Polygon","coordinates":[[[-91.968,34.648],[-92.046,34.614],[-92.156,34.505],[-92.186,34.461],[-92.176,34.395],[-92.13,34.387],[-92.095,34.406],[-91.927,34.57],[-91.918,34.625],[-91.968,34.648]]]}},{"type":"Feature","properties":{"density":1},"geometry":{"type":"Polygon","coordinates":[[[-91.734,34.591],[-91.777,34.587],[-91.881,34.528],[-91.996,34.417],[-92.016,34.367],[-91.999,34.326],[-91.921,34.321],[-91.818,34.374],[-91.708,34.515],[-91.704,34.558],[-91.734,34.591]]]}},{"type":"Feature","properties":{"density":1},"geometry":{"type":"Polygon","coordinates":[[[-90.67,35.468],[-90.83,35.301],[-90.868,35.209],[-90.865,35.177],[-90.844,35.163],[-90.762,35.182],[-90.683,35.276],[-90.629,35.438],[-90.634,35.463],[-90.67,35.468]]]}},{"type":"Feature","properties":{"density":1},"geometry":{"type":"Polygon","coordinates":[[[-92.883,17.879],[-93.015,17.885],[-93.181,17.957],[-93.244,18.143],[-93.331,18.213],[-93.484,18.254],[-93.932,18.249],[-94.076,18.195],[-94.209,18.097],[-94.33,18.066],[-94.425,18.002],[-94.441,17.94],[-94.436,17.878],[-94.382,17.839],[-94.205,17.814],[-94.155,17.79],[-94.096,17.638],[-94.059,17.604],[-93.95,17.59],[-93.925,17.551],[-93.941,17.494],[-94.021,17.387],[-94.001,17.336],[-93.925,17.259],[-93.841,17.202],[-93.769,17.197],[-93.67,17.218],[-93.572,17.267],[-93.37,17.445],[-93.241,17.606],[-93.153,17.652],[-92.892,17.724],[-92.864,17.857],[-92.883,17.879]]]}},{"type":"Feature","properties":{"density":1},"geometry":{"type":"Polygon","coordinates":[[[-90.597,19.747],[-90.908,19.843],[-91.597,20.132],[-91.78,20.243],[-91.831,20.318],[-91.823,20.354],[-91.772,20.373],[-91.698,20.373],[-90.976,19.997],[-90.583,19.827],[-90.557,19.763],[-90.597,19.747]]]}},{"type":"Feature","properties":{"density":1},"geometry":{"type":"Polygon","coordinates":[[[-90.364,20.424],[-90.671,20.477],[-90.886,20.533],[-91.44,20.74],[-91.632,20.875],[-91.663,20.926],[-91.664,20.971],[-91.631,20.987],[-91.345,20.896],[-90.968,20.735],[-90.464,20.56],[-90.321,20.486],[-90.329,20.445],[-90.364,20.424]]]}},{"type":"Feature","properties":{"density":1},"geometry":{"type":"Polygon","coordinates":[[[-89.701,20.86],[-90.043,20.92],[-90.133,20.953],[-90.181,20.999],[-90.185,21.051],[-90.15,21.089],[-90.09,21.109],[-89.97,21.09],[-89.684,20.948],[-89.66,20.906],[-89.701,20.86]]]}},{"type":"Feature","properties":{"density":1},"geometry":{"type":"Polygon","coordinates":[[[-91.818,32.902],[-91.897,32.851],[-91.933,32.779],[-91.88,32.764],[-91.836,32.784],[-91.781,32.873],[-91.787,32.897],[-91.818,32.902]]]}},{"type":"Feature","properties":{"density":1},"geometry":{"type":"Polygon","coordinates":[[[-115.248,47.758],[-115.171,47.816],[-115.125,47.803],[-115.14,47.77],[-115.223,47.714],[-115.253,47.721],[-115.248,47.758]]]}},{"type":"Feature","properties":{"density":1},"geometry":{"type":"Polygon","coordinates":[[[-93.175,18.443],[-93.263,18.449],[-93.499,18.42],[-93.546,18.385],[-93.549,18.335],[-93.487,18.314],[-93.228,18.368],[-93.174,18.412],[-93.175,18.443]]]}},{"type":"Feature","properties":{"density":1},"geometry":{"type":"Polygon","coordinates":[[[-119.626,38.152],[-119.667,38.122],[-119.775,37.921],[-119.857,37.828],[-120.046,37.724],[-120.082,37.626],[-120.076,37.443],[-119.99,37.042],[-120.05,36.471],[-120.083,36.316],[-120.164,36.133],[-120.178,35.965],[-120.146,35.882],[-120.003,35.768],[-119.835,35.729],[-119.674,35.747],[-119.463,35.84],[-119.313,35.965],[-119.173,36.129],[-119.012,36.674],[-118.934,36.878],[-118.985,36.995],[-119.066,37.121],[-119.077,37.234],[-119.037,37.345],[-119.069,37.637],[-119.125,37.67],[-119.277,37.674],[-119.363,37.71],[-119.432,37.871],[-119.487,38.08],[-119.574,38.148],[-119.626,38.152]]]}},{"type":"Feature","properties":{"density":1},"geometry":{"type":"Polygon","coordinates":[[[-123.776,48.5],[-123.702,48.54],[-123.652,48.549],[-123.425,48.555],[-123.328,48.587],[-123.305,48.587],[-123.285,48.56],[-123.331,48.498],[-123.391,48.479],[-123.761,48.469],[-123.788,48.479],[-123.776,48.5]]]}},{"type":"Feature","properties":{"density":1},"geometry":{"type":"Polygon","coordinates":[[[-89.431,34.301],[-89.337,34.249],[-89.112,34.018],[-89.02,33.959],[-88.902,33.735],[-88.918,33.649],[-89.027,33.616],[-89.161,33.677],[-89.185,33.709],[-89.283,33.742],[-89.334,33.743],[-89.371,33.718],[-89.465,33.696],[-89.51,33.696],[-89.567,33.723],[-89.599,33.804],[-89.541,33.988],[-89.523,34.129],[-89.471,34.291],[-89.431,34.301]]]}},{"type":"Feature","properties":{"density":1},"geometry":{"type":"Polygon","coordinates":[[[-90.115,33.597],[-90.234,33.487],[-90.266,33.429],[-90.334,33.255],[-90.328,33.191],[-90.303,33.177],[-90.228,33.231],[-90.113,33.424],[-90.065,33.584],[-90.075,33.597],[-90.115,33.597]]]}},{"type":"Feature","properties":{"density":1},"geometry":{"type":"Polygon","coordinates":[[[-88.857,31.067],[-89.024,30.967],[-89.089,30.87],[-89.006,30.867],[-88.898,30.937],[-88.837,31.027],[-88.84,31.06],[-88.857,31.067]]]}},{"type":"Feature","properties":{"density":1},"geometry":{"type":"Polygon","coordinates":[[[-89.984,30.834],[-90.257,30.584],[-90.322,30.504],[-90.336,30.45],[-90.28,30.441],[-90.227,30.461],[-90.049,30.605],[-89.963,30.722],[-89.94,30.787],[-89.943,30.828],[-89.984,30.834]]]}},{"type":"Feature","properties":{"density":1},"geometry":{"type":"Polygon","coordinates":[[[-92.286,29.812],[-92.793,29.675],[-93.169,29.636],[-93.463,29.583],[-93.875,29.558],[-93.926,29.532],[-93.944,29.455],[-93.808,29.295],[-93.75,29.13],[-93.718,28.931],[-93.725,28.799],[-93.638,28.566],[-93.598,28.53],[-93.53,28.505],[-93.317,28.563],[-93.219,28.612],[-93.13,28.679],[-93.027,28.814],[-92.808,28.99],[-92.74,29.103],[-92.7,29.215],[-92.574,29.381],[-92.421,29.547],[-92.247,29.7],[-92.235,29.757],[-92.246,29.784],[-92.286,29.812]]]}},{"type":"Feature","properties":{"density":1},"geometry":{"type":"Polygon","coordinates":[[[-92.74,30.939],[-92.81,30.919],[-93.093,30.729],[-93.261,30.64],[-93.324,30.582],[-93.329,30.525],[-93.307,30.507],[-93.204,30.506],[-93.006,30.589],[-92.782,30.766],[-92.719,30.835],[-92.705,30.914],[-92.74,30.939]]]}},{"type":"Feature","properties":{"density":1},"geometry":{"type":"Polygon","coordinates":[[[-91.593,32.912],[-91.716,32.814],[-91.903,32.57],[-91.956,32.476],[-91.962,32.439],[-91.939,32.412],[-91.849,32.419],[-91.748,32.475],[-91.701,32.526],[-91.476,32.916],[-91.479,32.932],[-91.516,32.943],[-91.593,32.912]]]}},{"type":"Feature","properties":{"density":1},"geometry":{"type":"Polygon","coordinates":[[[-91.571,32.625],[-91.677,32.518],[-91.694,32.489],[-91.691,32.442],[-91.638,32.451],[-91.564,32.537],[-91.525,32.616],[-91.571,32.625]]]}},{"type":"Feature","properties":{"density":1},"geometry":{"type":"Polygon","coordinates":[[[-92.816,31.955],[-92.905,31.948],[-93.023,31.911],[-93.176,31.747],[-93.18,31.706],[-93.162,31.68],[-93.067,31.673],[-93.009,31.706],[-92.902,31.85],[-92.8,31.911],[-92.796,31.942],[-92.816,31.955]]]}},{"type":"Feature","properties":{"density":1},"geometry":{"type":"Polygon","coordinates":[[[-91.333,33.752],[-91.389,33.714],[-91.592,33.389],[-91.651,33.27],[-91.661,33.198],[-91.646,33.145],[-91.568,33.134],[-91.503,33.156],[-91.395,33.296],[-91.345,33.403],[-91.281,33.637],[-91.288,33.706],[-91.333,33.752]]]}},{"type":"Feature","properties":{"density":1},"geometry":{"type":"Polygon","coordinates":[[[-91.439,33.965],[-91.486,33.911],[-91.525,33.806],[-91.534,33.719],[-91.518,33.661],[-91.459,33.661],[-91.423,33.692],[-91.38,33.952],[-91.395,33.97],[-91.439,33.965]]]}},{"type":"Feature","properties":{"density":1},"geometry":{"type":"Polygon","coordinates":[[[-90.837,33.926],[-90.878,33.923],[-90.9,33.904],[-90.967,33.664],[-90.963,33.599],[-90.936,33.599],[-90.885,33.657],[-90.844,33.766],[-90.837,33.926]]]}},{"type":"Feature","properties":{"density":1},"geometry":{"type":"Polygon","coordinates":[[[-92.195,30.892],[-92.222,30.878],[-92.307,30.757],[-92.395,30.685],[-92.418,30.655],[-92.425,30.606],[-92.404,30.593],[-92.303,30.596],[-92.202,30.671],[-92.15,30.759],[-92.143,30.809],[-92.147,30.869],[-92.195,30.892]]]}},{"type":"Feature","properties":{"density":1},"geometry":{"type":"Polygon","coordinates":[[[-92.064,30.911],[-92.004,30.883],[-91.994,30.861],[-92.008,30.825],[-92.048,30.833],[-92.096,30.881],[-92.094,30.906],[-92.064,30.911]]]}},{"type":"Feature","properties":{"density":1},"geometry":{"type":"Polygon","coordinates":[[[-90.317,34.655],[-90.366,34.645],[-90.41,34.56],[-90.432,34.399],[-90.475,34.243],[-90.463,34.173],[-90.394,34.171],[-90.298,34.277],[-90.271,34.51],[-90.238,34.619],[-90.317,34.655]]]}},{"type":"Feature","properties":{"density":1},"geometry":{"type":"Polygon","coordinates":[[[-90.545,35.831],[-90.755,35.804],[-90.849,35.742],[-90.926,35.667],[-91.27,35.051],[-91.506,34.752],[-91.629,34.738],[-91.697,34.779],[-91.763,34.866],[-91.848,34.899],[-91.944,34.878],[-92.061,34.789],[-92.594,34.24],[-92.651,34.165],[-92.673,34.105],[-92.649,34.021],[-92.579,33.948],[-92.377,33.867],[-92.119,33.86],[-92.014,33.873],[-91.832,33.931],[-91.764,33.989],[-91.542,34.097],[-91.506,34.129],[-91.397,34.329],[-91.294,34.427],[-91.191,34.469],[-91.058,34.559],[-90.974,34.644],[-90.663,35.445],[-90.54,35.707],[-90.512,35.8],[-90.522,35.827],[-90.545,35.831]]]}},{"type":"Feature","properties":{"density":1},"geometry":{"type":"Polygon","coordinates":[[[-91.697,34.391],[-91.714,34.35],[-91.71,34.307],[-91.646,34.318],[-91.644,34.377],[-91.662,34.396],[-91.697,34.391]]]}},{"type":"Feature","properties":{"density":1},"geometry":{"type":"Polygon","coordinates":[[[-93.658,30.493],[-93.822,30.48],[-93.894,30.449],[-93.933,30.406],[-93.942,30.354],[-93.897,30.334],[-93.716,30.387],[-93.642,30.444],[-93.634,30.476],[-93.658,30.493]]]}},{"type":"Feature","properties":{"density":1},"geometry":{"type":"Polygon","coordinates":[[[-87.839,31.65],[-88.029,31.492],[-88.035,31.436],[-87.984,31.42],[-87.942,31.429],[-87.851,31.499],[-87.795,31.608],[-87.795,31.656],[-87.829,31.663],[-87.839,31.65]]]}},{"type":"Feature","properties":{"density":1},"geometry":{"type":"Polygon","coordinates":[[[-95.818,48.794],[-96.077,49.174],[-96.107,49.262],[-96.087,49.333],[-96.029,49.352],[-95.83,49.305],[-95.721,49.183],[-95.703,49.076],[-95.749,48.913],[-95.754,48.795],[-95.772,48.778],[-95.818,48.794]]]}},{"type":"Feature","properties":{"density":1},"geometry":{"type":"Polygon","coordinates":[[[-67.714,45.755],[-67.68,45.739],[-67.658,45.677],[-67.661,45.631],[-67.684,45.616],[-67.72,45.648],[-67.729,45.681],[-67.728,45.738],[-67.714,45.755]]]}},{"type":"Feature","properties":{"density":1},"geometry":{"type":"Polygon","coordinates":[[[-90.64,19.751],[-90.854,19.739],[-90.993,19.762],[-91.106,19.797],[-91.221,19.855],[-91.728,20.23],[-91.863,20.292],[-92.097,20.435],[-92.268,20.599],[-92.278,20.651],[-92.263,20.688],[-92.213,20.71],[-92.143,20.716],[-92.062,20.692],[-91.683,20.43],[-91.446,20.235],[-91.098,20.001],[-90.881,19.884],[-90.627,19.83],[-90.578,19.806],[-90.571,19.785],[-90.591,19.76],[-90.64,19.751]]]}},{"type":"Feature","properties":{"density":1},"geometry":{"type":"Polygon","coordinates":[[[-93.038,17.869],[-93.493,18.147],[-93.567,18.209],[-93.728,18.26],[-93.879,18.233],[-94.066,18.151],[-94.203,18.058],[-94.316,17.922],[-94.367,17.754],[-94.436,17.636],[-94.448,17.541],[-94.428,17.448],[-94.279,17.231],[-94.187,17.159],[-94.088,17.111],[-94.003,17.082],[-93.667,17.091],[-93.563,17.14],[-93.358,17.295],[-93.252,17.389],[-93.161,17.516],[-92.866,17.657],[-92.837,17.703],[-92.832,17.756],[-92.862,17.851],[-92.896,17.862],[-92.994,17.849],[-93.038,17.869]]]}},{"type":"Feature","properties":{"density":1},"geometry":{"type":"Polygon","coordinates":[[[-119.958,37.715],[-119.819,37.814],[-119.816,37.983],[-119.776,38.073],[-119.718,38.151],[-119.657,38.204],[-119.572,38.233],[-119.469,38.23],[-119.365,38.182],[-119.283,38.1],[-119.158,37.882],[-119.121,37.675],[-119.138,37.556],[-119.265,37.147],[-119.277,37.033],[-119.364,36.848],[-119.455,36.745],[-119.561,36.67],[-119.667,36.658],[-119.874,36.699],[-119.949,36.735],[-120.055,36.829],[-120.103,36.93],[-120.12,37.06],[-120.115,37.228],[-120.076,37.32],[-120.044,37.535],[-119.958,37.715]]]}},{"type":"Feature","properties":{"density":1},"geometry":{"type":"Polygon","coordinates":[[[-123.802,48.537],[-123.368,48.723],[-123.112,48.765],[-123.051,48.742],[-123.033,48.716],[-123.029,48.676],[-123.086,48.591],[-123.192,48.546],[-123.782,48.456],[-123.807,48.479],[-123.802,48.537]]]}},{"type":"Feature","properties":{"density":1},"geometry":{"type":"Polygon","coordinates":[[[-118.13,49.417],[-118.173,49.446],[-118.219,49.561],[-118.204,49.666],[-118.157,49.706],[-118.092,49.687],[-118.045,49.554],[-117.991,49.485],[-117.867,49.419],[-117.658,49.369],[-117.639,49.334],[-117.665,49.314],[-117.717,49.311],[-117.949,49.342],[-118.091,49.386],[-118.13,49.417]]]}},{"type":"Feature","properties":{"density":1},"geometry":{"type":"Polygon","coordinates":[[[-91.664,34.882],[-91.738,34.781],[-91.791,34.669],[-91.805,34.577],[-91.772,34.498],[-91.724,34.501],[-91.688,34.536],[-91.616,34.725],[-91.598,34.867],[-91.619,34.889],[-91.664,34.882]]]}},{"type":"Feature","properties":{"density":1},"geometry":{"type":"Polygon","coordinates":[[[-90.421,35.207],[-90.502,35.156],[-90.573,35.043],[-90.753,34.851],[-90.816,34.742],[-90.817,34.692],[-90.794,34.643],[-90.766,34.624],[-90.725,34.622],[-90.668,34.648],[-90.588,34.712],[-90.465,34.856],[-90.386,35.189],[-90.391,35.203],[-90.421,35.207]]]}},{"type":"Feature","properties":{"density":1},"geometry":{"type":"Polygon","coordinates":[[[-91.6,34.084],[-91.624,33.939],[-91.83,33.637],[-91.903,33.572],[-91.971,33.571],[-92.02,33.606],[-92.066,33.714],[-92.071,33.801],[-92.047,33.872],[-91.656,34.105],[-91.622,34.11],[-91.6,34.084]]]}},{"type":"Feature","properties":{"density":1},"geometry":{"type":"Polygon","coordinates":[[[-91.984,32.394],[-92.12,32.29],[-92.142,32.24],[-92.126,32.201],[-92.068,32.206],[-91.944,32.321],[-91.917,32.391],[-91.984,32.394]]]}},{"type":"Feature","properties":{"density":1},"geometry":{"type":"Polygon","coordinates":[[[-91.324,32.57],[-91.385,32.542],[-91.698,32.296],[-91.774,32.216],[-91.818,32.133],[-92.111,31.805],[-92.136,31.739],[-92.122,31.671],[-92.03,31.662],[-91.96,31.689],[-91.515,32.064],[-91.28,32.423],[-91.269,32.553],[-91.283,32.569],[-91.324,32.57]]]}},{"type":"Feature","properties":{"density":1},"geometry":{"type":"Polygon","coordinates":[[[-91.58,32.64],[-91.649,32.569],[-91.677,32.503],[-91.667,32.486],[-91.632,32.489],[-91.54,32.598],[-91.53,32.636],[-91.58,32.64]]]}},{"type":"Feature","properties":{"density":1},"geometry":{"type":"Polygon","coordinates":[[[-89.468,34.304],[-89.528,34.108],[-89.611,33.652],[-89.606,33.263],[-89.589,33.162],[-89.538,33.103],[-89.453,33.07],[-89.354,33.061],[-89.24,33.083],[-89.163,33.121],[-89.146,33.178],[-89.302,33.601],[-89.363,34.244],[-89.38,34.288],[-89.407,34.31],[-89.468,34.304]]]}},{"type":"Feature","properties":{"density":1},"geometry":{"type":"Polygon","coordinates":[[[-89.934,32.092],[-89.974,32.063],[-90.049,31.931],[-90.117,31.772],[-90.142,31.684],[-90.136,31.655],[-90.067,31.668],[-90.027,31.702],[-89.898,32.007],[-89.89,32.071],[-89.934,32.092]]]}},{"type":"Feature","properties":{"density":1},"geometry":{"type":"Polygon","coordinates":[[[-92.719,30.935],[-92.84,30.937],[-92.965,30.874],[-93.099,30.831],[-93.154,30.788],[-93.161,30.733],[-93.129,30.715],[-93.057,30.722],[-92.865,30.785],[-92.705,30.883],[-92.699,30.905],[-92.719,30.935]]]}},{"type":"Feature","properties":{"density":1},"geometry":{"type":"Polygon","coordinates":[[[-92.811,31.979],[-92.888,31.979],[-93.286,31.849],[-93.358,31.797],[-93.38,31.759],[-93.392,31.673],[-93.376,31.622],[-93.335,31.593],[-93.257,31.602],[-93.049,31.685],[-92.792,31.906],[-92.781,31.945],[-92.811,31.979]]]}},{"type":"Feature","properties":{"density":1},"geometry":{"type":"Polygon","coordinates":[[[-91.448,33.972],[-91.576,33.685],[-91.626,33.534],[-91.849,33.155],[-92.015,32.916],[-92.057,32.814],[-92.054,32.738],[-92.003,32.673],[-91.867,32.67],[-91.732,32.716],[-91.609,32.781],[-91.511,32.865],[-91.386,33.035],[-91.332,33.143],[-91.252,33.451],[-91.238,33.61],[-91.392,33.962],[-91.431,33.981],[-91.448,33.972]]]}},{"type":"Feature","properties":{"density":1},"geometry":{"type":"Polygon","coordinates":[[[-90.371,34.667],[-90.408,34.619],[-90.456,34.459],[-90.505,34.189],[-90.515,34.069],[-90.504,33.954],[-90.476,33.889],[-90.445,33.88],[-90.426,33.899],[-90.406,33.974],[-90.342,34.448],[-90.3,34.628],[-90.323,34.678],[-90.371,34.667]]]}},{"type":"Feature","properties":{"density":1},"geometry":{"type":"Polygon","coordinates":[[[-90.866,33.938],[-90.912,33.904],[-90.945,33.716],[-91.011,33.499],[-91.141,33.195],[-91.15,33.114],[-91.123,33.055],[-91.062,33.051],[-91.003,33.077],[-90.888,33.174],[-90.822,33.347],[-90.798,33.466],[-90.794,33.696],[-90.811,33.891],[-90.827,33.934],[-90.866,33.938]]]}},{"type":"Feature","properties":{"density":1},"geometry":{"type":"Polygon","coordinates":[[[-84.944,32.206],[-85.104,32.217],[-85.42,32.178],[-85.547,32.094],[-85.591,31.963],[-85.578,31.936],[-85.499,31.926],[-85.332,31.974],[-84.946,32.151],[-84.925,32.182],[-84.944,32.206]]]}},{"type":"Feature","properties":{"density":1},"geometry":{"type":"Polygon","coordinates":[[[-90.666,32.608],[-90.756,32.557],[-90.812,32.48],[-90.825,32.434],[-90.773,32.366],[-90.707,32.357],[-90.627,32.426],[-90.612,32.56],[-90.638,32.607],[-90.666,32.608]]]}},{"type":"Feature","properties":{"density":1},"geometry":{"type":"Polygon","coordinates":[[[-88.81,31.069],[-88.911,31.062],[-89.182,30.827],[-89.279,30.706],[-89.306,30.591],[-89.28,30.566],[-89.23,30.565],[-89.162,30.591],[-88.986,30.724],[-88.937,30.775],[-88.833,30.94],[-88.81,31.069]]]}},{"type":"Feature","properties":{"density":1},"geometry":{"type":"Polygon","coordinates":[[[-87.21,32.218],[-87.364,31.964],[-87.397,31.836],[-87.385,31.766],[-87.363,31.754],[-87.284,31.77],[-87.202,31.926],[-87.143,32.188],[-87.152,32.217],[-87.21,32.218]]]}},{"type":"Feature","properties":{"density":1},"geometry":{"type":"Polygon","coordinates":[[[-92.284,29.834],[-92.463,29.809],[-92.807,29.717],[-92.938,29.657],[-93.186,29.586],[-93.724,29.566],[-94.154,29.495],[-94.41,29.52],[-94.559,29.511],[-94.633,29.489],[-94.76,29.404],[-94.854,29.28],[-94.859,29.178],[-94.829,29.002],[-94.823,28.751],[-94.796,28.63],[-94.744,28.563],[-94.622,28.456],[-94.485,28.384],[-94.347,28.365],[-93.925,28.445],[-93.55,28.704],[-93.36,28.792],[-93.19,28.896],[-92.601,29.337],[-92.233,29.739],[-92.219,29.772],[-92.226,29.821],[-92.284,29.834]]]}},{"type":"Feature","properties":{"density":1},"geometry":{"type":"Polygon","coordinates":[[[-89.976,30.835],[-90.105,30.781],[-90.749,30.372],[-90.901,30.211],[-90.927,30.137],[-90.914,30.098],[-90.883,30.074],[-90.723,30.12],[-90.633,30.17],[-90.284,30.438],[-90.003,30.673],[-89.934,30.775],[-89.937,30.827],[-89.976,30.835]]]}},{"type":"Feature","properties":{"density":1},"geometry":{"type":"Polygon","coordinates":[[[-90.532,35.905],[-90.727,35.876],[-90.88,35.79],[-90.927,35.747],[-91.139,35.428],[-91.373,35.018],[-91.47,34.876],[-91.534,34.856],[-91.617,34.895],[-91.736,34.924],[-91.876,34.924],[-91.988,34.884],[-92.051,34.831],[-92.637,34.227],[-92.835,33.968],[-92.945,33.869],[-92.989,33.797],[-93.0,33.731],[-92.981,33.676],[-92.857,33.579],[-92.625,33.451],[-92.542,33.421],[-92.295,33.214],[-92.237,33.142],[-92.13,32.998],[-92.107,32.768],[-92.017,32.576],[-91.924,32.562],[-91.786,32.59],[-91.557,32.725],[-91.37,32.885],[-91.302,33.017],[-91.275,33.113],[-91.272,33.349],[-91.233,33.57],[-91.189,33.769],[-91.121,33.944],[-91.033,34.034],[-90.937,34.101],[-90.502,34.606],[-90.401,34.854],[-90.271,35.284],[-90.253,35.432],[-90.277,35.508],[-90.381,35.641],[-90.435,35.832],[-90.462,35.871],[-90.514,35.909],[-90.532,35.905]]]}},{"type":"Feature","properties":{"density":1},"geometry":{"type":"Polygon","coordinates":[[[-93.656,30.501],[-94.008,30.46],[-94.28,30.404],[-94.365,30.376],[-94.438,30.321],[-94.444,30.296],[-94.412,30.257],[-94.339,30.248],[-94.006,30.288],[-93.663,30.395],[-93.629,30.443],[-93.627,30.472],[-93.656,30.501]]]}},{"type":"Feature","properties":{"density":1},"geometry":{"type":"Polygon","coordinates":[[[-97.492,38.188],[-97.573,38.208],[-97.739,38.297],[-97.771,38.347],[-97.762,38.393],[-97.723,38.409],[-97.675,38.394],[-97.601,38.331],[-97.493,38.276],[-97.457,38.215],[-97.466,38.189],[-97.492,38.188]]]}},{"type":"Feature","properties":{"density":1},"geometry":{"type":"Polygon","coordinates":[[[-121.015,50.217],[-120.76,50.385],[-120.382,50.8],[-120.153,51.271],[-119.967,51.569],[-119.7,51.712],[-119.341,51.755],[-118.838,51.755],[-117.698,51.625],[-117.264,51.402],[-117.146,50.937],[-117.239,50.236],[-117.357,49.852],[-117.403,49.329],[-117.651,48.865],[-118.0,48.518],[-118.472,48.234],[-118.995,48.157],[-119.564,48.103],[-120.178,47.892],[-120.463,47.905],[-120.618,47.985],[-120.956,48.237],[-121.017,48.347],[-121.002,48.456],[-120.824,48.527],[-120.688,48.633],[-120.644,48.734],[-120.726,48.776],[-120.84,48.777],[-121.026,48.713],[-121.261,48.723],[-121.443,48.903],[-121.523,49.232],[-121.523,49.535],[-121.424,49.746],[-121.281,49.938],[-121.015,50.217]]]}},{"type":"Feature","properties":{"density":1},"geometry":{"type":"Polygon","coordinates":[[[-90.51,48.081],[-90.739,48.322],[-90.93,48.493],[-91.084,48.694],[-91.14,48.883],[-91.117,48.959],[-91.074,49.024],[-91.013,49.038],[-90.929,48.985],[-90.839,48.889],[-90.772,48.777],[-90.59,48.44],[-90.418,48.162],[-90.384,48.06],[-90.401,48.028],[-90.424,48.023],[-90.51,48.081]]]}},{"type":"Feature","properties":{"density":1},"geometry":{"type":"Polygon","coordinates":[[[-95.823,35.111],[-96.044,35.114],[-96.257,35.072],[-96.473,35.06],[-96.72,34.999],[-96.786,34.912],[-96.813,34.831],[-96.826,34.738],[-96.815,34.642],[-96.774,34.599],[-96.597,34.549],[-96.498,34.563],[-96.374,34.619],[-96.3,34.662],[-95.873,35.0],[-95.809,35.083],[-95.823,35.111]]]}},{"type":"Feature","properties":{"density":1},"geometry":{"type":"Polygon","coordinates":[[[-94.603,32.938],[-94.897,32.857],[-94.963,32.793],[-94.957,32.755],[-94.903,32.737],[-94.751,32.785],[-94.593,32.891],[-94.583,32.917],[-94.603,32.938]]]}},{"type":"Feature","properties":{"density":1},"geometry":{"type":"Polygon","coordinates":[[[-117.534,37.491],[-117.746,37.52],[-117.895,37.574],[-117.971,37.647],[-117.977,37.679],[-117.867,37.743],[-117.844,37.774],[-117.885,37.809],[-117.983,37.841],[-118.016,37.87],[-118.011,37.913],[-117.922,38.057],[-117.802,38.067],[-117.689,38.011],[-117.567,37.889],[-117.509,37.861],[-117.487,37.811],[-117.493,37.701],[-117.469,37.541],[-117.534,37.491]]]}},{"type":"Feature","properties":{"density":1},"geometry":{"type":"Polygon","coordinates":[[[-120.126,37.879],[-120.072,37.977],[-119.916,38.142],[-119.733,38.631],[-119.646,38.726],[-119.571,38.766],[-119.441,38.769],[-119.324,38.712],[-119.254,38.656],[-119.115,38.337],[-119.079,38.307],[-118.937,38.28],[-118.863,38.238],[-118.824,38.177],[-118.827,38.107],[-118.851,38.035],[-118.935,37.95],[-118.971,37.586],[-118.818,37.417],[-118.716,37.237],[-118.608,36.992],[-118.539,36.749],[-118.653,36.517],[-118.743,36.43],[-118.865,36.385],[-119.414,35.89],[-120.015,35.64],[-120.227,35.478],[-120.383,35.255],[-120.497,35.049],[-120.72,34.859],[-120.844,34.821],[-121.013,34.861],[-121.283,35.012],[-121.4,35.217],[-121.4,35.401],[-121.332,35.604],[-121.265,35.723],[-121.064,35.872],[-120.761,36.043],[-120.629,36.1],[-120.494,36.249],[-120.393,36.451],[-120.339,36.691],[-120.332,37.268],[-120.302,37.504],[-120.251,37.68],[-120.126,37.879]]]}},{"type":"Feature","properties":{"density":1},"geometry":{"type":"Polygon","coordinates":[[[-122.247,39.195],[-122.22,39.272],[-122.218,39.335],[-122.26,39.407],[-122.3,39.417],[-122.37,39.371],[-122.379,39.304],[-122.368,39.265],[-122.322,39.206],[-122.283,39.19],[-122.247,39.195]]]}},{"type":"Feature","properties":{"density":1},"geometry":{"type":"Polygon","coordinates":[[[-122.138,39.504],[-122.218,39.536],[-122.321,39.551],[-122.365,39.519],[-122.365,39.485],[-122.295,39.429],[-122.134,39.385],[-122.114,39.416],[-122.112,39.471],[-122.125,39.505],[-122.138,39.504]]]}},{"type":"Feature","properties":{"density":1},"geometry":{"type":"Polygon","coordinates":[[[-123.93,41.188],[-123.864,41.185],[-123.835,41.163],[-123.793,40.996],[-123.796,40.862],[-123.851,40.633],[-123.903,40.583],[-123.968,40.567],[-123.993,40.574],[-124.005,40.653],[-123.967,40.845],[-123.948,41.163],[-123.93,41.188]]]}},{"type":"Feature","properties":{"density":1},"geometry":{"type":"Polygon","coordinates":[[[-96.765,39.678],[-95.883,39.811],[-94.592,39.461],[-93.916,39.039],[-93.313,38.363],[-92.866,37.795],[-92.106,37.168],[-91.176,36.564],[-90.11,36.017],[-89.957,35.703],[-89.885,35.39],[-89.844,35.011],[-89.394,34.834],[-89.04,34.794],[-88.646,34.673],[-87.435,34.134],[-86.722,34.158],[-85.6,34.339],[-85.008,34.207],[-84.248,33.905],[-83.464,33.446],[-82.836,32.758],[-82.232,31.781],[-82.329,30.678],[-82.514,30.067],[-82.844,28.771],[-83.037,28.353],[-83.375,27.822],[-83.737,27.427],[-84.308,27.081],[-84.759,26.888],[-85.395,26.969],[-86.414,26.867],[-87.668,26.494],[-88.296,26.502],[-89.253,26.389],[-90.082,26.357],[-91.8,26.027],[-92.464,25.858],[-92.753,25.691],[-92.956,25.434],[-92.945,25.167],[-92.864,24.991],[-92.579,24.878],[-92.178,24.809],[-91.513,24.732],[-90.646,24.49],[-90.08,23.969],[-89.951,23.432],[-90.221,22.836],[-90.639,21.998],[-90.84,21.386],[-90.931,20.807],[-90.786,20.059],[-90.931,18.755],[-91.587,18.011],[-92.118,17.488],[-92.472,16.796],[-92.681,16.265],[-92.818,15.549],[-92.762,14.985],[-92.054,14.016],[-92.013,13.388],[-92.094,12.905],[-92.271,12.471],[-92.81,12.133],[-93.615,12.036],[-94.307,12.149],[-94.862,12.527],[-95.956,13.493],[-96.286,13.839],[-96.363,14.273],[-96.323,14.737],[-96.29,15.433],[-96.404,16.047],[-96.405,16.437],[-96.304,16.687],[-96.107,16.898],[-95.969,17.158],[-95.93,17.522],[-96.027,18.015],[-96.41,19.103],[-97.085,20.277],[-97.47,20.756],[-97.751,21.053],[-98.06,21.203],[-98.172,21.397],[-98.693,21.837],[-99.224,22.377],[-99.336,22.64],[-99.385,22.929],[-99.374,24.313],[-99.193,25.146],[-98.837,27.717],[-98.493,28.405],[-97.823,29.202],[-97.131,30.564],[-96.672,30.974],[-96.383,31.662],[-96.371,32.483],[-96.395,33.159],[-96.721,33.955],[-97.541,34.885],[-97.891,35.367],[-98.689,36.593],[-98.775,36.899],[-98.797,37.291],[-98.614,37.806],[-98.373,38.176],[-98.158,38.412],[-97.984,38.64],[-97.662,38.913],[-97.437,39.139],[-96.765,39.678]]]}},{"type":"Feature","properties":{"density":1},"geometry":{"type":"Polygon","coordinates":[[[-85.397,32.677],[-85.5,32.655],[-85.552,32.617],[-85.597,32.548],[-85.602,32.508],[-85.588,32.487],[-85.467,32.525],[-85.369,32.601],[-85.357,32.646],[-85.397,32.677]]]}},{"type":"Feature","properties":{"density":1},"geometry":{"type":"Polygon","coordinates":[[[-107.297,24.901],[-108.21,25.441],[-109.489,25.765],[-110.644,26.01],[-112.148,26.235],[-112.878,26.374],[-113.67,26.367],[-113.962,26.034],[-113.929,25.556],[-113.629,24.875],[-113.173,24.153],[-112.216,23.256],[-110.203,22.704],[-108.662,21.913],[-108.057,21.196],[-107.65,20.492],[-107.353,19.721],[-107.294,18.876],[-107.42,18.12],[-107.479,17.346],[-107.427,17.005],[-107.168,16.834],[-106.716,17.034],[-106.278,17.427],[-105.641,18.25],[-105.13,19.08],[-104.974,19.629],[-104.826,20.355],[-104.7,20.77],[-104.477,21.652],[-104.559,22.326],[-105.004,23.016],[-105.604,23.52],[-106.1,23.794],[-106.432,24.073],[-107.297,24.901]]]}},{"type":"Feature","properties":{"density":1},"geometry":{"type":"Polygon","coordinates":[[[-113.974,46.601],[-113.925,46.706],[-113.806,46.85],[-113.616,46.99],[-113.305,47.11],[-113.11,47.126],[-113.019,47.123],[-112.935,47.087],[-112.908,47.026],[-112.915,46.958],[-112.969,46.868],[-113.038,46.788],[-113.156,46.689],[-113.26,46.655],[-113.667,46.637],[-113.859,46.564],[-113.963,46.578],[-113.974,46.601]]]}},{"type":"Feature","properties":{"density":1},"geometry":{"type":"Polygon","coordinates":[[[-115.867,47.317],[-115.774,47.289],[-115.752,47.251],[-115.757,47.212],[-115.857,47.122],[-115.877,47.132],[-115.884,47.219],[-115.908,47.287],[-115.867,47.317]]]}},{"type":"Feature","properties":{"density":1},"geometry":{"type":"Polygon","coordinates":[[[-115.798,46.222],[-115.761,46.277],[-115.718,46.294],[-115.664,46.29],[-115.629,46.245],[-115.726,46.2],[-115.774,46.202],[-115.798,46.222]]]}},{"type":"Feature","properties":{"density":1},"geometry":{"type":"Polygon","coordinates":[[[-113.532,47.907],[-113.56,47.972],[-113.531,48.017],[-113.44,48.052],[-113.408,48.028],[-113.409,47.99],[-113.445,47.922],[-113.49,47.896],[-113.532,47.907]]]}},{"type":"Feature","properties":{"density":1},"geometry":{"type":"Polygon","coordinates":[[[-122.695,60.572],[-122.568,59.902],[-123.075,59.479],[-123.57,59.214],[-123.763,58.767],[-123.8,58.297],[-123.546,57.959],[-122.882,57.681],[-121.971,57.512],[-121.229,57.421],[-119.382,57.603],[-118.278,57.947],[-117.626,58.236],[-116.883,58.598],[-115.363,59.612],[-112.375,60.137],[-111.126,60.3],[-108.981,59.893],[-107.826,59.881],[-106.256,58.28],[-105.796,57.505],[-105.607,56.715],[-105.508,55.512],[-105.222,54.911],[-104.317,54.062],[-103.536,53.624],[-102.225,53.866],[-100.932,54.21],[-98.127,55.381],[-93.763,56.26],[-90.805,56.241],[-87.415,56.283],[-85.616,55.795],[-83.792,55.476],[-81.302,55.957],[-79.314,56.773],[-76.05,59.912],[-74.418,61.073],[-72.283,61.952],[-69.772,62.392],[-66.997,62.272],[-65.071,61.937],[-62.832,61.267],[-61.43,61.079],[-60.447,61.309],[-59.924,61.497],[-59.254,61.958],[-58.618,62.96],[-56.986,63.337],[-54.946,63.274],[-52.937,63.18],[-50.991,63.243],[-49.955,63.745],[-49.547,65.063],[-49.892,66.947],[-50.865,69.52],[-52.058,71.058],[-53.816,72.157],[-56.018,72.506],[-59.435,72.597],[-64.439,71.149],[-66.717,70.87],[-68.82,69.332],[-70.578,68.359],[-75.435,67.691],[-80.183,67.951],[-82.066,68.83],[-84.326,70.023],[-87.967,70.996],[-91.64,71.435],[-95.5,71.341],[-98.576,70.127],[-99.999,69.73],[-102.259,69.604],[-104.917,69.751],[-109.291,69.918],[-111.488,70.232],[-113.798,70.091],[-116.434,69.77],[-118.854,68.934],[-120.039,68.767],[-121.393,68.418],[-122.453,68.083],[-124.441,67.281],[-125.013,66.849],[-126.227,65.984],[-127.147,64.435],[-127.105,63.849],[-126.966,63.054],[-126.52,62.427],[-126.073,61.98],[-125.599,61.617],[-124.873,61.645],[-123.781,61.495],[-123.112,61.079],[-122.695,60.572]],[[-123.676,65.08],[-122.861,65.225],[-121.503,65.406],[-120.145,65.714],[-117.357,65.949],[-116.108,65.858],[-114.46,65.587],[-113.193,65.424],[-111.835,65.026],[-110.984,64.501],[-110.695,63.849],[-110.876,63.215],[-111.382,62.907],[-112.107,62.744],[-112.94,62.455],[-113.609,62.183],[-114.189,61.839],[-115.088,61.242],[-115.704,61.073],[-116.331,61.097],[-117.236,61.242],[-118.335,61.314],[-119.663,61.302],[-120.242,61.266],[-121.135,61.242],[-121.714,61.254],[-122.221,61.157],[-122.602,61.205],[-122.819,61.549],[-122.71,62.147],[-122.468,62.42],[-122.237,62.575],[-121.374,62.698],[-120.658,62.883],[-119.846,63.181],[-119.041,63.318],[-118.614,63.471],[-118.397,63.688],[-117.965,64.257],[-117.763,64.651],[-117.932,65.062],[-118.471,65.408],[-118.995,65.464],[-119.526,65.271],[-120.233,64.663],[-120.861,64.281],[-121.521,64.08],[-122.245,63.806],[-122.825,63.565],[-123.34,63.67],[-123.68,63.933],[-123.861,64.392],[-123.945,64.682],[-123.861,64.965],[-123.676,65.08]]]}},{"type":"Feature","properties":{"density":1},"geometry":{"type":"Polygon","coordinates":[[[-123.829,48.547],[-123.769,48.605],[-123.612,48.679],[-123.47,48.737],[-123.354,48.747],[-123.252,48.72],[-123.17,48.677],[-123.13,48.601],[-123.139,48.518],[-123.194,48.475],[-123.308,48.437],[-123.562,48.42],[-123.736,48.432],[-123.807,48.474],[-123.829,48.547]]]}},{"type":"Feature","properties":{"density":1},"geometry":{"type":"Polygon","coordinates":[[[-122.482,37.923],[-122.386,37.934],[-122.273,37.901],[-122.097,37.743],[-122.03,37.653],[-121.951,37.474],[-121.949,37.371],[-122.035,37.29],[-122.374,37.308],[-122.51,37.301],[-122.641,37.246],[-122.767,37.168],[-123.208,37.07],[-123.323,37.058],[-123.394,37.082],[-123.428,37.201],[-123.38,37.351],[-123.227,37.521],[-122.905,37.702],[-122.655,37.906],[-122.482,37.923]]]}},{"type":"Feature","properties":{"density":2},"geometry":{"type":"Polygon","coordinates":[[[-92.709,30.54],[-92.734,30.355],[-92.787,30.259],[-92.858,30.237],[-92.935,30.162],[-92.952,30.171],[-92.9,30.256],[-92.831,30.33],[-92.726,30.545],[-92.709,30.54]]]}},{"type":"Feature","properties":{"density":2},"geometry":{"type":"Polygon","coordinates":[[[-92.275,29.781],[-92.269,29.724],[-92.304,29.597],[-92.376,29.504],[-92.393,29.421],[-92.657,29.048],[-92.714,28.986],[-92.76,28.958],[-92.78,28.969],[-92.674,29.186],[-92.53,29.428],[-92.446,29.708],[-92.391,29.763],[-92.303,29.79],[-92.275,29.781]]]}},{"type":"Feature","properties":{"density":2},"geometry":{"type":"Polygon","coordinates":[[[-89.687,20.922],[-89.877,21.03],[-89.9,21.021],[-89.881,20.988],[-89.849,20.973],[-89.697,20.91],[-89.687,20.922]]]}},{"type":"Feature","properties":{"density":2},"geometry":{"type":"Polygon","coordinates":[[[-90.38,20.49],[-90.688,20.549],[-90.972,20.65],[-91.331,20.751],[-91.399,20.75],[-91.391,20.726],[-91.279,20.663],[-91.127,20.601],[-90.923,20.547],[-90.442,20.448],[-90.346,20.45],[-90.344,20.47],[-90.38,20.49]]]}},{"type":"Feature","properties":{"density":2},"geometry":{"type":"Polygon","coordinates":[[[-90.604,19.808],[-90.879,19.904],[-91.143,20.026],[-91.227,20.053],[-91.246,20.041],[-91.257,20.0],[-91.241,19.97],[-91.145,19.924],[-90.641,19.79],[-90.603,19.788],[-90.604,19.808]]]}},{"type":"Feature","properties":{"density":2},"geometry":{"type":"Polygon","coordinates":[[[-92.926,17.768],[-93.066,17.771],[-93.147,17.727],[-93.02,17.746],[-92.928,17.736],[-92.908,17.76],[-92.926,17.768]]]}},{"type":"Feature","properties":{"density":2},"geometry":{"type":"Polygon","coordinates":[[[-93.134,17.828],[-93.365,17.812],[-93.334,17.845],[-93.345,17.894],[-93.536,17.972],[-93.507,17.983],[-93.184,17.918],[-93.15,17.898],[-93.15,17.882],[-93.268,17.887],[-93.286,17.867],[-93.117,17.838],[-93.134,17.828]]]}},{"type":"Feature","properties":{"density":2},"geometry":{"type":"Polygon","coordinates":[[[-119.557,37.589],[-119.526,37.682],[-119.535,37.724],[-119.585,37.8],[-119.586,37.912],[-119.568,37.947],[-119.575,37.969],[-119.594,37.971],[-119.737,37.798],[-119.75,37.669],[-119.845,37.668],[-119.877,37.649],[-119.873,37.622],[-119.777,37.572],[-119.717,37.513],[-119.691,37.51],[-119.557,37.589]]]}},{"type":"Feature","properties":{"density":2},"geometry":{"type":"Polygon","coordinates":[[[-100.083,63.052],[-100.355,62.633],[-100.564,62.257],[-100.983,61.587],[-101.129,61.231],[-101.485,60.834],[-101.924,60.541],[-102.238,60.478],[-102.74,60.541],[-103.012,60.666],[-103.724,61.127],[-103.996,61.357],[-104.414,61.545],[-105.168,61.587],[-105.9,61.608],[-107.595,61.42],[-108.369,61.42],[-109.081,61.462],[-109.709,61.524],[-110.42,61.524],[-111.278,61.65],[-112.659,61.922],[-115.924,62.006],[-117.179,61.985],[-120.13,61.817],[-120.967,61.545],[-121.783,61.336],[-122.453,61.294],[-123.478,61.252],[-123.52,61.545],[-123.332,61.734],[-123.018,61.901],[-122.599,62.006],[-122.118,62.173],[-120.402,62.487],[-118.372,62.717],[-116.238,62.885],[-115.066,62.926],[-113.224,62.926],[-111.299,62.738],[-110.42,62.592],[-109.813,62.466],[-109.374,62.278],[-108.307,62.068],[-106.842,62.027],[-105.503,62.131],[-105.105,62.445],[-104.645,62.696],[-103.724,63.01],[-103.284,63.136],[-102.761,63.261],[-100.397,64.098],[-99.894,64.203],[-99.455,64.203],[-99.35,64.035],[-99.392,63.784],[-99.894,63.178],[-100.083,63.052]]]}},{"type":"Feature","properties":{"density":2},"geometry":{"type":"Polygon","coordinates":[[[-101.936,56.803],[-102.972,56.614],[-103.82,56.395],[-105.264,56.332],[-106.551,56.3],[-107.367,56.363],[-108.026,56.395],[-108.528,56.363],[-109.187,56.018],[-109.752,55.547],[-110.066,55.013],[-109.815,54.448],[-109.093,54.386],[-108.308,54.668],[-107.586,54.982],[-106.362,55.296],[-105.264,55.296],[-104.259,55.265],[-102.219,55.673],[-101.497,56.018],[-101.12,56.457],[-101.34,56.74],[-101.936,56.803]]]}},{"type":"Feature","properties":{"density":2},"geometry":{"type":"Polygon","coordinates":[[[-85.456,23.509],[-84.898,23.537],[-84.257,23.537],[-84.033,23.579],[-83.782,23.537],[-83.587,23.593],[-83.517,23.733],[-83.587,23.83],[-83.615,23.928],[-83.517,24.054],[-83.238,24.123],[-82.555,23.942],[-82.262,23.928],[-82.108,24.081],[-82.011,24.305],[-82.066,24.751],[-82.15,24.946],[-82.652,25.309],[-82.889,25.365],[-83.238,25.421],[-83.657,25.393],[-84.089,25.142],[-84.326,24.863],[-84.201,24.653],[-84.103,24.402],[-84.285,24.207],[-85.052,24.095],[-85.554,23.788],[-85.694,23.565],[-85.68,23.523],[-85.456,23.509]]]}},{"type":"Feature","properties":{"density":2},"geometry":{"type":"Polygon","coordinates":[[[-92.494,19.118],[-92.188,19.351],[-91.89,19.63],[-91.853,19.807],[-91.927,19.89],[-92.057,19.993],[-92.178,20.002],[-92.448,19.881],[-92.643,19.983],[-92.671,20.151],[-92.746,20.272],[-92.96,20.355],[-93.201,20.318],[-93.425,20.142],[-93.638,19.732],[-93.89,19.5],[-94.122,19.351],[-94.475,19.174],[-94.727,19.109],[-94.885,19.007],[-95.136,18.588],[-95.289,18.393],[-95.512,18.226],[-95.791,18.086],[-95.973,17.863],[-96.015,17.612],[-95.973,17.375],[-96.601,16.328],[-96.698,15.882],[-96.656,15.631],[-96.531,15.324],[-96.419,15.129],[-96.182,14.905],[-95.917,14.822],[-95.61,14.654],[-95.331,14.389],[-95.178,14.054],[-94.94,13.343],[-94.801,12.98],[-94.48,12.464],[-94.243,12.325],[-93.936,12.325],[-93.587,12.506],[-93.35,12.924],[-93.35,13.273],[-93.559,14.947],[-93.657,15.422],[-93.824,15.924],[-93.797,16.621],[-93.587,17.333],[-93.448,17.64],[-93.476,17.793],[-93.573,18.058],[-93.741,18.295],[-93.797,18.449],[-93.559,18.588],[-93.378,18.644],[-93.071,18.784],[-92.82,18.965],[-92.625,19.035],[-92.494,19.118]]]}},{"type":"Feature","properties":{"density":2},"geometry":{"type":"Polygon","coordinates":[[[-104.783,15.163],[-105.355,15.094],[-106.15,15.387],[-106.666,15.721],[-107.001,16.126],[-107.182,16.698],[-107.057,17.228],[-106.833,17.661],[-106.694,18.079],[-106.764,18.498],[-107.196,19.67],[-107.266,20.074],[-107.489,20.353],[-107.587,20.548],[-107.573,20.939],[-107.503,21.218],[-107.35,21.455],[-106.847,22.027],[-106.638,22.153],[-106.387,22.195],[-106.15,22.836],[-105.968,23.087],[-105.717,23.143],[-105.438,23.018],[-105.173,22.739],[-104.838,22.334],[-104.671,22.097],[-104.406,21.79],[-103.639,21.079],[-103.402,20.841],[-103.22,20.576],[-102.788,20.074],[-102.634,19.781],[-102.634,19.446],[-102.913,19.111],[-103.136,18.916],[-103.695,18.707],[-103.834,18.581],[-103.946,18.302],[-104.169,17.981],[-104.406,17.549],[-104.518,17.228],[-104.546,16.879],[-104.532,16.489],[-104.546,15.805],[-104.573,15.554],[-104.671,15.247],[-104.783,15.163]]]}},{"type":"Feature","properties":{"density":2},"geometry":{"type":"Polygon","coordinates":[[[-118.114,49.428],[-118.158,49.529],[-118.166,49.567],[-118.149,49.59],[-118.114,49.58],[-117.997,49.418],[-118.055,49.406],[-118.114,49.428]]]}},{"type":"Feature","properties":{"density":2},"geometry":{"type":"Polygon","coordinates":[[[-92.765,30.915],[-92.842,30.85],[-92.865,30.802],[-92.827,30.799],[-92.736,30.885],[-92.727,30.917],[-92.765,30.915]]]}},{"type":"Feature","properties":{"density":2},"geometry":{"type":"Polygon","coordinates":[[[-92.312,29.777],[-92.45,29.71],[-92.689,29.643],[-92.976,29.606],[-93.009,29.574],[-93.003,29.559],[-92.92,29.543],[-92.787,29.538],[-92.721,29.492],[-92.682,29.388],[-92.646,29.343],[-92.6,29.329],[-92.562,29.339],[-92.507,29.374],[-92.45,29.525],[-92.368,29.65],[-92.263,29.762],[-92.276,29.788],[-92.312,29.777]]]}},{"type":"Feature","properties":{"density":2},"geometry":{"type":"Polygon","coordinates":[[[-92.222,30.863],[-92.264,30.808],[-92.252,30.742],[-92.215,30.759],[-92.196,30.813],[-92.196,30.853],[-92.222,30.863]]]}},{"type":"Feature","properties":{"density":2},"geometry":{"type":"Polygon","coordinates":[[[-87.833,31.656],[-87.887,31.606],[-87.907,31.549],[-87.873,31.556],[-87.809,31.627],[-87.81,31.655],[-87.833,31.656]]]}},{"type":"Feature","properties":{"density":2},"geometry":{"type":"Polygon","coordinates":[[[-89.443,34.29],[-89.495,34.185],[-89.489,34.108],[-89.45,34.121],[-89.387,34.221],[-89.398,34.266],[-89.443,34.29]]]}},{"type":"Feature","properties":{"density":2},"geometry":{"type":"Polygon","coordinates":[[[-90.103,33.576],[-90.179,33.517],[-90.187,33.461],[-90.173,33.45],[-90.133,33.469],[-90.09,33.52],[-90.077,33.562],[-90.082,33.581],[-90.103,33.576]]]}},{"type":"Feature","properties":{"density":2},"geometry":{"type":"Polygon","coordinates":[[[-92.841,31.94],[-92.937,31.906],[-92.946,31.887],[-92.931,31.878],[-92.821,31.91],[-92.817,31.94],[-92.841,31.94]]]}},{"type":"Feature","properties":{"density":2},"geometry":{"type":"Polygon","coordinates":[[[-89.958,30.821],[-89.952,30.794],[-89.97,30.782],[-89.981,30.797],[-89.958,30.821]]]}},{"type":"Feature","properties":{"density":2},"geometry":{"type":"Polygon","coordinates":[[[-91.176,35.075],[-91.305,34.95],[-91.33,34.893],[-91.318,34.864],[-91.257,34.895],[-91.096,35.072],[-91.09,35.127],[-91.176,35.075]]]}},{"type":"Feature","properties":{"density":2},"geometry":{"type":"Polygon","coordinates":[[[-91.977,34.638],[-92.088,34.539],[-92.159,34.456],[-92.161,34.427],[-92.13,34.421],[-92.094,34.441],[-91.97,34.542],[-91.926,34.6],[-91.947,34.639],[-91.977,34.638]]]}},{"type":"Feature","properties":{"density":2},"geometry":{"type":"Polygon","coordinates":[[[-91.767,34.582],[-91.858,34.517],[-91.979,34.397],[-91.996,34.363],[-91.98,34.345],[-91.875,34.364],[-91.782,34.452],[-91.721,34.55],[-91.728,34.581],[-91.767,34.582]]]}},{"type":"Feature","properties":{"density":2},"geometry":{"type":"Polygon","coordinates":[[[-93.184,17.903],[-93.513,18.033],[-93.576,18.039],[-93.693,18.02],[-93.759,17.964],[-93.807,17.822],[-93.903,17.716],[-93.91,17.593],[-93.739,17.567],[-93.381,17.598],[-93.29,17.614],[-93.081,17.706],[-92.935,17.715],[-92.902,17.734],[-92.902,17.767],[-92.923,17.788],[-93.065,17.802],[-93.184,17.903]]]}},{"type":"Feature","properties":{"density":2},"geometry":{"type":"Polygon","coordinates":[[[-119.559,37.588],[-119.656,37.524],[-119.899,37.596],[-119.963,37.631],[-119.958,37.655],[-119.876,37.718],[-119.764,37.762],[-119.732,37.905],[-119.677,37.977],[-119.615,38.027],[-119.527,38.052],[-119.497,38.039],[-119.494,37.997],[-119.54,37.799],[-119.501,37.712],[-119.559,37.588]]]}},{"type":"Feature","properties":{"density":2},"geometry":{"type":"Polygon","coordinates":[[[-123.764,48.504],[-123.636,48.537],[-123.58,48.528],[-123.578,48.516],[-123.76,48.481],[-123.764,48.504]]]}},{"type":"Feature","properties":{"density":2},"geometry":{"type":"Polygon","coordinates":[[[-89.455,34.27],[-89.457,34.22],[-89.511,34.097],[-89.517,34.019],[-89.465,33.971],[-89.435,33.978],[-89.399,34.021],[-89.374,34.151],[-89.387,34.228],[-89.424,34.27],[-89.455,34.27]]]}},{"type":"Feature","properties":{"density":2},"geometry":{"type":"Polygon","coordinates":[[[-92.901,29.599],[-93.161,29.567],[-93.175,29.535],[-93.16,29.521],[-93.095,29.523],[-92.918,29.543],[-92.856,29.565],[-92.866,29.595],[-92.901,29.599]]]}},{"type":"Feature","properties":{"density":2},"geometry":{"type":"Polygon","coordinates":[[[-92.756,30.922],[-92.818,30.894],[-92.999,30.754],[-93.024,30.702],[-93.007,30.671],[-92.945,30.677],[-92.82,30.763],[-92.713,30.893],[-92.72,30.916],[-92.756,30.922]]]}},{"type":"Feature","properties":{"density":2},"geometry":{"type":"Polygon","coordinates":[[[-92.837,31.946],[-92.953,31.907],[-92.985,31.884],[-92.989,31.851],[-92.953,31.847],[-92.82,31.912],[-92.819,31.941],[-92.837,31.946]]]}},{"type":"Feature","properties":{"density":2},"geometry":{"type":"Polygon","coordinates":[[[-91.333,33.719],[-91.396,33.648],[-91.403,33.564],[-91.356,33.566],[-91.326,33.611],[-91.303,33.675],[-91.312,33.717],[-91.333,33.719]]]}},{"type":"Feature","properties":{"density":2},"geometry":{"type":"Polygon","coordinates":[[[-91.432,33.955],[-91.491,33.84],[-91.486,33.8],[-91.438,33.813],[-91.419,33.845],[-91.393,33.95],[-91.414,33.964],[-91.432,33.955]]]}},{"type":"Feature","properties":{"density":2},"geometry":{"type":"Polygon","coordinates":[[[-90.349,34.633],[-90.391,34.479],[-90.388,34.436],[-90.346,34.454],[-90.31,34.602],[-90.308,34.634],[-90.349,34.633]]]}},{"type":"Feature","properties":{"density":2},"geometry":{"type":"Polygon","coordinates":[[[-91.986,34.635],[-92.105,34.499],[-92.27,34.368],[-92.301,34.31],[-92.242,34.284],[-92.171,34.323],[-91.93,34.602],[-91.94,34.633],[-91.986,34.635]]]}},{"type":"Feature","properties":{"density":2},"geometry":{"type":"Polygon","coordinates":[[[-91.901,34.453],[-92.03,34.326],[-92.188,34.101],[-92.216,34.027],[-92.17,34.012],[-92.108,34.051],[-91.866,34.335],[-91.839,34.383],[-91.832,34.435],[-91.862,34.459],[-91.901,34.453]]]}},{"type":"Feature","properties":{"density":2},"geometry":{"type":"Polygon","coordinates":[[[-91.896,34.165],[-91.963,34.058],[-91.972,34.005],[-91.928,34.012],[-91.875,34.097],[-91.867,34.162],[-91.896,34.165]]]}},{"type":"Feature","properties":{"density":2},"geometry":{"type":"Polygon","coordinates":[[[-92.004,34.511],[-92.081,34.435],[-92.112,34.373],[-92.113,34.329],[-92.076,34.342],[-92.02,34.399],[-91.957,34.496],[-91.966,34.517],[-92.004,34.511]]]}},{"type":"Feature","properties":{"density":2},"geometry":{"type":"Polygon","coordinates":[[[-90.984,35.365],[-91.024,35.328],[-91.136,35.151],[-91.309,34.813],[-91.326,34.711],[-91.306,34.666],[-91.229,34.629],[-91.174,34.615],[-91.135,34.632],[-91.093,34.73],[-91.016,34.832],[-90.986,34.954],[-91.005,35.07],[-90.993,35.151],[-90.934,35.355],[-90.953,35.372],[-90.984,35.365]]]}},{"type":"Feature","properties":{"density":2},"geometry":{"type":"Polygon","coordinates":[[[-91.531,34.45],[-91.587,34.391],[-91.642,34.256],[-91.633,34.214],[-91.608,34.217],[-91.564,34.255],[-91.514,34.331],[-91.5,34.396],[-91.514,34.449],[-91.531,34.45]]]}},{"type":"Feature","properties":{"density":2},"geometry":{"type":"Polygon","coordinates":[[[-95.826,48.831],[-95.87,48.9],[-95.908,49.075],[-95.898,49.107],[-95.82,49.16],[-95.745,49.122],[-95.722,49.087],[-95.759,48.947],[-95.77,48.804],[-95.79,48.796],[-95.826,48.831]]]}},{"type":"Feature","properties":{"density":2},"geometry":{"type":"Polygon","coordinates":[[[-93.129,17.776],[-93.345,17.914],[-93.503,17.964],[-93.56,17.951],[-93.737,17.812],[-93.801,17.737],[-93.806,17.647],[-93.676,17.472],[-93.606,17.458],[-93.142,17.666],[-93.109,17.732],[-93.129,17.776]]]}},{"type":"Feature","properties":{"density":2},"geometry":{"type":"Polygon","coordinates":[[[-119.631,37.589],[-119.658,37.579],[-119.688,37.535],[-119.708,37.536],[-119.932,37.635],[-119.947,37.659],[-119.942,37.685],[-119.909,37.704],[-119.745,37.77],[-119.744,37.799],[-119.793,37.901],[-119.797,37.955],[-119.78,37.996],[-119.64,38.112],[-119.558,38.132],[-119.52,38.124],[-119.455,38.073],[-119.383,37.908],[-119.294,37.861],[-119.267,37.821],[-119.268,37.781],[-119.284,37.732],[-119.485,37.705],[-119.582,37.583],[-119.631,37.589]]]}},{"type":"Feature","properties":{"density":2},"geometry":{"type":"Polygon","coordinates":[[[-123.792,48.521],[-123.624,48.585],[-123.53,48.587],[-123.497,48.56],[-123.561,48.505],[-123.762,48.467],[-123.793,48.475],[-123.792,48.521]]]}},{"type":"Feature","properties":{"density":2},"geometry":{"type":"Polygon","coordinates":[[[-118.076,49.427],[-118.122,49.446],[-118.145,49.493],[-118.141,49.552],[-118.103,49.555],[-118.03,49.478],[-118.036,49.45],[-118.076,49.427]]]}},{"type":"Feature","properties":{"density":2},"geometry":{"type":"Polygon","coordinates":[[[-90.459,35.763],[-90.609,35.818],[-90.737,35.805],[-90.784,35.78],[-90.831,35.742],[-90.945,35.552],[-91.064,35.392],[-91.339,34.894],[-91.571,34.554],[-91.63,34.416],[-91.663,34.301],[-91.637,34.146],[-91.59,34.095],[-91.608,33.944],[-91.525,33.911],[-91.428,33.99],[-91.356,34.093],[-91.211,34.46],[-91.11,34.644],[-90.919,34.934],[-90.667,35.236],[-90.48,35.55],[-90.451,35.658],[-90.445,35.737],[-90.459,35.763]]]}},{"type":"Feature","properties":{"density":2},"geometry":{"type":"Polygon","coordinates":[[[-92.11,34.502],[-92.211,34.362],[-92.416,34.192],[-92.455,34.123],[-92.484,34.063],[-92.492,33.994],[-92.46,33.945],[-92.407,33.909],[-92.337,33.92],[-92.282,33.959],[-92.036,34.266],[-91.986,34.37],[-91.967,34.452],[-91.96,34.595],[-91.983,34.661],[-92.012,34.677],[-92.041,34.672],[-92.11,34.502]]]}},{"type":"Feature","properties":{"density":2},"geometry":{"type":"Polygon","coordinates":[[[-91.659,34.865],[-91.718,34.783],[-91.722,34.744],[-91.703,34.706],[-91.662,34.726],[-91.625,34.819],[-91.618,34.849],[-91.632,34.872],[-91.659,34.865]]]}},{"type":"Feature","properties":{"density":2},"geometry":{"type":"Polygon","coordinates":[[[-91.796,34.515],[-91.848,34.492],[-91.899,34.406],[-91.807,34.439],[-91.738,34.507],[-91.796,34.515]]]}},{"type":"Feature","properties":{"density":2},"geometry":{"type":"Polygon","coordinates":[[[-90.427,35.193],[-90.501,35.124],[-90.542,35.009],[-90.527,34.984],[-90.481,34.981],[-90.446,35.021],[-90.399,35.181],[-90.427,35.193]]]}},{"type":"Feature","properties":{"density":2},"geometry":{"type":"Polygon","coordinates":[[[-91.615,34.055],[-91.647,33.961],[-91.689,33.894],[-91.758,33.843],[-91.773,33.895],[-91.71,34.014],[-91.626,34.092],[-91.615,34.055]]]}},{"type":"Feature","properties":{"density":2},"geometry":{"type":"Polygon","coordinates":[[[-91.318,32.547],[-91.432,32.453],[-91.447,32.415],[-91.434,32.38],[-91.375,32.396],[-91.339,32.435],[-91.282,32.544],[-91.287,32.556],[-91.318,32.547]]]}},{"type":"Feature","properties":{"density":2},"geometry":{"type":"Polygon","coordinates":[[[-91.463,32.382],[-91.56,32.321],[-91.587,32.269],[-91.578,32.239],[-91.5,32.268],[-91.435,32.367],[-91.463,32.382]]]}},{"type":"Feature","properties":{"density":2},"geometry":{"type":"Polygon","coordinates":[[[-89.926,32.083],[-90.045,31.906],[-90.071,31.832],[-90.062,31.813],[-90.026,31.829],[-89.931,31.952],[-89.904,32.064],[-89.926,32.083]]]}},{"type":"Feature","properties":{"density":2},"geometry":{"type":"Polygon","coordinates":[[[-92.749,30.928],[-92.999,30.838],[-93.023,30.783],[-92.883,30.824],[-92.723,30.896],[-92.723,30.922],[-92.749,30.928]]]}},{"type":"Feature","properties":{"density":2},"geometry":{"type":"Polygon","coordinates":[[[-92.825,31.975],[-93.165,31.88],[-93.251,31.815],[-93.264,31.768],[-93.216,31.749],[-92.838,31.887],[-92.791,31.933],[-92.792,31.955],[-92.825,31.975]]]}},{"type":"Feature","properties":{"density":2},"geometry":{"type":"Polygon","coordinates":[[[-90.869,33.926],[-90.896,33.879],[-90.893,33.825],[-90.873,33.79],[-90.847,33.829],[-90.831,33.908],[-90.832,33.921],[-90.869,33.926]]]}},{"type":"Feature","properties":{"density":2},"geometry":{"type":"Polygon","coordinates":[[[-90.66,32.598],[-90.79,32.474],[-90.786,32.414],[-90.755,32.38],[-90.694,32.387],[-90.652,32.463],[-90.627,32.58],[-90.66,32.598]]]}},{"type":"Feature","properties":{"density":2},"geometry":{"type":"Polygon","coordinates":[[[-88.87,31.059],[-88.952,30.993],[-89.058,30.844],[-89.206,30.712],[-89.218,30.666],[-89.142,30.67],[-89.067,30.7],[-88.966,30.784],[-88.821,31.027],[-88.82,31.053],[-88.87,31.059]]]}},{"type":"Feature","properties":{"density":2},"geometry":{"type":"Polygon","coordinates":[[[-92.303,29.811],[-92.812,29.611],[-92.937,29.535],[-93.167,29.436],[-93.637,29.293],[-93.815,29.129],[-93.972,29.045],[-93.986,29.008],[-93.975,28.973],[-93.957,28.94],[-93.892,28.907],[-93.793,28.885],[-93.602,28.881],[-93.35,28.92],[-93.114,29.022],[-92.633,29.389],[-92.45,29.587],[-92.268,29.75],[-92.25,29.796],[-92.303,29.811]]]}},{"type":"Feature","properties":{"density":2},"geometry":{"type":"Polygon","coordinates":[[[-97.495,38.198],[-97.578,38.22],[-97.642,38.257],[-97.688,38.303],[-97.684,38.348],[-97.637,38.34],[-97.494,38.265],[-97.466,38.212],[-97.495,38.198]]]}},{"type":"Feature","properties":{"density":2},"geometry":{"type":"Polygon","coordinates":[[[-88.909,60.643],[-88.351,60.769],[-87.723,60.999],[-86.834,61.357],[-85.699,61.644],[-84.678,61.849],[-83.43,61.902],[-82.425,61.773],[-81.47,61.693],[-80.704,61.673],[-78.883,61.216],[-77.914,61.058],[-77.626,60.894],[-77.619,60.728],[-77.828,60.609],[-78.425,60.44],[-79.172,60.251],[-79.908,60.091],[-80.784,60.002],[-81.918,59.843],[-83.47,59.703],[-84.615,59.504],[-86.067,58.947],[-86.346,58.808],[-87.031,58.55],[-87.799,58.32],[-88.266,58.201],[-89.112,58.201],[-90.744,57.855],[-91.987,57.722],[-92.446,58.0],[-92.856,58.543],[-92.422,59.122],[-91.106,59.81],[-90.285,60.148],[-89.633,60.341],[-89.356,60.474],[-88.909,60.643]]]}},{"type":"Feature","properties":{"density":2},"geometry":{"type":"Polygon","coordinates":[[[-95.846,35.105],[-96.041,35.097],[-96.138,35.059],[-96.21,34.986],[-96.229,34.935],[-96.116,34.918],[-95.98,34.969],[-95.855,35.036],[-95.831,35.078],[-95.846,35.105]]]}},{"type":"Feature","properties":{"density":2},"geometry":{"type":"Polygon","coordinates":[[[-117.54,37.507],[-117.733,37.537],[-117.83,37.589],[-117.859,37.664],[-117.844,37.692],[-117.813,37.713],[-117.672,37.724],[-117.551,37.683],[-117.496,37.583],[-117.497,37.526],[-117.54,37.507]]]}},{"type":"Feature","properties":{"density":2},"geometry":{"type":"Polygon","coordinates":[[[-119.656,37.587],[-119.728,37.642],[-119.955,37.666],[-120.019,37.694],[-120.072,37.774],[-120.066,37.828],[-120.035,37.886],[-119.937,37.945],[-119.866,37.966],[-119.83,38.048],[-119.776,38.099],[-119.692,38.505],[-119.647,38.606],[-119.587,38.64],[-119.528,38.64],[-119.371,38.603],[-119.273,38.543],[-119.192,38.455],[-119.121,38.201],[-119.098,38.181],[-118.933,38.192],[-118.863,38.131],[-118.871,38.084],[-118.912,38.043],[-119.111,37.927],[-119.162,37.88],[-119.252,37.647],[-119.3,37.612],[-119.364,37.599],[-119.496,37.606],[-119.588,37.569],[-119.656,37.587]]]}},{"type":"Feature","properties":{"density":2},"geometry":{"type":"Polygon","coordinates":[[[-122.325,39.23],[-122.333,39.306],[-122.317,39.334],[-122.276,39.343],[-122.255,39.3],[-122.263,39.22],[-122.293,39.213],[-122.325,39.23]]]}},{"type":"Feature","properties":{"density":2},"geometry":{"type":"Polygon","coordinates":[[[-122.22,39.435],[-122.17,39.435],[-122.169,39.471],[-122.221,39.499],[-122.287,39.496],[-122.291,39.455],[-122.22,39.435]]]}},{"type":"Feature","properties":{"density":2},"geometry":{"type":"Polygon","coordinates":[[[-123.874,41.179],[-123.84,41.04],[-123.849,40.919],[-123.893,40.844],[-123.928,40.841],[-123.948,40.91],[-123.924,41.153],[-123.919,41.174],[-123.874,41.179]]]}},{"type":"Feature","properties":{"density":2},"geometry":{"type":"Polygon","coordinates":[[[-120.895,48.407],[-120.829,48.405],[-120.698,48.358],[-120.547,48.256],[-120.493,48.188],[-120.532,48.169],[-120.675,48.201],[-120.799,48.299],[-120.906,48.355],[-120.912,48.384],[-120.895,48.407]]]}},{"type":"Feature","properties":{"density":2},"geometry":{"type":"Polygon","coordinates":[[[-118.957,36.716],[-118.827,36.758],[-118.774,36.757],[-118.747,36.738],[-118.741,36.696],[-118.762,36.637],[-118.822,36.561],[-118.889,36.517],[-118.934,36.518],[-119.205,36.601],[-119.225,36.661],[-119.227,36.707],[-119.202,36.738],[-119.161,36.75],[-119.008,36.681],[-118.969,36.695],[-118.957,36.716]]]}},{"type":"Feature","properties":{"density":2},"geometry":{"type":"Polygon","coordinates":[[[-106.621,23.824],[-106.886,23.764],[-107.172,23.462],[-107.237,23.024],[-107.248,22.468],[-107.129,21.895],[-107.086,21.36],[-107.105,20.125],[-107.178,19.736],[-106.959,19.558],[-106.586,19.639],[-105.638,20.571],[-105.298,20.984],[-105.135,21.398],[-105.168,21.835],[-105.357,22.486],[-105.449,22.703],[-105.633,22.957],[-106.173,23.616],[-106.324,23.724],[-106.508,23.826],[-106.621,23.824]]]}},{"type":"Feature","properties":{"density":2},"geometry":{"type":"Polygon","coordinates":[[[-92.77,19.777],[-93.137,19.718],[-93.445,19.648],[-93.985,19.491],[-94.634,19.264],[-95.039,19.08],[-95.179,18.853],[-95.212,18.643],[-95.163,18.302],[-95.007,17.67],[-94.963,16.984],[-95.077,16.671],[-95.207,16.211],[-95.234,15.984],[-95.331,15.839],[-95.412,15.617],[-95.417,15.271],[-95.315,14.715],[-95.228,14.428],[-94.974,14.137],[-94.574,13.839],[-94.202,13.618],[-93.883,13.45],[-93.618,13.456],[-93.391,13.629],[-93.269,13.933],[-93.366,14.416],[-93.615,14.816],[-93.883,15.012],[-93.953,15.385],[-93.802,16.028],[-93.337,16.885],[-92.995,17.346],[-92.916,17.523],[-92.944,17.735],[-93.042,17.883],[-93.186,18.002],[-93.205,18.089],[-93.228,18.435],[-93.165,18.581],[-93.066,18.682],[-92.92,18.781],[-92.786,18.826],[-92.716,18.812],[-92.467,18.675],[-92.354,18.644],[-92.217,18.694],[-92.164,18.807],[-92.123,19.119],[-92.041,19.367],[-92.032,19.458],[-92.046,19.542],[-92.147,19.633],[-92.303,19.684],[-92.77,19.777]]]}},{"type":"Feature","properties":{"density":2},"geometry":{"type":"Polygon","coordinates":[[[-113.936,46.6],[-113.931,46.635],[-113.823,46.728],[-113.656,46.795],[-113.496,46.808],[-113.421,46.764],[-113.459,46.733],[-113.631,46.703],[-113.792,46.637],[-113.887,46.58],[-113.916,46.579],[-113.936,46.6]]]}},{"type":"Feature","properties":{"density":2},"geometry":{"type":"Polygon","coordinates":[[[-115.868,47.301],[-115.766,47.262],[-115.755,47.243],[-115.787,47.226],[-115.879,47.246],[-115.893,47.287],[-115.868,47.301]]]}},{"type":"Feature","properties":{"density":2},"geometry":{"type":"Polygon","coordinates":[[[-115.77,46.228],[-115.751,46.26],[-115.712,46.278],[-115.679,46.277],[-115.662,46.254],[-115.727,46.216],[-115.757,46.211],[-115.77,46.228]]]}},{"type":"Feature","properties":{"density":2},"geometry":{"type":"Polygon","coordinates":[[[-123.799,48.532],[-123.604,48.669],[-123.511,48.69],[-123.367,48.682],[-123.29,48.661],[-123.257,48.621],[-123.257,48.566],[-123.29,48.526],[-123.437,48.491],[-123.77,48.47],[-123.799,48.504],[-123.799,48.532]]]}},{"type":"Feature","properties":{"density":2},"geometry":{"type":"Polygon","coordinates":[[[-122.425,37.873],[-122.355,37.836],[-122.273,37.747],[-122.263,37.697],[-122.293,37.673],[-122.341,37.655],[-122.406,37.66],[-122.446,37.697],[-122.458,37.846],[-122.444,37.871],[-122.425,37.873]]]}},{"type":"Feature","properties":{"density":3},"geometry":{"type":"Polygon","coordinates":[[[-92.288,29.768],[-92.284,29.744],[-92.321,29.665],[-92.363,29.634],[-92.396,29.667],[-92.402,29.717],[-92.288,29.768]]]}},{"type":"Feature","properties":{"density":3},"geometry":{"type":"Polygon","coordinates":[[[-90.37,20.477],[-90.57,20.499],[-90.407,20.462],[-90.368,20.46],[-90.37,20.477]]]}},{"type":"Feature","properties":{"density":3},"geometry":{"type":"Polygon","coordinates":[[[-119.616,37.601],[-119.687,37.71],[-119.68,37.789],[-119.651,37.842],[-119.553,37.668],[-119.555,37.629],[-119.583,37.581],[-119.616,37.601]]]}},{"type":"Feature","properties":{"density":3},"geometry":{"type":"Polygon","coordinates":[[[-92.797,19.281],[-92.843,19.095],[-92.955,18.974],[-93.345,18.816],[-93.671,18.705],[-93.922,18.546],[-94.09,18.528],[-94.248,18.593],[-94.266,18.667],[-94.062,18.816],[-93.931,18.881],[-93.587,19.095],[-93.531,19.142],[-93.448,19.272],[-93.364,19.318],[-92.955,19.337],[-92.797,19.281]]]}},{"type":"Feature","properties":{"density":3},"geometry":{"type":"Polygon","coordinates":[[[-119.578,37.592],[-119.642,37.608],[-119.667,37.564],[-119.697,37.558],[-119.711,37.575],[-119.706,37.604],[-119.634,37.658],[-119.637,37.69],[-119.706,37.823],[-119.691,37.852],[-119.665,37.852],[-119.613,37.805],[-119.561,37.692],[-119.559,37.62],[-119.578,37.592]]]}},{"type":"Feature","properties":{"density":3},"geometry":{"type":"Polygon","coordinates":[[[-95.802,48.812],[-95.832,48.883],[-95.792,48.907],[-95.78,48.831],[-95.802,48.812]]]}},{"type":"Feature","properties":{"density":3},"geometry":{"type":"Polygon","coordinates":[[[-119.602,37.666],[-119.618,37.712],[-119.706,37.803],[-119.711,37.84],[-119.684,37.868],[-119.642,37.873],[-119.625,37.86],[-119.552,37.71],[-119.555,37.658],[-119.587,37.595],[-119.605,37.59],[-119.622,37.602],[-119.602,37.666]]]}},{"type":"Feature","properties":{"density":3},"geometry":{"type":"Polygon","coordinates":[[[-90.546,35.731],[-90.674,35.555],[-90.698,35.497],[-90.851,35.302],[-90.897,35.182],[-90.905,35.138],[-90.893,35.105],[-90.832,35.087],[-90.754,35.155],[-90.692,35.232],[-90.557,35.466],[-90.517,35.56],[-90.484,35.711],[-90.488,35.735],[-90.546,35.731]]]}},{"type":"Feature","properties":{"density":3},"geometry":{"type":"Polygon","coordinates":[[[-92.02,34.488],[-92.091,34.472],[-92.122,34.425],[-92.115,34.381],[-92.049,34.374],[-92.007,34.472],[-92.02,34.488]]]}},{"type":"Feature","properties":{"density":3},"geometry":{"type":"Polygon","coordinates":[[[-90.662,32.585],[-90.708,32.527],[-90.701,32.492],[-90.67,32.5],[-90.641,32.539],[-90.64,32.583],[-90.662,32.585]]]}},{"type":"Feature","properties":{"density":3},"geometry":{"type":"Polygon","coordinates":[[[-92.305,29.789],[-92.425,29.75],[-92.725,29.579],[-92.912,29.5],[-92.909,29.458],[-92.806,29.383],[-92.722,29.383],[-92.682,29.399],[-92.596,29.457],[-92.456,29.621],[-92.266,29.769],[-92.271,29.792],[-92.305,29.789]]]}},{"type":"Feature","properties":{"density":3},"geometry":{"type":"Polygon","coordinates":[[[-119.657,37.622],[-119.791,37.761],[-119.794,37.788],[-119.77,37.811],[-119.548,37.827],[-119.427,37.781],[-119.363,37.719],[-119.37,37.69],[-119.413,37.65],[-119.548,37.618],[-119.586,37.582],[-119.657,37.622]]]}},{"type":"Feature","properties":{"density":3},"geometry":{"type":"Polygon","coordinates":[[[-117.555,37.518],[-117.623,37.536],[-117.665,37.586],[-117.663,37.608],[-117.643,37.618],[-117.588,37.604],[-117.511,37.544],[-117.512,37.519],[-117.555,37.518]]]}},{"type":"Feature","properties":{"density":3},"geometry":{"type":"Polygon","coordinates":[[[-119.005,36.635],[-118.885,36.719],[-118.837,36.736],[-118.786,36.722],[-118.815,36.673],[-118.97,36.605],[-119.005,36.608],[-119.005,36.635]]]}}]}