{"type":"FeatureCollection","features":[{"type":"Feature","properties":{"density":1},"geometry":{"type":"Polygon","coordinates":[[[-81.135,26.837],[-81.12,26.735],[-81.111,26.716],[-81.086,26.712],[-81.064,26.738],[-81.066,26.907],[-81.102,26.965],[-81.131,26.944],[-81.127,26.879],[-81.135,26.837]]]}},{"type":"Feature","properties":{"density":1},"geometry":{"type":"Polygon","coordinates":[[[-80.75,26.748],[-80.714,26.673],[-80.681,26.68],[-80.675,26.73],[-80.716,26.851],[-80.745,26.835],[-80.745,26.782],[-80.75,26.748]]]}},{"type":"Feature","properties":{"density":1},"geometry":{"type":"Polygon","coordinates":[[[-80.516,26.604],[-80.488,26.538],[-80.447,26.534],[-80.442,26.604],[-80.478,26.707],[-80.508,26.735],[-80.538,26.701],[-80.519,26.626],[-80.516,26.604]]]}},{"type":"Feature","properties":{"density":1},"geometry":{"type":"Polygon","coordinates":[[[-80.53,26.845],[-80.511,26.783],[-80.472,26.763],[-80.445,26.771],[-80.495,26.943],[-80.519,26.957],[-80.535,26.943],[-80.531,26.858],[-80.53,26.845]]]}},{"type":"Feature","properties":{"density":1},"geometry":{"type":"Polygon","coordinates":[[[-90.311,19.937],[-90.161,19.713],[-90.042,19.63],[-89.993,19.615],[-89.956,19.627],[-89.941,19.67],[-90.087,19.81],[-90.167,19.914],[-90.258,20.116],[-90.316,20.192],[-90.353,20.213],[-90.405,20.174],[-90.414,20.122],[-90.396,20.051],[-90.335,19.966],[-90.311,19.937]]]}},{"type":"Feature","properties":{"density":1},"geometry":{"type":"Polygon","coordinates":[[[-90.829,19.441],[-90.817,19.341],[-90.759,19.222],[-90.704,19.154],[-90.658,19.142],[-90.621,19.154],[-90.618,19.188],[-90.713,19.362],[-90.731,19.487],[-90.768,19.576],[-90.82,19.557],[-90.823,19.496],[-90.829,19.441]]]}},{"type":"Feature","properties":{"density":1},"geometry":{"type":"Polygon","coordinates":[[[-92.954,18.062],[-92.969,17.964],[-92.963,17.845],[-92.942,17.753],[-92.921,17.724],[-92.897,17.722],[-92.827,17.794],[-92.764,17.829],[-92.733,17.872],[-92.794,18.032],[-92.805,18.189],[-92.838,18.265],[-92.878,18.261],[-92.895,18.243],[-92.942,18.091],[-92.954,18.062]]]}},{"type":"Feature","properties":{"density":1},"geometry":{"type":"Polygon","coordinates":[[[-104.558,19.594],[-104.534,19.554],[-104.492,19.544],[-104.427,19.585],[-104.424,19.627],[-104.452,19.682],[-104.516,19.685],[-104.546,19.643],[-104.558,19.594]]]}},{"type":"Feature","properties":{"density":1},"geometry":{"type":"Polygon","coordinates":[[[-92.883,16.858],[-93.383,17.085],[-93.451,17.335],[-93.451,17.994],[-93.36,18.313],[-92.86,19.268],[-92.132,20.2],[-91.723,20.814],[-91.268,21.36],[-90.745,21.883],[-89.54,23.27],[-89.222,23.611],[-88.449,24.247],[-87.448,24.998],[-86.175,25.907],[-85.379,26.407],[-84.652,26.953],[-84.129,27.43],[-83.72,27.908],[-83.606,28.567],[-83.697,28.908],[-83.992,29.204],[-84.243,29.295],[-84.72,29.386],[-85.061,29.34],[-85.357,29.204],[-85.675,28.999],[-86.084,28.704],[-86.289,28.59],[-86.653,28.408],[-86.766,28.385],[-87.176,28.249],[-87.403,28.226],[-88.426,28.226],[-89.131,28.363],[-89.563,28.363],[-89.836,28.317],[-90.495,28.044],[-91.109,27.817],[-91.905,27.453],[-92.36,27.203],[-93.087,26.908],[-93.633,26.635],[-94.133,26.453],[-95.225,25.907],[-96.18,25.339],[-96.543,25.179],[-96.907,25.111],[-97.476,25.111],[-98.908,25.316],[-99.408,25.316],[-100.045,25.066],[-100.591,24.725],[-100.795,24.543],[-101.114,24.088],[-101.227,23.702],[-101.273,23.224],[-101.296,22.838],[-101.273,22.315],[-101.068,21.883],[-100.591,21.36],[-99.931,20.541],[-99.363,19.995],[-99.317,19.586],[-99.34,19.472],[-99.568,19.268],[-99.795,19.177],[-100.136,19.177],[-100.522,19.313],[-101.091,19.404],[-102.228,19.404],[-102.819,19.359],[-103.228,19.29],[-103.41,19.177],[-103.615,19.086],[-103.728,18.995],[-103.865,18.949],[-103.956,18.79],[-104.001,18.449],[-104.001,17.949],[-103.91,17.608],[-103.706,17.176],[-103.41,16.789],[-102.933,15.948],[-102.705,15.357],[-102.478,14.538],[-102.296,13.015],[-102.091,12.265],[-101.864,11.719],[-101.045,10.946],[-100.227,10.491],[-99.431,10.173],[-98.135,9.945],[-96.498,9.786],[-95.634,9.877],[-94.884,10.127],[-93.224,10.764],[-90.996,11.764],[-90.222,12.174],[-89.722,12.492],[-89.177,13.038],[-88.858,13.561],[-88.722,14.152],[-88.745,14.675],[-88.949,15.084],[-89.336,15.402],[-89.79,15.607],[-90.132,15.721],[-90.564,15.971],[-91.086,16.244],[-91.7,16.63],[-92.36,16.812],[-92.883,16.858]]]}},{"type":"Feature","properties":{"density":1},"geometry":{"type":"Polygon","coordinates":[[[-81.805,22.676],[-81.758,22.668],[-81.617,22.567],[-81.551,22.555],[-81.529,22.58],[-81.555,22.625],[-81.703,22.725],[-81.82,22.85],[-81.857,22.861],[-81.894,22.818],[-81.896,22.734],[-81.873,22.697],[-81.816,22.676],[-81.805,22.676]]]}},{"type":"Feature","properties":{"density":1},"geometry":{"type":"Polygon","coordinates":[[[-77.783,20.87],[-77.763,20.801],[-77.705,20.743],[-77.646,20.731],[-77.604,20.743],[-77.626,20.782],[-77.7,20.823],[-77.724,20.926],[-77.756,20.967],[-77.807,20.958],[-77.812,20.923],[-77.795,20.897],[-77.783,20.87]]]}},{"type":"Feature","properties":{"density":1},"geometry":{"type":"Polygon","coordinates":[[[-87.973,15.311],[-87.954,15.186],[-87.93,15.168],[-87.899,15.186],[-87.875,15.25],[-87.869,15.39],[-87.869,15.482],[-87.924,15.534],[-87.985,15.5],[-87.976,15.335],[-87.973,15.311]]]}},{"type":"Feature","properties":{"density":1},"geometry":{"type":"Polygon","coordinates":[[[-91.417,41.761],[-91.394,41.552],[-91.342,41.477],[-91.267,41.422],[-91.211,41.418],[-91.185,41.445],[-91.172,41.529],[-91.253,41.696],[-91.309,41.748],[-91.361,41.761],[-91.379,41.783],[-91.413,41.775],[-91.417,41.761]]]}},{"type":"Feature","properties":{"density":1},"geometry":{"type":"Polygon","coordinates":[[[-96.893,28.195],[-96.831,28.203],[-96.738,28.157],[-96.699,28.086],[-96.724,28.0],[-96.83,27.95],[-96.862,27.959],[-96.926,28.098],[-96.901,28.194],[-96.893,28.195]]]}},{"type":"Feature","properties":{"density":1},"geometry":{"type":"Polygon","coordinates":[[[-96.888,28.236],[-96.741,28.181],[-96.669,28.114],[-96.52,27.879],[-96.318,27.754],[-96.285,27.682],[-96.274,27.494],[-96.401,27.369],[-96.475,27.34],[-96.573,27.326],[-96.645,27.355],[-96.688,27.446],[-96.728,27.597],[-96.824,27.773],[-96.89,28.059],[-96.94,28.178],[-96.928,28.216],[-96.91,28.224],[-96.888,28.236]]]}},{"type":"Feature","properties":{"density":1},"geometry":{"type":"Polygon","coordinates":[[[-81.328,28.059],[-81.082,28.281],[-80.938,28.374],[-80.878,28.472],[-80.868,28.573],[-80.909,28.658],[-81.002,28.694],[-81.072,28.673],[-81.271,28.366],[-81.364,28.185],[-81.382,28.092],[-81.356,28.072],[-81.328,28.059]]]}},{"type":"Feature","properties":{"density":1},"geometry":{"type":"Polygon","coordinates":[[[-82.004,23.151],[-82.111,23.435],[-82.113,23.614],[-82.025,23.885],[-81.966,23.983],[-81.868,24.076],[-81.743,24.104],[-81.588,24.074],[-81.536,23.924],[-81.497,23.544],[-81.458,23.438],[-81.398,23.339],[-81.452,23.044],[-81.423,22.764],[-81.436,22.681],[-81.47,22.605],[-81.532,22.555],[-81.629,22.576],[-81.728,22.989],[-81.838,23.129],[-81.93,23.106],[-81.966,23.108],[-81.998,23.135],[-82.004,23.151]]]}},{"type":"Feature","properties":{"density":1},"geometry":{"type":"Polygon","coordinates":[[[-81.08,22.848],[-81.108,23.0],[-81.111,23.263],[-81.033,23.354],[-80.945,23.359],[-80.902,23.312],[-80.868,23.304],[-80.662,23.297],[-80.615,23.268],[-80.496,23.248],[-80.403,23.181],[-80.38,23.088],[-80.396,22.925],[-80.45,22.809],[-80.499,22.77],[-80.589,22.879],[-80.631,22.886],[-80.765,22.822],[-80.871,22.866],[-80.987,22.819],[-81.054,22.83],[-81.08,22.848]]]}},{"type":"Feature","properties":{"density":1},"geometry":{"type":"Polygon","coordinates":[[[-77.413,20.797],[-77.291,20.82],[-77.204,20.861],[-77.175,20.911],[-77.175,20.983],[-77.252,21.057],[-77.318,21.078],[-77.423,21.024],[-77.471,20.865],[-77.458,20.805],[-77.413,20.797]]]}},{"type":"Feature","properties":{"density":1},"geometry":{"type":"Polygon","coordinates":[[[-77.836,20.851],[-77.811,20.979],[-77.836,21.012],[-77.896,21.012],[-77.921,20.977],[-77.923,20.882],[-77.892,20.84],[-77.871,20.836],[-77.836,20.851]]]}},{"type":"Feature","properties":{"density":1},"geometry":{"type":"Polygon","coordinates":[[[-77.671,20.824],[-77.636,20.857],[-77.628,20.894],[-77.64,20.981],[-77.731,20.884],[-77.719,20.826],[-77.692,20.816],[-77.671,20.824]]]}},{"type":"Feature","properties":{"density":1},"geometry":{"type":"Polygon","coordinates":[[[-77.101,20.365],[-77.082,20.394],[-77.027,20.419],[-76.959,20.419],[-76.857,20.398],[-76.814,20.349],[-76.841,20.32],[-77.058,20.332],[-77.089,20.347],[-77.101,20.365]]]}},{"type":"Feature","properties":{"density":1},"geometry":{"type":"Polygon","coordinates":[[[-98.375,21.923],[-98.501,21.915],[-98.62,21.883],[-98.639,21.844],[-98.624,21.702],[-98.561,21.666],[-98.462,21.654],[-98.387,21.686],[-98.316,21.808],[-98.308,21.875],[-98.344,21.899],[-98.375,21.923]]]}},{"type":"Feature","properties":{"density":1},"geometry":{"type":"Polygon","coordinates":[[[-116.759,41.184],[-116.789,41.217],[-116.792,41.36],[-116.752,41.42],[-116.678,41.475],[-116.588,41.502],[-116.546,41.484],[-116.568,41.422],[-116.688,41.281],[-116.712,41.179],[-116.754,41.162],[-116.759,41.184]]]}},{"type":"Feature","properties":{"density":1},"geometry":{"type":"Polygon","coordinates":[[[-95.786,42.126],[-95.777,42.188],[-95.728,42.245],[-95.651,42.282],[-95.584,42.267],[-95.748,42.114],[-95.783,42.119],[-95.786,42.126]]]}},{"type":"Feature","properties":{"density":1},"geometry":{"type":"Polygon","coordinates":[[[-93.119,40.973],[-92.986,41.021],[-92.853,41.023],[-92.775,40.964],[-92.698,40.872],[-92.68,40.781],[-92.736,40.757],[-92.787,40.771],[-92.881,40.833],[-93.119,40.94],[-93.127,40.96],[-93.119,40.973]]]}},{"type":"Feature","properties":{"density":1},"geometry":{"type":"Polygon","coordinates":[[[-94.432,40.209],[-94.202,40.16],[-94.039,40.162],[-93.936,40.138],[-93.908,40.112],[-93.898,40.009],[-93.944,39.936],[-94.037,39.92],[-94.137,39.95],[-94.355,40.063],[-94.446,40.172],[-94.464,40.209],[-94.45,40.219],[-94.432,40.209]]]}},{"type":"Feature","properties":{"density":1},"geometry":{"type":"Polygon","coordinates":[[[-80.932,27.019],[-80.887,27.061],[-80.843,27.151],[-80.728,27.267],[-80.663,27.389],[-80.641,27.467],[-80.652,27.486],[-80.735,27.502],[-80.827,27.456],[-80.881,27.407],[-80.951,27.1],[-80.952,27.027],[-80.932,27.019]]]}},{"type":"Feature","properties":{"density":1},"geometry":{"type":"Polygon","coordinates":[[[-81.256,27.775],[-81.116,27.892],[-81.027,28.007],[-80.873,28.126],[-80.832,28.183],[-80.819,28.305],[-80.897,28.513],[-80.951,28.596],[-81.035,28.645],[-81.156,28.632],[-81.291,28.511],[-81.337,28.44],[-81.347,28.232],[-81.38,28.091],[-81.354,28.07],[-81.318,28.077],[-81.16,28.19],[-81.287,27.988],[-81.316,27.902],[-81.321,27.784],[-81.31,27.765],[-81.285,27.766],[-81.256,27.775]]]}},{"type":"Feature","properties":{"density":1},"geometry":{"type":"Polygon","coordinates":[[[-91.561,29.734],[-91.514,29.69],[-91.222,29.219],[-91.17,29.105],[-91.169,29.006],[-91.202,28.947],[-91.267,28.892],[-91.305,28.895],[-91.329,28.921],[-91.534,29.432],[-91.586,29.637],[-91.571,29.731],[-91.561,29.734]]]}},{"type":"Feature","properties":{"density":1},"geometry":{"type":"Polygon","coordinates":[[[-94.656,29.786],[-94.664,29.727],[-94.597,29.627],[-94.58,29.492],[-94.505,29.25],[-94.528,29.074],[-94.514,28.91],[-94.143,28.322],[-94.035,28.227],[-93.864,28.134],[-93.686,28.119],[-93.559,28.144],[-93.513,28.271],[-93.518,28.383],[-93.711,28.8],[-93.764,29.003],[-93.835,29.174],[-93.957,29.313],[-94.057,29.386],[-94.392,29.733],[-94.511,29.821],[-94.57,29.838],[-94.653,29.811],[-94.656,29.786]]]}},{"type":"Feature","properties":{"density":1},"geometry":{"type":"Polygon","coordinates":[[[-96.179,28.703],[-95.649,28.265],[-95.427,27.979],[-95.153,27.376],[-95.176,27.235],[-95.302,27.193],[-95.496,27.277],[-95.702,27.498],[-95.95,27.845],[-96.08,28.085],[-96.278,28.604],[-96.278,28.673],[-96.209,28.715],[-96.179,28.703]]]}},{"type":"Feature","properties":{"density":1},"geometry":{"type":"Polygon","coordinates":[[[-96.892,28.272],[-96.591,28.112],[-96.377,27.921],[-96.034,27.487],[-95.805,27.277],[-95.63,27.052],[-95.473,26.895],[-95.374,26.705],[-95.321,26.483],[-95.462,26.315],[-95.542,26.296],[-95.794,26.289],[-96.019,26.38],[-96.171,26.59],[-96.278,26.83],[-96.545,27.342],[-96.732,27.601],[-96.843,27.796],[-96.942,28.085],[-96.93,28.261],[-96.892,28.272]]]}},{"type":"Feature","properties":{"density":1},"geometry":{"type":"Polygon","coordinates":[[[-81.332,26.031],[-82.415,25.772],[-84.413,24.795],[-86.896,23.168],[-87.922,22.397],[-88.957,21.037],[-89.476,19.777],[-89.654,18.8],[-89.565,16.891],[-89.597,16.276],[-89.92,15.78],[-90.542,15.514],[-92.368,15.24],[-93.322,14.925],[-94.228,14.714],[-95.616,14.308],[-97.558,13.826],[-99.29,13.604],[-100.978,13.693],[-101.999,13.427],[-103.554,13.293],[-105.241,13.293],[-106.307,13.16],[-108.105,13.271],[-109.828,13.189],[-112.131,13.053],[-112.899,13.229],[-113.151,13.882],[-112.737,14.641],[-112.155,15.399],[-111.458,16.136],[-110.615,16.979],[-109.993,17.956],[-109.105,19.022],[-107.684,19.955],[-106.174,20.399],[-105.152,20.532],[-103.287,20.621],[-102.754,20.71],[-101.822,21.065],[-99.601,22.131],[-97.914,22.886],[-97.292,23.197],[-95.16,24.484],[-93.872,25.373],[-93.428,25.817],[-91.519,26.749],[-86.723,28.17],[-85.213,28.837],[-83.836,29.236],[-82.77,29.369],[-81.731,29.635],[-80.679,29.635],[-79.912,29.266],[-79.315,28.498],[-79.411,27.521],[-79.76,26.811],[-80.47,26.346],[-81.332,26.031]]]}},{"type":"Feature","properties":{"density":1},"geometry":{"type":"Polygon","coordinates":[[[-82.706,22.753],[-82.711,23.054],[-82.668,23.24],[-82.434,23.712],[-82.22,24.084],[-81.991,24.294],[-81.81,24.537],[-81.476,24.804],[-81.195,24.928],[-80.527,24.928],[-80.022,24.952],[-79.755,24.909],[-79.559,24.842],[-79.364,24.723],[-79.244,24.594],[-78.834,23.941],[-78.849,23.817],[-78.963,23.55],[-79.249,23.187],[-79.812,22.782],[-79.883,22.529],[-79.879,22.434],[-79.907,22.286],[-79.984,22.186],[-80.341,21.948],[-80.513,22.043],[-80.632,22.153],[-80.842,22.219],[-80.942,22.224],[-81.176,22.348],[-81.242,22.448],[-81.319,22.51],[-81.624,22.491],[-81.872,22.62],[-82.11,22.62],[-82.22,22.648],[-82.649,22.634],[-82.697,22.696],[-82.706,22.753]]]}},{"type":"Feature","properties":{"density":1},"geometry":{"type":"Polygon","coordinates":[[[-79.397,22.005],[-79.216,22.153],[-79.13,22.3],[-79.13,22.367],[-79.24,22.439],[-79.325,22.381],[-79.373,22.319],[-79.473,22.071],[-79.445,22.033],[-79.397,22.005]]]}},{"type":"Feature","properties":{"density":1},"geometry":{"type":"Polygon","coordinates":[[[-78.996,21.604],[-78.982,21.876],[-78.93,21.986],[-78.82,22.157],[-78.634,22.381],[-78.429,22.701],[-78.381,22.915],[-78.276,23.149],[-78.129,23.345],[-77.89,23.43],[-77.533,23.335],[-77.39,23.125],[-77.318,22.677],[-77.246,22.458],[-77.251,22.076],[-77.328,21.666],[-77.361,21.337],[-77.313,21.218],[-77.132,21.099],[-77.099,20.965],[-77.099,20.798],[-77.261,20.641],[-77.418,20.598],[-77.747,20.674],[-77.847,20.732],[-78.133,20.751],[-78.262,20.808],[-78.424,20.951],[-78.472,21.075],[-78.481,21.361],[-78.682,21.609],[-78.954,21.58],[-78.996,21.604]]]}},{"type":"Feature","properties":{"density":1},"geometry":{"type":"Polygon","coordinates":[[[-77.103,20.322],[-77.108,20.479],[-77.037,20.593],[-76.741,20.908],[-76.612,20.956],[-76.498,20.956],[-76.393,20.841],[-76.402,20.541],[-76.345,20.455],[-76.326,20.35],[-76.388,20.15],[-76.522,20.074],[-76.76,20.064],[-76.894,20.112],[-76.984,20.178],[-77.08,20.288],[-77.103,20.322]]]}},{"type":"Feature","properties":{"density":2},"geometry":{"type":"Polygon","coordinates":[[[-96.865,28.194],[-96.787,28.142],[-96.774,28.118],[-96.789,28.079],[-96.833,28.067],[-96.884,28.165],[-96.871,28.194],[-96.865,28.194]]]}},{"type":"Feature","properties":{"density":2},"geometry":{"type":"Polygon","coordinates":[[[-82.378,22.749],[-82.414,22.794],[-82.412,22.846],[-82.385,22.831],[-82.377,22.752],[-82.378,22.749]]]}},{"type":"Feature","properties":{"density":2},"geometry":{"type":"Polygon","coordinates":[[[-81.959,23.152],[-81.915,23.451],[-81.915,23.553],[-81.923,23.606],[-81.971,23.618],[-82.07,23.535],[-82.091,23.457],[-82.001,23.169],[-81.976,23.135],[-81.959,23.152]]]}},{"type":"Feature","properties":{"density":2},"geometry":{"type":"Polygon","coordinates":[[[-76.711,20.449],[-76.677,20.47],[-76.673,20.541],[-76.738,20.576],[-77.014,20.601],[-77.045,20.585],[-77.026,20.509],[-76.98,20.48],[-76.937,20.463],[-76.732,20.455],[-76.711,20.449]]]}},{"type":"Feature","properties":{"density":2},"geometry":{"type":"Polygon","coordinates":[[[-77.601,20.722],[-77.505,20.837],[-77.515,20.898],[-77.555,20.921],[-77.783,20.867],[-77.818,20.816],[-77.791,20.779],[-77.634,20.731],[-77.601,20.722]]]}},{"type":"Feature","properties":{"density":2},"geometry":{"type":"Polygon","coordinates":[[[-96.888,28.19],[-96.887,28.13],[-96.837,27.982],[-96.697,27.734],[-96.66,27.732],[-96.64,27.771],[-96.641,27.816],[-96.756,28.099],[-96.801,28.155],[-96.882,28.201],[-96.888,28.19]]]}},{"type":"Feature","properties":{"density":2},"geometry":{"type":"Polygon","coordinates":[[[-94.53,29.594],[-94.319,29.366],[-94.179,29.185],[-94.016,28.881],[-94.03,28.78],[-94.123,28.719],[-94.243,28.757],[-94.309,28.912],[-94.393,29.057],[-94.534,29.432],[-94.569,29.576],[-94.547,29.602],[-94.53,29.594]]]}},{"type":"Feature","properties":{"density":2},"geometry":{"type":"Polygon","coordinates":[[[-96.991,15.886],[-96.7,15.478],[-96.336,15.143],[-95.841,15.056],[-95.215,14.983],[-94.692,14.983],[-94.066,15.187],[-93.687,15.755],[-93.673,16.279],[-93.411,16.773],[-92.974,16.846],[-92.465,16.846],[-91.345,16.599],[-91.097,16.715],[-91.054,17.312],[-91.228,17.748],[-91.927,18.185],[-92.261,18.49],[-92.421,18.825],[-92.378,19.073],[-92.261,19.16],[-92.087,19.378],[-91.985,20.222],[-91.97,20.542],[-91.898,20.95],[-91.636,21.779],[-91.257,22.449],[-90.923,22.943],[-90.442,23.365],[-89.758,23.875],[-89.598,24.049],[-89.613,24.297],[-89.831,24.369],[-90.195,24.34],[-91.301,23.787],[-91.956,23.293],[-93.527,21.997],[-94.008,21.677],[-94.983,21.284],[-95.637,21.197],[-96.219,21.139],[-96.86,20.964],[-97.107,20.6],[-97.078,20.12],[-96.802,19.509],[-96.409,19.073],[-96.059,18.52],[-95.725,17.646],[-95.783,16.802],[-96.307,16.511],[-96.787,16.395],[-97.049,16.162],[-97.063,15.958],[-96.991,15.886]]]}}]}