{"type":"FeatureCollection","features":[{"type":"Feature","properties":{"density":1},"geometry":{"type":"Polygon","coordinates":[[[-92.476,32.408],[-92.149,32.269],[-92.103,32.261],[-92.068,32.283],[-92.088,32.327],[-92.358,32.423],[-92.472,32.438],[-92.476,32.408]]]}},{"type":"Feature","properties":{"density":1},"geometry":{"type":"Polygon","coordinates":[[[-92.281,32.451],[-92.099,32.425],[-92.065,32.452],[-92.114,32.482],[-92.175,32.484],[-92.257,32.478],[-92.281,32.451]]]}},{"type":"Feature","properties":{"density":1},"geometry":{"type":"Polygon","coordinates":[[[-92.008,32.829],[-91.738,32.689],[-91.647,32.667],[-91.613,32.684],[-91.664,32.745],[-91.732,32.772],[-91.984,32.851],[-92.002,32.851],[-92.008,32.829]]]}},{"type":"Feature","properties":{"density":1},"geometry":{"type":"Polygon","coordinates":[[[-93.29,34.146],[-93.254,33.929],[-93.21,33.857],[-93.157,33.796],[-93.083,33.747],[-93.022,33.736],[-92.967,33.75],[-92.931,33.802],[-92.92,33.852],[-92.948,33.94],[-92.995,34.003],[-93.119,34.113],[-93.232,34.149],[-93.29,34.146]]]}},{"type":"Feature","properties":{"density":1},"geometry":{"type":"Polygon","coordinates":[[[-93.397,35.277],[-93.499,35.26],[-93.604,35.305],[-93.642,35.384],[-93.634,35.434],[-93.554,35.481],[-93.433,35.462],[-93.369,35.404],[-93.356,35.357],[-93.372,35.285],[-93.397,35.277]]]}},{"type":"Feature","properties":{"density":1},"geometry":{"type":"Polygon","coordinates":[[[-119.531,37.662],[-119.582,37.712],[-119.724,37.786],[-119.898,37.837],[-120.13,37.85],[-120.183,37.811],[-120.227,37.725],[-120.288,37.324],[-120.332,37.144],[-120.656,36.639],[-121.075,36.341],[-121.205,35.988],[-121.224,35.709],[-121.01,35.114],[-120.852,34.788],[-120.526,34.444],[-120.229,34.332],[-119.894,34.388],[-119.708,34.574],[-119.578,34.853],[-119.54,35.188],[-119.206,35.672],[-119.187,35.82],[-119.196,36.062],[-119.317,36.388],[-119.354,36.732],[-119.336,37.011],[-119.373,37.374],[-119.475,37.597],[-119.531,37.662]]]}},{"type":"Feature","properties":{"density":1},"geometry":{"type":"Polygon","coordinates":[[[-100.224,40.478],[-103.297,38.571],[-105.415,36.346],[-107.534,34.015],[-109.123,31.049],[-111.454,27.659],[-115.374,24.799],[-121.2,22.892],[-124.378,21.303],[-125.967,18.654],[-126.497,16.854],[-125.861,14.735],[-122.789,10.921],[-120.035,9.862],[-113.467,9.862],[-109.123,11.133],[-103.72,13.252],[-98.741,13.358],[-93.974,13.252],[-90.478,13.569],[-88.359,15.159],[-86.559,16.854],[-83.486,20.032],[-79.143,22.15],[-74.799,24.057],[-70.668,25.752],[-66.43,28.083],[-63.888,29.778],[-62.405,32.32],[-61.769,35.287],[-62.829,38.783],[-64.735,40.795],[-69.503,41.961],[-72.575,41.855],[-77.448,41.325],[-82.639,41.007],[-87.83,40.901],[-93.233,40.901],[-98.635,40.795],[-100.224,40.478]]]}},{"type":"Feature","properties":{"density":1},"geometry":{"type":"Polygon","coordinates":[[[-123.362,49.659],[-123.205,48.968],[-122.703,48.058],[-121.981,47.43],[-120.976,47.273],[-120.129,47.65],[-119.313,48.497],[-118.308,49.722],[-116.802,51.134],[-115.734,52.296],[-114.196,53.426],[-111.277,54.493],[-109.676,55.309],[-109.143,55.937],[-108.892,57.004],[-108.954,57.632],[-109.614,58.385],[-110.65,58.762],[-112.376,58.636],[-113.506,58.385],[-114.636,57.883],[-116.08,56.91],[-119.658,54.618],[-121.416,53.739],[-122.075,53.143],[-123.142,51.856],[-123.331,51.26],[-123.456,50.569],[-123.362,49.659]]]}},{"type":"Feature","properties":{"density":1},"geometry":{"type":"Polygon","coordinates":[[[-71.892,17.855],[-71.706,17.868],[-71.545,17.909],[-71.462,17.963],[-71.425,18.042],[-71.441,18.199],[-71.64,18.331],[-71.809,18.418],[-71.995,18.488],[-72.19,18.6],[-72.442,18.773],[-72.781,19.112],[-72.921,19.207],[-73.124,19.273],[-73.269,19.286],[-73.401,19.269],[-73.504,19.22],[-73.587,19.145],[-73.636,19.046],[-73.657,18.943],[-73.649,18.781],[-73.612,18.624],[-73.525,18.476],[-73.421,18.364],[-73.235,18.219],[-73.02,18.095],[-72.591,17.93],[-72.4,17.884],[-72.057,17.843],[-71.892,17.855]]]}},{"type":"Feature","properties":{"density":1},"geometry":{"type":"Polygon","coordinates":[[[-95.613,19.365],[-95.753,19.188],[-96.004,18.946],[-96.246,18.658],[-96.292,18.277],[-96.199,17.812],[-95.874,17.375],[-95.567,17.068],[-95.111,16.817],[-94.2,16.714],[-93.818,16.733],[-93.186,16.9],[-92.628,17.105],[-92.107,17.449],[-91.67,17.914],[-91.419,18.23],[-91.168,18.723],[-91.028,19.086],[-90.944,19.616],[-91.01,19.942],[-91.233,20.258],[-91.484,20.453],[-91.977,20.648],[-92.693,20.732],[-92.953,20.723],[-93.204,20.686],[-93.549,20.518],[-93.8,20.304],[-94.367,19.951],[-94.581,19.849],[-95.251,19.579],[-95.613,19.365]]]}},{"type":"Feature","properties":{"density":1},"geometry":{"type":"Polygon","coordinates":[[[-100.161,40.606],[-100.852,40.072],[-101.982,39.005],[-102.641,38.346],[-103.363,37.687],[-104.085,36.714],[-104.43,35.866],[-104.65,34.893],[-104.744,33.983],[-104.765,33.125],[-104.65,31.88],[-104.116,30.718],[-103.143,29.651],[-102.264,28.866],[-101.417,28.176],[-100.538,27.705],[-99.533,27.266],[-98.466,26.889],[-97.43,26.701],[-96.583,26.732],[-95.735,27.077],[-94.951,27.517],[-94.354,28.05],[-93.507,28.427],[-92.837,28.689],[-91.728,28.908],[-90.431,29.055],[-89.196,28.94],[-87.334,28.605],[-86.538,28.479],[-85.743,28.427],[-84.885,28.437],[-83.556,28.49],[-82.112,28.521],[-80.888,28.647],[-79.131,28.866],[-77.718,29.118],[-76.525,29.431],[-75.301,29.756],[-74.004,30.216],[-72.225,30.949],[-70.901,31.375],[-67.958,32.003],[-66.395,32.477],[-65.139,32.882],[-63.507,33.356],[-61.092,34.234],[-59.648,34.736],[-58.288,35.406],[-57.284,35.992],[-56.999,36.376],[-56.811,36.962],[-56.748,37.464],[-56.938,38.063],[-57.347,38.597],[-57.912,38.963],[-58.602,39.319],[-59.586,39.528],[-60.946,39.779],[-62.118,39.926],[-63.896,40.051],[-65.508,40.135],[-67.297,40.187],[-69.494,40.47],[-70.875,40.857],[-71.848,41.202],[-73.794,41.579],[-75.584,41.61],[-77.027,41.485],[-78.44,41.171],[-80.229,40.857],[-82.426,40.7],[-85.189,40.543],[-87.354,40.669],[-89.405,40.878],[-91.205,41.15],[-93.046,41.61],[-94.553,41.799],[-95.767,41.715],[-97.399,41.464],[-98.623,41.202],[-99.314,40.983],[-100.161,40.606]]]}},{"type":"Feature","properties":{"density":1},"geometry":{"type":"Polygon","coordinates":[[[-120.563,35.043],[-120.373,35.134],[-119.997,35.407],[-119.869,35.547],[-119.646,35.87],[-119.596,36.006],[-119.381,36.837],[-119.34,37.213],[-119.323,37.597],[-119.336,37.721],[-119.431,37.866],[-119.609,37.936],[-119.79,37.969],[-120.014,37.957],[-120.167,37.883],[-120.382,37.478],[-120.489,37.192],[-120.679,36.94],[-120.956,36.684],[-121.258,36.469],[-121.498,36.337],[-121.622,36.204],[-121.704,36.051],[-121.754,35.857],[-121.758,35.671],[-121.721,35.531],[-121.642,35.374],[-121.518,35.212],[-121.361,35.13],[-120.989,35.014],[-120.791,35.002],[-120.563,35.043]]]}},{"type":"Feature","properties":{"density":1},"geometry":{"type":"Polygon","coordinates":[[[-112.893,55.617],[-112.035,56.14],[-111.072,56.642],[-110.402,57.04],[-109.817,57.437],[-109.377,57.919],[-109.147,58.505],[-109.063,59.132],[-109.21,59.907],[-109.482,60.576],[-110.026,61.099],[-110.737,61.539],[-111.658,61.936],[-112.767,62.271],[-114.148,62.355],[-115.718,62.229],[-116.638,61.978],[-117.308,61.497],[-118.082,60.513],[-118.396,59.865],[-118.794,58.881],[-119.045,57.479],[-119.129,56.37],[-119.401,55.198],[-119.756,54.277],[-120.447,52.938],[-121.179,51.976],[-121.807,51.285],[-122.372,50.699],[-122.937,49.946],[-123.125,49.234],[-123.125,48.397],[-122.812,47.707],[-122.393,47.204],[-121.451,46.786],[-120.572,46.744],[-119.819,46.912],[-119.254,47.414],[-118.271,49.423],[-117.643,50.511],[-117.12,51.327],[-116.304,52.415],[-115.487,53.357],[-114.755,54.152],[-113.96,54.822],[-112.893,55.617]]]}},{"type":"Feature","properties":{"density":1},"geometry":{"type":"Polygon","coordinates":[[[-93.717,32.902],[-93.706,32.853],[-93.677,32.848],[-93.644,32.867],[-93.374,33.104],[-93.351,33.139],[-93.345,33.186],[-93.363,33.223],[-93.401,33.249],[-93.444,33.254],[-93.535,33.196],[-93.608,33.104],[-93.717,32.902]]]}},{"type":"Feature","properties":{"density":1},"geometry":{"type":"Polygon","coordinates":[[[-90.402,32.451],[-90.459,32.412],[-90.47,32.377],[-90.459,32.357],[-90.369,32.359],[-90.288,32.401],[-90.269,32.436],[-90.286,32.476],[-90.314,32.487],[-90.402,32.451]]]}},{"type":"Feature","properties":{"density":1},"geometry":{"type":"Polygon","coordinates":[[[-74.003,19.537],[-74.114,19.245],[-74.145,19.028],[-74.114,18.811],[-74.046,18.644],[-73.854,18.439],[-73.593,18.247],[-73.407,18.135],[-73.06,17.98],[-72.88,17.931],[-72.539,17.869],[-72.254,17.838],[-71.845,17.825],[-71.56,17.881],[-71.415,17.978],[-71.353,18.073],[-71.357,18.214],[-71.403,18.371],[-71.494,18.474],[-71.702,18.631],[-72.087,18.861],[-73.122,19.623],[-73.345,19.741],[-73.531,19.778],[-73.705,19.76],[-73.916,19.667],[-74.003,19.537]]]}},{"type":"Feature","properties":{"density":1},"geometry":{"type":"Polygon","coordinates":[[[-121.379,35.952],[-121.361,35.772],[-121.305,35.673],[-121.169,35.536],[-120.983,35.487],[-120.766,35.456],[-120.499,35.524],[-120.245,35.623],[-120.015,35.784],[-119.811,36.007],[-119.612,36.286],[-119.284,36.919],[-119.153,37.254],[-119.079,37.52],[-119.054,37.731],[-119.122,37.954],[-119.234,38.091],[-119.556,38.19],[-119.78,38.171],[-119.96,38.084],[-120.313,37.762],[-120.728,37.185],[-120.933,36.844],[-121.224,36.41],[-121.317,36.231],[-121.361,36.107],[-121.379,35.952]]]}},{"type":"Feature","properties":{"density":1},"geometry":{"type":"Polygon","coordinates":[[[-112.199,56.438],[-111.048,56.877],[-109.625,57.275],[-108.976,57.317],[-108.076,57.421],[-107.448,57.673],[-106.8,58.133],[-106.235,58.719],[-105.753,59.619],[-105.712,60.623],[-106.109,61.837],[-106.883,62.59],[-107.524,63.055],[-108.591,63.369],[-109.897,63.616],[-111.069,63.72],[-112.868,63.595],[-114.417,63.239],[-115.547,62.674],[-116.292,62.176],[-116.844,61.376],[-117.807,59.263],[-118.476,57.233],[-119.02,56.04],[-119.669,54.806],[-120.15,54.031],[-121.134,52.378],[-122.39,50.154],[-122.536,49.679],[-122.494,49.219],[-122.389,48.716],[-122.076,48.298],[-121.615,47.984],[-121.028,47.702],[-120.439,47.541],[-119.999,47.553],[-119.475,47.727],[-119.104,48.068],[-118.56,48.674],[-118.225,49.323],[-117.346,50.934],[-115.944,53.09],[-115.128,54.031],[-114.542,54.743],[-113.801,55.403],[-112.199,56.438]]]}},{"type":"Feature","properties":{"density":1},"geometry":{"type":"Polygon","coordinates":[[[-92.174,20.279],[-92.551,20.293],[-92.858,20.251],[-93.179,20.153],[-93.486,19.944],[-93.793,19.651],[-94.267,19.051],[-94.853,18.395],[-95.634,17.684],[-95.704,17.363],[-95.578,17.028],[-95.174,16.707],[-94.434,16.554],[-93.862,16.54],[-93.067,16.777],[-92.537,17.056],[-92.146,17.447],[-91.895,17.977],[-91.588,19.205],[-91.547,19.484],[-91.575,19.79],[-91.714,20.042],[-91.951,20.223],[-92.174,20.279]]]}},{"type":"Feature","properties":{"density":1},"geometry":{"type":"Polygon","coordinates":[[[-96.949,27.369],[-96.081,27.489],[-95.181,27.741],[-94.072,28.086],[-93.067,28.483],[-92.586,28.818],[-91.456,29.415],[-90.075,30.063],[-89.405,30.294],[-88.317,30.419],[-87.354,30.398],[-86.664,30.273],[-85.973,30.084],[-85.197,29.722],[-84.695,29.426],[-83.652,28.921],[-83.094,28.767],[-82.438,28.684],[-81.531,28.656],[-80.387,28.754],[-78.42,29.074],[-77.105,29.259],[-75.808,29.468],[-75.055,29.608],[-74.397,29.764],[-73.397,29.959],[-71.911,30.147],[-70.195,30.398],[-68.312,30.712],[-66.596,31.047],[-65.068,31.507],[-63.876,31.926],[-62.787,32.386],[-61.344,33.328],[-60.737,34.165],[-60.381,35.002],[-60.067,35.985],[-59.962,36.76],[-60.025,37.387],[-60.402,37.89],[-60.82,38.329],[-61.595,38.748],[-62.369,38.978],[-63.331,39.292],[-64.796,39.606],[-66.073,39.94],[-68.772,40.756],[-71.681,41.552],[-73.229,41.719],[-75.176,41.74],[-77.038,41.447],[-79.612,40.924],[-80.574,40.589],[-81.391,40.129],[-82.332,39.564],[-83.755,39.124],[-85.136,38.789],[-86.978,38.664],[-88.003,38.685],[-88.882,38.852],[-89.635,39.166],[-90.807,39.606],[-92.565,40.484],[-93.13,40.788],[-93.852,41.039],[-94.919,41.227],[-95.746,41.248],[-96.583,41.102],[-97.964,40.62],[-99.219,39.93],[-100.391,39.177],[-101.898,37.544],[-102.4,36.665],[-103.007,35.358],[-103.3,34.311],[-103.363,33.328],[-103.342,32.533],[-103.07,31.528],[-102.63,30.44],[-102.044,29.352],[-101.385,28.609],[-100.642,28.159],[-99.617,27.678],[-98.571,27.427],[-97.713,27.364],[-96.949,27.369]]]}},{"type":"Feature","properties":{"density":1},"geometry":{"type":"Polygon","coordinates":[[[-119.589,38.326],[-119.732,38.357],[-119.949,38.37],[-120.16,38.345],[-120.309,38.277],[-120.495,38.162],[-120.616,37.92],[-120.96,37.39],[-121.127,37.232],[-121.53,37.031],[-121.769,36.758],[-121.871,36.544],[-121.964,36.246],[-121.964,35.976],[-121.89,35.697],[-121.787,35.456],[-121.741,35.167],[-121.778,34.823],[-121.778,34.544],[-121.601,34.33],[-121.397,34.237],[-121.239,34.228],[-121.071,34.284],[-120.895,34.451],[-120.746,34.721],[-120.476,34.981],[-119.853,35.465],[-118.979,35.995],[-118.867,36.144],[-118.83,36.386],[-118.849,36.609],[-118.932,36.953],[-118.951,37.251],[-118.83,37.52],[-118.7,37.734],[-118.579,37.985],[-118.535,38.165],[-118.551,38.274],[-118.607,38.339],[-118.774,38.404],[-119.217,38.345],[-119.589,38.326]]]}},{"type":"Feature","properties":{"density":1},"geometry":{"type":"Polygon","coordinates":[[[-101.29,23.248],[-101.18,23.243],[-101.033,23.265],[-101.003,23.295],[-100.992,23.353],[-101.011,23.4],[-101.226,23.507],[-101.411,23.562],[-101.491,23.568],[-101.598,23.543],[-101.634,23.491],[-101.631,23.424],[-101.618,23.386],[-101.568,23.336],[-101.477,23.289],[-101.29,23.248]]]}},{"type":"Feature","properties":{"density":1},"geometry":{"type":"Polygon","coordinates":[[[-92.968,19.861],[-92.801,20.001],[-92.485,20.168],[-92.141,20.215],[-91.852,20.15],[-91.582,19.926],[-91.443,19.629],[-91.396,19.22],[-91.406,18.773],[-91.759,17.973],[-92.048,17.583],[-92.382,17.211],[-92.792,16.848],[-93.461,16.588],[-93.917,16.476],[-94.345,16.429],[-94.838,16.495],[-95.433,16.653],[-95.926,16.857],[-96.289,17.155],[-96.595,17.471],[-96.967,17.927],[-97.163,18.373],[-97.358,18.894],[-97.442,19.434],[-97.432,19.926],[-97.321,20.233],[-97.033,20.522],[-96.735,20.68],[-96.335,20.717],[-95.963,20.67],[-95.544,20.531],[-94.94,20.112],[-94.624,19.945],[-94.261,19.824],[-93.945,19.778],[-93.35,19.75],[-93.089,19.787],[-92.968,19.861]]]}},{"type":"Feature","properties":{"density":1},"geometry":{"type":"Polygon","coordinates":[[[-73.51,19.505],[-73.795,19.294],[-73.888,19.17],[-73.944,19.003],[-73.957,18.835],[-73.833,18.463],[-73.709,18.283],[-73.541,18.135],[-73.293,17.955],[-73.027,17.831],[-72.766,17.731],[-72.481,17.651],[-72.196,17.632],[-71.91,17.645],[-71.681,17.676],[-71.421,17.756],[-71.278,17.874],[-71.21,17.998],[-71.204,18.141],[-71.297,18.314],[-71.414,18.463],[-71.576,18.6],[-71.836,18.779],[-72.084,19.003],[-72.245,19.189],[-72.425,19.344],[-72.698,19.523],[-72.996,19.623],[-73.343,19.585],[-73.51,19.505]]]}},{"type":"Feature","properties":{"density":1},"geometry":{"type":"Polygon","coordinates":[[[-118.538,51.936],[-118.362,51.704],[-118.222,51.388],[-118.12,50.681],[-118.222,50.151],[-118.464,49.788],[-118.864,49.49],[-119.32,49.267],[-119.562,49.035],[-119.701,48.821],[-119.748,48.588],[-119.775,48.207],[-119.961,47.779],[-120.213,47.5],[-120.687,47.389],[-121.143,47.398],[-121.561,47.482],[-122.101,47.872],[-122.463,48.337],[-122.631,48.858],[-122.659,49.36],[-122.612,49.946],[-122.398,50.56],[-122.156,51.099],[-121.803,51.583],[-121.301,52.039],[-120.798,52.29],[-120.296,52.448],[-119.803,52.476],[-119.506,52.467],[-119.19,52.383],[-118.817,52.188],[-118.538,51.936]]]}},{"type":"Feature","properties":{"density":1},"geometry":{"type":"Polygon","coordinates":[[[-73.625,29.316],[-71.585,30.007],[-69.571,30.733],[-67.787,31.262],[-61.98,32.612],[-58.349,33.281],[-55.461,34.056],[-53.657,34.688],[-52.339,35.536],[-51.679,36.258],[-51.454,37.055],[-51.522,37.953],[-51.899,38.957],[-52.652,39.773],[-53.515,40.292],[-57.554,41.171],[-59.625,41.464],[-62.178,42.029],[-64.48,42.635],[-66.95,43.242],[-69.482,43.619],[-72.558,43.64],[-76.844,43.615],[-80.423,43.49],[-83.844,43.176],[-87.077,42.548],[-89.933,42.015],[-93.688,40.889],[-95.038,40.324],[-96.419,39.476],[-97.204,38.786],[-98.146,37.656],[-98.772,36.376],[-99.183,34.431],[-99.35,32.861],[-99.141,31.376],[-98.827,30.434],[-98.408,29.095],[-97.529,27.902],[-96.609,27.232],[-95.186,26.542],[-93.365,26.102],[-91.335,25.767],[-89.054,25.537],[-86.606,25.495],[-84.491,25.602],[-82.639,25.791],[-80.182,26.531],[-77.617,27.705],[-73.625,29.316]]]}},{"type":"Feature","properties":{"density":2},"geometry":{"type":"Polygon","coordinates":[[[-119.56,37.657],[-119.7,37.736],[-119.762,37.745],[-119.793,37.734],[-119.858,37.622],[-119.845,37.437],[-119.858,37.269],[-119.924,37.133],[-119.946,37.027],[-119.931,36.974],[-119.883,36.918],[-119.838,36.898],[-119.779,36.898],[-119.733,36.935],[-119.731,36.99],[-119.667,37.211],[-119.643,37.266],[-119.551,37.363],[-119.536,37.574],[-119.545,37.648],[-119.56,37.657]]]}},{"type":"Feature","properties":{"density":2},"geometry":{"type":"Polygon","coordinates":[[[-97.631,39.614],[-97.757,38.798],[-97.788,38.202],[-98.165,37.543],[-98.855,36.538],[-99.2,35.722],[-99.357,35.283],[-99.42,34.561],[-99.389,34.09],[-98.887,33.619],[-98.29,33.525],[-97.882,33.651],[-96.94,34.372],[-95.779,35.502],[-95.245,35.942],[-94.586,36.444],[-94.021,36.727],[-93.645,36.884],[-92.64,36.946],[-91.981,36.852],[-91.73,36.601],[-91.51,36.162],[-91.667,35.659],[-91.761,35.22],[-91.761,34.843],[-91.479,33.807],[-91.102,33.054],[-90.255,32.677],[-89.376,32.238],[-88.183,31.956],[-87.367,31.861],[-85.986,31.83],[-84.824,31.704],[-83.82,31.516],[-82.502,31.234],[-81.56,31.077],[-80.367,30.951],[-79.3,30.951],[-78.107,31.014],[-76.506,31.359],[-75.094,31.924],[-73.524,32.332],[-72.049,32.552],[-70.542,32.677],[-69.789,32.866],[-68.91,33.211],[-68.408,33.682],[-68.157,34.529],[-68.125,35.251],[-68.91,36.005],[-69.318,36.287],[-70.605,36.381],[-71.861,36.319],[-72.928,36.193],[-74.34,35.911],[-75.0,35.597],[-75.784,35.283],[-76.977,34.655],[-78.86,34.278],[-79.488,34.31],[-80.242,34.31],[-82.282,35.0],[-82.658,35.314],[-83.035,35.879],[-83.349,36.476],[-83.569,37.072],[-83.632,37.668],[-83.883,38.233],[-84.165,38.673],[-84.573,38.955],[-85.138,39.426],[-85.766,39.583],[-86.519,39.677],[-87.241,39.709],[-88.403,39.395],[-89.25,39.144],[-90.129,38.987],[-91.102,39.081],[-92.766,39.363],[-94.147,39.489],[-94.932,39.614],[-95.497,39.991],[-95.81,40.179],[-96.407,40.274],[-96.721,40.368],[-97.192,40.274],[-97.631,39.614]]]}},{"type":"Feature","properties":{"density":2},"geometry":{"type":"Polygon","coordinates":[[[-87.06,31.77],[-87.088,31.754],[-87.079,31.686],[-86.998,31.581],[-86.926,31.542],[-86.823,31.57],[-86.798,31.629],[-86.814,31.656],[-87.06,31.77]]]}},{"type":"Feature","properties":{"density":2},"geometry":{"type":"Polygon","coordinates":[[[-90.374,32.433],[-90.394,32.435],[-90.408,32.411],[-90.383,32.377],[-90.344,32.343],[-90.285,32.335],[-90.279,32.349],[-90.306,32.399],[-90.374,32.433]]]}},{"type":"Feature","properties":{"density":2},"geometry":{"type":"Polygon","coordinates":[[[-86.747,37.037],[-86.76,37.012],[-86.732,36.969],[-86.519,36.948],[-86.24,36.854],[-86.155,36.852],[-86.1,36.903],[-86.095,36.944],[-86.155,37.023],[-86.33,37.096],[-86.543,37.1],[-86.747,37.037]]]}},{"type":"Feature","properties":{"density":2},"geometry":{"type":"Polygon","coordinates":[[[-93.527,35.36],[-93.528,35.317],[-93.477,35.258],[-93.415,35.255],[-93.283,35.296],[-93.259,35.324],[-93.278,35.377],[-93.385,35.416],[-93.479,35.411],[-93.527,35.36]]]}},{"type":"Feature","properties":{"density":2},"geometry":{"type":"Polygon","coordinates":[[[-91.126,35.635],[-91.146,35.585],[-91.139,35.563],[-91.098,35.536],[-91.043,35.548],[-90.925,35.626],[-90.883,35.679],[-90.87,35.747],[-90.909,35.795],[-90.949,35.802],[-91.004,35.785],[-91.074,35.721],[-91.126,35.635]]]}},{"type":"Feature","properties":{"density":2},"geometry":{"type":"Polygon","coordinates":[[[-91.421,34.479],[-91.393,34.436],[-91.355,34.425],[-91.265,34.423],[-91.178,34.444],[-91.11,34.489],[-91.06,34.569],[-91.071,34.663],[-91.117,34.696],[-91.284,34.716],[-91.323,34.692],[-91.345,34.605],[-91.419,34.505],[-91.421,34.479]]]}},{"type":"Feature","properties":{"density":2},"geometry":{"type":"Polygon","coordinates":[[[-90.952,34.489],[-90.965,34.448],[-90.954,34.424],[-90.886,34.374],[-90.821,34.358],[-90.741,34.372],[-90.67,34.43],[-90.657,34.469],[-90.738,34.571],[-90.784,34.594],[-90.848,34.579],[-90.952,34.489]]]}},{"type":"Feature","properties":{"density":2},"geometry":{"type":"Polygon","coordinates":[[[-91.354,33.746],[-91.364,33.697],[-91.35,33.668],[-91.304,33.643],[-91.259,33.64],[-91.141,33.692],[-91.118,33.727],[-91.113,33.8],[-91.16,33.864],[-91.239,33.88],[-91.354,33.746]]]}},{"type":"Feature","properties":{"density":2},"geometry":{"type":"Polygon","coordinates":[[[-93.655,32.994],[-93.732,32.902],[-93.742,32.877],[-93.731,32.855],[-93.523,32.835],[-93.44,32.86],[-93.434,32.88],[-93.449,32.902],[-93.535,32.978],[-93.608,33.0],[-93.655,32.994]]]}},{"type":"Feature","properties":{"density":2},"geometry":{"type":"Polygon","coordinates":[[[-98.312,26.491],[-98.363,26.498],[-98.381,26.476],[-98.375,26.434],[-98.315,26.37],[-98.272,26.351],[-98.234,26.359],[-98.248,26.427],[-98.312,26.491]]]}},{"type":"Feature","properties":{"density":2},"geometry":{"type":"Polygon","coordinates":[[[-120.766,36.27],[-120.791,36.228],[-120.977,36.088],[-120.993,36.03],[-120.964,35.985],[-120.881,35.956],[-120.796,35.957],[-120.716,35.976],[-120.526,36.059],[-120.319,36.166],[-120.067,36.348],[-119.908,36.51],[-119.815,36.628],[-119.747,36.76],[-119.697,37.016],[-119.64,37.212],[-119.55,37.424],[-119.506,37.585],[-119.493,37.657],[-119.51,37.703],[-119.6,37.774],[-119.671,37.8],[-119.803,37.795],[-119.836,37.762],[-119.894,37.638],[-119.993,37.225],[-120.154,36.902],[-120.232,36.792],[-120.333,36.69],[-120.507,36.569],[-120.625,36.456],[-120.766,36.27]]]}},{"type":"Feature","properties":{"density":2},"geometry":{"type":"Polygon","coordinates":[[[-121.371,49.306],[-121.441,49.31],[-121.466,49.29],[-121.469,49.251],[-121.45,49.199],[-121.295,49.053],[-121.266,48.988],[-121.277,48.946],[-121.395,48.777],[-121.433,48.735],[-121.549,48.667],[-121.585,48.62],[-121.61,48.564],[-121.593,48.507],[-121.532,48.463],[-121.487,48.458],[-121.329,48.502],[-121.009,48.661],[-120.945,48.719],[-120.904,48.914],[-120.871,48.948],[-120.543,49.067],[-120.452,49.135],[-120.403,49.213],[-120.342,49.385],[-120.24,49.585],[-120.182,49.654],[-120.004,49.804],[-119.984,49.845],[-119.995,49.883],[-120.033,49.904],[-120.119,49.913],[-120.232,49.899],[-120.32,49.866],[-120.436,49.783],[-120.496,49.695],[-120.562,49.532],[-120.761,49.238],[-120.836,49.187],[-120.904,49.17],[-121.039,49.24],[-121.152,49.229],[-121.231,49.24],[-121.334,49.277],[-121.371,49.306]]]}},{"type":"Feature","properties":{"density":2},"geometry":{"type":"Polygon","coordinates":[[[-120.856,48.447],[-120.937,48.383],[-120.945,48.336],[-120.912,48.281],[-120.711,48.19],[-120.463,47.997],[-120.43,47.948],[-120.411,47.882],[-120.452,47.811],[-120.443,47.756],[-120.362,47.668],[-120.349,47.633],[-120.386,47.499],[-120.353,47.403],[-120.215,47.328],[-120.155,47.324],[-120.111,47.348],[-120.092,47.394],[-120.155,47.548],[-120.141,47.642],[-120.086,47.727],[-119.925,47.796],[-119.89,47.873],[-119.897,47.912],[-120.105,48.047],[-120.422,48.201],[-120.709,48.426],[-120.761,48.448],[-120.856,48.447]]]}},{"type":"Feature","properties":{"density":2},"geometry":{"type":"Polygon","coordinates":[[[-121.611,49.909],[-121.624,49.883],[-121.617,49.855],[-121.573,49.817],[-121.473,49.791],[-121.427,49.798],[-121.402,49.82],[-121.407,49.887],[-121.525,50.12],[-121.552,50.3],[-121.587,50.357],[-121.633,50.373],[-121.675,50.344],[-121.701,50.256],[-121.696,50.199],[-121.611,49.958],[-121.611,49.909]]]}},{"type":"Feature","properties":{"density":2},"geometry":{"type":"Polygon","coordinates":[[[-72.288,18.039],[-71.875,17.928],[-71.751,17.92],[-71.635,17.932],[-71.532,17.973],[-71.478,18.027],[-71.453,18.11],[-71.503,18.184],[-71.623,18.246],[-72.102,18.349],[-72.495,18.461],[-72.751,18.631],[-72.859,18.672],[-72.974,18.684],[-73.032,18.622],[-73.04,18.49],[-73.003,18.411],[-72.838,18.254],[-72.598,18.122],[-72.288,18.039]]]}},{"type":"Feature","properties":{"density":2},"geometry":{"type":"Polygon","coordinates":[[[-93.587,37.936],[-93.082,38.145],[-92.566,38.173],[-91.934,37.957],[-91.659,37.727],[-91.352,37.336],[-91.339,36.82],[-91.45,36.192],[-91.59,35.76],[-92.008,34.853],[-92.203,34.128],[-92.134,33.472],[-92.022,33.067],[-91.659,32.426],[-91.199,32.021],[-90.376,31.477],[-89.929,31.296],[-88.255,30.933],[-87.581,30.821],[-87.037,30.759],[-85.949,30.57],[-85.028,30.466],[-83.94,30.298],[-82.643,30.256],[-81.657,30.305],[-80.945,30.319],[-79.759,30.403],[-78.839,30.528],[-78.099,30.696],[-77.369,30.926],[-76.637,31.219],[-76.03,31.512],[-75.435,31.672],[-71.824,32.119],[-70.945,32.181],[-69.71,32.307],[-68.538,32.454],[-67.45,32.663],[-66.55,32.935],[-65.965,33.332],[-65.546,33.709],[-65.274,34.421],[-65.086,34.965],[-65.107,35.718],[-65.572,36.478],[-66.199,36.939],[-67.134,37.19],[-67.901,37.343],[-68.836,37.343],[-69.868,37.246],[-70.984,37.036],[-72.282,36.911],[-73.203,36.799],[-74.068,36.729],[-75.088,36.722],[-75.842,36.89],[-77.348,37.664],[-78.143,38.104],[-79.043,38.689],[-80.424,39.275],[-81.596,39.547],[-82.977,39.673],[-84.233,39.673],[-85.656,39.547],[-87.602,39.506],[-89.381,39.778],[-90.908,40.322],[-92.038,40.657],[-93.44,40.929],[-94.863,40.97],[-95.575,40.908],[-96.663,40.74],[-97.772,40.28],[-98.4,39.882],[-99.195,39.317],[-100.011,38.313],[-100.451,37.476],[-100.639,36.827],[-100.702,36.178],[-100.618,35.697],[-100.325,35.237],[-99.948,34.797],[-99.404,34.504],[-98.546,34.274],[-97.647,34.128],[-96.789,34.232],[-95.993,34.525],[-95.387,34.839],[-94.78,35.299],[-94.445,35.76],[-94.298,36.325],[-94.131,37.141],[-94.026,37.497],[-93.587,37.936]]]}},{"type":"Feature","properties":{"density":2},"geometry":{"type":"Polygon","coordinates":[[[-92.952,33.968],[-92.957,33.933],[-92.917,33.917],[-92.816,33.965],[-92.757,34.025],[-92.723,34.1],[-92.718,34.159],[-92.737,34.219],[-92.759,34.239],[-92.829,34.242],[-92.86,34.22],[-92.952,33.968]]]}},{"type":"Feature","properties":{"density":2},"geometry":{"type":"Polygon","coordinates":[[[-93.437,35.409],[-93.46,35.314],[-93.351,35.278],[-93.271,35.278],[-93.174,35.299],[-93.141,35.327],[-93.125,35.441],[-93.18,35.517],[-93.313,35.527],[-93.37,35.508],[-93.437,35.409]]]}},{"type":"Feature","properties":{"density":2},"geometry":{"type":"Polygon","coordinates":[[[-91.728,33.028],[-91.694,32.976],[-91.666,32.964],[-91.633,32.975],[-91.602,33.015],[-91.56,33.099],[-91.557,33.139],[-91.563,33.175],[-91.598,33.216],[-91.677,33.227],[-91.72,33.191],[-91.743,33.112],[-91.728,33.028]]]}},{"type":"Feature","properties":{"density":2},"geometry":{"type":"Polygon","coordinates":[[[-91.475,33.397],[-91.434,33.353],[-91.366,33.358],[-91.339,33.379],[-91.302,33.453],[-91.309,33.541],[-91.334,33.597],[-91.416,33.657],[-91.453,33.661],[-91.491,33.644],[-91.513,33.602],[-91.514,33.518],[-91.475,33.397]]]}},{"type":"Feature","properties":{"density":2},"geometry":{"type":"Polygon","coordinates":[[[-91.375,33.754],[-91.334,33.673],[-91.259,33.65],[-91.156,33.731],[-91.088,33.868],[-91.041,34.012],[-91.042,34.07],[-91.068,34.134],[-91.112,34.181],[-91.155,34.202],[-91.22,34.194],[-91.306,34.115],[-91.382,33.951],[-91.375,33.754]]]}},{"type":"Feature","properties":{"density":2},"geometry":{"type":"Polygon","coordinates":[[[-91.827,34.086],[-91.82,34.067],[-91.785,34.053],[-91.722,34.066],[-91.624,34.165],[-91.585,34.238],[-91.575,34.294],[-91.579,34.338],[-91.6,34.369],[-91.666,34.387],[-91.749,34.342],[-91.819,34.234],[-91.835,34.164],[-91.827,34.086]]]}},{"type":"Feature","properties":{"density":2},"geometry":{"type":"Polygon","coordinates":[[[-91.402,34.481],[-91.382,34.445],[-91.349,34.434],[-91.235,34.436],[-91.187,34.447],[-91.118,34.502],[-91.073,34.589],[-91.072,34.63],[-91.089,34.723],[-91.134,34.797],[-91.187,34.827],[-91.254,34.811],[-91.402,34.481]]]}},{"type":"Feature","properties":{"density":2},"geometry":{"type":"Polygon","coordinates":[[[-90.949,34.463],[-90.961,34.43],[-90.94,34.41],[-90.853,34.398],[-90.791,34.399],[-90.712,34.427],[-90.696,34.462],[-90.717,34.514],[-90.788,34.541],[-90.896,34.51],[-90.949,34.463]]]}},{"type":"Feature","properties":{"density":2},"geometry":{"type":"Polygon","coordinates":[[[-91.022,35.485],[-91.031,35.456],[-91.018,35.426],[-90.985,35.41],[-90.875,35.432],[-90.638,35.445],[-90.491,35.487],[-90.437,35.522],[-90.369,35.647],[-90.36,35.735],[-90.393,35.825],[-90.469,35.898],[-90.546,35.933],[-90.605,35.942],[-90.678,35.909],[-90.709,35.878],[-90.755,35.775],[-90.88,35.654],[-91.022,35.485]]]}},{"type":"Feature","properties":{"density":2},"geometry":{"type":"Polygon","coordinates":[[[-91.13,35.614],[-91.143,35.568],[-91.112,35.547],[-91.079,35.557],[-90.882,35.72],[-90.856,35.773],[-90.9,35.806],[-90.989,35.784],[-91.13,35.614]]]}},{"type":"Feature","properties":{"density":2},"geometry":{"type":"Polygon","coordinates":[[[-91.174,35.834],[-91.159,35.768],[-91.125,35.766],[-91.051,35.797],[-90.86,35.972],[-90.843,36.029],[-90.854,36.06],[-90.895,36.075],[-90.957,36.064],[-91.007,36.034],[-91.099,35.953],[-91.174,35.834]]]}},{"type":"Feature","properties":{"density":2},"geometry":{"type":"Polygon","coordinates":[[[-90.897,35.869],[-90.902,35.836],[-90.878,35.803],[-90.858,35.808],[-90.733,35.911],[-90.735,35.964],[-90.785,35.99],[-90.843,35.959],[-90.897,35.869]]]}},{"type":"Feature","properties":{"density":2},"geometry":{"type":"Polygon","coordinates":[[[-89.968,36.077],[-89.979,36.036],[-89.952,36.014],[-89.818,36.014],[-89.759,36.047],[-89.78,36.089],[-89.818,36.101],[-89.968,36.077]]]}},{"type":"Feature","properties":{"density":2},"geometry":{"type":"Polygon","coordinates":[[[-89.775,36.341],[-89.781,36.288],[-89.756,36.267],[-89.602,36.263],[-89.398,36.3],[-89.356,36.327],[-89.329,36.373],[-89.333,36.408],[-89.364,36.436],[-89.481,36.465],[-89.663,36.414],[-89.775,36.341]]]}},{"type":"Feature","properties":{"density":2},"geometry":{"type":"Polygon","coordinates":[[[-89.201,36.909],[-89.21,36.878],[-89.199,36.856],[-89.162,36.845],[-89.058,36.86],[-88.874,36.823],[-88.813,36.828],[-88.78,36.896],[-88.845,36.961],[-88.896,36.975],[-89.05,36.968],[-89.201,36.909]]]}},{"type":"Feature","properties":{"density":2},"geometry":{"type":"Polygon","coordinates":[[[-89.809,37.17],[-89.838,37.144],[-89.822,37.098],[-89.758,37.089],[-89.563,37.143],[-89.383,37.166],[-89.341,37.205],[-89.352,37.249],[-89.379,37.264],[-89.539,37.278],[-89.653,37.253],[-89.809,37.17]]]}},{"type":"Feature","properties":{"density":2},"geometry":{"type":"Polygon","coordinates":[[[-89.743,36.996],[-89.767,36.974],[-89.767,36.948],[-89.748,36.931],[-89.666,36.922],[-89.311,36.933],[-89.218,36.951],[-89.015,37.06],[-88.962,37.128],[-88.959,37.17],[-89.015,37.238],[-89.105,37.247],[-89.181,37.223],[-89.326,37.135],[-89.743,36.996]]]}},{"type":"Feature","properties":{"density":2},"geometry":{"type":"Polygon","coordinates":[[[-86.747,37.045],[-86.76,37.02],[-86.755,36.967],[-86.719,36.934],[-86.634,36.921],[-86.43,36.926],[-85.978,36.816],[-85.89,36.838],[-85.854,36.876],[-85.837,36.945],[-85.868,36.992],[-86.014,37.083],[-86.242,37.144],[-86.413,37.158],[-86.51,37.147],[-86.697,37.086],[-86.747,37.045]]]}},{"type":"Feature","properties":{"density":2},"geometry":{"type":"Polygon","coordinates":[[[-71.667,17.924],[-71.481,18.003],[-71.436,18.044],[-71.407,18.11],[-71.415,18.212],[-71.539,18.336],[-71.756,18.417],[-71.96,18.516],[-72.246,18.671],[-72.562,18.888],[-72.797,19.006],[-72.934,19.031],[-73.083,19.012],[-73.2,18.975],[-73.281,18.919],[-73.343,18.82],[-73.374,18.646],[-73.329,18.338],[-73.255,18.21],[-72.969,18.024],[-72.754,17.953],[-72.358,17.908],[-71.957,17.891],[-71.667,17.924]]]}},{"type":"Feature","properties":{"density":2},"geometry":{"type":"Polygon","coordinates":[[[-119.852,38.06],[-119.931,38.014],[-120.013,37.936],[-120.067,37.828],[-120.1,37.725],[-120.108,37.588],[-120.092,37.423],[-120.1,37.084],[-120.129,36.964],[-120.336,36.601],[-120.34,36.464],[-120.265,36.348],[-120.187,36.315],[-120.071,36.332],[-119.943,36.398],[-119.703,36.679],[-119.459,37.171],[-119.36,37.34],[-119.203,37.551],[-119.174,37.663],[-119.195,37.783],[-119.277,37.898],[-119.356,37.965],[-119.455,38.014],[-119.583,38.051],[-119.745,38.068],[-119.852,38.06]]]}},{"type":"Feature","properties":{"density":2},"geometry":{"type":"Polygon","coordinates":[[[-120.919,48.492],[-120.999,48.451],[-121.065,48.377],[-121.071,48.338],[-121.027,48.291],[-120.85,48.247],[-120.768,48.211],[-120.376,47.908],[-120.211,47.861],[-120.106,47.85],[-120.051,47.878],[-120.032,47.914],[-120.043,47.963],[-120.073,48.002],[-120.407,48.214],[-120.481,48.269],[-120.55,48.352],[-120.671,48.44],[-120.735,48.476],[-120.834,48.495],[-120.919,48.492]]]}},{"type":"Feature","properties":{"density":2},"geometry":{"type":"Polygon","coordinates":[[[-121.501,50.134],[-121.555,50.151],[-121.658,50.105],[-121.687,50.023],[-121.683,49.915],[-121.65,49.849],[-121.58,49.783],[-121.526,49.779],[-121.46,49.812],[-121.423,49.878],[-121.427,50.039],[-121.501,50.134]]]}},{"type":"Feature","properties":{"density":2},"geometry":{"type":"Polygon","coordinates":[[[-121.427,49.452],[-121.485,49.415],[-121.505,49.299],[-121.493,49.217],[-121.427,49.101],[-121.41,49.031],[-121.415,48.898],[-121.452,48.807],[-121.514,48.717],[-121.617,48.655],[-121.828,48.44],[-121.857,48.349],[-121.861,48.229],[-121.82,48.101],[-121.704,48.026],[-121.567,48.022],[-121.427,48.109],[-121.357,48.216],[-121.092,48.502],[-120.91,48.605],[-120.774,48.717],[-120.588,48.973],[-120.476,49.064],[-120.17,49.217],[-120.104,49.287],[-120.067,49.407],[-120.133,49.576],[-120.212,49.626],[-120.303,49.647],[-120.439,49.609],[-120.737,49.452],[-120.84,49.428],[-120.976,49.415],[-121.241,49.456],[-121.427,49.452]]]}},{"type":"Feature","properties":{"density":2},"geometry":{"type":"Polygon","coordinates":[[[-75.234,31.814],[-73.857,32.009],[-72.602,32.02],[-71.358,32.109],[-69.956,32.298],[-68.909,32.549],[-67.633,32.821],[-66.398,33.156],[-65.603,33.491],[-64.578,33.888],[-63.593,34.343],[-62.883,34.746],[-62.422,35.311],[-62.4,35.975],[-62.714,36.697],[-63.28,37.215],[-64.252,37.544],[-66.355,37.795],[-67.171,37.827],[-68.239,37.827],[-69.431,37.795],[-70.479,37.655],[-71.923,37.571],[-73.053,37.529],[-75.355,37.592],[-77.322,37.676],[-78.828,37.822],[-79.696,37.911],[-80.721,38.141],[-81.976,38.266],[-84.739,38.371],[-86.517,38.162],[-87.857,37.743],[-89.321,37.115],[-90.996,36.006],[-91.456,35.525],[-91.812,34.918],[-92.042,34.353],[-92.209,33.725],[-92.251,33.16],[-92.084,32.533],[-91.77,32.03],[-91.435,31.675],[-90.849,31.277],[-90.284,31.026],[-89.677,30.879],[-88.233,30.628],[-86.622,30.524],[-85.346,30.231],[-83.86,29.666],[-82.834,29.54],[-81.704,29.54],[-80.679,29.708],[-79.842,29.938],[-78.168,30.796],[-76.285,31.507],[-75.234,31.814]]]}},{"type":"Feature","properties":{"density":2},"geometry":{"type":"Polygon","coordinates":[[[-120.746,37.167],[-120.87,37.136],[-120.957,37.086],[-121.093,36.956],[-121.298,36.665],[-121.366,36.51],[-121.341,36.305],[-121.273,36.181],[-121.167,36.138],[-120.994,36.262],[-120.845,36.671],[-120.727,36.789],[-120.622,36.857],[-120.516,36.894],[-120.374,36.894],[-120.2,36.776],[-120.064,36.782],[-119.946,36.851],[-119.748,37.062],[-119.679,37.192],[-119.686,37.378],[-119.611,37.483],[-119.444,37.589],[-119.252,37.756],[-118.917,37.886],[-118.799,37.967],[-118.749,38.085],[-118.755,38.134],[-118.817,38.184],[-118.923,38.178],[-119.059,38.122],[-119.183,38.109],[-119.295,38.134],[-119.394,38.202],[-119.518,38.24],[-120.002,38.24],[-120.144,38.196],[-120.231,38.134],[-120.293,38.06],[-120.312,37.961],[-120.256,37.799],[-120.144,37.663],[-120.02,37.434],[-120.033,37.322],[-120.07,37.272],[-120.287,37.223],[-120.591,37.229],[-120.746,37.167]]]}},{"type":"Feature","properties":{"density":2},"geometry":{"type":"Polygon","coordinates":[[[-119.295,36.541],[-119.338,36.51],[-119.363,36.466],[-119.351,36.324],[-119.295,36.212],[-119.152,36.125],[-119.072,36.119],[-118.992,36.162],[-118.985,36.206],[-119.016,36.448],[-119.078,36.534],[-119.171,36.572],[-119.255,36.566],[-119.295,36.541]]]}},{"type":"Feature","properties":{"density":2},"geometry":{"type":"Polygon","coordinates":[[[-120.941,48.547],[-120.991,48.525],[-121.042,48.46],[-121.057,48.407],[-121.053,48.341],[-121.015,48.292],[-120.928,48.226],[-120.804,48.193],[-120.722,48.151],[-120.499,47.986],[-120.412,47.974],[-120.339,47.983],[-120.302,48.005],[-120.28,48.053],[-120.296,48.106],[-120.424,48.222],[-120.548,48.37],[-120.59,48.445],[-120.598,48.561],[-120.652,48.618],[-120.714,48.635],[-120.771,48.627],[-120.873,48.567],[-120.941,48.547]]]}},{"type":"Feature","properties":{"density":2},"geometry":{"type":"Polygon","coordinates":[[[-121.285,49.307],[-121.329,49.208],[-121.31,49.092],[-121.326,49.051],[-121.381,49.001],[-121.373,48.922],[-121.343,48.861],[-121.249,48.773],[-121.15,48.712],[-121.064,48.685],[-120.938,48.729],[-120.819,48.982],[-120.717,49.079],[-120.624,49.128],[-120.353,49.219],[-120.282,49.225],[-120.075,49.164],[-119.99,49.156],[-119.94,49.192],[-119.921,49.258],[-119.932,49.357],[-120.02,49.456],[-120.263,49.558],[-120.422,49.577],[-120.511,49.572],[-120.778,49.5],[-120.982,49.522],[-121.122,49.492],[-121.233,49.393],[-121.285,49.307]]]}},{"type":"Feature","properties":{"density":2},"geometry":{"type":"Polygon","coordinates":[[[-121.62,50.017],[-121.591,49.812],[-121.529,49.797],[-121.486,49.814],[-121.429,49.915],[-121.427,50.028],[-121.455,50.094],[-121.529,50.161],[-121.58,50.174],[-121.615,50.16],[-121.655,50.124],[-121.62,50.017]]]}},{"type":"Feature","properties":{"density":2},"geometry":{"type":"Polygon","coordinates":[[[-89.077,37.199],[-89.316,37.124],[-89.383,37.086],[-89.443,37.031],[-89.463,36.989],[-89.449,36.956],[-89.352,36.926],[-89.259,36.937],[-88.741,37.091],[-88.57,37.127],[-88.333,37.141],[-88.244,37.13],[-88.049,37.061],[-87.947,37.055],[-87.886,37.075],[-87.856,37.135],[-87.87,37.188],[-87.952,37.251],[-88.283,37.334],[-88.47,37.359],[-88.729,37.312],[-89.077,37.199]]]}},{"type":"Feature","properties":{"density":2},"geometry":{"type":"Polygon","coordinates":[[[-89.993,37.084],[-90.018,37.018],[-90.007,36.968],[-89.963,36.927],[-89.903,36.924],[-89.685,37.034],[-89.5,37.078],[-89.448,37.109],[-89.423,37.167],[-89.473,37.219],[-89.599,37.23],[-89.732,37.216],[-89.88,37.18],[-89.971,37.125],[-89.993,37.084]]]}},{"type":"Feature","properties":{"density":2},"geometry":{"type":"Polygon","coordinates":[[[-89.506,36.85],[-89.55,36.778],[-89.533,36.756],[-89.489,36.748],[-89.313,36.781],[-89.169,36.789],[-89.037,36.767],[-88.85,36.761],[-88.791,36.775],[-88.709,36.841],[-88.676,36.885],[-88.676,36.935],[-88.698,36.963],[-88.77,36.996],[-88.941,37.009],[-89.059,36.998],[-89.171,36.981],[-89.405,36.913],[-89.506,36.85]]]}},{"type":"Feature","properties":{"density":2},"geometry":{"type":"Polygon","coordinates":[[[-90.229,36.773],[-90.245,36.716],[-90.117,36.716],[-90.014,36.784],[-90.005,36.848],[-90.054,36.864],[-90.133,36.841],[-90.229,36.773]]]}},{"type":"Feature","properties":{"density":2},"geometry":{"type":"Polygon","coordinates":[[[-89.93,36.303],[-89.932,36.228],[-89.905,36.19],[-89.837,36.174],[-89.726,36.212],[-89.605,36.278],[-89.439,36.314],[-89.299,36.319],[-89.246,36.341],[-89.199,36.385],[-89.191,36.438],[-89.219,36.487],[-89.332,36.529],[-89.527,36.529],[-89.709,36.479],[-89.842,36.416],[-89.883,36.385],[-89.93,36.303]]]}},{"type":"Feature","properties":{"density":2},"geometry":{"type":"Polygon","coordinates":[[[-91.051,35.614],[-91.134,35.457],[-91.126,35.424],[-91.059,35.383],[-90.902,35.405],[-90.486,35.584],[-90.296,35.645],[-89.974,35.697],[-89.745,35.755],[-89.657,35.796],[-89.571,35.862],[-89.535,35.926],[-89.53,35.986],[-89.558,36.05],[-89.654,36.113],[-89.839,36.168],[-90.098,36.196],[-90.362,36.196],[-90.494,36.179],[-90.69,36.105],[-90.756,36.047],[-90.889,35.876],[-90.933,35.785],[-91.051,35.614]]]}},{"type":"Feature","properties":{"density":2},"geometry":{"type":"Polygon","coordinates":[[[-91.149,35.154],[-91.163,35.11],[-91.141,35.075],[-91.059,35.097],[-90.862,35.27],[-90.836,35.306],[-90.828,35.389],[-90.883,35.411],[-90.981,35.38],[-91.061,35.292],[-91.149,35.154]]]}},{"type":"Feature","properties":{"density":2},"geometry":{"type":"Polygon","coordinates":[[[-92.025,34.66],[-92.047,34.533],[-92.022,34.472],[-91.953,34.453],[-91.89,34.467],[-91.675,34.632],[-91.576,34.671],[-91.394,34.701],[-91.298,34.742],[-91.237,34.809],[-91.226,34.891],[-91.259,34.955],[-91.386,35.057],[-91.482,35.068],[-91.559,35.054],[-91.741,34.979],[-91.893,34.891],[-91.956,34.817],[-92.025,34.66]]]}},{"type":"Feature","properties":{"density":2},"geometry":{"type":"Polygon","coordinates":[[[-92.993,34.017],[-92.971,33.951],[-92.911,33.915],[-92.869,33.915],[-92.682,34.174],[-92.596,34.361],[-92.574,34.485],[-92.569,34.573],[-92.599,34.634],[-92.646,34.664],[-92.704,34.681],[-92.836,34.634],[-92.911,34.568],[-93.002,34.419],[-93.029,34.292],[-93.021,34.144],[-92.993,34.017]]]}},{"type":"Feature","properties":{"density":2},"geometry":{"type":"Polygon","coordinates":[[[-93.467,33.074],[-93.426,33.038],[-93.376,33.027],[-93.329,33.055],[-93.288,33.129],[-93.225,33.405],[-93.205,33.565],[-93.214,33.738],[-93.274,33.86],[-93.327,33.893],[-93.407,33.89],[-93.495,33.857],[-93.583,33.794],[-93.646,33.694],[-93.666,33.609],[-93.666,33.54],[-93.547,33.259],[-93.506,33.118],[-93.467,33.074]]]}},{"type":"Feature","properties":{"density":2},"geometry":{"type":"Polygon","coordinates":[[[-93.696,33.052],[-93.66,33.033],[-93.6,33.041],[-93.575,33.08],[-93.569,33.149],[-93.586,33.311],[-93.633,33.433],[-93.66,33.46],[-93.729,33.471],[-93.781,33.441],[-93.814,33.303],[-93.743,33.113],[-93.696,33.052]]]}},{"type":"Feature","properties":{"density":2},"geometry":{"type":"Polygon","coordinates":[[[-91.731,32.999],[-91.698,32.971],[-91.651,32.971],[-91.624,32.999],[-91.491,33.379],[-91.491,33.467],[-91.511,33.547],[-91.552,33.597],[-91.687,33.655],[-91.827,33.636],[-91.88,33.605],[-91.91,33.509],[-91.838,33.225],[-91.731,32.999]]]}},{"type":"Feature","properties":{"density":2},"geometry":{"type":"Polygon","coordinates":[[[-91.566,33.845],[-91.582,33.732],[-91.505,33.531],[-91.428,33.462],[-91.364,33.456],[-91.318,33.476],[-91.276,33.506],[-91.224,33.589],[-91.092,33.906],[-91.004,34.06],[-90.907,34.181],[-90.791,34.272],[-90.758,34.333],[-90.775,34.391],[-90.819,34.437],[-90.921,34.454],[-91.037,34.432],[-91.13,34.391],[-91.285,34.256],[-91.475,33.93],[-91.566,33.845]]]}},{"type":"Feature","properties":{"density":2},"geometry":{"type":"Polygon","coordinates":[[[-92.1,32.925],[-92.053,32.85],[-92.015,32.817],[-91.979,32.809],[-91.936,32.826],[-91.894,32.905],[-91.905,33.142],[-91.874,33.343],[-91.885,33.396],[-91.935,33.434],[-92.053,33.445],[-92.139,33.41],[-92.208,33.346],[-92.224,33.299],[-92.233,33.247],[-92.197,33.112],[-92.1,32.925]]]}},{"type":"Feature","properties":{"density":2},"geometry":{"type":"Polygon","coordinates":[[[-92.247,30.99],[-92.285,30.991],[-92.307,30.975],[-92.3,30.936],[-92.225,30.89],[-92.182,30.89],[-92.168,30.925],[-92.191,30.958],[-92.247,30.99]]]}},{"type":"Feature","properties":{"density":2},"geometry":{"type":"Polygon","coordinates":[[[-91.791,30.713],[-91.686,30.637],[-91.643,30.634],[-91.603,30.672],[-91.63,30.79],[-91.721,30.887],[-91.884,30.953],[-91.975,30.964],[-92.019,30.95],[-92.041,30.901],[-91.991,30.821],[-91.791,30.713]]]}},{"type":"Feature","properties":{"density":2},"geometry":{"type":"Polygon","coordinates":[[[-91.681,31.937],[-91.602,31.882],[-91.534,31.888],[-91.497,31.959],[-91.494,32.04],[-91.543,32.137],[-91.585,32.181],[-91.633,32.215],[-91.69,32.224],[-91.766,32.198],[-91.789,32.17],[-91.799,32.104],[-91.767,32.023],[-91.681,31.937]]]}},{"type":"Feature","properties":{"density":2},"geometry":{"type":"Polygon","coordinates":[[[-82.783,32.979],[-82.862,32.99],[-82.963,32.926],[-83.033,32.831],[-83.115,32.756],[-83.12,32.713],[-83.102,32.667],[-83.004,32.639],[-82.875,32.662],[-82.811,32.69],[-82.767,32.743],[-82.723,32.87],[-82.746,32.962],[-82.783,32.979]]]}},{"type":"Feature","properties":{"density":2},"geometry":{"type":"Polygon","coordinates":[[[-101.314,23.308],[-101.215,23.278],[-101.066,23.272],[-101.031,23.279],[-101.014,23.333],[-101.044,23.385],[-101.116,23.421],[-101.289,23.468],[-101.345,23.453],[-101.379,23.409],[-101.374,23.36],[-101.314,23.308]]]}},{"type":"Feature","properties":{"density":2},"geometry":{"type":"Polygon","coordinates":[[[-72.841,19.027],[-72.958,18.941],[-73.033,18.835],[-73.033,18.736],[-73.002,18.6],[-72.927,18.438],[-72.81,18.302],[-72.617,18.029],[-72.431,17.918],[-72.208,17.862],[-71.898,17.812],[-71.687,17.806],[-71.489,17.874],[-71.352,17.949],[-71.328,18.048],[-71.328,18.172],[-71.408,18.296],[-71.569,18.414],[-71.985,18.624],[-72.115,18.705],[-72.27,18.841],[-72.369,18.972],[-72.475,19.077],[-72.593,19.102],[-72.741,19.089],[-72.841,19.027]]]}},{"type":"Feature","properties":{"density":2},"geometry":{"type":"Polygon","coordinates":[[[-93.605,29.876],[-92.851,29.123],[-91.721,28.37],[-90.073,27.805],[-88.473,27.475],[-84.894,27.334],[-83.246,27.491],[-81.645,27.742],[-80.139,28.433],[-78.036,29.908],[-77.282,30.598],[-76.074,31.289],[-74.756,31.619],[-72.731,31.901],[-70.769,32.089],[-68.274,32.419],[-63.518,33.408],[-61.776,33.831],[-58.951,34.161],[-56.833,34.867],[-56.032,35.291],[-55.279,36.186],[-55.138,36.845],[-55.797,38.351],[-57.539,39.387],[-59.846,40.094],[-63.895,40.8],[-66.343,41.176],[-69.545,41.741],[-70.958,42.071],[-74.253,42.259],[-77.173,42.448],[-80.421,42.495],[-83.293,42.495],[-85.459,42.306],[-87.813,41.883],[-91.203,41.082],[-92.71,40.329],[-94.075,39.246],[-94.593,38.493],[-94.876,37.834],[-95.237,36.28],[-95.425,34.679],[-95.331,33.329],[-95.017,31.98],[-94.358,30.724],[-93.605,29.876]]]}},{"type":"Feature","properties":{"density":2},"geometry":{"type":"Polygon","coordinates":[[[-92.608,31.292],[-92.71,31.264],[-92.738,31.171],[-92.735,31.113],[-92.655,31.008],[-92.258,30.881],[-92.165,30.895],[-92.162,30.975],[-92.201,31.047],[-92.322,31.176],[-92.394,31.231],[-92.484,31.27],[-92.564,31.295],[-92.608,31.292]]]}},{"type":"Feature","properties":{"density":3},"geometry":{"type":"Polygon","coordinates":[[[-119.612,37.648],[-119.733,37.651],[-119.764,37.624],[-119.777,37.587],[-119.775,37.538],[-119.716,37.435],[-119.632,37.383],[-119.601,37.392],[-119.59,37.414],[-119.593,37.482],[-119.555,37.563],[-119.556,37.591],[-119.612,37.648]]]}},{"type":"Feature","properties":{"density":3},"geometry":{"type":"Polygon","coordinates":[[[-86.722,37.014],[-86.74,36.993],[-86.723,36.982],[-86.599,36.986],[-86.483,36.966],[-86.43,36.976],[-86.409,37.003],[-86.431,37.037],[-86.492,37.049],[-86.581,37.048],[-86.722,37.014]]]}},{"type":"Feature","properties":{"density":3},"geometry":{"type":"Polygon","coordinates":[[[-91.123,35.603],[-91.119,35.574],[-91.105,35.571],[-91.041,35.608],[-91.033,35.641],[-91.069,35.648],[-91.123,35.603]]]}},{"type":"Feature","properties":{"density":3},"geometry":{"type":"Polygon","coordinates":[[[-91.385,34.469],[-91.361,34.441],[-91.268,34.45],[-91.232,34.468],[-91.214,34.522],[-91.224,34.552],[-91.248,34.571],[-91.297,34.574],[-91.385,34.469]]]}},{"type":"Feature","properties":{"density":3},"geometry":{"type":"Polygon","coordinates":[[[-91.33,33.713],[-91.328,33.681],[-91.313,33.671],[-91.231,33.695],[-91.204,33.754],[-91.23,33.811],[-91.271,33.822],[-91.288,33.811],[-91.33,33.713]]]}},{"type":"Feature","properties":{"density":3},"geometry":{"type":"Polygon","coordinates":[[[-119.81,37.763],[-119.86,37.706],[-119.864,37.64],[-119.814,37.579],[-119.731,37.41],[-119.676,37.379],[-119.627,37.381],[-119.588,37.412],[-119.579,37.537],[-119.502,37.68],[-119.511,37.717],[-119.57,37.745],[-119.673,37.726],[-119.764,37.767],[-119.81,37.763]]]}},{"type":"Feature","properties":{"density":3},"geometry":{"type":"Polygon","coordinates":[[[-121.45,48.612],[-121.475,48.551],[-121.458,48.524],[-121.433,48.521],[-121.334,48.626],[-121.243,48.67],[-121.049,48.715],[-121.013,48.744],[-120.995,48.849],[-121.003,49.031],[-120.995,49.05],[-120.929,49.067],[-120.914,49.112],[-120.984,49.146],[-121.072,49.144],[-121.227,49.218],[-121.306,49.177],[-121.312,49.146],[-121.282,49.111],[-121.218,49.083],[-121.171,49.042],[-121.13,48.933],[-121.134,48.898],[-121.16,48.869],[-121.249,48.904],[-121.279,48.896],[-121.271,48.843],[-121.232,48.805],[-121.246,48.766],[-121.268,48.739],[-121.384,48.7],[-121.45,48.612]]]}},{"type":"Feature","properties":{"density":3},"geometry":{"type":"Polygon","coordinates":[[[-120.866,48.422],[-120.91,48.386],[-120.915,48.356],[-120.882,48.325],[-120.747,48.273],[-120.576,48.091],[-120.524,48.069],[-120.491,48.083],[-120.477,48.127],[-120.496,48.179],[-120.623,48.331],[-120.769,48.43],[-120.866,48.422]]]}},{"type":"Feature","properties":{"density":3},"geometry":{"type":"Polygon","coordinates":[[[-72.229,18.278],[-72.347,18.283],[-72.367,18.272],[-72.38,18.236],[-72.369,18.192],[-72.331,18.143],[-72.248,18.11],[-71.948,18.096],[-71.689,18.046],[-71.603,18.044],[-71.518,18.074],[-71.515,18.129],[-71.634,18.198],[-71.744,18.234],[-71.895,18.264],[-72.229,18.278]]]}},{"type":"Feature","properties":{"density":3},"geometry":{"type":"Polygon","coordinates":[[[-92.921,33.958],[-92.901,33.944],[-92.872,33.963],[-92.841,34.004],[-92.833,34.045],[-92.865,34.044],[-92.921,33.958]]]}},{"type":"Feature","properties":{"density":3},"geometry":{"type":"Polygon","coordinates":[[[-91.687,33.008],[-91.663,32.992],[-91.638,33.019],[-91.628,33.078],[-91.657,33.113],[-91.69,33.11],[-91.711,33.085],[-91.71,33.044],[-91.687,33.008]]]}},{"type":"Feature","properties":{"density":3},"geometry":{"type":"Polygon","coordinates":[[[-91.45,33.394],[-91.424,33.369],[-91.405,33.374],[-91.395,33.405],[-91.385,33.477],[-91.415,33.516],[-91.458,33.508],[-91.47,33.483],[-91.45,33.394]]]}},{"type":"Feature","properties":{"density":3},"geometry":{"type":"Polygon","coordinates":[[[-91.347,33.731],[-91.287,33.71],[-91.229,33.781],[-91.197,33.896],[-91.222,33.966],[-91.259,33.982],[-91.292,33.977],[-91.333,33.949],[-91.364,33.854],[-91.347,33.731]]]}},{"type":"Feature","properties":{"density":3},"geometry":{"type":"Polygon","coordinates":[[[-91.0,35.471],[-91.009,35.441],[-90.992,35.432],[-90.869,35.465],[-90.82,35.514],[-90.82,35.547],[-90.843,35.564],[-90.891,35.557],[-91.0,35.471]]]}},{"type":"Feature","properties":{"density":3},"geometry":{"type":"Polygon","coordinates":[[[-90.786,35.553],[-90.773,35.528],[-90.719,35.538],[-90.645,35.575],[-90.636,35.606],[-90.667,35.626],[-90.696,35.617],[-90.786,35.553]]]}},{"type":"Feature","properties":{"density":3},"geometry":{"type":"Polygon","coordinates":[[[-89.765,36.332],[-89.776,36.3],[-89.718,36.297],[-89.607,36.322],[-89.562,36.341],[-89.546,36.367],[-89.567,36.392],[-89.596,36.39],[-89.765,36.332]]]}},{"type":"Feature","properties":{"density":3},"geometry":{"type":"Polygon","coordinates":[[[-89.352,37.019],[-89.339,36.99],[-89.304,36.986],[-89.104,37.04],[-89.065,37.089],[-89.12,37.126],[-89.214,37.119],[-89.302,37.076],[-89.352,37.019]]]}},{"type":"Feature","properties":{"density":3},"geometry":{"type":"Polygon","coordinates":[[[-89.756,36.979],[-89.747,36.948],[-89.64,36.944],[-89.513,36.961],[-89.475,36.977],[-89.466,37.001],[-89.504,37.043],[-89.567,37.047],[-89.717,37.008],[-89.756,36.979]]]}},{"type":"Feature","properties":{"density":3},"geometry":{"type":"Polygon","coordinates":[[[-89.015,36.878],[-88.957,36.882],[-88.938,36.904],[-88.951,36.922],[-89.058,36.939],[-89.168,36.917],[-89.199,36.895],[-89.195,36.874],[-89.015,36.878]]]}},{"type":"Feature","properties":{"density":3},"geometry":{"type":"Polygon","coordinates":[[[-72.126,18.278],[-72.206,18.209],[-72.208,18.162],[-72.101,18.057],[-71.996,18.007],[-71.842,17.983],[-71.71,17.988],[-71.58,18.005],[-71.492,18.041],[-71.467,18.074],[-71.47,18.129],[-71.61,18.231],[-71.922,18.3],[-72.126,18.278]]]}},{"type":"Feature","properties":{"density":3},"geometry":{"type":"Polygon","coordinates":[[[-119.915,37.746],[-119.904,37.657],[-119.849,37.602],[-119.734,37.542],[-119.587,37.531],[-119.502,37.544],[-119.408,37.591],[-119.345,37.66],[-119.317,37.759],[-119.375,37.79],[-119.519,37.812],[-119.72,37.886],[-119.855,37.842],[-119.893,37.809],[-119.915,37.746]]]}},{"type":"Feature","properties":{"density":3},"geometry":{"type":"Polygon","coordinates":[[[-120.867,48.459],[-120.952,48.415],[-120.983,48.374],[-120.963,48.321],[-120.919,48.308],[-120.806,48.319],[-120.759,48.31],[-120.699,48.272],[-120.627,48.277],[-120.627,48.352],[-120.759,48.459],[-120.798,48.473],[-120.867,48.459]]]}},{"type":"Feature","properties":{"density":3},"geometry":{"type":"Polygon","coordinates":[[[-121.354,49.278],[-121.407,49.261],[-121.423,49.232],[-121.411,49.195],[-121.378,49.16],[-121.291,49.132],[-121.192,49.074],[-121.137,48.999],[-121.112,48.925],[-121.151,48.873],[-121.242,48.906],[-121.25,48.851],[-121.206,48.809],[-121.2,48.779],[-121.231,48.74],[-121.302,48.721],[-121.324,48.699],[-121.31,48.674],[-121.146,48.659],[-121.035,48.688],[-120.977,48.771],[-120.949,48.903],[-120.859,49.043],[-120.828,49.149],[-120.839,49.197],[-120.889,49.217],[-120.951,49.169],[-120.975,49.171],[-121.005,49.177],[-121.045,49.228],[-121.089,49.243],[-121.177,49.226],[-121.354,49.278]]]}},{"type":"Feature","properties":{"density":3},"geometry":{"type":"Polygon","coordinates":[[[-119.725,37.604],[-119.618,37.549],[-119.568,37.54],[-119.323,37.681],[-119.249,37.791],[-119.125,37.896],[-118.926,37.929],[-118.882,37.959],[-118.885,38.003],[-118.918,38.034],[-118.984,38.047],[-119.604,38.067],[-119.775,38.034],[-119.874,37.998],[-119.968,37.901],[-119.99,37.821],[-119.974,37.75],[-119.957,37.708],[-119.863,37.637],[-119.725,37.604]]]}},{"type":"Feature","properties":{"density":3},"geometry":{"type":"Polygon","coordinates":[[[-120.931,48.487],[-120.956,48.451],[-121.019,48.41],[-121.017,48.358],[-120.992,48.33],[-120.942,48.308],[-120.738,48.3],[-120.614,48.222],[-120.573,48.242],[-120.565,48.265],[-120.578,48.297],[-120.645,48.377],[-120.669,48.487],[-120.711,48.534],[-120.81,48.57],[-120.893,48.531],[-120.931,48.487]]]}},{"type":"Feature","properties":{"density":3},"geometry":{"type":"Polygon","coordinates":[[[-121.266,48.944],[-121.325,48.935],[-121.334,48.906],[-121.307,48.843],[-121.101,48.72],[-121.022,48.73],[-120.974,48.779],[-120.938,48.867],[-120.862,48.976],[-120.767,49.082],[-120.758,49.202],[-120.769,49.238],[-120.802,49.26],[-120.888,49.253],[-121.046,49.181],[-121.066,49.196],[-121.066,49.242],[-121.086,49.26],[-121.134,49.279],[-121.235,49.26],[-121.265,49.231],[-121.278,49.163],[-121.219,49.038],[-121.219,48.992],[-121.266,48.944]]]}},{"type":"Feature","properties":{"density":3},"geometry":{"type":"Polygon","coordinates":[[[-89.363,37.028],[-89.38,36.992],[-89.358,36.967],[-89.313,36.968],[-89.102,37.047],[-89.013,37.058],[-88.955,37.083],[-88.95,37.13],[-88.983,37.152],[-89.083,37.15],[-89.327,37.062],[-89.363,37.028]]]}},{"type":"Feature","properties":{"density":3},"geometry":{"type":"Polygon","coordinates":[[[-89.496,36.808],[-89.473,36.775],[-89.434,36.775],[-89.107,36.849],[-89.068,36.898],[-89.083,36.924],[-89.125,36.944],[-89.285,36.931],[-89.469,36.847],[-89.496,36.808]]]}},{"type":"Feature","properties":{"density":3},"geometry":{"type":"Polygon","coordinates":[[[-89.913,36.264],[-89.877,36.238],[-89.824,36.239],[-89.753,36.274],[-89.725,36.309],[-89.729,36.33],[-89.765,36.344],[-89.844,36.323],[-89.913,36.264]]]}},{"type":"Feature","properties":{"density":3},"geometry":{"type":"Polygon","coordinates":[[[-89.817,36.394],[-89.819,36.355],[-89.778,36.346],[-89.715,36.372],[-89.704,36.405],[-89.729,36.432],[-89.767,36.43],[-89.817,36.394]]]}},{"type":"Feature","properties":{"density":3},"geometry":{"type":"Polygon","coordinates":[[[-91.012,35.54],[-91.018,35.463],[-90.996,35.44],[-90.961,35.437],[-90.789,35.562],[-90.569,35.654],[-90.527,35.719],[-90.527,35.763],[-90.555,35.824],[-90.587,35.84],[-90.705,35.824],[-90.847,35.758],[-90.961,35.654],[-91.012,35.54]]]}},{"type":"Feature","properties":{"density":3},"geometry":{"type":"Polygon","coordinates":[[[-91.926,34.723],[-91.909,34.66],[-91.878,34.647],[-91.841,34.658],[-91.78,34.715],[-91.747,34.77],[-91.75,34.858],[-91.783,34.877],[-91.857,34.858],[-91.908,34.792],[-91.926,34.723]]]}},{"type":"Feature","properties":{"density":3},"geometry":{"type":"Polygon","coordinates":[[[-92.009,34.519],[-92.006,34.489],[-91.981,34.478],[-91.923,34.492],[-91.86,34.558],[-91.846,34.591],[-91.854,34.621],[-91.92,34.646],[-91.951,34.632],[-91.981,34.596],[-92.009,34.519]]]}},{"type":"Feature","properties":{"density":3},"geometry":{"type":"Polygon","coordinates":[[[-93.456,33.099],[-93.393,33.066],[-93.357,33.099],[-93.329,33.132],[-93.294,33.259],[-93.269,33.438],[-93.272,33.62],[-93.302,33.708],[-93.335,33.736],[-93.376,33.73],[-93.5,33.631],[-93.583,33.51],[-93.591,33.449],[-93.55,33.3],[-93.456,33.099]]]}},{"type":"Feature","properties":{"density":3},"geometry":{"type":"Polygon","coordinates":[[[-92.952,33.975],[-92.897,33.942],[-92.809,34.058],[-92.77,34.237],[-92.787,34.29],[-92.864,34.303],[-92.902,34.279],[-92.933,34.232],[-92.963,34.083],[-92.952,33.975]]]}},{"type":"Feature","properties":{"density":3},"geometry":{"type":"Polygon","coordinates":[[[-92.114,33.208],[-92.147,33.175],[-92.155,33.093],[-92.133,33.032],[-92.081,32.925],[-92.001,32.839],[-91.971,32.845],[-91.929,32.925],[-91.927,32.98],[-91.935,33.101],[-91.96,33.167],[-91.985,33.197],[-92.045,33.222],[-92.114,33.208]]]}},{"type":"Feature","properties":{"density":3},"geometry":{"type":"Polygon","coordinates":[[[-91.555,33.718],[-91.537,33.673],[-91.506,33.677],[-91.484,33.703],[-91.406,33.853],[-91.392,33.889],[-91.4,33.908],[-91.458,33.903],[-91.528,33.848],[-91.555,33.718]]]}},{"type":"Feature","properties":{"density":3},"geometry":{"type":"Polygon","coordinates":[[[-91.37,33.754],[-91.357,33.689],[-91.34,33.677],[-91.298,33.666],[-91.253,33.689],[-91.254,33.79],[-91.196,33.873],[-91.185,33.914],[-91.189,33.94],[-91.235,33.983],[-91.303,33.998],[-91.367,33.987],[-91.384,33.939],[-91.37,33.754]]]}},{"type":"Feature","properties":{"density":3},"geometry":{"type":"Polygon","coordinates":[[[-91.741,30.774],[-91.762,30.768],[-91.765,30.749],[-91.749,30.716],[-91.727,30.688],[-91.649,30.655],[-91.638,30.694],[-91.657,30.724],[-91.715,30.772],[-91.741,30.774]]]}},{"type":"Feature","properties":{"density":3},"geometry":{"type":"Polygon","coordinates":[[[-91.634,32.063],[-91.674,32.04],[-91.68,31.993],[-91.629,31.923],[-91.607,31.908],[-91.573,31.911],[-91.555,31.982],[-91.572,32.049],[-91.634,32.063]]]}},{"type":"Feature","properties":{"density":3},"geometry":{"type":"Polygon","coordinates":[[[-82.792,32.969],[-82.835,32.955],[-82.846,32.926],[-82.829,32.871],[-82.843,32.798],[-82.822,32.762],[-82.802,32.767],[-82.76,32.849],[-82.766,32.929],[-82.792,32.969]]]}},{"type":"Feature","properties":{"density":3},"geometry":{"type":"Polygon","coordinates":[[[-101.131,23.374],[-101.157,23.347],[-101.135,23.316],[-101.067,23.293],[-101.024,23.304],[-101.036,23.335],[-101.131,23.374]]]}}]}