{"type":"FeatureCollection","features":[{"type":"Feature","properties":{"density":1},"geometry":{"type":"Polygon","coordinates":[[[-161.028,68.803],[-159.647,70.09],[-157.575,71.22],[-155.437,72.142],[-153.463,72.695],[-150.881,72.989],[-147.597,73.201],[-143.889,73.413],[-137.851,73.201],[-134.461,73.201],[-131.283,73.095],[-129.27,73.095],[-128.211,72.989],[-125.562,72.671],[-121.537,72.248],[-117.299,71.4],[-113.021,70.168],[-109.349,69.392],[-105.888,68.685],[-102.216,68.473],[-98.614,68.544],[-91.591,69.917],[-87.566,70.623],[-83.964,71.683],[-80.08,72.318],[-72.63,73.045],[-69.522,73.116],[-66.378,73.024],[-63.977,73.095],[-61.435,73.024],[-59.316,73.166],[-57.762,73.095],[-56.174,72.833],[-53.736,72.248],[-47.521,70.976],[-42.967,70.715],[-39.47,70.482],[-32.902,70.482],[-28.978,70.216],[-21.162,69.415],[-17.725,68.85],[-15.182,67.532],[-13.723,66.213],[-12.633,64.902],[-11.856,63.631],[-11.644,62.501],[-12.138,60.594],[-13.339,59.041],[-14.711,57.927],[-16.595,56.703],[-18.431,55.196],[-20.19,53.885],[-22.944,51.625],[-24.851,49.789],[-28.382,46.328],[-30.43,43.574],[-31.991,41.683],[-33.255,38.842],[-33.467,38.489],[-33.961,35.381],[-33.608,32.486],[-33.185,30.508],[-33.396,29.307],[-33.608,28.531],[-34.385,27.189],[-35.303,25.988],[-36.716,24.999],[-39.541,24.293],[-42.931,23.869],[-45.615,23.799],[-48.298,24.364],[-50.982,24.717],[-54.513,26.129],[-57.056,27.683],[-58.751,29.096],[-60.375,29.166],[-62.0,28.46],[-64.118,27.047],[-64.754,25.352],[-64.825,22.527],[-64.966,21.044],[-65.178,20.056],[-65.46,19.279],[-65.855,18.672],[-66.599,18.515],[-67.688,18.85],[-69.345,19.561],[-71.538,20.377],[-72.946,21.468],[-74.641,23.304],[-76.125,24.576],[-78.715,26.08],[-79.893,26.456],[-80.881,26.315],[-82.198,25.847],[-82.975,25.07],[-83.471,24.385],[-84.193,23.179],[-85.072,22.614],[-86.436,22.316],[-87.457,22.153],[-88.978,21.751],[-90.603,20.832],[-91.662,20.056],[-92.51,18.784],[-93.357,16.736],[-93.819,15.363],[-94.205,14.476],[-95.617,12.852],[-96.495,11.973],[-97.877,10.874],[-98.513,10.521],[-100.349,9.391],[-101.854,8.818],[-103.126,8.63],[-105.222,8.473],[-107.765,8.897],[-109.004,9.478],[-110.229,10.749],[-111.359,12.444],[-112.394,14.045],[-113.336,16.399],[-114.843,18.847],[-116.962,21.437],[-118.712,23.234],[-120.352,25.203],[-122.455,29.166],[-123.655,32.344],[-124.495,34.997],[-125.531,37.728],[-126.904,39.548],[-128.728,41.871],[-131.071,45.198],[-133.876,48.745],[-135.45,51.131],[-136.156,52.472],[-136.89,53.987],[-138.271,56.059],[-139.546,57.416],[-141.692,58.695],[-143.638,59.229],[-145.973,59.394],[-147.738,59.323],[-149.477,59.072],[-151.14,58.884],[-153.557,58.946],[-155.786,59.135],[-157.527,59.41],[-159.552,59.834],[-160.934,60.798],[-161.969,61.96],[-162.252,62.713],[-162.691,64.22],[-162.44,65.852],[-162.126,66.794],[-161.593,67.986],[-161.028,68.803]]]}},{"type":"Feature","properties":{"density":1},"geometry":{"type":"Polygon","coordinates":[[[-92.544,30.959],[-92.649,30.633],[-92.654,30.468],[-92.588,30.377],[-92.533,30.374],[-92.489,30.402],[-92.464,30.446],[-92.45,30.581],[-92.486,30.942],[-92.511,30.964],[-92.544,30.959]]]}},{"type":"Feature","properties":{"density":1},"geometry":{"type":"Polygon","coordinates":[[[-93.371,31.689],[-93.44,31.463],[-93.423,31.377],[-93.373,31.344],[-93.324,31.355],[-93.302,31.377],[-93.293,31.546],[-93.316,31.659],[-93.346,31.694],[-93.371,31.689]]]}},{"type":"Feature","properties":{"density":1},"geometry":{"type":"Polygon","coordinates":[[[-92.525,31.7],[-92.673,31.634],[-92.784,31.557],[-92.836,31.466],[-92.844,31.364],[-92.831,31.27],[-92.795,31.19],[-92.748,31.143],[-92.638,31.121],[-92.547,31.176],[-92.522,31.262],[-92.514,31.479],[-92.481,31.612],[-92.486,31.692],[-92.525,31.7]]]}},{"type":"Feature","properties":{"density":1},"geometry":{"type":"Polygon","coordinates":[[[-94.026,32.649],[-94.086,32.366],[-94.171,32.289],[-94.202,32.279],[-94.289,32.298],[-94.331,32.381],[-94.331,32.447],[-94.3,32.494],[-94.233,32.583],[-94.158,32.63],[-94.068,32.663],[-94.026,32.649]]]}},{"type":"Feature","properties":{"density":1},"geometry":{"type":"Polygon","coordinates":[[[-92.65,34.748],[-92.688,34.64],[-92.79,34.519],[-92.887,34.469],[-92.956,34.461],[-92.986,34.472],[-93.011,34.516],[-92.967,34.613],[-92.87,34.681],[-92.744,34.737],[-92.713,34.772],[-92.672,34.781],[-92.65,34.748]]]}},{"type":"Feature","properties":{"density":1},"geometry":{"type":"Polygon","coordinates":[[[-105.093,37.927],[-105.047,37.912],[-104.928,37.921],[-104.656,38.007],[-104.472,38.013],[-104.382,38.037],[-104.336,38.081],[-104.329,38.184],[-104.356,38.235],[-104.479,38.299],[-104.692,38.329],[-104.841,38.314],[-104.986,38.261],[-105.098,38.191],[-105.139,38.13],[-105.174,38.018],[-105.161,37.961],[-105.093,37.927]]]}},{"type":"Feature","properties":{"density":1},"geometry":{"type":"Polygon","coordinates":[[[-92.852,17.627],[-92.915,17.561],[-93.017,17.525],[-93.13,17.511],[-93.262,17.52],[-93.378,17.589],[-93.687,17.718],[-93.772,17.79],[-93.8,17.859],[-93.814,17.963],[-93.778,18.06],[-93.706,18.118],[-93.599,18.142],[-93.422,18.107],[-93.221,18.029],[-92.929,17.87],[-92.835,17.693],[-92.852,17.627]]]}},{"type":"Feature","properties":{"density":1},"geometry":{"type":"Polygon","coordinates":[[[-76.026,20.556],[-76.082,20.466],[-76.231,20.288],[-76.307,20.226],[-76.404,20.183],[-76.444,20.183],[-76.472,20.204],[-76.476,20.283],[-76.43,20.365],[-76.371,20.417],[-76.057,20.569],[-76.026,20.556]]]}},{"type":"Feature","properties":{"density":1},"geometry":{"type":"Polygon","coordinates":[[[-83.307,22.485],[-83.407,22.521],[-83.426,22.559],[-83.411,22.594],[-83.38,22.6],[-83.331,22.572],[-83.287,22.518],[-83.287,22.485],[-83.307,22.485]]]}},{"type":"Feature","properties":{"density":1},"geometry":{"type":"Polygon","coordinates":[[[-80.82,26.324],[-80.9,26.404],[-81.063,26.671],[-81.093,26.773],[-81.093,26.831],[-81.066,26.895],[-81.027,26.928],[-80.958,26.933],[-80.887,26.903],[-80.823,26.804],[-80.782,26.682],[-80.757,26.484],[-80.765,26.341],[-80.82,26.324]]]}},{"type":"Feature","properties":{"density":1},"geometry":{"type":"Polygon","coordinates":[[[-92.615,34.763],[-92.701,34.449],[-92.761,34.308],[-92.838,34.206],[-93.089,34.002],[-93.194,33.961],[-93.348,33.939],[-93.392,33.958],[-93.423,34.03],[-93.387,34.118],[-93.334,34.228],[-93.194,34.383],[-92.772,34.758],[-92.67,34.807],[-92.623,34.788],[-92.615,34.763]]]}},{"type":"Feature","properties":{"density":1},"geometry":{"type":"Polygon","coordinates":[[[-94.01,32.647],[-94.054,32.352],[-94.147,31.922],[-94.238,31.77],[-94.329,31.746],[-94.376,31.776],[-94.404,31.82],[-94.434,31.985],[-94.406,32.123],[-94.128,32.644],[-94.092,32.688],[-94.043,32.682],[-94.01,32.647]]]}},{"type":"Feature","properties":{"density":1},"geometry":{"type":"Polygon","coordinates":[[[-93.384,31.693],[-93.505,31.42],[-93.533,31.255],[-93.503,31.181],[-93.439,31.189],[-93.379,31.34],[-93.337,31.707],[-93.384,31.693]]]}},{"type":"Feature","properties":{"density":1},"geometry":{"type":"Polygon","coordinates":[[[-92.535,31.715],[-92.883,31.335],[-92.924,31.222],[-92.924,31.178],[-92.896,31.139],[-92.841,31.131],[-92.75,31.161],[-92.695,31.225],[-92.657,31.294],[-92.571,31.539],[-92.488,31.677],[-92.511,31.718],[-92.535,31.715]]]}},{"type":"Feature","properties":{"density":1},"geometry":{"type":"Polygon","coordinates":[[[-92.546,30.941],[-92.64,30.726],[-92.67,30.613],[-92.676,30.472],[-92.654,30.417],[-92.623,30.393],[-92.566,30.393],[-92.505,30.431],[-92.475,30.494],[-92.45,30.616],[-92.439,30.72],[-92.461,30.858],[-92.502,30.941],[-92.546,30.941]]]}},{"type":"Feature","properties":{"density":1},"geometry":{"type":"Polygon","coordinates":[[[-91.901,30.784],[-92.001,30.536],[-92.02,30.453],[-92.026,30.348],[-91.992,30.321],[-91.959,30.321],[-91.929,30.359],[-91.86,30.519],[-91.835,30.643],[-91.855,30.767],[-91.882,30.795],[-91.899,30.8],[-91.901,30.784]]]}},{"type":"Feature","properties":{"density":1},"geometry":{"type":"Polygon","coordinates":[[[-95.422,35.007],[-95.48,34.858],[-95.607,34.657],[-95.7,34.58],[-95.742,34.574],[-95.794,34.591],[-95.813,34.61],[-95.824,34.671],[-95.805,34.72],[-95.742,34.795],[-95.516,35.001],[-95.455,35.026],[-95.422,35.007]]]}},{"type":"Feature","properties":{"density":1},"geometry":{"type":"Polygon","coordinates":[[[-96.548,38.414],[-96.713,38.271],[-96.796,38.257],[-96.845,38.257],[-96.925,38.293],[-96.953,38.362],[-96.903,38.414],[-96.757,38.45],[-96.589,38.461],[-96.545,38.436],[-96.548,38.414]]]}},{"type":"Feature","properties":{"density":1},"geometry":{"type":"Polygon","coordinates":[[[-95.724,38.254],[-95.85,38.117],[-95.961,38.059],[-96.027,38.07],[-96.038,38.108],[-95.996,38.155],[-95.773,38.274],[-95.737,38.279],[-95.724,38.254]]]}},{"type":"Feature","properties":{"density":1},"geometry":{"type":"Polygon","coordinates":[[[-98.883,38.04],[-99.289,38.11],[-99.467,38.169],[-99.563,38.217],[-99.583,38.246],[-99.601,38.309],[-99.594,38.369],[-99.539,38.426],[-99.465,38.463],[-99.386,38.461],[-99.274,38.419],[-99.059,38.309],[-98.905,38.197],[-98.852,38.125],[-98.854,38.053],[-98.883,38.04]]]}},{"type":"Feature","properties":{"density":1},"geometry":{"type":"Polygon","coordinates":[[[-96.274,36.049],[-96.399,35.922],[-96.756,35.742],[-96.89,35.696],[-96.939,35.732],[-96.915,35.802],[-96.842,35.851],[-96.319,36.066],[-96.279,36.069],[-96.274,36.049]]]}},{"type":"Feature","properties":{"density":1},"geometry":{"type":"Polygon","coordinates":[[[-96.517,35.646],[-96.688,35.496],[-96.805,35.421],[-96.891,35.39],[-96.956,35.387],[-97.004,35.439],[-96.991,35.483],[-96.946,35.535],[-96.875,35.574],[-96.581,35.662],[-96.521,35.671],[-96.517,35.646]]]}},{"type":"Feature","properties":{"density":1},"geometry":{"type":"Polygon","coordinates":[[[-120.856,47.975],[-120.819,47.946],[-120.663,47.729],[-120.593,47.705],[-120.556,47.716],[-120.507,47.759],[-120.446,47.869],[-120.422,47.964],[-120.417,48.084],[-120.433,48.183],[-120.521,48.293],[-120.619,48.321],[-120.749,48.341],[-120.865,48.302],[-120.924,48.255],[-120.966,48.159],[-120.97,48.108],[-120.925,48.007],[-120.891,47.975],[-120.856,47.975]]]}},{"type":"Feature","properties":{"density":1},"geometry":{"type":"Polygon","coordinates":[[[-121.06,48.978],[-121.139,49.155],[-121.146,49.304],[-121.036,49.504],[-120.938,49.612],[-120.81,49.695],[-120.613,49.776],[-120.248,49.844],[-120.033,49.844],[-119.898,49.781],[-119.827,49.662],[-119.79,49.524],[-119.816,49.333],[-119.893,49.19],[-120.049,49.063],[-120.198,48.967],[-120.428,48.899],[-120.573,48.877],[-120.804,48.879],[-120.957,48.916],[-121.043,48.955],[-121.06,48.978]]]}},{"type":"Feature","properties":{"density":1},"geometry":{"type":"Polygon","coordinates":[[[-125.392,52.644],[-125.528,52.734],[-125.564,52.786],[-125.564,52.866],[-125.546,52.94],[-125.491,53.046],[-125.375,53.148],[-125.155,53.309],[-124.877,53.392],[-124.559,53.412],[-124.462,53.333],[-124.407,53.223],[-124.392,53.092],[-124.407,52.922],[-124.493,52.681],[-124.569,52.53],[-124.716,52.277],[-124.837,52.152],[-124.958,52.126],[-125.066,52.161],[-125.14,52.255],[-125.27,52.499],[-125.392,52.644]]]}},{"type":"Feature","properties":{"density":1},"geometry":{"type":"Polygon","coordinates":[[[-77.709,21.459],[-78.039,21.211],[-78.159,21.099],[-78.304,21.016],[-78.383,21.004],[-78.494,21.012],[-78.61,21.066],[-78.635,21.128],[-78.635,21.198],[-78.54,21.314],[-78.283,21.397],[-77.758,21.533],[-77.68,21.508],[-77.709,21.459]]]}},{"type":"Feature","properties":{"density":1},"geometry":{"type":"Polygon","coordinates":[[[-78.42,21.86],[-78.833,21.607],[-79.242,21.397],[-79.387,21.368],[-79.676,21.364],[-79.738,21.488],[-79.693,21.603],[-79.548,21.702],[-79.37,21.781],[-79.242,21.86],[-78.519,21.955],[-78.473,21.951],[-78.428,21.922],[-78.42,21.86]]]}},{"type":"Feature","properties":{"density":1},"geometry":{"type":"Polygon","coordinates":[[[-79.689,22.653],[-79.957,22.562],[-80.214,22.517],[-80.544,22.401],[-80.627,22.397],[-80.652,22.43],[-80.644,22.471],[-80.61,22.513],[-79.854,22.699],[-79.751,22.744],[-79.718,22.732],[-79.689,22.653]]]}},{"type":"Feature","properties":{"density":1},"geometry":{"type":"Polygon","coordinates":[[[-91.839,30.745],[-91.864,30.373],[-91.913,30.233],[-91.954,30.125],[-92.074,30.101],[-92.107,30.15],[-92.116,30.249],[-92.091,30.39],[-92.025,30.568],[-91.917,30.77],[-91.88,30.779],[-91.839,30.745]]]}},{"type":"Feature","properties":{"density":1},"geometry":{"type":"Polygon","coordinates":[[[-93.992,32.634],[-94.137,32.076],[-94.261,31.456],[-94.323,31.299],[-94.463,31.08],[-94.542,30.998],[-94.72,30.898],[-94.819,30.898],[-94.881,30.936],[-94.922,31.089],[-94.856,31.324],[-94.749,31.589],[-94.451,32.052],[-94.261,32.316],[-94.075,32.676],[-94.017,32.68],[-93.992,32.634]]]}},{"type":"Feature","properties":{"density":1},"geometry":{"type":"Polygon","coordinates":[[[-100.043,33.395],[-100.485,33.498],[-100.58,33.536],[-100.683,33.639],[-100.721,33.701],[-100.721,33.854],[-100.671,33.932],[-100.576,33.999],[-100.44,34.027],[-100.353,34.007],[-100.237,33.949],[-100.142,33.779],[-100.01,33.474],[-100.01,33.407],[-100.043,33.395]]]}},{"type":"Feature","properties":{"density":1},"geometry":{"type":"Polygon","coordinates":[[[-96.708,36.822],[-96.986,36.747],[-97.341,36.612],[-97.623,36.532],[-97.694,36.532],[-97.785,36.601],[-97.796,36.632],[-97.791,36.712],[-97.73,36.778],[-97.51,36.841],[-96.969,36.882],[-96.818,36.88],[-96.71,36.863],[-96.708,36.822]]]}},{"type":"Feature","properties":{"density":1},"geometry":{"type":"Polygon","coordinates":[[[-95.738,38.26],[-95.804,38.161],[-96.016,37.971],[-96.275,37.814],[-96.468,37.72],[-96.6,37.701],[-96.743,37.715],[-96.779,37.748],[-96.796,37.786],[-96.735,37.902],[-96.451,38.076],[-96.187,38.183],[-95.983,38.244],[-95.793,38.288],[-95.749,38.277],[-95.738,38.26]]]}},{"type":"Feature","properties":{"density":1},"geometry":{"type":"Polygon","coordinates":[[[-96.548,38.417],[-96.856,38.244],[-97.107,38.142],[-97.306,38.084],[-97.631,38.042],[-97.738,38.048],[-97.843,38.081],[-97.893,38.139],[-97.89,38.191],[-97.851,38.266],[-97.724,38.329],[-97.57,38.37],[-97.14,38.437],[-96.614,38.461],[-96.567,38.453],[-96.548,38.417]]]}},{"type":"Feature","properties":{"density":1},"geometry":{"type":"Polygon","coordinates":[[[-98.879,38.034],[-99.466,38.266],[-99.835,38.492],[-100.111,38.61],[-100.386,38.792],[-100.521,38.858],[-100.654,38.977],[-100.676,39.054],[-100.659,39.101],[-100.599,39.167],[-100.425,39.186],[-100.207,39.09],[-99.505,38.544],[-99.011,38.255],[-98.865,38.136],[-98.849,38.065],[-98.879,38.034]]]}},{"type":"Feature","properties":{"density":1},"geometry":{"type":"Polygon","coordinates":[[[-118.315,36.915],[-118.459,36.924],[-118.521,36.961],[-118.563,37.011],[-118.591,37.084],[-118.585,37.17],[-118.54,37.246],[-118.477,37.308],[-118.337,37.349],[-118.244,37.343],[-118.165,37.316],[-118.1,37.273],[-118.06,37.222],[-118.027,37.079],[-118.034,37.013],[-118.077,36.952],[-118.152,36.915],[-118.236,36.904],[-118.315,36.915]]]}},{"type":"Feature","properties":{"density":1},"geometry":{"type":"Polygon","coordinates":[[[-135.219,55.762],[-138.75,57.646],[-140.445,58.258],[-142.234,58.776],[-144.212,59.717],[-145.53,60.518],[-146.424,61.507],[-147.131,63.296],[-147.507,65.226],[-147.507,67.157],[-147.178,68.522],[-146.283,70.311],[-145.059,71.865],[-142.987,72.948],[-140.822,73.701],[-137.997,74.125],[-131.876,74.031],[-129.145,73.842],[-125.378,73.277],[-121.094,72.854],[-117.186,72.289],[-107.157,71.959],[-101.319,71.959],[-95.433,72.1],[-91.478,72.618],[-87.617,72.665],[-84.086,72.665],[-80.037,72.006],[-77.306,71.488],[-74.481,70.452],[-72.362,68.899],[-68.572,68.31],[-63.699,67.251],[-59.108,66.898],[-53.812,66.756],[-48.444,66.686],[-40.252,66.333],[-37.003,65.626],[-33.189,64.708],[-28.881,63.508],[-25.985,61.954],[-23.302,59.976],[-21.536,57.646],[-19.7,54.962],[-18.993,52.631],[-18.711,49.241],[-18.923,45.781],[-19.982,43.097],[-20.971,39.707],[-22.383,36.034],[-25.208,31.938],[-28.175,27.913],[-34.884,24.24],[-39.616,23.604],[-44.701,23.534],[-49.15,23.816],[-52.893,23.887],[-55.436,23.322],[-58.543,22.545],[-61.863,21.98],[-67.866,20.709],[-69.773,20.285],[-74.293,19.367],[-76.694,19.084],[-78.813,19.155],[-81.638,19.084],[-83.827,18.237],[-84.957,17.672],[-88.488,16.33],[-91.878,15.694],[-94.845,15.765],[-97.74,16.259],[-101.695,17.319],[-103.32,18.378],[-105.085,20.003],[-108.122,23.11],[-111.442,25.653],[-114.055,27.206],[-116.103,28.619],[-117.939,30.031],[-122.318,33.492],[-123.165,34.693],[-123.942,36.599],[-124.578,39.071],[-124.931,40.837],[-125.567,42.673],[-126.273,45.145],[-127.12,47.546],[-128.462,49.806],[-130.016,51.501],[-131.711,52.984],[-132.841,53.903],[-134.183,55.315],[-135.219,55.762]]]}},{"type":"Feature","properties":{"density":2},"geometry":{"type":"Polygon","coordinates":[[[-134.231,69.117],[-133.007,69.745],[-132.034,70.153],[-130.841,70.435],[-129.398,70.624],[-126.056,70.812],[-124.125,70.718],[-122.43,70.388],[-121.065,69.871],[-119.746,69.541],[-117.392,68.27],[-116.592,67.94],[-115.038,67.328],[-112.354,66.575],[-109.086,66.119],[-107.269,66.01],[-102.796,65.492],[-100.254,65.303],[-97.853,65.492],[-94.463,65.916],[-92.297,66.386],[-89.566,66.904],[-87.636,67.375],[-86.129,67.893],[-85.376,68.458],[-83.775,69.494],[-81.891,70.388],[-79.49,70.812],[-78.031,70.718],[-76.524,70.341],[-73.181,68.835],[-72.381,68.223],[-71.721,67.422],[-71.533,66.81],[-71.486,65.586],[-71.768,64.55],[-72.381,63.656],[-73.381,62.941],[-74.511,62.188],[-75.39,61.403],[-76.206,60.618],[-76.802,59.959],[-77.65,58.735],[-79.627,56.506],[-80.196,55.793],[-80.903,54.851],[-81.185,54.333],[-81.703,53.156],[-81.856,52.175],[-81.703,51.178],[-81.421,49.86],[-81.185,49.201],[-80.432,47.506],[-80.243,45.858],[-80.432,45.152],[-81.354,43.292],[-82.17,42.078],[-83.551,40.781],[-85.539,39.148],[-86.376,38.374],[-88.071,36.261],[-89.593,33.885],[-91.079,31.605],[-92.047,30.945],[-93.373,30.943],[-94.901,31.612],[-96.031,32.931],[-97.265,34.772],[-98.487,36.145],[-99.952,37.882],[-101.437,39.347],[-103.153,41.879],[-104.576,43.553],[-105.664,44.537],[-107.025,45.269],[-108.4,45.866],[-110.268,46.315],[-111.377,46.399],[-112.355,46.336],[-113.39,46.141],[-114.661,45.811],[-115.029,45.659],[-115.791,45.51],[-116.303,45.287],[-116.508,45.027],[-117.289,44.506],[-117.698,44.18],[-117.93,43.827],[-118.107,43.436],[-118.395,43.139],[-118.823,42.962],[-119.047,42.962],[-119.958,43.288],[-120.107,43.306],[-120.339,43.288],[-120.628,43.232],[-121.093,42.897],[-121.474,42.748],[-121.679,42.618],[-122.032,42.562],[-122.571,42.637],[-123.381,43.195],[-123.585,43.409],[-123.799,43.725],[-123.957,44.432],[-123.855,44.841],[-123.725,45.194],[-123.954,47.827],[-124.895,48.895],[-125.743,49.052],[-126.716,48.832],[-127.438,48.612],[-128.85,48.769],[-130.043,49.617],[-131.11,50.307],[-132.523,51.814],[-133.716,53.697],[-134.249,54.858],[-134.689,56.271],[-135.473,58.405],[-135.976,60.634],[-136.101,62.455],[-136.038,64.369],[-135.881,66.158],[-135.706,67.359],[-135.173,68.332],[-134.231,69.117]]]}},{"type":"Feature","properties":{"density":2},"geometry":{"type":"Polygon","coordinates":[[[-56.961,51.44],[-57.735,53.7],[-57.89,55.419],[-57.372,56.408],[-56.572,57.35],[-54.868,58.22],[-52.106,58.743],[-49.197,58.889],[-46.452,59.12],[-44.945,59.496],[-43.956,60.155],[-42.826,61.191],[-41.602,62.698],[-39.86,64.628],[-38.777,65.476],[-37.883,65.9],[-36.658,66.182],[-35.34,66.182],[-33.08,66.041],[-31.573,65.758],[-29.784,64.817],[-28.231,63.263],[-27.006,61.709],[-26.441,59.732],[-26.394,57.942],[-26.818,55.73],[-27.666,53.893],[-28.89,52.575],[-29.408,51.727],[-30.679,50.692],[-31.95,49.703],[-32.939,48.855],[-35.34,45.842],[-36.009,44.681],[-36.825,43.551],[-37.647,42.311],[-38.583,40.066],[-39.389,38.78],[-39.766,35.531],[-39.295,33.318],[-38.683,32.0],[-37.712,30.606],[-36.986,29.769],[-36.54,29.392],[-36.376,28.704],[-36.658,27.95],[-37.307,27.384],[-38.777,27.291],[-40.472,27.056],[-42.403,27.056],[-43.627,27.291],[-45.322,27.527],[-46.501,27.746],[-48.665,27.95],[-51.113,27.809],[-52.478,28.139],[-53.75,28.704],[-54.597,29.41],[-56.057,30.446],[-58.505,31.199],[-59.635,31.717],[-61.236,31.623],[-62.884,31.246],[-64.296,30.446],[-65.709,29.504],[-66.603,28.751],[-67.357,28.421],[-68.44,28.421],[-69.099,29.033],[-69.146,29.928],[-68.628,30.87],[-67.263,32.376],[-65.897,33.459],[-63.92,34.636],[-62.648,35.484],[-60.483,36.802],[-59.541,37.602],[-58.693,38.026],[-57.705,38.638],[-56.716,38.78],[-55.115,38.544],[-53.608,38.167],[-52.29,37.932],[-50.925,37.555],[-49.795,37.697],[-49.041,37.932],[-48.053,38.403],[-47.111,38.732],[-46.546,39.486],[-45.746,40.145],[-45.604,41.322],[-45.604,41.699],[-46.075,42.64],[-47.064,43.723],[-48.147,44.43],[-49.183,44.9],[-50.548,45.465],[-51.113,45.842],[-51.939,46.222],[-53.069,46.878],[-54.554,48.008],[-55.768,49.326],[-56.961,51.44]]]}},{"type":"Feature","properties":{"density":2},"geometry":{"type":"Polygon","coordinates":[[[-120.83,47.997],[-120.744,48.047],[-120.723,48.13],[-120.758,48.141],[-120.8,48.131],[-120.867,48.073],[-120.876,48.016],[-120.845,47.986],[-120.83,47.997]]]}},{"type":"Feature","properties":{"density":2},"geometry":{"type":"Polygon","coordinates":[[[-121.045,49.208],[-121.039,49.261],[-120.925,49.452],[-120.878,49.471],[-120.823,49.467],[-120.769,49.41],[-120.762,49.346],[-120.777,49.293],[-120.999,48.982],[-121.026,48.966],[-121.05,48.989],[-121.01,49.085],[-121.012,49.116],[-121.045,49.208]]]}},{"type":"Feature","properties":{"density":2},"geometry":{"type":"Polygon","coordinates":[[[-120.633,48.942],[-120.591,49.081],[-120.479,49.18],[-120.38,49.208],[-120.349,49.153],[-120.378,49.079],[-120.565,48.92],[-120.619,48.918],[-120.633,48.942]]]}},{"type":"Feature","properties":{"density":2},"geometry":{"type":"Polygon","coordinates":[[[-125.393,52.681],[-125.357,52.767],[-125.252,52.907],[-125.147,52.966],[-125.035,52.955],[-125.013,52.887],[-125.039,52.819],[-125.083,52.773],[-125.228,52.675],[-125.292,52.65],[-125.37,52.655],[-125.393,52.681]]]}},{"type":"Feature","properties":{"density":2},"geometry":{"type":"Polygon","coordinates":[[[-96.578,38.417],[-96.956,38.271],[-97.052,38.274],[-97.06,38.304],[-97.027,38.332],[-96.694,38.426],[-96.595,38.437],[-96.578,38.417]]]}},{"type":"Feature","properties":{"density":2},"geometry":{"type":"Polygon","coordinates":[[[-118.361,36.932],[-118.427,36.979],[-118.435,37.014],[-118.407,37.047],[-118.323,37.073],[-118.22,37.036],[-118.224,36.967],[-118.29,36.928],[-118.361,36.932]]]}},{"type":"Feature","properties":{"density":2},"geometry":{"type":"Polygon","coordinates":[[[-121.374,44.183],[-121.913,44.202],[-122.192,44.276],[-122.564,44.425],[-122.881,44.611],[-123.15,44.908],[-123.308,45.15],[-123.411,45.485],[-123.355,45.773],[-123.215,46.024],[-122.974,46.238],[-122.695,46.397],[-122.276,46.471],[-121.904,46.517],[-121.56,46.648],[-121.309,46.843],[-121.253,47.001],[-121.253,47.289],[-121.29,47.336],[-121.318,47.54],[-121.16,47.912],[-121.039,48.052],[-120.983,48.219],[-120.937,48.461],[-120.974,48.768],[-121.048,48.963],[-121.16,49.177],[-121.637,49.768],[-121.776,49.889],[-122.018,49.991],[-122.557,50.019],[-122.743,50.103],[-122.874,50.224],[-122.892,50.326],[-122.836,50.531],[-122.836,50.698],[-122.948,50.875],[-123.125,51.023],[-123.404,51.237],[-123.925,51.451],[-124.901,51.898],[-125.487,52.233],[-125.608,52.437],[-125.645,52.567],[-125.608,52.725],[-125.468,52.856],[-124.52,53.209],[-123.766,53.628],[-123.366,53.944],[-122.641,54.437],[-122.055,54.911],[-121.413,55.339],[-120.911,55.599],[-120.144,55.869],[-119.846,56.12],[-119.679,56.408],[-119.67,56.883],[-119.79,57.413],[-120.014,57.896],[-120.367,58.436],[-120.683,58.752],[-121.251,59.106],[-122.088,59.319],[-123.725,59.943],[-125.315,60.342],[-126.45,60.687],[-127.035,60.956],[-127.863,61.245],[-129.258,61.775],[-130.421,62.296],[-131.314,62.751],[-131.853,63.151],[-133.378,64.472],[-134.067,64.9],[-134.932,65.346],[-135.508,65.783],[-135.945,66.323],[-136.196,66.909],[-136.262,67.429],[-136.122,68.099],[-135.796,68.573],[-134.82,69.141],[-133.36,69.568],[-130.505,69.764],[-128.57,69.634],[-127.342,69.355],[-126.701,69.103],[-126.05,68.778],[-125.287,68.471],[-124.645,68.118],[-123.948,67.708],[-123.111,67.401],[-122.05,67.048],[-120.934,66.806],[-120.107,66.825],[-119.446,66.806],[-118.237,66.825],[-117.716,66.769],[-117.307,66.639],[-116.6,66.239],[-116.042,65.904],[-115.15,65.225],[-114.21,64.649],[-113.587,64.323],[-112.304,63.877],[-111.113,63.663],[-109.913,63.3],[-108.667,62.807],[-106.212,61.375],[-105.765,61.235],[-105.142,61.087],[-104.417,60.835],[-102.659,60.054],[-101.348,59.347],[-100.297,58.854],[-98.92,58.371],[-97.665,58.027],[-96.595,57.841],[-95.87,57.738],[-94.073,57.662],[-93.288,57.411],[-92.409,56.751],[-92.095,56.218],[-91.969,55.59],[-91.969,54.397],[-92.064,53.707],[-92.566,52.796],[-93.131,51.698],[-93.508,50.568],[-93.916,49.469],[-94.041,48.527],[-94.198,47.523],[-94.606,46.77],[-95.014,45.954],[-95.579,45.263],[-96.521,44.729],[-97.4,44.604],[-98.687,44.792],[-100.036,45.169],[-101.574,45.514],[-103.615,46.205],[-106.408,46.864],[-108.009,47.146],[-109.83,47.272],[-111.525,47.084],[-113.094,46.738],[-114.507,46.205],[-114.978,45.891],[-116.296,45.514],[-117.646,44.824],[-118.838,44.353],[-119.623,44.227],[-121.098,44.102],[-121.374,44.183]]]}},{"type":"Feature","properties":{"density":2},"geometry":{"type":"Polygon","coordinates":[[[-40.675,48.606],[-41.311,47.193],[-41.947,46.134],[-42.794,44.509],[-43.712,42.814],[-44.56,41.402],[-45.548,40.625],[-47.314,39.848],[-48.303,39.707],[-49.927,39.989],[-51.481,40.484],[-53.6,40.696],[-55.153,40.413],[-57.625,39.636],[-63.063,37.588],[-69.278,34.622],[-71.256,33.068],[-73.233,31.444],[-73.869,29.749],[-74.01,28.689],[-73.092,27.065],[-71.962,26.641],[-70.055,27.559],[-67.583,29.184],[-65.182,30.384],[-61.439,30.808],[-58.19,30.667],[-53.6,29.043],[-50.28,28.901],[-47.455,28.901],[-43.218,29.608],[-41.311,31.02],[-38.91,33.28],[-37.921,35.964],[-37.073,38.436],[-36.791,42.038],[-36.508,44.863],[-37.073,48.182],[-37.427,48.676],[-38.274,49.171],[-38.98,49.453],[-39.404,49.312],[-40.252,48.888],[-40.675,48.606]]]}},{"type":"Feature","properties":{"density":3},"geometry":{"type":"Polygon","coordinates":[[[-130.174,67.774],[-129.617,67.753],[-128.079,67.596],[-126.196,67.282],[-124.846,67.156],[-123.345,66.837],[-122.508,66.688],[-121.216,66.539],[-120.044,66.56],[-119.008,66.654],[-118.161,66.654],[-117.661,66.569],[-117.096,66.288],[-116.482,65.767],[-115.961,65.46],[-114.049,64.739],[-112.448,64.017],[-111.475,63.641],[-109.717,62.542],[-108.901,62.165],[-107.677,61.789],[-106.452,61.287],[-104.695,60.816],[-103.219,60.439],[-100.3,59.811],[-99.013,59.592],[-98.197,59.309],[-97.287,58.493],[-96.91,57.74],[-96.534,56.358],[-96.565,55.448],[-96.471,55.009],[-96.149,54.212],[-95.749,53.753],[-95.341,53.22],[-95.247,52.843],[-95.309,52.247],[-95.623,51.336],[-95.937,50.206],[-96.117,49.724],[-96.753,49.422],[-97.475,49.422],[-97.907,49.504],[-98.511,49.673],[-99.641,50.52],[-100.143,51.525],[-100.865,52.529],[-102.089,53.377],[-103.251,53.847],[-104.287,53.91],[-105.636,53.879],[-107.112,53.879],[-107.991,53.847],[-109.374,53.762],[-111.236,53.888],[-112.325,54.014],[-114.04,54.307],[-114.802,54.538],[-115.336,54.915],[-115.995,55.197],[-116.874,55.668],[-117.47,56.076],[-118.004,56.515],[-118.679,56.678],[-119.259,56.735],[-120.326,57.018],[-121.551,57.426],[-122.147,57.834],[-122.474,58.422],[-122.743,59.78],[-123.057,60.188],[-123.654,60.596],[-124.376,61.13],[-125.066,61.569],[-126.071,62.071],[-126.645,62.426],[-127.231,62.719],[-128.751,63.612],[-129.547,64.044],[-130.551,64.435],[-131.207,64.853],[-132.476,65.425],[-133.321,66.277],[-133.353,66.999],[-132.851,67.47],[-131.909,67.784],[-131.303,67.836],[-130.174,67.774]]]}},{"type":"Feature","properties":{"density":3},"geometry":{"type":"Polygon","coordinates":[[[-123.316,50.886],[-123.539,51.091],[-123.623,51.342],[-123.706,51.668],[-123.734,51.956],[-123.632,52.226],[-123.353,52.57],[-123.139,52.691],[-122.776,52.793],[-122.451,52.858],[-122.06,52.886],[-121.344,52.83],[-120.702,52.728],[-120.163,52.672],[-119.763,52.588],[-119.335,52.523],[-118.917,52.477],[-118.098,52.43],[-117.708,52.439],[-117.382,52.412],[-117.019,52.412],[-116.778,52.439],[-116.127,52.616],[-115.876,52.626],[-115.615,52.57],[-115.345,52.421],[-115.15,52.198],[-114.964,51.788],[-114.871,51.509],[-114.722,51.175],[-114.666,50.924],[-114.555,50.775],[-114.443,50.691],[-114.136,50.635],[-113.727,50.682],[-112.834,50.7],[-112.406,50.579],[-112.044,50.207],[-111.16,50.059],[-111.123,49.984],[-111.114,49.873],[-111.151,49.789],[-111.309,49.742],[-111.551,49.705],[-111.904,49.705],[-112.788,49.621],[-113.048,49.631],[-113.355,49.612],[-114.118,49.528],[-114.211,49.463],[-114.229,49.389],[-114.164,49.147],[-114.276,49.008],[-114.406,48.924],[-114.601,48.868],[-115.159,48.877],[-115.531,48.85],[-115.708,48.859],[-116.145,48.943],[-116.415,49.138],[-116.508,49.361],[-116.685,50.105],[-116.731,50.366],[-116.871,50.542],[-117.094,50.71],[-117.419,50.886],[-117.689,50.989],[-117.931,50.989],[-118.117,51.017],[-118.396,51.007],[-118.582,50.961],[-118.833,50.812],[-119.131,50.589],[-119.289,50.57],[-119.484,50.468],[-119.651,50.347],[-119.856,50.273],[-120.042,50.142],[-120.377,50.003],[-120.712,49.966],[-120.991,49.956],[-121.14,49.919],[-121.288,49.724],[-121.419,49.668],[-121.549,49.677],[-121.735,49.78],[-121.753,49.984],[-121.725,50.133],[-121.744,50.226],[-121.884,50.291],[-122.014,50.319],[-122.07,50.273],[-122.367,50.152],[-122.507,50.142],[-122.609,50.189],[-122.767,50.338],[-123.158,50.654],[-123.241,50.747],[-123.316,50.886]]]}},{"type":"Feature","properties":{"density":3},"geometry":{"type":"Polygon","coordinates":[[[-121.446,43.651],[-121.651,43.632],[-121.888,43.646],[-122.223,43.716],[-122.46,43.855],[-122.628,43.985],[-122.73,44.162],[-122.897,44.376],[-122.981,44.534],[-123.028,44.748],[-122.916,44.999],[-122.702,45.185],[-122.479,45.204],[-121.967,45.315],[-121.037,45.715],[-120.628,46.059],[-120.423,46.329],[-120.256,46.617],[-120.191,47.092],[-119.986,48.106],[-119.856,48.589],[-119.549,49.008],[-119.298,49.203],[-118.963,49.333],[-118.452,49.38],[-118.247,49.361],[-117.884,49.222],[-117.587,49.008],[-117.457,48.645],[-117.41,48.422],[-117.419,48.18],[-117.298,47.873],[-116.889,47.622],[-116.685,47.631],[-115.857,47.761],[-115.597,47.826],[-114.732,48.166],[-113.783,48.431],[-113.295,48.584],[-112.946,48.696],[-112.625,48.836],[-112.304,48.877],[-111.704,49.003],[-111.132,49.017],[-110.742,48.989],[-109.877,48.822],[-109.654,48.71],[-109.109,48.571],[-108.705,48.431],[-108.133,48.305],[-107.896,48.166],[-107.84,48.082],[-107.826,47.915],[-107.868,47.803],[-108.063,47.706],[-108.342,47.733],[-108.579,47.789],[-109.096,47.845],[-110.281,48.082],[-110.574,48.11],[-111.383,48.124],[-111.718,48.04],[-112.025,47.999],[-112.416,47.915],[-112.765,47.873],[-113.155,47.72],[-114.327,47.343],[-114.871,47.12],[-115.234,46.938],[-115.792,46.464],[-115.903,46.311],[-116.224,45.976],[-116.503,45.808],[-116.908,45.613],[-117.675,45.487],[-118.247,45.432],[-118.512,45.46],[-119.098,45.181],[-119.405,44.957],[-119.726,44.609],[-119.921,44.33],[-120.214,43.953],[-121.093,43.674],[-121.149,43.688],[-121.446,43.651]]]}},{"type":"Feature","properties":{"density":3},"geometry":{"type":"Polygon","coordinates":[[[-120.624,48.943],[-120.587,49.011],[-120.54,49.039],[-120.521,49.017],[-120.54,48.967],[-120.606,48.92],[-120.624,48.943]]]}},{"type":"Feature","properties":{"density":3},"geometry":{"type":"Polygon","coordinates":[[[-121.039,48.995],[-121.034,49.054],[-121.015,49.083],[-120.973,49.109],[-120.955,49.1],[-120.951,49.079],[-120.986,49.01],[-121.023,48.984],[-121.039,48.995]]]}},{"type":"Feature","properties":{"density":3},"geometry":{"type":"Polygon","coordinates":[[[-121.026,49.199],[-121.032,49.243],[-121.003,49.267],[-120.971,49.269],[-120.935,49.248],[-120.909,49.195],[-120.924,49.164],[-121.008,49.179],[-121.026,49.199]]]}},{"type":"Feature","properties":{"density":3},"geometry":{"type":"Polygon","coordinates":[[[-121.559,44.318],[-121.793,44.453],[-121.973,44.624],[-121.986,44.806],[-121.948,44.905],[-121.824,45.016],[-121.62,45.071],[-121.364,45.107],[-120.903,45.118],[-120.369,45.087],[-120.203,44.999],[-120.159,44.949],[-120.121,44.737],[-120.137,44.666],[-120.198,44.599],[-120.338,44.542],[-121.275,44.313],[-121.46,44.296],[-121.559,44.318]]]}},{"type":"Feature","properties":{"density":3},"geometry":{"type":"Polygon","coordinates":[[[-123.03,51.146],[-123.278,51.407],[-123.408,51.63],[-123.439,51.853],[-123.402,52.138],[-123.228,52.399],[-122.937,52.566],[-122.646,52.684],[-122.385,52.715],[-122.174,52.703],[-121.895,52.647],[-121.48,52.523],[-120.922,52.386],[-120.234,52.244],[-119.614,52.145],[-119.341,52.058],[-118.702,52.014],[-118.231,51.928],[-117.977,51.841],[-117.822,51.76],[-117.747,51.661],[-117.71,51.574],[-117.71,51.413],[-117.785,51.227],[-117.933,51.109],[-118.237,50.985],[-119.118,50.718],[-119.558,50.638],[-120.321,50.353],[-120.879,50.111],[-121.096,49.974],[-121.22,49.869],[-121.294,49.832],[-121.461,49.807],[-121.511,49.875],[-121.53,49.981],[-121.592,50.123],[-121.672,50.247],[-121.802,50.402],[-121.951,50.464],[-122.1,50.477],[-122.243,50.446],[-122.317,50.396],[-122.36,50.278],[-122.453,50.222],[-122.509,50.222],[-122.528,50.291],[-122.466,50.415],[-122.174,50.743],[-122.125,50.867],[-122.119,50.954],[-122.156,51.035],[-122.255,51.078],[-122.59,51.078],[-122.956,51.047],[-122.993,51.053],[-123.03,51.146]]]}},{"type":"Feature","properties":{"density":3},"geometry":{"type":"Polygon","coordinates":[[[-121.083,49.199],[-120.99,49.379],[-120.724,49.553],[-120.469,49.59],[-120.308,49.534],[-120.197,49.435],[-120.172,49.28],[-120.246,49.051],[-120.414,48.945],[-120.631,48.889],[-120.916,48.927],[-121.065,48.976],[-121.108,49.032],[-121.108,49.106],[-121.083,49.199]]]}},{"type":"Feature","properties":{"density":3},"geometry":{"type":"Polygon","coordinates":[[[-131.736,67.328],[-131.666,67.565],[-131.457,67.858],[-131.094,68.081],[-130.774,68.123],[-130.271,68.137],[-129.895,68.109],[-128.974,67.83],[-127.677,67.481],[-126.212,67.119],[-124.51,66.282],[-123.617,65.905],[-122.85,65.668],[-122.194,65.64],[-121.455,65.668],[-121.022,65.891],[-120.618,66.128],[-120.227,66.323],[-119.864,66.463],[-119.292,66.547],[-118.12,66.672],[-117.716,66.602],[-117.255,66.477],[-117.046,66.337],[-116.753,66.044],[-115.679,65.445],[-115.302,65.193],[-115.065,64.914],[-114.995,64.733],[-114.995,64.552],[-115.093,64.44],[-115.135,64.315],[-115.149,64.189],[-115.093,63.938],[-114.995,63.757],[-114.689,63.603],[-114.423,63.547],[-113.335,63.561],[-112.819,63.519],[-112.303,63.394],[-111.633,63.129],[-111.452,62.933],[-111.285,62.557],[-111.243,62.152],[-111.326,61.706],[-111.564,61.441],[-112.038,61.315],[-112.889,61.176],[-113.614,61.12],[-115.316,61.106],[-117.702,61.483],[-118.902,61.817],[-119.655,61.985],[-120.311,62.096],[-121.036,62.278],[-121.72,62.32],[-122.445,62.389],[-125.556,63.031],[-126.379,63.24],[-126.742,63.422],[-127.384,63.687],[-127.872,63.98],[-128.332,64.356],[-128.821,64.789],[-129.351,65.166],[-129.741,65.5],[-130.16,65.751],[-130.55,65.961],[-131.332,66.337],[-131.597,66.533],[-131.792,66.756],[-131.834,66.965],[-131.736,67.328]]]}}]}