{"type":"FeatureCollection","features":[{"type":"Feature","properties":{"density":1},"geometry":{"type":"Polygon","coordinates":[[[-80.883,26.567],[-80.924,26.584],[-81.003,26.693],[-81.028,26.701],[-81.085,26.627],[-81.17,26.622],[-81.254,26.652],[-81.339,26.75],[-81.388,26.854],[-81.388,26.998],[-81.366,27.105],[-81.325,27.162],[-81.257,27.217],[-81.031,27.301],[-80.769,27.321],[-80.591,27.26],[-80.55,27.214],[-80.438,27.02],[-80.395,26.747],[-80.446,26.671],[-80.496,26.633],[-80.569,26.622],[-80.624,26.655],[-80.689,26.665],[-80.744,26.641],[-80.82,26.578],[-80.883,26.567]]]}},{"type":"Feature","properties":{"density":1},"geometry":{"type":"Polygon","coordinates":[[[-96.688,18.383],[-97.061,18.951],[-97.093,19.292],[-97.061,19.778],[-97.093,19.908],[-97.288,20.087],[-97.807,20.687],[-97.856,20.93],[-97.758,21.287],[-97.612,21.693],[-97.288,22.244],[-96.006,23.558],[-95.455,23.867],[-95.081,23.98],[-94.822,23.996],[-94.497,23.964],[-94.157,23.867],[-93.962,23.753],[-93.849,23.639],[-93.751,23.412],[-93.654,23.088],[-93.589,22.747],[-93.411,22.374],[-93.135,21.693],[-92.762,21.141],[-92.405,20.557],[-92.222,20.005],[-91.999,19.584],[-91.849,19.389],[-91.589,19.243],[-91.427,19.081],[-91.379,18.805],[-91.476,18.48],[-91.346,17.872],[-91.366,17.406],[-91.468,17.183],[-91.65,17.061],[-92.198,17.061],[-93.171,17.406],[-93.557,17.365],[-94.145,17.081],[-94.753,17.0],[-95.037,16.98],[-95.341,17.0],[-95.787,17.183],[-96.537,17.974],[-96.688,18.383]]]}},{"type":"Feature","properties":{"density":1},"geometry":{"type":"Polygon","coordinates":[[[-93.597,15.925],[-92.685,15.601],[-91.407,14.952],[-90.069,14.141],[-88.974,13.512],[-89.115,13.086],[-89.399,12.924],[-89.967,12.681],[-90.576,12.539],[-91.265,12.356],[-91.711,12.133],[-91.833,11.789],[-91.731,11.322],[-91.63,10.998],[-91.204,10.572],[-91.265,10.328],[-91.529,10.207],[-95.503,10.085],[-97.795,10.166],[-99.944,10.105],[-100.938,10.207],[-102.074,10.187],[-102.824,10.247],[-103.615,10.531],[-103.818,10.734],[-104.608,11.606],[-104.689,11.93],[-104.71,12.275],[-104.446,12.884],[-104.264,13.086],[-103.959,13.35],[-103.615,13.593],[-103.209,13.715],[-102.134,13.979],[-100.796,14.222],[-100.228,14.364],[-99.011,14.607],[-98.586,14.77],[-98.403,14.993],[-98.261,15.276],[-98.423,15.682],[-98.667,15.865],[-99.275,16.23],[-100.532,16.737],[-102.256,17.385],[-102.804,17.629],[-103.27,17.872],[-104.101,18.359],[-104.324,18.521],[-104.426,18.764],[-104.284,18.947],[-104.264,19.008],[-104.142,19.008],[-103.757,18.846],[-103.189,18.44],[-102.52,18.197],[-101.749,17.953],[-101.364,17.71],[-100.613,17.304],[-99.843,16.98],[-98.748,16.595],[-97.714,16.169],[-96.801,15.925],[-96.193,16.067],[-95.909,16.169],[-95.544,16.27],[-94.854,16.513],[-94.631,16.493],[-94.469,16.412],[-94.246,16.27],[-93.597,15.925]]]}},{"type":"Feature","properties":{"density":1},"geometry":{"type":"Polygon","coordinates":[[[-80.901,26.746],[-80.977,26.883],[-81.04,27.093],[-81.054,27.181],[-81.054,27.446],[-81.019,27.523],[-80.95,27.569],[-80.89,27.58],[-80.83,27.574],[-80.776,27.542],[-80.751,27.506],[-80.677,27.291],[-80.503,26.933],[-80.494,26.887],[-80.508,26.827],[-80.533,26.799],[-80.675,26.807],[-80.74,26.753],[-80.787,26.617],[-80.805,26.608],[-80.841,26.627],[-80.871,26.671],[-80.901,26.746]]]}},{"type":"Feature","properties":{"density":1},"geometry":{"type":"Polygon","coordinates":[[[-82.782,22.963],[-82.973,23.263],[-83.09,23.579],[-83.448,23.946],[-83.89,24.096],[-84.256,24.104],[-84.614,24.187],[-84.989,24.371],[-85.123,24.579],[-85.281,24.937],[-85.281,25.27],[-84.939,26.17],[-84.756,26.453],[-84.381,27.495],[-84.165,27.594],[-83.923,27.611],[-83.756,27.561],[-83.673,27.461],[-83.648,27.328],[-83.656,27.12],[-83.756,26.786],[-83.79,26.453],[-83.79,25.345],[-83.723,25.029],[-83.49,24.812],[-83.223,24.696],[-82.89,24.479],[-82.557,24.221],[-82.415,24.029],[-82.224,23.704],[-81.824,23.321],[-81.616,23.188],[-81.624,23.105],[-81.724,23.13],[-82.19,23.396],[-82.415,23.596],[-82.557,23.696],[-82.69,23.721],[-82.757,23.654],[-82.774,23.363],[-82.732,23.196],[-82.724,23.03],[-82.732,22.963],[-82.757,22.921],[-82.782,22.963]]]}},{"type":"Feature","properties":{"density":1},"geometry":{"type":"Polygon","coordinates":[[[-92.805,18.151],[-92.72,18.271],[-92.72,18.326],[-92.758,18.343],[-92.788,18.335],[-92.822,18.258],[-92.822,18.134],[-92.805,18.151]]]}},{"type":"Feature","properties":{"density":1},"geometry":{"type":"Polygon","coordinates":[[[-96.14,18.523],[-96.285,18.557],[-96.311,18.535],[-96.298,18.467],[-96.26,18.424],[-96.2,18.437],[-96.14,18.497],[-96.14,18.523]]]}},{"type":"Feature","properties":{"density":1},"geometry":{"type":"Polygon","coordinates":[[[-96.063,18.134],[-96.17,18.139],[-96.213,18.173],[-96.191,18.181],[-96.046,18.147],[-96.063,18.134]]]}},{"type":"Feature","properties":{"density":1},"geometry":{"type":"Polygon","coordinates":[[[-80.3,27.154],[-80.091,27.779],[-79.862,28.237],[-79.519,28.862],[-79.352,29.226],[-79.321,29.518],[-79.363,29.643],[-79.602,29.778],[-79.789,29.83],[-80.133,29.83],[-80.373,29.716],[-80.56,29.549],[-80.716,29.299],[-81.112,28.57],[-81.164,28.102],[-81.133,27.81],[-80.987,27.571],[-80.831,27.362],[-80.727,27.269],[-80.393,27.123],[-80.3,27.154]]]}},{"type":"Feature","properties":{"density":1},"geometry":{"type":"Polygon","coordinates":[[[-81.237,22.675],[-81.095,22.783],[-81.028,22.867],[-80.879,23.158],[-80.879,23.433],[-80.912,23.541],[-80.978,23.65],[-81.045,23.683],[-81.128,23.7],[-81.203,23.658],[-81.262,23.541],[-81.278,23.458],[-81.245,23.125],[-81.295,22.9],[-81.278,22.733],[-81.237,22.675]]]}},{"type":"Feature","properties":{"density":1},"geometry":{"type":"Polygon","coordinates":[[[-81.995,22.975],[-82.061,23.258],[-82.103,23.566],[-82.353,24.266],[-82.844,25.191],[-83.253,26.115],[-83.403,26.324],[-83.536,26.59],[-83.602,27.015],[-83.552,27.731],[-83.428,28.123],[-83.436,28.456],[-83.619,28.681],[-83.869,28.714],[-83.961,28.581],[-84.161,28.173],[-84.319,27.731],[-84.402,27.39],[-84.452,26.89],[-84.452,26.549],[-84.327,26.207],[-84.177,25.965],[-83.927,25.474],[-83.802,25.316],[-83.661,25.207],[-83.519,25.032],[-83.469,24.874],[-83.461,24.733],[-83.403,24.483],[-83.336,23.991],[-83.128,23.375],[-82.894,22.825],[-82.844,22.758],[-82.828,22.758],[-82.828,22.825],[-82.769,22.958],[-82.703,22.933],[-82.653,22.867],[-82.561,22.8],[-82.503,22.783],[-82.428,22.717],[-82.361,22.725],[-82.353,22.758],[-82.145,22.758],[-82.061,22.733],[-82.028,22.875],[-81.995,22.975]]]}},{"type":"Feature","properties":{"density":1},"geometry":{"type":"Polygon","coordinates":[[[-80.52,22.717],[-80.295,22.933],[-80.212,23.083],[-80.162,23.267],[-80.162,23.458],[-80.254,23.508],[-80.487,23.325],[-80.587,23.167],[-80.629,23.025],[-80.629,22.833],[-80.587,22.708],[-80.52,22.717]]]}},{"type":"Feature","properties":{"density":1},"geometry":{"type":"Polygon","coordinates":[[[-84.36,22.242],[-84.477,22.4],[-84.594,22.683],[-84.744,23.125],[-84.794,23.6],[-84.785,23.816],[-84.727,23.891],[-84.669,23.908],[-84.594,23.891],[-84.527,23.766],[-84.469,23.633],[-84.302,23.108],[-84.277,22.758],[-84.311,22.517],[-84.319,22.3],[-84.36,22.242]]]}},{"type":"Feature","properties":{"density":1},"geometry":{"type":"Polygon","coordinates":[[[-88.602,17.711],[-88.696,17.736],[-88.884,17.86],[-88.909,17.898],[-88.909,17.928],[-88.858,17.933],[-88.781,17.903],[-88.602,17.741],[-88.602,17.711]]]}},{"type":"Feature","properties":{"density":1},"geometry":{"type":"Polygon","coordinates":[[[-91.916,17.984],[-92.142,17.979],[-92.181,18.001],[-92.181,18.026],[-92.159,18.048],[-92.061,18.048],[-91.912,17.992],[-91.916,17.984]]]}},{"type":"Feature","properties":{"density":1},"geometry":{"type":"Polygon","coordinates":[[[-92.509,17.877],[-92.586,17.86],[-93.029,17.873],[-93.285,17.962],[-93.332,18.137],[-93.29,18.252],[-93.255,18.287],[-93.119,18.329],[-93.051,18.321],[-92.953,18.282],[-92.846,18.082],[-92.671,17.958],[-92.492,17.894],[-92.509,17.877]]]}},{"type":"Feature","properties":{"density":1},"geometry":{"type":"Polygon","coordinates":[[[-92.906,17.749],[-92.816,17.86],[-92.756,18.001],[-92.756,18.06],[-92.782,18.082],[-92.816,18.078],[-92.846,18.018],[-92.931,17.758],[-92.906,17.749]]]}},{"type":"Feature","properties":{"density":1},"geometry":{"type":"Polygon","coordinates":[[[-95.836,17.534],[-96.648,18.091],[-97.079,19.004],[-97.18,19.511],[-97.053,20.195],[-97.079,20.221],[-97.459,20.221],[-97.839,20.449],[-97.94,20.702],[-97.991,21.159],[-98.016,21.919],[-97.484,22.68],[-95.735,24.099],[-91.578,27.648],[-89.601,29.143],[-88.866,29.321],[-88.232,28.941],[-88.029,28.738],[-87.928,28.332],[-87.928,27.775],[-88.131,27.014],[-88.663,26.051],[-89.956,24.631],[-91.553,22.958],[-92.49,21.311],[-92.49,20.677],[-92.161,20.119],[-91.933,19.587],[-92.085,19.486],[-92.161,19.486],[-92.389,19.612],[-92.617,19.942],[-92.997,20.145],[-93.2,20.018],[-93.352,19.511],[-93.302,19.105],[-93.479,18.675],[-93.809,18.32],[-94.011,17.99],[-94.493,17.635],[-94.949,17.483],[-95.203,17.432],[-95.532,17.407],[-95.836,17.534]]]}},{"type":"Feature","properties":{"density":1},"geometry":{"type":"Polygon","coordinates":[[[-89.271,13.478],[-90.006,13.579],[-90.919,13.478],[-91.958,12.794],[-92.617,12.084],[-93.352,10.994],[-93.707,10.31],[-94.341,9.929],[-95.025,9.777],[-95.735,9.727],[-96.369,10.107],[-96.394,10.512],[-96.293,10.918],[-96.065,11.349],[-95.253,12.185],[-94.417,12.996],[-94.087,13.478],[-93.758,14.163],[-94.011,14.948],[-93.935,15.227],[-93.682,15.405],[-93.302,15.481],[-92.997,15.481],[-92.719,15.379],[-92.085,15.1],[-91.603,14.746],[-91.071,14.593],[-90.488,14.34],[-89.905,14.036],[-89.499,13.934],[-89.221,13.656],[-89.221,13.529],[-89.271,13.478]]]}},{"type":"Feature","properties":{"density":1},"geometry":{"type":"Polygon","coordinates":[[[-80.389,29.664],[-80.53,29.365],[-80.713,28.775],[-80.646,28.426],[-80.505,28.185],[-80.223,27.986],[-80.023,27.978],[-79.89,28.127],[-79.691,28.468],[-79.575,28.742],[-79.351,29.365],[-79.176,29.739],[-79.168,29.871],[-79.218,29.938],[-79.359,29.988],[-79.691,29.996],[-79.982,29.896],[-80.289,29.714],[-80.389,29.664]]]}},{"type":"Feature","properties":{"density":1},"geometry":{"type":"Polygon","coordinates":[[[-84.393,22.265],[-84.56,22.971],[-84.726,23.918],[-84.668,24.242],[-84.543,24.333],[-84.452,24.316],[-84.36,24.15],[-84.302,24.001],[-84.227,23.361],[-84.294,22.431],[-84.36,22.24],[-84.393,22.265]]]}},{"type":"Feature","properties":{"density":1},"geometry":{"type":"Polygon","coordinates":[[[-81.27,22.638],[-81.337,22.796],[-81.328,23.054],[-81.27,23.128],[-81.204,23.037],[-81.179,22.971],[-81.162,22.846],[-81.237,22.647],[-81.27,22.638]]]}},{"type":"Feature","properties":{"density":1},"geometry":{"type":"Polygon","coordinates":[[[-80.498,22.688],[-80.207,23.145],[-79.991,23.66],[-79.999,23.702],[-80.049,23.785],[-80.24,23.619],[-80.406,23.403],[-80.531,23.336],[-80.639,23.328],[-80.697,23.411],[-80.689,23.627],[-80.647,23.735],[-80.556,23.851],[-80.49,24.001],[-80.473,24.208],[-80.506,24.374],[-80.606,24.499],[-80.772,24.457],[-80.963,24.333],[-81.096,24.308],[-81.204,24.416],[-81.22,24.815],[-81.337,24.948],[-82.458,25.487],[-82.832,25.811],[-83.031,26.368],[-83.28,26.592],[-83.554,26.659],[-83.729,26.642],[-84.011,26.559],[-84.202,26.277],[-84.236,26.085],[-84.219,26.002],[-84.161,25.903],[-83.729,25.487],[-83.596,25.305],[-83.505,24.723],[-83.172,22.987],[-83.064,22.829],[-82.94,22.755],[-82.724,22.73],[-82.317,22.746],[-81.735,22.68],[-81.387,22.68],[-81.237,22.697],[-81.063,22.746],[-80.905,22.738],[-80.797,22.697],[-80.622,22.663],[-80.498,22.688]]]}},{"type":"Feature","properties":{"density":1},"geometry":{"type":"Polygon","coordinates":[[[-82.433,22.979],[-82.433,23.195],[-82.483,23.652],[-82.608,24.009],[-82.657,23.909],[-82.724,23.635],[-82.732,23.394],[-82.608,23.004],[-82.541,22.937],[-82.475,22.904],[-82.433,22.979]]]}},{"type":"Feature","properties":{"density":1},"geometry":{"type":"Polygon","coordinates":[[[-82.649,22.805],[-82.79,23.128],[-82.732,23.12],[-82.682,23.062],[-82.666,22.954],[-82.616,22.829],[-82.649,22.805]]]}},{"type":"Feature","properties":{"density":1},"geometry":{"type":"Polygon","coordinates":[[[-81.461,22.73],[-81.445,22.838],[-81.453,22.929],[-81.503,22.996],[-81.561,22.937],[-81.553,22.846],[-81.486,22.721],[-81.461,22.73]]]}},{"type":"Feature","properties":{"density":1},"geometry":{"type":"Polygon","coordinates":[[[-88.581,17.775],[-88.987,18.054],[-89.06,18.074],[-89.126,18.028],[-89.14,17.988],[-89.133,17.948],[-89.066,17.901],[-88.654,17.742],[-88.608,17.742],[-88.581,17.775]]]}},{"type":"Feature","properties":{"density":1},"geometry":{"type":"Polygon","coordinates":[[[-91.907,17.962],[-92.226,17.975],[-92.281,17.992],[-92.371,18.06],[-92.379,18.094],[-91.89,17.996],[-91.907,17.962]]]}},{"type":"Feature","properties":{"density":1},"geometry":{"type":"Polygon","coordinates":[[[-92.086,18.23],[-92.396,18.366],[-92.396,18.332],[-92.234,18.234],[-92.107,18.213],[-92.086,18.23]]]}},{"type":"Feature","properties":{"density":1},"geometry":{"type":"Polygon","coordinates":[[[-92.481,17.881],[-92.792,17.813],[-93.004,17.839],[-93.149,17.881],[-93.247,17.992],[-93.293,18.183],[-93.323,18.357],[-93.289,18.476],[-93.17,18.476],[-93.064,18.451],[-93.021,18.413],[-92.881,18.034],[-92.809,17.975],[-92.49,17.898],[-92.481,17.881]]]}},{"type":"Feature","properties":{"density":1},"geometry":{"type":"Polygon","coordinates":[[[-92.919,17.754],[-93.021,17.707],[-93.162,17.694],[-93.136,17.724],[-92.932,17.762],[-92.919,17.754]]]}},{"type":"Feature","properties":{"density":1},"geometry":{"type":"Polygon","coordinates":[[[-92.745,17.813],[-92.902,17.736],[-92.928,17.758],[-92.762,17.83],[-92.745,17.813]]]}},{"type":"Feature","properties":{"density":1},"geometry":{"type":"Polygon","coordinates":[[[-93.191,18.413],[-93.085,18.425],[-92.945,18.502],[-92.685,18.723],[-92.685,18.795],[-92.766,18.932],[-92.821,18.944],[-92.932,18.885],[-93.03,18.698],[-93.145,18.519],[-93.225,18.425],[-93.191,18.413]]]}},{"type":"Feature","properties":{"density":1},"geometry":{"type":"Polygon","coordinates":[[[-95.825,17.982],[-95.815,17.887],[-95.86,17.707],[-95.877,17.676],[-95.924,17.669],[-95.938,17.724],[-95.846,17.982],[-95.825,17.982]]]}},{"type":"Feature","properties":{"density":1},"geometry":{"type":"Polygon","coordinates":[[[-95.992,18.197],[-96.023,18.026],[-96.081,18.057],[-96.081,18.095],[-96.016,18.186],[-95.992,18.197]]]}}]}