{"type":"FeatureCollection","features":[{"type":"Feature","properties":{"density":1},"geometry":{"type":"Polygon","coordinates":[[[-87.901,61.627],[-90.475,60.968],[-92.421,60.528],[-93.771,60.058],[-95.372,59.555],[-96.941,59.21],[-98.197,59.053],[-99.201,58.865],[-100.237,58.425],[-101.304,58.049],[-102.089,57.484],[-103.596,56.479],[-104.067,55.852],[-104.318,55.287],[-104.443,54.282],[-104.255,53.78],[-103.941,53.121],[-103.125,52.336],[-102.215,51.928],[-100.771,51.3],[-99.484,50.767],[-97.067,50.264],[-94.368,48.946],[-90.978,46.655],[-88.027,44.991],[-85.547,43.955],[-84.103,43.265],[-81.812,42.417],[-80.902,42.04],[-80.462,41.946],[-79.489,42.072],[-78.642,42.417],[-78.014,43.265],[-77.888,44.3],[-78.296,45.242],[-78.924,46.09],[-79.772,46.874],[-80.368,47.471],[-80.368,48.255],[-79.018,49.542],[-78.014,50.013],[-75.942,50.798],[-74.436,51.237],[-73.431,51.677],[-72.584,52.367],[-71.359,53.654],[-70.857,55.13],[-71.108,56.385],[-71.516,57.578],[-71.987,58.268],[-72.709,59.116],[-73.651,59.807],[-74.812,60.434],[-76.068,60.937],[-77.323,61.313],[-78.579,61.596],[-80.054,61.878],[-81.655,62.067],[-82.911,62.129],[-85.108,62.129],[-87.054,61.784],[-87.901,61.627]]]}},{"type":"Feature","properties":{"density":1},"geometry":{"type":"Polygon","coordinates":[[[-95.207,37.706],[-94.886,37.496],[-94.133,37.078],[-93.798,36.771],[-93.673,36.52],[-93.686,36.255],[-93.84,35.948],[-94.161,35.585],[-94.454,35.195],[-94.691,34.665],[-94.83,34.106],[-94.858,33.479],[-94.607,32.823],[-94.412,32.46],[-94.147,32.098],[-93.686,31.651],[-93.059,31.302],[-92.389,31.107],[-91.468,30.758],[-90.841,30.619],[-90.171,30.493],[-89.641,30.34],[-89.097,30.089],[-88.497,29.935],[-88.009,29.879],[-87.716,29.893],[-87.465,30.158],[-87.381,30.507],[-87.381,30.716],[-87.562,31.037],[-87.757,31.316],[-88.009,31.54],[-88.385,32.028],[-88.483,32.377],[-88.511,32.725],[-88.469,33.13],[-88.371,33.688],[-88.385,34.302],[-88.525,34.609],[-88.832,35.041],[-89.501,35.85],[-90.422,36.59],[-90.827,36.799],[-91.315,37.148],[-91.831,37.566],[-92.208,37.901],[-92.668,38.25],[-93.198,38.585],[-93.575,38.724],[-93.91,38.822],[-94.258,38.864],[-94.593,38.864],[-95.109,38.78],[-95.333,38.682],[-95.584,38.515],[-95.667,38.306],[-95.667,38.166],[-95.556,37.957],[-95.416,37.873],[-95.207,37.706]]]}},{"type":"Feature","properties":{"density":1},"geometry":{"type":"Polygon","coordinates":[[[-104.135,35.008],[-104.16,35.218],[-104.123,35.624],[-104.098,35.714],[-104.044,36.111],[-104.048,36.244],[-104.127,36.277],[-104.238,36.21],[-104.321,36.082],[-104.379,35.925],[-104.59,35.119],[-104.681,34.64],[-104.842,34.367],[-104.912,34.173],[-105.015,34.024],[-105.284,33.821],[-105.387,33.763],[-105.458,33.689],[-105.495,33.619],[-105.491,33.569],[-105.449,33.515],[-105.358,33.453],[-105.02,33.425],[-104.904,33.466],[-104.817,33.524],[-104.532,33.776],[-104.271,34.185],[-104.143,34.516],[-104.118,34.925],[-104.135,35.008]]]}},{"type":"Feature","properties":{"density":1},"geometry":{"type":"Polygon","coordinates":[[[-108.743,28.001],[-108.657,27.796],[-108.582,27.697],[-108.52,27.678],[-108.471,27.703],[-108.44,27.784],[-108.427,27.883],[-108.533,28.224],[-108.576,28.329],[-108.768,28.59],[-108.886,28.782],[-108.886,28.838],[-108.849,28.912],[-108.613,29.092],[-108.564,29.191],[-108.526,29.34],[-108.526,29.538],[-108.557,29.786],[-108.626,29.96],[-108.756,30.059],[-109.27,30.22],[-109.456,30.326],[-109.531,30.413],[-109.698,30.524],[-110.058,30.878],[-110.188,30.871],[-110.306,30.791],[-110.343,30.747],[-110.356,30.661],[-110.411,30.499],[-110.455,30.146],[-110.387,29.954],[-110.244,29.786],[-110.027,29.631],[-109.81,29.625],[-109.463,29.576],[-109.19,29.563],[-109.04,29.496],[-109.022,29.408],[-109.097,29.321],[-109.308,29.272],[-109.388,29.036],[-109.357,28.801],[-109.289,28.677],[-109.06,28.404],[-108.948,28.298],[-108.812,28.112],[-108.743,28.001]]]}},{"type":"Feature","properties":{"density":1},"geometry":{"type":"Polygon","coordinates":[[[-105.25,23.344],[-105.808,23.539],[-106.213,23.86],[-106.436,24.279],[-106.576,24.823],[-106.617,25.074],[-106.617,25.381],[-106.52,25.799],[-106.52,26.26],[-106.757,26.566],[-107.189,26.845],[-107.636,27.18],[-107.929,27.431],[-108.152,27.682],[-108.696,27.738],[-109.031,27.71],[-109.226,27.669],[-109.519,27.487],[-109.714,27.18],[-109.784,26.79],[-109.714,26.399],[-109.547,26.008],[-109.38,25.799],[-108.333,24.16],[-108.459,23.846],[-108.773,23.218],[-109.087,22.674],[-109.526,22.13],[-109.924,21.753],[-110.593,21.188],[-110.949,20.498],[-110.928,19.996],[-110.782,19.682],[-110.51,19.473],[-110.091,19.431],[-109.693,19.117],[-109.631,18.803],[-109.756,18.238],[-110.447,17.401],[-110.823,16.564],[-110.949,15.769],[-110.719,14.534],[-110.238,14.241],[-109.066,13.676],[-106.303,13.383],[-104.504,13.76],[-103.395,14.262],[-102.181,14.471],[-101.344,14.492],[-100.319,14.68],[-99.419,14.932],[-98.603,15.287],[-97.787,15.706],[-97.284,15.999],[-97.305,16.375],[-97.828,16.585],[-98.477,16.71],[-99.44,16.961],[-100.465,17.338],[-102.035,18.07],[-102.348,18.405],[-102.6,19.012],[-102.704,20.142],[-102.851,20.665],[-103.227,21.23],[-103.855,21.963],[-104.357,22.695],[-104.755,23.135],[-105.25,23.344]]]}},{"type":"Feature","properties":{"density":1},"geometry":{"type":"Polygon","coordinates":[[[-99.033,25.313],[-99.724,24.402],[-99.85,24.151],[-99.944,23.869],[-99.944,23.147],[-99.881,22.739],[-99.63,22.205],[-99.253,21.577],[-98.751,20.95],[-98.343,20.604],[-98.029,20.259],[-97.684,19.82],[-97.056,19.725],[-96.365,19.945],[-95.957,20.855],[-96.052,21.577],[-96.365,22.393],[-96.554,23.21],[-96.554,24.434],[-96.271,25.218],[-95.769,26.129],[-95.173,26.976],[-94.576,27.698],[-94.262,28.169],[-94.043,28.985],[-94.294,29.456],[-94.545,29.613],[-94.89,29.707],[-95.298,29.644],[-95.863,29.299],[-97.809,28.389],[-99.033,27.73],[-99.222,27.541],[-99.347,26.913],[-99.285,26.348],[-99.159,26.066],[-99.002,25.94],[-98.971,25.532],[-99.033,25.313]]]}},{"type":"Feature","properties":{"density":1},"geometry":{"type":"Polygon","coordinates":[[[-119.639,35.939],[-119.661,36.027],[-119.742,36.171],[-119.797,36.251],[-119.854,36.268],[-119.874,36.233],[-119.727,36.011],[-119.659,35.834],[-119.617,35.816],[-119.595,35.856],[-119.632,35.917],[-119.639,35.939]]]}},{"type":"Feature","properties":{"density":1},"geometry":{"type":"Polygon","coordinates":[[[-94.619,53.316],[-94.89,53.348],[-95.273,53.421],[-95.432,53.473],[-95.496,53.529],[-95.494,53.554],[-95.476,53.581],[-95.406,53.606],[-95.224,53.606],[-95.053,53.537],[-94.707,53.435],[-94.587,53.371],[-94.583,53.332],[-94.61,53.315],[-94.619,53.316]]]}},{"type":"Feature","properties":{"density":1},"geometry":{"type":"Polygon","coordinates":[[[-93.077,52.035],[-93.835,52.212],[-93.867,52.242],[-93.87,52.284],[-93.844,52.311],[-93.786,52.331],[-93.664,52.322],[-93.058,52.165],[-93.006,52.127],[-92.998,52.074],[-93.009,52.042],[-93.071,52.031],[-93.077,52.035]]]}},{"type":"Feature","properties":{"density":1},"geometry":{"type":"Polygon","coordinates":[[[-91.521,51.689],[-92.133,51.786],[-92.209,51.81],[-92.299,51.863],[-92.342,51.932],[-92.309,51.972],[-92.264,51.972],[-92.047,51.901],[-91.631,51.825],[-91.517,51.782],[-91.461,51.744],[-91.458,51.705],[-91.501,51.687],[-91.521,51.689]]]}},{"type":"Feature","properties":{"density":1},"geometry":{"type":"Polygon","coordinates":[[[-100.416,55.367],[-100.651,55.454],[-100.786,55.608],[-100.802,55.635],[-100.796,55.663],[-100.741,55.658],[-100.651,55.606],[-100.407,55.427],[-100.391,55.379],[-100.412,55.366],[-100.416,55.367]]]}},{"type":"Feature","properties":{"density":1},"geometry":{"type":"Polygon","coordinates":[[[-107.219,26.218],[-107.207,26.252],[-107.174,26.279],[-107.075,26.272],[-107.087,26.233],[-107.131,26.205],[-107.205,26.196],[-107.22,26.216],[-107.219,26.218]]]}},{"type":"Feature","properties":{"density":1},"geometry":{"type":"Polygon","coordinates":[[[-106.902,26.337],[-106.752,26.46],[-106.655,26.499],[-106.614,26.478],[-106.632,26.429],[-106.675,26.379],[-106.824,26.274],[-106.888,26.273],[-106.906,26.327],[-106.902,26.337]]]}},{"type":"Feature","properties":{"density":1},"geometry":{"type":"Polygon","coordinates":[[[-109.024,28.739],[-109.094,28.768],[-109.225,28.782],[-109.287,28.839],[-109.302,28.938],[-109.278,29.001],[-109.237,29.045],[-109.184,29.068],[-109.123,29.072],[-109.042,29.013],[-108.99,28.92],[-108.974,28.831],[-108.99,28.765],[-109.023,28.738],[-109.024,28.739]]]}},{"type":"Feature","properties":{"density":1},"geometry":{"type":"Polygon","coordinates":[[[-108.567,27.784],[-108.672,28.03],[-108.677,28.08],[-108.665,28.101],[-108.631,28.113],[-108.557,28.072],[-108.51,27.989],[-108.5,27.813],[-108.521,27.764],[-108.565,27.781],[-108.567,27.784]]]}},{"type":"Feature","properties":{"density":1},"geometry":{"type":"Polygon","coordinates":[[[-107.952,26.408],[-108.03,26.506],[-108.204,26.651],[-108.207,26.71],[-108.169,26.729],[-108.076,26.704],[-107.843,26.514],[-107.824,26.437],[-107.835,26.397],[-107.95,26.407],[-107.952,26.408]]]}},{"type":"Feature","properties":{"density":1},"geometry":{"type":"Polygon","coordinates":[[[-107.102,25.792],[-107.045,25.812],[-107.005,25.801],[-107.086,25.615],[-107.123,25.583],[-107.161,25.596],[-107.18,25.634],[-107.166,25.718],[-107.129,25.78],[-107.102,25.792]]]}},{"type":"Feature","properties":{"density":1},"geometry":{"type":"Polygon","coordinates":[[[-104.343,22.132],[-104.43,22.154],[-104.449,22.136],[-104.45,22.102],[-104.414,22.068],[-104.357,22.067],[-104.327,22.083],[-104.338,22.129],[-104.343,22.132]]]}},{"type":"Feature","properties":{"density":1},"geometry":{"type":"Polygon","coordinates":[[[-95.75,16.77],[-95.794,16.795],[-95.793,16.829],[-95.763,16.832],[-95.742,16.813],[-95.735,16.781],[-95.747,16.77],[-95.75,16.77]]]}},{"type":"Feature","properties":{"density":1},"geometry":{"type":"Polygon","coordinates":[[[-105.408,33.607],[-105.308,33.773],[-105.244,33.844],[-105.077,33.955],[-105.017,33.973],[-104.961,33.969],[-104.943,33.93],[-104.993,33.801],[-105.1,33.658],[-105.161,33.602],[-105.256,33.548],[-105.344,33.543],[-105.395,33.567],[-105.41,33.603],[-105.408,33.607]]]}},{"type":"Feature","properties":{"density":1},"geometry":{"type":"Polygon","coordinates":[[[-119.823,36.284],[-119.657,36.141],[-119.509,36.041],[-119.404,35.933],[-119.365,35.882],[-119.322,35.775],[-119.324,35.705],[-119.343,35.677],[-119.378,35.666],[-119.479,35.71],[-119.68,35.857],[-119.751,35.931],[-119.812,36.063],[-119.835,36.161],[-119.845,36.256],[-119.826,36.284],[-119.823,36.284]]]}},{"type":"Feature","properties":{"density":1},"geometry":{"type":"Polygon","coordinates":[[[-118.69,37.565],[-118.708,37.596],[-118.701,37.615],[-118.655,37.611],[-118.659,37.573],[-118.688,37.563],[-118.69,37.565]]]}},{"type":"Feature","properties":{"density":1},"geometry":{"type":"Polygon","coordinates":[[[-112.144,34.571],[-112.093,34.62],[-112.005,34.665],[-111.948,34.683],[-111.911,34.674],[-111.901,34.623],[-111.973,34.539],[-112.032,34.5],[-112.114,34.509],[-112.138,34.525],[-112.147,34.562],[-112.144,34.571]]]}},{"type":"Feature","properties":{"density":1},"geometry":{"type":"Polygon","coordinates":[[[-98.791,58.512],[-98.842,58.584],[-98.825,58.726],[-98.77,58.859],[-98.748,58.88],[-98.686,58.882],[-98.66,58.834],[-98.685,58.686],[-98.748,58.527],[-98.786,58.511],[-98.791,58.512]]]}},{"type":"Feature","properties":{"density":1},"geometry":{"type":"Polygon","coordinates":[[[-93.052,52.2],[-93.001,52.175],[-92.977,52.124],[-92.986,52.071],[-93.046,52.014],[-93.383,51.859],[-93.558,51.853],[-93.602,51.866],[-93.648,51.919],[-93.685,52.085],[-93.725,52.144],[-93.82,52.186],[-94.059,52.226],[-94.281,52.295],[-94.377,52.336],[-94.422,52.383],[-94.424,52.431],[-94.401,52.464],[-94.34,52.482],[-94.154,52.48],[-93.942,52.455],[-93.651,52.406],[-93.468,52.337],[-93.206,52.268],[-93.058,52.204],[-93.052,52.2]]]}},{"type":"Feature","properties":{"density":1},"geometry":{"type":"Polygon","coordinates":[[[-94.605,53.309],[-94.673,53.31],[-94.914,53.366],[-95.142,53.392],[-95.353,53.437],[-95.525,53.499],[-95.561,53.526],[-95.586,53.587],[-95.55,53.645],[-95.447,53.677],[-95.39,53.68],[-95.186,53.629],[-94.747,53.476],[-94.58,53.369],[-94.58,53.326],[-94.601,53.309],[-94.605,53.309]]]}},{"type":"Feature","properties":{"density":1},"geometry":{"type":"Polygon","coordinates":[[[-96.052,53.871],[-96.14,53.891],[-96.256,53.963],[-96.35,54.05],[-96.351,54.105],[-96.284,54.129],[-96.206,54.105],[-96.027,53.904],[-96.027,53.876],[-96.048,53.87],[-96.052,53.871]]]}},{"type":"Feature","properties":{"density":1},"geometry":{"type":"Polygon","coordinates":[[[-91.503,51.679],[-91.713,51.737],[-91.981,51.785],[-92.298,51.877],[-92.444,51.93],[-92.476,51.964],[-92.472,52.003],[-92.446,52.037],[-92.347,52.081],[-92.198,52.095],[-92.106,52.08],[-91.709,51.948],[-91.613,51.902],[-91.512,51.828],[-91.469,51.771],[-91.454,51.696],[-91.496,51.679],[-91.503,51.679]]]}},{"type":"Feature","properties":{"density":1},"geometry":{"type":"Polygon","coordinates":[[[-97.219,58.693],[-97.275,58.836],[-97.271,59.06],[-97.194,59.301],[-97.12,59.453],[-97.074,59.521],[-96.942,59.652],[-96.863,59.696],[-96.782,59.711],[-96.622,59.7],[-96.576,59.654],[-96.5,59.461],[-96.412,59.377],[-96.385,59.323],[-96.387,59.28],[-96.413,59.247],[-96.553,59.166],[-96.694,59.041],[-96.829,58.874],[-96.988,58.617],[-97.017,58.604],[-97.066,58.612],[-97.214,58.687],[-97.219,58.693]]]}},{"type":"Feature","properties":{"density":1},"geometry":{"type":"Polygon","coordinates":[[[-98.808,58.505],[-98.844,58.599],[-98.858,58.72],[-98.851,58.844],[-98.709,59.031],[-98.585,59.104],[-98.513,59.101],[-98.482,59.082],[-98.454,59.02],[-98.489,58.897],[-98.547,58.793],[-98.696,58.608],[-98.751,58.5],[-98.773,58.49],[-98.805,58.502],[-98.808,58.505]]]}},{"type":"Feature","properties":{"density":1},"geometry":{"type":"Polygon","coordinates":[[[-100.426,55.357],[-100.648,55.438],[-101.082,55.552],[-101.581,55.81],[-101.752,55.963],[-101.805,56.073],[-101.798,56.135],[-101.717,56.201],[-101.53,56.218],[-101.442,56.201],[-101.175,56.098],[-100.924,55.972],[-100.718,55.836],[-100.468,55.603],[-100.366,55.43],[-100.373,55.367],[-100.419,55.354],[-100.426,55.357]]]}},{"type":"Feature","properties":{"density":1},"geometry":{"type":"Polygon","coordinates":[[[-88.168,45.903],[-88.348,45.914],[-88.386,45.887],[-88.396,45.847],[-88.381,45.828],[-88.193,45.832],[-88.15,45.855],[-88.165,45.901],[-88.168,45.903]]]}},{"type":"Feature","properties":{"density":1},"geometry":{"type":"Polygon","coordinates":[[[-105.426,33.6],[-105.426,33.762],[-105.356,33.948],[-105.159,34.214],[-105.073,34.262],[-104.933,34.269],[-104.746,34.183],[-104.649,34.109],[-104.503,33.851],[-104.497,33.761],[-104.512,33.686],[-104.561,33.624],[-105.063,33.653],[-105.3,33.542],[-105.356,33.535],[-105.405,33.555],[-105.425,33.594],[-105.426,33.6]]]}},{"type":"Feature","properties":{"density":1},"geometry":{"type":"Polygon","coordinates":[[[-112.087,34.487],[-112.125,34.523],[-112.23,34.745],[-112.25,34.899],[-112.226,34.954],[-112.177,35.024],[-112.011,35.094],[-111.863,35.108],[-111.718,35.066],[-111.62,34.969],[-111.593,34.901],[-111.607,34.803],[-111.659,34.708],[-111.91,34.535],[-112.079,34.485],[-112.087,34.487]]]}},{"type":"Feature","properties":{"density":1},"geometry":{"type":"Polygon","coordinates":[[[-118.652,37.561],[-118.654,37.634],[-118.754,37.723],[-118.824,37.747],[-118.889,37.745],[-118.938,37.724],[-118.987,37.654],[-118.982,37.62],[-118.91,37.57],[-118.739,37.542],[-118.656,37.554],[-118.652,37.561]]]}},{"type":"Feature","properties":{"density":1},"geometry":{"type":"Polygon","coordinates":[[[-121.247,35.97],[-121.207,36.022],[-121.169,36.044],[-121.108,36.049],[-121.07,36.02],[-121.068,35.973],[-121.089,35.917],[-121.161,35.871],[-121.202,35.867],[-121.243,35.886],[-121.262,35.927],[-121.252,35.962],[-121.247,35.97]]]}},{"type":"Feature","properties":{"density":1},"geometry":{"type":"Polygon","coordinates":[[[-119.809,36.281],[-119.494,36.074],[-119.302,35.909],[-119.222,35.789],[-119.209,35.69],[-119.269,35.666],[-119.444,35.685],[-119.597,35.749],[-119.719,35.854],[-119.766,35.912],[-119.843,36.092],[-119.86,36.244],[-119.839,36.273],[-119.815,36.278],[-119.809,36.281]]]}},{"type":"Feature","properties":{"density":1},"geometry":{"type":"Polygon","coordinates":[[[-120.026,35.364],[-120.221,35.352],[-120.258,35.336],[-120.27,35.31],[-120.216,35.28],[-120.063,35.29],[-120.022,35.32],[-120.024,35.361],[-120.026,35.364]]]}},{"type":"Feature","properties":{"density":1},"geometry":{"type":"Polygon","coordinates":[[[-109.035,28.731],[-109.231,28.749],[-109.339,28.798],[-109.365,28.826],[-109.37,28.878],[-109.34,28.964],[-109.245,29.03],[-109.152,29.046],[-109.035,29.041],[-108.925,29.006],[-108.872,28.93],[-108.884,28.856],[-108.949,28.763],[-109.024,28.728],[-109.035,28.731]]]}},{"type":"Feature","properties":{"density":1},"geometry":{"type":"Polygon","coordinates":[[[-107.238,26.252],[-106.992,26.383],[-106.838,26.435],[-106.63,26.486],[-106.555,26.488],[-106.519,26.468],[-106.539,26.393],[-106.577,26.351],[-106.664,26.302],[-107.199,26.19],[-107.242,26.196],[-107.247,26.233],[-107.238,26.252]]]}},{"type":"Feature","properties":{"density":1},"geometry":{"type":"Polygon","coordinates":[[[-104.332,22.116],[-104.416,22.141],[-104.552,22.096],[-104.599,22.04],[-104.586,21.954],[-104.551,21.936],[-104.514,21.956],[-104.437,22.022],[-104.345,22.066],[-104.329,22.109],[-104.332,22.116]]]}},{"type":"Feature","properties":{"density":1},"geometry":{"type":"Polygon","coordinates":[[[-103.45,19.525],[-103.485,19.589],[-103.49,19.631],[-103.489,19.655],[-103.451,19.669],[-103.43,19.664],[-103.392,19.613],[-103.383,19.551],[-103.391,19.518],[-103.447,19.521],[-103.45,19.525]]]}},{"type":"Feature","properties":{"density":1},"geometry":{"type":"Polygon","coordinates":[[[-94.93,18.286],[-94.831,18.311],[-94.721,18.303],[-94.605,18.264],[-94.47,18.248],[-93.996,18.256],[-93.635,18.413],[-93.5,18.451],[-93.288,18.468],[-93.15,18.446],[-92.938,18.361],[-92.786,18.256],[-92.599,18.17],[-92.43,18.046],[-92.293,17.881],[-92.239,17.753],[-92.21,17.55],[-92.235,17.426],[-92.396,17.327],[-92.549,17.257],[-92.839,17.154],[-93.0,17.079],[-93.351,16.992],[-93.488,16.98],[-93.62,17.005],[-93.885,17.116],[-94.352,17.348],[-94.706,17.59],[-95.034,17.99],[-95.061,18.133],[-95.036,18.21],[-94.962,18.265],[-94.93,18.286]]]}},{"type":"Feature","properties":{"density":1},"geometry":{"type":"Polygon","coordinates":[[[-89.455,15.535],[-89.48,15.62],[-89.446,15.646],[-89.424,15.623],[-89.421,15.584],[-89.428,15.533],[-89.452,15.533],[-89.455,15.535]]]}},{"type":"Feature","properties":{"density":1},"geometry":{"type":"Polygon","coordinates":[[[-95.571,53.153],[-95.633,53.156],[-95.857,53.218],[-95.99,53.275],[-96.063,53.342],[-96.077,53.425],[-96.06,53.448],[-96.029,53.453],[-95.938,53.441],[-95.649,53.311],[-95.545,53.222],[-95.533,53.187],[-95.559,53.155],[-95.571,53.153]]]}},{"type":"Feature","properties":{"density":1},"geometry":{"type":"Polygon","coordinates":[[[-97.834,22.298],[-97.77,22.39],[-97.634,22.391],[-97.521,22.345],[-97.449,22.294],[-97.415,22.242],[-97.42,22.178],[-97.455,22.118],[-97.503,22.1],[-97.678,22.068],[-97.749,22.073],[-97.795,22.107],[-97.833,22.172],[-97.839,22.285],[-97.834,22.298]]]}},{"type":"Feature","properties":{"density":1},"geometry":{"type":"Polygon","coordinates":[[[-81.802,47.789],[-81.893,47.695],[-82.299,47.414],[-82.578,47.274],[-82.927,47.127],[-82.971,47.07],[-82.991,46.976],[-82.988,46.894],[-82.927,46.846],[-82.721,46.826],[-82.394,46.965],[-81.981,47.302],[-81.72,47.612],[-81.654,47.724],[-81.647,47.77],[-81.669,47.816],[-81.69,47.827],[-81.737,47.832],[-81.768,47.815],[-81.802,47.789]]]}},{"type":"Feature","properties":{"density":1},"geometry":{"type":"Polygon","coordinates":[[[-91.566,52.315],[-91.67,52.37],[-91.83,52.396],[-91.909,52.396],[-92.013,52.424],[-92.361,52.442],[-92.53,52.504],[-92.774,52.543],[-93.125,52.561],[-93.433,52.602],[-93.77,52.69],[-94.212,52.749],[-94.979,52.817],[-95.269,52.894],[-95.493,52.888],[-95.598,52.818],[-95.601,52.773],[-95.55,52.688],[-95.238,52.504],[-95.192,52.457],[-95.153,52.321],[-95.136,52.102],[-95.063,51.972],[-94.903,51.924],[-94.391,51.984],[-94.141,52.067],[-93.92,52.104],[-93.834,52.113],[-93.749,52.098],[-93.718,52.071],[-93.732,52.005],[-93.803,51.844],[-93.994,51.498],[-93.997,51.441],[-93.974,51.363],[-93.896,51.325],[-93.797,51.316],[-93.501,51.409],[-93.024,51.639],[-92.892,51.746],[-92.686,52.041],[-92.649,52.06],[-92.601,52.06],[-92.329,51.959],[-92.256,51.902],[-91.813,51.711],[-91.572,51.654],[-91.416,51.662],[-91.363,51.699],[-91.367,51.881],[-91.434,52.16],[-91.478,52.238],[-91.549,52.307],[-91.566,52.315]]]}},{"type":"Feature","properties":{"density":1},"geometry":{"type":"Polygon","coordinates":[[[-89.893,50.173],[-90.31,50.276],[-90.632,50.398],[-90.688,50.427],[-90.75,50.51],[-90.745,50.594],[-90.711,50.644],[-90.653,50.679],[-90.513,50.715],[-90.157,50.734],[-89.896,50.695],[-89.797,50.66],[-89.51,50.429],[-89.466,50.381],[-89.455,50.307],[-89.523,50.274],[-89.661,50.271],[-89.828,50.181],[-89.88,50.174],[-89.893,50.173]]]}},{"type":"Feature","properties":{"density":1},"geometry":{"type":"Polygon","coordinates":[[[-96.244,52.897],[-96.338,52.939],[-96.74,53.049],[-96.927,53.12],[-97.241,53.322],[-97.36,53.424],[-97.608,53.539],[-97.76,53.707],[-97.878,53.991],[-97.906,54.256],[-97.903,54.427],[-97.85,54.581],[-97.743,54.691],[-97.575,54.709],[-97.373,54.677],[-97.174,54.687],[-96.853,54.739],[-96.529,54.73],[-96.39,54.702],[-96.051,54.551],[-95.764,54.363],[-95.64,54.259],[-95.235,54.011],[-95.109,53.98],[-94.817,53.87],[-94.615,53.701],[-94.529,53.587],[-94.501,53.497],[-94.516,53.345],[-94.59,53.302],[-94.974,53.246],[-95.183,53.295],[-95.373,53.369],[-95.471,53.375],[-95.528,53.357],[-95.541,53.334],[-95.514,53.209],[-95.541,53.148],[-95.574,53.135],[-95.678,53.126],[-95.921,53.197],[-96.063,53.221],[-96.089,53.18],[-96.074,52.994],[-96.092,52.943],[-96.156,52.901],[-96.239,52.896],[-96.244,52.897]]]}},{"type":"Feature","properties":{"density":1},"geometry":{"type":"Polygon","coordinates":[[[-100.183,57.947],[-100.228,57.967],[-100.311,58.066],[-100.456,58.448],[-100.474,58.532],[-100.46,58.759],[-100.388,58.94],[-100.342,59.019],[-100.289,59.069],[-100.166,59.119],[-99.969,59.135],[-99.918,59.124],[-99.852,59.084],[-99.833,59.027],[-99.843,58.964],[-99.876,58.867],[-99.949,58.759],[-100.11,58.439],[-100.151,58.263],[-100.16,58.135],[-100.134,57.965],[-100.148,57.947],[-100.175,57.945],[-100.183,57.947]]]}},{"type":"Feature","properties":{"density":1},"geometry":{"type":"Polygon","coordinates":[[[-99.092,58.61],[-99.14,58.927],[-99.138,59.087],[-99.101,59.197],[-99.033,59.319],[-98.899,59.515],[-98.763,59.671],[-98.659,59.721],[-98.488,59.768],[-98.298,59.754],[-97.975,59.685],[-97.791,59.605],[-97.735,59.547],[-97.73,59.492],[-97.777,59.377],[-98.023,59.182],[-98.1,59.09],[-98.469,58.79],[-98.526,58.726],[-98.602,58.599],[-98.708,58.491],[-98.774,58.473],[-98.857,58.504],[-98.877,58.541],[-98.901,58.717],[-98.936,58.699],[-99.006,58.583],[-99.046,58.572],[-99.085,58.598],[-99.092,58.61]]]}},{"type":"Feature","properties":{"density":1},"geometry":{"type":"Polygon","coordinates":[[[-124.112,53.389],[-124.161,53.409],[-124.241,53.41],[-124.329,53.371],[-124.472,53.256],[-124.486,53.227],[-124.48,53.18],[-124.421,53.165],[-124.383,53.181],[-124.262,53.276],[-124.109,53.339],[-124.107,53.385],[-124.112,53.389]]]}},{"type":"Feature","properties":{"density":1},"geometry":{"type":"Polygon","coordinates":[[[-88.495,46.013],[-88.353,45.997],[-88.21,45.959],[-88.03,45.867],[-87.991,45.832],[-87.92,45.699],[-87.83,45.602],[-87.779,45.514],[-87.654,45.389],[-87.534,45.02],[-87.533,44.906],[-87.549,44.801],[-87.646,44.495],[-87.748,44.391],[-87.896,44.36],[-87.957,44.393],[-87.996,44.468],[-88.009,44.647],[-87.982,44.881],[-87.987,45.096],[-88.089,45.457],[-88.199,45.595],[-88.365,45.694],[-88.497,45.713],[-88.734,45.708],[-88.924,45.724],[-88.982,45.749],[-89.021,45.821],[-89.012,45.903],[-88.891,45.981],[-88.687,46.011],[-88.541,46.014],[-88.495,46.013]]]}},{"type":"Feature","properties":{"density":1},"geometry":{"type":"Polygon","coordinates":[[[-97.211,58.668],[-97.286,58.738],[-97.317,58.836],[-97.318,58.947],[-97.272,59.283],[-97.244,59.373],[-97.158,59.511],[-97.074,59.596],[-96.967,59.673],[-96.87,59.719],[-96.761,59.743],[-96.465,59.743],[-96.206,59.782],[-95.643,59.914],[-95.47,59.912],[-95.357,59.857],[-95.34,59.81],[-95.365,59.741],[-95.437,59.669],[-95.53,59.636],[-95.732,59.529],[-95.9,59.418],[-96.065,59.347],[-96.159,59.336],[-96.406,59.231],[-96.742,58.933],[-96.815,58.838],[-96.955,58.601],[-97.016,58.581],[-97.067,58.597],[-97.127,58.717],[-97.166,58.667],[-97.205,58.666],[-97.211,58.668]]]}},{"type":"Feature","properties":{"density":1},"geometry":{"type":"Polygon","coordinates":[[[-121.102,36.087],[-120.857,36.024],[-120.831,35.997],[-120.834,35.943],[-120.866,35.911],[-121.071,35.859],[-121.247,35.754],[-121.318,35.735],[-121.362,35.767],[-121.367,35.834],[-121.306,35.929],[-121.274,36.074],[-121.206,36.098],[-121.125,36.09],[-121.102,36.087]]]}},{"type":"Feature","properties":{"density":1},"geometry":{"type":"Polygon","coordinates":[[[-120.103,35.384],[-120.183,35.371],[-120.253,35.339],[-120.297,35.276],[-120.298,35.241],[-120.225,35.202],[-120.112,35.195],[-120.065,35.215],[-120.025,35.263],[-120.016,35.329],[-120.039,35.368],[-120.091,35.386],[-120.103,35.384]]]}},{"type":"Feature","properties":{"density":1},"geometry":{"type":"Polygon","coordinates":[[[-118.718,37.521],[-118.82,37.55],[-118.902,37.593],[-118.947,37.648],[-118.935,37.687],[-118.854,37.731],[-118.765,37.744],[-118.719,37.737],[-118.618,37.68],[-118.556,37.605],[-118.537,37.533],[-118.587,37.495],[-118.665,37.497],[-118.706,37.515],[-118.718,37.521]]]}},{"type":"Feature","properties":{"density":1},"geometry":{"type":"Polygon","coordinates":[[[-105.372,22.388],[-105.321,22.405],[-105.1,22.418],[-105.01,22.405],[-104.961,22.372],[-104.953,22.339],[-104.972,22.32],[-105.073,22.298],[-105.212,22.298],[-105.382,22.339],[-105.396,22.364],[-105.38,22.384],[-105.372,22.388]]]}},{"type":"Feature","properties":{"density":1},"geometry":{"type":"Polygon","coordinates":[[[-109.043,28.73],[-109.108,28.825],[-109.161,29.006],[-109.111,29.157],[-109.06,29.219],[-109.005,29.252],[-108.768,29.305],[-108.722,29.281],[-108.672,29.147],[-108.678,28.986],[-108.698,28.918],[-108.762,28.835],[-108.843,28.774],[-108.966,28.729],[-109.029,28.726],[-109.043,28.73]]]}},{"type":"Feature","properties":{"density":1},"geometry":{"type":"Polygon","coordinates":[[[-107.205,26.27],[-106.978,26.417],[-106.856,26.472],[-106.478,26.539],[-106.406,26.525],[-106.373,26.502],[-106.355,26.46],[-106.352,26.414],[-106.377,26.382],[-106.696,26.269],[-107.217,26.187],[-107.232,26.211],[-107.209,26.265],[-107.205,26.27]]]}},{"type":"Feature","properties":{"density":1},"geometry":{"type":"Polygon","coordinates":[[[-106.728,25.055],[-106.623,25.065],[-106.494,25.044],[-106.276,24.959],[-106.153,24.883],[-106.128,24.803],[-106.141,24.77],[-106.215,24.699],[-106.318,24.641],[-106.398,24.618],[-106.506,24.65],[-106.551,24.708],[-106.627,24.927],[-106.678,24.971],[-106.738,24.995],[-106.747,25.034],[-106.732,25.053],[-106.728,25.055]]]}},{"type":"Feature","properties":{"density":1},"geometry":{"type":"Polygon","coordinates":[[[-100.025,22.055],[-100.147,22.536],[-100.098,23.075],[-99.292,24.874],[-99.145,25.642],[-99.005,26.218],[-98.63,27.059],[-97.926,27.492],[-96.977,27.967],[-96.466,28.171],[-95.275,28.599],[-94.568,28.794],[-93.973,28.832],[-93.638,28.785],[-93.49,28.413],[-93.48,28.162],[-93.545,27.902],[-93.713,27.529],[-94.308,26.813],[-94.726,26.386],[-94.885,25.744],[-94.82,25.353],[-94.82,24.814],[-94.736,24.358],[-94.736,23.502],[-94.54,23.075],[-94.215,22.675],[-93.852,22.293],[-93.424,21.959],[-93.006,21.568],[-92.308,20.861],[-91.899,20.071],[-91.732,19.215],[-91.598,18.338],[-91.567,18.009],[-91.561,17.228],[-91.543,16.912],[-91.499,16.614],[-91.332,15.919],[-91.195,15.436],[-90.619,14.679],[-90.293,14.382],[-89.605,13.907],[-89.373,13.596],[-89.177,13.066],[-89.303,12.759],[-89.925,12.254],[-90.272,11.888],[-90.638,11.343],[-90.793,10.809],[-91.165,10.338],[-91.766,10.158],[-92.473,10.301],[-93.118,10.673],[-93.477,10.977],[-93.769,11.46],[-94.072,11.832],[-94.161,12.286],[-94.702,13.699],[-94.793,14.046],[-94.843,14.328],[-94.859,14.584],[-94.905,14.861],[-94.979,15.096],[-95.116,15.27],[-95.302,15.402],[-95.541,15.489],[-95.698,15.497],[-95.806,15.456],[-96.248,15.208],[-96.583,14.915],[-97.191,14.77],[-98.436,14.44],[-99.531,14.092],[-100.201,13.98],[-101.164,13.868],[-102.866,13.548],[-103.479,13.352],[-104.093,13.073],[-104.623,12.822],[-105.181,12.501],[-105.67,12.264],[-106.59,12.069],[-107.358,11.985],[-107.93,11.874],[-109.129,11.762],[-109.701,11.692],[-110.427,11.664],[-110.859,11.692],[-111.32,11.804],[-112.087,12.027],[-112.436,12.264],[-112.631,12.641],[-112.763,13.107],[-112.645,13.956],[-112.533,14.397],[-112.465,15.314],[-112.384,15.717],[-112.372,16.151],[-112.273,16.982],[-112.093,17.844],[-112.047,18.384],[-111.915,18.988],[-111.553,19.393],[-110.954,20.022],[-109.497,21.202],[-109.218,21.977],[-109.138,22.994],[-108.989,23.75],[-108.871,24.786],[-108.542,25.387],[-108.121,25.685],[-107.693,25.66],[-107.259,25.536],[-106.868,25.331],[-106.31,24.99],[-106.006,24.773],[-105.672,24.333],[-105.386,23.8],[-105.021,23.167],[-104.637,22.617],[-104.259,22.282],[-104.067,21.966],[-103.726,21.203],[-103.394,21.007],[-102.768,20.796],[-101.801,20.56],[-101.404,20.387],[-100.558,19.85],[-100.037,19.646],[-99.804,19.627],[-99.479,19.664],[-99.125,19.729],[-98.865,19.85],[-98.744,19.98],[-98.735,20.259],[-98.772,20.436],[-99.163,20.976],[-99.497,21.357],[-99.749,21.598],[-99.862,21.84],[-100.025,22.055]]]}},{"type":"Feature","properties":{"density":1},"geometry":{"type":"Polygon","coordinates":[[[-105.448,33.593],[-105.499,33.756],[-105.494,33.876],[-105.426,34.03],[-105.363,34.124],[-105.288,34.193],[-104.972,34.399],[-104.544,34.748],[-104.276,34.928],[-103.932,35.103],[-103.791,35.158],[-103.747,35.171],[-103.668,35.141],[-103.629,35.077],[-103.6,34.871],[-103.657,34.623],[-103.879,34.25],[-104.177,33.909],[-104.48,33.67],[-104.654,33.607],[-105.069,33.521],[-105.237,33.512],[-105.379,33.526],[-105.442,33.575],[-105.448,33.593]]]}},{"type":"Feature","properties":{"density":1},"geometry":{"type":"Polygon","coordinates":[[[-98.876,61.533],[-98.551,61.542],[-96.933,61.663],[-96.151,61.747],[-95.351,61.728],[-94.58,61.616],[-93.956,61.477],[-93.101,61.068],[-92.459,60.612],[-91.78,60.193],[-90.687,59.808],[-87.423,58.873],[-86.391,58.426],[-85.288,57.896],[-84.089,57.227],[-83.433,56.738],[-82.791,56.18],[-81.243,54.478],[-80.224,53.153],[-79.931,52.107],[-79.862,51.339],[-80.113,50.363],[-80.294,49.986],[-80.364,49.345],[-80.038,48.396],[-79.648,48.061],[-78.959,47.391],[-78.411,46.657],[-77.881,46.127],[-77.174,45.634],[-76.755,45.29],[-76.374,45.029],[-76.086,44.741],[-75.918,44.425],[-75.89,44.192],[-75.909,43.857],[-76.179,43.327],[-76.895,42.676],[-77.471,42.248],[-78.057,41.904],[-78.857,41.504],[-79.434,41.365],[-80.187,41.225],[-81.006,41.179],[-81.805,41.169],[-83.414,41.616],[-85.516,42.034],[-86.577,42.295],[-87.967,43.225],[-88.93,44.132],[-89.488,44.843],[-90.283,45.792],[-91.734,47.452],[-92.878,48.205],[-93.868,48.889],[-94.691,49.405],[-95.431,49.963],[-96.212,50.605],[-96.599,50.792],[-96.965,50.835],[-97.244,50.761],[-97.486,50.612],[-97.616,50.308],[-97.647,50.097],[-97.275,49.589],[-96.73,49.198],[-96.141,48.677],[-95.403,48.218],[-94.747,47.605],[-93.408,46.545],[-92.864,46.043],[-91.775,44.676],[-91.315,44.257],[-90.687,43.518],[-89.99,42.751],[-89.306,42.179],[-88.846,41.621],[-88.399,40.909],[-88.26,40.435],[-88.218,40.114],[-88.372,39.905],[-89.069,39.556],[-89.571,39.388],[-90.101,39.249],[-90.632,39.179],[-91.301,39.165],[-92.64,39.514],[-93.268,39.612],[-93.966,39.96],[-94.635,40.365],[-95.361,40.923],[-95.947,41.453],[-96.742,42.262],[-97.425,42.876],[-97.802,43.35],[-97.983,44.132],[-98.025,44.843],[-97.9,47.619],[-98.076,48.177],[-98.253,48.652],[-98.777,49.504],[-99.205,49.758],[-100.181,50.261],[-101.66,51.535],[-102.786,52.363],[-103.353,52.846],[-104.013,53.423],[-104.497,53.906],[-104.85,54.381],[-105.064,54.902],[-105.148,55.487],[-105.139,55.841],[-104.887,56.222],[-103.892,56.845],[-103.688,57.282],[-103.502,57.813],[-103.195,58.408],[-102.758,58.91],[-102.339,59.301],[-101.679,59.682],[-100.553,60.426],[-100.191,60.724],[-99.819,61.058],[-99.056,61.514],[-98.876,61.533]]]}},{"type":"Feature","properties":{"density":1},"geometry":{"type":"Polygon","coordinates":[[[-100.91,48.8],[-100.854,48.873],[-100.046,49.573],[-99.94,49.742],[-99.866,49.819],[-99.714,49.906],[-99.673,49.908],[-99.625,49.873],[-99.616,49.658],[-99.655,49.557],[-99.771,49.366],[-99.921,49.215],[-100.302,48.978],[-100.682,48.787],[-100.775,48.746],[-100.867,48.728],[-100.897,48.737],[-100.91,48.772],[-100.91,48.8]]]}},{"type":"Feature","properties":{"density":1},"geometry":{"type":"Polygon","coordinates":[[[-98.641,48.319],[-98.541,48.423],[-98.432,48.437],[-98.405,48.411],[-98.416,48.344],[-98.452,48.308],[-98.588,48.265],[-98.625,48.268],[-98.641,48.309],[-98.641,48.319]]]}},{"type":"Feature","properties":{"density":1},"geometry":{"type":"Polygon","coordinates":[[[-89.399,15.501],[-89.472,15.511],[-89.575,15.564],[-89.599,15.591],[-89.62,15.631],[-89.625,15.691],[-89.618,15.741],[-89.591,15.769],[-89.513,15.756],[-89.424,15.678],[-89.373,15.57],[-89.389,15.509],[-89.399,15.501]]]}},{"type":"Feature","properties":{"density":1},"geometry":{"type":"Polygon","coordinates":[[[-93.235,35.785],[-92.757,35.77],[-92.069,35.723],[-91.623,35.742],[-91.297,35.732],[-90.86,35.705],[-90.367,35.639],[-89.084,35.212],[-88.646,35.1],[-88.2,35.007],[-87.837,34.895],[-87.558,34.765],[-87.335,34.598],[-87.279,34.356],[-87.382,34.086],[-87.707,33.779],[-88.665,33.324],[-89.111,33.203],[-90.441,33.007],[-90.897,32.84],[-91.303,32.75],[-91.539,32.547],[-91.473,32.229],[-91.452,31.89],[-91.557,31.715],[-91.818,31.491],[-92.134,31.343],[-92.841,31.119],[-93.185,31.129],[-93.445,31.25],[-93.65,31.389],[-93.929,31.891],[-94.394,32.561],[-94.701,32.961],[-94.887,33.314],[-95.129,34.161],[-95.138,34.365],[-95.054,34.728],[-94.915,35.054],[-94.729,35.249],[-94.403,35.453],[-94.003,35.63],[-93.752,35.667],[-93.371,35.788],[-93.235,35.785]]]}},{"type":"Feature","properties":{"density":1},"geometry":{"type":"Polygon","coordinates":[[[-91.829,33.276],[-91.616,33.351],[-91.565,33.307],[-91.567,33.272],[-91.598,33.226],[-91.663,33.199],[-91.813,33.203],[-91.842,33.228],[-91.831,33.271],[-91.829,33.276]]]}},{"type":"Feature","properties":{"density":2},"geometry":{"type":"Polygon","coordinates":[[[-92.999,52.095],[-93.668,52.347],[-93.745,52.341],[-93.748,52.312],[-93.719,52.277],[-93.094,52.018],[-93.006,52.014],[-92.98,52.06],[-92.99,52.084],[-92.999,52.095]]]}},{"type":"Feature","properties":{"density":2},"geometry":{"type":"Polygon","coordinates":[[[-91.442,51.736],[-91.72,51.821],[-91.924,51.913],[-91.954,51.908],[-91.936,51.86],[-91.567,51.69],[-91.457,51.674],[-91.426,51.7],[-91.433,51.731],[-91.442,51.736]]]}},{"type":"Feature","properties":{"density":2},"geometry":{"type":"Polygon","coordinates":[[[-94.567,53.36],[-94.914,53.461],[-95.049,53.526],[-95.139,53.533],[-95.144,53.511],[-95.128,53.493],[-95.071,53.463],[-94.751,53.331],[-94.578,53.287],[-94.542,53.311],[-94.549,53.355],[-94.567,53.36]]]}},{"type":"Feature","properties":{"density":2},"geometry":{"type":"Polygon","coordinates":[[[-94.314,52.65],[-95.347,52.92],[-96.193,53.478],[-96.63,53.869],[-97.03,54.101],[-97.709,54.194],[-98.174,54.148],[-98.546,54.055],[-98.844,53.887],[-99.039,53.627],[-99.058,53.515],[-98.937,53.227],[-98.89,53.032],[-98.834,52.669],[-98.704,52.381],[-98.49,52.251],[-98.09,52.102],[-97.235,51.86],[-96.305,51.283],[-94.761,49.953],[-94.138,49.451],[-93.673,49.116],[-93.236,48.735],[-92.357,48.075],[-91.91,47.656],[-91.575,47.6],[-91.324,47.586],[-91.185,47.963],[-91.338,48.228],[-93.807,49.958],[-95.203,51.116],[-95.928,51.66],[-96.388,52.051],[-96.514,52.26],[-96.374,52.483],[-96.081,52.483],[-95.691,52.344],[-95.189,51.897],[-94.658,51.507],[-94.1,50.935],[-93.732,50.744],[-93.364,50.711],[-93.232,50.889],[-93.305,51.172],[-93.515,51.451],[-93.584,51.702],[-93.696,51.953],[-93.682,52.009],[-93.682,52.19],[-93.786,52.414],[-94.087,52.581],[-94.314,52.65]]]}},{"type":"Feature","properties":{"density":2},"geometry":{"type":"Polygon","coordinates":[[[-91.058,58.151],[-92.251,57.712],[-93.234,56.791],[-93.59,56.31],[-94.281,55.243],[-95.139,54.531],[-95.411,54.113],[-95.432,53.862],[-95.348,53.652],[-95.201,53.129],[-94.636,51.853],[-94.281,51.455],[-93.82,51.037],[-93.59,50.765],[-93.339,50.513],[-93.004,50.451],[-92.837,50.555],[-92.879,50.848],[-93.088,51.309],[-93.276,51.79],[-93.297,52.104],[-93.214,52.501],[-93.151,52.669],[-92.962,52.773],[-92.439,52.271],[-92.209,52.271],[-91.853,52.501],[-90.891,53.485],[-90.577,53.945],[-90.43,54.134],[-90.284,54.134],[-90.242,53.652],[-90.347,53.234],[-90.221,52.983],[-89.907,53.004],[-89.363,53.318],[-88.986,53.59],[-88.212,54.196],[-87.794,54.657],[-87.04,55.557],[-86.873,56.038],[-87.333,57.0],[-87.836,57.461],[-88.61,57.921],[-89.238,58.34],[-89.824,58.444],[-90.661,58.214],[-91.058,58.151]]]}},{"type":"Feature","properties":{"density":2},"geometry":{"type":"Polygon","coordinates":[[[-81.087,52.128],[-82.621,51.961],[-84.254,51.528],[-86.737,51.194],[-87.979,50.845],[-88.592,50.287],[-88.732,49.84],[-88.774,49.561],[-88.732,48.934],[-88.481,48.264],[-88.09,47.552],[-87.574,46.925],[-86.807,46.129],[-85.453,45.306],[-84.435,44.79],[-84.031,44.86],[-83.668,45.041],[-83.598,45.39],[-84.254,46.395],[-85.244,47.092],[-86.109,47.859],[-86.821,48.376],[-87.086,48.794],[-87.197,49.31],[-87.072,49.798],[-86.611,50.161],[-85.719,50.468],[-83.863,50.636],[-82.203,50.915],[-80.389,51.277],[-80.11,51.431],[-79.887,51.598],[-79.831,51.933],[-79.845,52.1],[-80.041,52.17],[-80.306,52.24],[-80.794,52.142],[-81.087,52.128]]]}},{"type":"Feature","properties":{"density":2},"geometry":{"type":"Polygon","coordinates":[[[-81.665,47.84],[-81.797,47.821],[-82.039,47.73],[-82.135,47.718],[-82.169,47.68],[-82.145,47.663],[-82.024,47.67],[-81.883,47.724],[-81.675,47.767],[-81.631,47.811],[-81.652,47.841],[-81.665,47.84]]]}},{"type":"Feature","properties":{"density":2},"geometry":{"type":"Polygon","coordinates":[[[-105.069,33.809],[-105.172,33.772],[-105.392,33.656],[-105.437,33.611],[-105.437,33.569],[-105.358,33.528],[-105.168,33.482],[-105.073,33.491],[-104.941,33.594],[-104.842,33.635],[-104.718,33.755],[-104.718,33.805],[-104.743,33.834],[-104.796,33.846],[-105.044,33.809],[-105.069,33.809]]]}},{"type":"Feature","properties":{"density":2},"geometry":{"type":"Polygon","coordinates":[[[-109.01,28.726],[-108.987,28.737],[-108.975,28.774],[-108.98,28.813],[-109.015,28.849],[-109.248,28.892],[-109.307,28.882],[-109.308,28.812],[-109.288,28.763],[-109.26,28.743],[-109.116,28.715],[-109.027,28.72],[-109.01,28.726]]]}},{"type":"Feature","properties":{"density":2},"geometry":{"type":"Polygon","coordinates":[[[-108.499,27.817],[-108.543,27.903],[-108.559,28.037],[-108.611,28.07],[-108.637,28.061],[-108.664,28.041],[-108.677,27.966],[-108.62,27.809],[-108.55,27.734],[-108.51,27.734],[-108.49,27.784],[-108.499,27.817]]]}},{"type":"Feature","properties":{"density":2},"geometry":{"type":"Polygon","coordinates":[[[-106.626,26.43],[-106.744,26.419],[-106.896,26.36],[-106.914,26.329],[-106.894,26.235],[-106.802,26.232],[-106.73,26.292],[-106.588,26.348],[-106.57,26.397],[-106.6,26.424],[-106.626,26.43]]]}},{"type":"Feature","properties":{"density":2},"geometry":{"type":"Polygon","coordinates":[[[-107.127,26.285],[-107.2,26.293],[-107.241,26.265],[-107.252,26.213],[-107.226,26.164],[-107.187,26.154],[-107.079,26.191],[-107.071,26.231],[-107.104,26.274],[-107.127,26.285]]]}},{"type":"Feature","properties":{"density":2},"geometry":{"type":"Polygon","coordinates":[[[-107.004,25.725],[-107.089,25.784],[-107.127,25.772],[-107.15,25.655],[-107.126,25.634],[-107.076,25.638],[-107.012,25.672],[-107.0,25.709],[-107.004,25.725]]]}},{"type":"Feature","properties":{"density":2},"geometry":{"type":"Polygon","coordinates":[[[-107.971,26.601],[-108.245,26.803],[-108.307,26.798],[-108.309,26.701],[-108.158,26.635],[-108.024,26.516],[-107.951,26.378],[-107.917,26.374],[-107.887,26.382],[-107.868,26.477],[-107.89,26.531],[-107.944,26.58],[-107.971,26.601]]]}},{"type":"Feature","properties":{"density":2},"geometry":{"type":"Polygon","coordinates":[[[-94.63,53.325],[-94.677,53.343],[-95.007,53.387],[-95.172,53.444],[-95.192,53.455],[-95.208,53.496],[-95.051,53.488],[-94.73,53.41],[-94.617,53.364],[-94.6,53.326],[-94.626,53.324],[-94.63,53.325]]]}},{"type":"Feature","properties":{"density":2},"geometry":{"type":"Polygon","coordinates":[[[-93.065,52.045],[-93.441,52.135],[-93.514,52.179],[-93.531,52.228],[-93.483,52.24],[-93.294,52.21],[-93.151,52.162],[-93.067,52.129],[-93.039,52.099],[-93.035,52.06],[-93.063,52.045],[-93.065,52.045]]]}},{"type":"Feature","properties":{"density":2},"geometry":{"type":"Polygon","coordinates":[[[-100.408,55.376],[-100.597,55.447],[-100.642,55.483],[-100.664,55.532],[-100.634,55.546],[-100.562,55.523],[-100.411,55.409],[-100.406,55.376],[-100.408,55.376]]]}},{"type":"Feature","properties":{"density":2},"geometry":{"type":"Polygon","coordinates":[[[-107.206,26.215],[-107.176,26.246],[-107.121,26.238],[-107.137,26.208],[-107.19,26.202],[-107.207,26.214],[-107.206,26.215]]]}},{"type":"Feature","properties":{"density":2},"geometry":{"type":"Polygon","coordinates":[[[-106.869,26.329],[-106.797,26.388],[-106.708,26.425],[-106.723,26.39],[-106.779,26.343],[-106.849,26.315],[-106.868,26.327],[-106.869,26.329]]]}},{"type":"Feature","properties":{"density":2},"geometry":{"type":"Polygon","coordinates":[[[-109.042,28.755],[-109.097,28.786],[-109.198,28.788],[-109.246,28.809],[-109.274,28.854],[-109.274,28.907],[-109.252,28.912],[-109.157,28.859],[-109.028,28.853],[-109.012,28.834],[-109.005,28.768],[-109.04,28.754],[-109.042,28.755]]]}},{"type":"Feature","properties":{"density":2},"geometry":{"type":"Polygon","coordinates":[[[-107.945,26.418],[-108.0,26.506],[-108.006,26.576],[-107.985,26.577],[-107.958,26.552],[-107.92,26.479],[-107.913,26.419],[-107.943,26.416],[-107.945,26.418]]]}},{"type":"Feature","properties":{"density":2},"geometry":{"type":"Polygon","coordinates":[[[-107.098,25.769],[-107.059,25.752],[-107.088,25.672],[-107.102,25.766],[-107.098,25.769]]]}},{"type":"Feature","properties":{"density":2},"geometry":{"type":"Polygon","coordinates":[[[-104.377,22.08],[-104.426,22.09],[-104.425,22.135],[-104.391,22.145],[-104.351,22.125],[-104.344,22.107],[-104.373,22.081],[-104.377,22.08]]]}},{"type":"Feature","properties":{"density":2},"geometry":{"type":"Polygon","coordinates":[[[-105.386,33.596],[-105.229,33.753],[-105.176,33.77],[-105.146,33.763],[-105.155,33.668],[-105.221,33.598],[-105.303,33.555],[-105.368,33.566],[-105.387,33.594],[-105.386,33.596]]]}},{"type":"Feature","properties":{"density":2},"geometry":{"type":"Polygon","coordinates":[[[-119.827,36.278],[-119.615,36.082],[-119.553,36.005],[-119.537,35.927],[-119.583,35.851],[-119.642,35.858],[-119.696,35.907],[-119.805,36.119],[-119.837,36.223],[-119.832,36.278],[-119.827,36.278]]]}},{"type":"Feature","properties":{"density":2},"geometry":{"type":"Polygon","coordinates":[[[-98.824,58.56],[-98.829,58.608],[-98.788,58.798],[-98.756,58.851],[-98.703,58.874],[-98.69,58.865],[-98.687,58.813],[-98.743,58.65],[-98.765,58.526],[-98.775,58.512],[-98.808,58.535],[-98.824,58.56]]]}},{"type":"Feature","properties":{"density":2},"geometry":{"type":"Polygon","coordinates":[[[-93.057,52.036],[-93.128,52.026],[-93.362,51.939],[-93.401,51.952],[-93.425,52.038],[-93.499,52.119],[-93.756,52.209],[-93.951,52.258],[-93.991,52.294],[-93.998,52.339],[-93.987,52.364],[-93.936,52.38],[-93.732,52.374],[-93.569,52.338],[-93.347,52.263],[-93.114,52.215],[-93.047,52.173],[-93.019,52.126],[-93.02,52.064],[-93.049,52.035],[-93.057,52.036]]]}},{"type":"Feature","properties":{"density":2},"geometry":{"type":"Polygon","coordinates":[[[-94.665,53.327],[-95.344,53.456],[-95.361,53.509],[-95.331,53.534],[-95.308,53.533],[-94.981,53.464],[-94.777,53.46],[-94.602,53.356],[-94.6,53.327],[-94.638,53.322],[-94.665,53.327]]]}},{"type":"Feature","properties":{"density":2},"geometry":{"type":"Polygon","coordinates":[[[-96.04,53.875],[-96.113,53.891],[-96.228,53.959],[-96.311,54.042],[-96.307,54.092],[-96.24,54.098],[-96.153,54.034],[-96.032,53.898],[-96.038,53.875],[-96.04,53.875]]]}},{"type":"Feature","properties":{"density":2},"geometry":{"type":"Polygon","coordinates":[[[-91.513,51.687],[-91.823,51.772],[-92.016,51.852],[-92.196,51.904],[-92.24,51.944],[-92.248,52.012],[-92.225,52.032],[-92.176,52.038],[-92.011,51.983],[-91.646,51.896],[-91.534,51.826],[-91.475,51.76],[-91.458,51.704],[-91.465,51.689],[-91.51,51.685],[-91.513,51.687]]]}},{"type":"Feature","properties":{"density":2},"geometry":{"type":"Polygon","coordinates":[[[-97.211,58.701],[-97.24,58.784],[-97.233,58.875],[-97.191,59.037],[-97.165,59.07],[-97.129,59.069],[-97.108,59.059],[-97.102,59.001],[-97.171,58.783],[-97.177,58.698],[-97.186,58.687],[-97.207,58.697],[-97.211,58.701]]]}},{"type":"Feature","properties":{"density":2},"geometry":{"type":"Polygon","coordinates":[[[-97.041,58.623],[-97.057,58.632],[-97.095,58.742],[-97.106,58.859],[-97.072,58.984],[-97.028,59.067],[-96.844,59.181],[-96.684,59.184],[-96.654,59.149],[-96.66,59.104],[-96.815,58.936],[-96.921,58.774],[-96.992,58.631],[-97.039,58.621],[-97.041,58.623]]]}},{"type":"Feature","properties":{"density":2},"geometry":{"type":"Polygon","coordinates":[[[-98.802,58.513],[-98.824,58.544],[-98.834,58.604],[-98.817,58.748],[-98.787,58.852],[-98.696,58.958],[-98.649,58.985],[-98.586,58.991],[-98.553,58.95],[-98.549,58.919],[-98.591,58.802],[-98.703,58.649],[-98.746,58.514],[-98.779,58.501],[-98.8,58.51],[-98.802,58.513]]]}},{"type":"Feature","properties":{"density":2},"geometry":{"type":"Polygon","coordinates":[[[-100.429,55.364],[-100.545,55.418],[-100.987,55.564],[-101.476,55.793],[-101.652,55.94],[-101.685,56.013],[-101.687,56.072],[-101.646,56.09],[-101.554,56.066],[-101.309,55.925],[-101.302,55.952],[-101.4,56.079],[-101.37,56.111],[-101.344,56.115],[-101.265,56.093],[-101.018,55.972],[-100.76,55.813],[-100.5,55.576],[-100.387,55.436],[-100.379,55.375],[-100.422,55.361],[-100.429,55.364]]]}},{"type":"Feature","properties":{"density":2},"geometry":{"type":"Polygon","coordinates":[[[-88.176,45.899],[-88.277,45.883],[-88.286,45.854],[-88.243,45.838],[-88.182,45.85],[-88.161,45.862],[-88.173,45.898],[-88.176,45.899]]]}},{"type":"Feature","properties":{"density":2},"geometry":{"type":"Polygon","coordinates":[[[-105.414,33.65],[-105.358,33.848],[-105.261,33.996],[-105.213,34.025],[-105.121,34.042],[-105.08,34.037],[-104.993,33.983],[-104.955,33.874],[-104.964,33.789],[-104.995,33.732],[-105.234,33.612],[-105.316,33.546],[-105.382,33.56],[-105.413,33.619],[-105.414,33.65]]]}},{"type":"Feature","properties":{"density":2},"geometry":{"type":"Polygon","coordinates":[[[-112.051,34.501],[-111.967,34.595],[-111.955,34.644],[-111.967,34.655],[-112.031,34.654],[-112.083,34.593],[-112.093,34.514],[-112.057,34.495],[-112.051,34.501]]]}},{"type":"Feature","properties":{"density":2},"geometry":{"type":"Polygon","coordinates":[[[-109.048,28.77],[-109.001,28.867],[-108.958,28.87],[-108.925,28.843],[-108.931,28.809],[-108.962,28.78],[-109.023,28.754],[-109.047,28.767],[-109.048,28.77]]]}},{"type":"Feature","properties":{"density":2},"geometry":{"type":"Polygon","coordinates":[[[-107.22,26.211],[-107.166,26.265],[-107.13,26.249],[-107.159,26.209],[-107.201,26.198],[-107.22,26.208],[-107.22,26.211]]]}},{"type":"Feature","properties":{"density":2},"geometry":{"type":"Polygon","coordinates":[[[-107.131,25.773],[-107.058,25.819],[-106.994,25.812],[-107.012,25.761],[-107.069,25.717],[-107.1,25.721],[-107.13,25.767],[-107.131,25.773]]]}},{"type":"Feature","properties":{"density":2},"geometry":{"type":"Polygon","coordinates":[[[-93.857,17.57],[-93.697,17.573],[-93.314,17.656],[-93.201,17.652],[-93.176,17.614],[-93.198,17.492],[-93.234,17.418],[-93.319,17.326],[-93.376,17.308],[-93.499,17.325],[-93.679,17.398],[-93.856,17.407],[-93.902,17.448],[-93.916,17.491],[-93.915,17.559],[-93.878,17.577],[-93.857,17.57]]]}},{"type":"Feature","properties":{"density":2},"geometry":{"type":"Polygon","coordinates":[[[-91.763,52.341],[-91.929,52.361],[-92.085,52.308],[-92.208,52.313],[-92.539,52.453],[-92.676,52.49],[-92.842,52.51],[-93.033,52.493],[-93.442,52.563],[-93.696,52.56],[-93.873,52.658],[-93.96,52.689],[-94.046,52.697],[-94.513,52.669],[-95.094,52.715],[-95.17,52.671],[-95.206,52.626],[-95.217,52.579],[-95.195,52.519],[-95.037,52.419],[-94.664,52.394],[-94.538,52.414],[-94.478,52.402],[-94.504,52.342],[-94.819,52.217],[-94.898,52.16],[-94.912,52.124],[-94.895,52.076],[-94.764,52.009],[-94.661,51.996],[-94.577,52.004],[-93.963,52.213],[-93.689,52.205],[-93.574,52.174],[-93.516,52.138],[-93.471,52.033],[-93.469,51.9],[-93.514,51.758],[-93.641,51.598],[-93.639,51.562],[-93.608,51.522],[-93.5,51.503],[-93.363,51.532],[-93.184,51.658],[-93.094,51.694],[-92.965,51.784],[-92.887,51.886],[-92.787,52.154],[-92.703,52.189],[-92.575,52.154],[-92.24,51.932],[-92.133,51.906],[-92.066,51.87],[-91.976,51.862],[-91.868,51.794],[-91.539,51.682],[-91.473,51.683],[-91.447,51.704],[-91.434,51.776],[-91.451,52.07],[-91.555,52.258],[-91.635,52.317],[-91.748,52.342],[-91.763,52.341]]]}},{"type":"Feature","properties":{"density":2},"geometry":{"type":"Polygon","coordinates":[[[-96.207,52.917],[-96.35,52.963],[-97.004,53.269],[-97.066,53.331],[-97.076,53.395],[-97.054,53.43],[-96.962,53.46],[-96.594,53.524],[-96.491,53.525],[-96.257,53.364],[-96.21,53.315],[-96.147,53.207],[-96.105,53.091],[-96.095,52.98],[-96.121,52.927],[-96.198,52.911],[-96.207,52.917]]]}},{"type":"Feature","properties":{"density":2},"geometry":{"type":"Polygon","coordinates":[[[-89.886,50.212],[-89.966,50.217],[-90.27,50.312],[-90.567,50.427],[-90.681,50.499],[-90.695,50.537],[-90.682,50.6],[-90.655,50.627],[-90.568,50.652],[-90.33,50.656],[-90.228,50.679],[-90.067,50.672],[-90.003,50.654],[-89.802,50.52],[-89.726,50.425],[-89.696,50.36],[-89.704,50.284],[-89.75,50.236],[-89.876,50.21],[-89.886,50.212]]]}},{"type":"Feature","properties":{"density":2},"geometry":{"type":"Polygon","coordinates":[[[-96.088,53.874],[-96.382,54.03],[-96.542,54.154],[-96.698,54.344],[-96.733,54.414],[-96.777,54.592],[-96.775,54.627],[-96.75,54.664],[-96.666,54.696],[-96.46,54.673],[-96.398,54.653],[-96.215,54.499],[-96.167,54.442],[-96.018,54.183],[-96.016,53.903],[-96.031,53.875],[-96.081,53.871],[-96.088,53.874]]]}},{"type":"Feature","properties":{"density":2},"geometry":{"type":"Polygon","coordinates":[[[-94.627,53.298],[-94.894,53.257],[-94.991,53.274],[-95.287,53.424],[-95.496,53.49],[-95.899,53.666],[-95.972,53.719],[-95.972,53.775],[-95.941,53.822],[-95.882,53.848],[-95.7,53.89],[-95.64,53.89],[-95.257,53.791],[-94.742,53.735],[-94.629,53.657],[-94.576,53.558],[-94.564,53.414],[-94.581,53.347],[-94.608,53.309],[-94.627,53.298]]]}},{"type":"Feature","properties":{"density":2},"geometry":{"type":"Polygon","coordinates":[[[-100.445,55.338],[-101.0,55.587],[-101.969,56.147],[-102.175,56.295],[-102.264,56.383],[-102.306,56.477],[-102.32,56.717],[-102.275,56.794],[-101.951,57.022],[-101.745,57.063],[-101.628,57.07],[-101.512,57.07],[-101.402,57.042],[-101.159,56.933],[-100.783,56.809],[-100.692,56.695],[-100.669,56.541],[-100.699,56.42],[-100.688,56.345],[-100.638,56.212],[-100.507,56.004],[-100.473,55.923],[-100.445,55.756],[-100.365,55.49],[-100.363,55.364],[-100.396,55.339],[-100.432,55.337],[-100.445,55.338]]]}},{"type":"Feature","properties":{"density":2},"geometry":{"type":"Polygon","coordinates":[[[-100.186,57.956],[-100.283,58.049],[-100.335,58.163],[-100.387,58.379],[-100.387,58.417],[-100.363,58.436],[-100.29,58.426],[-100.257,58.382],[-100.206,58.135],[-100.154,57.981],[-100.155,57.96],[-100.178,57.956],[-100.186,57.956]]]}},{"type":"Feature","properties":{"density":2},"geometry":{"type":"Polygon","coordinates":[[[-98.822,58.51],[-98.869,58.794],[-98.866,58.868],[-98.827,59.035],[-98.735,59.226],[-98.584,59.36],[-98.456,59.433],[-98.015,59.52],[-97.923,59.523],[-97.851,59.501],[-97.818,59.424],[-97.844,59.387],[-98.119,59.196],[-98.213,59.077],[-98.489,58.849],[-98.719,58.504],[-98.77,58.486],[-98.817,58.503],[-98.822,58.51]]]}},{"type":"Feature","properties":{"density":2},"geometry":{"type":"Polygon","coordinates":[[[-124.117,53.375],[-124.123,53.393],[-124.209,53.395],[-124.248,53.353],[-124.232,53.338],[-124.191,53.339],[-124.132,53.35],[-124.117,53.367],[-124.117,53.375]]]}},{"type":"Feature","properties":{"density":2},"geometry":{"type":"Polygon","coordinates":[[[-88.155,45.883],[-88.303,45.878],[-88.322,45.828],[-88.28,45.789],[-88.159,45.766],[-88.125,45.808],[-88.151,45.88],[-88.155,45.883]]]}},{"type":"Feature","properties":{"density":2},"geometry":{"type":"Polygon","coordinates":[[[-97.072,58.639],[-97.133,58.762],[-97.176,58.67],[-97.195,58.669],[-97.231,58.701],[-97.272,58.813],[-97.278,58.899],[-97.281,59.066],[-97.258,59.147],[-97.193,59.276],[-97.101,59.399],[-96.934,59.561],[-96.778,59.641],[-96.717,59.645],[-96.6,59.621],[-96.401,59.63],[-96.159,59.67],[-96.045,59.642],[-95.983,59.573],[-96.045,59.436],[-96.193,59.353],[-96.419,59.289],[-96.59,59.159],[-96.882,58.9],[-97.001,58.606],[-97.051,58.604],[-97.071,58.633],[-97.072,58.639]]]}},{"type":"Feature","properties":{"density":2},"geometry":{"type":"Polygon","coordinates":[[[-121.217,35.939],[-121.135,36.004],[-121.055,36.024],[-121.012,36.024],[-120.96,35.972],[-120.981,35.939],[-121.117,35.886],[-121.179,35.882],[-121.215,35.908],[-121.218,35.932],[-121.217,35.939]]]}},{"type":"Feature","properties":{"density":2},"geometry":{"type":"Polygon","coordinates":[[[-120.082,35.376],[-120.134,35.367],[-120.183,35.335],[-120.191,35.291],[-120.159,35.245],[-120.103,35.241],[-120.075,35.27],[-120.065,35.328],[-120.078,35.373],[-120.082,35.376]]]}},{"type":"Feature","properties":{"density":2},"geometry":{"type":"Polygon","coordinates":[[[-109.058,28.772],[-109.061,28.83],[-109.024,28.912],[-108.973,28.964],[-108.901,28.978],[-108.879,28.966],[-108.873,28.918],[-108.916,28.849],[-109.005,28.755],[-109.042,28.744],[-109.056,28.768],[-109.058,28.772]]]}},{"type":"Feature","properties":{"density":2},"geometry":{"type":"Polygon","coordinates":[[[-107.216,26.243],[-107.138,26.299],[-107.048,26.331],[-106.988,26.323],[-106.975,26.3],[-106.992,26.276],[-107.114,26.243],[-107.185,26.203],[-107.221,26.211],[-107.223,26.237],[-107.216,26.243]]]}},{"type":"Feature","properties":{"density":2},"geometry":{"type":"Polygon","coordinates":[[[-106.727,25.038],[-106.659,25.044],[-106.599,25.03],[-106.55,24.988],[-106.567,24.966],[-106.594,24.966],[-106.724,25.001],[-106.738,25.013],[-106.729,25.037],[-106.727,25.038]]]}},{"type":"Feature","properties":{"density":2},"geometry":{"type":"Polygon","coordinates":[[[-93.725,17.139],[-94.088,17.259],[-94.634,17.548],[-95.279,17.821],[-95.758,18.156],[-95.882,18.371],[-95.969,18.631],[-96.106,19.45],[-96.151,19.871],[-96.155,20.152],[-96.114,20.347],[-95.998,20.537],[-95.928,20.615],[-95.767,20.652],[-95.539,20.619],[-95.242,20.516],[-95.147,20.45],[-94.957,20.144],[-94.845,19.863],[-94.812,19.727],[-94.473,19.324],[-94.076,19.076],[-93.809,18.883],[-93.251,18.542],[-92.687,18.127],[-92.545,17.997],[-92.466,17.889],[-92.437,17.749],[-92.45,17.616],[-92.491,17.468],[-92.64,17.178],[-92.731,17.1],[-92.908,17.042],[-93.347,17.034],[-93.487,17.083],[-93.695,17.129],[-93.725,17.139]]]}},{"type":"Feature","properties":{"density":2},"geometry":{"type":"Polygon","coordinates":[[[-105.415,33.597],[-105.43,33.723],[-105.409,33.797],[-105.328,33.941],[-105.191,34.106],[-105.031,34.242],[-104.851,34.444],[-104.728,34.461],[-104.674,34.443],[-104.558,34.315],[-104.539,34.233],[-104.576,34.119],[-104.622,34.049],[-104.723,33.941],[-104.921,33.86],[-105.098,33.764],[-105.177,33.702],[-105.303,33.557],[-105.367,33.553],[-105.415,33.59],[-105.415,33.597]]]}},{"type":"Feature","properties":{"density":2},"geometry":{"type":"Polygon","coordinates":[[[-91.821,33.263],[-91.633,33.334],[-91.591,33.306],[-91.598,33.251],[-91.659,33.223],[-91.824,33.223],[-91.824,33.26],[-91.821,33.263]]]}},{"type":"Feature","properties":{"density":3},"geometry":{"type":"Polygon","coordinates":[[[-93.025,52.098],[-93.249,52.181],[-93.32,52.199],[-93.353,52.19],[-93.333,52.129],[-93.148,52.052],[-93.036,52.032],[-93.012,52.061],[-93.017,52.094],[-93.025,52.098]]]}},{"type":"Feature","properties":{"density":3},"geometry":{"type":"Polygon","coordinates":[[[-91.457,51.726],[-91.636,51.783],[-91.679,51.775],[-91.685,51.758],[-91.517,51.69],[-91.45,51.697],[-91.45,51.724],[-91.457,51.726]]]}},{"type":"Feature","properties":{"density":3},"geometry":{"type":"Polygon","coordinates":[[[-94.58,53.359],[-94.804,53.414],[-94.832,53.414],[-94.843,53.399],[-94.804,53.362],[-94.621,53.305],[-94.571,53.313],[-94.567,53.353],[-94.58,53.359]]]}},{"type":"Feature","properties":{"density":3},"geometry":{"type":"Polygon","coordinates":[[[-81.682,47.835],[-81.839,47.797],[-81.864,47.774],[-81.828,47.752],[-81.695,47.775],[-81.661,47.796],[-81.665,47.833],[-81.682,47.835]]]}},{"type":"Feature","properties":{"density":3},"geometry":{"type":"Polygon","coordinates":[[[-105.214,33.717],[-105.391,33.622],[-105.415,33.598],[-105.412,33.578],[-105.372,33.549],[-105.2,33.523],[-105.16,33.566],[-105.211,33.615],[-105.209,33.632],[-105.153,33.698],[-105.152,33.721],[-105.186,33.734],[-105.203,33.724],[-105.214,33.717]]]}},{"type":"Feature","properties":{"density":3},"geometry":{"type":"Polygon","coordinates":[[[-109.078,28.752],[-109.008,28.75],[-108.996,28.779],[-109.014,28.822],[-109.238,28.859],[-109.28,28.824],[-109.27,28.775],[-109.242,28.753],[-109.093,28.752],[-109.078,28.752]]]}},{"type":"Feature","properties":{"density":3},"geometry":{"type":"Polygon","coordinates":[[[-108.585,27.8],[-108.547,27.758],[-108.505,27.77],[-108.506,27.81],[-108.577,27.922],[-108.599,27.951],[-108.631,27.958],[-108.642,27.927],[-108.594,27.815],[-108.585,27.8]]]}},{"type":"Feature","properties":{"density":3},"geometry":{"type":"Polygon","coordinates":[[[-106.762,26.398],[-106.904,26.333],[-106.869,26.251],[-106.814,26.26],[-106.766,26.311],[-106.716,26.335],[-106.619,26.352],[-106.604,26.381],[-106.606,26.398],[-106.648,26.418],[-106.731,26.407],[-106.762,26.398]]]}},{"type":"Feature","properties":{"density":3},"geometry":{"type":"Polygon","coordinates":[[[-107.127,26.262],[-107.197,26.283],[-107.23,26.237],[-107.22,26.192],[-107.182,26.182],[-107.104,26.208],[-107.098,26.229],[-107.115,26.255],[-107.127,26.262]]]}},{"type":"Feature","properties":{"density":3},"geometry":{"type":"Polygon","coordinates":[[[-107.034,25.735],[-107.093,25.776],[-107.115,25.77],[-107.119,25.698],[-107.105,25.674],[-107.034,25.676],[-107.015,25.692],[-107.026,25.728],[-107.034,25.735]]]}},{"type":"Feature","properties":{"density":3},"geometry":{"type":"Polygon","coordinates":[[[-107.963,26.462],[-107.936,26.408],[-107.915,26.414],[-107.903,26.472],[-107.921,26.531],[-108.032,26.635],[-108.076,26.638],[-108.079,26.624],[-107.971,26.487],[-107.963,26.462]]]}},{"type":"Feature","properties":{"density":3},"geometry":{"type":"Polygon","coordinates":[[[-119.819,36.267],[-119.718,36.127],[-119.713,36.092],[-119.738,36.1],[-119.778,36.16],[-119.829,36.254],[-119.82,36.267],[-119.819,36.267]]]}},{"type":"Feature","properties":{"density":3},"geometry":{"type":"Polygon","coordinates":[[[-98.797,58.529],[-98.824,58.599],[-98.804,58.711],[-98.78,58.724],[-98.758,58.703],[-98.76,58.641],[-98.777,58.524],[-98.797,58.528],[-98.797,58.529]]]}},{"type":"Feature","properties":{"density":3},"geometry":{"type":"Polygon","coordinates":[[[-93.145,52.039],[-93.258,52.057],[-93.369,52.119],[-93.657,52.228],[-93.672,52.26],[-93.659,52.289],[-93.552,52.292],[-93.121,52.194],[-93.058,52.136],[-93.032,52.07],[-93.052,52.041],[-93.12,52.038],[-93.145,52.039]]]}},{"type":"Feature","properties":{"density":3},"geometry":{"type":"Polygon","coordinates":[[[-96.054,53.882],[-96.152,53.922],[-96.242,53.99],[-96.296,54.05],[-96.292,54.077],[-96.252,54.084],[-96.179,54.041],[-96.034,53.893],[-96.051,53.88],[-96.054,53.882]]]}},{"type":"Feature","properties":{"density":3},"geometry":{"type":"Polygon","coordinates":[[[-91.539,51.71],[-91.815,51.782],[-91.893,51.823],[-91.932,51.849],[-91.937,51.92],[-91.871,51.943],[-91.694,51.883],[-91.582,51.827],[-91.469,51.732],[-91.482,51.697],[-91.525,51.703],[-91.539,51.71]]]}},{"type":"Feature","properties":{"density":3},"geometry":{"type":"Polygon","coordinates":[[[-97.041,58.637],[-97.075,58.742],[-97.075,58.866],[-96.989,59.046],[-96.817,59.145],[-96.706,59.158],[-96.686,59.12],[-96.696,59.104],[-96.821,59.003],[-96.919,58.869],[-96.995,58.731],[-97.007,58.626],[-97.04,58.635],[-97.041,58.637]]]}},{"type":"Feature","properties":{"density":3},"geometry":{"type":"Polygon","coordinates":[[[-98.799,58.521],[-98.817,58.575],[-98.796,58.673],[-98.767,58.751],[-98.708,58.787],[-98.683,58.762],[-98.693,58.69],[-98.737,58.611],[-98.754,58.517],[-98.783,58.506],[-98.798,58.518],[-98.799,58.521]]]}},{"type":"Feature","properties":{"density":3},"geometry":{"type":"Polygon","coordinates":[[[-100.432,55.372],[-100.46,55.401],[-100.847,55.601],[-101.094,55.762],[-101.195,55.855],[-101.197,55.943],[-101.124,55.97],[-101.075,55.959],[-100.819,55.757],[-100.666,55.675],[-100.526,55.573],[-100.407,55.426],[-100.392,55.382],[-100.426,55.371],[-100.432,55.372]]]}},{"type":"Feature","properties":{"density":3},"geometry":{"type":"Polygon","coordinates":[[[-93.791,17.547],[-93.6,17.557],[-93.401,17.601],[-93.341,17.595],[-93.324,17.556],[-93.358,17.399],[-93.421,17.33],[-93.459,17.333],[-93.636,17.418],[-93.772,17.406],[-93.822,17.425],[-93.864,17.469],[-93.867,17.521],[-93.841,17.542],[-93.798,17.546],[-93.791,17.547]]]}},{"type":"Feature","properties":{"density":3},"geometry":{"type":"Polygon","coordinates":[[[-93.32,51.979],[-93.383,52.066],[-93.406,52.257],[-93.444,52.319],[-93.499,52.355],[-93.604,52.368],[-93.893,52.355],[-94.075,52.258],[-94.147,52.189],[-94.197,52.178],[-94.484,52.244],[-94.503,52.288],[-94.487,52.316],[-94.387,52.383],[-94.371,52.413],[-94.432,52.5],[-94.431,52.543],[-94.42,52.561],[-94.342,52.59],[-94.111,52.624],[-93.968,52.598],[-93.754,52.523],[-93.605,52.517],[-93.375,52.541],[-93.173,52.461],[-92.863,52.232],[-92.84,52.185],[-92.835,52.095],[-92.898,51.882],[-92.916,51.861],[-92.99,51.842],[-93.297,51.967],[-93.32,51.979]]]}},{"type":"Feature","properties":{"density":3},"geometry":{"type":"Polygon","coordinates":[[[-91.533,51.712],[-91.67,51.75],[-91.75,51.789],[-91.879,51.879],[-91.979,51.976],[-92.01,52.032],[-92.025,52.135],[-92.001,52.205],[-91.925,52.276],[-91.842,52.304],[-91.752,52.309],[-91.626,52.265],[-91.567,52.195],[-91.501,52.085],[-91.468,51.838],[-91.466,51.71],[-91.496,51.697],[-91.529,51.71],[-91.533,51.712]]]}},{"type":"Feature","properties":{"density":3},"geometry":{"type":"Polygon","coordinates":[[[-96.215,52.926],[-96.376,53.027],[-96.719,53.199],[-96.756,53.234],[-96.757,53.289],[-96.721,53.339],[-96.692,53.367],[-96.428,53.4],[-96.375,53.39],[-96.321,53.358],[-96.192,53.164],[-96.153,53.065],[-96.146,52.939],[-96.197,52.922],[-96.215,52.926]]]}},{"type":"Feature","properties":{"density":3},"geometry":{"type":"Polygon","coordinates":[[[-89.925,50.224],[-90.126,50.315],[-90.257,50.425],[-90.306,50.545],[-90.3,50.611],[-90.278,50.64],[-90.156,50.662],[-90.025,50.637],[-89.824,50.511],[-89.763,50.442],[-89.719,50.33],[-89.748,50.264],[-89.786,50.24],[-89.917,50.223],[-89.925,50.224]]]}},{"type":"Feature","properties":{"density":3},"geometry":{"type":"Polygon","coordinates":[[[-96.093,53.894],[-96.205,53.942],[-96.301,54.042],[-96.491,54.161],[-96.589,54.259],[-96.694,54.446],[-96.721,54.579],[-96.703,54.629],[-96.663,54.655],[-96.62,54.66],[-96.468,54.635],[-96.378,54.593],[-96.304,54.523],[-96.067,54.187],[-96.082,53.987],[-96.028,53.888],[-96.089,53.892],[-96.093,53.894]]]}},{"type":"Feature","properties":{"density":3},"geometry":{"type":"Polygon","coordinates":[[[-94.628,53.321],[-94.804,53.314],[-94.925,53.27],[-94.976,53.28],[-95.062,53.33],[-95.1,53.373],[-95.105,53.444],[-95.072,53.549],[-94.978,53.662],[-94.909,53.702],[-94.806,53.704],[-94.692,53.661],[-94.623,53.59],[-94.586,53.484],[-94.594,53.349],[-94.625,53.322],[-94.628,53.321]]]}},{"type":"Feature","properties":{"density":3},"geometry":{"type":"Polygon","coordinates":[[[-100.476,55.399],[-100.535,55.447],[-101.034,55.664],[-101.319,55.816],[-101.472,55.914],[-102.036,56.338],[-102.061,56.413],[-102.067,56.615],[-102.048,56.685],[-101.98,56.792],[-101.911,56.845],[-101.83,56.88],[-101.683,56.913],[-101.517,56.898],[-101.219,56.839],[-101.08,56.794],[-100.984,56.71],[-100.903,56.589],[-100.837,56.387],[-100.643,56.146],[-100.542,55.919],[-100.384,55.376],[-100.413,55.365],[-100.467,55.389],[-100.476,55.399]]]}},{"type":"Feature","properties":{"density":3},"geometry":{"type":"Polygon","coordinates":[[[-98.804,58.523],[-98.825,58.743],[-98.821,58.888],[-98.733,59.093],[-98.678,59.156],[-98.652,59.216],[-98.604,59.262],[-98.263,59.366],[-98.117,59.383],[-98.079,59.359],[-98.081,59.326],[-98.11,59.303],[-98.321,59.233],[-98.33,59.209],[-98.315,59.191],[-98.255,59.185],[-98.201,59.109],[-98.224,59.079],[-98.522,58.954],[-98.585,58.911],[-98.691,58.747],[-98.742,58.511],[-98.781,58.503],[-98.8,58.518],[-98.804,58.523]]]}},{"type":"Feature","properties":{"density":3},"geometry":{"type":"Polygon","coordinates":[[[-97.057,58.635],[-97.12,58.824],[-97.098,58.917],[-96.949,59.151],[-96.83,59.265],[-96.716,59.341],[-96.522,59.365],[-96.471,59.346],[-96.464,59.324],[-96.487,59.273],[-96.609,59.206],[-96.849,58.997],[-96.984,58.743],[-97.001,58.618],[-97.054,58.63],[-97.057,58.635]]]}}]}