{"type":"FeatureCollection","features":[{"type":"Feature","properties":{"density":1},"geometry":{"type":"Polygon","coordinates":[[[-76.743,21.163],[-77.22,21.245],[-77.302,21.3],[-77.311,21.369],[-77.294,21.402],[-77.267,21.413],[-77.181,21.416],[-77.074,21.38],[-76.771,21.262],[-76.707,21.212],[-76.713,21.179],[-76.743,21.163]]]}},{"type":"Feature","properties":{"density":1},"geometry":{"type":"Polygon","coordinates":[[[-79.678,22.582],[-79.97,22.667],[-80.041,22.703],[-80.061,22.739],[-80.044,22.827],[-79.984,22.852],[-79.829,22.8],[-79.747,22.744],[-79.669,22.654],[-79.647,22.62],[-79.647,22.587],[-79.678,22.582]]]}},{"type":"Feature","properties":{"density":1},"geometry":{"type":"Polygon","coordinates":[[[-84.195,22.315],[-84.007,22.359],[-83.93,22.455],[-83.913,22.557],[-83.93,22.595],[-84.009,22.631],[-84.081,22.636],[-84.119,22.628],[-84.152,22.599],[-84.187,22.553],[-84.211,22.456],[-84.214,22.36],[-84.195,22.315]]]}},{"type":"Feature","properties":{"density":1},"geometry":{"type":"Polygon","coordinates":[[[-81.977,31.459],[-82.065,31.489],[-82.101,31.52],[-82.133,31.656],[-82.11,31.716],[-82.066,31.759],[-81.964,31.781],[-81.929,31.768],[-81.908,31.731],[-81.884,31.611],[-81.929,31.477],[-81.977,31.459]]]}},{"type":"Feature","properties":{"density":1},"geometry":{"type":"Polygon","coordinates":[[[-80.084,34.209],[-79.947,34.247],[-79.835,34.315],[-79.762,34.396],[-79.739,34.459],[-79.751,34.495],[-79.816,34.5],[-79.865,34.469],[-80.034,34.308],[-80.086,34.236],[-80.084,34.209]]]}},{"type":"Feature","properties":{"density":1},"geometry":{"type":"Polygon","coordinates":[[[-91.999,38.022],[-91.865,37.945],[-91.751,37.906],[-91.626,37.886],[-91.604,37.912],[-91.65,37.965],[-91.878,38.037],[-91.953,38.053],[-91.988,38.048],[-91.999,38.022]]]}},{"type":"Feature","properties":{"density":1},"geometry":{"type":"Polygon","coordinates":[[[-94.204,32.778],[-93.806,32.711],[-93.6,32.702],[-93.537,32.732],[-93.526,32.766],[-93.541,32.803],[-93.579,32.821],[-93.69,32.833],[-94.207,32.831],[-94.231,32.812],[-94.204,32.778]]]}},{"type":"Feature","properties":{"density":1},"geometry":{"type":"Polygon","coordinates":[[[-105.065,38.14],[-105.101,38.125],[-105.303,37.919],[-105.408,37.778],[-105.84,37.532],[-105.933,37.411],[-105.961,37.355],[-105.961,37.244],[-105.896,37.141],[-105.701,36.937],[-105.459,36.909],[-105.198,36.937],[-104.882,37.132],[-104.761,37.225],[-104.668,37.364],[-104.631,37.588],[-104.65,37.811],[-104.798,38.062],[-104.966,38.136],[-105.065,38.14]]]}},{"type":"Feature","properties":{"density":1},"geometry":{"type":"Polygon","coordinates":[[[-99.396,21.824],[-99.703,22.689],[-99.912,23.554],[-100.024,24.447],[-99.731,25.479],[-99.145,26.428],[-98.461,27.042],[-97.75,27.251],[-96.69,27.167],[-96.453,27.07],[-95.685,26.512],[-95.127,25.507],[-94.597,24.238],[-94.248,23.01],[-94.025,21.796],[-93.788,20.652],[-93.537,19.927],[-93.077,18.95],[-92.923,18.434],[-92.881,17.723],[-93.021,16.886],[-93.286,16.3],[-93.453,15.435],[-94.193,14.961],[-95.295,14.737],[-97.29,14.793],[-98.364,14.974],[-99.94,15.435],[-101.489,15.993],[-102.772,16.579],[-103.93,17.597],[-104.488,18.616],[-104.767,19.397],[-104.809,20.345],[-104.6,21.099],[-104.111,21.727],[-103.428,22.089],[-102.535,22.326],[-101.879,22.326],[-101.112,22.159],[-100.987,22.02],[-100.261,21.043],[-100.08,20.917],[-99.926,20.848],[-99.661,20.848],[-99.466,20.959],[-99.354,21.169],[-99.326,21.336],[-99.326,21.503],[-99.354,21.699],[-99.396,21.824]]]}},{"type":"Feature","properties":{"density":1},"geometry":{"type":"Polygon","coordinates":[[[-93.312,31.791],[-93.317,31.755],[-93.254,31.625],[-93.158,31.579],[-93.066,31.589],[-93.059,31.642],[-93.088,31.682],[-93.249,31.784],[-93.312,31.791]]]}},{"type":"Feature","properties":{"density":1},"geometry":{"type":"Polygon","coordinates":[[[-94.209,32.833],[-94.229,32.79],[-94.192,32.76],[-94.134,32.742],[-93.791,32.72],[-93.68,32.725],[-93.593,32.763],[-93.591,32.8],[-93.615,32.825],[-93.722,32.842],[-94.094,32.852],[-94.209,32.833]]]}},{"type":"Feature","properties":{"density":1},"geometry":{"type":"Polygon","coordinates":[[[-87.645,31.389],[-87.753,31.308],[-87.834,31.179],[-87.843,31.126],[-87.804,31.101],[-87.771,31.104],[-87.703,31.135],[-87.624,31.213],[-87.584,31.35],[-87.603,31.378],[-87.645,31.389]]]}},{"type":"Feature","properties":{"density":1},"geometry":{"type":"Polygon","coordinates":[[[-105.112,38.075],[-105.469,37.635],[-105.544,37.52],[-105.565,37.396],[-105.527,37.305],[-105.387,37.218],[-105.263,37.206],[-105.16,37.255],[-105.093,37.338],[-105.04,37.458],[-104.994,37.603],[-104.932,37.95],[-104.94,38.008],[-104.978,38.065],[-105.032,38.089],[-105.089,38.092],[-105.112,38.075]]]}},{"type":"Feature","properties":{"density":1},"geometry":{"type":"Polygon","coordinates":[[[-103.012,18.924],[-102.782,18.024],[-102.656,16.978],[-102.351,15.865],[-101.724,14.547],[-101.096,13.699],[-99.244,12.192],[-97.863,11.659],[-96.168,11.47],[-94.41,11.878],[-92.84,13.134],[-92.119,14.233],[-91.93,15.865],[-91.899,16.963],[-92.15,18.093],[-92.275,18.847],[-92.746,19.851],[-93.908,22.048],[-94.473,23.022],[-94.975,24.277],[-95.195,25.376],[-95.54,26.474],[-96.432,26.934],[-97.222,26.953],[-98.199,26.144],[-98.58,25.074],[-99.715,23.437],[-100.701,22.647],[-101.938,21.986],[-102.656,21.31],[-103.075,20.159],[-103.012,18.924]]]}},{"type":"Feature","properties":{"density":1},"geometry":{"type":"Polygon","coordinates":[[[-130.797,49.197],[-131.292,51.033],[-131.08,52.587],[-130.585,53.223],[-129.455,53.505],[-128.325,53.717],[-126.983,54.494],[-126.56,55.483],[-126.489,56.966],[-126.701,58.237],[-128.396,60.285],[-129.738,61.133],[-132.916,62.404],[-137.93,63.04],[-143.58,63.675],[-145.77,64.311],[-147.888,66.218],[-148.312,68.054],[-146.052,70.243],[-143.298,71.303],[-138.283,71.868],[-132.21,72.009],[-121.263,71.373],[-114.907,71.938],[-110.74,72.998],[-105.796,73.704],[-99.51,73.986],[-95.838,73.421],[-91.812,72.362],[-81.36,70.95],[-78.04,69.89],[-75.568,68.619],[-72.743,66.995],[-69.495,64.593],[-67.235,62.404],[-62.856,58.802],[-57.488,56.118],[-53.18,55.13],[-47.318,54.423],[-40.115,54.494],[-35.453,53.788],[-30.722,51.881],[-27.897,49.056],[-26.978,46.655],[-26.767,42.77],[-27.332,38.745],[-30.015,34.578],[-34.888,31.258],[-45.129,24.902],[-48.66,22.218],[-51.697,19.464],[-54.028,18.263],[-57.065,17.628],[-59.325,18.546],[-60.808,19.958],[-61.867,21.936],[-62.503,23.984],[-62.22,25.467],[-61.655,28.645],[-61.514,30.481],[-62.008,32.953],[-64.057,34.436],[-65.681,34.86],[-68.788,35.637],[-71.684,35.778],[-74.933,34.931],[-76.863,34.507],[-79.453,34.178],[-84.962,35.308],[-87.41,36.155],[-89.105,36.814],[-91.082,37.662],[-91.93,38.886],[-92.542,39.404],[-95.791,41.24],[-98.145,42.276],[-101.347,43.17],[-104.172,43.641],[-105.519,43.844],[-106.524,43.774],[-107.305,43.62],[-107.891,43.23],[-108.114,42.727],[-108.072,42.253],[-107.696,41.793],[-107.152,41.556],[-106.147,41.416],[-105.185,41.36],[-104.083,41.402],[-103.078,41.597],[-102.255,41.709],[-101.627,41.5],[-101.334,40.984],[-101.725,39.909],[-102.213,39.184],[-102.827,38.584],[-103.734,37.845],[-104.96,36.216],[-105.525,35.274],[-106.561,34.662],[-107.361,34.662],[-108.962,34.851],[-109.527,35.274],[-110.092,35.839],[-110.986,36.404],[-112.352,37.534],[-113.67,38.382],[-114.659,39.135],[-116.071,39.7],[-118.237,39.747],[-119.979,39.135],[-121.533,39.088],[-122.757,39.653],[-124.028,40.124],[-124.546,40.783],[-125.111,41.631],[-125.582,42.243],[-126.995,44.314],[-128.737,45.633],[-129.631,46.904],[-130.573,48.316],[-130.797,49.197]]]}},{"type":"Feature","properties":{"density":1},"geometry":{"type":"Polygon","coordinates":[[[-37.176,53.133],[-33.456,50.213],[-30.207,47.436],[-28.041,44.611],[-26.582,42.256],[-26.017,40.561],[-25.923,39.055],[-26.205,36.889],[-27.429,34.111],[-29.831,32.133],[-34.774,30.627],[-38.494,28.131],[-40.519,25.306],[-41.649,21.822],[-44.285,17.067],[-47.581,13.912],[-51.536,12.594],[-55.538,12.782],[-58.857,13.496],[-61.282,14.901],[-62.971,16.109],[-64.343,18.621],[-65.137,20.566],[-66.298,23.988],[-67.146,25.808],[-67.868,27.284],[-68.684,28.382],[-69.343,29.23],[-71.258,31.395],[-73.518,33.153],[-76.249,34.032],[-80.21,35.053],[-82.988,35.523],[-85.624,35.994],[-88.214,36.371],[-89.957,36.479],[-91.745,36.889],[-95.323,38.066],[-99.278,39.855],[-100.926,40.467],[-103.469,40.891],[-106.706,40.589],[-109.698,39.711],[-112.18,39.297],[-114.817,38.512],[-116.543,38.229],[-118.364,38.104],[-120.317,38.3],[-122.295,39.006],[-125.426,41.839],[-128.69,45.543],[-130.542,48.745],[-133.242,52.292],[-135.941,56.027],[-138.013,59.574],[-138.828,63.114],[-137.934,66.693],[-136.474,68.529],[-133.414,69.612],[-130.212,70.318],[-125.127,70.789],[-122.726,71.495],[-119.734,72.617],[-116.5,73.15],[-113.545,73.378],[-110.694,73.621],[-106.77,73.841],[-102.846,73.904],[-99.55,73.715],[-90.05,72.625],[-85.201,72.107],[-83.223,71.73],[-81.314,71.141],[-80.717,69.949],[-81.104,68.576],[-83.553,66.834],[-86.378,65.327],[-88.167,63.679],[-87.555,62.22],[-85.577,61.278],[-83.364,61.278],[-80.304,61.796],[-78.797,62.596],[-77.338,63.397],[-72.582,63.397],[-68.298,62.455],[-65.237,60.854],[-63.024,59.63],[-60.176,57.66],[-58.34,56.248],[-57.115,55.589],[-55.185,55.024],[-53.066,54.694],[-49.252,54.412],[-47.181,54.176],[-45.109,54.27],[-42.755,54.506],[-41.295,54.365],[-38.941,53.894],[-37.176,53.133]]]}},{"type":"Feature","properties":{"density":1},"geometry":{"type":"Polygon","coordinates":[[[-105.181,19.424],[-106.562,19.487],[-107.724,19.048],[-108.194,17.886],[-107.786,15.783],[-106.437,14.057],[-105.777,13.272],[-104.145,12.048],[-101.728,11.075],[-99.092,10.447],[-96.957,10.29],[-94.98,10.636],[-93.41,11.42],[-92.406,12.487],[-91.684,13.649],[-91.37,14.528],[-91.119,15.752],[-91.182,17.51],[-91.087,19.111],[-91.339,20.429],[-92.092,21.59],[-93.693,22.595],[-94.603,22.595],[-95.356,22.406],[-96.204,21.936],[-97.365,21.245],[-98.495,20.649],[-101.038,19.832],[-102.827,19.644],[-103.863,19.393],[-105.181,19.424]]]}},{"type":"Feature","properties":{"density":1},"geometry":{"type":"Polygon","coordinates":[[[-95.491,33.896],[-95.46,31.384],[-94.675,29.941],[-92.98,27.327],[-90.992,26.051],[-88.649,25.452],[-81.994,24.259],[-77.041,22.744],[-73.58,21.119],[-68.637,19.071],[-61.292,17.306],[-55.006,16.741],[-52.463,17.235],[-47.802,18.294],[-43.706,20.978],[-40.245,23.944],[-36.274,28.505],[-33.59,31.541],[-31.118,34.861],[-29.282,38.392],[-29.847,45.172],[-31.824,49.268],[-36.697,52.658],[-43.635,54.384],[-49.427,55.584],[-56.418,56.926],[-63.34,57.844],[-67.295,58.692],[-75.982,59.61],[-84.739,59.61],[-88.553,60.034],[-90.46,60.669],[-91.519,61.446],[-92.861,63.071],[-90.89,64.335],[-88.419,64.9],[-84.887,66.312],[-82.98,68.572],[-83.051,70.55],[-85.24,72.881],[-97.882,74.999],[-106.004,75.282],[-116.033,75.141],[-126.344,73.869],[-131.005,72.598],[-134.883,70.204],[-135.236,68.014],[-134.035,65.048],[-133.047,63.706],[-130.575,61.164],[-129.374,59.186],[-128.597,57.138],[-128.527,55.514],[-128.527,53.678],[-128.88,52.548],[-129.233,50.499],[-129.162,48.875],[-129.233,47.109],[-129.233,45.697],[-128.527,42.872],[-128.032,41.671],[-127.185,39.835],[-126.549,37.928],[-124.43,35.174],[-122.241,33.055],[-118.458,32.412],[-115.532,33.055],[-112.536,35.528],[-109.522,38.824],[-106.635,39.922],[-103.841,40.456],[-99.671,40.181],[-96.621,39.42],[-95.272,37.129],[-95.491,33.896]]]}},{"type":"Feature","properties":{"density":1},"geometry":{"type":"Polygon","coordinates":[[[-77.975,21.462],[-78.061,21.44],[-78.088,21.395],[-78.087,21.35],[-78.055,21.316],[-77.78,21.316],[-77.691,21.336],[-77.548,21.443],[-77.556,21.479],[-77.639,21.515],[-77.829,21.498],[-77.975,21.462]]]}},{"type":"Feature","properties":{"density":1},"geometry":{"type":"Polygon","coordinates":[[[-78.827,22.101],[-78.975,22.02],[-79.021,21.956],[-79.012,21.852],[-78.952,21.797],[-78.883,21.774],[-78.601,21.737],[-78.445,21.743],[-78.267,21.858],[-78.173,21.944],[-78.185,21.982],[-78.217,22.009],[-78.306,22.073],[-78.369,22.093],[-78.571,22.085],[-78.803,22.113],[-78.827,22.101]]]}},{"type":"Feature","properties":{"density":1},"geometry":{"type":"Polygon","coordinates":[[[-131.34,70.11],[-132.328,67.285],[-131.34,64.271],[-129.823,61.477],[-129.38,58.764],[-129.38,56.221],[-129.61,53.033],[-130.433,51.024],[-129.763,49.35],[-127.95,48.342],[-126.443,46.553],[-125.013,39.754],[-123.978,37.117],[-122.6,35.245],[-120.023,34.386],[-116.727,34.716],[-114.09,37.917],[-111.171,40.272],[-107.875,41.402],[-103.685,41.402],[-99.871,39.801],[-96.293,37.164],[-94.315,32.079],[-92.951,29.844],[-91.193,28.149],[-86.82,27.353],[-80.226,28.995],[-76.88,30.063],[-73.804,30.628],[-70.257,30.346],[-67.619,30.161],[-65.924,29.949],[-64.335,28.36],[-63.382,26.135],[-63.24,24.122],[-63.099,20.026],[-61.898,17.13],[-58.508,14.8],[-54.861,14.5],[-50.2,16.478],[-47.947,19.435],[-44.875,23.778],[-40.217,26.665],[-36.403,27.441],[-33.86,28.006],[-29.623,29.701],[-26.939,32.88],[-25.174,36.199],[-23.62,40.083],[-22.631,44.391],[-22.631,48.064],[-22.843,51.666],[-23.055,54.067],[-23.231,56.857],[-24.185,59.364],[-26.304,60.635],[-30.047,61.483],[-36.262,61.977],[-41.347,61.694],[-46.502,60.494],[-51.446,58.799],[-54.13,57.457],[-56.743,55.833],[-59.992,55.056],[-61.816,55.497],[-63.866,56.815],[-64.536,58.552],[-65.457,61.523],[-66.21,63.448],[-66.712,65.248],[-68.261,66.838],[-70.123,67.55],[-72.467,67.759],[-74.748,68.198],[-76.819,69.14],[-78.258,70.626],[-80.286,72.271],[-84.382,73.966],[-89.087,74.675],[-95.679,75.146],[-102.035,75.428],[-108.062,75.193],[-111.028,75.287],[-115.972,74.722],[-119.691,74.157],[-124.55,72.903],[-128.797,71.617],[-131.34,70.11]]]}},{"type":"Feature","properties":{"density":1},"geometry":{"type":"Polygon","coordinates":[[[-103.411,19.695],[-103.945,19.57],[-104.949,18.754],[-105.201,17.78],[-105.106,16.556],[-104.698,15.081],[-103.662,13.512],[-102.564,12.413],[-101.246,11.44],[-99.551,10.655],[-97.981,10.341],[-95.847,10.31],[-94.591,10.467],[-92.928,11.252],[-91.829,12.413],[-91.013,13.731],[-90.73,15.426],[-90.511,17.341],[-90.511,18.942],[-90.824,20.229],[-91.484,21.767],[-92.017,22.708],[-92.928,23.65],[-94.058,24.466],[-95.031,25.063],[-96.537,25.471],[-97.291,25.314],[-97.981,24.717],[-98.452,23.148],[-98.797,22.143],[-99.456,21.202],[-100.712,20.323],[-101.528,20.009],[-102.376,19.727],[-103.411,19.695]]]}},{"type":"Feature","properties":{"density":1},"geometry":{"type":"Polygon","coordinates":[[[-105.137,38.116],[-105.938,38.083],[-106.12,38.048],[-106.256,37.991],[-106.322,37.907],[-106.355,37.8],[-106.326,37.62],[-106.133,37.42],[-105.982,37.381],[-105.819,37.368],[-105.598,37.379],[-105.492,37.44],[-105.225,37.644],[-105.183,37.721],[-104.955,37.912],[-104.933,37.953],[-104.93,38.006],[-104.957,38.068],[-105.036,38.105],[-105.137,38.116]]]}},{"type":"Feature","properties":{"density":2},"geometry":{"type":"Polygon","coordinates":[[[-105.07,37.971],[-105.16,37.809],[-105.169,37.73],[-105.153,37.708],[-105.129,37.706],[-105.109,37.728],[-105.044,37.888],[-105.028,37.978],[-105.07,37.971]]]}},{"type":"Feature","properties":{"density":2},"geometry":{"type":"Polygon","coordinates":[[[-122.388,51.366],[-122.352,51.239],[-122.275,51.115],[-122.085,50.92],[-121.95,50.821],[-121.859,50.801],[-121.804,50.837],[-121.812,50.92],[-121.853,51.0],[-121.961,51.135],[-122.231,51.391],[-122.33,51.427],[-122.388,51.386],[-122.388,51.366]]]}},{"type":"Feature","properties":{"density":2},"geometry":{"type":"Polygon","coordinates":[[[-121.859,51.306],[-121.848,51.223],[-121.688,50.856],[-121.614,50.782],[-121.338,50.636],[-121.275,50.633],[-121.244,50.664],[-121.244,50.705],[-121.258,50.779],[-121.299,50.859],[-121.63,51.281],[-121.713,51.352],[-121.776,51.366],[-121.851,51.333],[-121.859,51.306]]]}},{"type":"Feature","properties":{"density":2},"geometry":{"type":"Polygon","coordinates":[[[-125.152,64.606],[-124.985,64.439],[-124.797,64.146],[-124.587,63.435],[-124.525,62.702],[-124.587,62.179],[-124.88,61.823],[-125.09,61.719],[-125.32,61.677],[-125.696,61.656],[-126.408,61.76],[-126.952,61.781],[-127.475,61.677],[-127.936,61.3],[-128.103,60.882],[-127.998,60.421],[-127.726,60.024],[-126.826,59.354],[-125.927,58.977],[-125.236,58.412],[-124.378,57.492],[-124.55,56.393],[-125.021,55.404],[-125.539,54.463],[-125.398,53.756],[-124.88,53.239],[-124.362,52.956],[-124.503,52.438],[-125.822,52.203],[-126.857,52.344],[-127.328,51.496],[-126.622,50.366],[-125.398,49.331],[-124.362,48.012],[-123.42,46.647],[-123.373,43.681],[-122.855,42.127],[-122.055,41.138],[-120.595,40.432],[-119.465,39.961],[-118.335,40.008],[-116.452,40.432],[-115.04,41.232],[-113.862,42.551],[-113.392,43.127],[-112.732,43.692],[-111.65,44.481],[-110.143,44.905],[-109.06,45.234],[-107.412,45.011],[-105.529,44.399],[-103.08,43.739],[-101.291,43.598],[-99.643,43.41],[-97.76,43.41],[-96.206,43.822],[-94.276,44.434],[-92.769,45.14],[-90.98,45.564],[-89.976,45.846],[-87.873,45.878],[-86.272,45.407],[-86.272,44.905],[-86.743,44.21],[-87.684,43.681],[-89.473,43.21],[-90.98,42.504],[-91.592,41.232],[-90.886,39.255],[-89.426,38.078],[-87.355,37.419],[-85.895,37.371],[-84.828,37.246],[-83.478,37.309],[-81.846,37.685],[-80.528,38.313],[-79.743,39.192],[-79.492,39.977],[-79.618,40.981],[-79.837,42.362],[-79.869,43.335],[-79.712,44.497],[-79.461,45.062],[-78.927,45.595],[-78.205,45.752],[-77.797,45.658],[-76.887,45.501],[-75.725,45.375],[-74.281,45.721],[-73.214,46.411],[-72.492,47.322],[-72.178,48.922],[-72.116,50.398],[-72.21,52.469],[-73.135,55.039],[-74.438,57.115],[-75.757,58.308],[-77.185,59.371],[-79.586,60.442],[-82.348,61.007],[-86.46,61.808],[-89.803,61.808],[-92.644,62.043],[-96.348,62.106],[-97.698,62.42],[-98.388,62.922],[-98.545,63.895],[-97.917,64.648],[-96.787,65.307],[-95.343,65.967],[-94.119,66.437],[-92.958,67.128],[-92.173,67.944],[-91.953,69.105],[-92.267,69.733],[-93.523,71.083],[-95.343,71.711],[-98.576,72.244],[-105.043,72.182],[-107.836,72.056],[-110.567,71.707],[-113.518,71.271],[-115.087,70.926],[-117.441,70.079],[-121.114,67.975],[-121.93,67.599],[-122.966,67.222],[-123.97,66.94],[-124.661,66.72],[-125.226,66.469],[-125.665,66.155],[-125.759,65.81],[-125.791,65.464],[-125.696,65.088],[-125.152,64.606]]]}},{"type":"Feature","properties":{"density":2},"geometry":{"type":"Polygon","coordinates":[[[-50.85,50.115],[-51.485,48.703],[-51.627,45.736],[-50.92,43.688],[-50.708,41.358],[-51.485,38.109],[-52.615,35.001],[-54.31,32.106],[-55.158,30.058],[-56.57,27.586],[-56.923,25.538],[-56.5,22.43],[-55.723,21.441],[-54.098,21.088],[-52.262,21.441],[-49.367,23.348],[-45.906,26.456],[-42.375,29.846],[-39.338,32.883],[-36.372,36.908],[-34.959,40.793],[-34.323,44.253],[-34.323,46.09],[-35.242,49.197],[-36.442,51.104],[-37.996,52.516],[-39.267,53.293],[-42.445,53.435],[-46.259,53.223],[-49.578,52.022],[-50.214,51.598],[-50.85,50.115]]]}},{"type":"Feature","properties":{"density":2},"geometry":{"type":"Polygon","coordinates":[[[-93.31,31.785],[-93.313,31.756],[-93.24,31.637],[-93.185,31.61],[-93.126,31.63],[-93.125,31.671],[-93.171,31.72],[-93.251,31.775],[-93.31,31.785]]]}},{"type":"Feature","properties":{"density":2},"geometry":{"type":"Polygon","coordinates":[[[-94.196,32.828],[-94.214,32.806],[-94.189,32.791],[-94.126,32.78],[-94.1,32.797],[-94.12,32.816],[-94.196,32.828]]]}},{"type":"Feature","properties":{"density":2},"geometry":{"type":"Polygon","coordinates":[[[-87.653,31.358],[-87.731,31.27],[-87.763,31.197],[-87.734,31.185],[-87.702,31.198],[-87.642,31.272],[-87.606,31.371],[-87.624,31.378],[-87.653,31.358]]]}},{"type":"Feature","properties":{"density":2},"geometry":{"type":"Polygon","coordinates":[[[-105.063,38.008],[-105.142,37.964],[-105.192,37.872],[-105.244,37.565],[-105.205,37.526],[-105.139,37.545],[-105.096,37.58],[-105.074,37.632],[-105.066,37.789],[-105.014,37.932],[-105.019,37.992],[-105.036,38.01],[-105.063,38.008]]]}},{"type":"Feature","properties":{"density":2},"geometry":{"type":"Polygon","coordinates":[[[-125.257,65.009],[-124.974,64.397],[-124.645,64.021],[-124.645,63.032],[-125.115,61.666],[-126.669,60.536],[-127.328,60.207],[-127.046,59.454],[-125.775,58.794],[-124.927,58.182],[-124.739,57.052],[-124.88,55.593],[-125.304,54.651],[-125.633,54.039],[-125.162,52.674],[-124.739,52.203],[-125.586,51.873],[-126.999,51.826],[-127.564,51.826],[-127.375,50.979],[-126.104,50.272],[-125.304,49.707],[-125.21,48.389],[-125.492,47.024],[-125.586,46.317],[-125.586,44.905],[-124.88,43.398],[-124.221,42.315],[-123.185,41.185],[-121.678,40.149],[-119.607,39.443],[-117.252,39.302],[-116.358,39.867],[-115.51,40.714],[-115.557,42.456],[-115.605,43.586],[-114.427,44.575],[-112.45,44.905],[-109.154,44.905],[-107.082,44.387],[-105.105,43.539],[-103.127,42.833],[-100.962,42.409],[-99.031,42.362],[-96.536,42.551],[-94.37,43.304],[-90.603,45.517],[-89.615,46.176],[-87.496,46.364],[-85.707,46.27],[-83.07,45.799],[-81.093,45.093],[-79.492,44.199],[-77.514,43.492],[-75.395,43.351],[-73.277,43.822],[-72.335,44.952],[-72.57,46.6],[-73.653,48.154],[-76.431,49.566],[-77.42,50.178],[-79.021,51.261],[-80.01,52.674],[-81.187,53.804],[-82.882,55.31],[-85.707,56.817],[-88.626,57.853],[-89.944,58.229],[-92.251,58.606],[-95.924,58.653],[-97.948,59.124],[-100.397,59.454],[-100.962,60.395],[-100.962,61.572],[-99.973,62.749],[-97.901,63.738],[-94.7,64.586],[-93.287,65.339],[-91.545,66.139],[-91.357,68.729],[-92.204,70.424],[-93.523,71.648],[-94.229,72.119],[-98.655,73.108],[-103.127,73.39],[-106.141,73.626],[-109.578,73.39],[-113.203,72.684],[-114.757,71.695],[-116.264,70.33],[-116.923,69.435],[-118.241,67.364],[-119.889,66.092],[-120.548,65.951],[-121.961,65.716],[-122.997,65.621],[-124.362,65.621],[-124.739,65.386],[-125.257,65.009]]]}},{"type":"Feature","properties":{"density":2},"geometry":{"type":"Polygon","coordinates":[[[-59.305,26.931],[-60.293,25.377],[-60.953,23.87],[-61.094,22.222],[-60.435,20.574],[-58.975,19.35],[-57.704,18.832],[-56.48,18.597],[-54.596,19.256],[-54.126,20.951],[-54.408,22.976],[-54.173,24.435],[-53.419,25.942],[-51.63,26.931],[-48.805,27.449],[-46.121,28.39],[-44.05,29.097],[-41.46,30.132],[-39.2,31.121],[-37.552,31.922],[-34.869,33.522],[-32.938,35.123],[-32.232,36.3],[-32.044,37.76],[-32.044,39.784],[-32.326,41.621],[-32.609,43.645],[-33.315,46.282],[-34.774,48.824],[-36.611,50.237],[-40.895,51.414],[-44.05,51.414],[-46.216,50.472],[-48.711,48.824],[-50.359,45.905],[-50.736,43.551],[-50.971,41.291],[-51.63,38.937],[-52.289,37.101],[-53.09,35.029],[-54.926,32.251],[-58.316,28.249],[-59.305,26.931]]]}},{"type":"Feature","properties":{"density":2},"geometry":{"type":"Polygon","coordinates":[[[-130.017,66.528],[-130.107,66.493],[-130.096,66.423],[-130.042,66.39],[-129.55,66.283],[-129.436,66.294],[-129.436,66.381],[-129.579,66.47],[-129.808,66.517],[-130.017,66.528]]]}},{"type":"Feature","properties":{"density":2},"geometry":{"type":"Polygon","coordinates":[[[-127.241,66.401],[-127.359,66.3],[-127.354,66.233],[-127.3,66.212],[-126.886,66.25],[-126.743,66.297],[-126.721,66.342],[-126.745,66.398],[-126.828,66.421],[-127.051,66.434],[-127.241,66.401]]]}},{"type":"Feature","properties":{"density":2},"geometry":{"type":"Polygon","coordinates":[[[-121.938,64.831],[-122.008,64.766],[-122.004,64.739],[-121.955,64.73],[-121.876,64.785],[-121.874,64.812],[-121.938,64.831]]]}},{"type":"Feature","properties":{"density":2},"geometry":{"type":"Polygon","coordinates":[[[-121.828,64.728],[-122.076,64.631],[-122.125,64.557],[-122.103,64.491],[-122.006,64.461],[-121.85,64.46],[-121.589,64.54],[-121.499,64.603],[-121.481,64.645],[-121.481,64.706],[-121.525,64.746],[-121.606,64.765],[-121.708,64.765],[-121.828,64.728]]]}},{"type":"Feature","properties":{"density":2},"geometry":{"type":"Polygon","coordinates":[[[-95.006,56.835],[-95.137,56.721],[-95.277,56.485],[-95.434,56.262],[-95.48,56.138],[-95.501,56.027],[-95.463,55.936],[-95.389,55.865],[-95.309,55.852],[-95.204,55.893],[-95.083,56.089],[-94.951,56.754],[-94.945,56.822],[-95.006,56.835]]]}},{"type":"Feature","properties":{"density":2},"geometry":{"type":"Polygon","coordinates":[[[-94.205,32.839],[-94.22,32.804],[-94.133,32.729],[-93.994,32.707],[-93.964,32.72],[-93.95,32.753],[-93.966,32.788],[-94.031,32.826],[-94.119,32.847],[-94.205,32.839]]]}},{"type":"Feature","properties":{"density":2},"geometry":{"type":"Polygon","coordinates":[[[-93.288,31.78],[-93.31,31.772],[-93.304,31.743],[-93.273,31.716],[-93.192,31.668],[-93.124,31.655],[-93.11,31.708],[-93.135,31.732],[-93.216,31.771],[-93.288,31.78]]]}},{"type":"Feature","properties":{"density":2},"geometry":{"type":"Polygon","coordinates":[[[-93.133,31.317],[-93.163,31.295],[-93.124,31.247],[-92.994,31.164],[-92.933,31.157],[-92.933,31.218],[-92.998,31.273],[-93.061,31.307],[-93.133,31.317]]]}},{"type":"Feature","properties":{"density":2},"geometry":{"type":"Polygon","coordinates":[[[-87.629,31.369],[-87.664,31.36],[-87.828,31.079],[-87.848,31.0],[-87.833,30.95],[-87.795,30.947],[-87.76,30.974],[-87.714,31.044],[-87.618,31.248],[-87.605,31.343],[-87.629,31.369]]]}},{"type":"Feature","properties":{"density":2},"geometry":{"type":"Polygon","coordinates":[[[-119.987,40.948],[-120.051,40.923],[-120.219,40.794],[-120.246,40.738],[-120.255,40.67],[-120.227,40.603],[-120.125,40.57],[-119.792,40.551],[-119.558,40.598],[-119.544,40.681],[-119.618,40.788],[-119.825,40.909],[-119.987,40.948]]]}},{"type":"Feature","properties":{"density":2},"geometry":{"type":"Polygon","coordinates":[[[-105.075,38.048],[-105.178,38.033],[-105.33,37.923],[-105.432,37.796],[-105.454,37.727],[-105.437,37.664],[-105.369,37.631],[-105.235,37.65],[-105.09,37.767],[-104.998,37.916],[-104.992,37.975],[-105.003,38.01],[-105.075,38.048]]]}},{"type":"Feature","properties":{"density":2},"geometry":{"type":"Polygon","coordinates":[[[-77.766,21.5],[-77.825,21.465],[-77.823,21.443],[-77.779,21.408],[-77.623,21.408],[-77.584,21.433],[-77.59,21.461],[-77.628,21.49],[-77.766,21.5]]]}},{"type":"Feature","properties":{"density":2},"geometry":{"type":"Polygon","coordinates":[[[-125.888,66.235],[-126.322,66.03],[-126.582,65.681],[-126.629,64.787],[-126.441,63.939],[-125.593,62.668],[-125.499,62.291],[-125.499,61.726],[-125.923,60.408],[-125.876,59.655],[-125.264,58.666],[-123.975,57.451],[-124.017,56.697],[-124.449,56.111],[-125.468,55.358],[-126.319,54.382],[-126.709,52.875],[-126.026,51.968],[-125.23,50.978],[-123.989,50.35],[-123.361,49.708],[-122.815,49.202],[-122.768,48.072],[-122.768,47.225],[-122.91,45.906],[-123.051,43.599],[-122.815,41.622],[-121.874,40.445],[-120.979,39.786],[-119.661,39.597],[-117.683,39.503],[-116.365,39.644],[-115.282,40.586],[-114.576,41.622],[-113.693,42.775],[-112.645,43.599],[-110.931,44.239],[-107.278,44.776],[-105.099,44.424],[-101.803,43.388],[-100.108,43.483],[-98.194,43.765],[-95.463,44.205],[-94.176,44.424],[-93.106,44.635],[-91.552,44.023],[-91.037,43.42],[-90.94,42.752],[-91.552,40.445],[-90.94,38.561],[-89.292,37.29],[-86.844,36.537],[-83.218,36.49],[-81.288,37.196],[-79.256,38.23],[-77.435,39.465],[-76.015,41.622],[-75.732,43.552],[-75.544,45.953],[-75.732,47.648],[-76.485,50.097],[-76.651,51.162],[-76.674,52.357],[-76.156,53.722],[-75.544,54.664],[-74.555,55.323],[-73.896,56.076],[-73.331,57.677],[-73.001,59.702],[-73.237,61.161],[-74.037,62.433],[-75.96,63.059],[-78.251,62.902],[-79.781,62.15],[-81.429,61.067],[-83.878,60.031],[-87.315,59.043],[-90.187,58.572],[-93.577,57.866],[-94.754,58.101],[-96.213,58.854],[-96.402,60.031],[-95.743,61.726],[-94.283,63.045],[-91.341,64.974],[-90.085,66.794],[-90.045,67.941],[-91.175,68.789],[-93.247,69.778],[-96.119,70.201],[-100.404,70.296],[-104.5,70.578],[-107.843,70.766],[-112.175,70.766],[-114.516,70.439],[-116.623,69.741],[-118.381,68.053],[-119.218,66.142],[-120.473,65.403],[-122.008,65.249],[-123.445,65.57],[-124.77,66.044],[-125.888,66.235]]]}},{"type":"Feature","properties":{"density":2},"geometry":{"type":"Polygon","coordinates":[[[-56.483,31.639],[-57.401,30.509],[-58.037,29.873],[-59.449,28.178],[-60.226,27.048],[-60.862,25.353],[-61.144,23.799],[-61.427,21.751],[-61.144,19.774],[-59.803,18.149],[-58.108,17.16],[-54.788,17.16],[-52.74,18.926],[-51.328,21.751],[-49.421,24.364],[-47.09,26.271],[-44.618,27.754],[-40.663,29.802],[-35.225,32.133],[-32.753,34.04],[-31.482,36.653],[-31.553,39.407],[-32.259,42.727],[-33.248,46.258],[-35.861,49.719],[-38.474,50.637],[-41.158,50.354],[-42.782,49.577],[-44.124,48.377],[-46.243,46.54],[-47.655,44.845],[-48.644,43.009],[-49.491,41.244],[-50.763,39.125],[-51.257,37.783],[-52.387,35.876],[-53.658,34.464],[-56.483,31.639]]]}},{"type":"Feature","properties":{"density":2},"geometry":{"type":"Polygon","coordinates":[[[-121.811,64.856],[-121.91,64.844],[-122.009,64.695],[-121.993,64.385],[-121.926,64.277],[-121.815,64.17],[-121.72,64.133],[-121.583,64.108],[-121.418,64.104],[-121.137,64.186],[-121.038,64.236],[-120.996,64.327],[-120.988,64.43],[-121.058,64.571],[-121.377,64.732],[-121.459,64.749],[-121.567,64.736],[-121.666,64.761],[-121.732,64.79],[-121.811,64.856]]]}},{"type":"Feature","properties":{"density":2},"geometry":{"type":"Polygon","coordinates":[[[-123.892,64.992],[-123.973,65.005],[-124.063,64.992],[-124.08,64.935],[-124.026,64.811],[-123.865,64.72],[-123.514,64.616],[-123.088,64.563],[-122.836,64.599],[-122.675,64.711],[-122.646,64.778],[-122.637,64.856],[-122.712,64.918],[-122.931,64.976],[-123.171,64.988],[-123.51,64.955],[-123.663,64.955],[-123.892,64.992]]]}},{"type":"Feature","properties":{"density":2},"geometry":{"type":"Polygon","coordinates":[[[-130.874,66.714],[-131.021,66.693],[-131.027,66.631],[-130.885,66.544],[-130.81,66.526],[-130.717,66.466],[-130.688,66.42],[-130.709,66.28],[-130.599,66.197],[-130.277,66.129],[-130.153,66.147],[-130.06,66.3],[-129.992,66.321],[-129.75,66.271],[-129.607,66.259],[-129.514,66.253],[-129.465,66.278],[-129.465,66.358],[-129.508,66.389],[-129.688,66.449],[-130.029,66.519],[-130.227,66.581],[-130.413,66.662],[-130.618,66.718],[-130.874,66.714]]]}},{"type":"Feature","properties":{"density":2},"geometry":{"type":"Polygon","coordinates":[[[-131.54,67.772],[-131.635,67.726],[-131.705,67.66],[-131.709,67.59],[-131.668,67.511],[-131.584,67.437],[-131.011,67.313],[-130.812,67.255],[-130.717,67.288],[-130.709,67.367],[-130.792,67.47],[-131.044,67.594],[-131.147,67.733],[-131.379,67.799],[-131.54,67.772]]]}},{"type":"Feature","properties":{"density":2},"geometry":{"type":"Polygon","coordinates":[[[-118.803,65.674],[-118.836,65.663],[-118.858,65.63],[-118.864,65.574],[-118.845,65.497],[-118.762,65.428],[-118.663,65.412],[-118.605,65.428],[-118.577,65.472],[-118.583,65.522],[-118.616,65.569],[-118.743,65.665],[-118.803,65.674]]]}},{"type":"Feature","properties":{"density":2},"geometry":{"type":"Polygon","coordinates":[[[-105.69,38.054],[-105.932,37.986],[-106.045,37.903],[-106.131,37.801],[-106.15,37.6],[-106.026,37.49],[-105.815,37.418],[-105.585,37.433],[-105.45,37.503],[-105.381,37.583],[-105.312,37.707],[-105.15,37.848],[-104.985,37.92],[-104.96,37.997],[-104.987,38.072],[-105.068,38.101],[-105.4,38.096],[-105.69,38.054]]]}},{"type":"Feature","properties":{"density":2},"geometry":{"type":"Polygon","coordinates":[[[-96.408,38.621],[-96.511,38.48],[-96.614,38.269],[-96.66,38.025],[-96.643,37.934],[-96.54,37.872],[-96.412,37.856],[-96.093,37.897],[-95.986,37.951],[-95.837,38.091],[-95.821,38.224],[-95.829,38.36],[-95.87,38.521],[-96.007,38.649],[-96.147,38.674],[-96.313,38.674],[-96.408,38.621]]]}},{"type":"Feature","properties":{"density":2},"geometry":{"type":"Polygon","coordinates":[[[-94.062,33.004],[-94.139,32.962],[-94.23,32.86],[-94.224,32.742],[-94.158,32.665],[-93.896,32.607],[-93.811,32.607],[-93.723,32.648],[-93.69,32.703],[-93.681,32.769],[-93.714,32.929],[-93.761,32.973],[-93.847,33.015],[-94.062,33.004]]]}},{"type":"Feature","properties":{"density":2},"geometry":{"type":"Polygon","coordinates":[[[-92.866,31.126],[-92.896,31.121],[-92.913,31.098],[-92.902,31.016],[-92.693,30.892],[-92.569,30.864],[-92.522,30.878],[-92.48,30.93],[-92.472,31.002],[-92.486,31.032],[-92.557,31.093],[-92.698,31.126],[-92.866,31.126]]]}},{"type":"Feature","properties":{"density":2},"geometry":{"type":"Polygon","coordinates":[[[-92.468,17.992],[-92.496,17.989],[-92.526,17.962],[-92.518,17.899],[-92.416,17.86],[-92.325,17.854],[-92.283,17.879],[-92.281,17.91],[-92.385,17.976],[-92.468,17.992]]]}},{"type":"Feature","properties":{"density":2},"geometry":{"type":"Polygon","coordinates":[[[-77.92,21.46],[-78.003,21.442],[-78.041,21.416],[-78.069,21.382],[-78.054,21.351],[-77.906,21.36],[-77.788,21.401],[-77.655,21.421],[-77.589,21.44],[-77.569,21.477],[-77.582,21.499],[-77.744,21.503],[-77.92,21.46]]]}},{"type":"Feature","properties":{"density":2},"geometry":{"type":"Polygon","coordinates":[[[-78.358,22.081],[-78.319,22.061],[-78.339,22.031],[-78.511,21.98],[-78.52,21.95],[-78.484,21.935],[-78.3,22.002],[-78.21,21.985],[-78.188,21.973],[-78.185,21.95],[-78.257,21.888],[-78.446,21.794],[-78.625,21.779],[-78.854,21.841],[-78.953,21.895],[-78.964,21.94],[-78.938,22.019],[-78.867,22.058],[-78.758,22.073],[-78.53,22.043],[-78.358,22.081]]]}},{"type":"Feature","properties":{"density":2},"geometry":{"type":"Polygon","coordinates":[[[-125.627,66.9],[-126.827,66.735],[-127.746,66.052],[-127.957,63.863],[-127.11,62.38],[-126.051,61.179],[-123.791,58.495],[-123.508,57.436],[-123.508,56.024],[-124.615,54.493],[-125.697,53.034],[-126.969,49.102],[-127.039,46.913],[-125.274,43.947],[-123.437,41.122],[-120.824,38.932],[-118.847,37.873],[-117.223,37.802],[-115.339,38.203],[-114.256,39.568],[-114.398,41.616],[-113.833,43.382],[-112.491,44.017],[-110.584,44.37],[-107.971,44.159],[-104.934,43.17],[-103.309,42.464],[-100.696,42.181],[-99.205,42.079],[-96.914,42.456],[-94.623,41.734],[-92.206,39.317],[-89.475,37.434],[-85.457,36.649],[-80.09,36.649],[-74.691,35.958],[-71.646,35.927],[-70.579,37.214],[-71.144,38.438],[-73.686,39.317],[-75.538,40.415],[-75.601,41.954],[-74.502,42.707],[-72.431,43.335],[-70.767,42.613],[-68.162,40.918],[-64.175,40.886],[-57.176,43.429],[-51.275,47.478],[-47.586,51.527],[-47.069,53.458],[-47.634,54.776],[-49.14,54.776],[-51.259,53.552],[-52.656,52.469],[-55.261,49.55],[-58.368,47.101],[-62.841,45.736],[-64.631,46.442],[-65.243,48.137],[-64.631,49.597],[-63.736,51.292],[-64.113,53.881],[-65.101,56.283],[-68.444,58.966],[-71.881,60.238],[-77.108,60.897],[-82.051,60.19],[-86.995,59.814],[-92.268,60.143],[-93.493,60.991],[-92.975,61.744],[-90.526,62.592],[-89.726,63.91],[-90.338,66.452],[-93.116,68.712],[-97.518,69.866],[-100.343,70.502],[-108.394,71.42],[-112.349,71.349],[-114.751,70.855],[-116.163,69.937],[-117.223,68.736],[-118.211,67.677],[-119.341,66.759],[-120.542,66.476],[-122.096,66.405],[-123.296,66.735],[-124.497,66.9],[-125.627,66.9]]]}},{"type":"Feature","properties":{"density":2},"geometry":{"type":"Polygon","coordinates":[[[-45.723,46.179],[-47.312,45.085],[-49.642,42.542],[-51.02,40.388],[-52.079,37.457],[-54.268,34.314],[-56.175,32.478],[-58.576,30.218],[-60.766,26.546],[-61.472,23.297],[-60.554,19.66],[-58.329,17.329],[-54.939,16.376],[-53.138,17.506],[-52.397,19.554],[-52.397,22.096],[-51.867,24.533],[-49.007,26.757],[-44.451,28.241],[-39.366,29.794],[-35.129,32.478],[-33.01,35.021],[-32.798,38.728],[-33.116,42.966],[-33.858,46.78],[-35.765,49.534],[-37.671,50.064],[-39.79,50.064],[-41.803,49.428],[-44.24,47.627],[-45.723,46.179]]]}},{"type":"Feature","properties":{"density":3},"geometry":{"type":"Polygon","coordinates":[[[-119.057,65.507],[-119.392,65.312],[-119.726,65.089],[-119.88,64.768],[-119.936,64.447],[-119.936,63.861],[-119.908,63.484],[-119.95,63.024],[-120.145,62.829],[-120.354,62.801],[-120.508,62.815],[-120.619,63.191],[-120.731,63.359],[-120.996,63.568],[-121.219,63.638],[-121.596,63.638],[-122.279,63.484],[-122.558,63.512],[-122.81,63.638],[-123.242,63.777],[-123.647,63.819],[-123.898,63.735],[-123.967,63.554],[-123.953,63.359],[-123.884,63.247],[-123.814,63.052],[-123.479,62.494],[-123.409,61.964],[-123.368,61.182],[-123.368,60.206],[-123.34,59.815],[-123.228,59.369],[-123.186,58.867],[-123.13,58.448],[-123.019,57.904],[-122.74,57.36],[-122.489,56.955],[-121.903,56.453],[-121.205,56.244],[-120.494,56.146],[-119.42,56.244],[-118.234,56.802],[-117.773,57.151],[-116.629,57.862],[-116.016,58.392],[-115.611,58.797],[-114.788,59.132],[-113.756,59.271],[-112.877,59.229],[-111.956,58.908],[-111.077,58.406],[-110.268,57.82],[-109.808,57.388],[-109.124,57.039],[-108.273,56.774],[-104.925,55.979],[-104.116,55.965],[-102.344,56.09],[-101.758,56.383],[-101.479,56.844],[-101.381,57.179],[-101.395,57.625],[-101.884,58.295],[-102.163,58.811],[-102.511,59.913],[-102.581,60.22],[-102.581,60.834],[-102.539,61.364],[-102.316,61.88],[-101.939,62.494],[-101.437,63.052],[-100.684,63.666],[-99.889,64.182],[-98.884,64.935],[-97.712,65.981],[-97.308,66.609],[-97.071,67.307],[-96.987,67.767],[-96.973,68.353],[-97.196,68.869],[-97.824,69.441],[-98.828,69.874],[-100.949,70.222],[-102.107,70.25],[-103.92,70.39],[-107.115,70.125],[-108.636,69.929],[-110.324,69.553],[-111.998,68.967],[-114.063,68.325],[-115.332,67.865],[-116.364,67.209],[-117.076,66.651],[-117.759,66.26],[-118.164,65.954],[-119.057,65.507]]]}},{"type":"Feature","properties":{"density":3},"geometry":{"type":"Polygon","coordinates":[[[-90.863,58.242],[-89.398,58.305],[-88.393,58.18],[-87.012,57.824],[-85.694,57.28],[-84.145,56.359],[-82.743,55.668],[-81.634,55.145],[-80.316,54.81],[-78.977,54.685],[-77.889,55.187],[-77.198,55.794],[-76.989,56.296],[-76.905,56.903],[-77.052,57.363],[-77.407,57.761],[-78.098,58.159],[-79.081,58.452],[-80.253,58.64],[-82.241,58.765],[-83.455,58.933],[-84.689,59.142],[-85.296,59.372],[-86.071,59.582],[-87.473,59.916],[-88.226,60.021],[-88.624,60.126],[-89.67,60.084],[-90.36,59.833],[-90.737,59.665],[-91.177,59.372],[-91.469,58.807],[-91.469,58.41],[-91.281,58.221],[-90.863,58.242]]]}},{"type":"Feature","properties":{"density":3},"geometry":{"type":"Polygon","coordinates":[[[-120.962,63.204],[-120.968,63.048],[-120.938,62.934],[-120.881,62.864],[-120.663,62.825],[-120.536,62.724],[-120.492,62.706],[-120.407,62.713],[-120.396,62.743],[-120.409,62.798],[-120.459,62.875],[-120.598,62.935],[-120.72,63.077],[-120.843,63.156],[-120.889,63.228],[-120.933,63.233],[-120.962,63.204]]]}},{"type":"Feature","properties":{"density":3},"geometry":{"type":"Polygon","coordinates":[[[-119.435,63.505],[-119.482,63.477],[-119.485,63.425],[-119.421,63.389],[-119.201,63.345],[-118.677,63.174],[-118.622,63.114],[-118.617,63.028],[-118.567,62.998],[-118.402,63.009],[-118.371,63.061],[-118.391,63.177],[-118.479,63.262],[-119.184,63.535],[-119.245,63.544],[-119.314,63.508],[-119.435,63.505]]]}},{"type":"Feature","properties":{"density":3},"geometry":{"type":"Polygon","coordinates":[[[-119.738,63.827],[-119.779,63.816],[-119.777,63.786],[-119.677,63.728],[-119.606,63.717],[-119.587,63.775],[-119.62,63.816],[-119.683,63.844],[-119.727,63.844],[-119.738,63.827]]]}},{"type":"Feature","properties":{"density":3},"geometry":{"type":"Polygon","coordinates":[[[-119.165,64.279],[-119.176,64.255],[-119.041,64.18],[-119.041,64.15],[-119.099,64.122],[-119.113,64.1],[-119.093,64.075],[-119.038,64.051],[-118.914,64.045],[-118.884,64.086],[-118.884,64.139],[-118.92,64.18],[-119.137,64.29],[-119.165,64.279]]]}},{"type":"Feature","properties":{"density":3},"geometry":{"type":"Polygon","coordinates":[[[-118.316,64.797],[-118.33,64.778],[-118.181,64.616],[-118.145,64.605],[-118.126,64.618],[-118.132,64.671],[-118.165,64.712],[-118.275,64.795],[-118.316,64.797]]]}},{"type":"Feature","properties":{"density":3},"geometry":{"type":"Polygon","coordinates":[[[-119.948,63.657],[-119.978,63.654],[-119.97,63.635],[-119.876,63.571],[-119.735,63.502],[-119.691,63.499],[-119.669,63.519],[-119.689,63.557],[-119.768,63.615],[-119.948,63.657]]]}},{"type":"Feature","properties":{"density":3},"geometry":{"type":"Polygon","coordinates":[[[-124.535,64.399],[-124.585,64.405],[-124.616,64.33],[-124.604,64.231],[-124.331,63.983],[-124.139,63.902],[-123.897,63.679],[-123.618,63.227],[-123.525,63.158],[-123.401,63.165],[-123.31,63.326],[-123.382,63.568],[-123.488,63.679],[-123.593,63.747],[-123.754,63.884],[-124.095,64.07],[-124.535,64.399]]]}},{"type":"Feature","properties":{"density":3},"geometry":{"type":"Polygon","coordinates":[[[-123.314,64.971],[-123.38,64.975],[-123.376,64.95],[-123.306,64.897],[-123.211,64.859],[-123.219,64.917],[-123.285,64.971],[-123.314,64.971]]]}},{"type":"Feature","properties":{"density":3},"geometry":{"type":"Polygon","coordinates":[[[-123.144,65.012],[-123.178,65.004],[-123.153,64.95],[-123.012,64.826],[-122.95,64.818],[-122.934,64.839],[-122.95,64.888],[-123.103,65.021],[-123.144,65.012]]]}},{"type":"Feature","properties":{"density":3},"geometry":{"type":"Polygon","coordinates":[[[-121.665,64.706],[-121.739,64.69],[-121.772,64.661],[-121.785,64.64],[-121.768,64.603],[-121.694,64.591],[-121.545,64.599],[-121.499,64.636],[-121.491,64.673],[-121.532,64.715],[-121.665,64.706]]]}},{"type":"Feature","properties":{"density":3},"geometry":{"type":"Polygon","coordinates":[[[-127.026,66.373],[-127.025,66.338],[-126.991,66.316],[-126.801,66.309],[-126.753,66.334],[-126.752,66.355],[-126.787,66.364],[-127.026,66.373]]]}},{"type":"Feature","properties":{"density":3},"geometry":{"type":"Polygon","coordinates":[[[-109.762,61.804],[-109.806,61.776],[-109.834,61.732],[-109.798,61.66],[-109.68,61.649],[-109.561,61.682],[-109.288,61.831],[-109.25,61.889],[-109.263,61.952],[-109.352,61.961],[-109.429,61.928],[-109.619,61.883],[-109.762,61.804]]]}},{"type":"Feature","properties":{"density":3},"geometry":{"type":"Polygon","coordinates":[[[-122.568,51.33],[-122.598,51.302],[-122.587,51.275],[-122.478,51.24],[-122.41,51.235],[-122.289,51.266],[-122.26,51.293],[-122.246,51.344],[-122.278,51.414],[-122.348,51.428],[-122.393,51.422],[-122.568,51.33]]]}},{"type":"Feature","properties":{"density":3},"geometry":{"type":"Polygon","coordinates":[[[-121.832,51.302],[-121.87,51.248],[-121.862,51.212],[-121.783,51.13],[-121.733,51.104],[-121.711,51.108],[-121.692,51.163],[-121.581,51.162],[-121.57,51.196],[-121.587,51.249],[-121.682,51.343],[-121.766,51.359],[-121.793,51.349],[-121.832,51.302]]]}},{"type":"Feature","properties":{"density":3},"geometry":{"type":"Polygon","coordinates":[[[-123.16,62.999],[-123.169,62.966],[-123.131,62.858],[-123.073,62.784],[-123.061,62.647],[-123.036,62.565],[-122.974,62.548],[-122.933,62.581],[-122.904,62.676],[-122.904,62.776],[-122.933,62.879],[-123.094,63.015],[-123.16,62.999]]]}},{"type":"Feature","properties":{"density":3},"geometry":{"type":"Polygon","coordinates":[[[-123.743,62.809],[-123.78,62.796],[-123.805,62.751],[-123.735,62.709],[-123.594,62.693],[-123.503,62.701],[-123.512,62.759],[-123.582,62.813],[-123.681,62.833],[-123.743,62.809]]]}},{"type":"Feature","properties":{"density":3},"geometry":{"type":"Polygon","coordinates":[[[-122.276,63.516],[-122.313,63.491],[-122.288,63.408],[-122.168,63.321],[-122.032,63.28],[-121.916,63.28],[-121.879,63.325],[-121.891,63.387],[-121.941,63.449],[-122.081,63.499],[-122.222,63.524],[-122.276,63.516]]]}},{"type":"Feature","properties":{"density":3},"geometry":{"type":"Polygon","coordinates":[[[-121.69,63.565],[-121.767,63.528],[-121.792,63.482],[-121.821,63.338],[-121.9,63.214],[-121.916,63.156],[-121.822,63.113],[-121.74,63.141],[-121.602,63.321],[-121.49,63.383],[-121.432,63.462],[-121.441,63.549],[-121.494,63.576],[-121.569,63.59],[-121.69,63.565]]]}},{"type":"Feature","properties":{"density":3},"geometry":{"type":"Polygon","coordinates":[[[-121.375,63.656],[-121.428,63.627],[-121.432,63.594],[-121.224,63.444],[-121.11,63.445],[-121.065,63.462],[-121.027,63.503],[-120.998,63.582],[-121.007,63.656],[-121.06,63.668],[-121.098,63.66],[-121.143,63.598],[-121.219,63.59],[-121.375,63.656]]]}},{"type":"Feature","properties":{"density":3},"geometry":{"type":"Polygon","coordinates":[[[-118.936,63.611],[-118.958,63.586],[-118.953,63.55],[-118.84,63.487],[-118.749,63.462],[-118.597,63.479],[-118.553,63.512],[-118.528,63.57],[-118.506,63.647],[-118.509,63.71],[-118.614,63.782],[-118.735,63.785],[-118.763,63.771],[-118.768,63.735],[-118.735,63.677],[-118.639,63.608],[-118.658,63.561],[-118.845,63.619],[-118.9,63.625],[-118.936,63.611]]]}},{"type":"Feature","properties":{"density":3},"geometry":{"type":"Polygon","coordinates":[[[-118.352,63.804],[-118.421,63.801],[-118.424,63.757],[-118.393,63.674],[-118.313,63.553],[-118.244,63.539],[-118.225,63.597],[-118.258,63.699],[-118.286,63.76],[-118.352,63.804]]]}},{"type":"Feature","properties":{"density":3},"geometry":{"type":"Polygon","coordinates":[[[-121.627,62.205],[-121.85,62.056],[-121.859,61.917],[-121.515,61.452],[-121.469,61.219],[-121.496,61.033],[-121.645,60.829],[-121.906,60.708],[-122.129,60.559],[-122.445,60.392],[-122.715,60.215],[-123.171,59.703],[-123.236,59.517],[-123.245,59.164],[-123.152,58.885],[-122.594,58.513],[-122.337,58.103],[-122.226,57.797],[-122.095,57.313],[-122.092,56.969],[-122.114,56.522],[-122.278,56.216],[-122.51,55.983],[-122.622,55.723],[-122.492,55.546],[-122.213,55.425],[-121.636,55.425],[-120.883,55.676],[-120.036,55.769],[-119.181,55.714],[-118.548,55.611],[-118.055,55.435],[-117.488,55.351],[-116.921,55.314],[-115.395,55.332],[-114.558,55.453],[-114.028,55.593],[-112.875,56.058],[-112.698,56.337],[-112.724,56.835],[-113.232,57.312],[-114.751,58.026],[-114.95,58.428],[-114.863,58.913],[-113.984,59.32],[-112.373,59.132],[-110.882,58.645],[-110.343,57.994],[-109.987,57.29],[-109.031,55.148],[-108.228,54.386],[-107.373,54.089],[-106.244,53.909],[-105.091,54.277],[-104.379,55.009],[-103.919,55.846],[-104.002,57.039],[-104.609,58.002],[-105.425,58.755],[-107.434,59.989],[-108.983,60.764],[-109.673,61.203],[-109.966,61.664],[-110.343,62.312],[-110.678,62.731],[-111.028,62.93],[-111.452,62.919],[-112.683,62.8],[-113.539,62.689],[-114.298,62.689],[-114.633,62.71],[-115.177,62.94],[-115.784,63.233],[-116.495,63.61],[-117.311,64.133],[-117.604,64.279],[-117.96,64.342],[-118.295,64.216],[-118.483,63.589],[-118.295,62.94],[-118.295,62.145],[-118.588,61.705],[-119.195,61.496],[-119.592,61.475],[-120.618,61.956],[-120.89,62.187],[-121.305,62.317],[-121.627,62.205]]]}},{"type":"Feature","properties":{"density":3},"geometry":{"type":"Polygon","coordinates":[[[-105.696,69.789],[-106.324,69.538],[-106.512,69.434],[-106.659,68.785],[-106.198,67.864],[-105.591,67.383],[-104.733,66.63],[-104.461,65.479],[-104.608,64.725],[-105.466,63.951],[-106.638,63.365],[-107.412,63.051],[-107.768,62.444],[-107.621,61.775],[-106.889,61.001],[-106.052,60.54],[-105.068,60.08],[-103.666,59.85],[-102.473,60.08],[-101.302,60.624],[-99.774,61.628],[-98.435,62.758],[-97.388,63.679],[-96.782,64.767],[-96.635,65.918],[-96.844,66.839],[-97.514,67.613],[-98.372,68.304],[-99.648,68.848],[-102.557,69.664],[-103.562,69.789],[-105.005,69.852],[-105.696,69.789]]]}},{"type":"Feature","properties":{"density":3},"geometry":{"type":"Polygon","coordinates":[[[-93.298,31.78],[-93.313,31.777],[-93.307,31.757],[-93.265,31.701],[-93.21,31.694],[-93.204,31.727],[-93.222,31.745],[-93.298,31.78]]]}},{"type":"Feature","properties":{"density":3},"geometry":{"type":"Polygon","coordinates":[[[-129.699,66.478],[-129.76,66.452],[-129.801,66.415],[-129.802,66.395],[-129.762,66.373],[-129.674,66.371],[-129.611,66.327],[-129.541,66.307],[-129.484,66.294],[-129.455,66.303],[-129.442,66.333],[-129.457,66.363],[-129.536,66.384],[-129.628,66.468],[-129.699,66.478]]]}},{"type":"Feature","properties":{"density":3},"geometry":{"type":"Polygon","coordinates":[[[-127.048,66.398],[-127.084,66.382],[-127.09,66.346],[-127.051,66.308],[-126.808,66.291],[-126.753,66.346],[-126.786,66.379],[-127.048,66.398]]]}},{"type":"Feature","properties":{"density":3},"geometry":{"type":"Polygon","coordinates":[[[-120.908,63.198],[-120.966,63.184],[-120.985,63.146],[-120.985,63.091],[-120.823,62.84],[-120.619,62.699],[-120.465,62.669],[-120.426,62.738],[-120.478,62.925],[-120.569,63.047],[-120.768,63.173],[-120.823,63.195],[-120.908,63.198]]]}},{"type":"Feature","properties":{"density":3},"geometry":{"type":"Polygon","coordinates":[[[-122.272,63.518],[-122.294,63.465],[-122.27,63.361],[-122.201,63.264],[-121.947,63.113],[-121.807,63.063],[-121.743,63.063],[-121.614,63.124],[-121.534,63.239],[-121.424,63.314],[-121.283,63.341],[-121.065,63.341],[-120.999,63.399],[-120.999,63.51],[-121.04,63.576],[-121.181,63.639],[-121.275,63.645],[-121.357,63.631],[-121.746,63.51],[-121.891,63.503],[-122.242,63.543],[-122.272,63.518]]]}},{"type":"Feature","properties":{"density":3},"geometry":{"type":"Polygon","coordinates":[[[-122.554,63.308],[-122.752,63.209],[-122.804,63.135],[-122.859,63.036],[-122.873,62.947],[-122.81,62.876],[-122.73,62.837],[-122.6,62.829],[-122.432,62.978],[-122.281,63.027],[-122.069,63.031],[-122.036,63.058],[-122.066,63.137],[-122.267,63.27],[-122.394,63.3],[-122.554,63.308]]]}},{"type":"Feature","properties":{"density":3},"geometry":{"type":"Polygon","coordinates":[[[-123.083,62.792],[-123.184,62.732],[-123.204,62.678],[-123.176,62.622],[-123.066,62.584],[-122.967,62.578],[-122.908,62.625],[-122.881,62.702],[-122.89,62.907],[-122.868,63.022],[-122.879,63.085],[-122.914,63.118],[-122.958,63.11],[-123.005,63.055],[-123.083,62.792]]]}},{"type":"Feature","properties":{"density":3},"geometry":{"type":"Polygon","coordinates":[[[-122.537,62.55],[-122.567,62.484],[-122.573,62.391],[-122.487,62.335],[-122.231,62.357],[-122.157,62.377],[-122.132,62.44],[-122.168,62.515],[-122.27,62.573],[-122.537,62.55]]]}},{"type":"Feature","properties":{"density":3},"geometry":{"type":"Polygon","coordinates":[[[-123.845,63.185],[-123.95,63.055],[-123.965,62.939],[-123.909,62.807],[-123.636,62.716],[-123.525,62.695],[-123.485,62.737],[-123.488,62.786],[-123.669,62.91],[-123.702,62.972],[-123.711,63.047],[-123.678,63.109],[-123.682,63.179],[-123.731,63.214],[-123.793,63.216],[-123.845,63.185]]]}},{"type":"Feature","properties":{"density":3},"geometry":{"type":"Polygon","coordinates":[[[-124.145,64.034],[-124.174,64.026],[-124.194,63.927],[-124.141,63.774],[-123.876,63.427],[-123.719,63.307],[-123.612,63.266],[-123.533,63.257],[-123.426,63.27],[-123.384,63.439],[-123.231,63.481],[-123.227,63.538],[-123.314,63.6],[-123.475,63.625],[-123.76,63.762],[-123.905,63.906],[-123.979,64.006],[-124.05,64.039],[-124.145,64.034]]]}},{"type":"Feature","properties":{"density":3},"geometry":{"type":"Polygon","coordinates":[[[-123.36,64.95],[-123.381,64.928],[-123.346,64.887],[-123.175,64.845],[-123.145,64.864],[-123.155,64.889],[-123.256,64.939],[-123.36,64.95]]]}},{"type":"Feature","properties":{"density":3},"geometry":{"type":"Polygon","coordinates":[[[-123.09,64.992],[-123.156,65.003],[-123.166,64.983],[-123.164,64.946],[-123.129,64.889],[-123.033,64.814],[-122.965,64.799],[-122.943,64.81],[-122.938,64.867],[-122.965,64.924],[-123.022,64.974],[-123.09,64.992]]]}},{"type":"Feature","properties":{"density":3},"geometry":{"type":"Polygon","coordinates":[[[-121.792,64.728],[-121.901,64.679],[-121.917,64.61],[-121.828,64.56],[-121.758,64.559],[-121.58,64.611],[-121.547,64.633],[-121.529,64.676],[-121.563,64.728],[-121.625,64.752],[-121.739,64.756],[-121.792,64.728]]]}},{"type":"Feature","properties":{"density":3},"geometry":{"type":"Polygon","coordinates":[[[-119.98,63.683],[-120.008,63.668],[-120.01,63.646],[-119.984,63.6],[-119.824,63.497],[-119.784,63.494],[-119.747,63.519],[-119.752,63.562],[-119.807,63.611],[-119.945,63.69],[-119.98,63.683]]]}},{"type":"Feature","properties":{"density":3},"geometry":{"type":"Polygon","coordinates":[[[-119.589,63.573],[-119.651,63.58],[-119.651,63.514],[-119.521,63.404],[-119.341,63.301],[-119.113,63.238],[-118.826,63.207],[-118.623,63.141],[-118.411,62.939],[-118.318,62.904],[-118.207,62.9],[-118.163,62.953],[-118.154,63.06],[-118.198,63.141],[-118.325,63.205],[-118.834,63.385],[-119.124,63.536],[-119.254,63.639],[-119.306,63.659],[-119.385,63.659],[-119.506,63.582],[-119.589,63.573]]]}},{"type":"Feature","properties":{"density":3},"geometry":{"type":"Polygon","coordinates":[[[-118.382,63.868],[-118.408,63.857],[-118.43,63.795],[-118.406,63.731],[-118.279,63.543],[-118.22,63.499],[-118.191,63.497],[-118.163,63.562],[-118.226,63.754],[-118.297,63.846],[-118.384,63.89],[-118.382,63.868]]]}},{"type":"Feature","properties":{"density":3},"geometry":{"type":"Polygon","coordinates":[[[-118.69,63.87],[-118.731,63.824],[-118.738,63.787],[-118.722,63.734],[-118.637,63.666],[-118.567,63.664],[-118.558,63.753],[-118.589,63.837],[-118.69,63.87]]]}},{"type":"Feature","properties":{"density":3},"geometry":{"type":"Polygon","coordinates":[[[-118.964,63.631],[-119.003,63.613],[-119.006,63.569],[-118.964,63.539],[-118.762,63.475],[-118.654,63.477],[-118.619,63.51],[-118.628,63.56],[-118.696,63.606],[-118.964,63.631]]]}},{"type":"Feature","properties":{"density":3},"geometry":{"type":"Polygon","coordinates":[[[-116.313,63.206],[-116.416,63.185],[-116.515,63.082],[-116.503,62.937],[-116.284,62.718],[-115.982,62.528],[-115.775,62.445],[-115.61,62.4],[-115.304,62.371],[-115.201,62.433],[-115.201,62.528],[-115.329,62.677],[-115.771,62.789],[-115.891,62.867],[-116.11,63.061],[-116.156,63.136],[-116.234,63.194],[-116.313,63.206]]]}},{"type":"Feature","properties":{"density":3},"geometry":{"type":"Polygon","coordinates":[[[-117.467,65.112],[-117.572,65.117],[-117.613,65.07],[-117.613,64.985],[-117.481,64.91],[-117.247,64.858],[-117.131,64.786],[-117.057,64.707],[-116.941,64.398],[-116.856,64.31],[-116.801,64.307],[-116.754,64.343],[-116.718,64.478],[-116.641,64.649],[-116.555,64.707],[-116.409,64.866],[-116.406,64.982],[-116.445,65.073],[-116.591,65.112],[-117.049,65.087],[-117.467,65.112]]]}},{"type":"Feature","properties":{"density":3},"geometry":{"type":"Polygon","coordinates":[[[-118.33,64.797],[-118.346,64.789],[-118.338,64.712],[-118.126,64.544],[-118.085,64.533],[-118.063,64.574],[-118.101,64.646],[-118.278,64.792],[-118.33,64.797]]]}},{"type":"Feature","properties":{"density":3},"geometry":{"type":"Polygon","coordinates":[[[-121.866,62.069],[-122.145,62.087],[-122.259,62.073],[-122.405,61.96],[-122.482,61.85],[-122.436,61.771],[-122.372,61.726],[-121.897,61.722],[-121.519,61.567],[-121.339,61.443],[-121.215,61.219],[-121.134,60.823],[-121.004,60.717],[-120.855,60.711],[-120.737,60.798],[-120.613,60.928],[-120.607,61.108],[-120.663,61.288],[-120.849,61.573],[-121.004,61.715],[-121.302,61.864],[-121.605,61.976],[-121.782,62.059],[-121.866,62.069]]]}},{"type":"Feature","properties":{"density":3},"geometry":{"type":"Polygon","coordinates":[[[-121.5,62.212],[-121.63,62.212],[-121.68,62.143],[-121.599,61.97],[-121.407,61.883],[-121.134,61.821],[-120.855,61.734],[-120.229,61.666],[-119.851,61.666],[-119.704,61.718],[-119.676,61.789],[-119.723,61.85],[-119.88,61.902],[-120.44,61.952],[-121.126,62.164],[-121.271,62.193],[-121.5,62.212]]]}},{"type":"Feature","properties":{"density":3},"geometry":{"type":"Polygon","coordinates":[[[-121.829,62.484],[-121.845,62.451],[-121.79,62.398],[-121.685,62.384],[-121.691,62.442],[-121.721,62.475],[-121.782,62.497],[-121.829,62.484]]]}},{"type":"Feature","properties":{"density":3},"geometry":{"type":"Polygon","coordinates":[[[-106.533,62.944],[-106.612,62.9],[-106.645,62.852],[-106.751,62.538],[-106.902,62.343],[-106.931,62.253],[-106.906,62.196],[-106.849,62.187],[-106.751,62.202],[-106.691,62.228],[-106.557,62.358],[-106.509,62.454],[-106.454,62.636],[-106.433,62.88],[-106.444,62.931],[-106.485,62.948],[-106.533,62.944]]]}},{"type":"Feature","properties":{"density":3},"geometry":{"type":"Polygon","coordinates":[[[-106.004,62.74],[-106.068,62.711],[-106.286,62.263],[-106.305,62.162],[-106.294,62.083],[-106.233,62.059],[-106.18,62.075],[-106.143,62.134],[-105.943,62.643],[-105.947,62.727],[-106.004,62.74]]]}},{"type":"Feature","properties":{"density":3},"geometry":{"type":"Polygon","coordinates":[[[-94.976,56.824],[-95.034,56.791],[-95.108,56.703],[-95.193,56.557],[-95.213,56.458],[-95.185,56.392],[-95.124,56.386],[-95.078,56.422],[-94.976,56.664],[-94.956,56.78],[-94.976,56.824]]]}},{"type":"Feature","properties":{"density":3},"geometry":{"type":"Polygon","coordinates":[[[-103.419,55.57],[-103.469,55.504],[-103.516,55.284],[-103.549,55.237],[-103.554,55.182],[-103.538,55.14],[-103.485,55.11],[-103.436,55.113],[-103.392,55.184],[-103.356,55.33],[-103.339,55.515],[-103.361,55.545],[-103.419,55.57]]]}},{"type":"Feature","properties":{"density":3},"geometry":{"type":"Polygon","coordinates":[[[-105.533,55.804],[-105.704,55.636],[-105.786,55.452],[-105.836,55.206],[-105.814,55.151],[-105.764,55.124],[-105.616,55.206],[-105.492,55.408],[-105.461,55.498],[-105.436,55.592],[-105.434,55.73],[-105.497,55.807],[-105.533,55.804]]]}},{"type":"Feature","properties":{"density":3},"geometry":{"type":"Polygon","coordinates":[[[-111.895,62.073],[-112.962,62.198],[-113.778,62.177],[-114.824,62.094],[-115.724,61.884],[-116.624,61.633],[-117.335,61.382],[-118.214,60.922],[-119.47,60.106],[-120.6,59.331],[-120.851,58.955],[-120.767,58.536],[-120.307,58.076],[-119.47,57.678],[-119.219,57.448],[-119.24,57.176],[-119.679,56.988],[-120.558,57.176],[-120.83,57.281],[-121.395,57.301],[-121.897,57.092],[-122.086,56.653],[-122.065,56.067],[-122.358,55.648],[-122.609,55.062],[-122.316,54.623],[-120.809,54.016],[-118.612,53.409],[-116.582,53.284],[-114.448,53.493],[-113.883,54.037],[-113.59,54.832],[-113.548,55.439],[-113.632,55.816],[-113.799,56.151],[-114.803,56.82],[-115.599,57.762],[-115.892,58.222],[-116.017,58.85],[-115.787,59.478],[-115.264,60.001],[-114.448,60.231],[-112.439,60.545],[-110.974,60.796],[-110.807,60.964],[-110.744,61.382],[-110.869,61.591],[-111.33,61.842],[-111.895,62.073]]]}},{"type":"Feature","properties":{"density":3},"geometry":{"type":"Polygon","coordinates":[[[-109.682,60.475],[-110.686,60.057],[-111.44,59.638],[-111.858,59.094],[-112.067,58.278],[-111.984,57.022],[-111.586,55.976],[-110.896,54.909],[-109.18,53.842],[-107.945,53.423],[-106.438,53.319],[-105.204,53.905],[-104.409,54.637],[-104.053,56.457],[-103.99,57.378],[-104.199,58.32],[-104.492,59.157],[-104.492,59.492],[-104.074,60.078],[-103.278,60.433],[-102.002,60.936],[-101.081,61.459],[-100.181,62.296],[-99.637,63.237],[-100.119,64.033],[-101.186,64.158],[-102.274,63.991],[-102.944,63.363],[-103.885,62.777],[-105.266,62.107],[-106.313,61.689],[-107.485,61.145],[-108.677,60.747],[-109.682,60.475]]]}},{"type":"Feature","properties":{"density":3},"geometry":{"type":"Polygon","coordinates":[[[-120.103,40.752],[-120.194,40.727],[-120.216,40.667],[-120.134,40.636],[-119.949,40.634],[-119.872,40.653],[-119.836,40.692],[-119.902,40.749],[-120.103,40.752]]]}},{"type":"Feature","properties":{"density":3},"geometry":{"type":"Polygon","coordinates":[[[-105.088,38.022],[-105.16,37.991],[-105.233,37.909],[-105.251,37.864],[-105.218,37.82],[-105.143,37.831],[-105.029,37.929],[-105.027,37.988],[-105.088,38.022]]]}},{"type":"Feature","properties":{"density":3},"geometry":{"type":"Polygon","coordinates":[[[-131.343,67.779],[-131.43,67.742],[-131.492,67.655],[-131.492,67.544],[-131.355,67.451],[-131.2,67.438],[-131.07,67.401],[-131.027,67.401],[-130.983,67.432],[-130.983,67.5],[-131.039,67.575],[-131.225,67.717],[-131.343,67.779]]]}},{"type":"Feature","properties":{"density":3},"geometry":{"type":"Polygon","coordinates":[[[-130.543,66.614],[-130.593,66.57],[-130.593,66.515],[-130.531,66.471],[-129.942,66.347],[-129.551,66.31],[-129.501,66.329],[-129.495,66.353],[-129.557,66.415],[-129.625,66.434],[-129.768,66.471],[-129.904,66.477],[-130.357,66.62],[-130.543,66.614]]]}},{"type":"Feature","properties":{"density":3},"geometry":{"type":"Polygon","coordinates":[[[-130.418,66.388],[-130.487,66.401],[-130.518,66.353],[-130.4,66.242],[-130.227,66.198],[-130.208,66.242],[-130.249,66.304],[-130.357,66.371],[-130.418,66.388]]]}},{"type":"Feature","properties":{"density":3},"geometry":{"type":"Polygon","coordinates":[[[-126.875,66.453],[-126.933,66.442],[-126.985,66.384],[-126.95,66.342],[-126.828,66.331],[-126.743,66.362],[-126.718,66.392],[-126.71,66.42],[-126.748,66.453],[-126.875,66.453]]]}},{"type":"Feature","properties":{"density":3},"geometry":{"type":"Polygon","coordinates":[[[-125.881,65.344],[-125.915,65.344],[-125.944,65.292],[-125.913,65.246],[-125.858,65.221],[-125.588,65.199],[-125.365,65.127],[-125.252,65.108],[-125.202,65.121],[-125.174,65.167],[-125.203,65.229],[-125.282,65.257],[-125.445,65.265],[-125.881,65.344]]]}},{"type":"Feature","properties":{"density":3},"geometry":{"type":"Polygon","coordinates":[[[-123.315,64.926],[-123.41,64.943],[-123.464,64.922],[-123.464,64.877],[-123.431,64.823],[-123.216,64.753],[-123.117,64.753],[-123.018,64.782],[-122.931,64.844],[-122.939,64.902],[-123.059,64.947],[-123.208,64.902],[-123.315,64.926]]]}},{"type":"Feature","properties":{"density":3},"geometry":{"type":"Polygon","coordinates":[[[-121.203,64.55],[-121.298,64.476],[-121.224,64.389],[-121.116,64.368],[-121.042,64.393],[-121.005,64.434],[-121.009,64.492],[-121.054,64.525],[-121.133,64.563],[-121.203,64.55]]]}},{"type":"Feature","properties":{"density":3},"geometry":{"type":"Polygon","coordinates":[[[-120.053,63.925],[-120.099,63.912],[-120.149,63.862],[-120.182,63.767],[-120.149,63.652],[-119.987,63.418],[-119.776,63.303],[-119.236,63.088],[-118.897,62.903],[-118.62,62.858],[-118.264,62.903],[-118.064,62.965],[-117.847,63.081],[-117.743,63.222],[-117.698,63.337],[-117.714,63.528],[-117.818,63.697],[-118.029,63.833],[-118.417,63.891],[-118.745,63.883],[-119.039,63.731],[-119.122,63.74],[-119.241,63.881],[-119.302,63.908],[-119.497,63.929],[-119.649,63.887],[-119.818,63.784],[-119.876,63.795],[-119.979,63.905],[-120.016,63.926],[-120.053,63.925]]]}},{"type":"Feature","properties":{"density":3},"geometry":{"type":"Polygon","coordinates":[[[-118.11,64.206],[-118.143,64.189],[-118.176,64.142],[-118.184,64.093],[-118.115,64.01],[-117.958,63.889],[-117.804,63.817],[-117.503,63.707],[-117.096,63.635],[-116.966,63.63],[-116.878,63.668],[-116.82,63.864],[-116.875,63.944],[-116.933,64.01],[-117.071,64.106],[-117.379,64.277],[-117.55,64.349],[-117.867,64.354],[-118.057,64.252],[-118.11,64.206]]]}},{"type":"Feature","properties":{"density":3},"geometry":{"type":"Polygon","coordinates":[[[-119.38,64.721],[-119.408,64.723],[-119.435,64.697],[-119.411,64.635],[-119.33,64.596],[-119.272,64.583],[-119.233,64.594],[-119.24,64.673],[-119.266,64.697],[-119.341,64.728],[-119.38,64.721]]]}},{"type":"Feature","properties":{"density":3},"geometry":{"type":"Polygon","coordinates":[[[-118.357,64.811],[-118.401,64.805],[-118.415,64.78],[-118.362,64.657],[-118.199,64.537],[-118.088,64.48],[-117.892,64.403],[-117.657,64.361],[-117.559,64.372],[-117.486,64.432],[-117.488,64.522],[-117.524,64.62],[-117.613,64.69],[-118.002,64.783],[-118.357,64.811]]]}},{"type":"Feature","properties":{"density":3},"geometry":{"type":"Polygon","coordinates":[[[-117.397,65.833],[-117.444,65.808],[-117.468,65.762],[-117.441,65.72],[-117.344,65.706],[-117.275,65.659],[-117.207,65.64],[-117.016,65.624],[-116.981,65.582],[-117.016,65.549],[-117.419,65.538],[-117.519,65.512],[-117.548,65.438],[-117.521,65.368],[-117.433,65.332],[-117.361,65.326],[-117.347,65.301],[-117.361,65.277],[-117.46,65.268],[-117.73,65.279],[-117.785,65.263],[-117.829,65.188],[-117.829,65.122],[-117.744,65.056],[-117.303,64.841],[-116.906,64.764],[-116.589,64.76],[-116.115,64.797],[-115.856,64.858],[-115.82,64.917],[-115.785,65.016],[-115.742,65.247],[-115.765,65.484],[-115.818,65.602],[-115.909,65.662],[-116.132,65.756],[-116.319,65.811],[-116.584,65.85],[-116.817,65.868],[-117.054,65.837],[-117.397,65.833]]]}},{"type":"Feature","properties":{"density":3},"geometry":{"type":"Polygon","coordinates":[[[-116.335,63.254],[-116.465,63.248],[-116.509,63.161],[-116.484,63.087],[-116.385,62.926],[-116.199,62.777],[-116.093,62.634],[-115.889,62.523],[-115.579,62.411],[-115.436,62.324],[-115.182,62.238],[-115.021,62.138],[-114.717,61.983],[-114.357,61.872],[-114.122,61.866],[-114.016,62.008],[-114.103,62.207],[-114.748,62.541],[-115.374,62.771],[-115.821,63.019],[-115.945,63.118],[-116.106,63.192],[-116.335,63.254]]]}},{"type":"Feature","properties":{"density":3},"geometry":{"type":"Polygon","coordinates":[[[-117.423,66.5],[-117.547,66.489],[-117.572,66.462],[-117.574,66.409],[-117.464,66.354],[-117.53,66.274],[-117.555,66.211],[-117.475,66.175],[-116.885,66.183],[-116.745,66.225],[-116.723,66.288],[-116.803,66.374],[-117.235,66.487],[-117.423,66.5]]]}},{"type":"Feature","properties":{"density":3},"geometry":{"type":"Polygon","coordinates":[[[-106.467,62.942],[-106.522,62.934],[-106.599,62.796],[-106.637,62.68],[-106.668,62.484],[-106.671,62.38],[-106.637,62.3],[-106.552,62.269],[-106.508,62.297],[-106.458,62.407],[-106.442,62.498],[-106.343,62.785],[-106.351,62.859],[-106.395,62.923],[-106.467,62.942]]]}},{"type":"Feature","properties":{"density":3},"geometry":{"type":"Polygon","coordinates":[[[-106.001,62.721],[-106.081,62.647],[-106.106,62.567],[-106.119,62.308],[-106.103,62.198],[-106.026,62.104],[-105.96,62.074],[-105.91,62.101],[-105.882,62.17],[-105.836,62.374],[-105.836,62.562],[-105.869,62.661],[-105.893,62.686],[-106.001,62.721]]]}},{"type":"Feature","properties":{"density":3},"geometry":{"type":"Polygon","coordinates":[[[-105.539,55.83],[-105.62,55.824],[-105.706,55.756],[-105.737,55.272],[-105.768,55.161],[-105.973,54.77],[-106.016,54.596],[-105.837,54.404],[-105.675,54.417],[-105.527,54.572],[-105.384,54.807],[-105.297,55.291],[-105.297,55.495],[-105.316,55.675],[-105.458,55.867],[-105.539,55.83]]]}},{"type":"Feature","properties":{"density":3},"geometry":{"type":"Polygon","coordinates":[[[-103.363,55.669],[-103.518,55.663],[-103.623,55.576],[-103.648,55.365],[-103.635,54.776],[-103.679,54.603],[-103.753,54.156],[-103.753,53.933],[-103.604,53.784],[-103.524,53.84],[-103.468,54.038],[-103.332,54.789],[-103.27,54.956],[-103.201,55.384],[-103.232,55.557],[-103.313,55.669],[-103.363,55.669]]]}},{"type":"Feature","properties":{"density":3},"geometry":{"type":"Polygon","coordinates":[[[-102.767,56.363],[-102.817,56.363],[-102.854,56.345],[-102.817,56.153],[-102.767,55.998],[-102.705,55.967],[-102.594,56.01],[-102.557,56.097],[-102.563,56.184],[-102.594,56.239],[-102.643,56.283],[-102.767,56.363]]]}},{"type":"Feature","properties":{"density":3},"geometry":{"type":"Polygon","coordinates":[[[-102.752,56.368],[-102.78,56.363],[-102.802,56.324],[-102.8,56.267],[-102.738,56.154],[-102.655,56.106],[-102.603,56.095],[-102.569,56.108],[-102.548,56.157],[-102.552,56.214],[-102.574,56.253],[-102.633,56.326],[-102.684,56.359],[-102.73,56.376],[-102.752,56.368]]]}},{"type":"Feature","properties":{"density":3},"geometry":{"type":"Polygon","coordinates":[[[-109.415,61.978],[-109.595,61.873],[-109.638,61.792],[-109.632,61.681],[-109.527,61.507],[-109.372,61.389],[-109.167,61.302],[-108.745,61.253],[-108.603,61.265],[-108.528,61.34],[-108.51,61.464],[-108.578,61.575],[-108.671,61.662],[-108.801,61.705],[-108.907,61.767],[-109.062,61.873],[-109.142,61.966],[-109.235,62.009],[-109.415,61.978]]]}},{"type":"Feature","properties":{"density":3},"geometry":{"type":"Polygon","coordinates":[[[-110.041,63.287],[-110.079,63.278],[-110.132,63.225],[-110.136,63.154],[-110.054,63.059],[-109.988,63.01],[-109.773,62.927],[-109.686,62.948],[-109.649,63.001],[-109.673,63.088],[-109.719,63.158],[-109.855,63.237],[-110.041,63.287]]]}},{"type":"Feature","properties":{"density":3},"geometry":{"type":"Polygon","coordinates":[[[-122.645,51.531],[-122.785,51.484],[-122.827,51.435],[-122.847,51.373],[-122.806,51.274],[-122.054,51.059],[-121.76,51.05],[-121.686,51.083],[-121.611,51.17],[-121.504,51.369],[-121.479,51.526],[-121.551,51.606],[-121.694,51.608],[-121.789,51.584],[-122.004,51.41],[-122.103,51.422],[-122.169,51.468],[-122.24,51.563],[-122.36,51.637],[-122.438,51.658],[-122.645,51.531]]]}},{"type":"Feature","properties":{"density":3},"geometry":{"type":"Polygon","coordinates":[[[-105.221,38.01],[-105.456,37.892],[-105.643,37.729],[-105.814,37.52],[-105.811,37.434],[-105.726,37.432],[-105.632,37.476],[-105.508,37.641],[-105.409,37.729],[-105.296,37.806],[-104.987,37.941],[-104.982,38.01],[-105.009,38.049],[-105.053,38.071],[-105.133,38.071],[-105.221,38.01]]]}},{"type":"Feature","properties":{"density":3},"geometry":{"type":"Polygon","coordinates":[[[-120.018,41.001],[-120.134,40.968],[-120.208,40.916],[-120.285,40.787],[-120.277,40.707],[-120.175,40.618],[-119.9,40.602],[-119.315,40.679],[-119.117,40.77],[-119.1,40.869],[-119.197,40.952],[-119.302,40.993],[-120.018,41.001]]]}},{"type":"Feature","properties":{"density":3},"geometry":{"type":"Polygon","coordinates":[[[-96.505,38.083],[-96.566,38.024],[-96.574,37.927],[-96.459,37.927],[-96.373,38.007],[-96.373,38.054],[-96.414,38.098],[-96.471,38.102],[-96.505,38.083]]]}},{"type":"Feature","properties":{"density":3},"geometry":{"type":"Polygon","coordinates":[[[-105.091,68.518],[-106.075,68.277],[-106.263,68.089],[-106.42,67.712],[-106.263,66.959],[-105.196,66.394],[-104.286,66.142],[-103.03,65.954],[-101.586,65.515],[-100.289,64.908],[-99.169,64.071],[-98.792,63.412],[-98.479,62.815],[-98.165,61.968],[-97.129,61.371],[-96.03,61.56],[-95.559,62.501],[-95.465,63.663],[-95.779,64.699],[-96.532,65.546],[-98.196,66.582],[-99.703,67.21],[-101.304,67.775],[-102.402,68.183],[-104.16,68.371],[-105.091,68.518]]]}},{"type":"Feature","properties":{"density":3},"geometry":{"type":"Polygon","coordinates":[[[-114.037,62.114],[-115.23,61.895],[-116.328,61.581],[-118.588,61.016],[-119.499,60.482],[-120.44,59.823],[-121.1,59.132],[-121.037,58.41],[-120.283,57.72],[-119.687,57.5],[-119.467,56.841],[-119.624,56.401],[-120.283,56.307],[-121.256,56.715],[-121.539,56.621],[-121.79,56.213],[-121.978,55.46],[-122.135,55.02],[-122.638,54.581],[-123.297,54.173],[-123.516,53.922],[-123.642,53.294],[-123.422,52.98],[-122.543,53.137],[-121.602,53.545],[-120.44,53.89],[-119.059,53.733],[-118.494,53.482],[-117.678,53.043],[-116.58,52.698],[-115.23,52.352],[-113.158,52.195],[-111.714,52.038],[-110.616,52.321],[-109.329,52.823],[-108.607,53.985],[-108.356,55.805],[-108.983,56.935],[-110.71,58.285],[-112.248,59.038],[-112.97,59.446],[-113.158,60.168],[-112.719,60.702],[-111.903,60.89],[-110.773,60.67],[-110.019,60.576],[-109.643,60.89],[-110.145,61.361],[-111.871,61.926],[-113.033,62.177],[-114.037,62.114]]]}}]}