{"type":"FeatureCollection","features":[{"type":"Feature","properties":{"density":1},"geometry":{"type":"Polygon","coordinates":[[[-105.433,33.659],[-105.199,33.817],[-104.794,34.019],[-104.308,34.318],[-104.161,34.429],[-104.055,34.541],[-103.802,34.723],[-103.488,34.981],[-102.581,35.93],[-102.19,36.393],[-101.859,36.747],[-101.469,37.047],[-99.123,38.619],[-98.439,38.984],[-97.813,39.264],[-97.323,39.428],[-96.846,39.482],[-96.537,39.314],[-96.321,39.029],[-96.309,38.802],[-96.389,38.642],[-96.56,38.528],[-97.823,37.983],[-99.146,37.366],[-99.721,37.062],[-101.15,36.25],[-101.615,35.887],[-102.668,34.966],[-103.037,34.692],[-103.473,34.308],[-103.987,33.904],[-104.659,33.596],[-105.012,33.482],[-105.217,33.459],[-105.384,33.511],[-105.454,33.595],[-105.442,33.646],[-105.433,33.659]]]}},{"type":"Feature","properties":{"density":1},"geometry":{"type":"Polygon","coordinates":[[[-106.911,26.317],[-106.898,26.328],[-106.871,26.483],[-106.859,26.512],[-106.832,26.519],[-106.796,26.492],[-106.812,26.382],[-106.859,26.312],[-106.889,26.299],[-106.911,26.317]]]}},{"type":"Feature","properties":{"density":1},"geometry":{"type":"Polygon","coordinates":[[[-107.084,26.726],[-107.021,26.866],[-106.997,26.89],[-106.972,26.884],[-106.958,26.857],[-106.992,26.764],[-107.048,26.71],[-107.066,26.71],[-107.084,26.726]]]}},{"type":"Feature","properties":{"density":1},"geometry":{"type":"Polygon","coordinates":[[[-106.571,26.263],[-106.538,26.384],[-106.511,26.4],[-106.486,26.384],[-106.484,26.364],[-106.502,26.305],[-106.553,26.238],[-106.571,26.263]]]}},{"type":"Feature","properties":{"density":1},"geometry":{"type":"Polygon","coordinates":[[[-82.371,31.774],[-82.445,31.895],[-82.553,32.007],[-82.607,32.028],[-82.641,32.006],[-82.636,31.949],[-82.595,31.895],[-82.411,31.762],[-82.373,31.743],[-82.366,31.761],[-82.371,31.774]]]}},{"type":"Feature","properties":{"density":1},"geometry":{"type":"Polygon","coordinates":[[[-82.477,31.653],[-82.537,31.669],[-82.668,31.773],[-82.706,31.829],[-82.699,31.851],[-82.657,31.86],[-82.612,31.829],[-82.51,31.739],[-82.456,31.653],[-82.477,31.653]]]}},{"type":"Feature","properties":{"density":1},"geometry":{"type":"Polygon","coordinates":[[[-84.029,30.744],[-84.105,30.784],[-84.343,31.017],[-84.337,31.088],[-84.297,31.124],[-84.211,31.113],[-84.039,30.896],[-83.988,30.805],[-83.998,30.769],[-84.029,30.744]]]}},{"type":"Feature","properties":{"density":1},"geometry":{"type":"Polygon","coordinates":[[[-84.555,31.255],[-84.661,31.367],[-84.737,31.508],[-84.753,31.584],[-84.717,31.635],[-84.661,31.655],[-84.606,31.63],[-84.53,31.539],[-84.479,31.351],[-84.474,31.296],[-84.494,31.26],[-84.555,31.255]]]}},{"type":"Feature","properties":{"density":1},"geometry":{"type":"Polygon","coordinates":[[[-85.559,31.47],[-85.62,31.53],[-85.701,31.686],[-85.728,31.814],[-85.671,31.848],[-85.603,31.81],[-85.559,31.713],[-85.515,31.503],[-85.529,31.48],[-85.559,31.47]]]}},{"type":"Feature","properties":{"density":1},"geometry":{"type":"Polygon","coordinates":[[[-81.745,28.371],[-81.837,28.398],[-82.113,28.422],[-82.15,28.395],[-82.167,28.338],[-82.13,28.304],[-82.032,28.277],[-81.745,28.321],[-81.742,28.341],[-81.745,28.371]]]}},{"type":"Feature","properties":{"density":1},"geometry":{"type":"Polygon","coordinates":[[[-82.184,29.104],[-82.424,29.161],[-82.589,29.131],[-82.596,29.07],[-82.532,29.04],[-82.255,29.046],[-82.188,29.067],[-82.184,29.104]]]}},{"type":"Feature","properties":{"density":1},"geometry":{"type":"Polygon","coordinates":[[[-82.245,29.083],[-82.359,29.062],[-82.287,29.053],[-82.229,29.068],[-82.23,29.083],[-82.245,29.083]]]}},{"type":"Feature","properties":{"density":1},"geometry":{"type":"Polygon","coordinates":[[[-84.53,31.254],[-84.711,31.448],[-84.711,31.487],[-84.659,31.578],[-84.599,31.559],[-84.564,31.437],[-84.498,31.32],[-84.495,31.287],[-84.527,31.253],[-84.53,31.254]]]}},{"type":"Feature","properties":{"density":1},"geometry":{"type":"Polygon","coordinates":[[[-84.219,31.482],[-84.096,31.577],[-84.066,31.644],[-84.072,31.665],[-84.243,31.505],[-84.227,31.481],[-84.219,31.482]]]}},{"type":"Feature","properties":{"density":1},"geometry":{"type":"Polygon","coordinates":[[[-82.476,31.77],[-82.764,31.924],[-82.89,32.056],[-82.905,32.085],[-82.897,32.112],[-82.864,32.121],[-82.762,32.083],[-82.578,31.95],[-82.44,31.803],[-82.443,31.774],[-82.464,31.768],[-82.476,31.77]]]}},{"type":"Feature","properties":{"density":1},"geometry":{"type":"Polygon","coordinates":[[[-79.499,34.959],[-79.385,35.029],[-79.322,35.043],[-79.269,35.083],[-79.254,35.161],[-79.268,35.182],[-79.296,35.197],[-79.334,35.188],[-79.475,35.121],[-79.527,35.049],[-79.544,34.987],[-79.523,34.942],[-79.506,34.948],[-79.499,34.959]]]}},{"type":"Feature","properties":{"density":1},"geometry":{"type":"Polygon","coordinates":[[[-74.462,39.981],[-74.364,39.982],[-74.277,40.018],[-74.264,40.05],[-74.276,40.075],[-74.22,40.179],[-74.225,40.251],[-74.253,40.299],[-74.307,40.305],[-74.397,40.201],[-74.489,40.027],[-74.489,39.985],[-74.471,39.973],[-74.462,39.981]]]}},{"type":"Feature","properties":{"density":1},"geometry":{"type":"Polygon","coordinates":[[[-75.479,41.449],[-75.288,41.479],[-75.111,41.546],[-75.012,41.615],[-75.0,41.665],[-75.069,41.678],[-75.197,41.669],[-75.461,41.572],[-75.513,41.528],[-75.519,41.486],[-75.497,41.456],[-75.479,41.449]]]}},{"type":"Feature","properties":{"density":1},"geometry":{"type":"Polygon","coordinates":[[[-118.605,35.335],[-118.81,35.347],[-118.934,35.331],[-119.028,35.275],[-119.026,35.248],[-118.974,35.207],[-118.817,35.263],[-118.644,35.259],[-118.563,35.286],[-118.578,35.326],[-118.605,35.335]]]}},{"type":"Feature","properties":{"density":1},"geometry":{"type":"Polygon","coordinates":[[[-120.209,33.978],[-120.383,33.926],[-120.68,33.806],[-120.734,33.77],[-120.767,33.714],[-120.65,33.707],[-120.263,33.812],[-120.11,33.894],[-120.008,33.927],[-119.987,33.944],[-119.982,33.98],[-120.014,34.01],[-120.203,33.987],[-120.209,33.978]]]}},{"type":"Feature","properties":{"density":1},"geometry":{"type":"Polygon","coordinates":[[[-105.452,33.632],[-105.098,33.899],[-104.845,34.004],[-104.774,34.014],[-104.75,34.004],[-104.707,33.926],[-104.744,33.842],[-105.122,33.592],[-105.253,33.545],[-105.344,33.538],[-105.415,33.555],[-105.439,33.585],[-105.452,33.632]]]}},{"type":"Feature","properties":{"density":1},"geometry":{"type":"Polygon","coordinates":[[[-102.538,37.076],[-102.436,37.139],[-102.4,37.141],[-102.392,37.123],[-102.403,37.085],[-102.5,37.018],[-102.541,37.034],[-102.548,37.066],[-102.538,37.076]]]}},{"type":"Feature","properties":{"density":1},"geometry":{"type":"Polygon","coordinates":[[[-104.611,28.532],[-104.708,28.568],[-104.766,28.566],[-104.805,28.546],[-104.814,28.51],[-104.789,28.467],[-104.629,28.357],[-104.541,28.352],[-104.526,28.375],[-104.53,28.431],[-104.591,28.525],[-104.611,28.532]]]}},{"type":"Feature","properties":{"density":1},"geometry":{"type":"Polygon","coordinates":[[[-100.437,19.033],[-100.332,19.028],[-100.233,18.999],[-100.215,18.961],[-100.235,18.882],[-100.208,18.727],[-100.235,18.724],[-100.287,18.758],[-100.266,18.855],[-100.309,18.918],[-100.401,18.958],[-100.44,18.958],[-100.469,18.992],[-100.455,19.021],[-100.437,19.033]]]}},{"type":"Feature","properties":{"density":1},"geometry":{"type":"Polygon","coordinates":[[[-101.684,19.12],[-101.637,19.145],[-101.541,19.148],[-101.393,19.115],[-101.231,19.045],[-101.205,19.03],[-101.156,18.956],[-101.15,18.878],[-101.301,18.851],[-101.423,18.883],[-101.682,19.025],[-101.699,19.064],[-101.685,19.106],[-101.684,19.12]]]}},{"type":"Feature","properties":{"density":1},"geometry":{"type":"Polygon","coordinates":[[[-96.908,26.233],[-97.783,25.628],[-98.281,25.113],[-98.503,24.601],[-98.588,23.9],[-98.554,23.285],[-98.537,22.585],[-98.349,21.952],[-98.007,21.525],[-97.222,20.278],[-96.811,19.851],[-96.76,19.373],[-96.846,19.133],[-97.068,18.945],[-97.683,18.894],[-98.64,18.962],[-98.998,19.031],[-100.109,19.116],[-100.587,19.27],[-100.963,19.441],[-101.356,19.68],[-101.954,20.278],[-102.381,20.603],[-102.672,20.859],[-102.945,21.286],[-103.526,21.747],[-103.902,22.226],[-104.193,22.363],[-104.62,22.721],[-105.047,22.909],[-105.235,22.943],[-105.73,22.807],[-106.55,22.226],[-106.773,21.952],[-107.029,21.508],[-107.388,20.791],[-107.627,20.005],[-107.815,19.526],[-108.054,18.792],[-108.138,18.338],[-108.131,17.958],[-108.047,17.426],[-108.07,16.94],[-108.146,16.545],[-108.267,16.302],[-108.472,16.021],[-108.737,15.836],[-109.472,15.477],[-109.718,15.338],[-110.318,15.109],[-110.549,14.981],[-110.89,14.708],[-111.283,14.281],[-111.403,13.922],[-111.525,13.384],[-111.574,12.88],[-111.522,12.401],[-111.42,12.008],[-111.027,11.496],[-110.702,11.223],[-110.138,10.812],[-109.558,10.471],[-108.857,10.283],[-107.541,10.18],[-106.26,10.232],[-105.645,10.232],[-103.048,10.129],[-101.894,10.218],[-100.997,10.249],[-100.126,10.266],[-99.255,10.214],[-98.383,10.197],[-97.016,10.257],[-95.923,10.249],[-94.829,10.3],[-94.009,10.3],[-93.377,10.351],[-92.711,10.317],[-91.942,10.317],[-91.207,10.249],[-89.977,10.18],[-89.464,10.197],[-88.969,10.163],[-87.773,10.351],[-87.192,10.573],[-86.799,10.849],[-86.685,11.43],[-86.85,11.991],[-87.038,12.504],[-87.363,13.222],[-87.534,14.366],[-87.448,14.981],[-87.243,15.955],[-87.243,16.417],[-87.192,16.827],[-87.483,17.715],[-87.961,18.211],[-89.806,19.595],[-90.25,19.868],[-90.951,20.244],[-91.412,20.739],[-91.822,21.235],[-92.044,21.884],[-92.164,22.499],[-92.386,23.046],[-92.728,24.379],[-93.309,25.882],[-93.428,26.224],[-93.565,26.497],[-93.821,26.805],[-94.266,27.198],[-94.761,27.249],[-95.262,27.109],[-95.633,26.976],[-96.341,26.578],[-96.604,26.411],[-96.908,26.233]]]}},{"type":"Feature","properties":{"density":1},"geometry":{"type":"Polygon","coordinates":[[[-103.103,19.055],[-103.132,19.061],[-103.181,19.036],[-103.199,19.016],[-103.193,18.982],[-103.006,18.926],[-102.931,18.976],[-102.884,19.031],[-102.922,19.058],[-103.085,19.052],[-103.103,19.055]]]}},{"type":"Feature","properties":{"density":1},"geometry":{"type":"Polygon","coordinates":[[[-104.203,19.379],[-104.221,19.438],[-104.194,19.51],[-104.164,19.49],[-104.156,19.429],[-104.161,19.375],[-104.191,19.372],[-104.203,19.379]]]}},{"type":"Feature","properties":{"density":1},"geometry":{"type":"Polygon","coordinates":[[[-104.625,19.512],[-104.801,19.544],[-104.847,19.516],[-104.769,19.459],[-104.644,19.429],[-104.585,19.461],[-104.58,19.486],[-104.612,19.51],[-104.625,19.512]]]}},{"type":"Feature","properties":{"density":1},"geometry":{"type":"Polygon","coordinates":[[[-104.291,21.043],[-104.326,21.007],[-104.356,20.912],[-104.342,20.857],[-104.311,20.84],[-104.204,20.846],[-103.957,20.894],[-103.709,20.888],[-103.702,20.915],[-103.727,20.941],[-104.039,21.052],[-104.194,21.068],[-104.266,21.05],[-104.291,21.043]]]}},{"type":"Feature","properties":{"density":1},"geometry":{"type":"Polygon","coordinates":[[[-104.47,21.875],[-104.367,21.922],[-104.362,21.961],[-104.416,21.959],[-104.493,21.917],[-104.508,21.887],[-104.491,21.875],[-104.47,21.875]]]}},{"type":"Feature","properties":{"density":1},"geometry":{"type":"Polygon","coordinates":[[[-99.45,17.623],[-99.506,17.646],[-99.527,17.637],[-99.547,17.596],[-99.563,17.545],[-99.531,17.374],[-99.626,17.236],[-99.716,17.164],[-99.725,17.113],[-99.677,17.061],[-99.632,17.059],[-99.576,17.095],[-99.556,17.133],[-99.423,17.212],[-99.329,17.29],[-99.326,17.326],[-99.347,17.344],[-99.439,17.594],[-99.45,17.623]]]}},{"type":"Feature","properties":{"density":1},"geometry":{"type":"Polygon","coordinates":[[[-98.811,16.908],[-98.753,16.883],[-98.703,16.834],[-98.678,16.739],[-98.714,16.708],[-98.807,16.766],[-98.845,16.861],[-98.831,16.901],[-98.811,16.908]]]}},{"type":"Feature","properties":{"density":1},"geometry":{"type":"Polygon","coordinates":[[[-98.803,16.905],[-98.823,16.95],[-98.91,17.037],[-98.952,17.046],[-98.964,16.999],[-98.945,16.97],[-98.839,16.888],[-98.816,16.884],[-98.802,16.902],[-98.803,16.905]]]}},{"type":"Feature","properties":{"density":1},"geometry":{"type":"Polygon","coordinates":[[[-95.36,18.001],[-95.46,17.889],[-95.502,17.925],[-95.474,17.99],[-95.435,18.022],[-95.369,18.043],[-95.35,18.033],[-95.35,18.006],[-95.36,18.001]]]}},{"type":"Feature","properties":{"density":1},"geometry":{"type":"Polygon","coordinates":[[[-96.146,18.757],[-96.121,18.772],[-96.117,18.809],[-96.136,18.824],[-96.174,18.787],[-96.16,18.757],[-96.146,18.757]]]}},{"type":"Feature","properties":{"density":1},"geometry":{"type":"Polygon","coordinates":[[[-96.785,17.651],[-96.792,17.676],[-96.761,17.703],[-96.714,17.715],[-96.591,17.7],[-96.57,17.681],[-96.625,17.648],[-96.777,17.644],[-96.785,17.651]]]}},{"type":"Feature","properties":{"density":1},"geometry":{"type":"Polygon","coordinates":[[[-96.006,17.598],[-96.037,17.617],[-96.075,17.596],[-96.048,17.541],[-96.024,17.539],[-96.007,17.557],[-96.006,17.598]]]}},{"type":"Feature","properties":{"density":1},"geometry":{"type":"Polygon","coordinates":[[[-95.254,17.015],[-95.246,17.093],[-95.231,17.08],[-95.224,17.008],[-95.239,16.991],[-95.26,16.999],[-95.254,17.015]]]}},{"type":"Feature","properties":{"density":1},"geometry":{"type":"Polygon","coordinates":[[[-93.994,17.532],[-93.998,17.582],[-93.962,17.697],[-93.959,17.772],[-94.007,17.951],[-94.033,17.996],[-94.091,18.282],[-94.135,18.384],[-94.147,18.446],[-94.124,18.546],[-94.165,18.699],[-94.288,19.002],[-94.274,19.076],[-94.253,19.082],[-94.144,18.956],[-93.967,18.806],[-93.922,18.71],[-93.85,18.636],[-93.808,18.6],[-93.706,18.579],[-93.578,18.63],[-93.461,18.773],[-93.187,19.052],[-93.125,19.098],[-93.061,19.116],[-93.01,19.104],[-92.969,19.074],[-92.992,18.972],[-93.107,18.801],[-93.28,18.635],[-93.386,18.492],[-93.439,18.357],[-93.491,18.285],[-93.673,18.2],[-93.692,18.167],[-93.65,17.853],[-93.691,17.714],[-93.775,17.52],[-93.815,17.493],[-93.851,17.493],[-93.865,17.507],[-93.859,17.583],[-93.871,17.604],[-93.901,17.592],[-93.935,17.519],[-93.985,17.522],[-93.994,17.532]]]}},{"type":"Feature","properties":{"density":1},"geometry":{"type":"Polygon","coordinates":[[[-92.913,17.725],[-93.149,17.749],[-93.383,17.835],[-93.464,17.904],[-93.461,17.97],[-93.396,18.024],[-93.26,18.081],[-93.153,18.099],[-93.041,18.097],[-92.742,18.01],[-92.577,17.937],[-92.529,17.883],[-92.534,17.841],[-92.568,17.818],[-92.867,17.845],[-92.898,17.818],[-92.879,17.742],[-92.889,17.719],[-92.909,17.721],[-92.913,17.725]]]}},{"type":"Feature","properties":{"density":1},"geometry":{"type":"Polygon","coordinates":[[[-91.879,18.267],[-91.959,18.33],[-92.11,18.414],[-92.148,18.492],[-92.143,18.537],[-92.1,18.547],[-92.05,18.66],[-91.99,18.694],[-91.927,18.696],[-91.821,18.651],[-91.616,18.438],[-91.614,18.381],[-91.677,18.351],[-91.779,18.376],[-91.884,18.438],[-91.909,18.43],[-91.906,18.382],[-91.834,18.3],[-91.863,18.267],[-91.879,18.267]]]}},{"type":"Feature","properties":{"density":1},"geometry":{"type":"Polygon","coordinates":[[[-90.473,17.072],[-90.527,17.085],[-90.597,17.148],[-90.649,17.229],[-90.653,17.288],[-90.619,17.308],[-90.559,17.297],[-90.446,17.241],[-90.401,17.173],[-90.399,17.139],[-90.417,17.09],[-90.451,17.074],[-90.473,17.072]]]}},{"type":"Feature","properties":{"density":1},"geometry":{"type":"Polygon","coordinates":[[[-91.846,17.443],[-91.906,17.449],[-91.976,17.505],[-92.096,17.532],[-92.294,17.646],[-92.392,17.638],[-92.432,17.601],[-92.498,17.602],[-92.6,17.559],[-92.602,17.506],[-92.543,17.433],[-92.255,17.323],[-92.162,17.178],[-92.126,17.146],[-92.062,17.125],[-92.027,17.137],[-91.966,17.217],[-91.847,17.242],[-91.766,17.289],[-91.763,17.313],[-91.783,17.337],[-91.771,17.392],[-91.829,17.439],[-91.846,17.443]]]}},{"type":"Feature","properties":{"density":1},"geometry":{"type":"Polygon","coordinates":[[[-93.899,16.441],[-93.917,16.475],[-93.915,16.523],[-93.885,16.586],[-93.789,16.681],[-93.737,16.682],[-93.719,16.664],[-93.726,16.604],[-93.806,16.498],[-93.887,16.436],[-93.899,16.441]]]}},{"type":"Feature","properties":{"density":1},"geometry":{"type":"Polygon","coordinates":[[[-93.554,16.423],[-93.534,16.501],[-93.672,16.619],[-93.707,16.525],[-93.687,16.475],[-93.621,16.42],[-93.567,16.412],[-93.554,16.423]]]}},{"type":"Feature","properties":{"density":1},"geometry":{"type":"Polygon","coordinates":[[[-93.725,16.324],[-93.704,16.343],[-93.713,16.387],[-93.744,16.373],[-93.741,16.334],[-93.725,16.324]]]}},{"type":"Feature","properties":{"density":1},"geometry":{"type":"Polygon","coordinates":[[[-92.984,15.96],[-93.027,15.96],[-93.058,16.0],[-93.119,16.012],[-93.162,15.991],[-93.168,15.951],[-93.159,15.928],[-93.105,15.904],[-93.078,15.854],[-93.04,15.836],[-92.968,15.843],[-92.948,15.897],[-92.948,15.924],[-92.966,15.937],[-92.984,15.96]]]}},{"type":"Feature","properties":{"density":1},"geometry":{"type":"Polygon","coordinates":[[[-87.003,15.235],[-87.21,15.314],[-87.268,15.298],[-87.275,15.278],[-87.223,15.226],[-87.068,15.152],[-87.03,15.15],[-86.98,15.172],[-86.967,15.202],[-86.985,15.233],[-87.003,15.235]]]}},{"type":"Feature","properties":{"density":1},"geometry":{"type":"Polygon","coordinates":[[[-84.001,30.803],[-84.224,30.869],[-84.275,30.866],[-84.29,30.851],[-84.262,30.816],[-84.173,30.771],[-84.08,30.762],[-84.014,30.776],[-84.001,30.803]]]}},{"type":"Feature","properties":{"density":1},"geometry":{"type":"Polygon","coordinates":[[[-84.754,30.564],[-84.841,30.614],[-85.007,30.653],[-84.998,30.608],[-84.949,30.588],[-84.791,30.545],[-84.757,30.552],[-84.754,30.564]]]}},{"type":"Feature","properties":{"density":1},"geometry":{"type":"Polygon","coordinates":[[[-86.003,30.338],[-86.012,30.411],[-86.002,30.441],[-85.984,30.446],[-85.961,30.36],[-85.978,30.327],[-85.999,30.326],[-86.003,30.338]]]}},{"type":"Feature","properties":{"density":1},"geometry":{"type":"Polygon","coordinates":[[[-82.443,31.804],[-82.712,31.927],[-82.838,32.023],[-82.845,32.041],[-82.748,32.04],[-82.719,32.082],[-82.731,32.107],[-82.856,32.194],[-82.914,32.208],[-82.934,32.194],[-82.895,32.118],[-82.922,32.05],[-82.905,32.008],[-82.517,31.779],[-82.403,31.725],[-82.368,31.725],[-82.367,31.758],[-82.415,31.795],[-82.443,31.804]]]}},{"type":"Feature","properties":{"density":1},"geometry":{"type":"Polygon","coordinates":[[[-80.81,32.205],[-80.958,32.281],[-81.163,32.419],[-81.386,32.527],[-81.433,32.585],[-81.597,32.698],[-81.669,32.725],[-81.719,32.711],[-81.73,32.673],[-81.696,32.635],[-81.62,32.567],[-81.46,32.468],[-81.289,32.412],[-80.909,32.169],[-80.816,32.149],[-80.801,32.151],[-80.792,32.182],[-80.81,32.205]]]}},{"type":"Feature","properties":{"density":1},"geometry":{"type":"Polygon","coordinates":[[[-79.283,33.199],[-79.445,33.363],[-79.486,33.453],[-79.553,33.534],[-79.582,33.608],[-79.558,33.644],[-79.501,33.611],[-79.382,33.392],[-79.243,33.228],[-79.249,33.194],[-79.265,33.192],[-79.283,33.199]]]}},{"type":"Feature","properties":{"density":1},"geometry":{"type":"Polygon","coordinates":[[[-79.717,33.264],[-79.751,33.323],[-79.931,33.527],[-79.987,33.64],[-79.922,33.622],[-79.879,33.575],[-79.771,33.512],[-79.686,33.374],[-79.684,33.282],[-79.695,33.257],[-79.715,33.253],[-79.717,33.264]]]}},{"type":"Feature","properties":{"density":1},"geometry":{"type":"Polygon","coordinates":[[[-79.497,34.957],[-79.483,34.996],[-79.405,35.065],[-79.265,35.232],[-79.126,35.311],[-79.065,35.369],[-79.042,35.401],[-79.031,35.482],[-79.038,35.513],[-79.074,35.542],[-79.119,35.554],[-79.159,35.54],[-79.294,35.459],[-79.447,35.281],[-79.508,35.169],[-79.549,35.036],[-79.542,34.971],[-79.51,34.955],[-79.497,34.957]]]}},{"type":"Feature","properties":{"density":1},"geometry":{"type":"Polygon","coordinates":[[[-77.121,38.006],[-77.098,38.013],[-77.038,38.105],[-77.013,38.193],[-77.015,38.227],[-77.033,38.238],[-77.096,38.175],[-77.143,38.06],[-77.141,38.002],[-77.121,38.006]]]}},{"type":"Feature","properties":{"density":1},"geometry":{"type":"Polygon","coordinates":[[[-74.46,39.964],[-74.178,39.991],[-74.057,39.984],[-73.929,39.939],[-73.645,39.905],[-73.553,39.932],[-73.535,39.973],[-73.53,40.164],[-73.726,40.366],[-73.814,40.411],[-74.023,40.465],[-74.178,40.459],[-74.262,40.434],[-74.322,40.382],[-74.41,40.198],[-74.511,40.085],[-74.529,40.049],[-74.529,39.979],[-74.511,39.959],[-74.471,39.959],[-74.46,39.964]]]}},{"type":"Feature","properties":{"density":1},"geometry":{"type":"Polygon","coordinates":[[[-75.486,41.458],[-75.452,41.485],[-75.162,41.573],[-74.801,41.745],[-74.683,41.853],[-74.662,41.917],[-74.716,41.958],[-74.767,41.955],[-75.101,41.779],[-75.344,41.671],[-75.503,41.546],[-75.516,41.472],[-75.486,41.458]]]}},{"type":"Feature","properties":{"density":1},"geometry":{"type":"Polygon","coordinates":[[[-88.838,31.462],[-88.898,31.658],[-88.898,31.894],[-88.858,32.043],[-88.834,32.063],[-88.794,32.066],[-88.753,32.026],[-88.723,31.952],[-88.716,31.769],[-88.75,31.57],[-88.807,31.462],[-88.838,31.462]]]}},{"type":"Feature","properties":{"density":1},"geometry":{"type":"Polygon","coordinates":[[[-105.261,33.592],[-104.83,33.709],[-104.592,33.871],[-104.491,33.906],[-104.375,34.028],[-104.329,34.149],[-104.319,34.225],[-104.41,34.22],[-104.754,34.068],[-105.129,33.947],[-105.321,33.825],[-105.433,33.678],[-105.458,33.582],[-105.372,33.536],[-105.286,33.563],[-105.261,33.592]]]}},{"type":"Feature","properties":{"density":1},"geometry":{"type":"Polygon","coordinates":[[[-118.653,35.249],[-118.714,35.276],[-118.88,35.274],[-119.033,35.184],[-119.332,35.175],[-119.492,35.222],[-119.512,35.242],[-119.528,35.307],[-119.515,35.346],[-119.427,35.436],[-119.287,35.478],[-119.2,35.481],[-118.972,35.44],[-118.606,35.319],[-118.601,35.269],[-118.624,35.244],[-118.653,35.249]]]}},{"type":"Feature","properties":{"density":1},"geometry":{"type":"Polygon","coordinates":[[[-118.729,34.196],[-118.95,34.002],[-119.105,33.807],[-119.346,33.642],[-119.566,33.573],[-119.902,33.627],[-120.055,33.633],[-120.889,33.307],[-121.335,33.098],[-121.495,33.152],[-121.591,33.26],[-121.616,33.314],[-121.627,33.352],[-121.616,33.435],[-121.555,33.53],[-121.407,33.645],[-121.306,33.681],[-121.191,33.762],[-121.164,33.798],[-120.946,33.825],[-120.691,33.829],[-120.538,33.881],[-120.282,33.93],[-120.005,34.018],[-119.431,34.05],[-119.274,34.151],[-119.096,34.212],[-118.981,34.272],[-118.779,34.335],[-118.714,34.329],[-118.698,34.304],[-118.682,34.263],[-118.687,34.227],[-118.711,34.207],[-118.729,34.196]]]}},{"type":"Feature","properties":{"density":1},"geometry":{"type":"Polygon","coordinates":[[[-113.987,28.003],[-113.778,27.919],[-113.757,27.892],[-113.796,27.877],[-113.933,27.908],[-113.998,27.935],[-114.012,27.953],[-114.003,27.98],[-113.987,28.003]]]}},{"type":"Feature","properties":{"density":1},"geometry":{"type":"Polygon","coordinates":[[[-104.671,28.489],[-104.584,28.415],[-104.435,28.219],[-104.37,28.158],[-104.278,28.14],[-104.237,28.165],[-104.242,28.226],[-104.275,28.287],[-104.386,28.422],[-104.57,28.532],[-104.626,28.539],[-104.66,28.505],[-104.671,28.489]]]}},{"type":"Feature","properties":{"density":1},"geometry":{"type":"Polygon","coordinates":[[[-106.881,26.297],[-106.834,26.297],[-106.811,26.315],[-106.78,26.36],[-106.755,26.459],[-106.822,26.437],[-106.881,26.378],[-106.921,26.322],[-106.917,26.29],[-106.881,26.297]]]}},{"type":"Feature","properties":{"density":1},"geometry":{"type":"Polygon","coordinates":[[[-107.05,26.734],[-107.034,26.704],[-107.047,26.637],[-107.079,26.664],[-107.083,26.707],[-107.068,26.727],[-107.05,26.734]]]}},{"type":"Feature","properties":{"density":1},"geometry":{"type":"Polygon","coordinates":[[[-106.863,24.295],[-106.901,24.358],[-106.865,24.452],[-106.863,24.587],[-106.811,24.668],[-106.748,24.691],[-106.728,24.639],[-106.735,24.459],[-106.791,24.335],[-106.84,24.301],[-106.863,24.295]]]}},{"type":"Feature","properties":{"density":1},"geometry":{"type":"Polygon","coordinates":[[[-104.916,21.648],[-104.822,21.616],[-104.79,21.585],[-104.779,21.535],[-104.829,21.54],[-104.948,21.614],[-104.952,21.637],[-104.93,21.646],[-104.916,21.648]]]}},{"type":"Feature","properties":{"density":1},"geometry":{"type":"Polygon","coordinates":[[[-104.352,20.914],[-104.365,20.977],[-104.343,21.07],[-104.316,21.09],[-104.248,21.101],[-104.16,21.07],[-104.14,21.049],[-104.138,21.0],[-104.068,20.948],[-103.965,20.95],[-103.938,20.932],[-103.938,20.901],[-104.032,20.847],[-104.106,20.746],[-104.14,20.719],[-104.248,20.68],[-104.318,20.696],[-104.343,20.721],[-104.399,20.815],[-104.394,20.854],[-104.374,20.876],[-104.352,20.914]]]}},{"type":"Feature","properties":{"density":1},"geometry":{"type":"Polygon","coordinates":[[[-104.808,20.095],[-104.842,20.073],[-104.869,20.075],[-104.916,20.109],[-104.921,20.167],[-104.887,20.219],[-104.826,20.226],[-104.784,20.201],[-104.766,20.134],[-104.788,20.1],[-104.808,20.095]]]}},{"type":"Feature","properties":{"density":1},"geometry":{"type":"Polygon","coordinates":[[[-102.912,19.02],[-103.002,18.934],[-103.116,18.919],[-103.296,19.036],[-103.294,19.056],[-103.236,19.101],[-103.141,19.126],[-103.116,19.119],[-103.076,19.051],[-102.936,19.049],[-102.912,19.02]]]}},{"type":"Feature","properties":{"density":1},"geometry":{"type":"Polygon","coordinates":[[[-102.732,18.766],[-102.774,18.772],[-102.804,18.802],[-102.797,18.847],[-102.761,18.878],[-102.698,18.856],[-102.682,18.797],[-102.709,18.768],[-102.732,18.766]]]}},{"type":"Feature","properties":{"density":1},"geometry":{"type":"Polygon","coordinates":[[[-103.294,18.347],[-103.328,18.235],[-103.299,18.167],[-103.272,18.163],[-103.222,18.228],[-103.202,18.313],[-103.245,18.361],[-103.278,18.352],[-103.294,18.347]]]}},{"type":"Feature","properties":{"density":1},"geometry":{"type":"Polygon","coordinates":[[[-102.705,18.262],[-102.725,18.23],[-102.779,18.255],[-102.772,18.374],[-102.752,18.428],[-102.716,18.412],[-102.702,18.304],[-102.705,18.262]]]}},{"type":"Feature","properties":{"density":1},"geometry":{"type":"Polygon","coordinates":[[[-102.327,18.115],[-102.255,18.255],[-102.192,18.289],[-102.169,18.277],[-102.162,18.192],[-102.223,18.091],[-102.282,18.068],[-102.322,18.095],[-102.327,18.115]]]}},{"type":"Feature","properties":{"density":1},"geometry":{"type":"Polygon","coordinates":[[[-102.309,18.487],[-102.144,18.574],[-102.12,18.617],[-102.135,18.635],[-102.196,18.622],[-102.315,18.534],[-102.32,18.505],[-102.309,18.487]]]}},{"type":"Feature","properties":{"density":1},"geometry":{"type":"Polygon","coordinates":[[[-101.622,19.164],[-101.654,19.164],[-101.737,19.123],[-101.811,19.067],[-101.832,19.009],[-101.796,18.937],[-101.719,18.912],[-101.53,18.811],[-101.427,18.835],[-101.328,18.831],[-101.287,18.815],[-101.231,18.829],[-101.186,18.86],[-101.163,18.901],[-101.17,19.027],[-101.377,19.216],[-101.492,19.229],[-101.593,19.162],[-101.622,19.164]]]}},{"type":"Feature","properties":{"density":1},"geometry":{"type":"Polygon","coordinates":[[[-101.832,17.994],[-101.692,18.093],[-101.629,18.111],[-101.616,18.097],[-101.658,18.05],[-101.771,17.978],[-101.825,17.969],[-101.832,17.994]]]}},{"type":"Feature","properties":{"density":1},"geometry":{"type":"Polygon","coordinates":[[[-101.951,18.059],[-101.922,18.061],[-101.861,18.109],[-101.814,18.185],[-101.823,18.226],[-101.859,18.223],[-101.908,18.19],[-101.976,18.109],[-101.962,18.068],[-101.951,18.059]]]}},{"type":"Feature","properties":{"density":1},"geometry":{"type":"Polygon","coordinates":[[[-98.427,16.467],[-98.34,16.535],[-98.295,16.535],[-98.175,16.422],[-98.162,16.328],[-98.247,16.285],[-98.292,16.276],[-98.333,16.29],[-98.418,16.35],[-98.443,16.389],[-98.452,16.443],[-98.427,16.467]]]}},{"type":"Feature","properties":{"density":1},"geometry":{"type":"Polygon","coordinates":[[[-98.881,16.693],[-98.856,16.629],[-98.824,16.611],[-98.779,16.609],[-98.745,16.635],[-98.671,16.774],[-98.646,16.932],[-98.671,16.978],[-98.749,17.002],[-98.851,17.076],[-98.881,17.131],[-98.956,17.143],[-98.988,17.133],[-99.018,17.086],[-99.022,16.975],[-98.901,16.722],[-98.881,16.693]]]}},{"type":"Feature","properties":{"density":1},"geometry":{"type":"Polygon","coordinates":[[[-96.741,17.714],[-96.644,17.669],[-96.622,17.64],[-96.617,17.601],[-96.633,17.568],[-96.68,17.541],[-96.761,17.538],[-96.811,17.586],[-96.813,17.649],[-96.775,17.703],[-96.741,17.714]]]}},{"type":"Feature","properties":{"density":1},"geometry":{"type":"Polygon","coordinates":[[[-96.025,17.59],[-96.077,17.617],[-96.237,17.628],[-96.307,17.606],[-96.322,17.563],[-96.302,17.518],[-96.237,17.466],[-96.019,17.46],[-95.985,17.491],[-95.998,17.565],[-96.025,17.59]]]}},{"type":"Feature","properties":{"density":1},"geometry":{"type":"Polygon","coordinates":[[[-95.836,18.296],[-95.959,18.299],[-95.998,18.275],[-95.841,18.251],[-95.812,18.277],[-95.818,18.29],[-95.836,18.296]]]}},{"type":"Feature","properties":{"density":1},"geometry":{"type":"Polygon","coordinates":[[[-98.24,21.806],[-98.325,21.815],[-98.379,21.864],[-98.384,21.918],[-98.332,21.99],[-98.287,21.986],[-98.244,21.925],[-98.226,21.873],[-98.233,21.815],[-98.24,21.806]]]}},{"type":"Feature","properties":{"density":1},"geometry":{"type":"Polygon","coordinates":[[[-98.913,24.058],[-99.078,24.463],[-99.075,24.514],[-99.049,24.556],[-98.992,24.459],[-98.928,24.259],[-98.868,24.127],[-98.86,24.063],[-98.887,24.045],[-98.913,24.058]]]}},{"type":"Feature","properties":{"density":1},"geometry":{"type":"Polygon","coordinates":[[[-93.894,16.403],[-93.946,16.417],[-93.984,16.455],[-93.988,16.543],[-93.905,16.662],[-93.833,16.702],[-93.781,16.707],[-93.696,16.653],[-93.637,16.642],[-93.496,16.525],[-93.466,16.482],[-93.442,16.394],[-93.471,16.349],[-93.502,16.333],[-93.595,16.369],[-93.736,16.473],[-93.775,16.48],[-93.822,16.464],[-93.858,16.392],[-93.894,16.403]]]}},{"type":"Feature","properties":{"density":1},"geometry":{"type":"Polygon","coordinates":[[[-93.028,15.949],[-93.212,15.901],[-93.325,15.802],[-93.464,15.717],[-93.581,15.611],[-93.613,15.553],[-93.554,15.537],[-93.518,15.548],[-93.356,15.661],[-93.021,15.805],[-92.958,15.899],[-92.978,15.937],[-93.005,15.942],[-93.028,15.949]]]}},{"type":"Feature","properties":{"density":1},"geometry":{"type":"Polygon","coordinates":[[[-88.253,14.719],[-88.339,14.692],[-88.521,14.701],[-88.604,14.564],[-88.678,14.483],[-88.694,14.417],[-88.555,14.399],[-88.399,14.444],[-88.233,14.555],[-88.174,14.624],[-88.177,14.674],[-88.215,14.717],[-88.253,14.719]]]}},{"type":"Feature","properties":{"density":1},"geometry":{"type":"Polygon","coordinates":[[[-88.28,15.234],[-88.375,15.257],[-88.422,15.302],[-88.534,15.322],[-88.543,15.295],[-88.489,15.225],[-88.51,15.189],[-88.586,15.126],[-88.591,15.101],[-88.573,15.081],[-88.48,15.095],[-88.296,15.171],[-88.26,15.218],[-88.28,15.234]]]}},{"type":"Feature","properties":{"density":1},"geometry":{"type":"Polygon","coordinates":[[[-86.968,15.205],[-87.036,15.227],[-87.234,15.245],[-87.304,15.216],[-87.337,15.176],[-87.27,15.146],[-87.124,15.14],[-86.991,15.155],[-86.946,15.18],[-86.968,15.205]]]}},{"type":"Feature","properties":{"density":1},"geometry":{"type":"Polygon","coordinates":[[[-87.331,15.366],[-87.378,15.371],[-87.418,15.416],[-87.605,15.52],[-87.675,15.536],[-87.74,15.529],[-87.765,15.518],[-87.828,15.421],[-87.864,15.302],[-87.855,15.261],[-87.817,15.23],[-87.772,15.207],[-87.704,15.2],[-87.387,15.284],[-87.328,15.324],[-87.326,15.362],[-87.331,15.366]]]}},{"type":"Feature","properties":{"density":1},"geometry":{"type":"Polygon","coordinates":[[[-92.773,17.286],[-92.617,17.18],[-92.536,17.149],[-92.482,17.144],[-92.449,17.16],[-92.458,17.23],[-92.404,17.241],[-92.368,17.219],[-92.246,17.048],[-92.181,17.003],[-92.113,16.998],[-92.066,17.034],[-91.951,17.205],[-91.814,17.266],[-91.783,17.331],[-91.807,17.374],[-91.852,17.405],[-91.911,17.414],[-92.019,17.401],[-92.116,17.468],[-92.228,17.471],[-92.683,17.624],[-92.768,17.666],[-92.802,17.707],[-92.82,17.768],[-92.876,17.817],[-92.993,17.995],[-93.047,18.026],[-93.144,18.044],[-93.216,18.092],[-93.254,18.132],[-93.292,18.209],[-93.355,18.274],[-93.378,18.375],[-93.344,18.425],[-93.326,18.519],[-93.34,18.647],[-93.364,18.706],[-93.34,18.787],[-93.263,18.922],[-93.139,19.03],[-93.097,19.091],[-93.038,19.237],[-93.036,19.302],[-93.058,19.381],[-93.171,19.532],[-93.214,19.57],[-93.362,19.601],[-93.605,19.552],[-93.691,19.482],[-93.814,19.484],[-93.985,19.442],[-94.291,19.466],[-94.483,19.41],[-94.512,19.385],[-94.525,19.313],[-94.487,19.208],[-94.424,19.138],[-94.271,19.05],[-94.195,18.971],[-94.136,18.868],[-94.075,18.809],[-94.017,18.688],[-94.03,18.598],[-94.096,18.389],[-94.109,18.148],[-94.026,17.936],[-94.021,17.765],[-93.983,17.651],[-93.916,17.549],[-93.835,17.475],[-93.756,17.486],[-93.756,17.642],[-93.713,17.727],[-93.704,17.792],[-93.648,17.891],[-93.592,17.903],[-93.558,17.867],[-93.499,17.723],[-93.398,17.628],[-93.094,17.527],[-93.027,17.462],[-92.973,17.378],[-92.818,17.322],[-92.773,17.286]]]}},{"type":"Feature","properties":{"density":1},"geometry":{"type":"Polygon","coordinates":[[[-90.458,17.093],[-90.616,17.197],[-90.701,17.284],[-90.976,17.446],[-91.126,17.57],[-91.138,17.608],[-91.108,17.624],[-91.077,17.613],[-90.523,17.284],[-90.436,17.172],[-90.431,17.104],[-90.442,17.098],[-90.458,17.093]]]}},{"type":"Feature","properties":{"density":1},"geometry":{"type":"Polygon","coordinates":[[[-89.484,16.657],[-89.968,16.724],[-90.134,16.776],[-90.161,16.834],[-90.134,16.85],[-90.071,16.85],[-89.527,16.724],[-89.461,16.697],[-89.457,16.672],[-89.477,16.661],[-89.484,16.657]]]}},{"type":"Feature","properties":{"density":1},"geometry":{"type":"Polygon","coordinates":[[[-91.947,18.271],[-92.152,18.41],[-92.426,18.525],[-92.568,18.615],[-92.699,18.84],[-92.732,19.016],[-92.762,19.083],[-92.804,19.373],[-92.746,19.551],[-92.699,19.812],[-92.651,19.967],[-92.586,20.08],[-92.505,20.116],[-92.424,20.116],[-92.402,20.096],[-92.359,19.778],[-92.3,19.544],[-92.213,19.319],[-92.039,19.002],[-91.722,18.597],[-91.614,18.428],[-91.612,18.343],[-91.641,18.311],[-91.751,18.325],[-91.801,18.309],[-91.866,18.257],[-91.911,18.266],[-91.947,18.271]]]}},{"type":"Feature","properties":{"density":1},"geometry":{"type":"Polygon","coordinates":[[[-82.865,22.982],[-82.914,22.925],[-83.124,22.905],[-83.288,22.865],[-83.389,22.862],[-83.47,22.831],[-83.52,22.835],[-83.547,22.86],[-83.544,22.887],[-83.468,22.952],[-83.461,22.986],[-83.515,23.042],[-83.625,23.099],[-83.724,23.207],[-83.774,23.308],[-83.769,23.351],[-83.736,23.364],[-83.643,23.346],[-83.373,23.164],[-83.097,23.031],[-82.991,23.013],[-82.874,23.031],[-82.84,23.018],[-82.84,23.002],[-82.865,22.982]]]}},{"type":"Feature","properties":{"density":1},"geometry":{"type":"Polygon","coordinates":[[[-81.655,26.213],[-81.736,26.2],[-81.824,26.156],[-81.932,26.132],[-82.135,26.169],[-82.189,26.193],[-82.31,26.311],[-82.53,26.443],[-82.756,26.503],[-82.806,26.497],[-82.918,26.449],[-82.999,26.352],[-83.002,26.287],[-83.063,26.092],[-83.059,25.872],[-83.009,25.754],[-82.722,25.761],[-82.553,25.734],[-82.459,25.683],[-82.408,25.626],[-82.33,25.592],[-82.236,25.575],[-82.155,25.569],[-81.939,25.599],[-81.767,25.724],[-81.632,25.889],[-81.568,26.004],[-81.554,26.132],[-81.608,26.2],[-81.655,26.213]]]}},{"type":"Feature","properties":{"density":1},"geometry":{"type":"Polygon","coordinates":[[[-81.318,27.822],[-81.527,27.862],[-81.572,27.919],[-81.763,27.934],[-81.903,27.991],[-82.027,27.964],[-82.009,27.903],[-81.959,27.885],[-81.412,27.772],[-81.304,27.777],[-81.293,27.788],[-81.302,27.808],[-81.318,27.822]]]}},{"type":"Feature","properties":{"density":1},"geometry":{"type":"Polygon","coordinates":[[[-82.374,31.329],[-82.5,31.367],[-82.737,31.403],[-83.063,31.479],[-83.126,31.531],[-83.13,31.594],[-83.092,31.648],[-83.063,31.655],[-82.955,31.637],[-82.822,31.677],[-82.748,31.659],[-82.703,31.637],[-82.622,31.551],[-82.509,31.5],[-82.334,31.369],[-82.332,31.349],[-82.354,31.333],[-82.374,31.329]]]}},{"type":"Feature","properties":{"density":1},"geometry":{"type":"Polygon","coordinates":[[[-81.438,31.299],[-81.639,31.416],[-81.848,31.506],[-81.866,31.506],[-81.923,31.427],[-81.803,31.365],[-81.537,31.266],[-81.472,31.257],[-81.418,31.279],[-81.438,31.299]]]}},{"type":"Feature","properties":{"density":1},"geometry":{"type":"Polygon","coordinates":[[[-82.391,31.702],[-82.438,31.801],[-82.512,31.86],[-82.546,31.864],[-82.593,31.837],[-82.663,31.839],[-82.852,31.945],[-83.18,32.071],[-83.572,32.269],[-84.004,32.611],[-84.029,32.658],[-84.038,32.757],[-83.995,32.841],[-83.961,32.872],[-83.817,32.906],[-83.743,32.901],[-83.7,32.877],[-83.628,32.823],[-83.52,32.701],[-83.084,32.429],[-82.892,32.285],[-82.746,32.116],[-82.746,32.033],[-82.721,32.004],[-82.652,31.95],[-82.528,31.905],[-82.44,31.848],[-82.386,31.783],[-82.377,31.707],[-82.391,31.702]]]}},{"type":"Feature","properties":{"density":1},"geometry":{"type":"Polygon","coordinates":[[[-84.002,30.775],[-84.56,30.975],[-84.985,31.043],[-85.037,31.047],[-85.052,31.034],[-85.032,30.955],[-84.987,30.903],[-84.888,30.874],[-84.089,30.721],[-84.047,30.721],[-83.997,30.748],[-84.002,30.775]]]}},{"type":"Feature","properties":{"density":1},"geometry":{"type":"Polygon","coordinates":[[[-84.503,31.304],[-84.641,31.324],[-85.019,31.329],[-85.176,31.362],[-85.248,31.403],[-85.365,31.511],[-85.388,31.581],[-85.376,31.635],[-85.32,31.691],[-85.19,31.666],[-84.803,31.464],[-84.517,31.362],[-84.488,31.331],[-84.492,31.304],[-84.503,31.304]]]}},{"type":"Feature","properties":{"density":1},"geometry":{"type":"Polygon","coordinates":[[[-84.839,32.19],[-84.908,32.202],[-85.176,32.343],[-85.221,32.411],[-85.21,32.429],[-85.246,32.501],[-85.205,32.573],[-85.075,32.627],[-84.969,32.622],[-84.683,32.526],[-84.584,32.451],[-84.578,32.388],[-84.605,32.373],[-84.857,32.458],[-84.897,32.456],[-84.929,32.431],[-84.922,32.355],[-84.821,32.238],[-84.827,32.184],[-84.839,32.19]]]}},{"type":"Feature","properties":{"density":1},"geometry":{"type":"Polygon","coordinates":[[[-80.847,32.119],[-80.874,32.144],[-81.189,32.284],[-81.229,32.324],[-81.31,32.36],[-81.38,32.421],[-81.488,32.482],[-81.573,32.565],[-81.785,32.716],[-81.85,32.81],[-82.296,33.13],[-82.426,33.319],[-82.521,33.496],[-82.552,33.622],[-82.541,33.753],[-82.437,33.901],[-82.388,33.935],[-82.336,33.944],[-82.287,33.928],[-82.165,33.852],[-81.942,33.643],[-81.627,33.229],[-81.603,33.069],[-81.501,32.864],[-81.285,32.617],[-80.849,32.252],[-80.802,32.158],[-80.797,32.137],[-80.815,32.113],[-80.847,32.119]]]}},{"type":"Feature","properties":{"density":1},"geometry":{"type":"Polygon","coordinates":[[[-79.747,33.262],[-79.963,33.58],[-80.015,33.737],[-80.087,34.077],[-80.076,34.149],[-80.035,34.25],[-79.979,34.327],[-79.941,34.351],[-79.909,34.349],[-79.898,34.293],[-79.896,33.852],[-79.882,33.771],[-79.837,33.609],[-79.707,33.332],[-79.702,33.31],[-79.723,33.267],[-79.747,33.262]]]}},{"type":"Feature","properties":{"density":1},"geometry":{"type":"Polygon","coordinates":[[[-79.345,35.386],[-79.179,35.499],[-79.08,35.589],[-78.834,35.865],[-78.657,36.081],[-78.63,36.156],[-78.632,36.198],[-78.661,36.221],[-78.722,36.232],[-78.785,36.219],[-78.873,36.142],[-79.048,36.034],[-79.167,35.924],[-79.212,35.856],[-79.253,35.69],[-79.413,35.4],[-79.404,35.364],[-79.361,35.366],[-79.345,35.386]]]}},{"type":"Feature","properties":{"density":1},"geometry":{"type":"Polygon","coordinates":[[[-74.466,39.931],[-74.428,39.958],[-74.401,40.001],[-74.392,40.055],[-74.261,40.214],[-74.166,40.281],[-74.028,40.305],[-73.734,40.261],[-73.349,40.126],[-72.9,39.998],[-72.762,39.977],[-72.617,39.977],[-72.506,40.025],[-72.418,40.092],[-72.337,40.187],[-72.259,40.328],[-72.242,40.392],[-72.249,40.585],[-72.303,40.686],[-72.367,40.72],[-73.13,40.885],[-73.498,40.936],[-73.748,40.929],[-73.903,40.895],[-74.166,40.784],[-74.254,40.73],[-74.5,40.355],[-74.551,40.244],[-74.585,40.038],[-74.564,39.964],[-74.483,39.92],[-74.466,39.931]]]}},{"type":"Feature","properties":{"density":1},"geometry":{"type":"Polygon","coordinates":[[[-75.474,41.461],[-75.441,41.495],[-75.15,41.627],[-74.877,41.708],[-74.627,41.846],[-74.573,41.9],[-74.563,41.937],[-74.607,42.062],[-74.658,42.102],[-74.705,42.102],[-74.911,41.998],[-75.08,41.876],[-75.279,41.785],[-75.42,41.674],[-75.495,41.593],[-75.525,41.532],[-75.491,41.475],[-75.474,41.461]]]}},{"type":"Feature","properties":{"density":1},"geometry":{"type":"Polygon","coordinates":[[[-88.87,31.523],[-88.958,31.776],[-88.941,32.06],[-89.018,32.37],[-89.055,32.954],[-88.968,33.19],[-88.856,33.234],[-88.718,33.241],[-88.637,33.204],[-88.526,33.099],[-88.505,33.032],[-88.505,32.866],[-88.549,32.519],[-88.637,32.154],[-88.691,32.029],[-88.718,31.908],[-88.742,31.56],[-88.775,31.51],[-88.799,31.499],[-88.856,31.516],[-88.87,31.523]]]}},{"type":"Feature","properties":{"density":1},"geometry":{"type":"Polygon","coordinates":[[[-99.912,37.342],[-99.962,37.234],[-99.915,37.21],[-99.827,37.274],[-99.625,37.585],[-99.578,37.784],[-99.608,37.78],[-99.713,37.662],[-99.898,37.375],[-99.912,37.342]]]}},{"type":"Feature","properties":{"density":1},"geometry":{"type":"Polygon","coordinates":[[[-102.057,35.305],[-102.016,35.399],[-101.949,35.48],[-101.763,35.679],[-101.679,35.74],[-101.571,35.872],[-101.311,36.122],[-101.156,36.294],[-101.027,36.378],[-100.916,36.392],[-100.872,36.365],[-100.869,36.341],[-100.967,36.23],[-101.017,36.145],[-101.058,36.027],[-101.129,35.912],[-101.328,35.713],[-101.675,35.413],[-101.935,35.247],[-102.023,35.21],[-102.043,35.217],[-102.057,35.291],[-102.057,35.305]]]}},{"type":"Feature","properties":{"density":1},"geometry":{"type":"Polygon","coordinates":[[[-101.868,34.414],[-101.793,34.478],[-101.561,34.873],[-101.392,35.065],[-101.162,35.453],[-100.855,35.811],[-100.622,36.0],[-100.366,36.236],[-100.292,36.273],[-100.278,36.216],[-100.308,36.145],[-100.639,35.69],[-100.805,35.389],[-101.098,34.998],[-101.348,34.748],[-101.52,34.532],[-101.702,34.387],[-101.824,34.35],[-101.871,34.363],[-101.878,34.394],[-101.868,34.414]]]}},{"type":"Feature","properties":{"density":1},"geometry":{"type":"Polygon","coordinates":[[[-105.303,33.552],[-105.08,33.618],[-104.847,33.644],[-104.28,33.861],[-104.032,33.978],[-103.905,34.059],[-103.774,34.165],[-103.662,34.292],[-103.505,34.433],[-102.867,34.94],[-102.387,35.471],[-102.29,35.547],[-102.194,35.669],[-102.017,35.8],[-101.754,36.063],[-101.663,36.175],[-101.617,36.322],[-101.597,36.448],[-101.607,36.529],[-101.678,36.529],[-101.85,36.458],[-102.088,36.291],[-102.447,35.977],[-102.842,35.755],[-103.197,35.507],[-103.566,35.213],[-103.794,35.0],[-104.052,34.838],[-104.265,34.661],[-104.376,34.595],[-104.447,34.519],[-104.477,34.403],[-104.609,34.266],[-104.817,34.084],[-105.22,33.826],[-105.389,33.698],[-105.419,33.664],[-105.422,33.606],[-105.341,33.546],[-105.303,33.552]]]}},{"type":"Feature","properties":{"density":1},"geometry":{"type":"Polygon","coordinates":[[[-116.356,31.68],[-116.464,31.772],[-116.523,31.777],[-116.552,31.763],[-116.568,31.725],[-116.568,31.676],[-116.512,31.595],[-116.451,31.588],[-116.347,31.66],[-116.356,31.68]]]}},{"type":"Feature","properties":{"density":1},"geometry":{"type":"Polygon","coordinates":[[[-118.345,34.74],[-118.51,34.659],[-118.746,34.605],[-118.925,34.514],[-119.043,34.419],[-119.07,34.375],[-119.074,34.341],[-119.047,34.277],[-119.074,34.227],[-119.435,34.041],[-119.708,33.98],[-119.83,33.926],[-119.901,33.947],[-120.026,34.028],[-120.107,34.024],[-120.451,33.862],[-120.66,33.707],[-121.038,33.629],[-121.173,33.623],[-121.362,33.727],[-121.534,33.855],[-121.625,33.893],[-121.706,33.866],[-121.75,33.808],[-121.801,33.69],[-121.784,33.491],[-121.818,33.356],[-121.868,33.288],[-121.959,33.234],[-122.206,33.14],[-122.483,33.14],[-122.53,33.113],[-122.597,33.005],[-122.594,32.91],[-122.54,32.826],[-122.402,32.678],[-122.128,32.489],[-121.622,32.438],[-121.538,32.408],[-120.802,32.269],[-120.549,32.262],[-120.309,32.327],[-120.103,32.445],[-119.523,32.877],[-119.013,33.366],[-118.915,33.477],[-118.854,33.558],[-118.811,33.687],[-118.625,33.788],[-118.503,33.943],[-118.534,33.987],[-118.665,34.071],[-118.733,34.085],[-118.76,34.122],[-118.655,34.277],[-118.659,34.318],[-118.696,34.335],[-118.676,34.385],[-118.311,34.615],[-118.264,34.682],[-118.26,34.716],[-118.318,34.753],[-118.345,34.74]]]}},{"type":"Feature","properties":{"density":1},"geometry":{"type":"Polygon","coordinates":[[[-118.767,35.472],[-118.963,35.489],[-119.088,35.59],[-119.176,35.6],[-119.213,35.56],[-119.23,35.492],[-119.223,35.259],[-119.166,35.212],[-118.994,35.178],[-118.862,35.202],[-118.639,35.189],[-118.558,35.202],[-118.477,35.236],[-118.4,35.334],[-118.4,35.398],[-118.427,35.425],[-118.474,35.432],[-118.535,35.401],[-118.562,35.445],[-118.599,35.465],[-118.673,35.455],[-118.744,35.479],[-118.767,35.472]]]}},{"type":"Feature","properties":{"density":1},"geometry":{"type":"Polygon","coordinates":[[[-106.561,26.222],[-106.304,26.367],[-105.785,26.607],[-105.7,26.681],[-105.697,26.758],[-105.747,26.806],[-105.795,26.819],[-106.132,26.698],[-106.493,26.445],[-106.568,26.364],[-106.622,26.272],[-106.598,26.229],[-106.561,26.222]]]}},{"type":"Feature","properties":{"density":1},"geometry":{"type":"Polygon","coordinates":[[[-106.908,26.283],[-106.571,26.519],[-106.19,26.755],[-106.146,26.819],[-106.146,26.89],[-106.183,26.893],[-106.463,26.742],[-106.75,26.529],[-106.858,26.414],[-106.892,26.411],[-106.905,26.458],[-106.949,26.448],[-106.986,26.407],[-106.939,26.289],[-106.908,26.283]]]}},{"type":"Feature","properties":{"density":1},"geometry":{"type":"Polygon","coordinates":[[[-106.314,23.92],[-106.098,23.923],[-106.058,23.91],[-106.038,23.88],[-106.041,23.836],[-106.071,23.795],[-106.125,23.761],[-106.277,23.765],[-106.358,23.805],[-106.392,23.859],[-106.385,23.896],[-106.355,23.93],[-106.314,23.92]]]}},{"type":"Feature","properties":{"density":1},"geometry":{"type":"Polygon","coordinates":[[[-107.077,26.715],[-107.033,26.775],[-106.878,26.86],[-106.797,26.924],[-106.77,26.971],[-106.773,27.001],[-106.814,27.001],[-106.962,26.924],[-107.067,26.812],[-107.101,26.725],[-107.077,26.715]]]}},{"type":"Feature","properties":{"density":1},"geometry":{"type":"Polygon","coordinates":[[[-105.289,22.517],[-105.06,22.534],[-104.972,22.476],[-104.982,22.446],[-105.171,22.442],[-105.252,22.456],[-105.309,22.486],[-105.289,22.517]]]}},{"type":"Feature","properties":{"density":1},"geometry":{"type":"Polygon","coordinates":[[[-105.016,22.051],[-105.043,22.021],[-105.225,21.933],[-105.225,21.886],[-105.164,21.875],[-104.931,21.953],[-104.908,21.946],[-104.86,21.889],[-104.803,21.879],[-104.756,21.821],[-104.685,21.788],[-104.634,21.801],[-104.621,21.869],[-104.428,21.842],[-104.337,21.913],[-104.31,21.97],[-104.428,21.997],[-104.462,22.031],[-104.482,22.129],[-104.452,22.226],[-104.462,22.274],[-104.526,22.328],[-104.553,22.318],[-104.574,22.274],[-104.594,22.064],[-104.624,22.0],[-104.668,21.977],[-104.756,22.061],[-104.962,22.075],[-105.016,22.051]]]}},{"type":"Feature","properties":{"density":1},"geometry":{"type":"Polygon","coordinates":[[[-102.954,19.459],[-103.004,19.493],[-103.213,19.51],[-103.335,19.537],[-103.382,19.584],[-103.392,19.634],[-103.379,19.705],[-103.335,19.783],[-103.294,19.823],[-103.234,19.844],[-103.186,19.82],[-103.085,19.729],[-102.981,19.661],[-102.96,19.594],[-102.923,19.543],[-102.933,19.493],[-102.954,19.459]]]}},{"type":"Feature","properties":{"density":1},"geometry":{"type":"Polygon","coordinates":[[[-103.085,18.932],[-103.149,18.943],[-103.203,18.973],[-103.227,19.04],[-103.2,19.088],[-103.139,19.115],[-103.068,19.115],[-103.024,19.162],[-102.802,19.267],[-102.67,19.283],[-102.64,19.273],[-102.63,19.115],[-102.687,18.912],[-102.66,18.855],[-102.673,18.791],[-102.714,18.754],[-102.785,18.74],[-102.822,18.76],[-102.869,18.838],[-102.906,18.848],[-102.96,18.895],[-103.024,18.909],[-103.085,18.932]]]}},{"type":"Feature","properties":{"density":1},"geometry":{"type":"Polygon","coordinates":[[[-102.721,18.362],[-102.835,18.268],[-102.842,18.234],[-102.815,18.21],[-102.765,18.21],[-102.734,18.227],[-102.704,18.349],[-102.721,18.362]]]}},{"type":"Feature","properties":{"density":1},"geometry":{"type":"Polygon","coordinates":[[[-102.461,18.008],[-102.201,18.305],[-102.167,18.392],[-102.174,18.463],[-102.339,18.642],[-102.356,18.716],[-102.302,18.774],[-102.123,18.865],[-101.944,19.054],[-101.89,19.071],[-101.809,19.061],[-101.566,19.202],[-101.485,19.226],[-101.431,19.223],[-101.367,19.179],[-101.303,19.115],[-101.286,19.051],[-101.458,18.956],[-101.452,18.926],[-101.357,18.804],[-101.192,18.676],[-101.158,18.622],[-101.161,18.558],[-101.219,18.497],[-101.29,18.477],[-101.337,18.443],[-101.388,18.372],[-101.404,18.301],[-101.472,18.308],[-101.519,18.359],[-101.55,18.365],[-101.661,18.305],[-101.749,18.22],[-101.847,18.18],[-101.911,18.18],[-102.036,18.139],[-102.204,17.991],[-102.282,17.95],[-102.397,17.937],[-102.444,17.998],[-102.461,18.008]]]}},{"type":"Feature","properties":{"density":1},"geometry":{"type":"Polygon","coordinates":[[[-100.427,18.945],[-100.53,19.021],[-100.564,19.071],[-100.548,19.109],[-100.391,19.217],[-100.146,19.334],[-100.083,19.357],[-100.032,19.357],[-99.954,19.326],[-99.931,19.276],[-99.941,19.188],[-99.991,19.093],[-100.143,18.989],[-100.339,18.925],[-100.41,18.938],[-100.427,18.945]]]}},{"type":"Feature","properties":{"density":1},"geometry":{"type":"Polygon","coordinates":[[[-100.731,19.336],[-100.695,19.382],[-100.68,19.481],[-100.588,19.655],[-100.585,19.714],[-100.599,19.741],[-100.657,19.772],[-100.693,19.768],[-100.74,19.724],[-100.851,19.688],[-100.899,19.652],[-100.926,19.583],[-100.92,19.495],[-100.899,19.447],[-100.842,19.388],[-100.755,19.333],[-100.731,19.336]]]}},{"type":"Feature","properties":{"density":1},"geometry":{"type":"Polygon","coordinates":[[[-98.371,16.311],[-98.45,16.331],[-98.479,16.387],[-98.473,16.486],[-98.45,16.543],[-98.414,16.581],[-98.23,16.633],[-98.14,16.711],[-98.072,16.738],[-97.921,16.772],[-97.804,16.756],[-97.786,16.705],[-97.789,16.637],[-97.87,16.558],[-97.937,16.43],[-98.047,16.372],[-98.185,16.369],[-98.259,16.322],[-98.34,16.304],[-98.371,16.311]]]}},{"type":"Feature","properties":{"density":1},"geometry":{"type":"Polygon","coordinates":[[[-95.558,17.033],[-95.61,17.065],[-95.63,17.125],[-95.544,17.287],[-95.513,17.317],[-95.468,17.33],[-95.445,17.317],[-95.479,17.254],[-95.481,17.157],[-95.54,17.033],[-95.558,17.033]]]}},{"type":"Feature","properties":{"density":1},"geometry":{"type":"Polygon","coordinates":[[[-92.949,16.082],[-93.006,16.004],[-93.073,15.952],[-93.222,15.9],[-93.674,15.79],[-94.083,15.747],[-94.167,15.722],[-94.212,15.691],[-94.221,15.623],[-94.189,15.536],[-93.921,15.365],[-93.816,15.344],[-93.721,15.349],[-93.568,15.398],[-93.507,15.394],[-93.462,15.367],[-93.361,15.398],[-93.217,15.392],[-93.147,15.437],[-93.015,15.452],[-92.9,15.491],[-92.808,15.556],[-92.787,15.655],[-92.709,15.734],[-92.691,15.801],[-92.844,16.019],[-92.922,16.085],[-92.949,16.082]]]}},{"type":"Feature","properties":{"density":1},"geometry":{"type":"Polygon","coordinates":[[[-88.232,14.719],[-88.532,14.609],[-88.608,14.568],[-88.655,14.521],[-88.662,14.492],[-88.624,14.456],[-88.471,14.494],[-88.196,14.642],[-88.172,14.692],[-88.21,14.712],[-88.232,14.719]]]}},{"type":"Feature","properties":{"density":1},"geometry":{"type":"Polygon","coordinates":[[[-87.346,15.371],[-87.373,15.387],[-87.539,15.398],[-87.762,15.5],[-87.915,15.549],[-88.241,15.551],[-88.381,15.522],[-88.406,15.5],[-88.408,15.45],[-88.367,15.407],[-88.302,15.376],[-88.138,15.349],[-88.1,15.281],[-88.028,15.27],[-87.947,15.299],[-87.87,15.304],[-87.647,15.239],[-87.526,15.239],[-87.384,15.286],[-87.323,15.338],[-87.346,15.371]]]}},{"type":"Feature","properties":{"density":1},"geometry":{"type":"Polygon","coordinates":[[[-85.463,15.425],[-85.598,15.468],[-85.746,15.484],[-85.881,15.549],[-86.122,15.965],[-86.153,16.049],[-86.149,16.213],[-86.165,16.262],[-86.268,16.384],[-86.399,16.44],[-86.464,16.44],[-86.612,16.382],[-86.635,16.357],[-86.689,16.265],[-86.714,16.069],[-86.808,15.898],[-86.77,15.794],[-86.612,15.569],[-86.693,15.394],[-86.732,15.358],[-86.804,15.326],[-86.819,15.164],[-86.781,15.135],[-86.662,15.115],[-86.432,15.167],[-86.23,15.263],[-86.18,15.275],[-86.059,15.268],[-85.946,15.344],[-85.856,15.376],[-85.751,15.394],[-85.573,15.362],[-85.496,15.362],[-85.458,15.378],[-85.463,15.425]]]}},{"type":"Feature","properties":{"density":1},"geometry":{"type":"Polygon","coordinates":[[[-84.394,15.38],[-84.65,15.371],[-84.749,15.383],[-84.729,15.401],[-84.488,15.43],[-84.389,15.425],[-84.371,15.389],[-84.394,15.38]]]}},{"type":"Feature","properties":{"density":1},"geometry":{"type":"Polygon","coordinates":[[[-84.524,15.461],[-84.74,15.448],[-84.961,15.493],[-84.934,15.513],[-84.563,15.504],[-84.524,15.473],[-84.524,15.461]]]}},{"type":"Feature","properties":{"density":1},"geometry":{"type":"Polygon","coordinates":[[[-84.419,15.639],[-84.684,15.677],[-84.797,15.727],[-84.522,15.704],[-84.441,15.684],[-84.423,15.659],[-84.419,15.639]]]}},{"type":"Feature","properties":{"density":1},"geometry":{"type":"Polygon","coordinates":[[[-89.497,16.651],[-89.666,16.651],[-89.821,16.606],[-89.992,16.588],[-90.395,16.638],[-90.701,16.764],[-90.917,16.903],[-91.063,17.085],[-91.207,17.191],[-91.45,17.457],[-91.45,17.515],[-91.477,17.576],[-91.63,17.677],[-91.765,17.713],[-91.976,17.805],[-92.163,17.945],[-92.262,18.091],[-92.271,18.147],[-92.249,18.208],[-92.195,18.222],[-92.188,18.278],[-92.269,18.316],[-92.462,18.467],[-92.784,18.576],[-92.845,18.633],[-92.949,18.758],[-93.017,18.87],[-93.057,19.045],[-93.078,19.45],[-93.307,20.0],[-93.354,20.152],[-93.341,20.81],[-93.206,21.043],[-93.098,21.097],[-92.983,21.097],[-92.906,21.043],[-92.872,20.935],[-92.852,20.618],[-92.7,20.203],[-92.521,19.919],[-92.501,19.791],[-92.43,19.619],[-92.119,19.352],[-92.079,19.288],[-91.984,19.248],[-91.913,19.318],[-91.876,19.416],[-91.785,19.426],[-91.748,19.507],[-91.61,19.619],[-91.599,19.686],[-91.326,20.068],[-91.289,20.105],[-91.184,20.149],[-91.14,20.199],[-91.1,20.311],[-90.995,20.371],[-90.904,20.385],[-90.506,20.236],[-90.398,20.162],[-90.138,20.071],[-90.06,20.027],[-89.892,19.848],[-89.483,19.591],[-89.389,19.523],[-89.31,19.433],[-89.272,19.388],[-89.263,19.334],[-89.285,19.314],[-89.333,19.314],[-89.409,19.341],[-89.56,19.417],[-89.904,19.631],[-90.044,19.739],[-90.118,19.773],[-90.23,19.8],[-90.406,19.802],[-90.449,19.78],[-90.469,19.692],[-90.39,19.564],[-90.244,19.417],[-90.224,19.381],[-90.217,19.278],[-90.264,19.224],[-90.327,19.246],[-90.399,19.249],[-90.417,19.228],[-90.408,19.118],[-90.437,19.078],[-90.595,19.08],[-90.651,19.057],[-90.687,18.992],[-90.687,18.902],[-90.638,18.832],[-90.446,18.684],[-90.325,18.632],[-89.841,18.303],[-89.369,18.127],[-88.835,18.022],[-88.754,17.965],[-88.751,17.867],[-88.778,17.84],[-88.943,17.854],[-89.325,17.958],[-90.094,18.215],[-90.222,18.276],[-90.33,18.299],[-90.395,18.286],[-90.395,18.262],[-90.344,18.195],[-90.337,18.124],[-90.347,18.097],[-90.401,18.06],[-90.449,18.056],[-90.692,18.117],[-90.719,18.056],[-90.746,18.033],[-90.793,18.026],[-90.928,18.049],[-90.945,18.026],[-90.931,17.975],[-90.806,17.867],[-90.735,17.779],[-90.783,17.655],[-90.766,17.601],[-90.695,17.496],[-90.597,17.405],[-90.388,17.277],[-90.347,17.219],[-90.334,17.121],[-90.388,17.064],[-90.357,16.976],[-90.307,16.909],[-90.283,16.888],[-90.017,16.791],[-89.524,16.703],[-89.477,16.683],[-89.477,16.642],[-89.497,16.651]]]}},{"type":"Feature","properties":{"density":1},"geometry":{"type":"Polygon","coordinates":[[[-92.86,17.787],[-93.174,17.915],[-93.225,17.959],[-93.245,18.02],[-93.235,18.074],[-93.161,18.178],[-93.147,18.246],[-93.15,18.3],[-93.221,18.452],[-93.302,18.519],[-93.319,18.556],[-93.569,18.546],[-93.603,18.604],[-93.582,18.681],[-93.501,18.84],[-93.481,18.995],[-93.495,19.451],[-93.711,19.694],[-93.896,19.964],[-94.001,20.055],[-94.119,20.079],[-94.166,20.068],[-94.217,20.014],[-94.237,19.96],[-94.207,19.859],[-94.075,19.569],[-94.025,19.535],[-93.937,19.393],[-93.9,19.275],[-93.89,19.15],[-93.923,19.032],[-94.035,18.884],[-94.146,18.759],[-94.281,18.648],[-94.359,18.418],[-94.386,18.394],[-94.44,18.286],[-94.45,18.108],[-94.345,17.858],[-94.224,17.703],[-94.18,17.672],[-93.927,17.524],[-93.785,17.466],[-93.66,17.365],[-93.488,17.267],[-93.417,17.24],[-93.134,17.2],[-93.036,17.217],[-92.904,17.2],[-92.796,17.152],[-92.411,16.916],[-92.205,16.855],[-92.064,16.845],[-91.949,16.903],[-91.915,16.953],[-91.885,17.136],[-91.898,17.176],[-92.0,17.314],[-92.094,17.382],[-92.286,17.47],[-92.486,17.588],[-92.604,17.686],[-92.796,17.753],[-92.86,17.787]]]}},{"type":"Feature","properties":{"density":1},"geometry":{"type":"Polygon","coordinates":[[[-109.821,24.255],[-109.434,24.437],[-109.081,24.539],[-108.876,24.676],[-108.659,24.779],[-108.227,25.12],[-108.101,25.2],[-107.68,25.405],[-106.484,25.28],[-106.199,25.097],[-105.835,24.653],[-105.561,24.255],[-105.322,23.719],[-104.141,21.76],[-104.027,21.585],[-103.868,21.388],[-103.678,21.191],[-103.45,21.039],[-102.812,20.758],[-102.22,20.659],[-101.164,20.439],[-100.413,20.082],[-100.283,20.15],[-100.283,20.256],[-100.428,20.424],[-100.678,20.591],[-100.8,20.735],[-100.914,20.925],[-100.997,21.115],[-101.02,21.335],[-100.99,21.555],[-100.769,22.238],[-100.724,22.481],[-100.701,22.762],[-100.716,23.203],[-100.694,25.132],[-101.115,26.51],[-101.263,26.692],[-101.411,26.92],[-101.753,27.376],[-102.015,27.888],[-102.095,28.15],[-102.083,28.56],[-101.969,28.959],[-101.992,29.164],[-102.243,29.403],[-102.402,29.825],[-102.436,30.064],[-102.448,30.485],[-102.425,31.089],[-102.186,31.693],[-100.705,33.595],[-99.816,35.155],[-99.566,36.238],[-99.315,37.764],[-98.882,38.288],[-98.04,38.652],[-97.288,38.914],[-96.912,39.142],[-96.525,39.313],[-95.796,39.575],[-94.395,40.589],[-93.779,41.124],[-93.119,41.329],[-92.538,41.352],[-92.31,41.044],[-92.105,40.429],[-92.082,39.928],[-92.162,39.632],[-95.044,35.417],[-95.215,34.814],[-95.146,34.358],[-95.361,33.375],[-95.133,32.699],[-94.814,32.084],[-94.457,31.658],[-93.994,31.218],[-93.235,30.694],[-92.194,30.531],[-91.613,30.531],[-90.873,30.713],[-90.406,30.895],[-89.643,30.975],[-89.278,30.941],[-85.793,29.54],[-84.54,28.993],[-84.232,28.942],[-83.993,29.044],[-83.805,29.489],[-83.685,30.087],[-83.959,30.941],[-84.044,31.573],[-83.959,31.949],[-83.48,32.786],[-83.036,33.504],[-80.132,37.28],[-79.858,38.151],[-79.602,39.057],[-79.499,39.996],[-78.115,43.431],[-77.347,44.593],[-76.714,45.156],[-75.706,45.874],[-74.801,46.694],[-73.656,47.343],[-72.87,47.497],[-71.879,47.514],[-70.837,47.326],[-69.88,47.053],[-68.957,46.592],[-68.24,45.806],[-67.625,44.883],[-67.044,44.097],[-66.292,42.85],[-64.6,41.876],[-63.422,39.228],[-62.926,38.476],[-61.747,36.425],[-61.61,35.862],[-61.371,35.024],[-61.337,34.409],[-61.593,33.623],[-62.174,33.213],[-63.165,32.974],[-64.43,33.025],[-65.848,33.64],[-66.975,34.051],[-68.325,34.409],[-69.009,34.512],[-70.307,34.426],[-71.196,34.119],[-71.896,33.692],[-73.024,32.581],[-74.015,31.829],[-75.262,31.283],[-76.236,30.804],[-77.176,30.445],[-78.628,29.215],[-79.329,28.241],[-80.166,27.575],[-81.174,27.25],[-82.114,26.772],[-85.65,24.79],[-86.556,24.346],[-87.496,23.679],[-87.923,22.808],[-87.889,22.227],[-87.342,20.826],[-86.18,18.109],[-85.206,17.785],[-84.711,17.699],[-84.164,17.443],[-83.72,16.93],[-83.19,16.247],[-83.019,15.427],[-83.053,14.778],[-83.156,13.496],[-83.275,12.915],[-83.549,12.232],[-84.403,10.626],[-85.052,9.891],[-86.248,9.515],[-87.256,9.378],[-88.145,9.498],[-88.965,9.771],[-89.717,9.908],[-90.229,9.942],[-95.236,9.344],[-97.816,8.695],[-99.866,8.422],[-102.019,8.541],[-103.522,9.122],[-107.247,9.669],[-111.108,9.771],[-112.714,9.618],[-114.321,9.566],[-115.28,9.745],[-115.861,10.497],[-115.656,11.59],[-115.109,12.496],[-114.563,13.299],[-114.221,14.017],[-113.93,14.409],[-113.743,15.332],[-113.64,16.016],[-113.725,17.007],[-113.845,17.758],[-113.896,18.954],[-114.358,20.492],[-114.563,21.893],[-114.184,22.532],[-113.552,23.045],[-112.475,23.746],[-111.655,24.019],[-110.989,24.053],[-110.562,24.053],[-110.152,24.087],[-109.821,24.255]]]}},{"type":"Feature","properties":{"density":1},"geometry":{"type":"Polygon","coordinates":[[[-117.536,33.865],[-117.319,33.774],[-116.977,33.501],[-116.795,33.295],[-116.613,32.908],[-116.465,32.51],[-116.442,32.111],[-116.488,31.746],[-116.602,31.53],[-116.807,31.507],[-117.046,31.758],[-117.228,32.031],[-117.479,32.361],[-117.798,32.475],[-118.082,32.612],[-118.458,32.658],[-118.754,32.623],[-119.051,32.43],[-119.187,32.168],[-118.937,31.837],[-118.868,31.621],[-118.937,31.405],[-119.142,31.325],[-119.461,31.302],[-119.631,31.336],[-120.497,31.12],[-120.896,31.143],[-121.306,30.995],[-122.058,30.641],[-122.912,30.391],[-123.322,30.209],[-123.687,30.106],[-124.017,30.083],[-124.279,30.209],[-124.381,30.357],[-124.427,30.585],[-124.393,31.029],[-124.256,31.234],[-123.971,31.541],[-123.766,31.678],[-123.128,31.849],[-122.297,32.111],[-121.887,32.27],[-121.192,32.51],[-120.6,32.737],[-120.212,32.908],[-119.734,33.147],[-118.834,33.888],[-118.675,33.968],[-118.47,34.036],[-118.253,34.059],[-118.014,34.047],[-117.809,33.99],[-117.536,33.865]]]}},{"type":"Feature","properties":{"density":2},"geometry":{"type":"Polygon","coordinates":[[[-105.399,33.657],[-105.358,33.691],[-105.094,33.8],[-104.712,34.001],[-104.444,34.184],[-104.28,34.241],[-104.198,34.288],[-103.273,35.022],[-103.048,35.253],[-102.746,35.655],[-102.599,35.795],[-102.177,36.258],[-102.088,36.323],[-102.01,36.337],[-101.921,36.275],[-101.904,36.193],[-101.921,36.119],[-102.091,35.924],[-102.675,35.381],[-102.793,35.235],[-102.993,35.054],[-103.238,34.788],[-103.674,34.422],[-103.906,34.179],[-104.053,34.057],[-104.244,33.971],[-104.464,33.914],[-104.582,33.862],[-104.789,33.7],[-105.107,33.555],[-105.265,33.54],[-105.341,33.552],[-105.402,33.592],[-105.418,33.637],[-105.399,33.657]]]}},{"type":"Feature","properties":{"density":2},"geometry":{"type":"Polygon","coordinates":[[[-104.357,20.863],[-104.344,20.935],[-104.315,20.967],[-104.252,20.995],[-103.706,20.959],[-103.664,20.932],[-103.64,20.871],[-103.667,20.82],[-103.786,20.806],[-104.129,20.875],[-104.303,20.808],[-104.359,20.851],[-104.357,20.863]]]}},{"type":"Feature","properties":{"density":2},"geometry":{"type":"Polygon","coordinates":[[[-101.661,19.103],[-101.564,19.114],[-101.3,19.085],[-101.187,19.049],[-101.169,18.985],[-101.226,18.955],[-101.405,18.958],[-101.582,19.009],[-101.652,19.052],[-101.672,19.091],[-101.661,19.103]]]}},{"type":"Feature","properties":{"density":2},"geometry":{"type":"Polygon","coordinates":[[[-100.439,19.018],[-100.358,19.046],[-100.283,19.027],[-100.175,18.947],[-100.149,18.896],[-100.148,18.808],[-100.254,18.619],[-100.326,18.64],[-100.352,18.743],[-100.334,18.838],[-100.373,18.917],[-100.443,18.961],[-100.44,19.004],[-100.439,19.018]]]}},{"type":"Feature","properties":{"density":2},"geometry":{"type":"Polygon","coordinates":[[[-99.504,17.635],[-99.409,17.581],[-99.364,17.43],[-99.36,17.23],[-99.371,17.18],[-99.398,17.147],[-99.483,17.153],[-99.522,17.194],[-99.533,17.25],[-99.522,17.509],[-99.537,17.594],[-99.535,17.615],[-99.515,17.626],[-99.504,17.635]]]}},{"type":"Feature","properties":{"density":2},"geometry":{"type":"Polygon","coordinates":[[[-104.505,21.885],[-104.508,21.909],[-104.475,21.95],[-104.361,22.055],[-104.28,22.07],[-104.253,22.05],[-104.235,22.019],[-104.256,21.954],[-104.472,21.867],[-104.502,21.882],[-104.505,21.885]]]}},{"type":"Feature","properties":{"density":2},"geometry":{"type":"Polygon","coordinates":[[[-93.823,17.506],[-93.851,17.722],[-93.809,17.764],[-93.779,17.754],[-93.772,17.713],[-93.785,17.548],[-93.802,17.503],[-93.823,17.506]]]}},{"type":"Feature","properties":{"density":2},"geometry":{"type":"Polygon","coordinates":[[[-93.897,16.45],[-93.886,16.582],[-93.832,16.744],[-93.787,16.767],[-93.733,16.753],[-93.717,16.711],[-93.733,16.643],[-93.794,16.524],[-93.877,16.429],[-93.897,16.45]]]}},{"type":"Feature","properties":{"density":2},"geometry":{"type":"Polygon","coordinates":[[[-93.566,16.423],[-93.607,16.45],[-93.618,16.49],[-93.6,16.544],[-93.566,16.56],[-93.524,16.549],[-93.508,16.524],[-93.526,16.445],[-93.544,16.425],[-93.566,16.423]]]}},{"type":"Feature","properties":{"density":2},"geometry":{"type":"Polygon","coordinates":[[[-91.69,18.355],[-91.818,18.436],[-91.89,18.52],[-91.913,18.583],[-91.899,18.61],[-91.85,18.641],[-91.789,18.639],[-91.739,18.607],[-91.602,18.412],[-91.607,18.382],[-91.652,18.362],[-91.69,18.355]]]}},{"type":"Feature","properties":{"density":2},"geometry":{"type":"Polygon","coordinates":[[[-118.652,35.311],[-118.769,35.32],[-118.836,35.3],[-118.649,35.29],[-118.634,35.293],[-118.641,35.303],[-118.652,35.311]]]}},{"type":"Feature","properties":{"density":2},"geometry":{"type":"Polygon","coordinates":[[[-120.027,33.993],[-120.179,33.959],[-120.414,33.861],[-120.269,33.903],[-120.233,33.89],[-120.239,33.87],[-120.227,33.87],[-120.087,33.935],[-120.0,33.951],[-120.02,33.992],[-120.027,33.993]]]}},{"type":"Feature","properties":{"density":2},"geometry":{"type":"Polygon","coordinates":[[[-101.648,19.1],[-101.633,19.115],[-101.574,19.106],[-101.418,19.055],[-101.394,19.027],[-101.396,18.979],[-101.421,18.967],[-101.663,19.07],[-101.648,19.1]]]}},{"type":"Feature","properties":{"density":2},"geometry":{"type":"Polygon","coordinates":[[[-102.99,19.019],[-103.026,18.959],[-102.992,18.98],[-102.981,19.019],[-102.99,19.019]]]}},{"type":"Feature","properties":{"density":2},"geometry":{"type":"Polygon","coordinates":[[[-103.142,19.03],[-103.082,19.019],[-103.156,19.007],[-103.156,19.019],[-103.142,19.03]]]}},{"type":"Feature","properties":{"density":2},"geometry":{"type":"Polygon","coordinates":[[[-104.207,20.95],[-104.231,20.951],[-104.263,21.008],[-104.314,20.986],[-104.323,20.897],[-104.29,20.836],[-104.263,20.83],[-104.174,20.876],[-104.162,20.927],[-104.197,20.947],[-104.207,20.95]]]}},{"type":"Feature","properties":{"density":2},"geometry":{"type":"Polygon","coordinates":[[[-99.509,17.599],[-99.513,17.538],[-99.488,17.461],[-99.482,17.369],[-99.464,17.344],[-99.441,17.38],[-99.439,17.504],[-99.47,17.558],[-99.477,17.608],[-99.509,17.599]]]}},{"type":"Feature","properties":{"density":2},"geometry":{"type":"Polygon","coordinates":[[[-98.811,16.888],[-98.766,16.856],[-98.735,16.768],[-98.764,16.775],[-98.818,16.87],[-98.811,16.888]]]}},{"type":"Feature","properties":{"density":2},"geometry":{"type":"Polygon","coordinates":[[[-98.912,17.016],[-98.928,17.043],[-98.948,17.043],[-98.961,17.011],[-98.952,16.983],[-98.88,16.917],[-98.816,16.891],[-98.837,16.946],[-98.91,17.013],[-98.912,17.016]]]}},{"type":"Feature","properties":{"density":2},"geometry":{"type":"Polygon","coordinates":[[[-96.739,17.659],[-96.771,17.655],[-96.78,17.669],[-96.716,17.698],[-96.62,17.681],[-96.69,17.682],[-96.734,17.664],[-96.739,17.659]]]}},{"type":"Feature","properties":{"density":2},"geometry":{"type":"Polygon","coordinates":[[[-93.828,17.512],[-93.795,17.645],[-93.813,17.791],[-93.805,17.865],[-93.822,17.925],[-93.912,18.076],[-93.915,18.117],[-93.861,18.103],[-93.798,18.037],[-93.715,18.045],[-93.673,18.012],[-93.663,17.97],[-93.717,17.706],[-93.799,17.521],[-93.822,17.507],[-93.828,17.512]]]}},{"type":"Feature","properties":{"density":2},"geometry":{"type":"Polygon","coordinates":[[[-92.917,17.777],[-92.956,17.787],[-93.073,17.771],[-93.22,17.864],[-93.248,17.864],[-93.183,17.784],[-93.086,17.735],[-92.951,17.758],[-92.909,17.749],[-92.909,17.764],[-92.917,17.777]]]}},{"type":"Feature","properties":{"density":2},"geometry":{"type":"Polygon","coordinates":[[[-91.861,18.304],[-91.945,18.394],[-92.031,18.441],[-91.941,18.339],[-91.876,18.288],[-91.855,18.295],[-91.861,18.304]]]}},{"type":"Feature","properties":{"density":2},"geometry":{"type":"Polygon","coordinates":[[[-91.626,18.394],[-91.63,18.414],[-91.779,18.561],[-91.836,18.6],[-91.929,18.61],[-91.963,18.594],[-91.969,18.574],[-91.948,18.531],[-91.866,18.46],[-91.749,18.391],[-91.704,18.4],[-91.636,18.388],[-91.626,18.394]]]}},{"type":"Feature","properties":{"density":2},"geometry":{"type":"Polygon","coordinates":[[[-91.846,17.419],[-91.897,17.431],[-91.937,17.403],[-91.988,17.398],[-92.011,17.317],[-92.0,17.302],[-91.912,17.328],[-91.834,17.311],[-91.816,17.325],[-91.826,17.356],[-91.874,17.361],[-91.889,17.385],[-91.823,17.388],[-91.834,17.413],[-91.846,17.419]]]}},{"type":"Feature","properties":{"density":2},"geometry":{"type":"Polygon","coordinates":[[[-93.537,16.489],[-93.608,16.51],[-93.65,16.546],[-93.683,16.535],[-93.629,16.471],[-93.623,16.439],[-93.591,16.423],[-93.528,16.456],[-93.528,16.484],[-93.537,16.489]]]}},{"type":"Feature","properties":{"density":2},"geometry":{"type":"Polygon","coordinates":[[[-80.828,32.191],[-81.017,32.279],[-80.929,32.212],[-80.841,32.171],[-80.816,32.173],[-80.828,32.191]]]}},{"type":"Feature","properties":{"density":2},"geometry":{"type":"Polygon","coordinates":[[[-79.706,33.289],[-79.742,33.404],[-79.762,33.417],[-79.771,33.392],[-79.724,33.323],[-79.713,33.278],[-79.702,33.28],[-79.706,33.289]]]}},{"type":"Feature","properties":{"density":2},"geometry":{"type":"Polygon","coordinates":[[[-79.504,34.978],[-79.4,35.144],[-79.411,35.187],[-79.506,35.07],[-79.533,34.982],[-79.515,34.964],[-79.504,34.978]]]}},{"type":"Feature","properties":{"density":2},"geometry":{"type":"Polygon","coordinates":[[[-88.817,31.52],[-88.814,31.597],[-88.844,31.796],[-88.844,31.837],[-88.821,31.871],[-88.777,31.628],[-88.794,31.526],[-88.817,31.52]]]}},{"type":"Feature","properties":{"density":2},"geometry":{"type":"Polygon","coordinates":[[[-105.384,33.644],[-105.283,33.749],[-105.186,33.786],[-105.142,33.786],[-105.112,33.768],[-105.112,33.746],[-105.141,33.714],[-105.286,33.614],[-105.313,33.612],[-105.304,33.633],[-105.318,33.657],[-105.382,33.633],[-105.384,33.644]]]}},{"type":"Feature","properties":{"density":2},"geometry":{"type":"Polygon","coordinates":[[[-120.038,33.994],[-120.167,33.958],[-120.319,33.867],[-120.361,33.825],[-120.454,33.814],[-120.572,33.774],[-120.733,33.66],[-120.751,33.63],[-120.745,33.577],[-120.721,33.57],[-120.634,33.657],[-120.598,33.67],[-120.475,33.615],[-120.29,33.67],[-120.107,33.871],[-120.008,33.952],[-120.023,33.981],[-120.038,33.994]]]}},{"type":"Feature","properties":{"density":2},"geometry":{"type":"Polygon","coordinates":[[[-118.766,34.266],[-118.981,34.192],[-119.254,34.044],[-119.35,34.008],[-119.704,33.96],[-119.798,33.924],[-119.804,33.897],[-119.777,33.883],[-119.698,33.888],[-119.59,33.918],[-119.225,33.969],[-119.104,34.006],[-118.904,34.143],[-118.751,34.221],[-118.742,34.252],[-118.766,34.266]]]}},{"type":"Feature","properties":{"density":2},"geometry":{"type":"Polygon","coordinates":[[[-104.309,20.957],[-104.275,21.02],[-104.253,21.02],[-104.194,20.919],[-104.192,20.836],[-104.208,20.813],[-104.275,20.806],[-104.32,20.757],[-104.356,20.75],[-104.376,20.775],[-104.325,20.93],[-104.309,20.957]]]}},{"type":"Feature","properties":{"density":2},"geometry":{"type":"Polygon","coordinates":[[[-102.743,18.847],[-102.738,18.802],[-102.723,18.811],[-102.729,18.84],[-102.743,18.847]]]}},{"type":"Feature","properties":{"density":2},"geometry":{"type":"Polygon","coordinates":[[[-101.656,19.117],[-101.566,19.119],[-101.514,19.103],[-101.431,19.054],[-101.427,19.018],[-101.546,19.067],[-101.737,18.988],[-101.775,18.991],[-101.683,19.105],[-101.656,19.117]]]}},{"type":"Feature","properties":{"density":2},"geometry":{"type":"Polygon","coordinates":[[[-98.922,17.054],[-98.904,17.004],[-98.796,16.892],[-98.793,16.844],[-98.86,16.894],[-98.94,16.985],[-98.956,17.039],[-98.932,17.061],[-98.922,17.054]]]}},{"type":"Feature","properties":{"density":2},"geometry":{"type":"Polygon","coordinates":[[[-98.271,21.833],[-98.289,21.882],[-98.262,21.855],[-98.265,21.821],[-98.271,21.833]]]}},{"type":"Feature","properties":{"density":2},"geometry":{"type":"Polygon","coordinates":[[[-93.907,16.464],[-93.901,16.516],[-93.878,16.547],[-93.826,16.565],[-93.838,16.511],[-93.871,16.466],[-93.907,16.448],[-93.907,16.464]]]}},{"type":"Feature","properties":{"density":2},"geometry":{"type":"Polygon","coordinates":[[[-91.85,17.349],[-91.931,17.369],[-92.075,17.367],[-92.122,17.34],[-92.179,17.246],[-92.161,17.205],[-92.104,17.201],[-92.037,17.261],[-91.949,17.304],[-91.823,17.318],[-91.85,17.349]]]}},{"type":"Feature","properties":{"density":2},"geometry":{"type":"Polygon","coordinates":[[[-92.926,17.763],[-92.953,17.808],[-93.135,17.896],[-93.196,17.912],[-93.333,17.894],[-93.378,17.909],[-93.623,18.119],[-93.72,18.17],[-93.724,18.148],[-93.655,18.044],[-93.533,17.9],[-93.394,17.77],[-93.297,17.644],[-93.198,17.597],[-93.097,17.594],[-92.935,17.707],[-92.926,17.763]]]}},{"type":"Feature","properties":{"density":2},"geometry":{"type":"Polygon","coordinates":[[[-93.821,17.502],[-93.867,17.54],[-93.969,17.68],[-94.002,17.767],[-93.989,17.84],[-93.963,17.846],[-93.919,17.819],[-93.806,17.614],[-93.785,17.544],[-93.812,17.504],[-93.821,17.502]]]}},{"type":"Feature","properties":{"density":2},"geometry":{"type":"Polygon","coordinates":[[[-91.902,18.293],[-91.997,18.338],[-92.08,18.404],[-92.215,18.48],[-92.316,18.604],[-92.314,18.638],[-92.269,18.617],[-92.154,18.491],[-91.985,18.417],[-91.925,18.374],[-91.877,18.334],[-91.871,18.284],[-91.902,18.293]]]}},{"type":"Feature","properties":{"density":2},"geometry":{"type":"Polygon","coordinates":[[[-91.718,18.364],[-91.925,18.453],[-92.036,18.542],[-92.098,18.695],[-92.045,18.787],[-91.996,18.775],[-91.887,18.69],[-91.761,18.543],[-91.653,18.447],[-91.639,18.404],[-91.7,18.404],[-91.713,18.367],[-91.718,18.364]]]}},{"type":"Feature","properties":{"density":2},"geometry":{"type":"Polygon","coordinates":[[[-81.686,26.169],[-81.78,26.071],[-81.959,26.024],[-82.064,26.014],[-82.357,26.044],[-82.408,26.075],[-82.492,26.223],[-82.641,26.227],[-82.766,26.119],[-82.789,26.078],[-82.796,25.974],[-82.776,25.94],[-82.702,25.889],[-82.53,25.839],[-82.381,25.751],[-82.087,25.704],[-81.929,25.768],[-81.703,25.94],[-81.618,26.051],[-81.601,26.105],[-81.655,26.173],[-81.686,26.169]]]}},{"type":"Feature","properties":{"density":2},"geometry":{"type":"Polygon","coordinates":[[[-81.322,27.811],[-81.532,27.835],[-81.356,27.79],[-81.311,27.788],[-81.316,27.808],[-81.322,27.811]]]}},{"type":"Feature","properties":{"density":2},"geometry":{"type":"Polygon","coordinates":[[[-81.472,31.299],[-81.587,31.362],[-81.654,31.369],[-81.6,31.32],[-81.463,31.279],[-81.472,31.299]]]}},{"type":"Feature","properties":{"density":2},"geometry":{"type":"Polygon","coordinates":[[[-82.627,31.844],[-82.924,31.995],[-82.96,32.024],[-82.967,32.08],[-82.636,31.891],[-82.604,31.848],[-82.627,31.844]]]}},{"type":"Feature","properties":{"density":2},"geometry":{"type":"Polygon","coordinates":[[[-84.832,32.217],[-84.877,32.251],[-84.915,32.307],[-85.019,32.388],[-85.093,32.391],[-85.091,32.364],[-84.998,32.269],[-84.85,32.199],[-84.832,32.204],[-84.832,32.217]]]}},{"type":"Feature","properties":{"density":2},"geometry":{"type":"Polygon","coordinates":[[[-80.84,32.169],[-81.002,32.223],[-81.128,32.288],[-81.254,32.398],[-81.29,32.466],[-81.373,32.52],[-81.447,32.518],[-81.587,32.614],[-81.616,32.662],[-81.603,32.677],[-81.612,32.713],[-81.708,32.812],[-81.81,32.889],[-81.846,33.031],[-81.762,32.988],[-81.681,32.873],[-81.423,32.655],[-81.294,32.529],[-81.234,32.448],[-81.045,32.315],[-80.869,32.232],[-80.82,32.178],[-80.84,32.169]]]}},{"type":"Feature","properties":{"density":2},"geometry":{"type":"Polygon","coordinates":[[[-75.468,41.502],[-75.103,41.741],[-74.813,41.971],[-74.796,42.018],[-74.84,42.011],[-75.296,41.674],[-75.501,41.546],[-75.508,41.502],[-75.468,41.502]]]}},{"type":"Feature","properties":{"density":2},"geometry":{"type":"Polygon","coordinates":[[[-99.898,37.284],[-99.912,37.274],[-99.898,37.257],[-99.834,37.308],[-99.787,37.399],[-99.709,37.497],[-99.669,37.598],[-99.689,37.598],[-99.854,37.355],[-99.908,37.301],[-99.898,37.284]]]}},{"type":"Feature","properties":{"density":2},"geometry":{"type":"Polygon","coordinates":[[[-102.013,35.278],[-101.834,35.44],[-101.669,35.673],[-101.473,35.855],[-101.358,35.997],[-101.142,36.149],[-101.048,36.263],[-101.031,36.263],[-101.041,36.176],[-101.149,35.997],[-101.348,35.76],[-101.881,35.318],[-102.026,35.244],[-102.013,35.278]]]}},{"type":"Feature","properties":{"density":2},"geometry":{"type":"Polygon","coordinates":[[[-105.402,33.654],[-105.375,33.701],[-105.331,33.735],[-105.027,33.873],[-104.842,34.018],[-104.761,34.062],[-104.663,34.14],[-104.45,34.356],[-104.278,34.497],[-104.214,34.524],[-103.958,34.575],[-103.873,34.572],[-103.809,34.548],[-103.789,34.464],[-104.022,34.096],[-104.113,33.991],[-104.423,33.812],[-104.828,33.644],[-104.899,33.627],[-105.125,33.637],[-105.243,33.596],[-105.405,33.62],[-105.402,33.654]]]}},{"type":"Feature","properties":{"density":2},"geometry":{"type":"Polygon","coordinates":[[[-118.797,34.254],[-118.956,34.166],[-119.334,34.007],[-119.526,33.957],[-119.735,33.933],[-119.87,33.899],[-120.053,33.974],[-120.117,33.963],[-120.424,33.812],[-120.724,33.575],[-120.957,33.45],[-121.193,33.285],[-121.44,33.137],[-121.504,33.056],[-121.531,32.981],[-121.504,32.917],[-121.433,32.904],[-121.295,32.978],[-121.241,32.991],[-120.977,32.968],[-120.873,32.988],[-120.501,33.204],[-119.81,33.369],[-119.637,33.44],[-119.577,33.484],[-119.563,33.528],[-119.573,33.666],[-118.962,34.082],[-118.888,34.156],[-118.767,34.203],[-118.74,34.223],[-118.743,34.257],[-118.763,34.26],[-118.797,34.254]]]}},{"type":"Feature","properties":{"density":2},"geometry":{"type":"Polygon","coordinates":[[[-106.591,26.283],[-106.446,26.414],[-106.372,26.461],[-106.183,26.549],[-106.122,26.559],[-106.146,26.529],[-106.244,26.472],[-106.325,26.387],[-106.544,26.259],[-106.588,26.262],[-106.591,26.283]]]}},{"type":"Feature","properties":{"density":2},"geometry":{"type":"Polygon","coordinates":[[[-106.281,23.89],[-106.125,23.893],[-106.119,23.876],[-106.132,23.849],[-106.2,23.839],[-106.335,23.866],[-106.321,23.886],[-106.291,23.886],[-106.281,23.89]]]}},{"type":"Feature","properties":{"density":2},"geometry":{"type":"Polygon","coordinates":[[[-102.781,18.774],[-102.798,18.808],[-102.795,18.858],[-102.765,18.946],[-102.754,19.111],[-102.721,19.186],[-102.677,19.202],[-102.67,19.152],[-102.707,18.97],[-102.711,18.831],[-102.748,18.791],[-102.781,18.774]]]}},{"type":"Feature","properties":{"density":2},"geometry":{"type":"Polygon","coordinates":[[[-101.653,19.109],[-101.622,19.15],[-101.556,19.147],[-101.518,19.163],[-101.511,19.215],[-101.538,19.228],[-101.55,19.26],[-101.471,19.271],[-101.403,19.244],[-101.379,19.179],[-101.385,19.134],[-101.421,19.1],[-101.462,19.078],[-101.626,19.048],[-101.651,19.015],[-101.689,19.039],[-101.669,19.084],[-101.653,19.109]]]}},{"type":"Feature","properties":{"density":2},"geometry":{"type":"Polygon","coordinates":[[[-100.738,19.376],[-100.678,19.555],[-100.678,19.597],[-100.689,19.618],[-100.761,19.646],[-100.852,19.58],[-100.866,19.484],[-100.837,19.418],[-100.786,19.37],[-100.747,19.36],[-100.738,19.376]]]}},{"type":"Feature","properties":{"density":2},"geometry":{"type":"Polygon","coordinates":[[[-98.36,16.437],[-98.329,16.509],[-98.272,16.554],[-98.119,16.594],[-98.02,16.558],[-98.027,16.522],[-98.2,16.459],[-98.234,16.387],[-98.347,16.367],[-98.367,16.412],[-98.36,16.437]]]}},{"type":"Feature","properties":{"density":2},"geometry":{"type":"Polygon","coordinates":[[[-92.954,16.022],[-93.01,15.961],[-93.01,15.866],[-93.028,15.821],[-93.028,15.788],[-92.983,15.767],[-92.934,15.779],[-92.895,15.828],[-92.918,15.923],[-92.904,15.981],[-92.936,16.019],[-92.954,16.022]]]}},{"type":"Feature","properties":{"density":2},"geometry":{"type":"Polygon","coordinates":[[[-90.324,18.168],[-90.462,18.222],[-90.827,18.434],[-90.897,18.454],[-91.026,18.522],[-91.164,18.556],[-91.181,18.542],[-91.174,18.505],[-90.827,18.303],[-90.435,18.147],[-90.314,18.127],[-90.324,18.168]]]}},{"type":"Feature","properties":{"density":2},"geometry":{"type":"Polygon","coordinates":[[[-91.181,18.687],[-91.645,18.883],[-91.967,19.077],[-91.996,19.108],[-91.994,19.147],[-91.963,19.158],[-91.457,18.922],[-91.259,18.79],[-91.172,18.717],[-91.169,18.693],[-91.181,18.687]]]}},{"type":"Feature","properties":{"density":2},"geometry":{"type":"Polygon","coordinates":[[[-90.89,18.752],[-91.007,18.793],[-91.626,19.108],[-91.772,19.234],[-91.784,19.27],[-91.768,19.299],[-91.725,19.306],[-91.678,19.288],[-91.516,19.18],[-91.3,19.078],[-90.958,18.862],[-90.872,18.772],[-90.89,18.752]]]}},{"type":"Feature","properties":{"density":2},"geometry":{"type":"Polygon","coordinates":[[[-91.905,18.243],[-92.121,18.313],[-92.402,18.452],[-92.587,18.592],[-92.67,18.677],[-92.749,18.808],[-92.902,18.961],[-92.92,19.042],[-92.888,19.161],[-92.9,19.222],[-92.933,19.278],[-92.927,19.429],[-92.996,19.607],[-93.075,19.994],[-93.053,20.257],[-93.068,20.502],[-93.048,20.531],[-92.985,20.369],[-92.823,20.237],[-92.679,20.03],[-92.553,19.751],[-92.515,19.622],[-92.297,19.213],[-92.148,19.008],[-91.804,18.601],[-91.68,18.477],[-91.655,18.432],[-91.637,18.347],[-91.658,18.322],[-91.795,18.335],[-91.894,18.236],[-91.905,18.243]]]}},{"type":"Feature","properties":{"density":2},"geometry":{"type":"Polygon","coordinates":[[[-93.838,17.471],[-93.909,17.538],[-94.088,17.778],[-94.223,18.112],[-94.226,18.298],[-94.192,18.382],[-94.142,18.423],[-93.986,18.446],[-93.828,18.433],[-93.645,18.223],[-93.359,17.997],[-93.217,17.913],[-92.923,17.781],[-92.913,17.731],[-93.024,17.613],[-93.051,17.484],[-93.085,17.42],[-93.143,17.386],[-93.274,17.356],[-93.521,17.339],[-93.618,17.366],[-93.78,17.457],[-93.821,17.464],[-93.838,17.471]]]}},{"type":"Feature","properties":{"density":2},"geometry":{"type":"Polygon","coordinates":[[[-86.18,15.503],[-86.309,15.503],[-86.461,15.647],[-86.575,15.807],[-86.719,15.761],[-86.75,15.609],[-86.75,15.435],[-86.886,15.214],[-87.395,15.283],[-88.094,15.419],[-88.519,15.579],[-88.717,15.617],[-89.043,15.473],[-89.271,15.283],[-89.339,15.108],[-89.278,14.911],[-89.111,14.85],[-88.944,14.812],[-88.375,14.903],[-88.193,14.896],[-88.261,14.736],[-88.269,14.653],[-88.155,14.584],[-87.927,14.706],[-87.722,14.789],[-87.547,14.797],[-87.388,14.766],[-87.221,14.774],[-86.94,14.827],[-86.742,14.896],[-86.59,14.987],[-86.385,15.154],[-86.271,15.199],[-86.104,15.404],[-86.18,15.503]]]}},{"type":"Feature","properties":{"density":2},"geometry":{"type":"Polygon","coordinates":[[[-92.802,21.342],[-92.813,21.843],[-92.95,22.834],[-93.098,23.688],[-93.189,24.007],[-93.326,24.326],[-93.485,24.634],[-93.987,25.431],[-94.385,26.491],[-94.408,26.798],[-94.522,27.277],[-94.898,27.994],[-95.046,28.461],[-95.445,29.281],[-95.593,29.691],[-95.82,30.033],[-96.003,30.124],[-96.322,30.158],[-96.606,30.124],[-96.914,29.839],[-97.108,29.429],[-97.29,28.917],[-97.825,27.687],[-98.019,27.288],[-98.201,26.844],[-98.372,26.491],[-98.531,26.263],[-98.68,26.172],[-98.987,26.115],[-99.397,26.274],[-99.841,26.32],[-100.001,26.263],[-100.138,26.172],[-100.263,25.921],[-100.058,25.272],[-99.796,24.725],[-99.705,23.905],[-99.488,22.88],[-99.454,22.584],[-99.454,22.299],[-99.386,21.809],[-99.488,21.752],[-99.488,21.41],[-99.374,21.137],[-99.204,20.943],[-98.93,20.761],[-97.654,20.123],[-97.324,19.861],[-96.789,19.28],[-96.527,19.03],[-96.208,18.813],[-95.969,18.677],[-95.593,18.506],[-94.066,17.526],[-93.77,17.276],[-93.44,17.127],[-92.996,17.048],[-92.745,17.162],[-92.722,17.412],[-92.665,17.731],[-92.597,17.959],[-92.426,18.084],[-92.153,18.084],[-91.811,18.027],[-91.549,18.016],[-91.401,18.21],[-91.401,18.517],[-91.788,18.87],[-91.982,19.03],[-92.21,19.189],[-92.437,19.428],[-92.597,19.702],[-92.779,20.26],[-92.882,20.659],[-92.882,21.0],[-92.802,21.342]]]}},{"type":"Feature","properties":{"density":3},"geometry":{"type":"Polygon","coordinates":[[[-105.342,33.672],[-104.865,33.886],[-104.252,34.23],[-103.274,34.996],[-103.009,35.272],[-102.753,35.586],[-102.685,35.637],[-102.61,35.616],[-102.59,35.575],[-102.61,35.494],[-102.743,35.32],[-103.032,35.048],[-103.196,34.867],[-103.758,34.39],[-103.955,34.186],[-104.122,34.056],[-104.47,33.941],[-104.657,33.862],[-104.814,33.719],[-105.011,33.641],[-105.096,33.583],[-105.274,33.559],[-105.393,33.59],[-105.403,33.624],[-105.393,33.658],[-105.345,33.675],[-105.342,33.672]]]}},{"type":"Feature","properties":{"density":3},"geometry":{"type":"Polygon","coordinates":[[[-104.309,20.881],[-104.299,20.94],[-104.269,20.967],[-104.225,20.968],[-103.963,20.932],[-103.828,20.931],[-103.802,20.923],[-103.787,20.878],[-103.811,20.859],[-103.858,20.862],[-104.167,20.91],[-104.279,20.838],[-104.323,20.85],[-104.311,20.877],[-104.309,20.881]]]}},{"type":"Feature","properties":{"density":3},"geometry":{"type":"Polygon","coordinates":[[[-101.651,19.097],[-101.528,19.094],[-101.364,19.061],[-101.346,19.036],[-101.408,18.995],[-101.436,18.998],[-101.601,19.049],[-101.648,19.079],[-101.651,19.097]]]}},{"type":"Feature","properties":{"density":3},"geometry":{"type":"Polygon","coordinates":[[[-100.419,19.016],[-100.394,19.033],[-100.349,19.031],[-100.253,18.952],[-100.208,18.866],[-100.203,18.811],[-100.218,18.784],[-100.29,18.754],[-100.331,18.776],[-100.313,18.818],[-100.323,18.889],[-100.368,18.943],[-100.43,18.967],[-100.425,19.006],[-100.419,19.016]]]}},{"type":"Feature","properties":{"density":3},"geometry":{"type":"Polygon","coordinates":[[[-99.483,17.605],[-99.45,17.587],[-99.4,17.468],[-99.411,17.369],[-99.438,17.345],[-99.474,17.342],[-99.499,17.36],[-99.504,17.403],[-99.47,17.513],[-99.474,17.547],[-99.513,17.588],[-99.508,17.61],[-99.483,17.605]]]}},{"type":"Feature","properties":{"density":3},"geometry":{"type":"Polygon","coordinates":[[[-120.02,33.977],[-120.071,33.975],[-120.114,33.948],[-120.006,33.966],[-120.02,33.977]]]}},{"type":"Feature","properties":{"density":3},"geometry":{"type":"Polygon","coordinates":[[[-104.273,20.944],[-104.299,20.918],[-104.281,20.888],[-104.257,20.881],[-104.231,20.918],[-104.267,20.938],[-104.273,20.944]]]}},{"type":"Feature","properties":{"density":3},"geometry":{"type":"Polygon","coordinates":[[[-98.947,17.039],[-98.947,16.986],[-98.876,16.92],[-98.824,16.894],[-98.854,16.945],[-98.89,16.964],[-98.938,17.044],[-98.947,17.039]]]}},{"type":"Feature","properties":{"density":3},"geometry":{"type":"Polygon","coordinates":[[[-120.043,33.973],[-120.145,33.945],[-120.238,33.847],[-120.263,33.787],[-120.248,33.781],[-120.143,33.885],[-120.029,33.961],[-120.043,33.973]]]}},{"type":"Feature","properties":{"density":3},"geometry":{"type":"Polygon","coordinates":[[[-104.277,20.939],[-104.318,20.944],[-104.316,20.912],[-104.28,20.899],[-104.268,20.914],[-104.277,20.939]]]}},{"type":"Feature","properties":{"density":3},"geometry":{"type":"Polygon","coordinates":[[[-101.647,19.092],[-101.613,19.105],[-101.602,19.085],[-101.638,19.085],[-101.647,19.092]]]}},{"type":"Feature","properties":{"density":3},"geometry":{"type":"Polygon","coordinates":[[[-98.933,17.032],[-98.804,16.892],[-98.792,16.852],[-98.936,16.991],[-98.948,17.021],[-98.937,17.042],[-98.933,17.032]]]}},{"type":"Feature","properties":{"density":3},"geometry":{"type":"Polygon","coordinates":[[[-93.824,17.509],[-93.941,17.679],[-93.923,17.675],[-93.807,17.518],[-93.824,17.509]]]}},{"type":"Feature","properties":{"density":3},"geometry":{"type":"Polygon","coordinates":[[[-91.88,18.306],[-91.941,18.346],[-91.89,18.303],[-91.88,18.306]]]}},{"type":"Feature","properties":{"density":3},"geometry":{"type":"Polygon","coordinates":[[[-105.267,33.644],[-105.176,33.671],[-105.027,33.654],[-104.916,33.671],[-104.788,33.714],[-104.413,33.93],[-104.315,34.025],[-104.356,34.045],[-104.582,33.951],[-104.66,33.927],[-104.781,33.917],[-104.889,33.88],[-105.017,33.802],[-105.362,33.674],[-105.351,33.654],[-105.318,33.644],[-105.267,33.644]]]}},{"type":"Feature","properties":{"density":3},"geometry":{"type":"Polygon","coordinates":[[[-120.063,33.97],[-120.134,33.913],[-119.975,33.818],[-119.779,33.636],[-119.735,33.639],[-119.826,33.818],[-119.945,33.943],[-120.015,33.984],[-120.049,33.987],[-120.063,33.97]]]}},{"type":"Feature","properties":{"density":3},"geometry":{"type":"Polygon","coordinates":[[[-101.635,19.107],[-101.525,19.123],[-101.523,19.105],[-101.635,19.082],[-101.651,19.102],[-101.635,19.107]]]}},{"type":"Feature","properties":{"density":3},"geometry":{"type":"Polygon","coordinates":[[[-100.746,19.385],[-100.731,19.436],[-100.749,19.459],[-100.795,19.402],[-100.776,19.37],[-100.75,19.376],[-100.746,19.385]]]}},{"type":"Feature","properties":{"density":3},"geometry":{"type":"Polygon","coordinates":[[[-91.7,18.434],[-92.081,18.754],[-92.267,18.932],[-92.292,18.936],[-92.297,18.914],[-92.27,18.875],[-91.889,18.473],[-91.788,18.403],[-91.698,18.396],[-91.7,18.434]]]}},{"type":"Feature","properties":{"density":3},"geometry":{"type":"Polygon","coordinates":[[[-93.811,17.503],[-93.829,17.456],[-93.849,17.445],[-93.878,17.467],[-93.869,17.506],[-93.926,17.629],[-93.917,17.692],[-93.809,17.528],[-93.811,17.503]]]}}]}