{"type":"FeatureCollection","features":[{"type":"Feature","properties":{"density":1},"geometry":{"type":"Polygon","coordinates":[[[-92.609,30.847],[-92.442,30.845],[-92.407,30.869],[-92.405,30.891],[-92.433,30.913],[-92.508,30.922],[-92.636,30.878],[-92.609,30.847]]]}},{"type":"Feature","properties":{"density":1},"geometry":{"type":"Polygon","coordinates":[[[-117.522,39.733],[-117.853,39.129],[-117.903,39.005],[-117.93,38.881],[-117.922,38.749],[-117.883,38.664],[-117.762,38.6],[-117.558,38.738],[-117.305,39.052],[-117.25,39.215],[-117.23,39.358],[-117.233,39.501],[-117.305,39.653],[-117.374,39.722],[-117.459,39.771],[-117.522,39.733]]]}},{"type":"Feature","properties":{"density":1},"geometry":{"type":"Polygon","coordinates":[[[-122.496,43.179],[-122.592,43.19],[-122.663,43.18],[-122.813,43.144],[-122.961,43.085],[-123.014,43.049],[-123.046,42.995],[-123.046,42.924],[-123.013,42.879],[-122.96,42.852],[-122.883,42.846],[-122.652,42.9],[-122.564,42.943],[-122.493,43.005],[-122.458,43.122],[-122.468,43.164],[-122.496,43.179]]]}},{"type":"Feature","properties":{"density":1},"geometry":{"type":"Polygon","coordinates":[[[-121.809,41.195],[-122.986,42.372],[-123.645,43.785],[-124.21,45.244],[-124.681,47.175],[-124.681,48.163],[-124.351,50.376],[-124.21,52.401],[-123.08,54.237],[-121.338,55.979],[-119.784,57.109],[-119.455,58.804],[-119.879,60.17],[-121.432,61.488],[-124.304,61.818],[-129.342,62.477],[-131.838,62.477],[-133.344,63.23],[-134.004,63.889],[-134.192,64.878],[-133.721,67.42],[-132.309,68.739],[-130.19,70.057],[-125.811,70.434],[-119.784,70.575],[-113.522,70.763],[-107.919,70.245],[-103.352,70.34],[-96.054,70.34],[-90.687,70.434],[-85.837,69.351],[-83.436,67.42],[-81.27,65.302],[-79.057,62.053],[-77.174,58.804],[-76.232,55.65],[-75.714,53.437],[-74.584,50.565],[-74.208,47.975],[-73.878,46.092],[-73.031,44.114],[-71.618,42.608],[-70.488,41.666],[-68.511,40.253],[-67.757,38.982],[-67.428,37.287],[-67.475,36.204],[-68.087,34.98],[-68.464,34.509],[-70.771,31.92],[-74.443,30.225],[-77.739,28.341],[-82.871,26.976],[-87.109,26.929],[-90.922,27.541],[-93.465,28.294],[-95.678,29.707],[-97.137,31.59],[-97.796,32.579],[-98.032,34.085],[-98.409,35.215],[-98.832,35.78],[-99.256,35.875],[-99.68,35.875],[-100.198,35.404],[-100.716,34.603],[-101.186,33.332],[-101.375,32.155],[-100.81,31.072],[-100.104,30.366],[-98.691,29.66],[-97.655,29.0],[-96.525,27.541],[-96.196,26.458],[-96.196,24.575],[-95.678,22.88],[-94.83,21.891],[-93.794,21.09],[-93.041,20.29],[-92.57,19.254],[-92.476,17.795],[-92.711,16.9],[-94.03,15.629],[-95.489,15.158],[-97.702,15.017],[-98.597,15.017],[-99.868,15.864],[-100.716,17.135],[-100.81,17.983],[-100.527,18.548],[-99.586,18.548],[-99.209,18.501],[-98.55,18.501],[-98.173,19.066],[-98.22,19.772],[-98.691,21.42],[-99.868,23.115],[-101.893,25.14],[-102.929,25.799],[-103.823,26.458],[-104.341,27.4],[-105.141,28.53],[-105.565,29.848],[-105.659,31.543],[-105.518,33.05],[-105.236,34.227],[-105.141,35.357],[-105.424,36.11],[-106.083,36.816],[-107.26,37.758],[-107.872,37.946],[-108.955,38.135],[-109.803,38.04],[-111.404,37.428],[-111.639,36.958],[-111.639,36.204],[-111.545,35.78],[-110.886,34.98],[-110.462,34.556],[-109.379,33.568],[-109.049,32.955],[-109.049,31.825],[-109.144,30.695],[-108.94,29.196],[-108.786,28.359],[-108.626,27.823],[-108.437,26.599],[-108.531,25.281],[-109.002,24.057],[-110.791,23.868],[-112.345,24.339],[-113.522,25.422],[-114.276,26.411],[-114.888,27.164],[-115.924,30.413],[-116.583,31.26],[-118.231,34.933],[-118.607,35.875],[-119.031,37.193],[-119.502,38.464],[-119.879,39.265],[-120.538,40.018],[-121.103,40.583],[-121.809,41.195]]]}},{"type":"Feature","properties":{"density":1},"geometry":{"type":"Polygon","coordinates":[[[-117.46,39.62],[-117.589,39.677],[-117.613,39.716],[-117.611,39.781],[-117.58,39.858],[-117.511,39.884],[-117.48,39.864],[-117.422,39.744],[-117.424,39.646],[-117.46,39.62]]]}},{"type":"Feature","properties":{"density":1},"geometry":{"type":"Polygon","coordinates":[[[-122.724,42.902],[-122.536,42.97],[-122.485,43.009],[-122.42,43.099],[-122.365,43.277],[-122.406,43.376],[-122.461,43.415],[-122.597,43.359],[-122.633,43.266],[-122.707,43.216],[-122.814,43.076],[-122.821,42.977],[-122.762,42.915],[-122.724,42.902]]]}},{"type":"Feature","properties":{"density":1},"geometry":{"type":"Polygon","coordinates":[[[-114.364,46.941],[-114.281,47.001],[-114.239,47.005],[-114.265,46.948],[-114.325,46.932],[-114.364,46.941]]]}},{"type":"Feature","properties":{"density":1},"geometry":{"type":"Polygon","coordinates":[[[-113.289,47.808],[-113.309,47.85],[-113.295,47.889],[-113.214,47.951],[-112.834,48.153],[-112.773,48.161],[-112.727,48.144],[-112.699,48.096],[-112.705,48.026],[-112.749,47.962],[-112.8,47.929],[-112.981,47.859],[-113.181,47.804],[-113.289,47.808]]]}},{"type":"Feature","properties":{"density":1},"geometry":{"type":"Polygon","coordinates":[[[-121.712,46.566],[-121.766,46.609],[-121.768,46.65],[-121.703,46.719],[-121.621,46.731],[-121.607,46.664],[-121.649,46.609],[-121.712,46.566]]]}},{"type":"Feature","properties":{"density":1},"geometry":{"type":"Polygon","coordinates":[[[-93.208,32.105],[-93.205,32.191],[-93.032,32.684],[-92.941,32.845],[-92.854,32.877],[-92.745,32.858],[-92.662,32.766],[-92.629,32.597],[-92.646,32.528],[-92.706,32.45],[-92.995,32.279],[-93.088,32.175],[-93.181,32.1],[-93.208,32.105]]]}},{"type":"Feature","properties":{"density":1},"geometry":{"type":"Polygon","coordinates":[[[-97.03,29.788],[-99.196,29.411],[-99.384,29.081],[-99.808,28.469],[-100.279,27.292],[-101.22,26.303],[-101.785,25.974],[-103.904,25.927],[-104.045,26.021],[-104.846,26.963],[-104.987,27.528],[-105.222,27.904],[-105.317,28.658],[-105.458,29.364],[-105.929,30.07],[-106.588,30.494],[-107.812,31.341],[-108.942,31.765],[-109.648,32.283],[-110.119,32.989],[-110.967,34.967],[-111.343,37.415],[-111.061,38.828],[-110.26,39.157],[-109.742,39.298],[-107.059,39.534],[-105.787,39.581],[-103.951,39.581],[-102.633,39.157],[-100.985,38.686],[-99.478,38.121],[-97.924,37.65],[-97.595,37.415],[-96.606,36.426],[-95.288,34.308],[-94.676,33.46],[-94.252,32.518],[-93.499,31.812],[-92.792,31.059],[-91.898,29.929],[-91.521,29.411],[-90.485,28.846],[-85.494,27.528],[-83.47,27.292],[-82.669,27.292],[-81.116,27.386],[-79.515,27.951],[-77.396,28.752],[-75.513,29.411],[-71.793,31.2],[-70.569,32.33],[-69.298,33.319],[-66.049,35.72],[-63.789,36.615],[-61.388,38.121],[-61.199,38.451],[-59.551,39.958],[-58.233,41.135],[-56.585,42.359],[-55.361,42.877],[-54.278,43.536],[-52.159,44.242],[-49.052,44.43],[-46.368,44.43],[-45.379,44.383],[-44.532,44.383],[-42.413,45.466],[-42.178,46.973],[-42.507,48.762],[-43.402,50.175],[-43.873,50.881],[-47.828,54.648],[-48.298,56.154],[-48.675,57.943],[-49.146,59.497],[-49.899,61.239],[-50.888,62.793],[-52.63,65.759],[-54.325,67.831],[-60.352,70.797],[-63.412,71.551],[-70.757,72.21],[-73.3,72.21],[-98.066,71.88],[-112.473,71.88],[-126.127,71.503],[-137.38,71.551],[-138.605,71.315],[-139.782,70.185],[-140.723,68.631],[-141.147,66.56],[-140.205,64.582],[-138.605,62.84],[-136.862,62.181],[-135.12,62.181],[-133.943,62.463],[-130.177,62.84],[-128.905,63.217],[-127.681,63.499],[-124.95,63.735],[-124.056,63.688],[-120.148,63.311],[-118.782,63.123],[-117.323,63.123],[-116.146,62.84],[-114.969,62.369],[-113.792,61.993],[-113.462,61.475],[-113.509,61.192],[-113.744,60.533],[-114.074,60.156],[-114.78,59.921],[-116.146,59.78],[-117.558,59.591],[-119.442,59.215],[-120.619,58.744],[-120.948,57.943],[-120.572,56.813],[-118.971,55.825],[-117.652,54.459],[-117.511,53.329],[-118.264,52.482],[-119.724,52.388],[-120.619,52.293],[-121.702,52.011],[-122.502,51.54],[-123.02,51.069],[-123.82,49.704],[-123.82,48.48],[-124.244,47.35],[-124.903,46.502],[-125.139,45.796],[-125.233,44.525],[-124.997,43.253],[-124.479,42.123],[-123.491,40.993],[-123.538,39.251],[-123.82,38.31],[-124.009,37.603],[-123.208,36.238],[-122.314,35.579],[-119.63,33.366],[-118.924,32.518],[-118.782,32.0],[-119.206,30.776],[-119.63,29.788],[-119.818,29.27],[-120.148,28.187],[-121.184,26.398],[-121.607,22.49],[-121.089,21.595],[-120.148,20.936],[-119.159,20.7],[-117.04,20.7],[-114.545,20.936],[-113.839,20.983],[-111.343,20.983],[-109.978,20.747],[-109.177,20.324],[-107.765,19.712],[-106.635,19.005],[-105.128,18.205],[-101.832,16.51],[-101.126,16.086],[-99.619,15.568],[-97.783,15.286],[-96.276,15.286],[-95.194,15.521],[-93.875,15.992],[-91.756,17.169],[-90.721,18.487],[-90.203,20.277],[-90.203,22.113],[-91.003,24.232],[-92.227,25.55],[-93.028,25.974],[-94.299,26.162],[-95.005,26.398],[-95.429,26.821],[-95.9,27.763],[-95.994,28.093],[-96.371,29.175],[-97.03,29.788]]]}},{"type":"Feature","properties":{"density":2},"geometry":{"type":"Polygon","coordinates":[[[-122.561,43.141],[-122.605,43.146],[-122.774,43.073],[-122.801,43.028],[-122.792,42.978],[-122.753,42.959],[-122.712,42.968],[-122.547,43.061],[-122.519,43.108],[-122.561,43.141]]]}},{"type":"Feature","properties":{"density":2},"geometry":{"type":"Polygon","coordinates":[[[-121.642,45.444],[-121.182,45.758],[-120.931,45.841],[-120.408,46.092],[-119.738,46.343],[-119.173,46.595],[-118.692,46.846],[-118.252,47.201],[-116.787,48.122],[-116.327,48.52],[-115.532,48.896],[-114.82,49.106],[-113.649,49.566],[-112.519,50.089],[-111.158,50.571],[-110.342,50.801],[-109.714,51.156],[-109.463,51.408],[-109.547,51.826],[-109.735,51.973],[-110.133,52.035],[-110.593,51.931],[-111.284,51.826],[-111.933,51.701],[-113.439,51.575],[-113.879,51.575],[-114.402,51.993],[-114.653,52.475],[-114.82,53.228],[-114.737,53.73],[-114.465,54.505],[-114.004,55.07],[-113.146,55.53],[-112.351,55.844],[-111.096,56.43],[-109.903,56.723],[-108.605,56.89],[-106.848,57.016],[-105.508,57.016],[-103.604,56.513],[-102.328,56.116],[-100.905,55.76],[-100.172,55.321],[-99.126,54.735],[-97.954,54.233],[-96.196,53.291],[-95.338,52.956],[-93.581,52.621],[-92.367,52.579],[-91.551,52.831],[-90.4,52.914],[-89.249,53.123],[-88.224,53.396],[-87.094,53.479],[-85.964,53.375],[-84.541,53.082],[-83.641,52.747],[-82.281,52.035],[-81.423,51.408],[-80.92,50.947],[-80.314,50.319],[-79.644,49.733],[-79.184,49.273],[-78.723,48.645],[-78.263,47.934],[-77.656,46.95],[-77.049,46.092],[-75.919,44.167],[-75.773,43.791],[-75.647,43.016],[-75.605,41.928],[-75.773,40.652],[-75.961,39.605],[-76.254,38.413],[-77.07,37.241],[-77.761,36.425],[-78.556,35.922],[-80.0,35.608],[-80.753,35.546],[-81.171,35.546],[-82.113,35.755],[-82.699,36.236],[-83.285,36.634],[-83.913,36.864],[-84.75,36.864],[-85.461,36.655],[-86.57,35.943],[-87.031,35.253],[-87.386,34.374],[-87.847,33.662],[-88.663,33.16],[-89.186,33.014],[-90.4,33.035],[-91.111,33.328],[-91.697,33.872],[-91.99,34.437],[-92.199,35.043],[-92.283,35.818],[-92.325,36.55],[-92.283,36.969],[-92.116,37.722],[-91.865,38.538],[-91.425,38.915],[-90.86,39.543],[-90.232,40.568],[-89.898,41.572],[-89.898,42.305],[-90.17,43.079],[-90.735,43.602],[-91.216,43.853],[-92.346,43.916],[-93.057,43.895],[-94.271,43.623],[-95.213,43.539],[-96.531,43.498],[-97.682,43.539],[-98.979,43.791],[-99.796,44.104],[-103.981,44.941],[-107.413,45.088],[-108.564,44.921],[-110.049,44.439],[-110.468,44.272],[-110.991,44.0],[-111.974,43.435],[-112.811,43.184],[-113.795,42.619],[-114.862,41.886],[-115.385,41.635],[-115.783,41.363],[-116.432,40.756],[-116.641,40.673],[-117.436,40.714],[-118.127,40.945],[-118.65,41.196],[-119.424,41.468],[-120.24,41.74],[-120.994,41.949],[-121.517,42.179],[-121.789,42.347],[-121.998,42.974],[-122.061,43.226],[-122.144,43.707],[-122.082,44.251],[-121.893,44.983],[-121.789,45.255],[-121.642,45.444]]]}},{"type":"Feature","properties":{"density":2},"geometry":{"type":"Polygon","coordinates":[[[-125.075,63.96],[-128.276,65.571],[-128.8,66.094],[-128.988,66.534],[-129.134,66.973],[-129.134,67.162],[-128.988,67.643],[-128.695,68.019],[-128.339,68.333],[-127.795,68.459],[-126.958,68.396],[-125.64,68.124],[-123.422,67.789],[-121.915,67.601],[-119.446,67.413],[-115.47,67.706],[-113.293,67.831],[-111.452,67.915],[-107.246,67.559],[-106.032,67.141],[-105.237,66.513],[-105.132,65.927],[-105.237,65.466],[-105.509,65.006],[-106.032,64.441],[-106.534,63.751],[-106.953,63.416],[-107.33,63.144],[-108.104,62.788],[-109.569,62.139],[-110.594,61.742],[-111.41,61.7],[-111.996,61.804],[-112.456,62.035],[-112.645,62.328],[-113.565,63.081],[-113.796,63.437],[-115.009,64.462],[-116.39,64.901],[-117.541,64.818],[-118.441,64.713],[-119.969,64.337],[-120.785,64.044],[-121.852,63.813],[-123.359,63.772],[-124.049,63.834],[-124.803,63.876],[-125.075,63.96]]]}},{"type":"Feature","properties":{"density":2},"geometry":{"type":"Polygon","coordinates":[[[-109.607,45.609],[-110.407,45.609],[-110.69,45.562],[-112.244,45.374],[-113.703,44.762],[-114.315,44.338],[-114.457,43.161],[-114.315,42.549],[-114.504,42.172],[-114.974,41.654],[-115.634,41.372],[-116.622,40.619],[-117.611,40.666],[-117.752,40.995],[-117.799,41.184],[-118.364,41.56],[-119.494,41.513],[-120.154,41.654],[-120.954,42.125],[-121.142,42.314],[-121.142,43.491],[-121.566,43.914],[-121.802,44.291],[-121.896,44.715],[-121.849,45.751],[-121.707,45.892],[-120.954,46.363],[-120.342,46.41],[-119.965,46.598],[-119.494,46.787],[-118.977,47.21],[-117.376,48.105],[-115.351,48.905],[-114.221,49.47],[-112.573,50.035],[-111.349,50.271],[-111.161,50.365],[-110.454,50.977],[-110.031,51.212],[-109.984,51.683],[-112.338,51.683],[-113.939,51.212],[-115.587,50.365],[-117.046,48.717],[-117.799,48.34],[-118.364,47.964],[-119.118,47.822],[-120.201,47.681],[-120.53,47.681],[-121.048,47.869],[-121.142,48.623],[-121.001,49.188],[-121.378,49.612],[-121.802,50.035],[-123.073,51.024],[-123.544,51.495],[-123.261,52.954],[-122.272,53.943],[-121.048,54.273],[-120.436,54.084],[-120.107,53.425],[-119.683,52.672],[-119.447,51.542],[-119.636,50.789],[-119.306,50.506],[-118.788,50.647],[-118.694,50.742],[-117.564,50.977],[-117.329,51.212],[-116.152,52.295],[-114.598,52.954],[-112.997,53.425],[-112.432,53.708],[-111.726,54.838],[-111.114,56.533],[-110.784,57.192],[-109.56,57.804],[-108.147,57.522],[-106.735,57.192],[-104.946,56.909],[-104.569,56.58],[-102.827,56.25],[-102.592,56.156],[-99.531,56.038],[-98.189,55.756],[-97.554,55.685],[-95.717,54.979],[-95.506,54.555],[-94.164,53.92],[-90.35,53.355],[-88.937,53.002],[-87.242,52.154],[-87.242,51.66],[-88.231,50.742],[-88.655,50.459],[-89.856,49.965],[-91.409,49.682],[-93.387,49.258],[-95.011,49.329],[-97.13,50.035],[-97.412,50.318],[-99.107,51.095],[-99.531,51.095],[-99.531,51.024],[-98.189,50.035],[-97.412,49.258],[-96.0,48.552],[-95.223,47.987],[-94.587,47.422],[-93.669,46.787],[-92.681,46.151],[-91.551,45.727],[-90.562,46.01],[-89.291,46.645],[-88.514,46.857],[-87.666,46.716],[-87.525,46.222],[-87.878,45.303],[-88.867,44.315],[-89.856,43.397],[-91.056,42.761],[-92.822,42.055],[-94.799,41.56],[-96.636,41.419],[-98.26,42.055],[-99.743,42.69],[-101.438,43.82],[-102.356,44.95],[-103.274,45.657],[-104.122,46.01],[-105.534,46.01],[-107.794,45.727],[-107.865,45.657],[-108.712,45.586],[-109.607,45.609]]]}},{"type":"Feature","properties":{"density":2},"geometry":{"type":"Polygon","coordinates":[[[-82.793,35.628],[-83.641,35.628],[-85.265,34.286],[-85.759,33.792],[-86.677,33.227],[-88.726,33.085],[-90.986,33.933],[-91.762,35.204],[-91.833,36.546],[-90.844,39.795],[-90.279,40.501],[-89.149,40.925],[-86.677,40.925],[-85.477,40.995],[-84.488,41.913],[-83.57,43.114],[-82.299,44.385],[-81.169,46.292],[-80.604,46.645],[-80.18,47.069],[-79.121,47.563],[-78.767,47.634],[-76.084,47.14],[-75.377,46.292],[-74.812,44.668],[-74.459,42.973],[-74.53,41.772],[-74.742,40.007],[-75.377,37.958],[-76.084,36.97],[-76.931,36.405],[-78.485,35.91],[-80.604,35.698],[-81.522,35.557],[-82.157,35.557],[-82.793,35.628]]]}},{"type":"Feature","properties":{"density":2},"geometry":{"type":"Polygon","coordinates":[[[-122.516,43.177],[-122.565,43.211],[-122.615,43.214],[-122.712,43.167],[-122.955,43.031],[-122.942,42.96],[-122.845,42.923],[-122.675,42.9],[-122.623,42.897],[-122.584,42.913],[-122.471,43.07],[-122.489,43.164],[-122.516,43.177]]]}},{"type":"Feature","properties":{"density":2},"geometry":{"type":"Polygon","coordinates":[[[-117.451,39.716],[-117.561,39.716],[-117.639,39.684],[-117.651,39.625],[-117.639,39.582],[-117.49,39.508],[-117.416,39.523],[-117.416,39.618],[-117.451,39.716]]]}},{"type":"Feature","properties":{"density":2},"geometry":{"type":"Polygon","coordinates":[[[-122.599,43.102],[-122.582,43.075],[-122.549,43.067],[-122.485,43.076],[-122.415,43.159],[-122.404,43.233],[-122.42,43.246],[-122.51,43.222],[-122.567,43.189],[-122.608,43.137],[-122.599,43.102]]]}},{"type":"Feature","properties":{"density":2},"geometry":{"type":"Polygon","coordinates":[[[-119.043,46.523],[-119.297,46.672],[-119.524,46.688],[-119.907,46.583],[-120.105,46.473],[-120.364,46.275],[-120.605,46.176],[-120.698,46.089],[-121.027,45.947],[-121.176,45.73],[-121.256,45.655],[-121.368,45.593],[-121.566,45.438],[-121.604,45.277],[-121.56,45.228],[-121.486,45.066],[-121.659,44.98],[-121.659,44.93],[-121.734,44.825],[-121.715,44.769],[-121.61,44.614],[-121.591,44.539],[-121.494,44.337],[-121.431,44.304],[-121.312,44.329],[-121.194,44.415],[-120.959,44.415],[-120.866,44.366],[-120.754,44.118],[-120.814,43.921],[-120.798,43.778],[-120.739,43.529],[-120.745,43.184],[-120.711,42.97],[-120.342,42.583],[-119.989,42.392],[-119.396,42.282],[-119.229,42.27],[-118.894,42.289],[-118.441,42.406],[-118.255,42.425],[-117.933,42.425],[-117.629,42.22],[-117.406,42.01],[-117.189,41.594],[-117.071,41.47],[-116.802,41.289],[-116.645,41.235],[-116.422,41.202],[-116.296,41.297],[-116.247,41.842],[-116.182,41.959],[-116.004,42.033],[-115.79,41.988],[-115.562,41.864],[-115.248,41.847],[-114.982,41.935],[-114.455,42.171],[-114.213,42.45],[-114.07,42.822],[-114.052,43.231],[-114.194,43.51],[-114.678,43.51],[-115.292,43.56],[-115.602,43.808],[-115.67,44.136],[-115.633,44.484],[-115.558,44.738],[-115.534,45.073],[-115.633,45.19],[-115.906,45.166],[-116.289,45.007],[-116.556,44.784],[-116.641,44.825],[-116.749,44.988],[-116.843,45.071],[-117.024,45.073],[-117.192,45.029],[-117.355,45.054],[-117.771,45.255],[-117.964,45.488],[-117.939,45.612],[-117.883,45.717],[-117.873,45.826],[-117.934,45.947],[-118.083,45.985],[-118.683,45.966],[-118.857,46.013],[-118.909,46.096],[-118.918,46.338],[-119.043,46.523]]]}},{"type":"Feature","properties":{"density":2},"geometry":{"type":"Polygon","coordinates":[[[-113.278,47.828],[-113.269,47.867],[-113.12,47.947],[-112.955,48.006],[-112.913,48.012],[-112.894,47.995],[-112.901,47.975],[-112.947,47.947],[-113.208,47.828],[-113.278,47.828]]]}},{"type":"Feature","properties":{"density":2},"geometry":{"type":"Polygon","coordinates":[[[-117.68,48.788],[-117.781,48.611],[-117.792,48.548],[-117.899,48.385],[-118.227,48.115],[-118.343,48.107],[-118.39,48.146],[-118.415,48.308],[-118.448,48.322],[-118.508,48.311],[-118.596,48.212],[-118.674,48.162],[-118.764,48.135],[-118.844,48.146],[-119.014,48.062],[-119.271,47.983],[-119.402,47.921],[-119.501,47.906],[-119.588,47.917],[-119.922,47.865],[-120.045,47.814],[-120.173,47.79],[-120.379,47.798],[-120.534,47.838],[-120.636,47.89],[-120.789,47.888],[-120.855,47.908],[-120.905,47.98],[-120.918,48.071],[-120.857,48.158],[-120.719,48.206],[-120.613,48.172],[-120.515,48.161],[-120.44,48.185],[-120.275,48.165],[-120.129,48.264],[-119.991,48.322],[-119.919,48.38],[-119.867,48.463],[-119.834,48.669],[-119.759,48.912],[-119.712,49.003],[-119.638,49.094],[-119.429,49.099],[-119.379,49.072],[-119.263,48.873],[-119.137,48.832],[-118.96,48.937],[-118.72,49.163],[-118.58,49.256],[-118.409,49.322],[-118.217,49.345],[-118.084,49.27],[-118.039,49.199],[-117.991,49.183],[-117.803,49.276],[-117.679,49.309],[-117.626,49.281],[-117.615,49.138],[-117.636,48.923],[-117.68,48.788]]]}},{"type":"Feature","properties":{"density":2},"geometry":{"type":"Polygon","coordinates":[[[-109.876,63.056],[-110.008,63.112],[-110.148,63.143],[-110.198,63.174],[-110.278,63.255],[-110.302,63.304],[-110.308,63.352],[-110.282,63.389],[-110.231,63.395],[-110.12,63.369],[-109.92,63.27],[-109.913,63.218],[-109.94,63.18],[-109.94,63.132],[-109.869,63.068],[-109.876,63.056]]]}},{"type":"Feature","properties":{"density":2},"geometry":{"type":"Polygon","coordinates":[[[-106.545,62.964],[-106.584,62.932],[-106.592,62.844],[-106.547,62.659],[-106.517,62.607],[-106.445,62.552],[-106.384,62.527],[-106.307,62.585],[-106.31,62.651],[-106.373,62.855],[-106.42,62.946],[-106.5,62.979],[-106.545,62.964]]]}},{"type":"Feature","properties":{"density":2},"geometry":{"type":"Polygon","coordinates":[[[-106.175,62.709],[-106.208,62.673],[-106.241,62.56],[-106.233,62.447],[-106.167,62.315],[-106.068,62.174],[-105.908,62.092],[-105.762,62.13],[-105.673,62.205],[-105.673,62.447],[-105.792,62.64],[-105.858,62.703],[-105.946,62.726],[-105.996,62.684],[-106.059,62.67],[-106.134,62.715],[-106.175,62.709]]]}},{"type":"Feature","properties":{"density":2},"geometry":{"type":"Polygon","coordinates":[[[-104.481,63.156],[-104.364,63.132],[-104.206,63.038],[-103.776,62.827],[-103.697,62.754],[-103.654,62.665],[-103.636,62.553],[-103.708,62.517],[-103.884,62.583],[-104.196,62.75],[-104.277,62.812],[-104.498,63.07],[-104.509,63.105],[-104.481,63.156]]]}},{"type":"Feature","properties":{"density":2},"geometry":{"type":"Polygon","coordinates":[[[-122.817,44.813],[-122.861,44.893],[-122.866,45.022],[-122.742,45.309],[-122.593,45.433],[-122.329,45.565],[-122.235,45.598],[-122.158,45.579],[-122.164,45.502],[-122.29,45.237],[-122.329,45.105],[-122.384,44.995],[-122.541,44.835],[-122.632,44.796],[-122.739,44.771],[-122.817,44.813]]]}},{"type":"Feature","properties":{"density":2},"geometry":{"type":"Polygon","coordinates":[[[-122.646,43.09],[-122.671,43.214],[-122.651,43.281],[-122.604,43.341],[-122.254,43.485],[-122.122,43.523],[-121.593,43.575],[-121.541,43.515],[-121.64,43.333],[-122.103,43.126],[-122.34,43.071],[-122.544,43.046],[-122.613,43.06],[-122.654,43.124],[-122.646,43.09]]]}},{"type":"Feature","properties":{"density":2},"geometry":{"type":"Polygon","coordinates":[[[-91.248,31.424],[-91.729,32.01],[-92.085,32.806],[-92.127,33.601],[-92.127,34.501],[-91.687,35.359],[-90.557,36.363],[-90.202,36.698],[-89.909,37.158],[-89.825,37.828],[-90.013,38.456],[-90.222,38.832],[-90.432,39.146],[-90.829,39.627],[-91.415,40.004],[-92.378,40.318],[-93.11,40.464],[-94.198,40.527],[-96.291,40.569],[-97.316,40.883],[-98.091,41.218],[-99.137,41.699],[-99.66,42.201],[-100.1,42.411],[-100.539,42.829],[-101.104,43.457],[-101.648,44.399],[-101.962,45.319],[-102.087,46.135],[-102.401,46.847],[-103.092,47.558],[-104.285,47.621],[-105.101,47.475],[-105.645,47.224],[-106.063,46.931],[-106.712,46.554],[-108.7,45.738],[-109.223,45.424],[-110.123,45.11],[-111.546,44.712],[-112.32,44.419],[-113.555,43.269],[-114.078,42.432],[-114.266,42.034],[-114.769,41.657],[-115.689,41.385],[-115.961,41.197],[-116.29,41.008],[-116.658,40.983],[-116.919,41.148],[-117.167,41.371],[-117.324,41.673],[-117.592,41.772],[-117.964,41.818],[-118.411,41.739],[-118.973,41.731],[-119.564,41.934],[-120.13,42.318],[-120.283,42.566],[-120.672,42.645],[-120.845,42.975],[-120.903,43.236],[-120.85,43.558],[-121.47,43.318],[-121.928,43.182],[-122.302,43.017],[-122.574,42.976],[-122.801,43.203],[-122.668,43.591],[-122.267,43.93],[-121.767,44.079],[-121.37,44.178],[-121.672,44.467],[-121.796,44.951],[-121.643,45.273],[-121.59,45.529],[-121.444,45.717],[-120.081,46.737],[-119.027,47.555],[-118.576,47.844],[-118.159,47.931],[-118.593,48.039],[-119.378,47.977],[-119.618,47.981],[-120.089,47.844],[-120.643,47.795],[-120.866,47.911],[-120.87,48.208],[-120.759,48.456],[-120.721,48.651],[-120.721,48.87],[-120.795,49.191],[-120.795,49.525],[-120.44,50.111],[-120.084,50.551],[-119.603,50.781],[-118.619,50.969],[-117.196,51.074],[-116.861,50.99],[-116.505,50.739],[-116.464,50.3],[-116.338,49.442],[-115.94,48.939],[-115.752,48.814],[-115.375,48.647],[-115.041,48.563],[-114.308,48.814],[-113.513,49.191],[-113.115,49.421],[-112.383,49.965],[-112.153,50.069],[-111.086,50.342],[-110.437,50.383],[-110.018,50.446],[-109.16,50.676],[-107.821,51.116],[-107.319,51.336],[-106.921,51.67],[-106.9,51.859],[-107.026,52.089],[-107.424,52.486],[-107.947,52.738],[-108.47,52.947],[-108.93,53.847],[-109.6,54.579],[-110.374,54.935],[-111.316,55.594],[-112.174,55.95],[-112.676,56.096],[-113.45,56.431],[-114.099,57.059],[-113.932,57.687],[-113.618,57.854],[-111.902,58.084],[-110.479,58.084],[-109.579,57.854],[-108.533,57.645],[-107.675,57.414],[-106.356,57.163],[-105.185,56.849],[-104.034,56.494],[-102.736,56.054],[-102.046,55.803],[-101.376,55.468],[-98.384,54.694],[-97.505,54.401],[-96.186,53.627],[-95.328,53.397],[-94.408,53.187],[-94.052,53.062],[-92.357,52.685],[-91.541,52.267],[-90.662,52.099],[-89.113,52.078],[-88.088,52.309],[-85.012,52.371],[-83.966,52.371],[-82.752,52.35],[-81.475,52.246],[-80.325,51.974],[-79.885,51.492],[-79.697,50.739],[-80.052,49.965],[-80.597,49.212],[-81.12,48.814],[-81.706,48.27],[-81.768,47.747],[-81.517,46.742],[-81.245,45.884],[-81.099,45.11],[-80.952,44.043],[-80.994,43.478],[-81.643,42.599],[-82.312,42.243],[-83.861,41.929],[-85.263,41.615],[-86.016,41.469],[-87.607,40.695],[-87.816,39.899],[-87.879,39.293],[-87.774,38.393],[-86.958,37.577],[-86.749,37.556],[-86.184,37.388],[-85.033,37.409],[-83.903,37.66],[-83.087,38.079],[-81.559,38.707],[-80.429,40.088],[-80.052,40.757],[-79.467,41.574],[-78.985,42.432],[-78.169,43.373],[-77.688,44.147],[-77.039,45.257],[-76.349,46.177],[-75.616,46.449],[-74.863,46.407],[-74.507,45.717],[-74.444,44.775],[-74.444,43.666],[-74.382,42.829],[-74.256,41.783],[-74.151,41.155],[-74.13,39.92],[-74.57,38.518],[-74.884,37.681],[-75.491,36.593],[-75.742,35.589],[-76.118,34.731],[-76.872,34.208],[-77.688,33.873],[-78.462,33.078],[-78.881,32.429],[-79.027,32.073],[-79.257,31.069],[-79.76,30.546],[-80.304,30.127],[-82.543,29.039],[-83.066,28.746],[-84.593,28.286],[-85.849,28.139],[-87.167,28.432],[-87.9,28.809],[-88.82,29.206],[-89.511,29.792],[-90.474,30.525],[-91.018,31.132],[-91.248,31.424]]]}},{"type":"Feature","properties":{"density":2},"geometry":{"type":"Polygon","coordinates":[[[-117.549,39.643],[-117.569,39.697],[-117.564,39.807],[-117.47,40.057],[-117.395,40.149],[-117.2,40.241],[-116.919,40.241],[-116.836,40.178],[-116.779,40.02],[-116.807,39.656],[-116.875,39.552],[-116.959,39.484],[-117.016,39.412],[-117.097,39.386],[-117.274,39.394],[-117.351,39.43],[-117.549,39.643]]]}},{"type":"Feature","properties":{"density":2},"geometry":{"type":"Polygon","coordinates":[[[-106.461,62.988],[-106.626,62.98],[-106.68,62.885],[-106.775,62.575],[-106.792,62.439],[-106.75,62.265],[-106.668,62.157],[-106.366,61.934],[-106.002,61.761],[-105.816,61.715],[-105.68,61.728],[-105.531,61.798],[-105.461,61.926],[-105.432,62.108],[-105.448,62.331],[-105.622,62.641],[-105.866,62.868],[-106.039,62.918],[-106.155,62.922],[-106.362,62.984],[-106.461,62.988]]]}},{"type":"Feature","properties":{"density":2},"geometry":{"type":"Polygon","coordinates":[[[-104.407,63.141],[-104.502,63.1],[-104.514,63.021],[-104.506,62.926],[-104.456,62.794],[-104.291,62.587],[-104.142,62.459],[-103.811,62.244],[-103.584,62.162],[-103.191,62.091],[-103.03,62.091],[-103.005,62.207],[-103.187,62.385],[-103.344,62.505],[-104.299,63.104],[-104.407,63.141]]]}},{"type":"Feature","properties":{"density":2},"geometry":{"type":"Polygon","coordinates":[[[-106.488,62.992],[-106.618,62.986],[-106.674,62.881],[-106.68,62.72],[-106.649,62.608],[-106.556,62.453],[-106.395,62.36],[-106.382,62.379],[-106.389,62.831],[-106.444,62.961],[-106.488,62.992]]]}},{"type":"Feature","properties":{"density":3},"geometry":{"type":"Polygon","coordinates":[[[-121.504,45.358],[-121.523,45.247],[-121.492,45.104],[-121.503,45.054],[-121.593,44.902],[-121.608,44.779],[-121.591,44.707],[-121.554,44.643],[-121.512,44.606],[-121.499,44.558],[-121.527,44.408],[-121.505,44.364],[-121.457,44.353],[-121.272,44.5],[-121.171,44.454],[-120.871,44.274],[-120.75,44.171],[-120.539,43.884],[-120.54,43.824],[-120.689,43.695],[-120.781,43.581],[-120.801,43.511],[-120.799,43.478],[-120.757,43.441],[-120.583,43.379],[-120.548,43.239],[-120.568,43.151],[-120.656,42.956],[-120.693,42.734],[-120.73,42.639],[-120.772,42.574],[-120.838,42.534],[-120.923,42.508],[-121.022,42.51],[-121.193,42.545],[-121.246,42.519],[-121.255,42.493],[-121.257,42.438],[-121.231,42.4],[-121.053,42.337],[-120.641,42.369],[-120.504,42.299],[-120.415,42.284],[-120.171,42.363],[-120.006,42.304],[-119.692,42.242],[-119.578,42.192],[-119.482,42.109],[-119.407,42.106],[-119.24,42.152],[-119.107,42.128],[-119.034,42.087],[-118.929,41.979],[-118.825,41.906],[-118.698,41.887],[-118.659,41.939],[-118.646,41.985],[-118.659,42.019],[-118.632,42.108],[-118.553,42.238],[-118.404,42.407],[-118.244,42.521],[-118.112,42.581],[-117.939,42.598],[-117.704,42.598],[-117.567,42.578],[-117.473,42.537],[-117.308,42.383],[-117.239,42.295],[-117.195,42.115],[-117.208,41.939],[-117.28,41.812],[-117.393,41.705],[-117.456,41.611],[-117.517,41.471],[-117.514,41.338],[-117.412,41.264],[-117.068,41.067],[-116.928,41.016],[-116.754,40.977],[-116.507,40.944],[-116.399,41.029],[-116.241,41.637],[-116.095,42.044],[-116.033,42.137],[-115.953,42.156],[-115.897,42.15],[-115.854,42.106],[-115.624,41.97],[-115.469,41.951],[-115.184,41.945],[-115.128,41.988],[-114.911,42.063],[-114.831,42.125],[-114.651,42.422],[-114.583,42.621],[-114.552,42.813],[-114.545,42.987],[-114.589,43.142],[-114.725,43.303],[-114.93,43.495],[-115.085,43.582],[-115.444,43.644],[-115.891,43.768],[-116.021,43.849],[-116.189,44.047],[-116.232,44.252],[-115.899,44.943],[-115.555,45.51],[-114.969,46.152],[-114.624,46.412],[-114.15,46.738],[-113.704,46.98],[-112.736,47.445],[-112.095,47.724],[-111.258,48.049],[-110.588,48.412],[-110.253,48.561],[-109.788,48.803],[-109.407,49.026],[-109.091,49.361],[-108.914,49.76],[-108.84,50.058],[-108.858,50.235],[-108.914,50.337],[-109.044,50.43],[-109.249,50.486],[-109.658,50.486],[-110.402,50.365],[-111.295,50.142],[-112.02,49.9],[-115.61,48.412],[-116.578,47.956],[-117.173,47.491],[-118.112,46.552],[-118.252,46.357],[-118.586,45.994],[-118.931,45.65],[-119.191,45.445],[-119.377,45.324],[-119.619,45.25],[-119.777,45.231],[-120.158,45.361],[-120.391,45.408],[-120.967,45.482],[-121.367,45.482],[-121.432,45.454],[-121.488,45.399],[-121.504,45.358]]]}},{"type":"Feature","properties":{"density":3},"geometry":{"type":"Polygon","coordinates":[[[-123.406,64.868],[-123.456,64.924],[-123.449,64.986],[-123.121,65.054],[-122.619,65.085],[-121.862,65.19],[-121.366,65.327],[-120.734,65.469],[-119.729,65.798],[-119.047,66.083],[-118.88,66.188],[-118.421,66.294],[-117.758,66.263],[-117.386,66.052],[-117.305,65.909],[-117.373,65.73],[-117.454,65.599],[-117.596,65.494],[-117.875,65.364],[-118.688,65.128],[-119.655,64.948],[-120.777,64.769],[-121.155,64.756],[-121.98,64.812],[-123.059,64.787],[-123.406,64.868]]]}},{"type":"Feature","properties":{"density":3},"geometry":{"type":"Polygon","coordinates":[[[-120.875,47.987],[-120.751,47.863],[-120.603,47.795],[-120.429,47.752],[-120.15,47.739],[-119.952,47.77],[-119.679,47.851],[-119.003,47.938],[-118.681,48.074],[-118.464,48.111],[-118.315,48.155],[-118.085,48.26],[-117.813,48.533],[-117.763,48.607],[-117.713,48.824],[-117.707,49.016],[-117.658,49.153],[-117.651,49.283],[-117.614,49.438],[-117.503,49.661],[-117.304,49.971],[-117.193,50.219],[-117.162,50.337],[-117.255,50.548],[-117.397,50.554],[-117.732,50.467],[-118.073,50.331],[-118.29,50.194],[-118.383,50.027],[-118.557,49.413],[-118.693,49.171],[-118.922,48.892],[-119.084,48.793],[-119.338,48.775],[-119.499,48.942],[-119.623,48.973],[-119.815,48.88],[-119.871,48.682],[-119.797,48.359],[-119.852,48.167],[-120.007,48.086],[-120.243,48.111],[-120.398,48.204],[-120.559,48.235],[-120.702,48.179],[-120.832,48.093],[-120.875,47.987]]]}},{"type":"Feature","properties":{"density":3},"geometry":{"type":"Polygon","coordinates":[[[-121.471,44.542],[-121.533,44.635],[-121.644,44.722],[-121.663,44.765],[-121.663,44.815],[-121.601,44.877],[-121.328,44.995],[-121.254,45.113],[-121.272,45.144],[-121.465,45.15],[-121.502,45.212],[-121.52,45.348],[-121.365,45.472],[-121.241,45.677],[-120.603,45.956],[-119.511,46.142],[-119.09,46.408],[-118.86,46.619],[-118.687,46.638],[-118.687,46.532],[-118.829,46.272],[-119.046,46.03],[-119.344,45.733],[-119.505,45.491],[-119.604,45.404],[-119.735,45.249],[-119.666,45.125],[-119.35,45.094],[-119.034,45.094],[-118.668,45.026],[-118.433,45.026],[-118.309,45.144],[-118.29,45.292],[-118.395,45.522],[-118.414,45.621],[-118.371,45.782],[-118.284,45.819],[-118.098,45.782],[-117.968,45.602],[-117.825,45.485],[-117.658,45.299],[-117.372,45.156],[-116.951,45.156],[-116.653,45.24],[-116.407,45.337],[-116.118,45.561],[-115.877,45.821],[-115.839,46.174],[-116.014,46.463],[-116.453,46.974],[-116.602,47.616],[-116.258,48.127],[-115.491,48.555],[-114.256,48.995],[-112.749,49.288],[-112.045,49.411],[-111.561,49.476],[-111.319,49.625],[-111.143,49.904],[-110.957,50.053],[-110.594,50.125],[-110.071,50.397],[-109.778,50.732],[-109.464,50.962],[-109.171,51.108],[-108.606,51.129],[-108.229,51.004],[-108.062,50.899],[-107.874,50.522],[-107.874,50.041],[-107.915,49.643],[-107.915,49.476],[-108.02,48.681],[-108.104,48.367],[-108.815,47.781],[-110.719,47.3],[-111.891,46.86],[-113.231,46.421],[-114.444,46.002],[-115.135,45.605],[-115.658,45.04],[-115.93,44.391],[-115.867,44.056],[-115.47,43.805],[-115.198,43.784],[-114.884,43.554],[-114.674,43.261],[-114.674,42.78],[-114.821,42.424],[-115.226,42.078],[-115.879,42.082],[-116.218,41.834],[-116.432,41.336],[-116.695,41.087],[-117.216,40.975],[-117.523,41.134],[-117.532,41.496],[-117.216,41.84],[-117.383,42.203],[-117.569,42.426],[-118.044,42.633],[-118.316,42.57],[-118.839,42.382],[-119.069,42.361],[-119.634,42.34],[-119.822,42.403],[-120.241,42.466],[-120.471,42.633],[-120.743,42.884],[-120.806,43.261],[-120.743,44.014],[-120.952,44.349],[-121.308,44.433],[-121.329,44.475],[-121.471,44.542]]]}},{"type":"Feature","properties":{"density":3},"geometry":{"type":"Polygon","coordinates":[[[-101.104,45.43],[-99.733,44.119],[-98.809,43.583],[-97.469,43.106],[-95.949,42.809],[-94.906,42.779],[-92.821,42.958],[-91.063,43.166],[-89.424,44.0],[-87.338,45.669],[-87.309,45.907],[-87.517,46.146],[-87.875,46.175],[-88.739,45.997],[-89.96,45.401],[-90.765,45.222],[-92.582,44.596],[-93.565,44.447],[-95.055,44.358],[-97.32,44.596],[-98.243,44.805],[-99.644,45.192],[-100.478,45.46],[-100.776,45.579],[-101.133,45.639],[-101.104,45.43]]]}},{"type":"Feature","properties":{"density":3},"geometry":{"type":"Polygon","coordinates":[[[-122.518,43.148],[-122.521,43.096],[-122.584,42.997],[-122.631,42.957],[-122.735,42.944],[-122.788,42.955],[-122.79,43.002],[-122.769,43.046],[-122.654,43.151],[-122.618,43.172],[-122.518,43.148]]]}},{"type":"Feature","properties":{"density":3},"geometry":{"type":"Polygon","coordinates":[[[-121.415,45.236],[-121.582,45.296],[-121.584,45.329],[-121.533,45.375],[-121.383,45.455],[-121.296,45.576],[-120.932,45.843],[-120.882,45.854],[-120.866,45.823],[-120.911,45.697],[-121.032,45.567],[-121.111,45.423],[-121.319,45.31],[-121.332,45.25],[-121.415,45.236]]]}},{"type":"Feature","properties":{"density":3},"geometry":{"type":"Polygon","coordinates":[[[-121.408,44.624],[-121.562,44.684],[-121.678,44.797],[-121.691,44.819],[-121.685,44.884],[-121.609,44.972],[-121.505,45.025],[-121.277,45.081],[-121.226,45.073],[-121.186,45.027],[-121.117,44.991],[-121.073,44.884],[-121.094,44.781],[-121.122,44.731],[-121.174,44.692],[-121.346,44.62],[-121.408,44.624]]]}},{"type":"Feature","properties":{"density":3},"geometry":{"type":"Polygon","coordinates":[[[-120.796,44.437],[-120.857,44.594],[-120.832,44.646],[-120.675,44.754],[-120.537,44.891],[-120.535,44.966],[-120.648,45.093],[-120.683,45.222],[-120.686,45.33],[-120.681,45.382],[-120.518,45.666],[-120.416,45.809],[-120.215,45.985],[-119.934,46.154],[-119.851,46.159],[-119.689,46.101],[-119.606,45.985],[-119.534,45.845],[-119.493,45.616],[-119.515,45.498],[-119.587,45.393],[-119.625,45.299],[-119.633,45.228],[-119.548,45.15],[-119.377,45.161],[-119.25,45.139],[-119.173,45.068],[-119.143,44.9],[-119.201,44.789],[-119.344,44.687],[-119.471,44.572],[-119.656,44.343],[-119.796,44.357],[-119.868,44.393],[-119.931,44.464],[-120.229,44.495],[-120.587,44.406],[-120.758,44.415],[-120.796,44.437]]]}},{"type":"Feature","properties":{"density":3},"geometry":{"type":"Polygon","coordinates":[[[-119.435,43.657],[-119.471,43.706],[-119.446,43.853],[-119.358,43.924],[-119.248,43.96],[-119.11,43.927],[-119.013,43.847],[-118.923,43.737],[-118.956,43.616],[-119.038,43.544],[-119.121,43.522],[-119.248,43.533],[-119.435,43.657]]]}},{"type":"Feature","properties":{"density":3},"geometry":{"type":"Polygon","coordinates":[[[-118.404,43.409],[-118.539,43.538],[-118.506,43.582],[-118.454,43.599],[-118.314,43.745],[-118.209,43.795],[-118.096,43.795],[-117.837,43.775],[-117.765,43.729],[-117.738,43.668],[-117.842,43.591],[-117.994,43.547],[-118.148,43.442],[-118.374,43.395],[-118.404,43.409]]]}},{"type":"Feature","properties":{"density":3},"geometry":{"type":"Polygon","coordinates":[[[-118.116,45.578],[-118.384,45.565],[-118.429,45.579],[-118.454,45.619],[-118.455,45.667],[-118.373,45.733],[-118.279,45.77],[-118.126,45.82],[-118.033,45.819],[-117.997,45.803],[-117.989,45.754],[-118.031,45.635],[-118.062,45.597],[-118.116,45.578]]]}},{"type":"Feature","properties":{"density":3},"geometry":{"type":"Polygon","coordinates":[[[-120.784,47.889],[-120.883,48.008],[-120.839,48.126],[-120.748,48.14],[-120.646,48.124],[-120.602,48.077],[-120.596,48.022],[-120.61,47.972],[-120.784,47.889]]]}},{"type":"Feature","properties":{"density":3},"geometry":{"type":"Polygon","coordinates":[[[-119.203,48.257],[-119.241,48.312],[-119.234,48.384],[-119.133,48.562],[-119.048,48.657],[-119.021,48.667],[-118.956,48.657],[-118.938,48.591],[-118.951,48.518],[-118.995,48.433],[-119.045,48.387],[-119.111,48.275],[-119.203,48.257]]]}},{"type":"Feature","properties":{"density":3},"geometry":{"type":"Polygon","coordinates":[[[-118.826,48.183],[-118.833,48.246],[-118.798,48.387],[-118.798,48.549],[-118.78,48.611],[-118.71,48.643],[-118.65,48.591],[-118.633,48.422],[-118.642,48.321],[-118.694,48.233],[-118.76,48.191],[-118.826,48.183]]]}},{"type":"Feature","properties":{"density":3},"geometry":{"type":"Polygon","coordinates":[[[-118.308,48.126],[-118.332,48.178],[-118.315,48.215],[-118.205,48.312],[-118.11,48.455],[-118.051,48.602],[-118.003,48.679],[-117.891,48.714],[-117.863,48.672],[-117.862,48.593],[-117.9,48.485],[-117.948,48.409],[-118.009,48.358],[-118.08,48.262],[-118.218,48.198],[-118.269,48.13],[-118.308,48.126]]]}},{"type":"Feature","properties":{"density":3},"geometry":{"type":"Polygon","coordinates":[[[-106.486,62.941],[-106.553,62.932],[-106.573,62.863],[-106.525,62.712],[-106.476,62.655],[-106.44,62.662],[-106.433,62.68],[-106.418,62.817],[-106.437,62.902],[-106.486,62.941]]]}},{"type":"Feature","properties":{"density":3},"geometry":{"type":"Polygon","coordinates":[[[-106.143,62.69],[-106.193,62.621],[-106.179,62.508],[-106.134,62.426],[-106.101,62.399],[-106.04,62.41],[-106.032,62.443],[-106.09,62.602],[-106.143,62.69]]]}},{"type":"Feature","properties":{"density":3},"geometry":{"type":"Polygon","coordinates":[[[-105.902,62.669],[-105.945,62.683],[-105.955,62.644],[-105.872,62.503],[-105.821,62.481],[-105.806,62.51],[-105.818,62.578],[-105.848,62.631],[-105.902,62.669]]]}},{"type":"Feature","properties":{"density":3},"geometry":{"type":"Polygon","coordinates":[[[-104.443,63.112],[-104.354,63.097],[-104.016,62.893],[-103.958,62.733],[-103.965,62.713],[-104.105,62.735],[-104.231,62.789],[-104.345,62.904],[-104.409,63.029],[-104.455,63.059],[-104.472,63.095],[-104.443,63.112]]]}},{"type":"Feature","properties":{"density":3},"geometry":{"type":"Polygon","coordinates":[[[-110.04,63.166],[-110.2,63.228],[-110.218,63.243],[-110.229,63.291],[-110.174,63.316],[-110.058,63.3],[-109.968,63.23],[-110.04,63.166]]]}},{"type":"Feature","properties":{"density":3},"geometry":{"type":"Polygon","coordinates":[[[-120.656,48.922],[-120.652,49.058],[-120.603,49.162],[-120.574,49.191],[-120.516,49.211],[-120.425,49.182],[-120.417,49.083],[-120.462,48.984],[-120.565,48.906],[-120.627,48.893],[-120.656,48.922]]]}},{"type":"Feature","properties":{"density":3},"geometry":{"type":"Polygon","coordinates":[[[-120.82,47.939],[-120.882,47.977],[-120.877,48.025],[-120.708,48.156],[-120.548,48.334],[-120.388,48.479],[-120.239,48.686],[-120.186,48.712],[-120.1,48.714],[-119.846,48.477],[-119.833,48.396],[-119.861,48.339],[-119.916,48.291],[-120.173,48.143],[-120.555,47.976],[-120.721,47.931],[-120.774,47.924],[-120.82,47.939]]]}},{"type":"Feature","properties":{"density":3},"geometry":{"type":"Polygon","coordinates":[[[-118.31,48.119],[-118.356,48.141],[-118.386,48.181],[-118.386,48.247],[-118.316,48.35],[-118.127,48.569],[-118.042,48.644],[-117.939,48.696],[-117.835,48.725],[-117.515,48.767],[-117.463,48.742],[-117.438,48.696],[-117.462,48.622],[-117.533,48.578],[-117.691,48.528],[-117.794,48.466],[-117.875,48.394],[-117.985,48.339],[-118.281,48.111],[-118.31,48.119]]]}},{"type":"Feature","properties":{"density":3},"geometry":{"type":"Polygon","coordinates":[[[-118.797,48.207],[-118.845,48.218],[-118.863,48.238],[-118.856,48.319],[-118.825,48.369],[-118.753,48.438],[-118.709,48.457],[-118.632,48.462],[-118.601,48.438],[-118.599,48.398],[-118.628,48.347],[-118.698,48.26],[-118.773,48.205],[-118.797,48.207]]]}},{"type":"Feature","properties":{"density":3},"geometry":{"type":"Polygon","coordinates":[[[-119.097,48.236],[-119.144,48.242],[-119.183,48.268],[-119.192,48.352],[-119.108,48.589],[-118.997,48.727],[-118.935,48.743],[-118.854,48.72],[-118.819,48.644],[-118.825,48.551],[-118.852,48.483],[-118.915,48.391],[-119.007,48.339],[-119.097,48.236]]]}},{"type":"Feature","properties":{"density":3},"geometry":{"type":"Polygon","coordinates":[[[-116.221,49.703],[-116.221,49.738],[-116.189,49.786],[-116.136,49.83],[-116.064,49.85],[-115.725,49.904],[-115.64,49.898],[-115.581,49.865],[-115.611,49.801],[-115.692,49.76],[-115.805,49.736],[-116.098,49.716],[-116.197,49.683],[-116.221,49.703]]]}},{"type":"Feature","properties":{"density":3},"geometry":{"type":"Polygon","coordinates":[[[-113.27,47.797],[-113.32,47.848],[-113.303,47.903],[-113.037,47.993],[-112.919,48.067],[-112.765,48.102],[-112.592,48.098],[-112.547,48.046],[-112.548,47.986],[-112.635,47.92],[-113.134,47.809],[-113.27,47.797]]]}},{"type":"Feature","properties":{"density":3},"geometry":{"type":"Polygon","coordinates":[[[-121.496,45.227],[-121.54,45.274],[-121.54,45.299],[-121.504,45.334],[-121.185,45.56],[-121.041,45.69],[-120.846,45.817],[-120.785,45.839],[-120.526,45.839],[-120.223,45.83],[-120.143,45.803],[-120.077,45.808],[-119.967,45.844],[-119.652,45.957],[-119.548,46.01],[-119.307,46.087],[-119.145,46.161],[-119.075,46.227],[-119.009,46.322],[-118.955,46.512],[-118.873,46.595],[-118.616,46.665],[-118.381,46.67],[-118.178,46.587],[-118.108,46.463],[-118.1,46.339],[-118.203,46.202],[-118.472,46.066],[-118.629,45.95],[-118.757,45.797],[-118.893,45.553],[-118.918,45.347],[-119.005,45.194],[-119.195,44.967],[-119.468,44.52],[-119.505,44.388],[-119.497,44.297],[-119.455,44.198],[-119.366,44.154],[-119.216,44.177],[-119.166,44.222],[-119.096,44.334],[-119.005,44.342],[-118.852,44.301],[-118.753,44.322],[-118.67,44.342],[-118.575,44.454],[-118.55,44.553],[-118.472,44.719],[-118.277,44.834],[-118.22,44.921],[-118.166,45.066],[-118.178,45.206],[-118.339,45.558],[-118.36,45.64],[-118.348,45.76],[-118.261,45.88],[-118.162,45.967],[-118.038,46.045],[-117.868,46.103],[-117.798,46.103],[-117.657,45.967],[-117.641,45.686],[-117.674,45.574],[-117.699,45.363],[-117.633,45.252],[-117.327,45.041],[-117.19,45.016],[-116.916,45.104],[-116.824,45.113],[-116.76,45.089],[-116.751,45.006],[-116.839,44.707],[-116.958,44.58],[-117.07,44.309],[-117.153,44.243],[-117.252,44.243],[-117.451,44.14],[-117.48,44.024],[-117.471,43.884],[-117.533,43.78],[-117.604,43.747],[-117.641,43.693],[-117.645,43.52],[-117.546,43.251],[-117.546,43.173],[-117.579,43.057],[-117.818,42.92],[-117.944,42.906],[-118.03,42.875],[-118.115,42.798],[-118.451,42.669],[-118.694,42.429],[-118.867,42.209],[-118.958,42.17],[-119.132,42.217],[-119.193,42.302],[-119.245,42.514],[-119.336,42.616],[-119.435,42.655],[-119.898,42.514],[-119.972,42.525],[-120.072,42.79],[-120.187,42.858],[-120.27,42.85],[-120.471,42.793],[-120.557,42.845],[-120.584,42.997],[-120.488,43.126],[-120.463,43.258],[-120.477,43.396],[-120.548,43.506],[-120.521,43.581],[-120.435,43.688],[-120.204,43.85],[-120.128,44.143],[-120.149,44.265],[-120.307,44.329],[-120.47,44.324],[-120.596,44.347],[-120.701,44.406],[-120.795,44.471],[-120.853,44.545],[-120.871,44.699],[-121.291,44.545],[-121.489,44.545],[-121.551,44.574],[-121.68,44.776],[-121.774,44.827],[-121.763,44.875],[-121.51,45.004],[-121.468,45.099],[-121.496,45.227]]]}},{"type":"Feature","properties":{"density":3},"geometry":{"type":"Polygon","coordinates":[[[-117.089,42.445],[-117.109,42.669],[-117.048,42.879],[-116.964,43.103],[-116.813,43.307],[-116.607,43.503],[-116.35,43.667],[-116.218,43.737],[-115.924,43.796],[-115.847,43.72],[-115.814,43.559],[-115.792,43.195],[-115.669,42.732],[-115.63,42.445],[-115.639,42.342],[-115.718,42.265],[-115.876,42.243],[-116.155,42.328],[-116.398,42.44],[-116.488,42.462],[-116.655,42.458],[-116.958,42.421],[-117.015,42.421],[-117.056,42.447],[-117.089,42.445]]]}},{"type":"Feature","properties":{"density":3},"geometry":{"type":"Polygon","coordinates":[[[-113.329,47.762],[-113.329,47.818],[-113.208,48.004],[-112.901,48.088],[-112.734,48.162],[-112.464,48.488],[-112.036,48.776],[-111.748,49.064],[-110.427,49.902],[-110.167,50.097],[-108.725,50.339],[-107.544,50.367],[-106.772,50.367],[-106.409,50.432],[-106.195,50.636],[-106.158,50.906],[-106.158,51.092],[-106.223,51.324],[-106.223,51.492],[-106.074,51.724],[-105.702,51.994],[-105.237,52.134],[-104.689,52.236],[-103.328,52.115],[-102.447,51.904],[-102.237,51.768],[-101.598,51.278],[-101.3,51.011],[-100.928,50.602],[-100.779,50.292],[-100.717,49.902],[-100.835,49.517],[-101.145,49.312],[-101.846,49.195],[-103.012,49.04],[-104.283,48.519],[-104.655,48.345],[-105.051,48.085],[-105.721,47.713],[-107.203,47.062],[-107.501,46.907],[-108.579,46.237],[-109.277,45.95],[-110.12,45.659],[-110.697,45.622],[-111.038,45.647],[-111.335,45.702],[-111.546,45.963],[-111.589,46.273],[-111.788,46.744],[-112.634,47.576],[-112.722,47.718],[-112.874,47.765],[-113.059,47.765],[-113.232,47.732],[-113.279,47.734],[-113.329,47.762]]]}},{"type":"Feature","properties":{"density":3},"geometry":{"type":"Polygon","coordinates":[[[-100.586,53.995],[-100.0,53.618],[-99.624,53.346],[-99.331,53.116],[-99.121,52.906],[-98.975,52.655],[-98.975,52.488],[-98.912,52.153],[-98.515,51.797],[-98.096,51.63],[-97.406,51.421],[-96.485,51.17],[-94.915,50.458],[-94.162,50.04],[-93.492,49.537],[-93.116,49.014],[-92.467,47.947],[-92.049,47.57],[-91.379,47.026],[-90.709,46.817],[-90.144,46.691],[-89.14,46.503],[-88.24,46.398],[-85.75,46.315],[-84.473,46.608],[-83.699,46.942],[-82.904,47.403],[-82.653,48.052],[-82.695,49.223],[-82.946,49.956],[-83.427,50.144],[-83.72,50.458],[-83.762,50.918],[-83.971,51.462],[-84.348,51.797],[-85.269,52.132],[-86.419,52.3],[-87.508,52.3],[-88.156,51.755],[-88.24,51.253],[-88.177,50.521],[-88.345,49.935],[-88.784,49.977],[-89.286,50.374],[-89.768,50.981],[-90.312,51.546],[-91.274,52.09],[-92.216,52.237],[-93.409,52.237],[-94.288,52.216],[-95.062,52.32],[-95.669,52.76],[-96.234,53.618],[-96.506,53.953],[-97.071,54.267],[-97.95,54.497],[-99.938,54.392],[-100.607,54.622],[-100.858,54.79],[-101.214,54.915],[-101.298,54.873],[-101.214,54.518],[-101.005,54.308],[-100.586,53.995]]]}},{"type":"Feature","properties":{"density":3},"geometry":{"type":"Polygon","coordinates":[[[-100.858,44.034],[-100.377,43.532],[-99.038,42.841],[-97.468,42.297],[-95.439,41.941],[-94.56,41.753],[-94.183,41.606],[-93.513,41.418],[-92.802,41.376],[-92.279,41.23],[-91.442,41.062],[-90.165,41.0],[-89.349,41.0],[-88.638,40.979],[-87.905,41.0],[-87.842,41.209],[-88.094,41.816],[-88.512,42.422],[-89.14,42.506],[-89.998,42.569],[-91.484,42.715],[-92.258,42.82],[-93.43,43.071],[-94.35,43.615],[-96.192,44.641],[-97.05,44.871],[-97.971,44.536],[-98.264,44.348],[-99.226,44.201],[-99.77,44.138],[-100.084,44.138],[-100.586,44.18],[-100.879,44.243],[-100.858,44.034]]]}},{"type":"Feature","properties":{"density":3},"geometry":{"type":"Polygon","coordinates":[[[-122.77,44.829],[-122.786,44.934],[-122.773,45.047],[-122.665,45.196],[-122.508,45.301],[-122.461,45.301],[-122.458,45.166],[-122.544,44.929],[-122.588,44.849],[-122.662,44.807],[-122.77,44.829]]]}},{"type":"Feature","properties":{"density":3},"geometry":{"type":"Polygon","coordinates":[[[-122.613,43.093],[-122.646,43.159],[-122.646,43.198],[-122.632,43.237],[-122.571,43.27],[-122.147,43.35],[-122.111,43.347],[-122.089,43.308],[-122.1,43.261],[-122.166,43.195],[-122.243,43.159],[-122.53,43.085],[-122.585,43.101],[-122.613,43.135],[-122.613,43.093]]]}},{"type":"Feature","properties":{"density":3},"geometry":{"type":"Polygon","coordinates":[[[-117.522,39.655],[-117.544,39.678],[-117.54,39.754],[-117.511,39.882],[-117.485,39.923],[-117.441,39.976],[-117.356,40.024],[-117.285,40.024],[-117.198,39.95],[-117.106,39.805],[-117.07,39.724],[-117.049,39.53],[-117.075,39.484],[-117.136,39.429],[-117.259,39.425],[-117.389,39.513],[-117.534,39.68],[-117.522,39.655]]]}},{"type":"Feature","properties":{"density":3},"geometry":{"type":"Polygon","coordinates":[[[-106.159,62.711],[-106.229,62.67],[-106.308,62.546],[-106.304,62.443],[-106.262,62.327],[-106.217,62.248],[-106.134,62.178],[-106.002,62.141],[-105.837,62.137],[-105.791,62.215],[-105.791,62.31],[-105.754,62.501],[-105.812,62.662],[-105.87,62.703],[-106.093,62.724],[-106.159,62.711]]]}},{"type":"Feature","properties":{"density":3},"geometry":{"type":"Polygon","coordinates":[[[-109.985,63.216],[-110.041,63.321],[-110.183,63.433],[-110.363,63.501],[-110.493,63.526],[-110.611,63.513],[-110.636,63.476],[-110.642,63.395],[-110.617,63.309],[-110.568,63.253],[-110.32,63.166],[-110.196,63.166],[-109.985,63.216]]]}},{"type":"Feature","properties":{"density":3},"geometry":{"type":"Polygon","coordinates":[[[-123.753,64.767],[-123.493,64.692],[-122.925,64.655],[-122.479,64.646],[-122.098,64.674],[-121.27,64.822],[-120.721,64.98],[-120.275,65.194],[-119.661,65.38],[-119.038,65.408],[-117.875,65.408],[-117.215,65.362],[-115.141,65.352],[-114.611,65.39],[-114.192,65.576],[-114.164,65.79],[-114.444,66.217],[-114.936,66.524],[-115.792,66.831],[-116.731,67.138],[-117.671,67.296],[-118.331,67.278],[-118.889,67.213],[-119.419,67.045],[-119.866,66.785],[-120.34,66.645],[-121.447,66.217],[-121.977,65.948],[-122.488,65.743],[-122.963,65.613],[-123.437,65.566],[-124.386,65.538],[-124.748,65.408],[-124.851,65.269],[-124.655,64.98],[-124.507,64.897],[-123.79,64.729],[-123.753,64.767]]]}}]}