{"type":"FeatureCollection","features":[{"type":"Feature","properties":{"density":1},"geometry":{"type":"Polygon","coordinates":[[[-81.691,23.163],[-81.734,23.173],[-81.75,23.137],[-81.654,22.989],[-81.581,22.835],[-81.559,22.708],[-81.603,22.489],[-81.589,22.446],[-81.554,22.419],[-81.524,22.419],[-81.484,22.451],[-81.462,22.521],[-81.449,22.719],[-81.554,23.01],[-81.651,23.143],[-81.691,23.163]]]}},{"type":"Feature","properties":{"density":1},"geometry":{"type":"Polygon","coordinates":[[[-81.932,23.191],[-81.97,23.202],[-81.984,23.186],[-81.986,23.105],[-81.957,22.951],[-81.808,22.754],[-81.786,22.657],[-81.805,22.449],[-81.765,22.411],[-81.732,22.405],[-81.676,22.446],[-81.632,22.578],[-81.63,22.705],[-81.649,22.8],[-81.676,22.87],[-81.932,23.191]]]}},{"type":"Feature","properties":{"density":1},"geometry":{"type":"Polygon","coordinates":[[[-82.713,23.035],[-82.759,23.04],[-82.772,23.021],[-82.759,22.946],[-82.767,22.786],[-82.872,22.413],[-82.881,22.278],[-82.853,22.086],[-82.789,21.981],[-82.718,21.924],[-82.516,21.827],[-82.367,21.806],[-82.335,21.865],[-82.348,21.957],[-82.567,22.205],[-82.621,22.295],[-82.632,22.367],[-82.594,22.651],[-82.597,22.757],[-82.656,22.973],[-82.713,23.035]]]}},{"type":"Feature","properties":{"density":1},"geometry":{"type":"Polygon","coordinates":[[[-80.859,26.673],[-80.877,26.654],[-80.872,26.6],[-80.8,26.535],[-80.742,26.532],[-80.68,26.572],[-80.675,26.593],[-80.69,26.606],[-80.751,26.614],[-80.859,26.673]]]}},{"type":"Feature","properties":{"density":1},"geometry":{"type":"Polygon","coordinates":[[[-81.212,26.796],[-81.237,26.765],[-81.201,26.647],[-81.156,26.619],[-81.077,26.601],[-80.978,26.618],[-80.967,26.646],[-80.983,26.676],[-81.064,26.72],[-81.101,26.767],[-81.212,26.796]]]}},{"type":"Feature","properties":{"density":1},"geometry":{"type":"Polygon","coordinates":[[[-81.122,26.873],[-81.151,26.909],[-81.186,26.912],[-81.19,26.873],[-81.169,26.82],[-81.069,26.692],[-80.919,26.656],[-80.818,26.671],[-80.841,26.724],[-81.032,26.804],[-81.122,26.873]]]}},{"type":"Feature","properties":{"density":1},"geometry":{"type":"Polygon","coordinates":[[[-80.621,27.047],[-80.637,27.045],[-80.631,27.02],[-80.59,26.982],[-80.473,26.91],[-80.401,26.899],[-80.395,26.917],[-80.466,26.978],[-80.621,27.047]]]}},{"type":"Feature","properties":{"density":1},"geometry":{"type":"Polygon","coordinates":[[[-84.804,31.64],[-84.885,31.519],[-84.933,31.409],[-84.994,31.148],[-85.006,30.941],[-84.781,30.06],[-84.763,29.75],[-84.806,29.3],[-84.684,28.929],[-84.411,28.729],[-84.362,28.65],[-84.204,28.23],[-84.119,28.084],[-84.04,27.999],[-83.924,27.908],[-83.602,27.75],[-83.365,27.665],[-83.134,27.604],[-82.933,27.574],[-82.623,27.592],[-82.575,27.616],[-82.508,27.72],[-82.441,27.926],[-82.441,28.139],[-82.465,28.224],[-82.544,28.303],[-82.763,28.467],[-83.037,28.783],[-83.31,29.221],[-83.389,29.41],[-83.42,29.598],[-83.408,29.823],[-83.322,29.999],[-83.256,30.054],[-83.043,30.102],[-82.891,30.102],[-82.83,30.157],[-82.788,30.242],[-82.713,30.53],[-82.725,30.599],[-82.781,30.696],[-83.191,31.162],[-83.45,31.32],[-83.531,31.389],[-83.709,31.596],[-83.799,31.746],[-83.932,32.167],[-83.969,32.536],[-84.022,32.649],[-84.111,32.726],[-84.265,32.771],[-84.427,32.71],[-84.488,32.674],[-84.544,32.613],[-84.605,32.487],[-84.67,32.038],[-84.719,31.823],[-84.804,31.64]]]}},{"type":"Feature","properties":{"density":1},"geometry":{"type":"Polygon","coordinates":[[[-82.456,32.624],[-82.496,32.625],[-82.516,32.57],[-82.505,32.487],[-82.476,32.425],[-82.418,32.348],[-82.346,32.289],[-82.321,32.236],[-82.294,32.224],[-82.247,32.236],[-82.236,32.294],[-82.249,32.332],[-82.384,32.469],[-82.456,32.624]]]}},{"type":"Feature","properties":{"density":1},"geometry":{"type":"Polygon","coordinates":[[[-82.047,32.217],[-82.076,32.214],[-82.107,32.181],[-82.125,32.099],[-82.092,32.106],[-82.018,32.189],[-82.02,32.214],[-82.047,32.217]]]}},{"type":"Feature","properties":{"density":1},"geometry":{"type":"Polygon","coordinates":[[[-81.889,32.086],[-81.919,32.054],[-81.936,31.969],[-81.918,31.913],[-81.889,31.902],[-81.853,31.927],[-81.826,32.003],[-81.849,32.068],[-81.889,32.086]]]}},{"type":"Feature","properties":{"density":1},"geometry":{"type":"Polygon","coordinates":[[[-82.243,33.798],[-82.284,33.801],[-82.385,33.72],[-82.464,33.683],[-82.493,33.625],[-82.477,33.58],[-82.443,33.558],[-82.3,33.562],[-82.235,33.591],[-82.217,33.618],[-82.21,33.704],[-82.217,33.756],[-82.243,33.798]]]}},{"type":"Feature","properties":{"density":1},"geometry":{"type":"Polygon","coordinates":[[[-86.227,32.974],[-86.277,32.965],[-86.368,32.877],[-86.406,32.757],[-86.406,32.702],[-86.377,32.666],[-86.347,32.664],[-86.318,32.719],[-86.271,32.863],[-86.216,32.933],[-86.227,32.974]]]}},{"type":"Feature","properties":{"density":1},"geometry":{"type":"Polygon","coordinates":[[[-85.304,31.688],[-85.328,31.684],[-85.453,31.561],[-85.468,31.516],[-85.437,31.51],[-85.353,31.573],[-85.294,31.664],[-85.304,31.688]]]}},{"type":"Feature","properties":{"density":1},"geometry":{"type":"Polygon","coordinates":[[[-88.608,32.105],[-88.604,32.002],[-88.58,31.99],[-88.545,32.096],[-88.492,32.129],[-88.481,32.152],[-88.522,32.17],[-88.608,32.105]]]}},{"type":"Feature","properties":{"density":1},"geometry":{"type":"Polygon","coordinates":[[[-111.754,46.866],[-111.807,46.883],[-111.83,46.869],[-111.839,46.804],[-111.795,46.737],[-111.71,46.699],[-111.684,46.734],[-111.687,46.769],[-111.754,46.866]]]}},{"type":"Feature","properties":{"density":1},"geometry":{"type":"Polygon","coordinates":[[[-119.518,38.128],[-119.572,38.135],[-119.602,38.118],[-119.667,37.852],[-119.673,37.656],[-119.629,37.599],[-119.586,37.605],[-119.535,37.666],[-119.478,37.791],[-119.447,37.909],[-119.451,38.054],[-119.488,38.115],[-119.518,38.128]]]}},{"type":"Feature","properties":{"density":1},"geometry":{"type":"Polygon","coordinates":[[[-101.903,21.072],[-101.916,21.032],[-101.86,20.964],[-101.849,20.912],[-101.822,20.883],[-101.779,20.883],[-101.763,20.944],[-101.786,21.009],[-101.833,21.059],[-101.903,21.072]]]}},{"type":"Feature","properties":{"density":1},"geometry":{"type":"Polygon","coordinates":[[[-91.786,58.997],[-92.375,58.946],[-92.76,58.664],[-93.17,58.228],[-93.426,57.843],[-93.606,57.331],[-93.682,56.716],[-93.554,56.075],[-93.349,55.511],[-92.965,54.947],[-92.503,54.512],[-91.965,54.179],[-91.376,53.973],[-90.863,53.692],[-90.146,53.076],[-89.633,52.82],[-88.864,52.615],[-88.121,52.641],[-87.429,52.948],[-86.634,53.102],[-85.737,53.102],[-84.764,52.897],[-83.79,52.59],[-82.893,52.256],[-81.637,51.923],[-78.613,51.513],[-77.562,51.513],[-76.895,51.564],[-76.562,51.744],[-76.383,52.0],[-77.126,52.948],[-77.536,53.051],[-78.126,53.076],[-78.664,53.0],[-79.202,52.948],[-79.843,52.923],[-80.56,53.0],[-81.073,53.102],[-81.534,53.256],[-82.047,53.666],[-82.303,53.999],[-82.483,55.024],[-82.354,55.204],[-82.124,55.357],[-81.944,55.562],[-81.662,55.742],[-81.406,55.947],[-81.099,56.101],[-80.637,56.229],[-79.894,56.254],[-79.381,56.075],[-78.971,55.844],[-78.51,55.357],[-77.69,54.845],[-76.793,54.589],[-76.101,54.435],[-75.23,54.332],[-74.307,54.332],[-73.615,54.358],[-73.128,54.512],[-72.41,54.691],[-71.975,54.947],[-71.795,55.409],[-71.847,55.921],[-72.052,56.229],[-72.667,56.588],[-73.179,56.716],[-73.769,56.767],[-74.768,56.895],[-75.332,56.921],[-76.562,57.177],[-77.075,57.331],[-77.511,57.433],[-78.459,57.69],[-78.715,57.767],[-79.51,58.228],[-79.715,58.382],[-80.586,58.894],[-80.842,59.022],[-81.201,59.125],[-81.56,59.202],[-81.816,59.227],[-82.175,59.227],[-82.483,59.202],[-82.97,58.894],[-83.123,58.638],[-83.38,57.946],[-83.61,57.587],[-83.918,57.357],[-84.43,57.254],[-85.097,57.228],[-85.814,57.305],[-86.429,57.433],[-87.045,57.536],[-88.352,57.869],[-89.454,58.33],[-89.966,58.612],[-90.351,58.74],[-90.633,58.869],[-91.786,58.997]]]}},{"type":"Feature","properties":{"density":1},"geometry":{"type":"Polygon","coordinates":[[[-115.576,29.38],[-115.798,29.278],[-116.14,29.072],[-116.669,28.594],[-116.789,28.355],[-116.84,28.081],[-116.806,27.791],[-116.635,27.449],[-116.447,27.176],[-116.311,26.903],[-116.123,26.578],[-116.054,26.202],[-116.054,25.843],[-116.174,25.502],[-116.276,25.126],[-116.328,24.733],[-116.328,24.408],[-116.208,24.1],[-115.969,23.673],[-115.713,23.366],[-115.49,23.127],[-115.166,22.939],[-114.824,22.802],[-114.38,22.665],[-113.867,22.563],[-113.338,22.494],[-112.33,22.426],[-109.955,22.136],[-109.459,22.016],[-108.776,21.811],[-108.451,21.418],[-108.041,20.803],[-107.545,20.342],[-107.358,20.034],[-107.152,19.658],[-107.016,19.316],[-106.896,18.906],[-106.828,18.582],[-106.742,17.95],[-106.623,17.625],[-106.452,17.386],[-106.247,17.198],[-105.939,17.061],[-105.427,16.907],[-104.965,16.685],[-104.555,16.395],[-104.026,16.173],[-103.411,16.121],[-102.761,16.138],[-102.163,16.224],[-101.497,16.343],[-100.916,16.378],[-100.198,16.258],[-99.754,16.053],[-99.378,15.814],[-98.917,15.592],[-98.285,15.557],[-97.772,15.557],[-96.645,15.216],[-96.098,15.113],[-94.816,15.096],[-94.475,15.165],[-93.979,15.13],[-93.415,15.028],[-92.852,14.823],[-92.476,14.72],[-92.322,14.72],[-92.168,14.874],[-92.1,15.011],[-92.066,15.199],[-92.1,15.387],[-92.202,15.489],[-92.373,15.609],[-93.022,15.865],[-93.552,16.19],[-93.723,16.395],[-93.979,16.89],[-94.116,17.095],[-94.321,17.334],[-94.663,17.488],[-94.953,17.539],[-95.175,17.557],[-95.329,17.437],[-95.534,17.181],[-95.79,16.6],[-96.064,16.361],[-96.457,16.258],[-96.969,16.19],[-97.413,16.309],[-97.926,16.719],[-98.165,16.941],[-98.473,17.095],[-98.729,17.283],[-98.917,17.505],[-98.934,17.727],[-98.849,17.932],[-98.268,18.616],[-98.268,18.787],[-98.302,19.111],[-98.404,19.351],[-98.558,19.521],[-98.815,19.624],[-98.968,19.658],[-99.156,19.675],[-99.395,19.675],[-99.959,19.607],[-100.745,19.607],[-101.446,19.778],[-102.283,20.051],[-102.625,20.205],[-103.752,20.94],[-103.957,21.145],[-104.077,21.35],[-104.077,21.743],[-104.145,22.016],[-104.265,22.238],[-104.487,22.426],[-104.795,22.631],[-105.068,22.836],[-105.324,23.092],[-106.042,23.964],[-106.11,24.271],[-106.213,24.528],[-106.725,25.16],[-107.392,25.604],[-107.699,25.724],[-107.853,25.826],[-108.041,25.98],[-108.246,26.202],[-108.366,26.424],[-108.451,26.646],[-108.519,26.937],[-108.519,27.21],[-108.468,27.501],[-108.348,27.791],[-108.178,28.013],[-107.921,28.184],[-107.597,28.338],[-107.17,28.44],[-106.64,28.526],[-106.11,28.645],[-105.7,28.765],[-105.307,28.902],[-104.931,29.055],[-104.607,29.226],[-104.436,29.5],[-104.419,29.773],[-104.453,29.961],[-104.607,30.183],[-104.812,30.354],[-105.068,30.491],[-105.376,30.576],[-105.769,30.61],[-106.179,30.593],[-106.572,30.542],[-106.947,30.422],[-107.238,30.303],[-107.477,30.183],[-107.836,30.081],[-108.126,30.081],[-108.81,30.286],[-109.254,30.337],[-109.972,30.354],[-110.348,30.268],[-110.792,30.132],[-111.185,29.91],[-111.817,29.619],[-112.09,29.517],[-112.432,29.465],[-112.791,29.448],[-113.235,29.5],[-113.645,29.585],[-114.004,29.636],[-114.363,29.67],[-114.961,29.688],[-115.234,29.585],[-115.405,29.5],[-115.576,29.38]]]}},{"type":"Feature","properties":{"density":1},"geometry":{"type":"Polygon","coordinates":[[[-99.993,33.942],[-100.489,33.6],[-100.779,33.378],[-101.292,32.917],[-101.685,32.643],[-102.027,32.455],[-102.898,31.909],[-103.189,31.652],[-103.308,31.362],[-103.274,31.072],[-103.086,30.884],[-102.847,30.764],[-102.18,30.661],[-101.446,30.73],[-100.984,30.661],[-100.591,30.525],[-100.216,30.354],[-99.857,30.081],[-99.6,29.841],[-99.344,29.517],[-99.156,29.055],[-99.02,28.628],[-98.985,28.235],[-98.951,27.296],[-98.883,26.868],[-98.627,26.441],[-98.251,26.048],[-97.909,25.792],[-97.67,25.399],[-97.584,25.04],[-97.567,24.562],[-97.909,23.776],[-97.909,23.52],[-98.114,23.28],[-98.131,23.127],[-98.131,22.922],[-98.182,22.375],[-98.182,21.828],[-98.148,21.486],[-98.063,21.145],[-97.943,20.837],[-97.824,20.649],[-97.636,20.427],[-97.448,20.273],[-97.157,20.119],[-96.542,20.0],[-96.217,19.897],[-96.03,19.778],[-95.842,19.573],[-95.534,19.077],[-95.329,18.855],[-95.124,18.599],[-94.851,18.377],[-94.509,18.189],[-94.253,18.086],[-93.996,18.018],[-93.637,17.967],[-93.347,17.967],[-92.647,18.103],[-92.527,18.308],[-92.51,18.548],[-92.544,18.718],[-92.869,19.094],[-93.022,19.316],[-93.108,19.573],[-93.125,19.812],[-93.057,20.0],[-92.92,20.102],[-92.698,20.154],[-92.407,20.034],[-92.185,19.692],[-92.014,19.197],[-91.946,19.094],[-91.758,19.009],[-91.485,18.958],[-91.194,19.009],[-90.989,19.128],[-90.852,19.265],[-90.75,19.47],[-90.682,19.726],[-90.647,19.983],[-90.647,20.495],[-90.579,20.848],[-90.385,21.167],[-90.272,21.293],[-90.158,21.384],[-89.964,21.452],[-89.668,21.646],[-89.269,21.691],[-89.007,21.703],[-88.7,21.68],[-87.959,21.486],[-87.458,21.395],[-86.923,21.27],[-86.33,21.076],[-86.057,21.008],[-85.032,20.689],[-84.485,20.552],[-83.608,20.381],[-82.856,20.37],[-82.036,20.495],[-81.649,20.609],[-81.455,20.723],[-81.284,20.905],[-81.159,21.145],[-81.113,21.35],[-81.102,21.543],[-81.148,21.714],[-81.284,21.874],[-81.398,21.965],[-81.524,22.044],[-81.82,22.17],[-82.196,22.249],[-82.332,22.261],[-82.515,22.249],[-82.856,22.17],[-83.05,22.147],[-83.426,22.136],[-83.574,22.17],[-83.87,22.295],[-83.984,22.386],[-84.052,22.511],[-85.146,23.611],[-85.385,23.73],[-85.727,23.833],[-86.086,23.901],[-86.427,23.918],[-88.016,23.918],[-88.443,23.935],[-88.819,23.969],[-89.281,24.089],[-89.691,24.243],[-90.049,24.431],[-90.203,24.653],[-90.186,24.909],[-90.049,25.114],[-89.622,25.371],[-89.366,25.422],[-88.546,25.524],[-88.05,25.644],[-87.845,25.729],[-87.555,25.883],[-86.513,26.549],[-86.444,26.635],[-86.342,26.823],[-86.205,27.216],[-86.142,28.171],[-86.097,28.3],[-86.013,28.452],[-85.922,28.71],[-85.877,29.052],[-85.877,29.241],[-85.907,29.416],[-85.991,29.659],[-86.044,29.773],[-86.325,30.191],[-86.568,30.658],[-86.613,30.806],[-86.682,31.193],[-86.682,31.535],[-86.625,31.911],[-86.579,32.059],[-86.579,32.207],[-86.602,32.389],[-86.784,32.628],[-87.08,32.947],[-87.251,33.095],[-87.547,33.3],[-87.9,33.619],[-88.456,34.687],[-88.533,34.943],[-88.661,35.277],[-88.866,35.61],[-89.122,35.917],[-89.404,36.148],[-89.635,36.25],[-89.942,36.302],[-90.66,36.302],[-91.172,36.276],[-91.762,36.199],[-92.531,36.071],[-93.325,35.892],[-95.042,35.43],[-96.426,35.2],[-97.016,35.072],[-97.554,34.918],[-98.041,34.738],[-98.605,34.61],[-98.759,34.559],[-99.993,33.942]]]}},{"type":"Feature","properties":{"density":1},"geometry":{"type":"Polygon","coordinates":[[[-87.697,32.941],[-87.722,32.921],[-87.715,32.889],[-87.605,32.761],[-87.468,32.653],[-87.4,32.644],[-87.407,32.703],[-87.49,32.795],[-87.583,32.876],[-87.697,32.941]]]}},{"type":"Feature","properties":{"density":1},"geometry":{"type":"Polygon","coordinates":[[[-81.208,26.889],[-81.179,26.81],[-81.137,26.752],[-80.968,26.578],[-80.894,26.522],[-80.77,26.469],[-80.711,26.469],[-80.651,26.501],[-80.659,26.57],[-80.735,26.644],[-80.947,26.76],[-81.142,26.924],[-81.208,26.932],[-81.208,26.889]]]}},{"type":"Feature","properties":{"density":1},"geometry":{"type":"Polygon","coordinates":[[[-80.637,26.868],[-80.643,26.807],[-80.624,26.731],[-80.561,26.646],[-80.492,26.615],[-80.439,26.62],[-80.407,26.646],[-80.368,26.747],[-80.397,26.81],[-80.561,27.019],[-80.619,27.069],[-80.637,27.069],[-80.648,27.043],[-80.637,26.868]]]}},{"type":"Feature","properties":{"density":1},"geometry":{"type":"Polygon","coordinates":[[[-82.259,33.803],[-82.405,33.732],[-82.482,33.663],[-82.489,33.569],[-82.47,33.534],[-82.43,33.506],[-82.336,33.503],[-82.254,33.575],[-82.178,33.774],[-82.203,33.815],[-82.259,33.803]]]}},{"type":"Feature","properties":{"density":1},"geometry":{"type":"Polygon","coordinates":[[[-91.159,35.114],[-91.165,35.042],[-91.12,35.011],[-91.095,35.033],[-91.105,35.108],[-91.135,35.132],[-91.159,35.114]]]}},{"type":"Feature","properties":{"density":1},"geometry":{"type":"Polygon","coordinates":[[[-91.071,35.056],[-91.086,34.997],[-91.074,34.939],[-91.045,34.909],[-91.018,34.913],[-90.981,34.954],[-90.982,34.993],[-91.033,35.066],[-91.071,35.056]]]}},{"type":"Feature","properties":{"density":1},"geometry":{"type":"Polygon","coordinates":[[[-119.64,37.605],[-119.691,37.772],[-119.704,38.009],[-119.685,38.075],[-119.604,38.144],[-119.563,38.141],[-119.502,38.022],[-119.497,37.856],[-119.523,37.733],[-119.58,37.587],[-119.608,37.571],[-119.64,37.605]]]}},{"type":"Feature","properties":{"density":1},"geometry":{"type":"Polygon","coordinates":[[[-84.949,31.869],[-84.738,31.734],[-84.689,31.731],[-84.642,31.761],[-84.643,31.782],[-84.694,31.843],[-84.833,31.908],[-84.946,31.902],[-84.949,31.869]]]}},{"type":"Feature","properties":{"density":1},"geometry":{"type":"Polygon","coordinates":[[[-80.881,26.663],[-80.838,26.591],[-80.723,26.523],[-80.521,26.442],[-80.44,26.424],[-80.357,26.44],[-80.348,26.463],[-80.363,26.49],[-80.399,26.51],[-80.836,26.67],[-80.881,26.663]]]}},{"type":"Feature","properties":{"density":1},"geometry":{"type":"Polygon","coordinates":[[[-80.624,26.852],[-80.555,26.728],[-80.505,26.672],[-80.413,26.636],[-80.388,26.636],[-80.372,26.654],[-80.381,26.706],[-80.471,26.753],[-80.546,26.836],[-80.618,26.877],[-80.624,26.852]]]}},{"type":"Feature","properties":{"density":1},"geometry":{"type":"Polygon","coordinates":[[[-81.482,27.718],[-81.473,27.592],[-81.426,27.524],[-81.387,27.504],[-81.336,27.504],[-81.279,27.529],[-81.297,27.635],[-81.349,27.691],[-81.43,27.722],[-81.482,27.718]]]}},{"type":"Feature","properties":{"density":1},"geometry":{"type":"Polygon","coordinates":[[[-84.723,30.234],[-84.763,30.12],[-84.777,29.933],[-84.733,29.861],[-84.652,29.843],[-84.582,29.901],[-84.561,30.002],[-84.567,30.053],[-84.606,30.155],[-84.651,30.215],[-84.699,30.245],[-84.723,30.234]]]}},{"type":"Feature","properties":{"density":1},"geometry":{"type":"Polygon","coordinates":[[[-82.726,31.574],[-82.749,31.448],[-82.749,31.34],[-82.706,31.291],[-82.638,31.284],[-82.598,31.324],[-82.591,31.421],[-82.636,31.556],[-82.661,31.579],[-82.726,31.574]]]}},{"type":"Feature","properties":{"density":1},"geometry":{"type":"Polygon","coordinates":[[[-82.344,31.79],[-82.305,31.682],[-82.236,31.655],[-82.209,31.696],[-82.229,31.772],[-82.274,31.81],[-82.308,31.817],[-82.344,31.79]]]}},{"type":"Feature","properties":{"density":1},"geometry":{"type":"Polygon","coordinates":[[[-82.512,32.62],[-82.535,32.402],[-82.506,32.242],[-82.472,32.197],[-82.395,32.175],[-82.294,32.202],[-82.247,32.251],[-82.231,32.301],[-82.227,32.362],[-82.265,32.445],[-82.404,32.611],[-82.447,32.638],[-82.503,32.638],[-82.512,32.62]]]}},{"type":"Feature","properties":{"density":1},"geometry":{"type":"Polygon","coordinates":[[[-85.352,32.953],[-85.358,32.831],[-85.34,32.746],[-85.319,32.707],[-85.287,32.692],[-85.218,32.704],[-85.172,32.761],[-85.167,32.809],[-85.197,32.891],[-85.268,32.939],[-85.352,32.953]]]}},{"type":"Feature","properties":{"density":1},"geometry":{"type":"Polygon","coordinates":[[[-84.941,31.844],[-84.6,31.615],[-84.509,31.618],[-84.489,31.645],[-84.475,31.723],[-84.486,31.787],[-84.536,31.837],[-84.627,31.881],[-84.884,31.905],[-84.958,31.898],[-84.975,31.871],[-84.941,31.844]]]}},{"type":"Feature","properties":{"density":1},"geometry":{"type":"Polygon","coordinates":[[[-87.054,33.094],[-87.061,32.732],[-87.034,32.597],[-86.997,32.537],[-86.922,32.489],[-86.804,32.496],[-86.713,32.57],[-86.696,32.628],[-86.696,32.702],[-86.727,32.786],[-86.821,32.955],[-86.892,33.033],[-86.983,33.104],[-87.054,33.094]]]}},{"type":"Feature","properties":{"density":1},"geometry":{"type":"Polygon","coordinates":[[[-91.087,35.12],[-91.134,34.978],[-91.137,34.85],[-91.103,34.799],[-91.049,34.772],[-90.982,34.806],[-90.965,34.917],[-91.002,35.089],[-91.043,35.13],[-91.087,35.12]]]}},{"type":"Feature","properties":{"density":1},"geometry":{"type":"Polygon","coordinates":[[[-100.475,30.711],[-100.259,30.964],[-100.246,31.018],[-100.262,31.075],[-100.296,31.106],[-100.401,31.112],[-100.482,31.041],[-100.516,30.981],[-100.543,30.9],[-100.556,30.775],[-100.549,30.734],[-100.519,30.711],[-100.475,30.711]]]}},{"type":"Feature","properties":{"density":1},"geometry":{"type":"Polygon","coordinates":[[[-119.559,37.582],[-119.519,37.668],[-119.458,37.897],[-119.478,38.023],[-119.539,38.064],[-119.562,38.062],[-119.616,38.014],[-119.661,37.92],[-119.679,37.762],[-119.681,37.697],[-119.652,37.596],[-119.598,37.564],[-119.559,37.582]]]}},{"type":"Feature","properties":{"density":1},"geometry":{"type":"Polygon","coordinates":[[[-82.746,31.574],[-82.773,31.403],[-82.757,31.238],[-82.705,31.144],[-82.651,31.101],[-82.588,31.097],[-82.545,31.133],[-82.523,31.207],[-82.527,31.333],[-82.55,31.443],[-82.638,31.571],[-82.698,31.592],[-82.746,31.574]]]}},{"type":"Feature","properties":{"density":1},"geometry":{"type":"Polygon","coordinates":[[[-82.521,32.618],[-82.399,32.143],[-82.336,32.006],[-82.239,31.877],[-82.165,31.826],[-82.071,31.817],[-82.001,31.85],[-81.954,31.902],[-81.924,32.015],[-81.965,32.188],[-82.039,32.312],[-82.125,32.429],[-82.314,32.582],[-82.471,32.649],[-82.498,32.649],[-82.521,32.618]]]}},{"type":"Feature","properties":{"density":1},"geometry":{"type":"Polygon","coordinates":[[[-106.807,29.975],[-109.114,29.629],[-110.69,29.322],[-112.651,28.822],[-113.573,28.361],[-113.919,27.746],[-114.419,26.592],[-114.342,24.901],[-113.765,23.517],[-113.112,22.825],[-112.305,22.133],[-111.69,21.364],[-111.036,20.096],[-109.498,17.597],[-106.884,16.136],[-102.732,15.598],[-100.233,15.944],[-98.004,16.405],[-96.043,16.828],[-94.621,17.328],[-93.775,18.096],[-92.775,18.942],[-91.545,23.133],[-91.814,24.017],[-91.507,25.208],[-90.43,25.977],[-88.239,26.746],[-85.202,27.938],[-84.203,28.591],[-83.088,29.437],[-82.473,30.052],[-81.781,31.206],[-81.473,32.321],[-81.665,33.282],[-82.011,33.82],[-83.549,34.127],[-84.971,33.628],[-86.009,32.743],[-87.201,31.129],[-88.624,29.322],[-90.161,28.361],[-91.968,28.13],[-93.083,28.092],[-95.274,28.591],[-96.312,28.784],[-97.35,28.169],[-98.004,27.208],[-98.465,26.131],[-98.811,24.901],[-99.234,23.517],[-99.849,22.287],[-101.118,21.518],[-102.117,21.672],[-103.501,23.171],[-103.809,23.594],[-104.001,24.44],[-104.27,25.516],[-104.462,26.592],[-104.731,27.784],[-105.077,28.591],[-105.539,29.245],[-106.0,29.745],[-106.807,29.975]]]}},{"type":"Feature","properties":{"density":1},"geometry":{"type":"Polygon","coordinates":[[[-81.206,26.885],[-80.924,26.459],[-80.858,26.412],[-80.783,26.394],[-80.686,26.399],[-80.596,26.435],[-80.554,26.495],[-80.557,26.555],[-80.594,26.619],[-80.678,26.687],[-80.966,26.786],[-81.184,26.928],[-81.214,26.925],[-81.224,26.907],[-81.206,26.885]]]}},{"type":"Feature","properties":{"density":2},"geometry":{"type":"Polygon","coordinates":[[[-119.602,37.772],[-119.635,37.684],[-119.635,37.641],[-119.608,37.612],[-119.569,37.655],[-119.551,37.735],[-119.568,37.777],[-119.602,37.772]]]}},{"type":"Feature","properties":{"density":2},"geometry":{"type":"Polygon","coordinates":[[[-93.549,19.344],[-93.971,18.837],[-94.099,18.642],[-94.147,18.463],[-94.147,18.331],[-94.093,18.226],[-94.008,18.159],[-93.927,18.156],[-93.86,18.183],[-93.654,18.321],[-93.323,18.402],[-93.144,18.473],[-93.067,18.517],[-93.016,18.581],[-92.952,18.709],[-92.928,18.871],[-92.955,18.935],[-93.154,19.158],[-93.249,19.35],[-93.33,19.414],[-93.408,19.421],[-93.549,19.344]]]}},{"type":"Feature","properties":{"density":2},"geometry":{"type":"Polygon","coordinates":[[[-119.625,37.625],[-119.632,37.77],[-119.616,37.823],[-119.593,37.826],[-119.568,37.781],[-119.568,37.745],[-119.61,37.623],[-119.625,37.625]]]}}]}