{"type":"FeatureCollection","features":[{"type":"Feature","properties":{"density":1},"geometry":{"type":"Polygon","coordinates":[[[-103.587,42.741],[-103.126,42.724],[-102.531,42.658],[-102.069,42.588],[-101.63,42.503],[-101.257,42.369],[-101.04,42.274],[-100.68,42.059],[-100.318,41.815],[-100.171,41.563],[-100.113,41.362],[-100.105,41.261],[-100.308,41.194],[-100.483,41.192],[-100.764,41.268],[-100.957,41.358],[-101.296,41.659],[-101.446,41.716],[-101.777,41.946],[-102.047,42.085],[-102.418,42.194],[-102.633,42.222],[-103.118,42.347],[-103.528,42.507],[-103.677,42.648],[-103.68,42.678],[-103.66,42.717],[-103.598,42.745],[-103.587,42.741]]]}},{"type":"Feature","properties":{"density":1},"geometry":{"type":"Polygon","coordinates":[[[-90.749,54.366],[-90.497,55.085],[-89.9,55.62],[-89.087,55.857],[-88.047,56.072],[-86.725,55.981],[-85.325,55.57],[-84.105,55.468],[-82.28,55.148],[-81.583,54.703],[-80.623,53.829],[-79.651,53.377],[-77.278,52.394],[-76.257,52.027],[-75.698,51.773],[-75.46,51.434],[-75.647,51.129],[-76.172,50.976],[-77.071,50.824],[-77.918,50.705],[-81.444,49.943],[-82.851,49.722],[-84.63,49.637],[-85.512,49.451],[-86.359,49.4],[-87.275,49.451],[-88.808,49.272],[-90.028,49.351],[-90.706,49.882],[-91.102,50.56],[-91.066,51.362],[-90.944,51.972],[-90.864,52.695],[-90.715,53.417],[-90.766,53.756],[-90.749,54.027],[-90.749,54.366]]]}},{"type":"Feature","properties":{"density":1},"geometry":{"type":"Polygon","coordinates":[[[-108.295,34.096],[-108.165,34.093],[-107.959,34.061],[-107.836,34.018],[-107.812,33.979],[-107.828,33.964],[-107.904,33.965],[-108.204,34.032],[-108.285,34.033],[-108.322,34.055],[-108.307,34.093],[-108.295,34.096]]]}},{"type":"Feature","properties":{"density":1},"geometry":{"type":"Polygon","coordinates":[[[-94.529,17.906],[-95.151,18.316],[-95.622,18.582],[-95.956,18.946],[-96.252,19.387],[-96.871,20.234],[-97.179,20.723],[-97.82,22.075],[-97.965,22.553],[-97.98,23.313],[-97.851,23.837],[-97.722,23.943],[-97.486,24.027],[-97.129,24.08],[-96.674,24.057],[-96.324,23.974],[-95.284,23.074],[-94.863,22.743],[-94.02,22.219],[-93.109,21.878],[-92.676,21.616],[-91.878,20.898],[-91.017,19.73],[-90.785,19.178],[-90.921,18.646],[-91.245,18.261],[-91.681,18.049],[-92.63,17.834],[-93.086,17.834],[-93.746,17.88],[-94.483,17.883],[-94.529,17.906]]]}},{"type":"Feature","properties":{"density":1},"geometry":{"type":"Polygon","coordinates":[[[-86.139,30.364],[-86.024,30.415],[-86.015,30.469],[-86.064,30.485],[-86.279,30.41],[-86.315,30.382],[-86.276,30.328],[-86.162,30.353],[-86.139,30.364]]]}},{"type":"Feature","properties":{"density":1},"geometry":{"type":"Polygon","coordinates":[[[-86.865,30.758],[-87.038,30.643],[-87.134,30.619],[-87.219,30.617],[-87.251,30.673],[-87.242,30.737],[-87.209,30.785],[-87.107,30.823],[-86.879,30.862],[-86.84,30.829],[-86.858,30.77],[-86.865,30.758]]]}},{"type":"Feature","properties":{"density":1},"geometry":{"type":"Polygon","coordinates":[[[-99.594,41.286],[-99.493,41.175],[-99.453,41.074],[-99.449,41.003],[-99.497,40.959],[-99.588,40.949],[-99.736,40.996],[-99.942,41.107],[-100.043,41.182],[-100.185,41.333],[-100.475,41.58],[-100.668,41.715],[-100.921,41.863],[-101.366,41.971],[-101.997,41.965],[-102.17,41.985],[-102.392,42.073],[-102.848,42.218],[-103.131,42.343],[-103.26,42.427],[-103.641,42.542],[-103.712,42.592],[-103.736,42.663],[-103.715,42.736],[-103.671,42.775],[-103.607,42.791],[-102.936,42.788],[-102.325,42.704],[-101.815,42.569],[-100.924,42.403],[-100.654,42.292],[-100.138,41.981],[-99.939,41.786],[-99.686,41.495],[-99.645,41.411],[-99.628,41.327],[-99.594,41.286]]]}},{"type":"Feature","properties":{"density":1},"geometry":{"type":"Polygon","coordinates":[[[-108.331,34.094],[-108.327,34.026],[-108.271,34.013],[-108.232,34.116],[-108.235,34.177],[-108.255,34.202],[-108.295,34.209],[-108.316,34.191],[-108.331,34.123],[-108.331,34.094]]]}},{"type":"Feature","properties":{"density":1},"geometry":{"type":"Polygon","coordinates":[[[-83.86,31.068],[-83.912,31.073],[-83.879,31.032],[-83.856,31.026],[-83.842,31.034],[-83.854,31.064],[-83.86,31.068]]]}},{"type":"Feature","properties":{"density":1},"geometry":{"type":"Polygon","coordinates":[[[-85.781,30.176],[-85.761,30.295],[-85.792,30.32],[-85.97,30.154],[-86.058,30.127],[-86.24,30.122],[-86.274,30.102],[-86.296,30.043],[-86.229,30.001],[-86.083,29.996],[-85.878,30.077],[-85.797,30.154],[-85.781,30.176]]]}},{"type":"Feature","properties":{"density":1},"geometry":{"type":"Polygon","coordinates":[[[-86.096,30.295],[-85.999,30.401],[-86.004,30.475],[-86.049,30.498],[-86.094,30.498],[-86.204,30.439],[-86.353,30.385],[-86.506,30.354],[-86.616,30.284],[-86.614,30.239],[-86.587,30.196],[-86.488,30.149],[-86.368,30.167],[-86.114,30.277],[-86.096,30.295]]]}},{"type":"Feature","properties":{"density":1},"geometry":{"type":"Polygon","coordinates":[[[-115.622,27.89],[-115.622,28.551],[-115.453,29.72],[-115.131,30.415],[-114.741,31.093],[-113.554,31.686],[-110.639,32.525],[-108.859,33.212],[-107.791,33.695],[-105.884,34.432],[-104.816,35.246],[-103.924,36.555],[-103.54,37.28],[-103.529,37.975],[-103.594,38.263],[-103.7,38.939],[-103.753,39.19],[-103.962,39.832],[-104.167,40.321],[-104.292,40.857],[-104.183,41.526],[-103.925,42.414],[-103.835,42.648],[-103.731,42.81],[-103.58,42.916],[-102.91,43.194],[-101.979,43.993],[-101.471,44.807],[-100.784,46.307],[-100.454,47.908],[-99.996,48.697],[-99.411,49.358],[-98.852,49.79],[-98.165,50.044],[-97.225,50.171],[-96.513,50.171],[-95.521,49.892],[-94.784,49.612],[-93.443,48.331],[-92.191,46.688],[-91.326,45.201],[-90.563,44.718],[-90.004,44.387],[-88.962,43.98],[-88.328,43.885],[-87.408,43.876],[-85.825,44.24],[-84.56,44.229],[-83.644,43.58],[-83.507,42.418],[-84.019,40.777],[-84.566,39.638],[-84.316,38.67],[-83.837,38.089],[-83.211,36.939],[-82.504,35.412],[-81.137,34.107],[-79.439,33.276],[-75.957,33.398],[-72.489,34.68],[-69.123,36.388],[-65.381,38.353],[-62.549,39.301],[-59.723,39.825],[-57.185,39.583],[-54.93,38.609],[-54.136,36.507],[-54.418,33.457],[-56.314,31.074],[-58.851,29.305],[-63.695,26.948],[-67.77,25.846],[-72.076,25.897],[-76.792,26.666],[-80.585,27.947],[-82.404,28.05],[-83.618,27.204],[-84.984,26.452],[-86.659,25.734],[-89.182,24.538],[-90.777,24.333],[-91.861,24.861],[-92.374,25.937],[-92.271,27.543],[-91.981,28.961],[-91.946,30.636],[-92.069,31.951],[-92.442,32.776],[-92.939,33.726],[-93.504,34.63],[-93.968,34.889],[-94.544,34.991],[-95.143,35.025],[-96.651,34.582],[-97.516,34.005],[-97.99,33.395],[-98.94,31.208],[-99.431,30.632],[-102.143,28.259],[-103.058,27.598],[-104.092,26.954],[-105.584,25.937],[-106.262,24.886],[-106.448,24.462],[-107.059,23.513],[-107.381,23.191],[-107.94,22.818],[-108.499,22.394],[-108.821,22.005],[-109.025,21.428],[-109.11,21.089],[-109.16,20.632],[-109.143,20.496],[-109.042,20.191],[-109.11,19.479],[-109.33,19.411],[-109.788,19.564],[-110.279,19.903],[-110.788,20.293],[-111.313,20.801],[-112.283,21.826],[-112.66,22.195],[-113.39,22.843],[-113.94,23.468],[-114.558,24.696],[-114.874,25.366],[-115.575,27.009],[-115.65,27.355],[-115.658,27.77],[-115.622,27.89]]]}},{"type":"Feature","properties":{"density":1},"geometry":{"type":"Polygon","coordinates":[[[-101.256,43.072],[-101.468,43.177],[-101.651,43.224],[-101.985,43.272],[-102.238,43.258],[-102.589,43.187],[-103.098,43.018],[-103.271,42.91],[-103.463,42.846],[-103.665,42.802],[-103.719,42.775],[-103.753,42.715],[-103.78,42.651],[-103.777,42.59],[-103.723,42.536],[-103.591,42.482],[-103.053,42.374],[-102.547,42.212],[-100.982,41.792],[-100.689,41.726],[-100.218,41.549],[-100.107,41.488],[-99.884,41.316],[-99.661,41.093],[-99.55,40.946],[-99.297,40.673],[-99.15,40.587],[-98.897,40.541],[-98.735,40.551],[-98.593,40.602],[-98.314,40.855],[-98.294,41.012],[-98.345,41.29],[-98.487,41.675],[-98.598,41.827],[-99.013,42.111],[-99.428,42.288],[-99.904,42.414],[-100.329,42.48],[-100.729,42.622],[-101.018,42.86],[-101.22,43.052],[-101.256,43.072]]]}},{"type":"Feature","properties":{"density":1},"geometry":{"type":"Polygon","coordinates":[[[-117.248,33.413],[-117.291,33.371],[-117.424,33.293],[-117.419,33.257],[-117.392,33.234],[-117.341,33.234],[-117.235,33.322],[-117.21,33.365],[-117.212,33.41],[-117.235,33.421],[-117.248,33.413]]]}},{"type":"Feature","properties":{"density":1},"geometry":{"type":"Polygon","coordinates":[[[-93.007,17.825],[-93.075,17.784],[-93.257,17.771],[-93.439,17.876],[-93.51,18.017],[-93.588,18.267],[-93.588,18.419],[-93.649,18.503],[-93.703,18.554],[-93.848,18.621],[-93.973,18.642],[-94.047,18.618],[-94.077,18.557],[-94.081,18.473],[-94.027,18.348],[-93.946,18.257],[-93.743,18.119],[-93.46,17.687],[-93.375,17.629],[-93.217,17.585],[-93.095,17.595],[-92.974,17.666],[-92.903,17.741],[-92.899,17.781],[-92.923,17.842],[-92.98,17.852],[-93.007,17.825]]]}},{"type":"Feature","properties":{"density":1},"geometry":{"type":"Polygon","coordinates":[[[-82.541,32.424],[-82.531,32.31],[-82.504,32.245],[-82.47,32.232],[-82.423,32.252],[-82.318,32.796],[-82.328,32.88],[-82.358,32.927],[-82.426,32.964],[-82.466,32.968],[-82.534,32.907],[-82.524,32.708],[-82.541,32.495],[-82.541,32.424]]]}},{"type":"Feature","properties":{"density":1},"geometry":{"type":"Polygon","coordinates":[[[-82.767,32.293],[-82.686,32.164],[-82.672,32.067],[-82.682,32.013],[-82.743,31.938],[-82.878,31.871],[-82.963,31.871],[-83.013,31.891],[-83.071,32.002],[-82.983,32.097],[-82.996,32.364],[-82.969,32.404],[-82.922,32.407],[-82.821,32.343],[-82.767,32.293]]]}},{"type":"Feature","properties":{"density":1},"geometry":{"type":"Polygon","coordinates":[[[-86.896,30.698],[-86.817,30.7],[-86.779,30.727],[-86.788,30.799],[-86.831,30.847],[-86.885,30.871],[-87.112,30.889],[-87.238,30.874],[-87.447,30.817],[-87.533,30.815],[-87.733,30.856],[-87.974,30.874],[-88.106,30.813],[-88.145,30.73],[-88.156,30.628],[-88.136,30.568],[-88.055,30.482],[-87.949,30.455],[-87.753,30.451],[-87.312,30.552],[-86.984,30.694],[-86.939,30.698],[-86.896,30.698]]]}},{"type":"Feature","properties":{"density":1},"geometry":{"type":"Polygon","coordinates":[[[-87.042,31.252],[-86.932,31.263],[-86.828,31.292],[-86.788,31.319],[-86.75,31.387],[-86.759,31.461],[-86.806,31.515],[-86.941,31.558],[-87.092,31.582],[-87.206,31.63],[-87.501,31.645],[-87.697,31.596],[-87.794,31.54],[-87.843,31.481],[-87.866,31.425],[-87.875,31.36],[-87.839,31.256],[-87.755,31.216],[-87.611,31.204],[-87.339,31.247],[-87.114,31.245],[-87.042,31.252]]]}},{"type":"Feature","properties":{"density":1},"geometry":{"type":"Polygon","coordinates":[[[-87.16,32.986],[-87.15,32.789],[-87.109,32.723],[-87.064,32.708],[-87.028,32.728],[-87.003,32.759],[-86.998,32.84],[-86.952,32.855],[-86.871,32.845],[-86.8,32.683],[-86.729,32.662],[-86.623,32.688],[-86.456,32.759],[-86.405,32.84],[-86.38,33.047],[-86.335,33.138],[-86.35,33.209],[-86.466,33.28],[-86.74,33.351],[-86.81,33.356],[-86.841,33.412],[-86.912,33.483],[-86.993,33.493],[-87.104,33.412],[-87.155,33.295],[-87.18,33.067],[-87.16,32.986]]]}},{"type":"Feature","properties":{"density":1},"geometry":{"type":"Polygon","coordinates":[[[-91.619,52.117],[-91.523,51.985],[-91.513,51.92],[-91.442,51.844],[-91.315,51.818],[-91.224,51.874],[-91.179,51.97],[-91.174,52.411],[-91.098,52.861],[-91.103,52.967],[-91.123,53.023],[-91.199,53.074],[-91.265,53.084],[-91.376,53.043],[-91.462,52.978],[-91.609,52.77],[-91.65,52.674],[-91.68,52.532],[-91.7,52.304],[-91.665,52.168],[-91.619,52.117]]]}},{"type":"Feature","properties":{"density":1},"geometry":{"type":"Polygon","coordinates":[[[-98.016,44.209],[-98.396,44.316],[-98.973,44.384],[-99.482,44.399],[-100.074,44.346],[-100.553,44.187],[-100.735,44.08],[-101.266,43.83],[-101.783,43.655],[-102.018,43.556],[-103.195,43.26],[-103.643,43.07],[-103.787,42.964],[-103.856,42.873],[-103.894,42.698],[-103.856,42.508],[-103.689,42.356],[-103.484,42.258],[-102.778,42.0],[-101.737,41.711],[-101.471,41.582],[-101.16,41.514],[-100.879,41.476],[-100.454,41.445],[-100.12,41.377],[-99.839,41.346],[-99.52,41.202],[-99.338,41.066],[-99.231,40.936],[-99.026,40.815],[-98.745,40.709],[-98.464,40.625],[-98.1,40.542],[-97.75,40.542],[-97.333,40.564],[-96.74,40.807],[-96.384,41.028],[-96.163,41.195],[-95.852,41.62],[-95.768,41.969],[-95.7,42.098],[-95.655,42.615],[-95.723,43.002],[-96.019,43.488],[-96.292,43.723],[-96.832,43.936],[-97.037,43.997],[-97.295,44.027],[-97.819,44.133],[-98.016,44.209]]]}},{"type":"Feature","properties":{"density":1},"geometry":{"type":"Polygon","coordinates":[[[-83.329,54.727],[-84.093,55.092],[-84.719,55.445],[-85.414,56.174],[-85.744,56.618],[-86.166,57.541],[-86.542,57.996],[-87.031,58.304],[-87.51,58.395],[-88.148,58.406],[-88.66,58.133],[-88.899,57.495],[-88.865,56.914],[-88.717,56.197],[-88.626,55.433],[-88.33,54.59],[-87.863,53.896],[-87.248,53.451],[-86.04,52.677],[-85.721,52.358],[-85.528,51.914],[-84.992,51.082],[-84.389,50.661],[-83.591,50.342],[-82.783,50.251],[-82.122,50.513],[-81.712,50.877],[-81.291,51.162],[-81.006,51.276],[-80.516,51.344],[-79.992,51.39],[-79.616,51.469],[-78.944,51.652],[-78.58,51.925],[-78.42,52.153],[-78.409,52.46],[-78.488,52.722],[-78.762,53.121],[-79.354,53.486],[-80.003,53.804],[-81.325,54.317],[-82.384,54.579],[-83.124,54.67],[-83.204,54.693],[-83.329,54.727]]]}},{"type":"Feature","properties":{"density":1},"geometry":{"type":"Polygon","coordinates":[[[-108.072,34.406],[-108.189,34.363],[-108.268,34.307],[-108.351,34.151],[-108.356,34.023],[-108.32,33.987],[-108.171,33.947],[-108.041,33.884],[-107.971,33.872],[-107.87,33.881],[-107.676,33.978],[-107.458,34.237],[-107.427,34.307],[-107.442,34.406],[-107.51,34.455],[-107.811,34.48],[-108.032,34.424],[-108.072,34.406]]]}},{"type":"Feature","properties":{"density":1},"geometry":{"type":"Polygon","coordinates":[[[-117.064,33.644],[-117.246,33.446],[-117.415,33.313],[-117.444,33.266],[-117.403,33.178],[-117.347,33.147],[-117.232,33.178],[-117.115,33.3],[-116.877,33.48],[-116.848,33.547],[-116.85,33.644],[-116.89,33.68],[-116.926,33.685],[-117.001,33.687],[-117.052,33.66],[-117.064,33.644]]]}},{"type":"Feature","properties":{"density":1},"geometry":{"type":"Polygon","coordinates":[[[-116.898,32.371],[-116.806,32.423],[-116.763,32.47],[-116.747,32.529],[-116.772,32.569],[-116.997,32.675],[-117.085,32.671],[-117.166,32.601],[-117.186,32.484],[-117.143,32.398],[-117.101,32.32],[-117.051,32.299],[-116.968,32.306],[-116.923,32.356],[-116.898,32.371]]]}},{"type":"Feature","properties":{"density":1},"geometry":{"type":"Polygon","coordinates":[[[-116.606,32.326],[-116.689,32.227],[-116.754,32.061],[-116.754,32.0],[-116.734,31.955],[-116.7,31.928],[-116.599,31.928],[-116.529,31.975],[-116.45,32.164],[-116.342,32.32],[-116.302,32.419],[-116.351,32.473],[-116.475,32.484],[-116.545,32.448],[-116.594,32.353],[-116.606,32.326]]]}},{"type":"Feature","properties":{"density":1},"geometry":{"type":"Polygon","coordinates":[[[-115.764,32.152],[-115.807,32.078],[-115.865,32.024],[-116.03,31.953],[-116.074,31.872],[-116.088,31.761],[-115.986,31.636],[-115.899,31.589],[-115.811,31.589],[-115.686,31.619],[-115.622,31.69],[-115.581,31.768],[-115.537,31.92],[-115.537,31.974],[-115.642,32.166],[-115.71,32.203],[-115.73,32.193],[-115.764,32.152]]]}},{"type":"Feature","properties":{"density":1},"geometry":{"type":"Polygon","coordinates":[[[-114.324,32.761],[-114.33,32.669],[-114.236,32.663],[-114.195,32.69],[-114.101,32.811],[-114.094,32.865],[-114.114,32.923],[-114.182,32.933],[-114.229,32.909],[-114.28,32.869],[-114.307,32.811],[-114.324,32.761]]]}},{"type":"Feature","properties":{"density":1},"geometry":{"type":"Polygon","coordinates":[[[-114.043,32.761],[-114.033,32.727],[-113.966,32.71],[-113.848,32.825],[-113.74,32.872],[-113.706,32.912],[-113.703,32.977],[-113.763,33.02],[-113.861,33.031],[-113.952,32.983],[-114.0,32.919],[-114.043,32.794],[-114.043,32.761]]]}},{"type":"Feature","properties":{"density":1},"geometry":{"type":"Polygon","coordinates":[[[-91.529,19.789],[-92.418,19.669],[-93.152,19.669],[-94.246,20.113],[-94.536,20.182],[-95.237,19.959],[-95.613,19.549],[-95.698,18.917],[-95.476,18.268],[-95.1,17.687],[-94.656,17.192],[-94.007,16.713],[-93.699,16.44],[-93.221,16.201],[-92.657,16.081],[-91.991,15.842],[-91.529,15.79],[-91.085,15.825],[-90.795,16.183],[-90.863,16.542],[-90.983,16.969],[-90.863,17.311],[-90.795,17.619],[-90.743,18.268],[-90.59,18.712],[-90.538,19.071],[-90.59,19.601],[-90.743,19.772],[-91.205,19.823],[-91.529,19.789]]]}},{"type":"Feature","properties":{"density":1},"geometry":{"type":"Polygon","coordinates":[[[-100.423,17.503],[-100.59,17.579],[-100.931,17.829],[-101.167,18.293],[-101.311,18.467],[-101.896,18.741],[-102.42,18.946],[-102.906,19.204],[-103.293,19.432],[-103.589,19.477],[-104.151,19.348],[-104.409,19.325],[-104.576,19.196],[-104.637,18.855],[-104.516,18.528],[-104.09,18.262],[-103.657,18.05],[-103.301,17.928],[-102.663,17.624],[-101.433,16.888],[-100.878,16.781],[-100.574,16.751],[-100.407,16.797],[-100.202,16.88],[-100.157,16.956],[-100.149,17.055],[-100.248,17.366],[-100.301,17.435],[-100.423,17.503]]]}},{"type":"Feature","properties":{"density":1},"geometry":{"type":"Polygon","coordinates":[[[-83.155,44.083],[-83.155,42.642],[-83.443,41.892],[-84.769,40.912],[-85.865,40.45],[-87.249,40.047],[-88.979,39.816],[-90.766,39.816],[-92.266,39.874],[-93.996,39.874],[-95.207,39.528],[-96.245,38.778],[-96.706,38.144],[-96.898,36.567],[-97.436,35.107],[-97.936,34.146],[-98.628,33.146],[-99.704,31.954],[-100.55,30.763],[-100.819,29.917],[-100.935,29.109],[-100.935,28.648],[-100.896,28.11],[-100.819,27.802],[-100.781,27.341],[-100.204,26.688],[-99.628,26.457],[-99.051,26.303],[-98.128,26.149],[-96.864,26.491],[-96.437,26.269],[-96.095,25.944],[-95.565,25.62],[-94.66,25.312],[-93.686,25.175],[-92.302,25.09],[-90.884,25.551],[-90.081,26.013],[-88.594,27.072],[-87.825,27.978],[-87.21,28.746],[-86.544,29.379],[-85.16,30.37],[-84.391,30.95],[-83.93,31.48],[-83.537,32.01],[-82.631,33.001],[-82.033,33.565],[-81.077,34.009],[-80.41,34.197],[-79.59,34.291],[-79.283,34.291],[-78.398,34.65],[-77.533,35.688],[-77.187,36.956],[-77.13,38.34],[-77.014,39.436],[-76.784,40.531],[-76.784,43.126],[-76.841,43.934],[-77.591,44.683],[-77.937,44.626],[-78.802,45.029],[-79.725,45.548],[-80.301,45.894],[-81.455,46.125],[-81.916,46.24],[-82.666,46.125],[-83.242,45.721],[-83.358,45.318],[-83.155,44.083]]]}},{"type":"Feature","properties":{"density":1},"geometry":{"type":"Polygon","coordinates":[[[-109.875,26.696],[-110.464,25.748],[-110.772,24.876],[-110.977,24.21],[-111.208,23.262],[-111.669,21.57],[-111.874,20.314],[-111.976,18.11],[-111.541,17.188],[-111.336,16.675],[-111.131,16.086],[-110.798,15.547],[-109.926,15.163],[-108.927,15.035],[-107.722,15.445],[-107.004,16.009],[-106.312,16.829],[-105.826,17.7],[-105.595,18.213],[-105.544,18.649],[-105.518,19.366],[-104.826,21.006],[-104.16,21.929],[-102.007,25.235],[-101.494,25.978],[-101.187,26.619],[-100.982,27.337],[-101.264,28.798],[-101.751,29.285],[-103.006,30.079],[-103.673,30.207],[-104.544,30.233],[-105.569,30.053],[-106.979,29.49],[-108.004,28.951],[-108.901,28.234],[-109.747,27.004],[-109.875,26.696]]]}},{"type":"Feature","properties":{"density":2},"geometry":{"type":"Polygon","coordinates":[[[-103.578,42.729],[-103.171,42.709],[-102.321,42.572],[-102.108,42.554],[-101.674,42.41],[-101.179,42.16],[-100.744,41.887],[-100.553,41.643],[-100.424,41.557],[-100.374,41.476],[-100.375,41.404],[-100.435,41.374],[-100.515,41.417],[-100.808,41.601],[-100.918,41.693],[-101.152,41.831],[-101.477,41.942],[-101.844,42.1],[-102.276,42.211],[-102.685,42.268],[-103.233,42.434],[-103.622,42.622],[-103.654,42.684],[-103.633,42.713],[-103.584,42.728],[-103.578,42.729]]]}},{"type":"Feature","properties":{"density":2},"geometry":{"type":"Polygon","coordinates":[[[-108.277,34.075],[-108.197,34.082],[-108.132,34.053],[-108.295,34.052],[-108.279,34.075],[-108.277,34.075]]]}},{"type":"Feature","properties":{"density":2},"geometry":{"type":"Polygon","coordinates":[[[-87.081,30.65],[-86.862,30.776],[-86.864,30.827],[-86.978,30.838],[-87.126,30.794],[-87.161,30.709],[-87.126,30.652],[-87.098,30.647],[-87.081,30.65]]]}},{"type":"Feature","properties":{"density":2},"geometry":{"type":"Polygon","coordinates":[[[-102.21,42.434],[-102.028,42.407],[-101.954,42.355],[-101.949,42.256],[-101.976,42.215],[-102.104,42.17],[-102.212,42.164],[-102.437,42.2],[-103.65,42.605],[-103.695,42.632],[-103.704,42.731],[-103.652,42.762],[-103.567,42.769],[-103.025,42.762],[-102.824,42.735],[-102.629,42.672],[-102.577,42.618],[-102.566,42.578],[-102.5,42.564],[-102.244,42.445],[-102.21,42.434]]]}},{"type":"Feature","properties":{"density":2},"geometry":{"type":"Polygon","coordinates":[[[-86.949,30.745],[-86.875,30.757],[-86.845,30.781],[-86.845,30.822],[-86.904,30.853],[-86.951,30.856],[-87.232,30.817],[-87.356,30.784],[-87.482,30.718],[-87.545,30.669],[-87.55,30.608],[-87.471,30.583],[-87.322,30.604],[-86.969,30.73],[-86.949,30.745]]]}},{"type":"Feature","properties":{"density":2},"geometry":{"type":"Polygon","coordinates":[[[-86.618,30.82],[-86.584,30.853],[-86.591,30.878],[-86.625,30.892],[-86.674,30.865],[-86.884,30.813],[-86.906,30.777],[-86.868,30.757],[-86.785,30.759],[-86.634,30.813],[-86.618,30.82]]]}},{"type":"Feature","properties":{"density":2},"geometry":{"type":"Polygon","coordinates":[[[-86.917,31.315],[-86.888,31.319],[-86.848,31.353],[-86.854,31.402],[-86.893,31.438],[-86.98,31.456],[-87.237,31.456],[-87.282,31.411],[-87.266,31.369],[-87.237,31.348],[-87.124,31.321],[-86.942,31.306],[-86.917,31.315]]]}},{"type":"Feature","properties":{"density":2},"geometry":{"type":"Polygon","coordinates":[[[-103.49,42.772],[-103.649,42.738],[-103.665,42.728],[-103.659,42.688],[-103.635,42.654],[-103.541,42.613],[-103.318,42.597],[-103.2,42.607],[-102.903,42.674],[-102.66,42.782],[-102.464,42.904],[-102.255,42.971],[-101.728,42.998],[-101.627,42.985],[-101.448,42.917],[-101.381,42.931],[-101.33,42.988],[-101.33,43.076],[-101.505,43.16],[-101.863,43.231],[-102.167,43.241],[-102.504,43.18],[-102.977,43.018],[-103.338,42.813],[-103.443,42.782],[-103.49,42.772]]]}},{"type":"Feature","properties":{"density":2},"geometry":{"type":"Polygon","coordinates":[[[-86.837,30.811],[-86.914,30.844],[-87.152,30.865],[-87.317,30.815],[-87.357,30.79],[-87.368,30.763],[-87.353,30.7],[-87.31,30.667],[-87.272,30.667],[-87.098,30.727],[-86.837,30.73],[-86.804,30.761],[-86.824,30.799],[-86.837,30.811]]]}},{"type":"Feature","properties":{"density":2},"geometry":{"type":"Polygon","coordinates":[[[-87.182,31.272],[-86.858,31.303],[-86.797,31.351],[-86.799,31.459],[-86.891,31.519],[-87.195,31.605],[-87.375,31.612],[-87.506,31.576],[-87.539,31.531],[-87.537,31.452],[-87.467,31.337],[-87.359,31.276],[-87.229,31.265],[-87.182,31.272]]]}},{"type":"Feature","properties":{"density":2},"geometry":{"type":"Polygon","coordinates":[[[-103.374,42.918],[-103.739,42.848],[-103.789,42.807],[-103.784,42.675],[-103.582,42.564],[-103.43,42.518],[-103.278,42.508],[-102.883,42.549],[-101.85,42.559],[-101.658,42.62],[-101.405,42.792],[-100.828,43.04],[-100.21,43.268],[-99.891,43.44],[-99.653,43.475],[-99.157,43.475],[-98.869,43.44],[-98.54,43.425],[-98.241,43.445],[-98.114,43.526],[-97.962,43.688],[-97.957,43.809],[-98.094,44.032],[-98.221,44.118],[-98.352,44.159],[-98.661,44.23],[-98.864,44.255],[-99.486,44.275],[-99.866,44.179],[-100.003,44.128],[-100.514,43.88],[-100.63,43.85],[-101.658,43.44],[-101.795,43.399],[-102.129,43.349],[-102.701,43.182],[-103.344,42.934],[-103.374,42.918]]]}},{"type":"Feature","properties":{"density":2},"geometry":{"type":"Polygon","coordinates":[[[-84.605,53.964],[-85.061,54.215],[-85.334,54.477],[-85.63,54.978],[-85.824,55.342],[-85.972,55.786],[-86.052,56.424],[-86.132,56.732],[-86.211,56.96],[-86.382,57.358],[-86.576,57.598],[-86.69,57.689],[-87.145,57.917],[-87.407,57.962],[-87.726,57.962],[-88.136,57.768],[-88.376,57.484],[-88.501,57.085],[-88.512,56.629],[-88.444,56.242],[-88.398,55.866],[-88.284,55.365],[-88.136,54.989],[-88.0,54.75],[-87.066,53.782],[-86.485,53.497],[-85.858,53.326],[-85.437,53.337],[-85.095,53.326],[-84.708,53.36],[-84.56,53.406],[-84.423,53.554],[-84.423,53.782],[-84.469,53.839],[-84.537,53.884],[-84.605,53.964]]]}},{"type":"Feature","properties":{"density":2},"geometry":{"type":"Polygon","coordinates":[[[-82.612,54.01],[-82.874,54.112],[-83.25,54.215],[-83.637,54.397],[-83.956,54.67],[-84.184,54.716],[-84.332,54.42],[-84.298,53.93],[-84.024,53.508],[-83.751,53.326],[-83.523,53.315],[-83.022,53.098],[-82.999,52.757],[-83.124,52.483],[-83.455,52.176],[-83.819,51.777],[-83.99,51.39],[-83.762,51.037],[-83.409,50.991],[-82.919,51.162],[-82.669,51.538],[-82.464,51.993],[-82.282,52.267],[-81.985,52.324],[-81.541,52.312],[-81.131,52.255],[-80.584,52.255],[-80.015,52.335],[-79.844,52.483],[-80.015,52.882],[-80.459,53.212],[-81.222,53.486],[-81.689,53.702],[-82.361,53.93],[-82.612,54.01]]]}},{"type":"Feature","properties":{"density":2},"geometry":{"type":"Polygon","coordinates":[[[-108.099,34.338],[-108.154,34.271],[-108.261,34.203],[-108.313,34.139],[-108.343,34.055],[-108.309,34.002],[-108.259,33.996],[-108.1,34.088],[-107.98,34.11],[-107.931,34.154],[-107.907,34.197],[-107.91,34.254],[-107.929,34.29],[-107.959,34.326],[-108.019,34.352],[-108.091,34.346],[-108.099,34.338]]]}},{"type":"Feature","properties":{"density":2},"geometry":{"type":"Polygon","coordinates":[[[-117.129,33.507],[-117.286,33.388],[-117.318,33.336],[-117.388,33.275],[-117.403,33.246],[-117.381,33.196],[-117.352,33.178],[-117.255,33.228],[-117.25,33.264],[-117.19,33.338],[-117.012,33.475],[-116.998,33.547],[-117.048,33.568],[-117.109,33.525],[-117.129,33.507]]]}},{"type":"Feature","properties":{"density":2},"geometry":{"type":"Polygon","coordinates":[[[-116.626,32.284],[-116.669,32.216],[-116.729,32.045],[-116.729,32.005],[-116.693,31.957],[-116.601,31.98],[-116.561,32.099],[-116.464,32.241],[-116.464,32.288],[-116.495,32.32],[-116.588,32.326],[-116.612,32.299],[-116.626,32.284]]]}},{"type":"Feature","properties":{"density":2},"geometry":{"type":"Polygon","coordinates":[[[-115.744,32.029],[-115.856,31.951],[-115.987,31.915],[-116.025,31.885],[-116.03,31.809],[-115.901,31.665],[-115.798,31.66],[-115.737,31.73],[-115.728,31.78],[-115.6,31.926],[-115.598,32.009],[-115.62,32.047],[-115.663,32.063],[-115.708,32.05],[-115.744,32.029]]]}},{"type":"Feature","properties":{"density":2},"geometry":{"type":"Polygon","coordinates":[[[-102.714,18.59],[-102.66,18.496],[-102.615,18.338],[-102.61,18.264],[-102.671,18.181],[-102.761,18.161],[-102.923,18.17],[-103.112,18.201],[-103.155,18.228],[-103.193,18.284],[-103.182,18.307],[-102.97,18.305],[-102.905,18.325],[-102.871,18.379],[-102.889,18.437],[-102.97,18.496],[-103.069,18.532],[-103.2,18.608],[-103.461,18.833],[-103.616,19.11],[-103.598,19.146],[-103.533,19.2],[-103.434,19.236],[-103.308,19.229],[-103.152,19.191],[-103.078,19.148],[-103.029,19.09],[-102.934,18.849],[-102.878,18.802],[-102.725,18.613],[-102.714,18.59]]]}},{"type":"Feature","properties":{"density":2},"geometry":{"type":"Polygon","coordinates":[[[-92.999,17.881],[-93.175,17.871],[-93.269,17.918],[-93.371,18.016],[-93.441,18.121],[-93.539,18.38],[-93.6,18.499],[-93.681,18.59],[-93.85,18.674],[-94.123,18.85],[-94.282,18.985],[-94.43,19.066],[-94.643,19.072],[-94.744,18.951],[-94.764,18.799],[-94.724,18.62],[-94.565,18.252],[-94.501,18.063],[-94.525,17.803],[-94.434,17.672],[-94.224,17.486],[-93.995,17.165],[-93.921,17.01],[-93.833,16.875],[-93.678,16.717],[-93.516,16.656],[-93.124,16.652],[-92.932,16.693],[-92.719,16.821],[-92.493,16.926],[-92.429,17.027],[-92.422,17.159],[-92.507,17.395],[-92.507,17.628],[-92.537,17.746],[-92.588,17.824],[-92.645,17.871],[-92.739,17.911],[-92.895,17.925],[-92.959,17.898],[-92.999,17.881]]]}},{"type":"Feature","properties":{"density":3},"geometry":{"type":"Polygon","coordinates":[[[-103.572,42.71],[-103.024,42.651],[-102.658,42.576],[-102.573,42.52],[-102.502,42.433],[-102.467,42.355],[-102.473,42.32],[-102.527,42.302],[-102.654,42.311],[-103.031,42.405],[-103.292,42.503],[-103.475,42.603],[-103.61,42.645],[-103.617,42.676],[-103.578,42.708],[-103.572,42.71]]]}},{"type":"Feature","properties":{"density":3},"geometry":{"type":"Polygon","coordinates":[[[-103.175,42.706],[-103.625,42.728],[-103.673,42.704],[-103.679,42.666],[-103.664,42.639],[-103.589,42.609],[-103.389,42.553],[-103.211,42.524],[-103.166,42.528],[-103.106,42.562],[-103.094,42.625],[-103.124,42.681],[-103.16,42.702],[-103.175,42.706]]]}},{"type":"Feature","properties":{"density":3},"geometry":{"type":"Polygon","coordinates":[[[-87.215,31.301],[-87.069,31.333],[-86.905,31.321],[-86.885,31.339],[-86.878,31.38],[-87.083,31.492],[-87.2,31.517],[-87.339,31.504],[-87.382,31.47],[-87.375,31.369],[-87.323,31.306],[-87.272,31.301],[-87.215,31.301]]]}},{"type":"Feature","properties":{"density":3},"geometry":{"type":"Polygon","coordinates":[[[-102.423,43.106],[-102.731,43.055],[-102.984,42.979],[-103.157,42.949],[-103.273,42.893],[-103.405,42.853],[-103.536,42.832],[-103.688,42.751],[-103.719,42.701],[-103.698,42.625],[-103.638,42.584],[-103.465,42.564],[-103.395,42.605],[-103.096,42.635],[-102.782,42.645],[-102.539,42.68],[-102.336,42.736],[-102.109,42.868],[-101.845,42.954],[-101.775,42.999],[-101.724,43.06],[-101.724,43.116],[-101.769,43.217],[-102.033,43.217],[-102.326,43.131],[-102.423,43.106]]]}},{"type":"Feature","properties":{"density":3},"geometry":{"type":"Polygon","coordinates":[[[-85.118,53.964],[-85.391,54.032],[-85.642,54.249],[-85.972,54.67],[-86.314,55.365],[-86.45,55.764],[-86.45,56.402],[-86.485,57.108],[-86.724,57.472],[-86.986,57.643],[-87.305,57.689],[-87.658,57.598],[-87.943,57.313],[-88.102,56.994],[-88.17,56.242],[-88.125,55.969],[-87.897,55.627],[-87.1,54.898],[-86.724,54.465],[-86.348,54.089],[-85.961,53.918],[-85.562,53.827],[-85.243,53.725],[-85.061,53.713],[-84.981,53.748],[-84.958,53.85],[-84.981,53.918],[-85.061,53.987],[-85.118,53.964]]]}},{"type":"Feature","properties":{"density":3},"geometry":{"type":"Polygon","coordinates":[[[-108.268,34.151],[-108.289,34.137],[-108.325,34.059],[-108.295,34.017],[-108.247,34.031],[-108.133,34.142],[-108.114,34.172],[-108.118,34.2],[-108.172,34.217],[-108.21,34.206],[-108.261,34.154],[-108.268,34.151]]]}},{"type":"Feature","properties":{"density":3},"geometry":{"type":"Polygon","coordinates":[[[-116.642,32.169],[-116.707,32.027],[-116.678,31.982],[-116.646,31.978],[-116.612,31.993],[-116.576,32.131],[-116.509,32.205],[-116.5,32.261],[-116.518,32.288],[-116.572,32.297],[-116.621,32.257],[-116.644,32.196],[-116.642,32.169]]]}},{"type":"Feature","properties":{"density":3},"geometry":{"type":"Polygon","coordinates":[[[-115.998,31.831],[-115.904,31.701],[-115.8,31.705],[-115.782,31.791],[-115.674,31.876],[-115.64,31.96],[-115.658,31.989],[-115.753,31.989],[-115.879,31.894],[-115.98,31.885],[-116.007,31.863],[-115.998,31.831]]]}},{"type":"Feature","properties":{"density":3},"geometry":{"type":"Polygon","coordinates":[[[-92.996,17.847],[-93.107,17.797],[-93.219,17.773],[-93.333,17.78],[-93.455,17.891],[-93.566,18.033],[-93.651,18.31],[-93.678,18.472],[-93.789,18.58],[-93.995,18.637],[-94.137,18.64],[-94.255,18.556],[-94.319,18.404],[-94.299,18.195],[-94.083,17.84],[-93.914,17.658],[-93.701,17.493],[-93.479,17.348],[-93.225,17.219],[-93.04,17.213],[-92.885,17.273],[-92.753,17.506],[-92.682,17.587],[-92.655,17.662],[-92.696,17.78],[-92.773,17.867],[-92.918,17.888],[-92.952,17.867],[-92.996,17.847]]]}}]}