{"type":"FeatureCollection","features":[{"type":"Feature","properties":{"density":1},"geometry":{"type":"Polygon","coordinates":[[[-118.292,44.893],[-117.972,45.131],[-117.668,45.278],[-117.592,45.287],[-117.562,45.273],[-117.552,45.219],[-117.572,45.161],[-117.737,44.978],[-118.065,44.886],[-118.19,44.783],[-118.313,44.792],[-118.321,44.841],[-118.292,44.893]]]}},{"type":"Feature","properties":{"density":1},"geometry":{"type":"Polygon","coordinates":[[[-118.247,45.669],[-117.989,45.646],[-117.955,45.622],[-117.948,45.586],[-118.051,45.554],[-118.237,45.565],[-118.262,45.574],[-118.275,45.614],[-118.271,45.65],[-118.247,45.669]]]}},{"type":"Feature","properties":{"density":1},"geometry":{"type":"Polygon","coordinates":[[[-121.507,45.25],[-121.113,45.295],[-121.029,45.336],[-120.908,45.363],[-120.825,45.367],[-120.789,45.356],[-120.771,45.329],[-120.771,45.28],[-120.807,45.217],[-121.072,45.109],[-121.248,45.075],[-121.43,45.079],[-121.509,45.104],[-121.527,45.176],[-121.507,45.25]]]}},{"type":"Feature","properties":{"density":1},"geometry":{"type":"Polygon","coordinates":[[[-121.199,47.526],[-121.101,47.523],[-120.8,47.465],[-120.507,47.334],[-120.392,47.256],[-120.237,47.104],[-120.088,46.986],[-120.102,46.898],[-120.129,46.885],[-120.338,46.925],[-120.753,47.033],[-120.952,47.148],[-121.114,47.269],[-121.265,47.332],[-121.296,47.392],[-121.299,47.442],[-121.269,47.485],[-121.199,47.526]]]}},{"type":"Feature","properties":{"density":1},"geometry":{"type":"Polygon","coordinates":[[[-74.932,20.532],[-75.296,20.575],[-75.445,20.541],[-75.478,20.505],[-75.487,20.467],[-75.469,20.388],[-75.391,20.359],[-75.22,20.352],[-74.936,20.408],[-74.909,20.505],[-74.932,20.532]]]}},{"type":"Feature","properties":{"density":1},"geometry":{"type":"Polygon","coordinates":[[[-123.72,64.877],[-123.105,65.21],[-122.67,65.415],[-122.195,66.222],[-122.003,66.607],[-121.465,67.03],[-120.35,67.453],[-119.235,67.722],[-114.228,69.922],[-113.104,70.268],[-111.287,70.355],[-106.097,71.306],[-103.243,71.306],[-99.956,71.652],[-94.42,71.652],[-89.23,71.912],[-85.251,71.998],[-81.445,72.344],[-74.266,71.97],[-70.979,71.451],[-68.096,70.47],[-67.058,69.202],[-66.597,67.991],[-67.116,66.03],[-68.269,65.396],[-72.248,64.819],[-75.246,64.588],[-78.418,64.819],[-81.993,64.704],[-84.704,64.415],[-86.664,64.473],[-88.163,64.012],[-89.893,62.916],[-91.22,62.282],[-93.18,60.61],[-93.469,59.687],[-93.872,58.13],[-93.93,57.438],[-93.238,56.227],[-92.142,55.708],[-90.239,55.131],[-87.529,53.517],[-86.376,52.709],[-84.012,51.614],[-79.052,49.769],[-76.4,48.731],[-73.459,47.635],[-71.037,46.712],[-68.442,45.386],[-67.577,44.579],[-67.404,43.541],[-67.75,42.33],[-68.211,41.465],[-68.961,39.562],[-70.313,38.146],[-70.877,37.813],[-71.646,37.454],[-72.261,37.095],[-72.773,37.018],[-73.286,36.89],[-75.541,36.531],[-77.425,36.083],[-79.424,35.468],[-80.846,34.891],[-81.538,34.353],[-82.153,33.584],[-82.73,33.046],[-83.384,32.584],[-84.306,31.816],[-85.229,31.239],[-86.844,30.854],[-87.728,30.47],[-88.266,30.086],[-88.804,29.855],[-89.227,29.509],[-89.611,29.163],[-89.881,28.702],[-90.034,28.202],[-89.804,27.741],[-89.035,27.612],[-88.65,27.484],[-87.523,27.023],[-87.01,26.767],[-86.446,26.459],[-86.395,26.305],[-85.43,25.704],[-85.031,25.163],[-84.661,24.736],[-84.49,24.138],[-84.461,23.626],[-84.661,22.999],[-85.316,22.259],[-87.024,21.291],[-87.565,21.063],[-88.818,20.636],[-89.416,20.038],[-90.014,19.468],[-92.122,17.646],[-92.947,17.332],[-93.745,17.275],[-94.628,17.475],[-95.396,17.845],[-96.507,18.443],[-97.361,18.984],[-99.17,20.7],[-100.835,21.404],[-104.424,21.661],[-107.115,21.661],[-108.78,21.404],[-109.998,21.02],[-111.664,20.7],[-112.817,20.443],[-117.879,20.636],[-119.096,20.636],[-121.339,20.572],[-122.94,20.507],[-124.414,20.7],[-125.439,21.533],[-126.272,22.686],[-126.721,24.544],[-126.721,26.851],[-126.336,29.285],[-126.08,30.439],[-124.677,32.247],[-123.909,32.589],[-122.969,32.873],[-120.093,34.24],[-119.694,34.383],[-118.27,34.468],[-116.96,34.582],[-115.85,34.867],[-114.682,34.724],[-113.372,34.525],[-112.034,34.126],[-110.952,33.528],[-110.211,32.76],[-109.386,31.82],[-108.702,30.652],[-107.884,29.901],[-106.821,29.711],[-105.769,30.296],[-105.256,31.065],[-104.872,31.919],[-104.402,33.286],[-104.189,33.97],[-104.018,35.878],[-104.16,36.533],[-104.302,37.302],[-104.616,37.729],[-105.242,38.013],[-105.983,38.27],[-107.691,38.526],[-108.631,38.554],[-110.254,38.697],[-111.393,38.896],[-112.361,39.124],[-114.583,39.694],[-116.372,39.95],[-117.169,39.722],[-118.251,39.608],[-119.675,39.266],[-120.615,38.839],[-121.27,38.64],[-122.295,37.928],[-122.722,37.216],[-122.864,36.476],[-123.32,35.849],[-123.947,35.28],[-125.684,34.682],[-126.31,34.482],[-126.994,34.568],[-127.62,34.938],[-127.933,35.821],[-127.876,36.874],[-127.563,38.127],[-127.193,39.266],[-126.737,41.26],[-126.823,42.427],[-126.851,43.282],[-126.766,43.965],[-126.623,44.506],[-126.31,45.332],[-126.225,47.012],[-125.997,47.553],[-125.399,48.493],[-124.858,49.575],[-123.483,53.061],[-123.539,53.773],[-123.767,54.627],[-124.194,55.681],[-124.65,56.478],[-125.02,57.389],[-125.163,58.073],[-125.476,59.269],[-125.704,60.265],[-125.818,61.376],[-125.818,62.316],[-125.39,63.141],[-124.821,64.081],[-124.081,64.594],[-123.72,64.877]]]}},{"type":"Feature","properties":{"density":1},"geometry":{"type":"Polygon","coordinates":[[[-84.99,36.234],[-85.1,36.446],[-85.122,36.534],[-85.115,36.566],[-85.082,36.569],[-85.05,36.549],[-84.93,36.361],[-84.92,36.246],[-84.942,36.226],[-84.99,36.234]]]}},{"type":"Feature","properties":{"density":1},"geometry":{"type":"Polygon","coordinates":[[[-113.9,46.14],[-113.613,46.334],[-113.567,46.422],[-113.567,46.468],[-113.594,46.515],[-113.648,46.537],[-113.698,46.533],[-113.826,46.424],[-113.964,46.205],[-113.958,46.137],[-113.934,46.122],[-113.9,46.14]]]}},{"type":"Feature","properties":{"density":1},"geometry":{"type":"Polygon","coordinates":[[[-113.08,47.336],[-113.371,47.452],[-113.461,47.524],[-113.501,47.576],[-113.588,47.735],[-113.638,47.883],[-113.625,48.002],[-113.588,48.063],[-113.54,48.092],[-113.421,48.115],[-113.3,48.105],[-113.181,48.031],[-113.094,47.949],[-113.03,47.846],[-113.009,47.756],[-113.028,47.645],[-112.956,47.45],[-112.983,47.365],[-113.022,47.325],[-113.08,47.336]]]}},{"type":"Feature","properties":{"density":1},"geometry":{"type":"Polygon","coordinates":[[[-115.459,46.119],[-115.342,46.13],[-115.272,46.162],[-115.233,46.199],[-115.136,46.424],[-115.098,46.475],[-115.052,46.511],[-114.969,46.54],[-114.92,46.535],[-114.779,46.463],[-114.699,46.373],[-114.632,46.25],[-114.615,46.028],[-114.664,45.887],[-114.715,45.852],[-114.793,45.857],[-114.962,45.956],[-115.161,45.984],[-115.313,45.978],[-115.464,46.014],[-115.561,46.051],[-115.614,46.098],[-115.621,46.126],[-115.596,46.156],[-115.459,46.119]]]}},{"type":"Feature","properties":{"density":1},"geometry":{"type":"Polygon","coordinates":[[[-115.344,46.477],[-115.418,46.437],[-115.526,46.444],[-115.586,46.484],[-115.598,46.539],[-115.566,46.577],[-115.438,46.562],[-115.381,46.53],[-115.344,46.477]]]}},{"type":"Feature","properties":{"density":1},"geometry":{"type":"Polygon","coordinates":[[[-116.602,48.829],[-116.679,48.839],[-116.729,48.876],[-116.819,49.001],[-116.933,49.223],[-116.97,49.344],[-117.075,49.474],[-117.176,49.497],[-117.223,49.548],[-117.242,49.619],[-117.236,49.688],[-117.199,49.759],[-116.996,49.992],[-116.903,50.029],[-116.449,50.0],[-116.267,50.031],[-116.082,50.153],[-116.039,50.206],[-116.002,50.451],[-115.891,50.581],[-115.751,50.605],[-115.611,50.586],[-115.513,50.507],[-115.453,50.42],[-115.41,50.285],[-115.426,50.134],[-115.49,49.978],[-115.804,49.653],[-116.179,49.357],[-116.304,49.18],[-116.396,48.958],[-116.457,48.866],[-116.52,48.824],[-116.602,48.829]]]}},{"type":"Feature","properties":{"density":1},"geometry":{"type":"Polygon","coordinates":[[[-115.689,43.859],[-115.654,43.916],[-115.608,44.117],[-115.573,44.182],[-115.53,44.224],[-115.411,44.263],[-115.3,44.245],[-115.271,44.217],[-115.25,44.159],[-115.252,44.088],[-115.301,43.961],[-115.363,43.886],[-115.622,43.65],[-115.768,43.569],[-115.865,43.537],[-115.929,43.547],[-115.953,43.57],[-115.957,43.621],[-115.914,43.667],[-115.737,43.782],[-115.689,43.859]]]}},{"type":"Feature","properties":{"density":1},"geometry":{"type":"Polygon","coordinates":[[[-118.249,44.789],[-118.053,44.842],[-117.789,44.955],[-117.66,45.035],[-117.586,45.101],[-117.52,45.191],[-117.464,45.323],[-117.456,45.384],[-117.49,45.46],[-117.557,45.489],[-117.625,45.489],[-117.715,45.458],[-117.892,45.352],[-118.016,45.254],[-118.207,45.059],[-118.336,44.847],[-118.323,44.802],[-118.265,44.781],[-118.249,44.789]]]}},{"type":"Feature","properties":{"density":1},"geometry":{"type":"Polygon","coordinates":[[[-121.52,36.003],[-121.31,36.174],[-121.245,36.206],[-121.118,36.216],[-121.009,36.176],[-120.875,36.04],[-120.824,35.94],[-120.801,35.843],[-120.798,35.605],[-120.838,35.522],[-120.884,35.473],[-121.016,35.432],[-121.189,35.508],[-121.258,35.568],[-121.332,35.693],[-121.499,35.864],[-121.529,35.962],[-121.52,36.003]]]}},{"type":"Feature","properties":{"density":1},"geometry":{"type":"Polygon","coordinates":[[[-98.842,21.776],[-98.754,21.691],[-98.653,21.668],[-98.608,21.696],[-98.605,21.773],[-98.659,21.811],[-98.832,21.81],[-98.854,21.789],[-98.842,21.776]]]}},{"type":"Feature","properties":{"density":1},"geometry":{"type":"Polygon","coordinates":[[[-90.479,33.357],[-90.474,33.317],[-90.414,33.219],[-90.334,33.144],[-90.302,33.144],[-90.288,33.164],[-90.289,33.223],[-90.338,33.306],[-90.411,33.37],[-90.463,33.378],[-90.479,33.357]]]}},{"type":"Feature","properties":{"density":1},"geometry":{"type":"Polygon","coordinates":[[[-90.266,33.39],[-90.237,33.191],[-90.202,33.158],[-90.171,33.165],[-90.133,33.195],[-90.122,33.264],[-90.204,33.364],[-90.245,33.394],[-90.266,33.39]]]}},{"type":"Feature","properties":{"density":1},"geometry":{"type":"Polygon","coordinates":[[[-90.419,34.489],[-90.419,34.381],[-90.379,34.277],[-90.348,34.243],[-90.316,34.235],[-90.237,34.243],[-90.208,34.288],[-90.216,34.338],[-90.267,34.436],[-90.38,34.505],[-90.419,34.489]]]}},{"type":"Feature","properties":{"density":1},"geometry":{"type":"Polygon","coordinates":[[[-90.69,34.531],[-90.757,34.427],[-90.799,34.409],[-90.849,34.427],[-90.86,34.474],[-90.829,34.509],[-90.702,34.558],[-90.686,34.551],[-90.69,34.531]]]}},{"type":"Feature","properties":{"density":1},"geometry":{"type":"Polygon","coordinates":[[[-91.38,34.515],[-91.363,34.487],[-91.365,34.442],[-91.417,34.421],[-91.438,34.472],[-91.414,34.507],[-91.38,34.515]]]}},{"type":"Feature","properties":{"density":1},"geometry":{"type":"Polygon","coordinates":[[[-90.381,35.312],[-90.344,35.287],[-90.311,35.287],[-90.289,35.307],[-90.297,35.373],[-90.333,35.443],[-90.398,35.483],[-90.453,35.485],[-90.497,35.436],[-90.5,35.386],[-90.436,35.322],[-90.381,35.312]]]}},{"type":"Feature","properties":{"density":1},"geometry":{"type":"Polygon","coordinates":[[[-90.102,35.73],[-90.212,35.796],[-90.21,35.854],[-90.128,35.882],[-90.08,35.865],[-90.06,35.814],[-90.06,35.75],[-90.087,35.726],[-90.102,35.73]]]}},{"type":"Feature","properties":{"density":1},"geometry":{"type":"Polygon","coordinates":[[[-90.433,35.981],[-90.401,35.908],[-90.41,35.854],[-90.449,35.831],[-90.484,35.836],[-90.565,35.902],[-90.574,35.946],[-90.557,35.981],[-90.51,36.005],[-90.433,35.981]]]}},{"type":"Feature","properties":{"density":1},"geometry":{"type":"Polygon","coordinates":[[[-89.78,35.969],[-89.83,36.015],[-89.857,36.16],[-89.817,36.236],[-89.758,36.252],[-89.722,36.219],[-89.709,36.1],[-89.734,35.973],[-89.78,35.969]]]}},{"type":"Feature","properties":{"density":1},"geometry":{"type":"Polygon","coordinates":[[[-118.249,44.78],[-117.921,44.91],[-117.48,45.13],[-117.4,45.224],[-117.381,45.334],[-117.397,45.392],[-117.453,45.447],[-117.497,45.464],[-117.593,45.447],[-117.957,45.158],[-118.1,45.017],[-118.312,44.844],[-118.337,44.772],[-118.288,44.758],[-118.249,44.78]]]}},{"type":"Feature","properties":{"density":1},"geometry":{"type":"Polygon","coordinates":[[[-121.865,36.402],[-121.789,36.435],[-121.684,36.45],[-121.492,36.343],[-121.392,36.312],[-121.124,36.275],[-120.806,36.288],[-120.628,36.353],[-120.522,36.375],[-120.369,36.364],[-120.185,36.301],[-120.116,36.228],[-120.077,36.105],[-120.082,35.95],[-120.182,35.724],[-120.318,35.559],[-120.527,35.41],[-120.694,35.355],[-121.034,35.379],[-121.188,35.443],[-121.578,35.855],[-121.85,36.191],[-121.888,36.296],[-121.865,36.402]]]}},{"type":"Feature","properties":{"density":1},"geometry":{"type":"Polygon","coordinates":[[[-71.536,18.624],[-71.624,18.618],[-71.715,18.662],[-72.032,19.015],[-72.065,19.098],[-72.057,19.139],[-72.021,19.161],[-71.983,19.161],[-71.933,19.142],[-71.837,19.065],[-71.669,18.894],[-71.591,18.789],[-71.542,18.695],[-71.536,18.624]]]}},{"type":"Feature","properties":{"density":1},"geometry":{"type":"Polygon","coordinates":[[[-90.076,35.802],[-90.159,35.971],[-90.324,36.124],[-90.551,36.29],[-90.696,36.352],[-90.799,36.368],[-91.014,36.306],[-91.068,36.223],[-91.085,36.054],[-91.076,35.951],[-91.035,35.785],[-90.969,35.661],[-90.808,35.513],[-90.465,35.298],[-90.386,35.264],[-90.303,35.281],[-90.225,35.38],[-90.064,35.674],[-90.059,35.74],[-90.076,35.802]]]}},{"type":"Feature","properties":{"density":1},"geometry":{"type":"Polygon","coordinates":[[[-90.995,34.965],[-91.144,35.068],[-91.195,35.125],[-91.228,35.19],[-91.239,35.27],[-91.192,35.342],[-91.074,35.309],[-90.988,35.23],[-90.944,35.133],[-90.929,35.044],[-90.942,34.96],[-90.995,34.965]]]}},{"type":"Feature","properties":{"density":1},"geometry":{"type":"Polygon","coordinates":[[[-91.27,34.08],[-91.336,34.215],[-91.569,34.424],[-91.685,34.464],[-91.793,34.459],[-91.887,34.426],[-91.938,34.376],[-91.959,34.323],[-91.962,34.253],[-91.916,34.159],[-91.755,34.049],[-91.457,33.981],[-91.334,33.983],[-91.248,34.035],[-91.27,34.08]]]}},{"type":"Feature","properties":{"density":1},"geometry":{"type":"Polygon","coordinates":[[[-90.318,33.656],[-90.27,33.726],[-90.267,33.803],[-90.316,33.917],[-90.48,33.987],[-90.524,33.979],[-90.588,33.935],[-90.638,33.821],[-90.634,33.691],[-90.619,33.606],[-90.595,33.564],[-90.559,33.546],[-90.48,33.566],[-90.318,33.656]]]}},{"type":"Feature","properties":{"density":1},"geometry":{"type":"Polygon","coordinates":[[[-90.419,33.34],[-90.384,33.197],[-90.395,33.09],[-90.417,33.057],[-90.515,33.052],[-90.573,33.088],[-90.658,33.213],[-90.695,33.408],[-90.674,33.496],[-90.63,33.513],[-90.542,33.498],[-90.419,33.34]]]}},{"type":"Feature","properties":{"density":1},"geometry":{"type":"Polygon","coordinates":[[[-90.82,30.866],[-90.927,30.599],[-90.97,30.56],[-91.008,30.553],[-91.108,30.594],[-91.131,30.677],[-91.129,30.721],[-91.102,30.765],[-90.959,30.863],[-90.872,30.896],[-90.82,30.866]]]}},{"type":"Feature","properties":{"density":1},"geometry":{"type":"Polygon","coordinates":[[[-95.234,34.373],[-95.332,34.393],[-95.374,34.435],[-95.46,34.617],[-95.49,34.874],[-95.44,34.99],[-95.372,35.031],[-95.256,35.034],[-95.19,34.99],[-95.1,34.852],[-95.045,34.707],[-95.032,34.492],[-95.126,34.411],[-95.234,34.373]]]}},{"type":"Feature","properties":{"density":1},"geometry":{"type":"Polygon","coordinates":[[[-122.119,45.011],[-121.908,44.875],[-121.387,44.695],[-120.996,44.62],[-120.723,44.596],[-120.475,44.583],[-120.258,44.596],[-119.973,44.67],[-119.911,44.769],[-119.886,44.893],[-119.948,45.03],[-120.097,45.116],[-120.488,45.178],[-120.897,45.154],[-121.35,45.178],[-121.635,45.16],[-122.094,45.085],[-122.125,45.067],[-122.119,45.011]]]}},{"type":"Feature","properties":{"density":1},"geometry":{"type":"Polygon","coordinates":[[[-118.256,44.769],[-117.884,44.887],[-117.654,44.93],[-117.326,45.042],[-117.208,45.166],[-117.158,45.29],[-117.177,45.402],[-117.282,45.55],[-117.375,45.606],[-117.555,45.619],[-117.816,45.538],[-117.964,45.414],[-118.076,45.265],[-118.361,44.986],[-118.386,44.906],[-118.454,44.788],[-118.46,44.744],[-118.398,44.726],[-118.256,44.769]]]}},{"type":"Feature","properties":{"density":1},"geometry":{"type":"Polygon","coordinates":[[[-123.81,43.407],[-126.565,43.902],[-128.26,44.749],[-129.672,45.879],[-130.802,47.292],[-131.367,49.057],[-130.802,52.235],[-129.037,56.685],[-127.624,59.863],[-125.647,63.394],[-124.305,64.807],[-123.033,66.219],[-120.491,68.338],[-115.547,71.375],[-108.061,72.152],[-99.939,72.717],[-94.642,73.776],[-86.308,73.564],[-74.655,71.022],[-71.195,70.457],[-67.875,69.185],[-65.898,67.844],[-64.909,66.572],[-64.344,65.019],[-64.203,62.759],[-64.415,61.629],[-66.533,58.592],[-67.663,56.402],[-69.57,52.942],[-75.432,45.738],[-76.138,44.961],[-76.421,43.549],[-76.209,41.712],[-75.785,40.3],[-75.22,38.676],[-75.15,37.475],[-75.644,36.062],[-76.562,34.367],[-77.833,32.531],[-79.246,31.048],[-80.447,30.13],[-83.13,28.364],[-85.32,27.658],[-87.509,27.022],[-89.487,25.398],[-90.617,23.632],[-90.97,22.079],[-90.899,20.454],[-91.182,19.042],[-91.888,17.7],[-92.594,16.782],[-94.925,15.157],[-98.456,14.169],[-100.787,14.522],[-103.188,15.369],[-103.753,15.934],[-104.035,17.771],[-102.905,19.254],[-101.563,20.384],[-100.08,21.302],[-99.303,22.079],[-98.315,23.209],[-96.902,25.116],[-95.278,27.234],[-94.43,28.435],[-93.583,30.201],[-93.159,32.531],[-93.088,35.144],[-93.865,37.828],[-95.066,39.594],[-97.326,40.724],[-100.575,41.924],[-101.846,42.348],[-107.849,43.478],[-111.875,43.69],[-116.253,43.619],[-117.383,43.549],[-122.115,43.125],[-123.81,43.407]]]}},{"type":"Feature","properties":{"density":1},"geometry":{"type":"Polygon","coordinates":[[[-121.85,36.6],[-120.688,36.799],[-119.998,37.009],[-119.448,37.299],[-119.324,37.299],[-119.089,37.175],[-119.014,37.104],[-118.94,36.951],[-118.895,36.77],[-118.899,36.398],[-118.923,36.125],[-119.019,35.761],[-119.147,35.455],[-119.473,35.05],[-119.634,34.74],[-119.823,34.463],[-119.947,34.389],[-120.486,34.345],[-120.79,34.5],[-120.914,34.6],[-121.106,34.792],[-121.404,35.263],[-121.701,35.778],[-121.813,35.864],[-121.931,36.05],[-122.011,36.199],[-122.017,36.472],[-121.98,36.565],[-121.924,36.596],[-121.85,36.6]]]}},{"type":"Feature","properties":{"density":2},"geometry":{"type":"Polygon","coordinates":[[[-113.947,46.164],[-113.927,46.228],[-113.889,46.279],[-113.82,46.281],[-113.813,46.257],[-113.848,46.164],[-113.901,46.147],[-113.942,46.151],[-113.947,46.164]]]}},{"type":"Feature","properties":{"density":2},"geometry":{"type":"Polygon","coordinates":[[[-118.273,44.896],[-117.989,45.086],[-117.905,45.118],[-117.853,45.096],[-117.878,45.055],[-118.026,44.931],[-118.136,44.894],[-118.175,44.817],[-118.232,44.794],[-118.298,44.799],[-118.313,44.842],[-118.273,44.896]]]}},{"type":"Feature","properties":{"density":2},"geometry":{"type":"Polygon","coordinates":[[[-115.57,43.925],[-115.513,43.899],[-115.496,43.866],[-115.505,43.807],[-115.541,43.758],[-115.661,43.672],[-115.767,43.621],[-115.85,43.604],[-115.811,43.664],[-115.732,43.698],[-115.677,43.744],[-115.612,43.903],[-115.57,43.925]]]}},{"type":"Feature","properties":{"density":2},"geometry":{"type":"Polygon","coordinates":[[[-118.249,45.595],[-118.255,45.633],[-118.241,45.655],[-118.075,45.64],[-118.036,45.613],[-118.042,45.595],[-118.078,45.58],[-118.21,45.576],[-118.249,45.595]]]}},{"type":"Feature","properties":{"density":2},"geometry":{"type":"Polygon","coordinates":[[[-121.475,45.189],[-121.297,45.213],[-121.24,45.186],[-121.238,45.135],[-121.27,45.119],[-121.481,45.116],[-121.493,45.147],[-121.475,45.189]]]}},{"type":"Feature","properties":{"density":2},"geometry":{"type":"Polygon","coordinates":[[[-115.267,46.413],[-115.086,46.501],[-115.036,46.555],[-114.917,46.595],[-114.681,46.595],[-114.544,46.555],[-114.521,46.53],[-114.528,46.481],[-114.728,46.422],[-114.78,46.379],[-114.787,46.348],[-114.748,46.334],[-114.665,46.339],[-114.593,46.307],[-114.618,46.166],[-114.544,46.116],[-114.539,46.06],[-114.557,46.033],[-114.607,46.013],[-114.634,45.945],[-114.503,45.932],[-114.487,45.925],[-114.474,45.882],[-114.496,45.851],[-114.576,45.816],[-114.59,45.708],[-114.692,45.702],[-114.781,45.745],[-114.804,45.815],[-114.884,45.888],[-114.908,45.98],[-114.928,46.002],[-114.961,46.012],[-115.367,46.0],[-115.532,46.027],[-115.601,46.056],[-115.63,46.119],[-115.627,46.153],[-115.592,46.21],[-115.406,46.299],[-115.267,46.413]]]}},{"type":"Feature","properties":{"density":2},"geometry":{"type":"Polygon","coordinates":[[[-121.755,36.304],[-121.647,36.244],[-121.554,36.167],[-121.465,36.046],[-121.423,35.913],[-121.443,35.853],[-121.477,35.839],[-121.653,35.869],[-121.717,35.896],[-121.768,35.95],[-121.827,36.112],[-121.84,36.231],[-121.804,36.297],[-121.755,36.304]]]}},{"type":"Feature","properties":{"density":2},"geometry":{"type":"Polygon","coordinates":[[[-114.219,45.436],[-114.546,45.421],[-114.781,45.391],[-115.267,45.398],[-115.632,45.338],[-116.414,45.277],[-116.824,45.436],[-116.87,45.626],[-116.855,46.481],[-116.775,46.697],[-116.946,47.061],[-117.048,47.426],[-117.23,47.802],[-117.39,48.292],[-117.492,48.554],[-117.64,48.656],[-118.073,48.656],[-118.461,48.611],[-118.893,48.428],[-119.144,48.269],[-119.245,48.04],[-119.232,47.79],[-119.313,47.5],[-119.559,47.328],[-119.873,47.198],[-120.181,47.21],[-120.91,47.665],[-121.217,47.973],[-121.354,48.371],[-121.377,49.026],[-121.291,49.197],[-120.949,49.402],[-120.676,49.488],[-120.351,49.556],[-119.395,49.624],[-119.274,49.777],[-119.274,50.039],[-119.217,50.233],[-119.069,50.609],[-118.553,51.137],[-117.771,51.623],[-117.242,51.931],[-115.379,53.264],[-115.098,53.443],[-114.585,54.084],[-114.662,54.238],[-114.995,54.391],[-116.174,54.648],[-117.148,54.801],[-118.762,55.211],[-120.915,56.07],[-121.325,56.506],[-121.71,57.198],[-121.761,57.762],[-121.71,58.043],[-121.607,58.377],[-120.569,58.492],[-119.647,58.377],[-118.205,58.088],[-116.471,57.849],[-115.523,57.695],[-113.062,57.388],[-111.96,57.49],[-110.243,57.747],[-109.141,57.823],[-108.5,58.003],[-108.141,58.362],[-107.859,59.361],[-107.911,59.874],[-108.295,60.412],[-109.013,60.925],[-110.089,61.565],[-110.884,61.745],[-111.96,61.719],[-112.575,61.565],[-113.011,61.335],[-113.549,61.206],[-114.267,60.822],[-114.497,60.796],[-114.907,60.848],[-115.241,61.104],[-115.804,61.693],[-115.856,62.129],[-115.83,62.744],[-115.369,63.462],[-114.549,63.821],[-113.729,64.077],[-113.011,64.128],[-111.012,64.179],[-107.142,65.653],[-105.873,66.345],[-103.02,67.979],[-101.463,68.671],[-99.041,69.132],[-96.388,69.363],[-95.177,69.363],[-90.378,70.394],[-89.61,70.523],[-88.687,70.574],[-88.302,70.548],[-86.406,70.523],[-86.098,70.394],[-85.868,70.215],[-85.842,69.754],[-86.303,69.087],[-87.303,68.447],[-87.944,67.908],[-88.815,67.37],[-90.097,66.473],[-90.814,66.038],[-91.532,65.704],[-92.352,65.141],[-93.659,62.853],[-94.505,61.239],[-95.427,59.758],[-95.696,57.311],[-95.696,56.875],[-95.748,56.337],[-95.53,54.991],[-95.491,54.415],[-94.804,52.4],[-93.83,50.811],[-93.163,49.94],[-93.163,49.273],[-94.496,48.71],[-95.957,49.017],[-97.452,49.581],[-98.477,49.649],[-99.468,49.735],[-100.357,49.649],[-101.587,49.752],[-103.641,49.763],[-105.179,49.571],[-106.217,49.417],[-108.293,48.456],[-108.87,48.149],[-109.485,47.61],[-111.129,45.953],[-111.915,45.065],[-112.411,44.552],[-112.752,44.415],[-113.111,44.467],[-113.333,44.586],[-113.59,44.842],[-113.761,45.047],[-114.219,45.436]]]}},{"type":"Feature","properties":{"density":2},"geometry":{"type":"Polygon","coordinates":[[[-122.93,64.173],[-122.828,64.19],[-121.991,64.566],[-121.307,64.925],[-120.692,65.557],[-119.889,66.241],[-119.189,66.77],[-118.163,67.334],[-117.531,67.591],[-116.523,67.71],[-116.028,67.796],[-115.464,67.83],[-115.02,67.761],[-114.883,67.591],[-115.037,67.351],[-115.6,67.061],[-116.284,66.463],[-117.104,65.711],[-117.719,65.062],[-118.471,64.532],[-118.744,64.173],[-119.001,63.763],[-119.787,62.636],[-120.197,62.089],[-120.863,61.474],[-121.188,61.2],[-121.615,61.132],[-121.991,61.166],[-122.401,61.115],[-123.494,60.654],[-124.178,60.551],[-124.451,60.893],[-124.434,61.423],[-124.366,61.918],[-124.331,62.414],[-124.348,63.012],[-124.161,63.541],[-123.965,63.938],[-123.745,64.037],[-123.593,64.075],[-123.115,64.135],[-122.93,64.173]]]}},{"type":"Feature","properties":{"density":2},"geometry":{"type":"Polygon","coordinates":[[[-113.31,47.825],[-113.436,47.932],[-113.433,47.992],[-113.37,47.999],[-113.283,47.951],[-113.238,47.903],[-113.221,47.863],[-113.265,47.831],[-113.31,47.825]]]}},{"type":"Feature","properties":{"density":2},"geometry":{"type":"Polygon","coordinates":[[[-113.102,47.354],[-113.212,47.385],[-113.331,47.459],[-113.376,47.511],[-113.433,47.608],[-113.462,47.7],[-113.484,47.846],[-113.464,47.916],[-113.421,47.918],[-113.307,47.801],[-113.194,47.592],[-113.109,47.529],[-113.021,47.493],[-113.001,47.468],[-112.996,47.385],[-113.016,47.355],[-113.102,47.354]]]}},{"type":"Feature","properties":{"density":2},"geometry":{"type":"Polygon","coordinates":[[[-121.203,47.506],[-121.059,47.506],[-120.969,47.479],[-120.809,47.389],[-120.75,47.294],[-120.744,47.245],[-120.759,47.206],[-120.834,47.204],[-121.169,47.321],[-121.248,47.362],[-121.284,47.431],[-121.203,47.506]]]}},{"type":"Feature","properties":{"density":2},"geometry":{"type":"Polygon","coordinates":[[[-76.096,20.534],[-75.955,20.543],[-75.946,20.421],[-75.973,20.357],[-76.035,20.352],[-76.164,20.388],[-76.324,20.399],[-76.405,20.429],[-76.395,20.459],[-76.353,20.483],[-76.135,20.507],[-76.096,20.534]]]}},{"type":"Feature","properties":{"density":2},"geometry":{"type":"Polygon","coordinates":[[[-116.808,48.578],[-116.825,48.747],[-116.867,48.932],[-117.078,49.624],[-117.095,49.785],[-116.994,49.928],[-116.918,49.928],[-116.8,49.852],[-116.69,49.751],[-116.623,49.734],[-116.471,49.717],[-116.294,49.742],[-116.226,49.802],[-116.201,49.877],[-116.201,49.987],[-116.226,50.147],[-116.412,50.401],[-116.471,50.552],[-116.471,50.671],[-116.446,50.772],[-116.395,50.898],[-116.302,50.983],[-116.116,51.033],[-115.973,51.017],[-115.846,50.924],[-115.593,50.552],[-115.56,50.426],[-115.458,50.266],[-115.357,50.223],[-115.171,50.232],[-114.977,50.308],[-114.834,50.333],[-114.699,50.325],[-114.547,50.257],[-114.412,49.996],[-114.378,49.852],[-114.429,49.734],[-115.332,49.312],[-115.863,49.186],[-116.026,49.208],[-116.049,49.253],[-116.12,49.246],[-116.191,49.201],[-116.221,49.148],[-116.225,49.088],[-116.21,49.039],[-116.098,48.942],[-116.068,48.871],[-116.056,48.754],[-116.068,48.698],[-116.113,48.631],[-116.278,48.511],[-116.375,48.496],[-116.491,48.492],[-116.596,48.511],[-116.776,48.556],[-116.808,48.578]]]}},{"type":"Feature","properties":{"density":2},"geometry":{"type":"Polygon","coordinates":[[[-115.242,46.081],[-115.166,46.126],[-115.15,46.185],[-115.115,46.213],[-115.002,46.174],[-114.974,46.174],[-114.955,46.192],[-114.988,46.241],[-115.11,46.253],[-115.126,46.269],[-115.117,46.313],[-115.08,46.34],[-114.946,46.253],[-114.893,46.183],[-114.888,46.156],[-114.928,46.114],[-115.091,46.065],[-115.249,46.037],[-115.3,46.045],[-115.3,46.061],[-115.242,46.081]]]}},{"type":"Feature","properties":{"density":2},"geometry":{"type":"Polygon","coordinates":[[[-116.652,48.876],[-116.652,49.109],[-116.724,49.32],[-116.726,49.373],[-116.695,49.408],[-116.623,49.397],[-116.541,49.32],[-116.47,49.18],[-116.457,49.077],[-116.467,48.972],[-116.494,48.916],[-116.621,48.831],[-116.652,48.839],[-116.652,48.876]]]}},{"type":"Feature","properties":{"density":2},"geometry":{"type":"Polygon","coordinates":[[[-115.59,43.787],[-115.536,43.819],[-115.449,43.956],[-115.446,44.014],[-115.471,44.055],[-115.497,44.055],[-115.534,44.018],[-115.647,43.847],[-115.656,43.769],[-115.626,43.761],[-115.59,43.787]]]}},{"type":"Feature","properties":{"density":2},"geometry":{"type":"Polygon","coordinates":[[[-121.471,35.964],[-121.205,36.082],[-121.11,36.073],[-121.02,35.971],[-120.988,35.867],[-120.96,35.686],[-120.99,35.603],[-121.046,35.584],[-121.154,35.624],[-121.379,35.86],[-121.497,35.887],[-121.499,35.932],[-121.471,35.964]]]}},{"type":"Feature","properties":{"density":2},"geometry":{"type":"Polygon","coordinates":[[[-121.785,36.294],[-121.666,36.264],[-121.471,36.112],[-121.381,36.064],[-121.258,36.042],[-121.045,36.066],[-120.665,36.073],[-120.601,36.031],[-120.571,35.98],[-120.571,35.871],[-120.593,35.846],[-120.738,35.776],[-120.896,35.737],[-120.957,35.746],[-121.143,35.853],[-121.28,35.871],[-121.446,35.868],[-121.578,35.963],[-121.69,36.123],[-121.787,36.22],[-121.808,36.279],[-121.785,36.294]]]}},{"type":"Feature","properties":{"density":2},"geometry":{"type":"Polygon","coordinates":[[[-95.308,34.468],[-95.334,34.626],[-95.332,34.786],[-95.269,34.838],[-95.236,34.84],[-95.159,34.784],[-95.128,34.726],[-95.095,34.59],[-95.095,34.524],[-95.126,34.47],[-95.308,34.468]]]}},{"type":"Feature","properties":{"density":2},"geometry":{"type":"Polygon","coordinates":[[[-122.079,50.158],[-121.483,51.696],[-117.967,54.113],[-115.77,55.243],[-114.012,55.714],[-112.16,56.059],[-109.523,56.342],[-108.048,56.436],[-107.075,56.436],[-105.694,56.781],[-104.847,57.189],[-104.156,57.942],[-103.403,58.602],[-102.461,59.01],[-101.237,58.915],[-100.672,58.382],[-100.483,57.848],[-100.546,57.063],[-100.483,56.185],[-99.981,55.306],[-99.448,54.615],[-98.788,54.176],[-98.035,53.987],[-96.183,53.203],[-95.053,52.763],[-94.143,52.261],[-93.892,52.073],[-93.609,51.696],[-93.484,51.225],[-93.609,50.911],[-94.363,50.221],[-94.928,49.938],[-95.524,49.813],[-96.089,49.813],[-97.282,49.907],[-98.443,50.221],[-99.071,50.44],[-100.327,50.943],[-101.645,51.57],[-104.093,52.198],[-107.703,53.203],[-108.645,53.736],[-109.837,54.082],[-111.878,54.238],[-112.631,54.238],[-113.447,53.956],[-114.357,53.328],[-114.828,52.889],[-115.77,51.633],[-116.303,51.037],[-116.931,50.409],[-117.402,49.907],[-118.438,49.154],[-119.097,48.651],[-119.913,48.149],[-120.541,47.741],[-121.106,47.521],[-121.891,47.71],[-122.299,48.149],[-122.518,48.902],[-122.55,49.342],[-122.299,49.907],[-122.079,50.158]]]}},{"type":"Feature","properties":{"density":2},"geometry":{"type":"Polygon","coordinates":[[[-122.271,60.799],[-118.159,60.391],[-113.168,60.705],[-108.837,61.521],[-105.321,62.086],[-103.312,62.588],[-101.46,63.216],[-99.169,63.969],[-96.25,64.817],[-94.21,65.036],[-92.232,65.162],[-90.349,65.601],[-88.748,66.386],[-87.806,67.328],[-87.461,68.175],[-87.618,69.242],[-88.277,70.027],[-89.344,70.341],[-90.757,70.341],[-93.55,70.247],[-95.873,70.247],[-104.38,70.561],[-105.667,70.404],[-107.362,69.933],[-109.559,69.431],[-111.379,68.866],[-114.487,67.422],[-124.845,62.243],[-124.845,61.395],[-124.845,62.243],[-124.845,61.395],[-124.845,62.243],[-124.845,61.395],[-124.845,62.243],[-124.845,61.395],[-124.845,62.243],[-124.845,61.395],[-124.312,60.924],[-123.087,60.767],[-122.271,60.799]]]}},{"type":"Feature","properties":{"density":2},"geometry":{"type":"Polygon","coordinates":[[[-121.748,36.328],[-121.566,36.306],[-121.329,36.301],[-120.96,36.375],[-120.549,36.427],[-120.389,36.438],[-120.274,36.411],[-120.122,36.287],[-120.07,36.174],[-120.07,36.08],[-120.136,35.923],[-120.163,35.799],[-120.172,35.692],[-120.147,35.466],[-120.166,35.386],[-120.238,35.3],[-120.323,35.281],[-120.417,35.289],[-120.475,35.331],[-120.563,35.435],[-120.613,35.54],[-120.651,35.67],[-120.701,35.744],[-120.935,35.832],[-121.285,35.805],[-121.5,35.885],[-121.64,36.097],[-121.836,36.257],[-121.833,36.309],[-121.797,36.328],[-121.748,36.328]]]}},{"type":"Feature","properties":{"density":3},"geometry":{"type":"Polygon","coordinates":[[[-115.062,46.341],[-114.995,46.317],[-114.869,46.324],[-114.828,46.293],[-114.675,46.269],[-114.675,46.233],[-114.791,46.143],[-114.797,46.086],[-114.782,46.018],[-114.845,46.019],[-114.904,46.099],[-114.925,46.104],[-114.959,46.084],[-114.992,46.024],[-115.015,46.021],[-115.177,46.043],[-115.369,46.024],[-115.415,46.042],[-115.404,46.1],[-115.301,46.225],[-115.237,46.258],[-115.163,46.248],[-115.103,46.338],[-115.062,46.341]]]}},{"type":"Feature","properties":{"density":3},"geometry":{"type":"Polygon","coordinates":[[[-116.683,48.642],[-116.655,48.868],[-116.627,48.934],[-116.631,49.059],[-116.671,49.19],[-116.725,49.248],[-116.833,49.423],[-116.889,49.671],[-116.867,49.689],[-116.802,49.648],[-116.671,49.511],[-116.556,49.47],[-116.478,49.495],[-116.073,49.763],[-115.985,49.895],[-115.968,49.952],[-115.971,50.046],[-116.059,50.117],[-116.086,50.202],[-116.09,50.293],[-116.025,50.377],[-115.884,50.462],[-115.816,50.451],[-115.762,50.404],[-115.722,50.337],[-115.614,50.289],[-115.533,50.114],[-115.497,49.844],[-115.465,49.734],[-115.42,49.668],[-115.35,49.689],[-115.168,49.844],[-115.114,49.862],[-115.042,49.86],[-114.984,49.837],[-114.959,49.79],[-114.961,49.754],[-114.986,49.718],[-115.227,49.574],[-115.452,49.473],[-115.893,49.403],[-116.138,49.423],[-116.225,49.373],[-116.297,49.301],[-116.279,49.205],[-116.289,49.139],[-116.399,49.086],[-116.409,49.068],[-116.385,48.893],[-116.421,48.794],[-116.507,48.743],[-116.613,48.603],[-116.669,48.602],[-116.683,48.642]]]}},{"type":"Feature","properties":{"density":3},"geometry":{"type":"Polygon","coordinates":[[[-118.296,44.849],[-118.188,44.943],[-118.051,44.992],[-118.058,44.952],[-118.152,44.895],[-118.2,44.818],[-118.282,44.809],[-118.301,44.827],[-118.296,44.849]]]}},{"type":"Feature","properties":{"density":3},"geometry":{"type":"Polygon","coordinates":[[[-115.613,43.845],[-115.667,43.712],[-115.763,43.67],[-115.766,43.647],[-115.729,43.649],[-115.665,43.683],[-115.589,43.743],[-115.551,43.804],[-115.544,43.845],[-115.583,43.877],[-115.613,43.845]]]}},{"type":"Feature","properties":{"density":3},"geometry":{"type":"Polygon","coordinates":[[[-121.743,36.279],[-121.709,36.221],[-121.493,36.021],[-121.485,35.933],[-121.512,35.885],[-121.593,35.886],[-121.694,35.928],[-121.769,36.009],[-121.796,36.072],[-121.821,36.239],[-121.799,36.282],[-121.743,36.279]]]}},{"type":"Feature","properties":{"density":3},"geometry":{"type":"Polygon","coordinates":[[[-123.156,63.305],[-123.076,63.203],[-122.7,63.02],[-122.347,62.929],[-122.051,63.02],[-121.789,63.191],[-121.424,63.67],[-121.242,64.114],[-121.128,64.513],[-120.923,64.911],[-120.604,65.162],[-120.194,65.526],[-119.921,65.731],[-119.511,65.936],[-118.873,66.073],[-118.668,66.039],[-118.577,66.039],[-118.508,65.982],[-118.497,65.811],[-118.508,65.618],[-118.543,65.481],[-118.736,65.207],[-119.01,64.866],[-119.078,64.615],[-119.374,64.015],[-119.518,63.803],[-119.723,63.309],[-119.989,62.884],[-120.498,62.314],[-120.855,61.98],[-121.083,61.813],[-121.356,61.752],[-121.797,61.843],[-122.307,61.899],[-122.332,61.874],[-122.332,61.833],[-122.327,61.803],[-122.287,61.762],[-122.272,61.666],[-122.327,61.575],[-122.55,61.575],[-122.656,61.545],[-122.955,61.393],[-123.077,61.368],[-123.188,61.383],[-123.401,61.535],[-123.517,61.575],[-123.679,61.798],[-123.947,61.899],[-124.008,62.0],[-124.064,62.248],[-124.064,62.431],[-123.973,63.21],[-123.978,63.585],[-123.942,63.651],[-123.856,63.666],[-123.735,63.641],[-123.512,63.529],[-123.451,63.463],[-123.34,63.393],[-123.156,63.305]]]}},{"type":"Feature","properties":{"density":3},"geometry":{"type":"Polygon","coordinates":[[[-107.134,56.368],[-106.959,56.5],[-106.777,56.682],[-106.511,57.229],[-106.232,57.677],[-105.668,58.036],[-104.933,58.19],[-104.387,58.121],[-104.25,58.036],[-103.902,57.89],[-103.819,57.806],[-103.773,57.502],[-103.834,57.214],[-104.009,56.872],[-104.176,56.447],[-105.011,55.764],[-105.193,55.65],[-105.71,55.376],[-105.884,55.338],[-106.591,55.346],[-107.297,55.407],[-107.578,55.467],[-107.692,55.558],[-107.76,55.65],[-107.783,55.839],[-107.631,56.257],[-107.441,56.356],[-107.229,56.379],[-107.134,56.368]]]}},{"type":"Feature","properties":{"density":3},"geometry":{"type":"Polygon","coordinates":[[[-113.099,47.4],[-113.25,47.458],[-113.302,47.508],[-113.444,47.809],[-113.435,47.848],[-113.412,47.859],[-113.365,47.823],[-113.259,47.616],[-113.14,47.503],[-113.023,47.458],[-113.018,47.395],[-113.077,47.386],[-113.099,47.4]]]}},{"type":"Feature","properties":{"density":3},"geometry":{"type":"Polygon","coordinates":[[[-101.644,53.882],[-101.336,54.11],[-101.063,54.475],[-100.755,54.987],[-100.63,55.226],[-100.459,55.329],[-100.026,55.317],[-99.502,55.147],[-98.625,54.429],[-98.317,53.905],[-97.919,53.37],[-97.816,52.96],[-97.907,52.607],[-98.181,52.367],[-98.602,52.299],[-99.058,52.299],[-99.548,52.322],[-100.083,52.458],[-100.504,52.629],[-101.233,52.812],[-101.507,52.766],[-101.769,52.698],[-101.985,52.698],[-102.236,52.766],[-102.281,52.914],[-102.156,53.244],[-101.837,53.78],[-101.769,53.837],[-101.644,53.882]]]}},{"type":"Feature","properties":{"density":3},"geometry":{"type":"Polygon","coordinates":[[[-76.144,20.473],[-76.074,20.511],[-76.041,20.511],[-76.015,20.469],[-76.032,20.382],[-76.114,20.431],[-76.214,20.419],[-76.333,20.443],[-76.306,20.47],[-76.144,20.473]]]}},{"type":"Feature","properties":{"density":3},"geometry":{"type":"Polygon","coordinates":[[[-121.464,35.962],[-121.28,35.998],[-121.173,35.98],[-121.094,35.92],[-121.051,35.829],[-121.043,35.776],[-121.106,35.733],[-121.134,35.735],[-121.238,35.797],[-121.317,35.866],[-121.384,35.888],[-121.462,35.89],[-121.479,35.94],[-121.464,35.962]]]}},{"type":"Feature","properties":{"density":3},"geometry":{"type":"Polygon","coordinates":[[[-121.802,36.251],[-121.575,35.993],[-121.468,35.898],[-121.189,35.874],[-120.97,35.793],[-120.904,35.786],[-120.882,35.808],[-120.884,35.881],[-120.954,35.962],[-121.112,36.019],[-121.196,36.028],[-121.365,35.993],[-121.492,36.012],[-121.606,36.109],[-121.746,36.287],[-121.801,36.286],[-121.802,36.251]]]}},{"type":"Feature","properties":{"density":3},"geometry":{"type":"Polygon","coordinates":[[[-121.469,35.975],[-121.237,36.068],[-120.837,36.27],[-120.741,36.296],[-120.668,36.289],[-120.615,36.239],[-120.637,36.147],[-120.712,36.061],[-120.774,35.954],[-120.815,35.916],[-120.931,35.866],[-121.087,35.852],[-121.432,35.877],[-121.484,35.914],[-121.469,35.975]]]}}]}