{"type":"FeatureCollection","features":[{"type":"Feature","properties":{"density":1},"geometry":{"type":"Polygon","coordinates":[[[-75.798,20.774],[-76.004,20.836],[-76.133,20.858],[-76.325,20.823],[-76.35,20.79],[-76.333,20.761],[-76.242,20.739],[-75.874,20.731],[-75.701,20.701],[-75.631,20.715],[-75.644,20.736],[-75.701,20.761],[-75.798,20.774]]]}},{"type":"Feature","properties":{"density":1},"geometry":{"type":"Polygon","coordinates":[[[-82.204,24.295],[-82.234,24.34],[-82.25,24.34],[-82.264,24.286],[-82.258,24.038],[-82.147,23.662],[-82.055,23.254],[-82.007,23.179],[-81.969,23.149],[-81.939,23.181],[-81.942,23.203],[-82.026,23.416],[-82.161,23.976],[-82.207,24.211],[-82.204,24.295]]]}},{"type":"Feature","properties":{"density":1},"geometry":{"type":"Polygon","coordinates":[[[-81.864,24.065],[-81.931,23.97],[-81.939,23.808],[-81.861,23.56],[-81.783,23.387],[-81.669,23.171],[-81.656,23.157],[-81.607,23.154],[-81.596,23.173],[-81.604,23.219],[-81.777,23.538],[-81.812,23.633],[-81.829,23.762],[-81.796,24.022],[-81.826,24.073],[-81.864,24.065]]]}},{"type":"Feature","properties":{"density":1},"geometry":{"type":"Polygon","coordinates":[[[-81.518,23.878],[-81.526,23.889],[-81.569,23.881],[-81.585,23.778],[-81.529,23.619],[-81.502,23.449],[-81.383,23.168],[-81.342,23.108],[-81.261,23.068],[-81.245,23.122],[-81.256,23.157],[-81.326,23.235],[-81.375,23.335],[-81.423,23.565],[-81.518,23.878]]]}},{"type":"Feature","properties":{"density":1},"geometry":{"type":"Polygon","coordinates":[[[-93.994,31.492],[-94.026,31.48],[-93.991,31.439],[-93.882,31.395],[-93.736,31.369],[-93.417,31.343],[-93.247,31.366],[-93.285,31.392],[-93.555,31.419],[-93.994,31.492]]]}},{"type":"Feature","properties":{"density":1},"geometry":{"type":"Polygon","coordinates":[[[-92.369,32.53],[-92.385,32.511],[-92.373,32.499],[-92.268,32.472],[-92.246,32.482],[-92.244,32.497],[-92.283,32.519],[-92.369,32.53]]]}},{"type":"Feature","properties":{"density":1},"geometry":{"type":"Polygon","coordinates":[[[-96.039,31.665],[-96.057,31.649],[-95.988,31.6],[-95.865,31.581],[-95.867,31.602],[-95.898,31.62],[-96.039,31.665]]]}},{"type":"Feature","properties":{"density":1},"geometry":{"type":"Polygon","coordinates":[[[-96.627,35.307],[-96.741,35.316],[-96.855,35.281],[-96.886,35.246],[-96.89,35.109],[-96.864,35.035],[-96.679,34.723],[-96.565,34.381],[-96.512,34.297],[-96.429,34.249],[-96.363,34.244],[-96.315,34.288],[-96.302,34.354],[-96.297,34.442],[-96.319,34.648],[-96.302,34.947],[-96.354,35.092],[-96.429,35.189],[-96.627,35.307]]]}},{"type":"Feature","properties":{"density":1},"geometry":{"type":"Polygon","coordinates":[[[-95.768,45.866],[-95.801,45.858],[-95.839,45.688],[-95.83,45.664],[-95.783,45.667],[-95.733,45.743],[-95.733,45.825],[-95.768,45.866]]]}},{"type":"Feature","properties":{"density":1},"geometry":{"type":"Polygon","coordinates":[[[-106.306,45.184],[-106.672,45.194],[-106.77,45.184],[-106.919,45.125],[-107.087,45.006],[-107.245,44.799],[-107.215,44.749],[-107.166,44.729],[-106.948,44.739],[-106.484,44.828],[-106.197,44.828],[-106.059,44.868],[-106.0,44.907],[-106.0,44.967],[-106.059,45.026],[-106.237,45.164],[-106.306,45.184]]]}},{"type":"Feature","properties":{"density":1},"geometry":{"type":"Polygon","coordinates":[[[-112.068,37.086],[-112.147,37.072],[-112.205,37.011],[-112.231,36.923],[-112.24,36.765],[-112.196,36.73],[-112.152,36.734],[-112.121,36.761],[-112.095,36.875],[-112.029,36.971],[-112.033,37.024],[-112.068,37.086]]]}},{"type":"Feature","properties":{"density":1},"geometry":{"type":"Polygon","coordinates":[[[-79.176,46.554],[-79.701,47.004],[-81.052,47.905],[-81.652,48.28],[-82.327,48.58],[-83.228,48.805],[-84.653,48.955],[-85.779,48.955],[-87.129,49.105],[-88.405,49.33],[-90.806,49.931],[-91.931,50.306],[-92.907,50.681],[-93.882,50.981],[-95.007,51.131],[-96.583,51.131],[-97.258,50.906],[-98.309,50.381],[-98.909,50.006],[-99.809,49.255],[-100.26,48.655],[-100.71,48.28],[-101.085,48.055],[-102.436,47.379],[-102.961,47.229],[-103.861,46.704],[-104.461,46.479],[-105.062,46.104],[-105.587,45.879],[-106.037,45.504],[-106.487,45.054],[-106.562,44.528],[-106.487,44.078],[-105.887,42.878],[-105.812,42.202],[-105.812,41.677],[-105.962,41.002],[-106.262,40.101],[-106.637,39.126],[-107.012,38.076],[-107.163,37.4],[-107.163,36.65],[-106.862,36.275],[-106.187,36.2],[-105.437,36.35],[-104.011,36.875],[-103.561,37.175],[-103.261,37.475],[-102.811,37.85],[-102.511,38.301],[-102.436,38.751],[-102.21,39.651],[-101.91,40.402],[-101.61,41.002],[-100.385,41.677],[-99.534,41.677],[-99.034,41.427],[-98.734,41.127],[-98.684,40.827],[-98.684,40.377],[-98.984,39.776],[-99.985,38.376],[-101.885,36.725],[-102.035,36.425],[-102.185,36.025],[-102.336,35.525],[-102.436,34.974],[-102.486,34.474],[-102.836,33.824],[-103.336,33.224],[-103.636,33.023],[-104.286,32.473],[-105.42,31.389],[-105.62,31.123],[-105.787,30.756],[-105.887,30.489],[-105.987,30.122],[-106.087,29.222],[-106.087,28.788],[-106.12,28.321],[-106.12,27.888],[-105.987,27.021],[-105.787,26.487],[-105.554,26.087],[-105.253,25.72],[-104.953,25.454],[-104.12,25.053],[-103.086,24.987],[-102.586,25.053],[-102.052,25.22],[-100.885,25.62],[-100.285,25.754],[-99.618,25.754],[-98.284,25.387],[-97.55,25.22],[-96.75,25.12],[-96.216,25.087],[-95.783,25.12],[-95.516,25.187],[-93.808,25.706],[-93.467,25.854],[-92.904,26.15],[-92.43,26.461],[-92.103,26.699],[-91.763,27.025],[-91.54,27.306],[-91.273,27.692],[-91.022,28.136],[-90.74,28.566],[-90.592,28.848],[-90.11,29.663],[-89.999,29.952],[-89.977,30.285],[-89.977,30.619],[-90.021,30.952],[-90.177,31.508],[-90.288,31.708],[-90.821,32.219],[-91.444,32.664],[-91.555,32.797],[-91.711,32.998],[-91.8,33.175],[-91.889,33.42],[-91.933,33.664],[-91.955,34.042],[-91.933,34.998],[-91.977,35.287],[-92.044,35.532],[-92.089,35.799],[-92.111,36.199],[-92.111,36.799],[-91.911,37.533],[-91.844,38.0],[-91.666,38.578],[-91.166,39.623],[-90.999,39.789],[-90.699,40.156],[-89.966,40.756],[-88.765,41.657],[-88.198,41.99],[-87.765,42.19],[-86.864,42.557],[-85.897,42.924],[-84.663,43.257],[-82.829,43.991],[-82.129,44.158],[-81.295,44.258],[-80.428,44.291],[-78.794,44.291],[-78.461,44.258],[-77.727,44.258],[-77.36,44.358],[-76.993,44.625],[-76.86,44.991],[-76.893,45.258],[-77.127,45.592],[-77.394,45.858],[-77.66,45.959],[-77.994,46.025],[-78.828,46.259],[-79.176,46.554]]]}},{"type":"Feature","properties":{"density":1},"geometry":{"type":"Polygon","coordinates":[[[-106.976,24.707],[-107.105,24.846],[-107.273,25.063],[-107.717,25.725],[-108.024,26.012],[-108.221,26.13],[-108.557,26.269],[-108.982,26.417],[-109.249,26.575],[-109.93,27.069],[-110.168,27.187],[-110.464,27.276],[-110.948,27.346],[-111.185,27.365],[-111.432,27.306],[-111.511,27.257],[-111.699,27.079],[-111.837,26.861],[-111.877,26.723],[-111.936,26.288],[-111.907,26.081],[-111.828,25.834],[-111.59,25.389],[-111.432,25.162],[-111.106,24.816],[-110.82,24.441],[-110.731,24.233],[-110.681,23.907],[-110.681,23.818],[-110.721,23.68],[-110.78,23.561],[-110.869,23.462],[-111.087,23.275],[-111.304,23.018],[-111.492,22.702],[-111.551,22.514],[-111.571,22.227],[-111.561,22.04],[-111.462,21.723],[-111.343,21.467],[-111.037,21.101],[-110.938,21.042],[-110.83,21.002],[-110.434,20.992],[-109.921,21.042],[-109.595,21.17],[-109.15,21.407],[-108.942,21.555],[-108.666,21.783],[-108.468,21.97],[-108.182,22.198],[-107.885,22.376],[-107.381,22.603],[-107.055,22.82],[-106.828,23.047],[-106.709,23.314],[-106.63,23.63],[-106.62,23.848],[-106.64,24.105],[-106.729,24.322],[-106.858,24.49],[-106.976,24.707]]]}},{"type":"Feature","properties":{"density":2},"geometry":{"type":"Polygon","coordinates":[[[-96.986,48.516],[-97.32,48.583],[-98.12,48.583],[-98.587,48.538],[-98.92,48.427],[-99.276,48.227],[-99.609,47.96],[-99.943,47.671],[-100.365,47.227],[-100.632,47.004],[-101.299,46.671],[-101.632,46.537],[-102.322,46.382],[-102.677,46.226],[-103.3,45.826],[-103.567,45.693],[-103.9,45.648],[-104.234,45.537],[-104.367,45.337],[-104.345,45.115],[-104.145,44.937],[-103.856,44.848],[-103.433,44.826],[-102.989,44.848],[-102.122,44.937],[-101.788,44.915],[-101.632,44.759],[-101.61,44.559],[-101.677,44.359],[-101.877,44.159],[-102.633,43.736],[-102.744,43.625],[-102.744,43.425],[-102.544,43.358],[-102.144,43.336],[-101.81,43.336],[-101.432,43.425],[-100.966,43.581],[-100.01,44.092],[-99.743,44.292],[-99.143,44.626],[-98.653,45.003],[-98.364,45.292],[-97.786,45.737],[-97.431,45.959],[-96.653,46.337],[-95.941,46.804],[-95.741,47.004],[-95.63,47.293],[-95.63,47.516],[-95.674,47.738],[-95.808,47.916],[-96.097,48.094],[-96.341,48.205],[-96.519,48.316],[-96.986,48.516]]]}},{"type":"Feature","properties":{"density":2},"geometry":{"type":"Polygon","coordinates":[[[-102.722,42.602],[-102.9,42.669],[-103.144,42.647],[-103.389,42.514],[-103.611,42.425],[-104.611,42.336],[-104.723,42.269],[-104.812,42.18],[-104.856,42.002],[-104.878,41.78],[-104.878,41.269],[-104.923,41.002],[-105.212,40.602],[-105.301,40.402],[-105.323,40.179],[-105.278,39.735],[-105.634,39.134],[-105.679,38.756],[-105.679,38.445],[-105.545,38.178],[-105.345,38.001],[-105.101,37.823],[-104.656,37.689],[-104.278,37.623],[-103.922,37.667],[-103.611,37.8],[-103.344,38.001],[-103.166,38.223],[-103.078,38.467],[-103.055,38.712],[-103.055,39.001],[-103.078,39.312],[-103.122,39.601],[-103.122,39.912],[-103.055,40.179],[-102.855,40.535],[-102.633,40.757],[-102.388,40.935],[-102.144,41.157],[-102.033,41.38],[-102.033,41.58],[-102.055,41.758],[-102.21,42.047],[-102.477,42.402],[-102.722,42.602]]]}},{"type":"Feature","properties":{"density":2},"geometry":{"type":"Polygon","coordinates":[[[-93.54,34.733],[-93.829,34.71],[-94.274,34.644],[-95.119,34.488],[-95.43,34.377],[-96.008,34.043],[-96.186,33.865],[-96.319,33.665],[-96.453,33.354],[-96.497,33.176],[-96.497,32.998],[-96.653,32.576],[-96.786,32.287],[-96.919,32.065],[-97.32,31.487],[-97.453,31.198],[-97.52,30.775],[-97.52,30.509],[-97.453,30.22],[-97.275,29.997],[-97.053,29.775],[-96.475,29.441],[-96.119,29.375],[-95.897,29.375],[-95.719,29.419],[-95.474,29.575],[-95.163,29.975],[-95.096,30.175],[-95.074,30.397],[-95.119,30.642],[-95.296,31.087],[-95.408,31.553],[-95.408,31.798],[-95.341,32.087],[-95.208,32.443],[-94.985,32.732],[-94.83,32.843],[-94.585,32.932],[-94.407,32.976],[-93.963,33.043],[-93.696,33.11],[-93.518,33.199],[-92.918,33.421],[-92.673,33.554],[-92.429,33.754],[-92.273,34.021],[-92.206,34.177],[-92.206,34.577],[-92.251,34.71],[-92.406,34.821],[-92.606,34.844],[-92.984,34.844],[-93.54,34.733]]]}}]}