{"type":"FeatureCollection","features":[{"type":"Feature","properties":{"density":1},"geometry":{"type":"Polygon","coordinates":[[[-122.948,39.271],[-122.68,39.036],[-122.658,38.972],[-122.67,38.95],[-122.7,38.932],[-122.852,38.944],[-122.98,39.006],[-122.992,39.058],[-122.986,39.21],[-122.975,39.252],[-122.948,39.271]]]}},{"type":"Feature","properties":{"density":1},"geometry":{"type":"Polygon","coordinates":[[[-93.534,32.051],[-93.418,32.105],[-93.375,32.11],[-93.369,32.099],[-93.399,32.048],[-93.467,32.01],[-93.536,32.005],[-93.546,32.033],[-93.534,32.051]]]}},{"type":"Feature","properties":{"density":1},"geometry":{"type":"Polygon","coordinates":[[[-95.149,31.215],[-95.149,31.282],[-95.122,31.376],[-95.064,31.447],[-95.016,31.476],[-94.991,31.474],[-94.964,31.414],[-95.0,31.329],[-95.087,31.225],[-95.123,31.206],[-95.149,31.215]]]}},{"type":"Feature","properties":{"density":1},"geometry":{"type":"Polygon","coordinates":[[[-88.728,36.649],[-88.939,36.626],[-88.979,36.604],[-88.943,36.579],[-88.855,36.58],[-88.74,36.612],[-88.712,36.641],[-88.728,36.649]]]}},{"type":"Feature","properties":{"density":1},"geometry":{"type":"Polygon","coordinates":[[[-88.577,36.598],[-88.775,36.58],[-88.846,36.562],[-88.868,36.531],[-88.846,36.518],[-88.774,36.523],[-88.565,36.565],[-88.547,36.587],[-88.577,36.598]]]}},{"type":"Feature","properties":{"density":1},"geometry":{"type":"Polygon","coordinates":[[[-98.287,35.386],[-98.227,35.686],[-98.164,35.884],[-98.096,36.015],[-97.94,36.187],[-97.775,36.239],[-97.714,36.243],[-97.659,36.223],[-97.658,36.18],[-97.933,35.768],[-98.026,35.584],[-98.158,35.447],[-98.217,35.316],[-98.248,35.308],[-98.275,35.325],[-98.287,35.386]]]}},{"type":"Feature","properties":{"density":1},"geometry":{"type":"Polygon","coordinates":[[[-80.268,34.639],[-80.312,34.595],[-80.286,34.533],[-80.237,34.591],[-80.238,34.634],[-80.268,34.639]]]}},{"type":"Feature","properties":{"density":1},"geometry":{"type":"Polygon","coordinates":[[[-90.947,57.705],[-90.522,57.78],[-89.909,57.801],[-89.208,57.776],[-88.546,57.575],[-87.795,56.95],[-86.682,56.15],[-84.806,55.27],[-82.838,54.158],[-81.425,53.023],[-80.175,52.305],[-78.623,50.754],[-77.396,49.781],[-76.261,48.623],[-74.346,46.174],[-73.945,45.727],[-73.327,44.985],[-72.586,44.352],[-71.753,43.689],[-71.284,43.587],[-70.872,43.586],[-69.882,44.054],[-68.899,44.415],[-68.485,44.714],[-68.04,44.96],[-67.395,45.105],[-66.873,45.29],[-66.482,45.182],[-66.336,45.052],[-66.283,44.837],[-66.528,44.361],[-67.134,43.832],[-67.549,43.156],[-67.813,42.594],[-67.628,41.955],[-67.378,41.233],[-67.22,40.695],[-67.156,40.102],[-67.248,39.361],[-67.697,38.676],[-67.892,38.176],[-68.489,37.3],[-69.17,36.578],[-69.573,35.952],[-70.296,35.077],[-70.754,34.216],[-71.991,33.146],[-72.658,32.312],[-73.325,31.659],[-73.978,31.117],[-75.201,30.436],[-76.229,29.714],[-77.063,29.158],[-78.174,28.574],[-79.133,28.143],[-80.064,28.104],[-81.435,27.947],[-82.75,28.048],[-83.862,28.086],[-85.511,27.984],[-86.056,27.7],[-86.378,27.247],[-86.531,26.71],[-86.554,26.088],[-86.393,25.62],[-86.079,25.144],[-85.772,24.745],[-85.457,24.254],[-85.104,23.801],[-84.626,23.523],[-82.806,23.482],[-81.333,23.565],[-80.819,23.551],[-80.096,23.509],[-79.165,23.329],[-78.082,22.954],[-76.984,22.509],[-75.594,21.995],[-74.038,21.522],[-73.204,21.036],[-72.69,20.591],[-72.371,19.938],[-72.232,19.341],[-72.454,18.452],[-72.885,17.618],[-73.732,16.659],[-74.483,16.228],[-75.442,15.895],[-78.304,15.186],[-79.263,15.075],[-80.249,15.02],[-81.347,14.936],[-82.111,14.978],[-83.209,14.964],[-87.565,14.651],[-88.454,14.61],[-89.469,14.54],[-90.441,14.54],[-91.553,14.61],[-92.553,14.763],[-93.734,14.915],[-94.985,15.124],[-95.971,15.318],[-96.847,15.61],[-97.764,15.971],[-99.853,16.645],[-100.27,16.937],[-100.868,17.271],[-101.479,17.562],[-102.077,17.715],[-102.702,17.423],[-103.049,16.882],[-103.146,16.312],[-103.077,15.27],[-102.994,14.728],[-102.952,14.186],[-103.063,13.658],[-103.327,13.088],[-103.723,12.657],[-104.084,12.102],[-104.515,11.657],[-105.224,11.268],[-106.321,10.754],[-107.447,10.184],[-108.434,9.892],[-109.212,9.92],[-110.018,10.198],[-110.796,10.684],[-111.449,11.198],[-111.921,11.699],[-112.352,12.352],[-112.685,13.116],[-112.713,13.852],[-112.546,14.492],[-112.199,15.089],[-111.754,15.561],[-111.477,16.089],[-111.435,16.548],[-111.685,17.284],[-112.153,17.742],[-112.962,17.9],[-113.837,18.158],[-114.671,18.367],[-115.155,18.592],[-115.892,18.986],[-116.605,19.223],[-118.569,19.238],[-119.219,19.188],[-120.182,19.451],[-121.057,19.938],[-121.657,20.389],[-122.033,20.839],[-122.02,21.514],[-121.57,22.077],[-120.932,22.577],[-119.331,23.728],[-117.843,24.691],[-116.73,25.653],[-116.136,26.326],[-115.642,27.067],[-115.205,27.954],[-114.592,28.467],[-113.829,28.817],[-112.909,29.565],[-112.159,30.203],[-111.421,30.553],[-110.696,30.678],[-110.083,30.566],[-109.445,30.228],[-109.008,29.503],[-108.882,28.827],[-108.795,28.002],[-108.845,27.302],[-109.083,26.576],[-109.645,25.926],[-110.058,25.263],[-110.44,23.89],[-110.477,23.565],[-110.49,22.977],[-110.265,22.389],[-110.027,21.839],[-109.627,21.377],[-109.189,21.001],[-108.589,20.801],[-107.889,20.776],[-107.214,20.839],[-106.726,20.826],[-105.488,20.439],[-104.825,20.514],[-104.262,20.776],[-103.537,21.139],[-103.487,21.62],[-103.637,22.408],[-104.087,23.459],[-104.594,24.49],[-105.932,26.316],[-106.394,27.004],[-106.569,27.867],[-106.72,28.817],[-106.795,29.705],[-106.732,30.843],[-106.46,32.397],[-105.447,34.564],[-104.856,35.548],[-102.774,37.912],[-101.423,39.15],[-100.326,39.966],[-99.257,40.641],[-98.3,41.035],[-97.574,40.91],[-96.59,40.769],[-95.689,40.375],[-94.873,39.953],[-93.035,39.493],[-92.134,39.4],[-90.334,39.362],[-89.733,39.531],[-88.983,39.925],[-88.439,40.319],[-88.214,40.75],[-88.252,41.257],[-88.552,41.688],[-88.927,42.063],[-89.396,42.382],[-90.221,43.489],[-90.699,44.22],[-91.206,45.43],[-91.234,46.725],[-91.122,47.569],[-90.868,48.497],[-90.334,49.707],[-90.193,50.523],[-90.334,51.592],[-90.756,52.324],[-92.36,53.759],[-92.697,54.153],[-93.26,54.547],[-93.474,54.839],[-93.654,55.222],[-93.629,55.491],[-93.57,55.785],[-93.426,55.984],[-93.176,56.123],[-92.34,56.354],[-92.045,56.404],[-91.741,56.545],[-91.712,56.732],[-91.747,56.854],[-91.984,57.01],[-92.262,57.116],[-92.401,57.193],[-92.473,57.299],[-92.357,57.455],[-92.101,57.538],[-91.394,57.562],[-90.947,57.705]]]}},{"type":"Feature","properties":{"density":1},"geometry":{"type":"Polygon","coordinates":[[[-92.935,17.737],[-93.273,17.876],[-93.316,17.909],[-93.344,17.981],[-93.299,18.002],[-93.25,17.988],[-92.936,17.817],[-92.892,17.768],[-92.898,17.737],[-92.935,17.737]]]}},{"type":"Feature","properties":{"density":1},"geometry":{"type":"Polygon","coordinates":[[[-123.492,44.689],[-124.117,44.462],[-124.751,44.098],[-125.185,43.752],[-125.62,43.317],[-126.119,42.908],[-126.49,42.499],[-127.053,41.834],[-127.36,41.399],[-127.411,40.491],[-127.257,39.404],[-126.899,38.636],[-126.528,37.306],[-126.017,36.078],[-125.39,34.748],[-124.623,33.802],[-124.039,32.447],[-123.84,32.111],[-123.518,31.743],[-123.12,31.577],[-122.786,31.876],[-122.589,32.216],[-122.142,32.548],[-121.515,32.945],[-120.888,33.111],[-120.142,33.23],[-119.554,33.418],[-119.093,33.717],[-118.872,33.981],[-118.71,34.348],[-118.761,34.561],[-119.076,34.748],[-119.417,34.868],[-119.972,35.158],[-120.483,35.507],[-121.6,36.982],[-122.171,37.946],[-122.521,38.355],[-122.981,38.952],[-123.382,39.549],[-123.493,40.069],[-123.502,40.913],[-123.45,41.305],[-122.733,42.309],[-122.402,43.076],[-122.345,43.576],[-122.419,44.372],[-122.65,44.67],[-122.904,44.803],[-123.185,44.765],[-123.492,44.689]]]}},{"type":"Feature","properties":{"density":1},"geometry":{"type":"Polygon","coordinates":[[[-121.747,61.153],[-122.077,61.145],[-122.506,61.176],[-123.036,61.276],[-123.611,61.506],[-123.903,61.82],[-123.987,62.266],[-124.106,62.728],[-124.045,62.973],[-123.715,63.234],[-123.278,63.442],[-122.656,63.679],[-122.027,63.841],[-120.5,63.887],[-119.847,63.94],[-119.019,64.155],[-118.075,64.362],[-117.515,64.508],[-116.471,64.823],[-116.08,64.861],[-115.688,64.815],[-114.967,64.662],[-113.992,64.255],[-113.655,64.032],[-113.289,63.979],[-113.067,63.754],[-113.149,63.508],[-113.418,63.198],[-113.732,62.953],[-113.845,62.673],[-113.879,62.287],[-114.418,61.305],[-114.8,60.845],[-115.403,60.436],[-115.911,60.188],[-116.271,60.034],[-116.596,60.094],[-116.871,60.169],[-116.975,60.295],[-116.941,60.459],[-116.992,60.564],[-117.108,60.598],[-117.278,60.609],[-117.524,60.592],[-117.65,60.53],[-117.732,60.422],[-117.957,60.31],[-118.387,60.189],[-118.88,59.965],[-119.28,60.019],[-119.686,60.18],[-120.024,60.38],[-120.339,60.648],[-120.63,60.855],[-120.891,61.001],[-121.213,61.101],[-121.747,61.153]]]}},{"type":"Feature","properties":{"density":2},"geometry":{"type":"Polygon","coordinates":[[[-122.946,39.25],[-122.908,39.2],[-122.955,39.211],[-122.961,39.241],[-122.946,39.25]]]}},{"type":"Feature","properties":{"density":2},"geometry":{"type":"Polygon","coordinates":[[[-95.14,31.22],[-95.119,31.34],[-95.082,31.348],[-95.067,31.299],[-95.082,31.248],[-95.118,31.216],[-95.14,31.22]]]}},{"type":"Feature","properties":{"density":2},"geometry":{"type":"Polygon","coordinates":[[[-98.27,35.364],[-98.222,35.563],[-98.19,35.608],[-98.163,35.611],[-98.139,35.547],[-98.158,35.471],[-98.203,35.414],[-98.231,35.322],[-98.258,35.331],[-98.27,35.364]]]}},{"type":"Feature","properties":{"density":2},"geometry":{"type":"Polygon","coordinates":[[[-121.449,62.029],[-121.23,62.022],[-121.107,62.058],[-120.952,62.022],[-120.694,62.014],[-120.563,61.992],[-120.231,61.862],[-119.685,61.758],[-119.657,61.719],[-119.657,61.682],[-119.699,61.637],[-119.766,61.613],[-119.978,61.59],[-120.462,61.574],[-120.93,61.483],[-121.049,61.48],[-121.151,61.5],[-121.472,61.517],[-121.513,61.542],[-121.524,61.571],[-121.503,61.64],[-121.464,61.686],[-121.262,61.691],[-121.009,61.618],[-120.957,61.616],[-120.933,61.632],[-120.937,61.657],[-120.972,61.691],[-121.031,61.726],[-121.302,61.814],[-121.46,61.888],[-121.792,61.962],[-121.819,61.995],[-121.806,62.021],[-121.631,61.997],[-121.449,62.029]]]}},{"type":"Feature","properties":{"density":3},"geometry":{"type":"Polygon","coordinates":[[[-121.35,61.967],[-121.121,61.928],[-120.975,61.879],[-120.922,61.827],[-120.907,61.766],[-120.916,61.744],[-120.973,61.738],[-121.391,61.852],[-121.421,61.869],[-121.426,61.891],[-121.406,61.931],[-121.35,61.967]]]}}]}