{"type":"FeatureCollection","features":[{"type":"Feature","properties":{"density":1},"geometry":{"type":"Polygon","coordinates":[[[-119.619,37.575],[-119.649,37.612],[-119.655,37.684],[-119.655,37.782],[-119.633,37.839],[-119.592,37.893],[-119.529,37.921],[-119.426,37.936],[-119.385,37.915],[-119.354,37.869],[-119.369,37.83],[-119.537,37.6],[-119.574,37.572],[-119.619,37.575]]]}},{"type":"Feature","properties":{"density":1},"geometry":{"type":"Polygon","coordinates":[[[-104.237,17.57],[-103.852,18.416],[-103.083,18.954],[-102.391,18.992],[-101.546,18.915],[-99.624,18.569],[-98.432,18.839],[-97.24,19.876],[-96.586,20.914],[-96.125,22.414],[-95.664,23.029],[-94.741,23.413],[-93.242,23.836],[-91.589,23.875],[-89.628,23.567],[-87.821,23.183],[-85.246,22.721],[-82.67,22.683],[-81.094,22.914],[-78.941,23.298],[-77.865,23.567],[-76.481,23.336],[-74.366,22.222],[-73.482,21.53],[-71.983,19.492],[-71.637,18.108],[-71.637,16.686],[-72.213,14.84],[-73.098,13.802],[-74.943,13.303],[-77.519,13.38],[-79.556,13.841],[-82.016,14.687],[-83.477,16.032],[-84.554,17.762],[-84.9,18.839],[-85.515,19.992],[-86.053,20.761],[-86.86,21.376],[-87.783,21.722],[-88.552,21.683],[-89.013,21.53],[-89.936,20.645],[-90.166,19.723],[-90.397,18.608],[-90.743,17.416],[-91.051,16.609],[-91.781,15.801],[-93.473,14.956],[-95.01,14.917],[-96.24,14.956],[-97.855,15.34],[-99.278,15.801],[-100.815,15.994],[-102.238,16.147],[-103.122,16.301],[-103.891,16.455],[-104.237,16.878],[-104.275,17.147],[-104.16,17.455],[-104.237,17.57]]]}},{"type":"Feature","properties":{"density":1},"geometry":{"type":"Polygon","coordinates":[[[-78.191,28.67],[-77.961,30.919],[-76.807,33.341],[-74.962,35.821],[-73.059,37.378],[-70.522,38.012],[-67.35,38.416],[-64.986,38.877],[-63.025,39.223],[-61.18,39.627],[-58.701,39.915],[-56.048,39.454],[-54.491,38.531],[-54.087,37.378],[-54.549,36.513],[-55.471,35.936],[-57.317,35.302],[-59.508,34.956],[-61.872,34.495],[-66.37,32.765],[-68.042,31.611],[-69.369,30.112],[-70.81,28.786],[-71.964,27.69],[-74.039,26.652],[-75.25,26.248],[-76.692,26.537],[-77.73,26.998],[-78.134,27.978],[-78.191,28.67]]]}},{"type":"Feature","properties":{"density":1},"geometry":{"type":"Polygon","coordinates":[[[-121.326,46.089],[-121.36,46.068],[-121.377,46.013],[-121.426,45.947],[-121.418,45.92],[-121.314,45.904],[-121.279,45.913],[-121.237,45.952],[-121.221,45.991],[-121.234,46.05],[-121.26,46.073],[-121.326,46.089]]]}},{"type":"Feature","properties":{"density":1},"geometry":{"type":"Polygon","coordinates":[[[-120.395,44.479],[-120.427,44.449],[-120.427,44.426],[-120.384,44.3],[-120.159,44.26],[-120.05,44.21],[-119.996,44.22],[-119.985,44.304],[-119.998,44.357],[-120.092,44.454],[-120.224,44.491],[-120.395,44.479]]]}},{"type":"Feature","properties":{"density":1},"geometry":{"type":"Polygon","coordinates":[[[-96.452,23.1],[-96.955,22.472],[-97.415,22.095],[-97.729,21.76],[-98.168,21.342],[-99.549,20.4],[-100.303,20.17],[-101.244,19.94],[-101.747,19.835],[-103.421,19.752],[-104.404,19.647],[-105.283,19.354],[-105.764,19.145],[-106.12,18.747],[-106.204,18.245],[-105.911,17.596],[-105.555,17.073],[-104.844,16.215],[-103.797,15.378],[-102.584,14.75],[-101.454,14.478],[-100.052,14.143],[-98.419,13.934],[-96.892,13.809],[-95.615,13.746],[-94.255,13.871],[-93.272,13.997],[-92.456,14.374],[-91.87,14.855],[-91.43,15.357],[-91.158,16.11],[-90.949,16.738],[-90.781,17.785],[-90.74,18.475],[-90.719,19.187],[-90.426,20.442],[-90.175,20.986],[-89.589,21.405],[-89.149,21.593],[-88.731,21.74],[-88.187,22.053],[-87.873,22.472],[-87.726,23.183],[-87.726,23.832],[-88.124,24.376],[-88.668,24.753],[-89.296,24.962],[-90.07,25.109],[-91.095,25.276],[-92.1,25.318],[-93.314,25.234],[-94.444,24.941],[-95.364,24.502],[-95.95,23.916],[-96.452,23.1]]]}},{"type":"Feature","properties":{"density":1},"geometry":{"type":"Polygon","coordinates":[[[-78.99,32.035],[-78.707,31.345],[-78.425,30.717],[-77.86,30.183],[-76.667,29.744],[-75.349,29.712],[-74.47,29.932],[-73.591,30.246],[-72.838,30.842],[-71.645,32.6],[-70.515,33.824],[-69.228,34.797],[-67.219,35.959],[-65.587,36.586],[-64.206,37.057],[-62.793,37.34],[-60.721,37.528],[-59.246,37.842],[-58.053,38.407],[-57.52,39.035],[-57.174,39.976],[-57.394,40.95],[-57.928,41.358],[-59.026,41.671],[-60.721,41.703],[-62.071,41.609],[-64.237,41.295],[-65.806,41.044],[-68.255,40.573],[-69.918,40.133],[-71.833,39.537],[-73.12,38.878],[-74.878,37.873],[-76.165,37.057],[-76.793,36.618],[-77.546,35.833],[-78.268,34.986],[-78.864,33.793],[-78.958,32.883],[-78.99,32.035]]]}},{"type":"Feature","properties":{"density":1},"geometry":{"type":"Polygon","coordinates":[[[-118.942,44.343],[-118.973,44.298],[-118.967,44.237],[-118.846,44.12],[-118.794,44.087],[-118.741,44.076],[-118.656,44.106],[-118.642,44.145],[-118.648,44.208],[-118.763,44.33],[-118.877,44.362],[-118.942,44.343]]]}},{"type":"Feature","properties":{"density":1},"geometry":{"type":"Polygon","coordinates":[[[-116.52,45.085],[-116.625,45.05],[-116.649,45.019],[-116.653,44.976],[-116.615,44.939],[-116.561,44.914],[-116.438,44.905],[-116.35,44.935],[-116.325,44.971],[-116.345,45.053],[-116.382,45.078],[-116.52,45.085]]]}},{"type":"Feature","properties":{"density":1},"geometry":{"type":"Polygon","coordinates":[[[-124.014,34.416],[-124.663,33.872],[-125.144,32.847],[-125.709,31.466],[-126.065,30.273],[-126.274,28.997],[-126.295,27.804],[-126.211,26.925],[-125.929,24.759],[-125.584,23.503],[-125.113,22.122],[-124.391,21.087],[-123.543,20.019],[-122.602,19.172],[-121.503,18.366],[-120.582,17.822],[-119.452,17.383],[-118.364,17.215],[-117.088,17.111],[-115.937,17.278],[-115.142,17.571],[-114.723,18.01],[-114.514,18.471],[-114.493,18.952],[-114.66,19.705],[-114.953,20.375],[-115.414,21.066],[-115.79,21.882],[-116.125,23.367],[-116.512,25.732],[-116.826,28.432],[-116.92,29.875],[-117.171,31.57],[-117.517,32.669],[-118.124,33.841],[-118.814,34.531],[-120.017,35.128],[-121.001,35.274],[-123.01,35.023],[-124.014,34.416]]]}},{"type":"Feature","properties":{"density":1},"geometry":{"type":"Polygon","coordinates":[[[-119.669,37.376],[-119.559,37.411],[-119.451,37.474],[-119.366,37.558],[-119.306,37.712],[-119.322,37.801],[-119.366,37.867],[-119.506,37.973],[-119.555,38.238],[-119.601,38.328],[-119.655,38.385],[-119.877,38.414],[-120.197,38.343],[-120.561,38.289],[-120.747,38.293],[-121.117,38.348],[-121.262,38.343],[-121.361,38.295],[-121.422,38.185],[-121.429,38.063],[-121.396,37.918],[-121.342,37.839],[-121.194,37.74],[-120.988,37.635],[-120.777,37.545],[-120.226,37.388],[-120.015,37.36],[-119.669,37.376]]]}},{"type":"Feature","properties":{"density":1},"geometry":{"type":"Polygon","coordinates":[[[-115.464,32.588],[-115.529,32.555],[-115.551,32.499],[-115.545,32.472],[-115.511,32.432],[-115.393,32.412],[-115.197,32.447],[-115.006,32.534],[-114.977,32.576],[-114.995,32.618],[-115.045,32.634],[-115.331,32.587],[-115.464,32.588]]]}},{"type":"Feature","properties":{"density":1},"geometry":{"type":"Polygon","coordinates":[[[-122.359,43.341],[-122.409,43.319],[-122.409,43.306],[-122.295,43.292],[-122.242,43.308],[-122.239,43.321],[-122.28,43.347],[-122.359,43.341]]]}},{"type":"Feature","properties":{"density":1},"geometry":{"type":"Polygon","coordinates":[[[-124.504,34.49],[-125.258,33.737],[-126.042,32.638],[-126.764,31.226],[-127.455,29.437],[-127.894,27.742],[-127.957,26.925],[-127.926,25.921],[-127.8,24.634],[-127.392,23.253],[-126.921,22.06],[-126.262,21.056],[-125.069,19.675],[-124.002,18.701],[-121.397,17.352],[-119.608,16.787],[-118.227,16.598],[-116.971,16.755],[-116.029,17.132],[-115.559,17.917],[-115.339,18.953],[-115.464,20.334],[-115.621,21.589],[-115.433,22.845],[-115.056,24.32],[-115.056,25.419],[-115.307,26.298],[-116.218,27.302],[-117.065,27.867],[-118.195,28.966],[-118.98,30.253],[-119.294,31.665],[-119.608,33.957],[-119.765,34.584],[-120.236,35.087],[-120.895,35.463],[-121.679,35.526],[-122.715,35.338],[-123.531,35.055],[-124.504,34.49]]]}},{"type":"Feature","properties":{"density":1},"geometry":{"type":"Polygon","coordinates":[[[-119.949,38.307],[-119.841,38.357],[-119.717,38.39],[-119.589,38.336],[-119.552,38.287],[-119.512,38.041],[-119.471,37.966],[-119.322,37.892],[-119.251,37.83],[-119.227,37.727],[-119.256,37.582],[-119.359,37.491],[-119.676,37.415],[-119.85,37.419],[-120.027,37.444],[-120.304,37.559],[-120.408,37.621],[-120.573,37.816],[-120.685,38.002],[-120.709,38.113],[-120.705,38.208],[-120.66,38.316],[-120.594,38.361],[-120.486,38.386],[-120.395,38.386],[-120.036,38.287],[-119.949,38.307]]]}},{"type":"Feature","properties":{"density":1},"geometry":{"type":"Polygon","coordinates":[[[-122.482,41.777],[-122.577,41.766],[-122.606,41.738],[-122.629,41.7],[-122.616,41.606],[-122.522,41.485],[-122.487,41.4],[-122.436,41.336],[-122.314,41.279],[-122.248,41.27],[-122.2,41.29],[-122.169,41.331],[-122.156,41.45],[-122.23,41.621],[-122.349,41.733],[-122.482,41.777]]]}},{"type":"Feature","properties":{"density":1},"geometry":{"type":"Polygon","coordinates":[[[-121.395,46.2],[-121.428,46.187],[-121.446,46.139],[-121.418,45.987],[-121.356,45.946],[-121.277,45.954],[-121.229,46.012],[-121.244,46.112],[-121.286,46.163],[-121.395,46.2]]]}},{"type":"Feature","properties":{"density":1},"geometry":{"type":"Polygon","coordinates":[[[-120.419,44.933],[-120.483,44.885],[-120.502,44.841],[-120.487,44.694],[-120.505,44.472],[-120.485,44.415],[-120.454,44.361],[-120.338,44.295],[-120.2,44.28],[-120.134,44.299],[-120.11,44.325],[-120.116,44.389],[-120.222,44.523],[-120.235,44.562],[-120.243,44.795],[-120.263,44.876],[-120.288,44.918],[-120.336,44.944],[-120.419,44.933]]]}},{"type":"Feature","properties":{"density":1},"geometry":{"type":"Polygon","coordinates":[[[-118.935,44.415],[-119.018,44.377],[-119.042,44.341],[-119.042,44.239],[-118.987,44.17],[-118.94,44.126],[-118.816,44.062],[-118.742,44.046],[-118.648,44.049],[-118.599,44.073],[-118.571,44.115],[-118.574,44.167],[-118.613,44.261],[-118.676,44.335],[-118.772,44.393],[-118.935,44.415]]]}},{"type":"Feature","properties":{"density":1},"geometry":{"type":"Polygon","coordinates":[[[-116.516,45.144],[-116.575,45.124],[-116.643,45.069],[-116.663,45.01],[-116.645,44.951],[-116.617,44.927],[-116.555,44.911],[-116.377,44.892],[-116.311,44.916],[-116.27,44.982],[-116.267,45.028],[-116.285,45.076],[-116.314,45.105],[-116.41,45.148],[-116.516,45.144]]]}},{"type":"Feature","properties":{"density":1},"geometry":{"type":"Polygon","coordinates":[[[-101.974,17.956],[-101.723,17.412],[-101.29,16.882],[-100.76,16.505],[-100.341,16.157],[-99.895,15.836],[-99.477,15.585],[-98.877,15.152],[-98.319,14.901],[-97.607,14.706],[-97.007,14.58],[-96.1,14.427],[-95.403,14.399],[-94.664,14.469],[-94.106,14.594],[-93.366,14.901],[-93.017,15.18],[-92.362,15.808],[-92.069,16.38],[-91.957,16.756],[-91.873,17.356],[-91.832,18.152],[-91.636,18.807],[-91.19,19.351],[-90.646,19.812],[-90.227,20.272],[-89.879,20.621],[-89.362,21.346],[-88.93,21.89],[-88.679,22.351],[-88.511,22.965],[-88.595,23.648],[-88.818,24.122],[-89.125,24.541],[-89.6,24.75],[-90.534,24.946],[-92.264,25.127],[-93.087,25.141],[-93.854,24.959],[-94.454,24.722],[-94.803,24.429],[-94.957,24.192],[-94.831,23.676],[-94.44,23.285],[-94.231,22.895],[-94.259,22.56],[-94.426,22.197],[-94.747,21.96],[-95.263,21.946],[-95.738,22.225],[-96.449,23.062],[-97.021,23.202],[-97.607,23.285],[-98.165,23.23],[-98.849,23.076],[-99.644,22.853],[-100.397,22.518],[-100.983,22.141],[-101.653,21.263],[-101.876,20.356],[-102.002,19.547],[-102.071,18.751],[-101.974,17.956]]]}},{"type":"Feature","properties":{"density":1},"geometry":{"type":"Polygon","coordinates":[[[-72.262,37.522],[-73.361,36.957],[-74.679,36.172],[-75.903,35.513],[-77.661,34.509],[-78.634,33.536],[-79.199,32.751],[-79.576,31.558],[-79.764,30.522],[-79.764,29.612],[-79.67,28.733],[-79.482,27.854],[-79.074,27.038],[-78.634,26.379],[-78.007,25.783],[-76.845,25.312],[-75.966,25.218],[-75.276,25.469],[-74.868,25.783],[-74.46,26.316],[-74.271,27.195],[-74.554,28.043],[-75.182,28.733],[-75.621,29.486],[-75.684,30.459],[-75.464,31.213],[-74.899,31.935],[-74.052,32.437],[-73.047,32.563],[-71.854,32.782],[-70.724,33.128],[-69.814,33.755],[-69.092,34.289],[-67.962,35.011],[-66.581,35.764],[-64.792,36.361],[-62.971,36.769],[-61.904,36.926],[-61.057,37.083],[-59.456,37.459],[-57.51,37.993],[-55.689,38.621],[-54.308,39.437],[-53.272,40.159],[-52.707,41.1],[-52.487,41.948],[-52.487,42.387],[-52.958,42.795],[-54.182,42.795],[-55.438,42.544],[-58.326,41.665],[-60.335,41.194],[-62.657,40.535],[-68.213,38.903],[-69.5,38.432],[-71.227,37.93],[-72.262,37.522]]]}},{"type":"Feature","properties":{"density":1},"geometry":{"type":"Polygon","coordinates":[[[-115.332,32.669],[-115.398,32.671],[-115.421,32.65],[-115.43,32.581],[-115.421,32.537],[-115.382,32.478],[-115.299,32.443],[-115.119,32.434],[-115.049,32.454],[-114.952,32.516],[-114.928,32.555],[-114.943,32.619],[-114.989,32.65],[-115.204,32.619],[-115.255,32.625],[-115.332,32.669]]]}},{"type":"Feature","properties":{"density":1},"geometry":{"type":"Polygon","coordinates":[[[-117.577,31.678],[-117.631,31.62],[-117.693,31.455],[-117.677,31.261],[-117.532,31.071],[-117.404,30.992],[-117.234,30.951],[-117.032,30.93],[-116.726,30.938],[-116.61,30.955],[-116.379,31.062],[-116.296,31.133],[-116.222,31.228],[-116.189,31.315],[-116.176,31.405],[-116.222,31.472],[-116.354,31.521],[-116.651,31.529],[-116.928,31.567],[-117.032,31.587],[-117.288,31.691],[-117.371,31.707],[-117.577,31.678]]]}},{"type":"Feature","properties":{"density":1},"geometry":{"type":"Polygon","coordinates":[[[-118.545,32.666],[-118.76,32.654],[-118.9,32.629],[-118.97,32.588],[-118.991,32.559],[-118.995,32.505],[-118.917,32.418],[-118.747,32.356],[-118.545,32.311],[-118.181,32.257],[-117.784,32.24],[-117.441,32.269],[-117.21,32.307],[-116.982,32.385],[-116.949,32.418],[-116.937,32.464],[-116.995,32.522],[-117.09,32.55],[-117.908,32.641],[-118.545,32.666]]]}},{"type":"Feature","properties":{"density":1},"geometry":{"type":"Polygon","coordinates":[[[-115.238,32.586],[-115.335,32.558],[-115.34,32.526],[-115.318,32.501],[-115.268,32.487],[-115.188,32.486],[-115.061,32.512],[-115.0,32.56],[-115.003,32.592],[-115.02,32.603],[-115.099,32.608],[-115.238,32.586]]]}},{"type":"Feature","properties":{"density":1},"geometry":{"type":"Polygon","coordinates":[[[-119.291,34.837],[-119.324,34.774],[-119.354,34.646],[-119.33,34.524],[-119.291,34.458],[-119.225,34.399],[-119.078,34.333],[-118.926,34.311],[-118.737,34.331],[-118.331,34.484],[-118.277,34.543],[-118.31,34.625],[-118.426,34.712],[-118.681,34.848],[-118.858,34.903],[-119.117,34.932],[-119.247,34.888],[-119.291,34.837]]]}},{"type":"Feature","properties":{"density":1},"geometry":{"type":"Polygon","coordinates":[[[-120.261,38.592],[-120.377,38.563],[-120.488,38.592],[-120.563,38.645],[-120.65,38.782],[-120.757,38.873],[-120.831,38.873],[-120.86,38.819],[-120.707,38.328],[-120.694,38.186],[-120.72,38.059],[-120.798,37.976],[-121.067,37.865],[-121.125,37.79],[-121.117,37.712],[-121.063,37.604],[-120.893,37.505],[-120.592,37.422],[-120.009,37.344],[-119.728,37.344],[-119.546,37.364],[-119.401,37.41],[-119.277,37.497],[-119.211,37.592],[-119.17,37.716],[-119.161,37.885],[-119.215,38.038],[-119.467,38.501],[-119.513,38.629],[-119.571,38.724],[-119.645,38.791],[-119.736,38.815],[-119.835,38.811],[-119.922,38.782],[-120.133,38.633],[-120.261,38.592]]]}},{"type":"Feature","properties":{"density":1},"geometry":{"type":"Polygon","coordinates":[[[-122.465,41.913],[-122.563,41.884],[-122.587,41.85],[-122.577,41.681],[-122.605,41.544],[-122.599,41.467],[-122.565,41.4],[-122.456,41.327],[-122.353,41.321],[-122.254,41.345],[-122.19,41.389],[-122.147,41.45],[-122.125,41.522],[-122.136,41.593],[-122.269,41.794],[-122.355,41.891],[-122.465,41.913]]]}},{"type":"Feature","properties":{"density":1},"geometry":{"type":"Polygon","coordinates":[[[-118.915,44.636],[-118.967,44.567],[-119.113,44.443],[-119.146,44.371],[-119.171,44.211],[-119.138,43.864],[-119.108,43.746],[-119.033,43.657],[-118.961,43.627],[-118.895,43.633],[-118.774,43.718],[-118.606,43.955],[-118.507,44.255],[-118.493,44.459],[-118.532,44.658],[-118.587,44.757],[-118.672,44.831],[-118.744,44.859],[-118.81,44.856],[-118.86,44.829],[-118.915,44.636]]]}},{"type":"Feature","properties":{"density":1},"geometry":{"type":"Polygon","coordinates":[[[-120.464,44.497],[-120.431,44.383],[-120.35,44.299],[-120.246,44.306],[-120.205,44.341],[-120.172,44.392],[-120.071,44.677],[-120.058,44.76],[-120.064,44.802],[-120.095,44.846],[-120.141,44.885],[-120.244,44.929],[-120.315,44.942],[-120.422,44.907],[-120.461,44.842],[-120.472,44.789],[-120.479,44.624],[-120.464,44.497]]]}},{"type":"Feature","properties":{"density":1},"geometry":{"type":"Polygon","coordinates":[[[-120.213,42.414],[-120.218,42.387],[-120.201,42.371],[-120.082,42.429],[-120.009,42.495],[-119.993,42.529],[-120.0,42.57],[-120.048,42.595],[-120.102,42.588],[-120.156,42.537],[-120.213,42.414]]]}},{"type":"Feature","properties":{"density":1},"geometry":{"type":"Polygon","coordinates":[[[-121.512,46.484],[-121.637,46.453],[-121.685,46.394],[-121.69,46.342],[-121.641,46.295],[-121.558,46.252],[-121.442,46.089],[-121.389,46.049],[-121.3,46.021],[-121.201,46.035],[-121.186,46.08],[-121.27,46.188],[-121.363,46.406],[-121.455,46.475],[-121.512,46.484]]]}},{"type":"Feature","properties":{"density":1},"geometry":{"type":"Polygon","coordinates":[[[-111.755,28.073],[-111.749,28.0],[-111.716,27.974],[-111.674,27.976],[-111.622,28.02],[-111.512,28.184],[-111.373,28.25],[-111.257,28.281],[-111.242,28.299],[-111.246,28.34],[-111.308,28.397],[-111.358,28.415],[-111.589,28.432],[-111.712,28.395],[-111.744,28.369],[-111.767,28.297],[-111.755,28.073]]]}},{"type":"Feature","properties":{"density":1},"geometry":{"type":"Polygon","coordinates":[[[-115.45,47.727],[-115.441,47.646],[-115.394,47.542],[-115.249,47.416],[-115.161,47.404],[-115.142,47.425],[-115.136,47.487],[-115.107,47.51],[-115.026,47.491],[-114.879,47.401],[-114.762,47.379],[-114.594,47.416],[-114.364,47.538],[-114.266,47.627],[-114.258,47.671],[-114.282,47.71],[-114.323,47.721],[-114.698,47.697],[-114.84,47.674],[-114.935,47.623],[-114.979,47.563],[-115.047,47.555],[-115.094,47.565],[-115.358,47.726],[-115.429,47.741],[-115.45,47.727]]]}},{"type":"Feature","properties":{"density":1},"geometry":{"type":"Polygon","coordinates":[[[-102.271,52.182],[-102.29,52.098],[-102.26,52.01],[-102.144,51.856],[-101.188,51.043],[-100.992,50.905],[-100.874,50.861],[-100.788,50.872],[-100.73,50.913],[-100.716,50.991],[-100.75,51.109],[-100.816,51.206],[-101.064,51.443],[-101.444,51.748],[-101.838,52.002],[-102.006,52.131],[-102.083,52.17],[-102.169,52.189],[-102.238,52.198],[-102.271,52.182]]]}},{"type":"Feature","properties":{"density":1},"geometry":{"type":"Polygon","coordinates":[[[-98.184,48.249],[-98.213,48.257],[-98.259,48.233],[-98.242,48.189],[-97.386,47.437],[-97.23,47.373],[-97.136,47.368],[-97.089,47.402],[-97.068,47.48],[-97.096,47.584],[-97.169,47.656],[-97.842,48.025],[-98.184,48.249]]]}},{"type":"Feature","properties":{"density":1},"geometry":{"type":"Polygon","coordinates":[[[-118.396,30.148],[-118.019,29.499],[-117.559,28.914],[-117.266,28.453],[-116.931,27.784],[-116.575,27.072],[-116.303,26.235],[-116.115,25.586],[-115.968,24.707],[-116.052,23.766],[-116.366,22.678],[-116.847,21.715],[-117.538,20.857],[-118.291,20.439],[-119.233,20.187],[-120.446,20.062],[-121.786,20.25],[-123.376,20.731],[-124.841,21.443],[-125.552,22.05],[-126.159,22.971],[-126.536,23.912],[-126.745,24.582],[-126.703,25.649],[-126.452,26.8],[-126.201,27.846],[-126.054,28.746],[-126.034,31.174],[-125.992,32.157],[-126.096,33.245],[-126.034,34.25],[-126.034,34.773],[-125.929,35.38],[-125.469,36.091],[-124.59,36.782],[-123.732,37.033],[-122.769,36.991],[-121.953,36.635],[-121.242,35.861],[-120.865,34.94],[-120.132,32.91],[-119.839,32.241],[-119.379,31.634],[-118.877,30.901],[-118.396,30.148]]]}},{"type":"Feature","properties":{"density":1},"geometry":{"type":"Polygon","coordinates":[[[-98.275,15.898],[-97.553,15.176],[-96.957,14.768],[-96.172,14.454],[-95.105,14.36],[-93.975,14.517],[-93.096,14.799],[-92.437,15.27],[-91.495,16.18],[-90.836,17.373],[-90.491,18.095],[-90.303,18.723],[-90.271,19.319],[-90.428,19.915],[-91.307,21.485],[-91.621,22.615],[-91.621,23.776],[-91.433,25.032],[-91.401,26.193],[-91.841,27.26],[-92.531,27.763],[-93.818,27.794],[-94.697,27.417],[-95.607,26.664],[-96.015,26.225],[-96.518,25.44],[-97.114,24.435],[-97.773,23.431],[-98.432,21.956],[-98.872,20.606],[-99.123,19.319],[-98.84,17.341],[-98.275,15.898]]]}},{"type":"Feature","properties":{"density":1},"geometry":{"type":"Polygon","coordinates":[[[-79.676,27.31],[-79.153,27.017],[-78.421,26.808],[-77.669,26.931],[-77.135,27.088],[-76.539,27.653],[-76.068,28.469],[-75.848,29.222],[-75.754,30.132],[-75.597,30.886],[-75.189,31.796],[-74.53,32.487],[-74.027,32.801],[-73.211,33.177],[-72.113,33.585],[-70.732,34.025],[-69.79,34.558],[-68.754,35.28],[-67.279,36.096],[-65.678,36.787],[-64.234,37.321],[-62.979,37.666],[-61.315,38.074],[-59.683,38.639],[-58.018,39.342],[-56.637,40.012],[-55.591,40.598],[-54.094,41.532],[-53.219,42.132],[-52.354,42.76],[-51.517,43.318],[-51.029,43.862],[-51.112,44.2],[-51.475,44.323],[-52.019,44.197],[-52.842,43.695],[-54.272,42.931],[-55.451,42.481],[-58.269,41.616],[-60.059,41.181],[-61.429,40.828],[-63.375,40.42],[-65.396,39.926],[-68.962,39.196],[-70.794,38.733],[-71.736,38.356],[-72.897,37.823],[-74.09,37.007],[-74.875,36.159],[-75.44,34.935],[-76.005,33.868],[-76.475,33.295],[-78.17,32.144],[-78.861,31.514],[-79.489,30.854],[-79.772,30.415],[-80.117,29.63],[-80.337,28.94],[-80.22,28.251],[-79.948,27.707],[-79.676,27.31]]]}},{"type":"Feature","properties":{"density":1},"geometry":{"type":"Polygon","coordinates":[[[-111.505,28.506],[-111.579,28.42],[-111.612,28.326],[-111.604,28.232],[-111.577,28.181],[-111.524,28.15],[-111.421,28.146],[-111.312,28.166],[-111.219,28.212],[-111.189,28.247],[-111.149,28.394],[-111.187,28.471],[-111.23,28.495],[-111.397,28.523],[-111.474,28.525],[-111.505,28.506]]]}},{"type":"Feature","properties":{"density":2},"geometry":{"type":"Polygon","coordinates":[[[-119.634,37.633],[-119.64,37.683],[-119.621,37.729],[-119.592,37.746],[-119.553,37.744],[-119.531,37.695],[-119.571,37.593],[-119.6,37.584],[-119.626,37.598],[-119.634,37.633]]]}},{"type":"Feature","properties":{"density":2},"geometry":{"type":"Polygon","coordinates":[[[-92.645,20.141],[-93.044,20.266],[-93.477,20.357],[-93.659,20.38],[-94.069,20.494],[-94.889,20.756],[-95.208,20.881],[-95.618,20.949],[-96.29,20.858],[-96.621,20.596],[-96.86,20.186],[-96.962,19.753],[-96.974,19.275],[-96.78,18.694],[-96.621,18.113],[-96.324,17.475],[-95.983,16.997],[-95.277,16.359],[-94.639,16.006],[-92.531,16.222],[-91.973,16.598],[-91.711,16.803],[-91.552,17.088],[-91.449,17.43],[-91.381,17.726],[-91.529,18.273],[-91.609,18.489],[-91.825,18.808],[-92.042,19.275],[-92.19,19.548],[-92.326,19.753],[-92.429,19.947],[-92.566,20.106],[-92.645,20.141]]]}},{"type":"Feature","properties":{"density":2},"geometry":{"type":"Polygon","coordinates":[[[-121.35,46.048],[-121.362,45.987],[-121.415,45.947],[-121.402,45.92],[-121.285,45.941],[-121.235,45.987],[-121.23,46.018],[-121.26,46.056],[-121.315,46.066],[-121.35,46.048]]]}},{"type":"Feature","properties":{"density":2},"geometry":{"type":"Polygon","coordinates":[[[-120.318,44.449],[-120.371,44.414],[-120.366,44.351],[-120.099,44.298],[-120.065,44.317],[-120.069,44.355],[-120.134,44.41],[-120.248,44.446],[-120.318,44.449]]]}},{"type":"Feature","properties":{"density":2},"geometry":{"type":"Polygon","coordinates":[[[-119.765,37.941],[-119.931,37.858],[-119.958,37.811],[-119.942,37.77],[-119.864,37.741],[-119.826,37.752],[-119.72,37.829],[-119.661,37.847],[-119.599,37.848],[-119.503,37.823],[-119.468,37.772],[-119.504,37.712],[-119.518,37.558],[-119.54,37.538],[-119.581,37.53],[-119.76,37.571],[-120.016,37.574],[-120.27,37.618],[-120.317,37.637],[-120.401,37.72],[-120.592,37.847],[-120.617,37.954],[-120.605,38.011],[-120.571,38.047],[-120.452,38.106],[-120.39,38.114],[-120.179,38.053],[-120.071,38.048],[-120.016,38.062],[-119.873,38.197],[-119.773,38.245],[-119.717,38.255],[-119.666,38.219],[-119.683,38.092],[-119.644,38.001],[-119.653,37.974],[-119.686,37.957],[-119.765,37.941]]]}},{"type":"Feature","properties":{"density":2},"geometry":{"type":"Polygon","coordinates":[[[-115.341,32.527],[-115.429,32.528],[-115.447,32.516],[-115.452,32.478],[-115.401,32.448],[-115.295,32.451],[-115.053,32.533],[-115.021,32.553],[-115.02,32.576],[-115.055,32.597],[-115.235,32.533],[-115.341,32.527]]]}},{"type":"Feature","properties":{"density":2},"geometry":{"type":"Polygon","coordinates":[[[-118.803,44.251],[-118.854,44.251],[-118.871,44.233],[-118.759,44.115],[-118.733,44.102],[-118.675,44.112],[-118.669,44.153],[-118.708,44.207],[-118.803,44.251]]]}},{"type":"Feature","properties":{"density":2},"geometry":{"type":"Polygon","coordinates":[[[-116.539,45.024],[-116.548,44.971],[-116.498,44.933],[-116.385,44.938],[-116.353,44.977],[-116.369,45.017],[-116.404,45.038],[-116.467,45.046],[-116.539,45.024]]]}},{"type":"Feature","properties":{"density":2},"geometry":{"type":"Polygon","coordinates":[[[-95.331,20.928],[-95.415,20.78],[-95.833,20.166],[-95.935,19.915],[-95.991,19.57],[-95.954,19.226],[-95.712,19.05],[-95.461,19.068],[-95.228,19.189],[-95.005,19.477],[-94.819,19.849],[-94.568,20.212],[-94.224,20.426],[-93.917,20.566],[-93.527,20.649],[-93.117,20.612],[-92.745,20.5],[-92.42,20.352],[-92.085,20.073],[-91.908,19.84],[-91.797,19.57],[-91.778,19.105],[-91.862,18.594],[-92.001,18.175],[-92.28,17.645],[-92.652,17.134],[-93.666,16.129],[-94.364,15.813],[-94.94,15.646],[-96.066,15.45],[-96.81,15.478],[-97.442,15.608],[-97.981,15.925],[-98.326,16.39],[-98.409,16.827],[-98.353,17.255],[-98.149,17.98],[-98.028,18.678],[-97.888,19.543],[-97.851,20.203],[-97.74,20.854],[-97.526,21.431],[-97.051,21.84],[-96.707,21.989],[-96.317,22.054],[-95.982,22.054],[-95.694,21.97],[-95.517,21.784],[-95.349,21.57],[-95.294,21.375],[-95.331,20.928]]]}},{"type":"Feature","properties":{"density":2},"geometry":{"type":"Polygon","coordinates":[[[-119.998,37.942],[-120.045,37.957],[-120.122,37.943],[-120.155,37.915],[-120.176,37.83],[-120.097,37.675],[-120.05,37.63],[-119.983,37.597],[-119.534,37.556],[-119.469,37.566],[-119.418,37.595],[-119.36,37.672],[-119.351,37.768],[-119.366,37.816],[-119.416,37.852],[-119.473,37.876],[-119.541,37.874],[-119.616,37.86],[-119.803,37.784],[-119.866,37.788],[-119.998,37.942]]]}},{"type":"Feature","properties":{"density":2},"geometry":{"type":"Polygon","coordinates":[[[-119.824,38.244],[-119.948,38.175],[-119.961,38.123],[-119.923,38.072],[-119.874,38.047],[-119.748,38.032],[-119.726,38.056],[-119.715,38.132],[-119.683,38.186],[-119.683,38.244],[-119.699,38.266],[-119.749,38.281],[-119.778,38.279],[-119.824,38.244]]]}},{"type":"Feature","properties":{"density":2},"geometry":{"type":"Polygon","coordinates":[[[-122.485,41.672],[-122.511,41.646],[-122.512,41.608],[-122.433,41.521],[-122.42,41.433],[-122.37,41.413],[-122.338,41.428],[-122.304,41.486],[-122.329,41.608],[-122.41,41.673],[-122.485,41.672]]]}},{"type":"Feature","properties":{"density":2},"geometry":{"type":"Polygon","coordinates":[[[-120.429,44.379],[-120.376,44.346],[-120.297,44.333],[-120.247,44.337],[-120.214,44.366],[-120.223,44.404],[-120.33,44.441],[-120.352,44.482],[-120.356,44.524],[-120.291,44.618],[-120.282,44.666],[-120.306,44.746],[-120.341,44.763],[-120.422,44.754],[-120.457,44.688],[-120.481,44.471],[-120.455,44.401],[-120.429,44.379]]]}},{"type":"Feature","properties":{"density":2},"geometry":{"type":"Polygon","coordinates":[[[-121.37,46.01],[-121.323,45.982],[-121.283,45.989],[-121.256,46.02],[-121.263,46.081],[-121.302,46.116],[-121.367,46.116],[-121.37,46.01]]]}},{"type":"Feature","properties":{"density":2},"geometry":{"type":"Polygon","coordinates":[[[-118.755,44.137],[-118.73,44.1],[-118.682,44.11],[-118.688,44.164],[-118.736,44.27],[-118.763,44.302],[-118.81,44.315],[-118.829,44.284],[-118.755,44.137]]]}},{"type":"Feature","properties":{"density":2},"geometry":{"type":"Polygon","coordinates":[[[-116.593,45.034],[-116.602,44.981],[-116.555,44.957],[-116.399,44.942],[-116.345,44.975],[-116.354,45.036],[-116.409,45.089],[-116.443,45.099],[-116.514,45.094],[-116.593,45.034]]]}},{"type":"Feature","properties":{"density":2},"geometry":{"type":"Polygon","coordinates":[[[-115.241,32.573],[-115.322,32.572],[-115.334,32.54],[-115.322,32.511],[-115.261,32.474],[-115.2,32.471],[-115.075,32.497],[-115.043,32.512],[-115.016,32.556],[-115.031,32.601],[-115.053,32.612],[-115.241,32.573]]]}},{"type":"Feature","properties":{"density":2},"geometry":{"type":"Polygon","coordinates":[[[-111.509,28.363],[-111.539,28.257],[-111.5,28.189],[-111.465,28.181],[-111.352,28.203],[-111.287,28.224],[-111.224,28.274],[-111.27,28.41],[-111.347,28.474],[-111.386,28.478],[-111.459,28.442],[-111.509,28.363]]]}},{"type":"Feature","properties":{"density":2},"geometry":{"type":"Polygon","coordinates":[[[-92.489,19.345],[-92.331,19.234],[-92.08,19.187],[-91.875,19.271],[-91.751,19.42],[-91.695,19.581],[-91.745,19.782],[-91.856,20.117],[-92.061,20.433],[-92.247,20.656],[-92.545,20.858],[-92.836,20.932],[-93.168,20.973],[-93.561,20.945],[-93.915,20.815],[-94.188,20.604],[-94.358,20.266],[-94.47,19.392],[-94.619,18.843],[-94.86,18.555],[-95.236,18.465],[-95.626,18.527],[-95.868,18.719],[-95.967,18.942],[-95.974,19.19],[-95.93,19.506],[-95.818,19.95],[-95.775,20.343],[-95.88,20.765],[-96.11,21.001],[-96.683,21.205],[-97.065,21.261],[-97.43,21.23],[-97.852,21.112],[-98.181,20.908],[-98.398,20.616],[-98.516,20.229],[-98.571,19.773],[-98.516,19.243],[-98.413,18.694],[-98.125,18.145],[-97.744,17.708],[-97.297,17.299],[-96.767,16.871],[-96.172,16.611],[-95.725,16.49],[-95.251,16.415],[-94.721,16.397],[-94.116,16.481],[-93.475,16.741],[-93.047,17.039],[-92.755,17.268],[-92.576,17.504],[-92.427,17.838],[-92.365,18.136],[-92.328,18.452],[-92.452,18.824],[-92.65,19.24],[-92.656,19.336],[-92.588,19.376],[-92.489,19.345]]]}},{"type":"Feature","properties":{"density":2},"geometry":{"type":"Polygon","coordinates":[[[-117.332,31.525],[-117.415,31.462],[-117.459,31.357],[-117.453,31.253],[-117.418,31.175],[-117.354,31.115],[-117.294,31.084],[-117.04,31.016],[-116.789,30.996],[-116.704,31.005],[-116.461,31.101],[-116.329,31.195],[-116.235,31.352],[-116.224,31.407],[-116.238,31.445],[-116.288,31.47],[-116.368,31.476],[-116.616,31.443],[-116.891,31.448],[-117.208,31.539],[-117.274,31.542],[-117.332,31.525]]]}},{"type":"Feature","properties":{"density":2},"geometry":{"type":"Polygon","coordinates":[[[-119.203,34.739],[-119.233,34.634],[-119.211,34.53],[-119.097,34.401],[-118.985,34.348],[-118.902,34.339],[-118.777,34.364],[-118.557,34.453],[-118.411,34.486],[-118.331,34.537],[-118.329,34.581],[-118.362,34.627],[-118.454,34.686],[-118.722,34.802],[-118.95,34.877],[-119.045,34.862],[-119.093,34.837],[-119.161,34.794],[-119.203,34.739]]]}},{"type":"Feature","properties":{"density":2},"geometry":{"type":"Polygon","coordinates":[[[-120.632,37.848],[-120.833,37.812],[-120.852,37.787],[-120.849,37.73],[-120.808,37.683],[-120.701,37.63],[-120.056,37.55],[-119.582,37.468],[-119.414,37.495],[-119.342,37.545],[-119.246,37.65],[-119.248,37.713],[-119.273,37.774],[-119.32,37.815],[-119.4,38.013],[-119.455,38.052],[-119.527,38.058],[-119.582,38.093],[-119.601,38.237],[-119.629,38.294],[-119.697,38.341],[-119.81,38.366],[-120.017,38.347],[-120.111,38.311],[-120.18,38.264],[-120.227,38.204],[-120.249,38.143],[-120.246,37.997],[-120.298,37.887],[-120.373,37.859],[-120.488,37.845],[-120.632,37.848]]]}},{"type":"Feature","properties":{"density":2},"geometry":{"type":"Polygon","coordinates":[[[-122.467,41.808],[-122.52,41.777],[-122.552,41.709],[-122.539,41.47],[-122.522,41.413],[-122.44,41.353],[-122.394,41.34],[-122.311,41.345],[-122.249,41.376],[-122.214,41.421],[-122.192,41.479],[-122.199,41.591],[-122.368,41.737],[-122.412,41.803],[-122.467,41.808]]]}},{"type":"Feature","properties":{"density":2},"geometry":{"type":"Polygon","coordinates":[[[-119.051,44.16],[-119.101,44.088],[-119.07,43.884],[-118.999,43.744],[-118.941,43.719],[-118.877,43.738],[-118.773,43.934],[-118.638,44.066],[-118.596,44.267],[-118.605,44.54],[-118.662,44.584],[-118.723,44.592],[-118.828,44.534],[-118.897,44.435],[-118.99,44.204],[-119.051,44.16]]]}},{"type":"Feature","properties":{"density":2},"geometry":{"type":"Polygon","coordinates":[[[-120.369,44.405],[-120.356,44.376],[-120.301,44.343],[-120.269,44.343],[-120.231,44.385],[-120.222,44.504],[-120.163,44.6],[-120.161,44.659],[-120.179,44.701],[-120.211,44.728],[-120.293,44.754],[-120.352,44.751],[-120.396,44.723],[-120.411,44.629],[-120.369,44.405]]]}},{"type":"Feature","properties":{"density":2},"geometry":{"type":"Polygon","coordinates":[[[-121.375,46.068],[-121.277,46.027],[-121.228,46.029],[-121.21,46.053],[-121.378,46.365],[-121.45,46.425],[-121.515,46.438],[-121.577,46.425],[-121.606,46.393],[-121.592,46.347],[-121.494,46.245],[-121.375,46.068]]]}},{"type":"Feature","properties":{"density":2},"geometry":{"type":"Polygon","coordinates":[[[-111.481,28.329],[-111.512,28.283],[-111.503,28.252],[-111.284,28.287],[-111.265,28.304],[-111.292,28.346],[-111.356,28.368],[-111.426,28.359],[-111.481,28.329]]]}},{"type":"Feature","properties":{"density":2},"geometry":{"type":"Polygon","coordinates":[[[-115.281,47.621],[-115.314,47.588],[-115.289,47.502],[-115.254,47.436],[-115.233,47.421],[-115.189,47.423],[-115.173,47.459],[-115.188,47.495],[-115.23,47.57],[-115.281,47.621]]]}},{"type":"Feature","properties":{"density":2},"geometry":{"type":"Polygon","coordinates":[[[-114.881,47.57],[-114.927,47.535],[-114.932,47.508],[-114.914,47.471],[-114.86,47.443],[-114.725,47.41],[-114.673,47.427],[-114.57,47.542],[-114.436,47.599],[-114.42,47.625],[-114.443,47.647],[-114.508,47.653],[-114.618,47.64],[-114.881,47.57]]]}},{"type":"Feature","properties":{"density":2},"geometry":{"type":"Polygon","coordinates":[[[-102.231,52.175],[-102.249,52.171],[-102.267,52.137],[-102.209,52.038],[-102.14,51.991],[-102.098,51.989],[-102.076,52.006],[-102.079,52.045],[-102.122,52.106],[-102.19,52.164],[-102.231,52.175]]]}},{"type":"Feature","properties":{"density":2},"geometry":{"type":"Polygon","coordinates":[[[-98.196,48.244],[-98.236,48.237],[-98.238,48.216],[-98.069,48.041],[-97.838,47.881],[-97.743,47.847],[-97.725,47.858],[-97.737,47.901],[-97.77,47.929],[-98.196,48.244]]]}},{"type":"Feature","properties":{"density":2},"geometry":{"type":"Polygon","coordinates":[[[-94.938,20.941],[-95.189,20.501],[-95.293,20.104],[-95.189,19.832],[-94.833,19.581],[-94.31,19.539],[-93.996,19.79],[-93.64,20.334],[-93.452,20.92],[-93.138,21.171],[-92.782,21.317],[-92.301,21.276],[-91.966,21.066],[-91.82,20.69],[-91.757,20.229],[-91.757,19.162],[-91.882,18.471],[-91.987,17.99],[-92.092,17.593],[-92.594,16.986],[-93.096,16.63],[-93.703,16.442],[-94.373,16.4],[-95.147,16.463],[-95.796,16.609],[-96.57,17.028],[-97.302,17.614],[-97.784,18.346],[-97.972,18.806],[-98.056,19.455],[-97.972,20.334],[-97.679,21.317],[-97.323,21.945],[-96.842,22.51],[-96.235,22.866],[-95.754,22.908],[-95.419,22.845],[-95.084,22.636],[-94.875,22.343],[-94.791,22.113],[-94.749,21.694],[-94.938,20.941]]]}},{"type":"Feature","properties":{"density":3},"geometry":{"type":"Polygon","coordinates":[[[-120.313,44.414],[-120.338,44.394],[-120.305,44.353],[-120.146,44.345],[-120.162,44.373],[-120.21,44.396],[-120.313,44.414]]]}},{"type":"Feature","properties":{"density":3},"geometry":{"type":"Polygon","coordinates":[[[-119.694,37.715],[-119.702,37.657],[-119.665,37.601],[-119.619,37.574],[-119.545,37.574],[-119.523,37.628],[-119.55,37.69],[-119.526,37.756],[-119.531,37.804],[-119.566,37.815],[-119.613,37.804],[-119.668,37.766],[-119.694,37.715]]]}},{"type":"Feature","properties":{"density":3},"geometry":{"type":"Polygon","coordinates":[[[-116.488,45.009],[-116.502,44.977],[-116.476,44.957],[-116.428,44.957],[-116.406,44.98],[-116.445,45.015],[-116.488,45.009]]]}},{"type":"Feature","properties":{"density":3},"geometry":{"type":"Polygon","coordinates":[[[-119.787,37.724],[-119.831,37.703],[-119.815,37.658],[-119.776,37.634],[-119.587,37.587],[-119.519,37.623],[-119.427,37.644],[-119.391,37.694],[-119.403,37.754],[-119.483,37.788],[-119.569,37.78],[-119.729,37.719],[-119.787,37.724]]]}},{"type":"Feature","properties":{"density":3},"geometry":{"type":"Polygon","coordinates":[[[-122.429,41.651],[-122.462,41.637],[-122.469,41.601],[-122.403,41.51],[-122.357,41.505],[-122.333,41.544],[-122.34,41.596],[-122.387,41.641],[-122.429,41.651]]]}},{"type":"Feature","properties":{"density":3},"geometry":{"type":"Polygon","coordinates":[[[-120.332,44.412],[-120.357,44.41],[-120.365,44.394],[-120.324,44.355],[-120.261,44.343],[-120.225,44.366],[-120.242,44.411],[-120.332,44.412]]]}},{"type":"Feature","properties":{"density":3},"geometry":{"type":"Polygon","coordinates":[[[-116.496,44.996],[-116.493,44.975],[-116.452,44.959],[-116.399,44.98],[-116.408,45.014],[-116.428,45.018],[-116.467,45.016],[-116.496,44.996]]]}},{"type":"Feature","properties":{"density":3},"geometry":{"type":"Polygon","coordinates":[[[-111.37,28.402],[-111.416,28.331],[-111.416,28.307],[-111.385,28.283],[-111.271,28.292],[-111.265,28.339],[-111.298,28.387],[-111.341,28.409],[-111.37,28.402]]]}},{"type":"Feature","properties":{"density":3},"geometry":{"type":"Polygon","coordinates":[[[-117.023,31.379],[-117.192,31.437],[-117.263,31.426],[-117.299,31.399],[-117.313,31.338],[-117.305,31.28],[-117.266,31.206],[-117.214,31.159],[-117.114,31.112],[-116.883,31.054],[-116.762,31.051],[-116.585,31.101],[-116.434,31.184],[-116.288,31.302],[-116.266,31.388],[-116.277,31.421],[-116.373,31.434],[-116.734,31.346],[-116.853,31.335],[-116.927,31.343],[-117.023,31.379]]]}},{"type":"Feature","properties":{"density":3},"geometry":{"type":"Polygon","coordinates":[[[-118.833,34.794],[-118.948,34.804],[-119.065,34.769],[-119.108,34.737],[-119.122,34.697],[-119.131,34.637],[-119.114,34.593],[-119.081,34.555],[-118.909,34.502],[-118.426,34.508],[-118.376,34.524],[-118.359,34.546],[-118.359,34.579],[-118.391,34.611],[-118.712,34.767],[-118.833,34.794]]]}},{"type":"Feature","properties":{"density":3},"geometry":{"type":"Polygon","coordinates":[[[-120.108,37.76],[-120.163,37.801],[-120.271,37.837],[-120.334,37.837],[-120.359,37.823],[-120.37,37.793],[-120.367,37.746],[-120.331,37.683],[-120.249,37.628],[-120.144,37.586],[-120.031,37.567],[-119.863,37.57],[-119.604,37.531],[-119.441,37.537],[-119.381,37.567],[-119.336,37.619],[-119.312,37.68],[-119.309,37.738],[-119.35,37.801],[-119.436,37.826],[-119.612,37.801],[-119.907,37.724],[-120.108,37.76]]]}},{"type":"Feature","properties":{"density":3},"geometry":{"type":"Polygon","coordinates":[[[-122.416,41.665],[-122.491,41.681],[-122.517,41.669],[-122.535,41.626],[-122.519,41.586],[-122.418,41.505],[-122.421,41.38],[-122.396,41.367],[-122.3,41.38],[-122.234,41.443],[-122.225,41.527],[-122.283,41.601],[-122.416,41.665]]]}},{"type":"Feature","properties":{"density":3},"geometry":{"type":"Polygon","coordinates":[[[-119.012,43.854],[-118.979,43.774],[-118.957,43.763],[-118.913,43.777],[-118.891,43.81],[-118.875,43.901],[-118.8,43.992],[-118.798,44.105],[-118.77,44.102],[-118.742,44.069],[-118.687,44.091],[-118.654,44.311],[-118.671,44.369],[-118.712,44.413],[-118.781,44.408],[-118.82,44.339],[-118.82,44.193],[-118.844,44.118],[-118.935,44.151],[-118.988,44.143],[-119.015,44.118],[-119.046,44.041],[-119.012,43.854]]]}},{"type":"Feature","properties":{"density":3},"geometry":{"type":"Polygon","coordinates":[[[-121.383,46.305],[-121.421,46.287],[-121.431,46.263],[-121.409,46.144],[-121.334,46.072],[-121.245,46.033],[-121.224,46.041],[-121.224,46.067],[-121.292,46.157],[-121.345,46.274],[-121.383,46.305]]]}},{"type":"Feature","properties":{"density":3},"geometry":{"type":"Polygon","coordinates":[[[-114.77,47.476],[-114.693,47.429],[-114.653,47.5],[-114.567,47.588],[-114.583,47.596],[-114.737,47.546],[-114.763,47.525],[-114.77,47.476]]]}}]}