{"type":"FeatureCollection","features":[{"type":"Feature","properties":{"density":1},"geometry":{"type":"Polygon","coordinates":[[[-79.673,22.604],[-79.54,22.696],[-79.377,22.781],[-79.244,22.902],[-78.988,23.277],[-78.896,23.445],[-78.75,23.645],[-78.716,23.773],[-78.553,23.961],[-78.547,24.037],[-78.571,24.077],[-78.603,24.089],[-78.698,24.072],[-78.794,24.019],[-78.881,23.956],[-78.983,23.851],[-79.313,23.599],[-79.418,23.474],[-79.461,23.309],[-79.464,23.126],[-79.493,23.036],[-79.685,22.728],[-79.708,22.641],[-79.702,22.615],[-79.673,22.604]]]}},{"type":"Feature","properties":{"density":1},"geometry":{"type":"Polygon","coordinates":[[[-93.01,31.262],[-92.835,31.258],[-92.808,31.289],[-92.83,31.315],[-92.861,31.322],[-92.982,31.317],[-93.018,31.302],[-93.01,31.262]]]}},{"type":"Feature","properties":{"density":1},"geometry":{"type":"Polygon","coordinates":[[[-93.665,32.058],[-93.157,32.035],[-93.085,32.058],[-93.062,32.087],[-93.058,32.126],[-93.095,32.157],[-93.153,32.167],[-93.271,32.137],[-93.528,32.136],[-93.679,32.101],[-93.689,32.081],[-93.681,32.058],[-93.665,32.058]]]}},{"type":"Feature","properties":{"density":1},"geometry":{"type":"Polygon","coordinates":[[[-99.461,24.82],[-99.468,25.009],[-99.499,25.081],[-99.545,25.119],[-99.553,25.034],[-99.53,24.897],[-99.501,24.83],[-99.461,24.82]]]}},{"type":"Feature","properties":{"density":1},"geometry":{"type":"Polygon","coordinates":[[[-123.247,42.994],[-122.996,44.155],[-122.305,45.128],[-121.552,46.258],[-121.269,47.608],[-120.767,48.361],[-120.547,49.742],[-120.359,50.778],[-119.7,52.536],[-119.041,53.478],[-116.875,54.671],[-115.431,55.11],[-114.144,55.801],[-113.548,56.679],[-113.767,58.061],[-114.364,58.312],[-114.835,58.374],[-115.776,58.217],[-117.063,57.747],[-119.48,57.307],[-121.05,57.182],[-123.718,57.558],[-125.57,58.343],[-127.892,59.222],[-128.708,60.226],[-129.085,61.419],[-128.63,63.569],[-126.229,65.9],[-120.932,68.584],[-117.754,70.773],[-112.739,71.621],[-108.149,70.985],[-103.629,69.855],[-100.239,68.301],[-98.544,67.948],[-94.659,68.019],[-91.128,68.866],[-88.091,69.149],[-84.843,68.372],[-81.735,67.171],[-78.981,65.759],[-77.003,64.487],[-74.178,63.216],[-72.695,61.239],[-71.141,58.484],[-70.859,56.436],[-71.141,54.176],[-72.271,50.716],[-72.766,48.879],[-72.201,46.337],[-71.0,44.147],[-67.822,42.029],[-66.198,41.111],[-64.573,39.839],[-63.161,36.732],[-62.666,34.401],[-63.09,32.141],[-64.785,30.022],[-66.621,28.186],[-70.647,26.067],[-74.319,23.949],[-78.345,22.677],[-80.534,22.324],[-83.359,22.677],[-85.054,24.372],[-86.961,26.35],[-88.444,27.48],[-89.574,28.257],[-90.563,28.822],[-92.964,28.892],[-94.73,28.186],[-95.931,26.915],[-96.354,25.22],[-96.213,23.949],[-95.789,22.677],[-94.134,20.457],[-93.914,19.923],[-93.506,19.044],[-93.38,18.636],[-93.537,17.914],[-93.788,17.538],[-94.385,16.941],[-95.358,16.784],[-96.268,17.977],[-96.99,18.887],[-98.12,20.049],[-98.905,20.896],[-99.658,21.838],[-100.16,22.779],[-100.568,23.941],[-101.039,25.291],[-101.228,26.201],[-101.573,27.299],[-101.981,28.21],[-102.718,29.379],[-105.473,32.345],[-108.51,35.523],[-112.959,37.43],[-115.29,37.713],[-117.832,37.36],[-118.892,37.36],[-120.163,37.783],[-121.646,38.56],[-122.493,39.761],[-122.917,40.891],[-123.058,41.95],[-123.247,42.994]]]}},{"type":"Feature","properties":{"density":1},"geometry":{"type":"Polygon","coordinates":[[[-127.712,67.185],[-126.048,68.032],[-124.447,69.037],[-122.705,69.978],[-119.362,71.344],[-116.396,72.003],[-113.241,72.285],[-110.003,72.019],[-107.026,71.344],[-103.647,70.253],[-100.045,69.264],[-97.045,68.472],[-94.395,68.417],[-91.076,69.052],[-89.522,69.405],[-86.909,69.405],[-84.861,69.123],[-81.965,68.275],[-78.575,66.651],[-75.75,65.168],[-72.891,63.74],[-69.323,61.637],[-66.286,59.942],[-65.509,58.882],[-64.662,56.764],[-64.732,55.704],[-65.368,53.374],[-66.393,52.228],[-68.193,51.043],[-70.1,49.277],[-70.877,47.724],[-70.877,46.664],[-70.665,45.322],[-70.1,44.404],[-68.476,42.921],[-66.498,41.579],[-64.793,40.975],[-63.956,40.732],[-62.015,40.457],[-59.613,40.269],[-58.306,39.814],[-57.599,38.754],[-57.529,37.554],[-57.741,35.294],[-58.517,33.457],[-60.283,31.409],[-65.015,28.584],[-66.284,27.63],[-66.992,27.172],[-68.052,26.607],[-69.956,25.657],[-71.526,25.406],[-73.754,25.406],[-74.232,25.384],[-74.727,25.469],[-75.207,25.502],[-75.665,25.486],[-76.671,25.509],[-77.375,25.558],[-78.254,25.349],[-78.735,25.265],[-79.363,25.077],[-81.157,24.323],[-82.098,24.072],[-83.323,23.978],[-83.919,23.852],[-85.143,23.664],[-86.148,23.601],[-87.843,24.198],[-88.847,24.794],[-89.977,25.359],[-90.966,25.809],[-91.782,25.851],[-92.41,25.704],[-93.022,25.453],[-93.687,23.947],[-93.938,23.068],[-94.089,22.471],[-94.089,22.095],[-94.21,21.645],[-94.0,20.682],[-93.728,20.18],[-93.268,19.113],[-93.163,18.339],[-93.398,17.7],[-93.649,17.323],[-94.403,17.229],[-95.376,17.575],[-95.847,17.826],[-96.631,18.642],[-98.316,21.687],[-99.305,22.817],[-100.341,24.464],[-100.953,25.83],[-101.094,28.137],[-101.329,29.738],[-102.049,31.3],[-102.755,32.524],[-103.791,33.937],[-105.486,35.161],[-106.737,36.091],[-108.683,36.53],[-110.881,36.593],[-112.481,36.373],[-113.266,36.342],[-114.553,36.373],[-116.311,36.31],[-117.943,36.718],[-119.315,37.083],[-120.235,37.535],[-121.333,38.194],[-122.4,39.952],[-122.941,41.979],[-123.364,43.863],[-123.492,44.703],[-123.388,46.775],[-123.472,48.428],[-123.534,49.223],[-123.723,50.793],[-124.706,52.341],[-125.813,53.892],[-128.449,55.822],[-129.815,56.717],[-131.133,57.752],[-132.263,58.6],[-133.111,59.542],[-133.487,60.436],[-133.44,61.849],[-132.859,63.355],[-131.886,64.454],[-130.882,65.301],[-129.658,66.18],[-128.559,66.808],[-127.712,67.185]]]}},{"type":"Feature","properties":{"density":1},"geometry":{"type":"Polygon","coordinates":[[[-112.376,29.856],[-113.035,30.17],[-114.173,30.199],[-115.012,29.636],[-115.703,28.914],[-116.268,27.847],[-116.705,26.809],[-116.958,25.995],[-117.272,25.399],[-117.618,24.457],[-117.523,23.829],[-117.052,22.919],[-116.236,22.197],[-114.981,21.538],[-114.133,21.35],[-113.066,20.942],[-111.808,20.573],[-110.649,20.031],[-109.488,18.556],[-107.699,15.7],[-106.945,14.538],[-106.318,13.377],[-105.658,13.0],[-105.062,12.529],[-103.963,12.278],[-102.676,12.153],[-101.201,12.373],[-99.6,12.435],[-98.564,12.341],[-97.497,12.153],[-96.461,11.619],[-95.331,11.086],[-93.982,10.395],[-91.628,9.579],[-88.803,9.234],[-88.018,9.328],[-87.265,9.516],[-86.794,9.704],[-86.26,10.081],[-85.789,10.897],[-85.726,11.619],[-85.632,12.373],[-85.758,13.251],[-86.26,13.848],[-87.115,14.274],[-88.204,14.442],[-89.292,14.588],[-90.937,14.915],[-92.255,15.511],[-93.511,16.202],[-94.641,16.516],[-95.457,16.516],[-96.367,16.422],[-96.775,16.422],[-98.408,16.798],[-99.757,17.301],[-102.111,18.65],[-103.493,19.561],[-103.932,20.408],[-104.591,21.601],[-105.219,22.386],[-106.129,24.112],[-107.134,25.399],[-108.358,26.592],[-109.425,27.659],[-110.806,28.632],[-111.873,29.605],[-112.376,29.856]]]}},{"type":"Feature","properties":{"density":1},"geometry":{"type":"Polygon","coordinates":[[[-129.885,66.48],[-128.975,67.202],[-126.526,68.708],[-124.311,69.815],[-121.274,71.227],[-119.155,72.075],[-114.944,72.757],[-112.371,72.942],[-110.911,72.848],[-108.632,72.569],[-106.58,72.142],[-104.677,71.51],[-103.053,70.874],[-101.57,69.956],[-99.804,69.109],[-96.414,67.979],[-94.479,67.528],[-92.671,67.414],[-90.713,67.622],[-88.998,68.19],[-86.95,68.967],[-84.278,69.254],[-82.144,69.348],[-78.502,69.003],[-75.677,68.25],[-73.574,67.496],[-71.503,66.586],[-68.521,64.797],[-67.234,64.169],[-65.633,63.447],[-64.377,62.662],[-63.467,61.501],[-62.714,60.277],[-62.463,58.959],[-62.655,56.679],[-63.291,54.701],[-64.915,52.441],[-66.116,51.594],[-68.659,50.04],[-69.859,48.274],[-70.283,46.579],[-69.647,44.743],[-68.588,43.542],[-67.034,42.624],[-64.704,41.918],[-62.161,41.282],[-59.83,41.141],[-57.853,41.494],[-56.652,41.424],[-55.593,40.294],[-55.24,39.234],[-55.31,36.48],[-55.805,34.573],[-57.005,32.595],[-59.159,31.07],[-61.172,29.7],[-62.585,28.852],[-64.845,26.804],[-66.116,25.604],[-67.446,24.666],[-68.921,23.913],[-70.114,23.474],[-71.907,23.344],[-74.379,23.697],[-75.862,24.262],[-78.641,24.478],[-80.064,24.373],[-81.466,23.871],[-83.056,23.808],[-85.114,24.262],[-88.64,26.344],[-89.54,26.762],[-90.36,26.961],[-91.277,27.055],[-91.716,26.951],[-92.257,26.696],[-92.661,26.319],[-92.94,25.845],[-92.951,24.9],[-92.742,24.063],[-92.239,23.163],[-91.863,22.221],[-91.779,21.217],[-91.946,19.92],[-92.177,19.627],[-92.428,19.145],[-92.682,18.807],[-93.076,18.518],[-93.411,18.35],[-93.809,18.392],[-94.604,18.538],[-95.357,18.706],[-96.383,19.271],[-96.864,19.794],[-98.413,21.363],[-98.81,22.012],[-99.25,23.142],[-99.626,23.979],[-99.856,24.837],[-100.087,25.444],[-100.128,26.574],[-100.212,27.495],[-100.4,28.436],[-100.748,29.035],[-101.176,29.621],[-101.557,30.058],[-101.771,30.356],[-102.389,30.997],[-103.394,32.141],[-104.468,33.174],[-104.941,33.731],[-105.841,34.672],[-106.511,35.258],[-107.683,35.844],[-108.426,36.071],[-109.754,36.618],[-110.546,36.838],[-111.596,36.974],[-112.119,36.974],[-112.747,36.66],[-113.354,36.2],[-113.919,35.656],[-114.421,35.258],[-114.717,34.941],[-115.195,34.568],[-115.551,34.254],[-116.084,34.006],[-116.601,33.839],[-117.246,33.898],[-117.999,34.191],[-118.669,34.693],[-119.82,35.196],[-120.615,35.761],[-121.326,36.639],[-121.745,37.183],[-122.624,38.858],[-122.707,39.59],[-122.669,40.117],[-122.666,40.845],[-122.812,41.452],[-122.92,42.293],[-123.171,42.976],[-123.44,43.608],[-123.649,44.633],[-123.607,45.847],[-123.545,46.391],[-123.545,47.27],[-123.252,48.274],[-123.074,49.059],[-123.074,49.781],[-123.513,50.377],[-123.953,50.723],[-124.737,51.036],[-125.961,51.758],[-128.567,53.359],[-129.697,54.332],[-130.607,55.682],[-131.768,57.283],[-132.522,59.072],[-132.616,61.018],[-132.176,62.619],[-131.706,63.78],[-130.889,64.942],[-130.387,65.758],[-129.885,66.48]]]}},{"type":"Feature","properties":{"density":1},"geometry":{"type":"Polygon","coordinates":[[[-112.845,31.368],[-113.263,31.482],[-114.205,31.67],[-115.365,31.498],[-116.496,30.98],[-117.188,29.889],[-117.537,28.662],[-118.348,27.464],[-119.258,26.585],[-119.855,25.706],[-120.2,24.702],[-120.106,23.76],[-119.604,22.85],[-118.882,22.128],[-118.097,21.846],[-116.873,21.689],[-115.586,21.406],[-114.268,21.186],[-113.514,20.935],[-113.043,20.747],[-111.757,19.837],[-111.003,18.958],[-110.219,18.079],[-109.057,16.353],[-108.21,14.815],[-107.425,13.653],[-106.891,12.649],[-105.636,11.77],[-104.757,11.362],[-103.344,10.86],[-102.089,10.608],[-100.394,10.138],[-99.232,9.698],[-96.784,9.07],[-95.372,8.913],[-92.798,8.913],[-90.732,9.072],[-88.905,9.133],[-87.499,9.229],[-86.84,9.417],[-86.338,9.637],[-85.93,9.919],[-85.421,10.608],[-85.202,11.707],[-85.829,12.555],[-87.022,13.402],[-88.78,13.998],[-91.574,15.003],[-92.515,15.725],[-93.52,16.29],[-94.65,16.572],[-95.56,16.604],[-96.596,16.541],[-97.318,16.604],[-98.416,16.855],[-99.578,17.577],[-101.054,18.227],[-102.152,19.115],[-103.69,20.213],[-104.725,22.065],[-104.82,22.85],[-105.824,24.106],[-106.829,24.953],[-107.802,25.863],[-108.743,26.805],[-109.34,27.307],[-109.967,28.155],[-110.407,29.159],[-110.815,29.756],[-111.411,30.446],[-111.788,30.697],[-112.259,31.043],[-112.845,31.368]]]}},{"type":"Feature","properties":{"density":1},"geometry":{"type":"Polygon","coordinates":[[[-130.58,65.16],[-130.156,66.078],[-128.249,68.338],[-125.424,70.245],[-122.105,71.728],[-119.704,72.49],[-117.585,72.961],[-115.043,73.14],[-111.37,72.929],[-108.498,72.255],[-105.649,71.304],[-102.565,69.853],[-100.023,69.053],[-98.234,68.691],[-96.256,68.723],[-94.891,69.241],[-93.643,69.539],[-92.49,69.995],[-91.242,70.245],[-88.817,70.607],[-86.016,70.598],[-82.908,70.174],[-80.295,69.68],[-77.541,69.185],[-74.574,68.903],[-71.255,68.338],[-68.43,67.702],[-65.111,66.643],[-62.121,65.471],[-59.249,63.776],[-57.13,62.316],[-55.482,60.292],[-54.917,57.984],[-56.094,55.772],[-57.271,53.841],[-58.731,51.722],[-59.531,49.368],[-61.462,46.873],[-63.11,45.649],[-64.805,45.131],[-65.987,44.477],[-66.259,43.703],[-65.84,42.97],[-64.48,42.028],[-62.45,42.028],[-60.379,42.56],[-58.705,42.886],[-56.353,42.56],[-55.223,41.924],[-53.588,40.239],[-53.086,38.23],[-53.316,35.709],[-54.588,33.025],[-57.413,30.342],[-59.615,28.782],[-61.749,27.37],[-63.769,25.327],[-65.111,23.703],[-66.876,22.573],[-69.348,21.796],[-72.202,22.034],[-75.069,22.785],[-77.256,23.164],[-79.924,23.791],[-81.493,24.2],[-83.376,24.356],[-85.872,24.529],[-89.264,24.974],[-90.889,25.045],[-91.807,24.55],[-92.584,23.915],[-92.887,22.693],[-92.796,21.302],[-92.654,20.242],[-91.595,18.689],[-89.9,17.135],[-88.276,15.228],[-87.781,13.533],[-87.852,11.626],[-88.156,10.376],[-88.941,9.278],[-90.291,8.618],[-92.231,8.377],[-94.914,8.589],[-97.528,9.225],[-100.759,10.376],[-103.443,11.718],[-105.42,13.06],[-107.115,15.461],[-109.604,18.335],[-112.076,20.454],[-114.054,21.302],[-115.184,21.655],[-116.243,21.937],[-117.514,22.997],[-118.26,23.829],[-118.689,24.906],[-118.453,26.365],[-117.653,27.919],[-115.817,29.237],[-114.117,29.479],[-112.5,28.788],[-111.017,28.082],[-109.11,26.669],[-107.117,25.084],[-105.553,23.493],[-103.725,22.081],[-101.884,21.872],[-100.6,22.681],[-100.405,23.587],[-100.251,24.522],[-100.452,26.214],[-100.64,28.307],[-101.129,29.777],[-102.189,31.472],[-103.743,32.743],[-104.378,33.025],[-105.474,33.329],[-106.29,33.475],[-107.358,33.559],[-108.006,33.685],[-109.262,33.873],[-110.266,34.124],[-111.158,34.226],[-112.296,34.459],[-113.436,34.966],[-115.474,36.243],[-115.945,36.682],[-116.667,37.09],[-117.841,37.545],[-118.33,37.587],[-119.398,37.593],[-120.528,37.718],[-121.375,38.063],[-122.066,38.534],[-122.599,39.445],[-122.882,40.104],[-123.353,41.516],[-123.575,42.54],[-123.541,43.651],[-123.259,45.157],[-122.38,46.099],[-121.972,46.915],[-121.564,47.449],[-121.626,48.39],[-121.94,49.175],[-122.662,50.148],[-123.447,51.058],[-123.447,51.686],[-123.698,52.377],[-123.384,53.475],[-123.353,54.48],[-123.792,55.547],[-124.326,56.489],[-125.173,57.525],[-127.151,58.937],[-128.501,59.565],[-129.442,60.318],[-130.039,61.166],[-130.635,62.139],[-130.823,63.583],[-130.98,64.085],[-130.886,64.838],[-130.58,65.16]]]}},{"type":"Feature","properties":{"density":2},"geometry":{"type":"Polygon","coordinates":[[[-121.52,45.487],[-121.197,45.761],[-120.482,46.222],[-119.933,46.731],[-119.816,46.878],[-119.689,47.083],[-119.591,47.279],[-119.601,47.534],[-119.718,47.71],[-119.826,47.778],[-120.224,47.795],[-120.363,47.78],[-120.781,47.873],[-120.85,47.896],[-120.876,47.98],[-120.859,48.027],[-120.778,48.067],[-120.343,48.062],[-120.11,48.079],[-119.971,48.123],[-119.826,48.221],[-119.661,48.375],[-119.641,48.427],[-119.649,48.497],[-119.786,48.601],[-119.815,48.653],[-119.826,48.72],[-119.812,48.801],[-119.736,48.981],[-119.725,49.422],[-119.682,49.683],[-119.49,50.075],[-119.406,50.363],[-119.18,50.657],[-119.033,50.902],[-118.857,51.254],[-118.24,51.969],[-117.8,52.39],[-115.626,53.653],[-115.293,53.888],[-114.931,54.27],[-114.784,54.397],[-114.588,54.515],[-114.334,54.632],[-114.03,54.75],[-113.688,54.779],[-113.306,54.652],[-113.002,54.632],[-112.806,54.652],[-112.11,54.666],[-111.18,54.872],[-109.799,55.224],[-109.388,55.381],[-108.908,55.518],[-108.468,55.822],[-108.321,56.086],[-108.243,56.36],[-108.243,56.683],[-108.409,57.114],[-108.84,57.692],[-109.662,58.26],[-110.054,58.406],[-110.544,58.553],[-110.73,58.72],[-111.816,59.297],[-112.57,59.346],[-113.882,59.611],[-115.322,59.64],[-116.144,59.523],[-117.662,59.356],[-118.65,59.219],[-120.55,58.896],[-121.46,58.671],[-122.244,58.612],[-122.909,58.661],[-123.34,58.818],[-123.744,59.111],[-123.754,59.513],[-123.685,59.904],[-123.509,60.159],[-123.157,60.325],[-122.589,60.629],[-121.58,60.883],[-120.758,61.04],[-120.082,61.148],[-118.604,61.187],[-117.811,61.148],[-116.46,60.952],[-116.117,60.874],[-115.461,60.864],[-115.187,61.021],[-114.991,61.216],[-115.011,61.353],[-115.109,61.442],[-115.539,61.481],[-115.97,61.637],[-116.166,61.814],[-116.283,62.107],[-116.283,62.499],[-116.048,62.969],[-115.608,63.145],[-115.06,63.312],[-114.482,63.312],[-114.178,63.243],[-113.581,63.057],[-112.984,62.793],[-112.485,62.538],[-111.721,62.063],[-110.384,61.476],[-109.621,61.05],[-108.372,60.507],[-107.403,60.154],[-105.935,59.787],[-104.877,59.713],[-104.172,59.787],[-103.423,59.772],[-102.997,59.713],[-102.41,59.185],[-102.145,58.729],[-102.145,58.362],[-102.322,58.039],[-102.88,57.657],[-103.746,57.143],[-103.79,57.026],[-102.968,56.997],[-102.189,57.099],[-101.411,57.466],[-100.706,57.687],[-99.928,57.569],[-99.384,57.202],[-98.797,56.673],[-98.459,56.189],[-98.151,55.381],[-97.857,54.911],[-97.637,54.397],[-97.431,54.147],[-96.359,53.633],[-95.507,53.178],[-94.626,53.017],[-94.2,52.884],[-93.569,52.444],[-92.687,52.062],[-92.1,51.548],[-91.659,51.034],[-91.278,50.799],[-90.852,50.49],[-90.308,50.358],[-89.926,50.182],[-87.768,49.33],[-86.402,48.684],[-85.795,48.427],[-85.178,47.977],[-84.688,47.693],[-84.062,47.487],[-83.357,47.135],[-82.926,46.87],[-82.632,46.361],[-82.515,45.813],[-82.74,45.568],[-83.073,45.363],[-83.533,45.206],[-84.14,45.069],[-84.61,44.863],[-85.129,44.569],[-86.157,43.816],[-86.999,42.944],[-87.332,42.553],[-87.792,42.122],[-88.262,41.975],[-88.859,41.945],[-89.466,42.024],[-90.005,42.259],[-90.719,42.611],[-91.307,43.062],[-91.934,43.365],[-92.687,43.532],[-93.187,43.688],[-93.52,43.767],[-94.296,44.192],[-95.187,44.369],[-95.784,44.457],[-96.626,44.447],[-97.311,44.359],[-98.398,43.938],[-98.662,43.791],[-99.152,43.605],[-100.141,42.959],[-100.552,42.812],[-101.208,42.743],[-101.609,42.9],[-102.393,43.008],[-102.765,43.213],[-103.098,43.429],[-103.499,43.644],[-103.94,43.85],[-104.498,43.909],[-104.889,43.928],[-105.594,43.83],[-106.152,43.791],[-106.916,43.928],[-108.483,44.271],[-108.962,44.251],[-110.03,43.86],[-110.411,43.517],[-110.783,43.145],[-111.204,42.616],[-111.567,42.225],[-112.037,41.931],[-113.642,41.471],[-113.985,41.363],[-114.964,41.01],[-115.326,40.736],[-115.757,40.492],[-116.159,40.364],[-116.472,40.227],[-116.824,39.953],[-117.294,39.542],[-117.392,39.317],[-117.608,38.925],[-117.892,38.739],[-118.518,38.543],[-118.734,38.573],[-118.9,38.67],[-119.018,38.827],[-119.155,39.091],[-119.262,39.395],[-119.301,39.885],[-119.39,40.08],[-119.546,40.286],[-120.241,41.686],[-120.633,41.99],[-121.318,42.185],[-121.504,42.293],[-121.593,42.557],[-121.651,42.871],[-121.632,43.204],[-121.563,43.674],[-121.583,44.075],[-121.749,44.555],[-121.779,44.711],[-121.759,44.976],[-121.69,45.172],[-121.52,45.487]]]}},{"type":"Feature","properties":{"density":2},"geometry":{"type":"Polygon","coordinates":[[[-122.517,43.136],[-122.522,43.082],[-122.608,43.055],[-122.753,43.047],[-122.822,43.082],[-122.845,43.143],[-122.744,43.112],[-122.599,43.171],[-122.553,43.163],[-122.517,43.136]]]}},{"type":"Feature","properties":{"density":2},"geometry":{"type":"Polygon","coordinates":[[[-121.396,63.553],[-121.884,63.39],[-122.749,62.967],[-123.53,62.353],[-124.032,61.209],[-123.99,60.274],[-123.296,59.388],[-121.272,58.776],[-118.682,58.917],[-116.187,59.153],[-113.974,59.106],[-112.138,58.87],[-110.678,58.541],[-108.936,58.117],[-108.23,57.411],[-108.136,56.61],[-109.171,55.433],[-110.254,55.057],[-111.526,54.821],[-114.303,54.821],[-115.481,54.586],[-118.541,53.927],[-120.508,53.001],[-122.244,52.08],[-122.977,50.971],[-123.186,50.071],[-123.144,48.795],[-122.705,47.204],[-122.6,46.367],[-122.789,45.363],[-123.082,44.756],[-122.977,43.563],[-122.621,42.705],[-122.161,42.245],[-121.366,41.779],[-119.629,41.047],[-118.978,40.62],[-118.345,40.099],[-117.887,39.645],[-117.164,39.42],[-116.281,39.613],[-115.198,40.178],[-114.021,40.743],[-112.891,41.355],[-111.996,41.873],[-109.29,42.807],[-108.089,43.098],[-106.959,43.239],[-104.557,42.768],[-103.442,42.384],[-102.312,41.568],[-101.308,40.658],[-100.492,40.156],[-99.739,39.559],[-98.954,39.151],[-97.259,38.806],[-95.721,38.461],[-94.716,38.335],[-93.712,38.053],[-92.551,37.259],[-91.986,36.318],[-91.327,34.999],[-90.621,34.105],[-89.538,32.975],[-88.267,32.127],[-86.807,31.186],[-85.253,30.103],[-83.699,29.679],[-81.957,29.679],[-79.98,30.008],[-78.991,30.103],[-77.908,30.291],[-76.731,30.573],[-75.507,30.997],[-74.848,31.327],[-73.624,32.127],[-73.059,32.928],[-72.395,33.779],[-72.023,34.717],[-71.599,35.329],[-71.222,35.941],[-70.799,36.788],[-70.47,37.797],[-70.407,39.262],[-70.784,40.58],[-71.693,41.403],[-72.772,42.275],[-74.989,43.427],[-76.59,43.568],[-77.626,43.239],[-79.227,42.533],[-80.592,41.968],[-81.816,41.826],[-82.805,41.826],[-83.605,42.297],[-84.735,43.003],[-86.383,45.028],[-86.619,46.111],[-87.56,47.523],[-88.031,48.135],[-88.643,48.748],[-89.067,49.218],[-89.914,50.443],[-91.374,51.149],[-92.457,51.478],[-93.352,51.714],[-94.434,52.42],[-95.564,53.456],[-96.851,55.434],[-97.344,56.123],[-98.578,57.599],[-99.425,58.541],[-100.602,59.2],[-101.685,59.765],[-103.521,60.424],[-106.346,60.895],[-108.136,61.272],[-109.972,61.931],[-111.196,62.307],[-113.079,62.825],[-114.351,63.108],[-116.281,63.437],[-118.023,63.579],[-120.848,63.579],[-121.396,63.553]]]}},{"type":"Feature","properties":{"density":2},"geometry":{"type":"Polygon","coordinates":[[[-116.287,64.425],[-114.921,64.708],[-112.991,64.755],[-111.217,64.622],[-109.413,64.284],[-106.399,63.813],[-104.955,63.405],[-103.763,62.966],[-102.633,62.26],[-100.796,61.035],[-99.384,59.482],[-97.642,57.363],[-96.935,55.809],[-96.01,54.491],[-95.24,53.502],[-94.063,52.278],[-92.808,51.321],[-91.646,50.473],[-89.355,49.28],[-87.346,48.778],[-85.871,47.931],[-84.49,46.706],[-83.893,46.016],[-82.23,44.886],[-80.817,44.227],[-79.405,43.536],[-78.62,43.191],[-76.8,42.751],[-74.822,42.814],[-73.676,42.956],[-72.405,43.379],[-71.558,43.709],[-70.898,43.615],[-70.239,43.238],[-69.721,42.626],[-69.392,41.355],[-69.251,40.366],[-69.251,38.953],[-69.439,37.588],[-70.522,34.433],[-71.463,32.707],[-72.656,31.608],[-73.472,31.075],[-74.477,30.541],[-75.748,30.196],[-79.609,29.772],[-80.927,29.537],[-82.293,29.113],[-83.423,28.878],[-85.494,28.266],[-86.718,28.266],[-87.66,28.454],[-88.964,29.219],[-90.014,30.149],[-91.364,31.64],[-91.95,32.414],[-92.651,33.303],[-93.64,34.481],[-94.581,35.658],[-95.288,36.223],[-96.323,37.117],[-97.736,38.718],[-98.819,39.754],[-100.135,40.692],[-102.397,41.873],[-103.637,42.38],[-106.413,43.022],[-107.812,43.144],[-109.05,42.994],[-110.26,42.673],[-111.202,42.343],[-112.285,41.731],[-113.838,41.119],[-114.78,40.837],[-116.145,40.554],[-117.364,40.49],[-118.782,40.79],[-121.34,41.745],[-122.172,42.438],[-122.878,43.097],[-123.208,43.568],[-123.349,44.792],[-123.067,45.639],[-122.502,46.393],[-122.125,47.193],[-121.748,48.276],[-121.701,48.982],[-122.36,49.641],[-123.161,50.348],[-123.538,50.771],[-123.632,51.525],[-123.255,52.09],[-122.125,52.419],[-120.713,52.184],[-119.347,51.76],[-117.746,51.101],[-115.553,50.734],[-114.902,50.743],[-113.838,51.007],[-112.944,51.383],[-112.143,51.666],[-111.21,52.059],[-110.54,52.394],[-109.75,52.734],[-108.838,53.217],[-107.513,54.026],[-106.588,54.962],[-106.399,55.762],[-106.588,56.374],[-107.247,57.457],[-108.0,58.21],[-108.622,58.533],[-109.585,58.721],[-110.526,58.993],[-111.552,59.139],[-112.661,59.34],[-113.885,59.67],[-115.58,59.811],[-117.134,60.188],[-117.84,60.753],[-118.453,61.6],[-118.625,62.278],[-118.405,62.872],[-117.935,63.437],[-116.899,64.143],[-116.569,64.284],[-116.287,64.425]]]}},{"type":"Feature","properties":{"density":2},"geometry":{"type":"Polygon","coordinates":[[[-121.648,52.759],[-120.947,52.91],[-119.111,52.581],[-117.18,51.78],[-115.721,51.404],[-114.355,51.404],[-113.366,51.639],[-112.095,52.282],[-111.483,52.91],[-111.216,53.643],[-110.609,54.501],[-110.541,55.547],[-110.777,56.912],[-111.483,57.619],[-112.472,58.466],[-113.837,59.596],[-115.156,60.02],[-116.448,60.046],[-118.028,59.879],[-119.44,59.832],[-120.806,59.926],[-122.077,60.208],[-122.971,60.538],[-123.536,61.103],[-123.678,61.668],[-123.395,62.421],[-122.689,63.363],[-121.465,64.022],[-120.288,64.54],[-119.158,64.964],[-117.473,65.361],[-115.862,65.623],[-113.461,65.529],[-112.001,65.434],[-109.27,64.964],[-106.926,64.587],[-105.456,64.116],[-103.95,63.504],[-102.82,62.704],[-100.795,61.056],[-98.305,58.267],[-97.552,57.388],[-96.401,56.091],[-95.124,54.731],[-94.308,53.747],[-93.094,52.68],[-91.671,51.927],[-89.893,51.09],[-88.574,50.567],[-87.465,50.211],[-86.733,49.813],[-85.917,49.238],[-85.163,48.437],[-84.504,47.166],[-83.986,46.083],[-83.751,44.765],[-83.233,43.164],[-82.291,41.893],[-81.02,41.045],[-79.702,40.009],[-79.043,39.068],[-78.343,37.919],[-78.092,37.012],[-77.869,35.896],[-77.66,34.543],[-77.604,32.283],[-78.078,31.097],[-78.985,29.981],[-80.017,29.158],[-82.291,28.655],[-84.063,28.586],[-85.723,28.655],[-87.83,28.655],[-89.978,28.809],[-91.387,29.046],[-92.65,29.698],[-93.497,30.263],[-94.486,31.158],[-95.428,32.476],[-95.851,33.936],[-95.993,35.678],[-95.993,37.749],[-96.416,38.785],[-97.076,39.962],[-98.111,40.857],[-99.336,41.657],[-100.983,42.222],[-101.972,42.458],[-102.82,42.552],[-103.761,42.599],[-104.797,42.693],[-105.645,42.693],[-107.052,42.358],[-108.281,41.61],[-109.549,40.419],[-110.018,39.947],[-110.646,39.424],[-112.587,38.006],[-113.764,36.787],[-114.329,36.557],[-114.643,36.368],[-115.187,36.389],[-116.024,36.619],[-116.505,36.996],[-116.777,37.477],[-116.673,37.749],[-116.317,38.335],[-116.233,38.754],[-116.317,39.047],[-116.652,39.298],[-116.945,39.424],[-117.238,39.382],[-117.928,39.675],[-118.054,40.051],[-118.096,40.554],[-118.221,41.014],[-118.41,41.349],[-118.807,41.642],[-119.309,41.767],[-119.728,41.788],[-120.377,41.893],[-121.109,42.207],[-121.339,42.479],[-121.59,42.709],[-122.113,42.834],[-122.532,42.855],[-122.722,43.105],[-122.722,43.467],[-122.511,43.734],[-122.03,44.09],[-122.134,44.299],[-122.239,44.446],[-122.553,44.467],[-122.699,44.529],[-122.992,44.55],[-123.118,44.927],[-122.867,45.346],[-122.49,45.534],[-121.904,45.722],[-121.423,45.952],[-120.879,46.12],[-120.523,46.287],[-120.23,46.58],[-120.084,46.81],[-120.146,47.166],[-120.481,47.522],[-120.774,47.626],[-121.088,47.815],[-121.172,48.087],[-121.067,48.359],[-121.004,48.652],[-121.339,49.447],[-121.569,49.677],[-122.448,50.179],[-122.825,50.472],[-123.076,50.598],[-123.327,50.765],[-123.474,50.996],[-123.515,51.226],[-123.39,51.54],[-123.181,51.77],[-122.511,52.251],[-122.197,52.419],[-121.648,52.759]]]}},{"type":"Feature","properties":{"density":2},"geometry":{"type":"Polygon","coordinates":[[[-120.212,39.736],[-120.218,39.808],[-120.16,39.891],[-120.083,39.957],[-119.951,39.99],[-119.843,39.987],[-119.785,39.957],[-119.758,39.899],[-119.736,39.723],[-119.782,39.563],[-119.832,39.519],[-119.893,39.527],[-119.989,39.637],[-120.047,39.668],[-120.124,39.665],[-120.185,39.681],[-120.212,39.736]]]}},{"type":"Feature","properties":{"density":3},"geometry":{"type":"Polygon","coordinates":[[[-120.681,42.571],[-120.661,42.663],[-120.727,42.774],[-120.772,42.891],[-120.785,43.054],[-120.831,43.1],[-120.955,43.178],[-120.955,43.315],[-120.851,43.433],[-120.805,43.511],[-120.779,43.616],[-120.936,43.896],[-121.04,44.17],[-121.144,44.301],[-121.379,44.477],[-121.425,44.529],[-121.484,44.614],[-121.523,44.732],[-121.51,44.915],[-121.406,45.123],[-121.392,45.189],[-121.406,45.254],[-121.445,45.267],[-121.471,45.319],[-121.471,45.371],[-121.438,45.456],[-121.347,45.548],[-121.262,45.613],[-121.047,45.685],[-120.922,45.77],[-120.674,45.815],[-120.433,45.913],[-120.283,46.005],[-120.165,46.103],[-120.048,46.285],[-119.741,46.607],[-119.168,47.047],[-118.581,47.341],[-116.936,48.604],[-115.908,49.236],[-115.673,49.397],[-115.35,49.471],[-113.984,49.882],[-113.25,50.19],[-112.192,50.543],[-111.282,50.587],[-110.489,50.366],[-110.342,50.146],[-110.063,49.97],[-109.578,49.794],[-107.83,49.808],[-106.465,49.779],[-105.51,49.852],[-104.232,49.999],[-103.586,50.19],[-102.529,50.366],[-101.308,50.778],[-100.676,50.851],[-99.898,50.88],[-99.443,50.792],[-98.943,50.572],[-98.65,50.366],[-98.327,49.911],[-97.974,49.559],[-97.666,49.074],[-97.534,48.648],[-97.636,48.031],[-97.915,47.635],[-98.62,47.547],[-98.855,47.561],[-100.353,47.561],[-100.853,47.385],[-101.234,47.282],[-101.587,46.915],[-101.91,46.768],[-102.248,46.68],[-102.938,46.621],[-103.379,46.563],[-103.819,46.577],[-104.157,46.607],[-104.451,46.665],[-104.906,46.9],[-105.024,47.033],[-105.2,47.194],[-105.332,47.444],[-105.67,47.738],[-105.861,47.87],[-106.478,48.002],[-106.947,48.061],[-107.667,48.031],[-108.255,47.899],[-108.798,47.649],[-109.033,47.4],[-109.106,47.106],[-109.033,46.768],[-108.871,46.592],[-108.548,46.548],[-108.078,46.695],[-107.696,46.856],[-107.52,46.886],[-107.227,46.827],[-107.094,46.71],[-107.021,46.519],[-107.05,46.254],[-107.256,45.99],[-108.02,45.402],[-108.372,45.226],[-108.592,45.123],[-108.783,45.065],[-109.136,44.918],[-109.459,44.815],[-110.296,44.477],[-111.221,43.934],[-111.486,43.699],[-112.205,43.214],[-112.425,43.023],[-113.116,42.715],[-113.424,42.641],[-113.791,42.48],[-114.305,42.406],[-114.643,42.26],[-115.025,41.834],[-115.26,41.599],[-115.407,41.378],[-115.598,40.835],[-115.759,40.659],[-115.906,40.615],[-116.024,40.615],[-116.097,40.703],[-116.112,40.864],[-115.847,41.173],[-115.833,41.393],[-115.891,41.569],[-116.024,41.731],[-116.215,41.878],[-116.42,41.966],[-116.699,41.966],[-116.978,41.878],[-117.154,41.731],[-117.404,41.364],[-117.698,40.82],[-117.918,40.233],[-117.977,39.983],[-117.899,39.75],[-117.832,39.695],[-117.765,39.684],[-117.528,39.797],[-117.464,39.762],[-117.429,39.701],[-117.409,39.588],[-117.443,39.469],[-117.481,39.388],[-117.539,39.321],[-117.606,39.274],[-117.884,39.216],[-118.195,39.274],[-118.308,39.33],[-118.528,39.802],[-118.488,40.145],[-118.244,40.655],[-117.931,40.962],[-117.702,41.347],[-117.461,41.655],[-117.213,41.851],[-117.187,41.912],[-117.169,42.073],[-117.274,42.156],[-117.343,42.142],[-117.474,42.082],[-117.548,41.986],[-117.7,41.842],[-117.839,41.755],[-117.992,41.712],[-118.562,41.82],[-118.856,41.86],[-119.339,41.853],[-119.515,41.918],[-119.678,41.938],[-119.861,42.003],[-119.965,42.088],[-120.037,42.186],[-120.07,42.297],[-120.101,42.348],[-120.318,42.433],[-120.391,42.448],[-120.556,42.441],[-120.66,42.386],[-120.745,42.305],[-120.799,42.282],[-120.821,42.29],[-120.826,42.386],[-120.774,42.458],[-120.693,42.53],[-120.681,42.571]]]}},{"type":"Feature","properties":{"density":3},"geometry":{"type":"Polygon","coordinates":[[[-120.296,49.202],[-119.98,49.175],[-119.59,49.035],[-119.162,48.812],[-118.734,48.682],[-118.315,48.598],[-117.655,48.533],[-117.265,48.617],[-116.744,48.849],[-116.121,49.184],[-115.395,49.528],[-114.753,49.881],[-114.205,50.16],[-113.569,50.385],[-112.875,50.588],[-112.056,50.728],[-111.173,50.904],[-110.475,50.951],[-109.852,50.895],[-109.294,50.784],[-108.624,50.449],[-108.401,50.244],[-107.738,49.889],[-107.217,49.759],[-106.622,49.749],[-106.092,49.805],[-105.655,49.824],[-104.604,49.656],[-103.776,49.545],[-102.939,49.545],[-102.511,49.573],[-102.046,49.684],[-100.935,50.135],[-100.419,50.149],[-99.861,50.052],[-98.838,49.646],[-98.228,49.159],[-97.838,48.796],[-97.433,48.266],[-96.945,47.792],[-96.052,47.443],[-95.127,47.232],[-94.643,47.08],[-94.053,46.981],[-93.569,46.759],[-92.76,46.299],[-92.285,45.936],[-91.867,45.476],[-91.63,45.057],[-91.532,44.471],[-91.611,44.247],[-91.806,44.01],[-92.146,43.9],[-93.122,43.774],[-93.508,43.758],[-94.015,43.913],[-94.49,43.969],[-95.145,44.095],[-95.661,44.318],[-96.052,44.695],[-96.499,45.043],[-97.456,45.349],[-97.935,45.336],[-98.563,45.225],[-99.01,45.099],[-99.833,44.918],[-100.391,44.751],[-100.907,44.751],[-101.144,44.709],[-101.535,44.737],[-102.162,44.876],[-102.539,45.016],[-103.446,45.49],[-104.632,45.88],[-105.12,45.95],[-106.069,46.146],[-106.473,46.132],[-106.864,46.006],[-107.24,45.922],[-108.315,45.448],[-108.942,45.309],[-109.445,45.364],[-109.947,45.295],[-110.63,44.974],[-110.993,44.625],[-111.216,44.22],[-111.565,43.913],[-111.984,43.648],[-112.653,43.132],[-113.235,42.726],[-113.639,42.391],[-114.169,41.751],[-114.448,41.388],[-114.755,41.044],[-115.202,40.672],[-115.453,40.514],[-115.722,40.235],[-116.187,39.91],[-116.707,39.488],[-117.043,39.314],[-117.424,39.24],[-117.722,39.24],[-118.047,39.287],[-118.401,39.361],[-118.671,39.575],[-118.771,39.68],[-118.809,39.947],[-118.717,40.328],[-118.629,40.53],[-118.41,41.202],[-118.438,41.444],[-118.578,41.677],[-118.894,41.807],[-119.303,41.807],[-119.833,41.909],[-120.084,42.077],[-120.261,42.263],[-120.289,42.337],[-120.447,42.421],[-120.549,42.402],[-120.652,42.3],[-120.869,42.183],[-120.986,42.244],[-121.052,42.402],[-120.977,42.523],[-120.903,42.597],[-120.898,42.745],[-120.972,42.989],[-121.047,43.076],[-121.121,43.221],[-121.172,43.369],[-121.117,43.481],[-121.014,43.555],[-120.875,43.807],[-120.819,44.011],[-120.847,44.16],[-120.893,44.299],[-121.014,44.355],[-121.135,44.383],[-121.284,44.392],[-121.373,44.37],[-121.489,44.386],[-121.559,44.498],[-121.592,44.626],[-121.684,44.783],[-121.675,44.961],[-121.637,45.099],[-121.58,45.167],[-121.514,45.395],[-121.377,45.536],[-121.126,45.694],[-120.586,45.955],[-120.298,46.187],[-120.224,46.466],[-120.252,46.755],[-120.363,47.071],[-120.549,47.313],[-120.754,47.62],[-120.865,47.713],[-120.94,47.843],[-120.959,48.02],[-120.949,48.299],[-120.884,48.578],[-120.763,48.95],[-120.596,49.117],[-120.484,49.164],[-120.296,49.202]]]}},{"type":"Feature","properties":{"density":3},"geometry":{"type":"Polygon","coordinates":[[[-121.681,44.98],[-121.644,45.333],[-121.402,45.575],[-120.082,46.068],[-119.384,46.366],[-118.594,46.849],[-118.222,47.11],[-117.896,47.389],[-117.812,47.575],[-117.831,47.751],[-117.952,47.881],[-118.417,47.909],[-119.254,47.891],[-119.682,47.863],[-120.203,47.733],[-120.575,47.714],[-120.872,47.807],[-120.928,48.133],[-120.854,48.291],[-120.761,48.309],[-120.528,48.309],[-120.286,48.374],[-120.119,48.43],[-119.914,48.57],[-119.84,48.83],[-119.914,48.932],[-120.054,48.979],[-120.705,48.793],[-120.816,48.849],[-120.816,48.97],[-120.705,49.239],[-120.384,49.839],[-120.105,50.09],[-119.631,50.341],[-119.226,50.397],[-118.891,50.397],[-118.305,50.258],[-117.984,50.146],[-117.496,49.937],[-117.259,49.769],[-116.98,49.616],[-116.701,49.616],[-116.506,49.742],[-116.243,49.817],[-115.934,49.811],[-115.683,49.756],[-114.497,49.616],[-113.953,49.686],[-113.506,49.825],[-112.669,50.174],[-112.132,50.6],[-111.587,51.305],[-111.28,51.501],[-111.128,51.573],[-110.594,51.604],[-110.155,51.51],[-109.15,50.945],[-108.365,50.725],[-107.644,50.568],[-106.796,50.537],[-106.231,50.443],[-105.572,50.254],[-104.881,50.191],[-104.316,50.035],[-103.532,49.878],[-102.81,49.689],[-101.931,49.626],[-100.832,49.846],[-100.55,49.972],[-99.905,50.373],[-99.325,50.882],[-98.987,51.018],[-98.572,51.102],[-98.195,51.102],[-97.411,51.008],[-96.218,50.788],[-94.455,50.274],[-93.613,50.066],[-92.765,49.783],[-91.792,49.375],[-91.164,49.061],[-89.952,48.361],[-89.181,47.77],[-87.712,46.44],[-86.938,45.634],[-86.48,44.943],[-86.061,44.115],[-85.891,43.286],[-85.86,42.69],[-85.86,42.062],[-86.052,41.446],[-86.266,40.953],[-86.563,40.609],[-86.963,40.311],[-87.712,39.99],[-88.358,39.877],[-89.375,39.99],[-90.976,40.43],[-93.157,41.136],[-95.073,41.849],[-96.296,42.196],[-97.329,42.461],[-98.403,42.88],[-99.093,43.236],[-100.035,43.759],[-101.939,45.014],[-103.186,45.42],[-104.128,45.703],[-105.886,45.985],[-106.827,46.048],[-108.24,45.546],[-109.307,45.326],[-110.123,45.326],[-111.002,45.232],[-111.818,44.981],[-112.54,44.541],[-113.09,44.181],[-113.733,43.663],[-113.977,43.373],[-114.27,42.955],[-114.424,42.648],[-114.647,42.257],[-114.772,41.769],[-114.912,41.448],[-115.177,41.169],[-115.386,41.002],[-115.805,40.876],[-116.0,40.862],[-116.112,40.89],[-116.418,41.141],[-116.6,41.253],[-116.992,41.407],[-117.116,41.514],[-117.172,41.769],[-117.269,41.866],[-117.437,41.922],[-117.691,41.799],[-117.911,41.448],[-118.148,41.378],[-118.483,41.35],[-118.776,41.42],[-119.515,41.713],[-119.962,41.95],[-120.366,42.104],[-120.534,42.257],[-120.869,42.62],[-121.036,42.899],[-121.022,43.262],[-120.911,43.541],[-120.729,43.833],[-120.677,44.05],[-120.677,44.219],[-120.806,44.385],[-120.959,44.422],[-121.264,44.459],[-121.492,44.529],[-121.583,44.596],[-121.678,44.777],[-121.69,44.906],[-121.681,44.98]]]}},{"type":"Feature","properties":{"density":3},"geometry":{"type":"Polygon","coordinates":[[[-121.687,44.902],[-121.625,45.231],[-121.507,45.454],[-121.187,45.721],[-120.588,45.902],[-120.071,45.944],[-119.676,46.075],[-119.136,46.299],[-118.764,46.55],[-118.417,46.946],[-118.31,47.215],[-118.251,47.528],[-118.314,47.716],[-118.396,47.835],[-118.628,47.946],[-119.004,48.009],[-119.193,48.03],[-119.611,47.883],[-119.891,47.715],[-120.155,47.653],[-120.453,47.682],[-120.692,47.74],[-120.936,47.855],[-120.94,48.07],[-120.833,48.169],[-120.541,48.218],[-120.374,48.215],[-120.196,48.248],[-119.937,48.469],[-119.89,48.525],[-119.853,48.72],[-119.844,48.86],[-119.881,48.944],[-119.946,48.99],[-120.067,48.99],[-120.225,48.971],[-120.451,48.84],[-120.569,48.813],[-120.878,48.835],[-121.093,48.956],[-121.132,49.188],[-120.936,49.432],[-120.713,49.543],[-120.239,49.725],[-119.918,49.962],[-119.74,50.136],[-119.594,50.253],[-119.499,50.381],[-119.486,50.562],[-119.501,50.669],[-119.681,50.771],[-119.89,50.743],[-120.225,50.562],[-120.42,50.408],[-120.657,50.255],[-120.895,50.157],[-121.174,50.004],[-121.302,49.979],[-121.397,50.032],[-121.397,50.157],[-121.215,50.394],[-121.146,50.562],[-121.174,50.632],[-121.229,50.701],[-121.493,50.658],[-121.73,50.561],[-121.954,50.502],[-122.008,50.563],[-122.006,50.667],[-121.913,50.813],[-121.885,50.911],[-121.899,51.036],[-121.969,51.19],[-122.262,51.19],[-122.583,51.078],[-122.714,51.059],[-122.834,51.106],[-122.876,51.162],[-122.908,51.323],[-122.838,51.439],[-122.709,51.55],[-122.457,51.679],[-122.192,51.845],[-121.48,52.431],[-120.885,52.792],[-120.197,52.85],[-119.89,52.822],[-119.695,52.752],[-119.234,52.641],[-118.425,52.236],[-117.811,51.901],[-117.189,51.49],[-116.737,51.12],[-116.123,50.757],[-115.649,50.548],[-115.105,50.394],[-114.659,50.241],[-114.045,50.213],[-113.403,50.283],[-112.929,50.394],[-112.413,50.646],[-112.231,50.98],[-112.092,51.287],[-112.259,51.803],[-112.301,52.096],[-112.315,52.961],[-112.259,53.31],[-111.924,53.659],[-111.269,53.798],[-110.92,53.729],[-109.887,53.38],[-108.771,53.087],[-105.479,51.72],[-104.921,51.538],[-104.182,51.371],[-103.735,51.245],[-103.331,51.19],[-102.441,50.897],[-101.908,50.614],[-101.657,50.143],[-101.437,50.018],[-100.809,49.767],[-100.244,49.767],[-99.146,49.924],[-97.984,50.238],[-97.482,50.52],[-96.886,50.708],[-95.85,50.928],[-95.253,50.928],[-93.684,50.74],[-91.957,50.206],[-90.845,49.579],[-90.106,49.013],[-88.536,48.009],[-86.904,46.471],[-86.339,45.404],[-85.899,44.211],[-85.68,43.018],[-85.617,42.547],[-85.585,41.888],[-85.68,41.041],[-85.868,40.13],[-86.0,39.387],[-86.464,38.875],[-86.81,38.812],[-87.413,38.656],[-87.957,38.614],[-88.585,38.698],[-89.276,38.656],[-89.874,38.751],[-90.859,39.0],[-91.455,39.126],[-92.24,39.251],[-92.868,39.251],[-93.345,39.305],[-93.872,39.408],[-94.406,39.659],[-95.285,40.162],[-96.76,41.26],[-98.047,42.579],[-98.643,42.767],[-99.271,43.238],[-100.119,43.332],[-101.029,43.301],[-101.657,43.175],[-102.692,43.363],[-103.101,43.834],[-103.603,44.336],[-103.822,44.744],[-103.917,45.435],[-104.544,46.188],[-105.204,46.377],[-105.643,46.377],[-106.334,46.094],[-106.773,45.718],[-107.118,45.498],[-107.715,45.247],[-109.064,45.184],[-109.818,45.09],[-110.191,45.067],[-110.568,44.969],[-110.979,44.776],[-111.279,44.397],[-111.45,44.085],[-111.827,43.646],[-112.172,43.206],[-112.58,42.767],[-113.396,42.296],[-114.432,41.763],[-114.871,41.606],[-115.122,41.543],[-115.97,41.166],[-116.409,40.915],[-116.716,40.627],[-116.849,40.35],[-116.908,40.109],[-117.103,39.719],[-117.215,39.537],[-117.438,39.496],[-117.553,39.511],[-117.732,39.697],[-117.807,39.839],[-117.759,40.709],[-117.692,40.945],[-117.355,41.449],[-117.382,41.714],[-117.508,41.951],[-117.689,42.048],[-117.927,42.048],[-118.429,41.923],[-118.719,41.872],[-119.029,41.913],[-119.732,42.128],[-120.046,42.202],[-120.457,42.426],[-120.739,42.675],[-120.786,42.899],[-120.789,43.075],[-120.67,43.226],[-120.458,43.389],[-120.37,43.576],[-120.395,43.824],[-120.535,43.974],[-120.884,44.085],[-121.092,44.109],[-121.289,44.183],[-121.414,44.258],[-121.637,44.574],[-121.687,44.902]]]}},{"type":"Feature","properties":{"density":3},"geometry":{"type":"Polygon","coordinates":[[[-115.745,37.431],[-115.828,37.555],[-115.919,37.593],[-116.018,37.543],[-116.109,37.403],[-116.146,37.332],[-116.13,37.233],[-116.163,37.204],[-116.208,37.217],[-116.246,37.266],[-116.254,37.423],[-116.204,37.551],[-116.138,37.675],[-115.977,37.874],[-115.812,38.134],[-115.646,38.287],[-115.539,38.324],[-115.44,38.395],[-115.344,38.506],[-115.295,38.61],[-115.072,38.907],[-114.997,38.969],[-114.91,38.99],[-114.799,38.94],[-114.72,38.8],[-114.724,38.729],[-114.745,38.663],[-114.799,38.634],[-114.91,38.61],[-114.964,38.548],[-115.005,38.39],[-114.968,38.266],[-114.993,38.217],[-115.059,38.134],[-115.158,38.052],[-115.212,37.965],[-115.22,37.882],[-115.245,37.828],[-115.307,37.737],[-115.373,37.713],[-115.547,37.688],[-115.692,37.564],[-115.701,37.504],[-115.686,37.438],[-115.699,37.413],[-115.729,37.413],[-115.745,37.431]]]}},{"type":"Feature","properties":{"density":3},"geometry":{"type":"Polygon","coordinates":[[[-112.632,38.726],[-112.672,38.83],[-112.623,39.047],[-112.441,39.277],[-111.904,39.865],[-111.687,40.051],[-111.494,40.188],[-111.146,40.328],[-110.746,40.383],[-110.57,40.361],[-110.477,40.306],[-110.415,40.225],[-110.422,40.02],[-110.484,39.927],[-110.874,39.716],[-111.246,39.475],[-111.544,39.313],[-111.767,39.245],[-112.065,39.127],[-112.344,38.898],[-112.375,38.836],[-112.375,38.755],[-112.425,38.669],[-112.506,38.651],[-112.632,38.726]]]}},{"type":"Feature","properties":{"density":3},"geometry":{"type":"Polygon","coordinates":[[[-105.679,55.802],[-105.534,55.86],[-105.125,55.951],[-105.001,55.963],[-104.744,55.947],[-104.579,55.889],[-104.434,55.781],[-104.393,55.699],[-104.389,55.608],[-104.426,55.521],[-104.509,55.488],[-104.778,55.496],[-105.046,55.55],[-105.542,55.604],[-105.621,55.616],[-105.687,55.666],[-105.708,55.74],[-105.679,55.802]]]}}]}