{"type":"FeatureCollection","features":[{"type":"Feature","properties":{"density":1},"geometry":{"type":"Polygon","coordinates":[[[-73.295,19.122],[-73.48,19.139],[-73.545,19.129],[-73.595,19.102],[-73.646,19.062],[-73.669,19.018],[-73.683,18.883],[-73.622,18.768],[-73.403,18.552],[-73.305,18.265],[-73.17,18.056],[-72.91,17.813],[-72.66,17.715],[-72.188,17.674],[-71.887,17.715],[-71.702,17.762],[-71.617,17.799],[-71.479,17.914],[-71.425,18.036],[-71.412,18.144],[-71.476,18.248],[-71.698,18.343],[-72.012,18.437],[-72.4,18.606],[-72.603,18.738],[-72.92,19.001],[-73.089,19.082],[-73.295,19.122]]]}},{"type":"Feature","properties":{"density":1},"geometry":{"type":"Polygon","coordinates":[[[-82.721,24.683],[-82.785,24.606],[-82.826,24.511],[-82.846,24.352],[-82.809,24.234],[-82.701,23.998],[-82.698,23.843],[-82.86,23.262],[-82.856,23.107],[-82.823,23.013],[-82.799,22.982],[-82.742,22.962],[-82.701,23.009],[-82.661,23.148],[-82.563,23.377],[-82.276,23.846],[-82.245,23.988],[-82.283,24.356],[-82.239,24.501],[-82.225,24.619],[-82.252,24.71],[-82.36,24.784],[-82.482,24.781],[-82.721,24.683]]]}},{"type":"Feature","properties":{"density":1},"geometry":{"type":"Polygon","coordinates":[[[-82.006,23.168],[-81.979,23.141],[-81.928,23.127],[-81.888,23.178],[-81.844,23.38],[-81.732,23.694],[-81.678,23.893],[-81.668,24.008],[-81.665,24.106],[-81.716,24.174],[-81.759,24.163],[-81.894,23.941],[-81.982,23.509],[-82.009,23.293],[-82.006,23.168]]]}},{"type":"Feature","properties":{"density":1},"geometry":{"type":"Polygon","coordinates":[[[-81.239,24.204],[-81.257,24.247],[-81.286,24.247],[-81.38,24.195],[-81.414,24.152],[-81.477,23.995],[-81.491,23.835],[-81.45,23.362],[-81.317,23.065],[-81.288,23.041],[-81.257,23.041],[-81.236,23.059],[-81.23,23.146],[-81.311,23.371],[-81.338,23.673],[-81.29,24.044],[-81.272,24.136],[-81.239,24.204]]]}},{"type":"Feature","properties":{"density":1},"geometry":{"type":"Polygon","coordinates":[[[-81.684,23.395],[-81.695,23.419],[-81.714,23.42],[-81.737,23.378],[-81.735,23.177],[-81.711,23.131],[-81.669,23.168],[-81.665,23.2],[-81.684,23.395]]]}},{"type":"Feature","properties":{"density":1},"geometry":{"type":"Polygon","coordinates":[[[-84.123,31.13],[-84.345,31.142],[-84.426,31.124],[-84.438,31.108],[-84.401,31.073],[-84.152,31.045],[-84.051,31.054],[-84.045,31.097],[-84.123,31.13]]]}},{"type":"Feature","properties":{"density":1},"geometry":{"type":"Polygon","coordinates":[[[-86.649,31.212],[-86.682,31.161],[-86.654,31.14],[-86.619,31.139],[-86.444,31.188],[-86.423,31.208],[-86.427,31.227],[-86.51,31.244],[-86.601,31.239],[-86.649,31.212]]]}},{"type":"Feature","properties":{"density":1},"geometry":{"type":"Polygon","coordinates":[[[-82.46,32.513],[-82.646,32.184],[-82.639,32.034],[-82.613,32.004],[-82.568,31.992],[-82.514,32.033],[-82.459,32.138],[-82.409,32.367],[-82.354,32.516],[-82.352,32.567],[-82.393,32.583],[-82.46,32.513]]]}},{"type":"Feature","properties":{"density":1},"geometry":{"type":"Polygon","coordinates":[[[-82.736,31.616],[-82.754,31.571],[-82.744,31.549],[-82.696,31.576],[-82.685,31.649],[-82.709,31.654],[-82.736,31.616]]]}},{"type":"Feature","properties":{"density":1},"geometry":{"type":"Polygon","coordinates":[[[-90.409,31.23],[-90.211,31.143],[-90.148,31.099],[-90.121,31.056],[-90.193,31.057],[-90.272,31.084],[-90.457,31.194],[-90.452,31.236],[-90.409,31.23]]]}},{"type":"Feature","properties":{"density":1},"geometry":{"type":"Polygon","coordinates":[[[-94.206,31.01],[-94.509,30.874],[-94.818,30.808],[-95.046,30.808],[-95.284,30.838],[-95.456,30.838],[-95.962,30.676],[-96.013,30.681],[-96.155,30.737],[-96.185,30.783],[-96.195,31.167],[-96.22,31.243],[-96.276,31.299],[-96.332,31.329],[-96.413,31.345],[-96.499,31.334],[-96.57,31.279],[-96.605,31.223],[-96.625,31.167],[-96.651,30.955],[-96.752,30.813],[-96.838,30.762],[-97.096,30.666],[-97.172,30.621],[-97.309,30.373],[-97.279,30.114],[-97.198,29.821],[-97.091,29.633],[-96.929,29.482],[-96.833,29.436],[-96.307,29.335],[-96.053,29.223],[-95.957,29.198],[-95.664,29.193],[-95.497,29.168],[-95.259,29.021],[-95.103,28.982],[-94.904,28.979],[-94.617,28.894],[-94.452,28.867],[-94.327,28.861],[-94.185,28.891],[-94.081,28.962],[-93.983,29.093],[-93.784,29.478],[-93.763,29.603],[-93.801,29.758],[-93.983,30.113],[-94.02,30.197],[-94.03,30.265],[-94.03,30.335],[-93.925,30.595],[-93.905,30.683],[-93.912,30.818],[-93.956,30.906],[-94.033,30.97],[-94.141,31.017],[-94.206,31.01]]]}},{"type":"Feature","properties":{"density":1},"geometry":{"type":"Polygon","coordinates":[[[-121.207,47.515],[-121.251,47.515],[-121.271,47.488],[-121.267,47.38],[-121.22,47.374],[-121.193,47.39],[-121.176,47.475],[-121.207,47.515]]]}},{"type":"Feature","properties":{"density":1},"geometry":{"type":"Polygon","coordinates":[[[-120.835,48.447],[-120.879,48.46],[-120.923,48.423],[-120.927,48.379],[-120.9,48.342],[-120.761,48.288],[-120.67,48.163],[-120.592,48.096],[-120.329,47.971],[-120.238,47.853],[-120.174,47.819],[-120.12,47.809],[-120.063,47.819],[-120.042,47.856],[-120.046,47.893],[-120.079,47.944],[-120.174,48.028],[-120.407,48.146],[-120.66,48.359],[-120.835,48.447]]]}},{"type":"Feature","properties":{"density":1},"geometry":{"type":"Polygon","coordinates":[[[-118.148,50.005],[-118.219,49.97],[-118.244,49.924],[-118.239,49.656],[-118.168,49.453],[-118.097,49.372],[-118.062,49.367],[-118.021,49.387],[-118.001,49.428],[-118.001,49.494],[-118.052,49.615],[-118.057,49.737],[-118.031,49.808],[-117.955,49.873],[-117.94,49.954],[-118.011,50.005],[-118.148,50.005]]]}},{"type":"Feature","properties":{"density":1},"geometry":{"type":"Polygon","coordinates":[[[-118.882,51.469],[-119.004,51.453],[-119.178,51.4],[-119.824,51.119],[-120.143,50.876],[-120.363,50.633],[-120.72,50.185],[-120.788,50.003],[-120.849,49.897],[-120.894,49.866],[-120.948,49.859],[-121.16,49.889],[-121.259,49.882],[-121.327,49.813],[-121.441,49.593],[-121.525,49.327],[-121.517,49.16],[-121.487,49.099],[-121.35,48.97],[-121.297,48.765],[-121.229,48.651],[-121.168,48.598],[-121.107,48.591],[-120.993,48.629],[-120.894,48.743],[-120.727,48.993],[-120.629,49.099],[-120.325,49.32],[-120.173,49.525],[-119.96,49.92],[-119.877,50.018],[-119.535,50.269],[-119.376,50.322],[-119.171,50.269],[-118.996,50.246],[-118.92,50.254],[-118.753,50.345],[-118.518,50.565],[-118.29,50.907],[-118.115,51.119],[-118.039,51.195],[-117.72,51.438],[-117.462,51.696],[-117.462,51.757],[-117.568,51.841],[-117.66,51.864],[-117.758,51.864],[-117.865,51.841],[-118.183,51.689],[-118.7,51.491],[-118.806,51.461],[-118.882,51.469]]]}},{"type":"Feature","properties":{"density":1},"geometry":{"type":"Polygon","coordinates":[[[-97.529,21.969],[-97.596,21.972],[-97.657,21.942],[-97.713,21.846],[-97.725,21.78],[-97.716,21.632],[-97.641,21.38],[-97.628,21.234],[-97.61,21.186],[-97.351,20.896],[-97.2,20.808],[-97.086,20.772],[-97.007,20.781],[-96.906,20.831],[-96.84,20.901],[-96.807,20.964],[-96.8,21.045],[-96.926,21.306],[-97.009,21.578],[-97.113,21.74],[-97.25,21.864],[-97.378,21.929],[-97.529,21.969]]]}},{"type":"Feature","properties":{"density":1},"geometry":{"type":"Polygon","coordinates":[[[-94.948,17.932],[-95.006,17.907],[-95.062,17.83],[-95.066,17.773],[-95.041,17.734],[-94.982,17.73],[-94.858,17.838],[-94.745,17.881],[-94.57,17.92],[-94.513,17.944],[-94.492,17.974],[-94.532,18.001],[-94.606,18.0],[-94.948,17.932]]]}},{"type":"Feature","properties":{"density":1},"geometry":{"type":"Polygon","coordinates":[[[-93.248,17.762],[-93.293,17.751],[-93.309,17.721],[-93.271,17.701],[-93.082,17.701],[-92.911,17.739],[-92.897,17.76],[-92.922,17.778],[-93.248,17.762]]]}},{"type":"Feature","properties":{"density":1},"geometry":{"type":"Polygon","coordinates":[[[-93.9,17.994],[-93.925,17.971],[-93.925,17.928],[-93.891,17.899],[-93.808,17.872],[-93.229,17.859],[-93.166,17.868],[-93.157,17.888],[-93.16,17.915],[-93.184,17.928],[-93.416,17.946],[-93.677,18.007],[-93.846,18.014],[-93.9,17.994]]]}},{"type":"Feature","properties":{"density":1},"geometry":{"type":"Polygon","coordinates":[[[-93.124,17.877],[-93.47,17.877],[-93.535,17.847],[-93.486,17.818],[-93.128,17.811],[-93.072,17.838],[-93.097,17.87],[-93.124,17.877]]]}},{"type":"Feature","properties":{"density":1},"geometry":{"type":"Polygon","coordinates":[[[-92.496,17.919],[-93.029,17.89],[-93.238,17.917],[-93.322,17.953],[-93.335,17.931],[-93.292,17.897],[-93.157,17.852],[-92.921,17.816],[-92.566,17.82],[-92.485,17.834],[-92.453,17.859],[-92.451,17.888],[-92.496,17.919]]]}},{"type":"Feature","properties":{"density":1},"geometry":{"type":"Polygon","coordinates":[[[-89.972,14.448],[-88.588,14.807],[-87.845,15.063],[-87.101,15.294],[-86.461,15.55],[-85.897,15.935],[-85.487,16.422],[-85.179,17.037],[-84.897,17.549],[-84.667,18.062],[-84.385,18.472],[-84.026,18.933],[-83.667,19.19],[-83.257,19.395],[-82.821,19.702],[-82.386,20.163],[-81.822,20.984],[-81.54,21.599],[-81.207,22.239],[-80.72,22.701],[-80.207,23.085],[-79.823,23.341],[-79.515,23.623],[-79.362,24.059],[-79.285,24.572],[-79.182,25.674],[-79.182,26.212],[-79.285,26.699],[-79.49,27.263],[-79.772,27.75],[-80.335,28.852],[-80.489,29.518],[-80.515,30.159],[-80.387,30.825],[-80.079,31.338],[-79.567,31.85],[-78.413,32.67],[-77.696,32.952],[-75.953,33.567],[-75.261,33.683],[-74.492,33.683],[-73.646,33.529],[-72.877,33.298],[-72.032,33.144],[-71.109,33.068],[-70.263,33.106],[-69.648,33.26],[-68.841,33.49],[-67.918,33.798],[-67.188,34.221],[-66.496,34.567],[-65.535,34.682],[-63.843,34.682],[-63.151,34.644],[-61.152,34.644],[-60.306,35.028],[-60.037,35.566],[-59.922,36.181],[-60.306,37.143],[-61.69,38.411],[-62.152,38.796],[-62.728,39.103],[-63.267,39.257],[-63.651,39.295],[-63.959,39.219],[-64.381,39.065],[-65.842,38.181],[-66.073,38.065],[-66.573,37.988],[-67.034,38.142],[-67.418,38.411],[-67.764,38.603],[-68.264,38.719],[-69.11,38.719],[-69.879,38.45],[-70.532,38.181],[-71.493,37.758],[-72.455,37.412],[-73.954,37.066],[-74.415,37.027],[-76.269,36.944],[-77.14,36.927],[-77.687,36.859],[-77.978,36.807],[-78.285,36.79],[-78.969,36.807],[-79.344,36.876],[-79.549,36.961],[-79.669,37.183],[-79.754,37.576],[-79.891,37.952],[-80.045,38.242],[-80.284,38.482],[-80.592,38.635],[-80.882,38.721],[-81.173,38.772],[-81.736,38.789],[-81.993,38.755],[-83.462,38.396],[-84.47,38.225],[-84.863,38.14],[-85.41,38.055],[-86.008,37.901],[-86.435,37.73],[-86.811,37.525],[-87.187,37.269],[-87.512,37.012],[-88.075,36.431],[-89.118,35.432],[-89.553,34.971],[-90.399,34.15],[-91.527,32.946],[-92.014,32.51],[-92.398,32.228],[-93.603,31.793],[-93.756,31.895],[-93.936,32.177],[-93.961,32.433],[-93.91,32.818],[-93.808,33.048],[-93.423,34.099],[-93.398,34.458],[-93.449,34.919],[-93.68,35.252],[-93.936,35.457],[-94.166,35.56],[-94.525,35.586],[-94.884,35.586],[-95.55,35.432],[-95.935,35.304],[-96.242,35.124],[-96.601,34.868],[-97.908,33.433],[-97.96,33.1],[-97.96,32.715],[-98.088,31.869],[-98.216,31.382],[-98.447,30.921],[-98.575,30.716],[-98.805,30.46],[-99.215,30.152],[-99.549,29.947],[-99.907,29.691],[-100.266,29.409],[-100.522,29.076],[-100.651,28.768],[-100.753,28.41],[-100.779,28.051],[-100.933,27.077],[-100.907,26.872],[-100.779,26.539],[-100.215,25.437],[-100.112,25.206],[-99.933,24.719],[-99.805,24.001],[-99.779,23.694],[-99.779,23.514],[-99.805,23.284],[-99.933,23.027],[-100.317,22.592],[-100.727,22.31],[-100.958,22.13],[-101.343,21.797],[-101.701,21.438],[-101.83,21.182],[-101.932,20.9],[-101.881,20.618],[-101.624,20.388],[-101.317,20.157],[-100.676,19.824],[-100.241,19.542],[-100.035,19.286],[-99.856,19.004],[-99.728,18.722],[-99.574,18.158],[-99.574,17.953],[-99.6,17.671],[-99.677,17.287],[-99.728,17.133],[-99.856,16.928],[-99.933,16.748],[-100.189,15.98],[-100.292,15.544],[-100.471,14.519],[-100.574,14.237],[-100.958,13.852],[-101.112,13.673],[-101.291,13.417],[-101.394,13.109],[-101.445,12.776],[-101.317,12.315],[-101.035,11.905],[-100.702,11.494],[-99.933,10.879],[-99.446,10.521],[-99.01,10.264],[-98.472,10.008],[-98.011,9.905],[-97.396,9.88],[-96.755,9.957],[-96.14,10.239],[-95.755,10.649],[-95.422,10.931],[-95.038,11.315],[-94.73,11.674],[-94.397,12.289],[-94.218,12.494],[-93.936,12.776],[-93.705,12.981],[-93.5,13.083],[-93.321,13.237],[-92.757,13.596],[-92.398,13.75],[-92.091,13.929],[-91.296,14.288],[-89.972,14.448]]]}},{"type":"Feature","properties":{"density":1},"geometry":{"type":"Polygon","coordinates":[[[-111.53,29.302],[-111.957,29.063],[-112.213,28.858],[-112.641,28.345],[-112.726,28.123],[-112.76,27.901],[-112.76,27.628],[-112.692,27.013],[-112.675,26.671],[-112.709,26.193],[-112.829,25.663],[-112.965,25.236],[-113.204,24.809],[-113.461,24.45],[-114.23,23.664],[-115.084,23.015],[-115.562,22.246],[-115.733,21.699],[-115.87,21.374],[-116.041,21.067],[-116.297,20.742],[-116.81,20.281],[-117.459,19.871],[-117.989,19.495],[-118.33,19.17],[-118.552,18.794],[-118.672,18.419],[-118.689,17.974],[-118.587,17.445],[-118.399,16.83],[-118.228,16.419],[-118.006,16.026],[-117.032,15.343],[-116.861,15.087],[-116.724,14.762],[-116.605,14.301],[-116.485,13.515],[-116.365,13.071],[-116.058,12.678],[-115.733,12.404],[-115.323,12.148],[-114.862,11.96],[-114.366,11.84],[-113.751,11.772],[-113.068,11.858],[-112.401,11.909],[-111.598,12.028],[-110.881,12.268],[-110.18,12.473],[-109.548,12.746],[-108.574,13.498],[-108.164,13.925],[-107.805,14.437],[-107.566,15.001],[-107.344,15.616],[-107.122,16.129],[-106.814,16.642],[-106.558,16.932],[-106.302,17.325],[-106.199,17.684],[-106.165,18.179],[-106.746,19.444],[-106.831,19.837],[-106.831,20.332],[-106.729,20.879],[-106.678,21.272],[-106.643,21.733],[-106.643,22.041],[-106.763,22.365],[-107.105,22.878],[-107.498,23.339],[-107.634,23.681],[-107.771,24.091],[-107.908,24.604],[-108.01,25.133],[-108.147,25.68],[-108.335,26.227],[-108.66,27.406],[-108.848,27.918],[-109.07,28.345],[-109.275,28.653],[-109.463,28.892],[-109.702,29.063],[-109.89,29.166],[-110.334,29.354],[-110.522,29.388],[-110.778,29.388],[-111.035,29.422],[-111.53,29.302]]]}},{"type":"Feature","properties":{"density":1},"geometry":{"type":"Polygon","coordinates":[[[-98.39,63.904],[-98.851,63.981],[-99.85,64.096],[-101.388,64.096],[-102.08,64.212],[-103.003,64.404],[-103.887,64.711],[-104.848,64.98],[-105.578,65.134],[-106.155,65.134],[-106.809,65.057],[-107.308,64.75],[-107.616,63.789],[-107.462,62.943],[-106.732,61.867],[-106.463,61.29],[-106.232,60.406],[-106.194,59.829],[-106.309,59.099],[-106.54,58.407],[-106.962,57.715],[-107.616,57.138],[-108.615,56.638],[-109.73,56.254],[-111.999,55.869],[-112.998,55.793],[-113.998,55.639],[-115.535,55.37],[-116.612,55.024],[-117.688,54.639],[-118.918,54.101],[-119.995,53.447],[-120.917,52.679],[-121.532,51.987],[-121.878,51.487],[-122.224,50.833],[-122.378,50.334],[-122.57,49.603],[-122.647,48.95],[-122.647,48.258],[-122.57,47.527],[-122.186,47.104],[-121.648,46.912],[-120.494,47.104],[-120.225,47.297],[-119.572,48.065],[-119.38,48.373],[-119.226,48.681],[-119.111,48.988],[-118.957,49.334],[-118.765,49.565],[-118.572,49.68],[-118.188,49.872],[-117.803,50.103],[-117.534,50.41],[-116.881,51.256],[-116.381,51.602],[-115.728,51.91],[-114.651,52.217],[-113.728,52.448],[-111.806,52.756],[-110.653,52.986],[-109.577,53.294],[-108.731,53.64],[-107.731,54.101],[-106.77,54.716],[-106.309,54.985],[-105.502,55.408],[-102.926,56.062],[-102.311,56.139],[-101.619,56.1],[-100.312,55.831],[-99.581,55.6],[-98.659,55.216],[-98.236,54.947],[-95.045,53.371],[-93.277,52.41],[-92.046,51.948],[-89.817,51.333],[-86.78,51.295],[-86.049,51.256],[-84.742,51.256],[-83.589,51.833],[-83.474,52.064],[-83.397,52.448],[-83.397,52.832],[-83.55,53.409],[-83.935,53.87],[-84.704,54.37],[-85.396,54.678],[-86.126,54.87],[-86.857,55.024],[-87.933,55.177],[-89.317,55.447],[-90.009,55.6],[-90.624,55.793],[-91.316,56.062],[-91.854,56.446],[-92.354,57.023],[-92.277,57.484],[-91.97,57.868],[-91.124,58.33],[-90.816,58.714],[-90.662,59.176],[-90.586,59.791],[-90.586,60.406],[-90.778,61.175],[-91.162,61.828],[-91.624,62.289],[-92.008,62.443],[-93.123,62.635],[-93.699,62.751],[-94.161,62.866],[-94.661,63.058],[-98.39,63.904]]]}},{"type":"Feature","properties":{"density":1},"geometry":{"type":"Polygon","coordinates":[[[-119.98,38.574],[-120.162,38.733],[-120.379,38.893],[-120.641,39.075],[-120.8,39.155],[-121.005,39.212],[-121.518,39.28],[-121.768,39.223],[-121.996,39.075],[-122.087,38.984],[-122.281,38.722],[-122.429,38.562],[-122.6,38.414],[-122.634,38.221],[-122.577,37.993],[-122.429,37.811],[-121.837,37.207],[-121.757,37.047],[-121.746,36.706],[-121.78,36.079],[-121.734,35.886],[-121.552,35.453],[-121.438,35.27],[-121.301,35.111],[-121.142,34.986],[-120.96,34.872],[-120.8,34.735],[-120.709,34.598],[-120.663,34.428],[-120.629,34.166],[-120.561,33.892],[-120.447,33.664],[-120.276,33.482],[-120.003,33.3],[-119.798,33.334],[-119.536,33.425],[-119.376,33.573],[-119.308,33.778],[-119.308,33.983],[-119.376,34.166],[-119.467,34.336],[-119.638,34.519],[-119.832,34.667],[-120.846,35.27],[-120.971,35.396],[-121.142,35.601],[-121.279,35.863],[-121.313,36.102],[-121.313,36.296],[-121.233,36.478],[-121.096,36.649],[-120.925,36.785],[-120.743,36.888],[-120.39,37.013],[-120.162,37.059],[-119.912,37.082],[-119.729,37.07],[-119.57,37.138],[-119.445,37.241],[-119.388,37.366],[-119.365,37.514],[-119.376,37.662],[-119.456,37.924],[-119.559,38.175],[-119.661,38.335],[-119.775,38.437],[-119.98,38.574]]]}},{"type":"Feature","properties":{"density":2},"geometry":{"type":"Polygon","coordinates":[[[-94.675,29.952],[-94.816,29.865],[-94.935,29.851],[-95.005,29.885],[-95.181,30.057],[-95.343,30.162],[-95.39,30.168],[-95.481,30.145],[-95.525,30.114],[-95.64,30.104],[-95.718,30.172],[-95.785,30.357],[-95.842,30.442],[-95.903,30.499],[-95.954,30.516],[-96.062,30.503],[-96.177,30.452],[-96.22,30.415],[-96.274,30.324],[-96.318,30.155],[-96.409,29.973],[-96.497,29.915],[-96.663,29.882],[-96.747,29.871],[-96.865,29.905],[-96.879,29.855],[-96.862,29.777],[-96.791,29.655],[-96.673,29.578],[-96.598,29.554],[-96.301,29.534],[-96.251,29.554],[-96.217,29.588],[-96.156,29.686],[-96.082,29.709],[-96.025,29.682],[-95.994,29.598],[-95.907,29.541],[-95.731,29.541],[-95.515,29.416],[-95.086,29.348],[-94.958,29.372],[-94.864,29.423],[-94.712,29.544],[-94.577,29.693],[-94.506,29.821],[-94.496,29.919],[-94.546,29.969],[-94.607,29.973],[-94.675,29.952]]]}},{"type":"Feature","properties":{"density":2},"geometry":{"type":"Polygon","coordinates":[[[-118.089,49.549],[-118.122,49.583],[-118.125,49.526],[-118.068,49.432],[-118.063,49.478],[-118.089,49.549]]]}},{"type":"Feature","properties":{"density":2},"geometry":{"type":"Polygon","coordinates":[[[-120.538,49.973],[-120.624,49.942],[-120.694,49.877],[-120.725,49.826],[-120.801,49.512],[-120.831,49.456],[-120.912,49.396],[-121.059,49.385],[-121.246,49.441],[-121.368,49.441],[-121.449,49.396],[-121.484,49.304],[-121.474,49.223],[-121.434,49.158],[-121.388,49.127],[-121.186,49.061],[-121.145,49.021],[-121.135,48.915],[-121.221,48.834],[-121.206,48.768],[-121.165,48.727],[-121.079,48.707],[-121.018,48.722],[-120.932,48.869],[-120.907,49.077],[-120.862,49.168],[-120.781,49.254],[-120.689,49.32],[-120.532,49.365],[-120.467,49.411],[-120.441,49.456],[-120.421,49.553],[-120.274,49.76],[-120.3,49.877],[-120.355,49.932],[-120.497,49.978],[-120.538,49.973]]]}},{"type":"Feature","properties":{"density":2},"geometry":{"type":"Polygon","coordinates":[[[-97.509,21.438],[-97.536,21.434],[-97.542,21.351],[-97.504,21.245],[-97.378,21.085],[-97.365,20.997],[-97.333,20.977],[-97.295,20.984],[-97.248,21.045],[-97.252,21.108],[-97.443,21.31],[-97.509,21.438]]]}},{"type":"Feature","properties":{"density":2},"geometry":{"type":"Polygon","coordinates":[[[-92.226,19.729],[-92.306,19.729],[-92.568,19.684],[-92.716,19.707],[-92.841,19.752],[-92.943,19.832],[-93.16,20.06],[-93.297,20.162],[-93.479,20.242],[-93.65,20.276],[-93.82,20.265],[-93.969,20.196],[-94.139,20.026],[-94.31,19.809],[-94.401,19.752],[-94.515,19.718],[-94.789,19.695],[-95.051,19.729],[-95.187,19.707],[-95.29,19.627],[-95.301,19.513],[-95.29,19.376],[-95.199,19.262],[-95.085,19.149],[-94.789,18.955],[-94.663,18.852],[-94.618,18.761],[-94.584,18.454],[-94.629,18.317],[-94.72,18.237],[-94.823,18.18],[-95.335,18.078],[-95.461,18.021],[-95.563,17.941],[-95.609,17.816],[-95.609,17.668],[-95.415,17.292],[-95.324,16.95],[-95.324,16.813],[-95.415,16.654],[-95.518,16.517],[-95.575,16.392],[-95.586,16.255],[-95.575,16.13],[-95.529,15.982],[-95.392,15.754],[-95.313,15.64],[-95.005,15.31],[-94.96,15.23],[-94.857,15.105],[-94.789,14.968],[-94.686,14.672],[-94.595,14.137],[-94.538,13.943],[-94.447,13.772],[-94.356,13.658],[-94.253,13.624],[-93.957,13.681],[-93.581,13.989],[-93.445,14.046],[-93.274,14.057],[-92.841,14.046],[-92.738,14.08],[-92.647,14.148],[-92.579,14.308],[-92.522,14.763],[-92.511,14.991],[-92.522,15.093],[-92.59,15.207],[-92.784,15.378],[-93.035,15.538],[-93.388,15.834],[-93.536,16.073],[-93.57,16.495],[-93.547,16.631],[-93.445,16.893],[-93.342,17.075],[-93.217,17.189],[-93.091,17.246],[-92.932,17.235],[-92.784,17.178],[-92.624,17.087],[-92.397,17.053],[-92.306,17.087],[-92.226,17.189],[-92.135,17.451],[-92.135,17.577],[-92.18,17.702],[-92.294,17.873],[-92.476,18.055],[-92.499,18.249],[-92.465,18.363],[-92.408,18.477],[-92.169,18.875],[-91.93,19.194],[-91.907,19.274],[-91.918,19.422],[-91.952,19.49],[-92.112,19.673],[-92.157,19.707],[-92.226,19.729]]]}},{"type":"Feature","properties":{"density":2},"geometry":{"type":"Polygon","coordinates":[[[-91.035,32.233],[-91.104,32.142],[-91.263,31.994],[-91.434,31.8],[-91.81,31.311],[-92.004,30.98],[-92.095,30.775],[-92.186,30.502],[-92.209,30.274],[-92.209,30.012],[-92.106,29.75],[-91.97,29.499],[-91.821,29.294],[-91.582,29.055],[-91.32,28.839],[-90.922,28.6],[-90.591,28.463],[-90.17,28.417],[-89.828,28.474],[-89.532,28.577],[-89.019,28.884],[-88.404,29.101],[-88.256,29.169],[-88.085,29.283],[-87.994,29.374],[-87.949,29.499],[-88.097,29.875],[-88.165,29.921],[-88.302,29.966],[-88.894,30.023],[-89.122,30.08],[-89.35,30.194],[-89.543,30.32],[-89.646,30.433],[-89.714,30.547],[-89.748,30.661],[-89.76,30.878],[-89.737,30.98],[-89.566,31.197],[-89.475,31.242],[-88.814,31.311],[-88.621,31.379],[-88.142,31.675],[-87.994,31.8],[-87.892,31.914],[-87.402,32.769],[-87.299,32.882],[-87.072,33.065],[-86.992,33.179],[-86.946,33.27],[-86.867,33.532],[-86.844,33.668],[-86.548,33.93],[-86.411,33.948],[-85.505,33.879],[-84.856,33.93],[-83.865,34.153],[-82.908,34.528],[-82.686,34.665],[-82.601,34.836],[-82.601,35.024],[-82.703,35.161],[-82.891,35.246],[-83.353,35.246],[-84.361,34.836],[-84.702,34.751],[-85.044,34.768],[-85.283,34.973],[-85.317,35.229],[-85.181,35.502],[-84.856,35.742],[-84.378,35.895],[-83.37,36.169],[-82.823,36.391],[-82.396,36.63],[-82.139,36.869],[-82.003,37.211],[-82.105,37.57],[-82.362,37.741],[-82.703,37.792],[-83.267,37.775],[-84.19,37.587],[-85.352,37.262],[-85.745,37.108],[-86.086,36.903],[-86.343,36.647],[-86.462,36.442],[-86.736,35.742],[-86.992,35.417],[-87.282,35.212],[-87.658,35.041],[-87.983,34.956],[-88.683,34.956],[-88.82,34.904],[-88.991,34.751],[-89.093,34.631],[-89.196,34.443],[-89.298,34.016],[-89.384,33.777],[-89.674,33.349],[-90.101,32.905],[-90.324,32.717],[-90.939,32.324],[-91.035,32.233]]]}},{"type":"Feature","properties":{"density":2},"geometry":{"type":"Polygon","coordinates":[[[-119.717,38.278],[-119.793,38.283],[-119.844,38.237],[-119.839,38.045],[-119.687,37.665],[-119.636,37.61],[-119.611,37.605],[-119.53,37.645],[-119.494,37.731],[-119.474,37.923],[-119.601,38.161],[-119.656,38.237],[-119.717,38.278]]]}},{"type":"Feature","properties":{"density":3},"geometry":{"type":"Polygon","coordinates":[[[-121.154,48.847],[-121.183,48.838],[-121.181,48.82],[-121.091,48.775],[-121.03,48.809],[-121.03,48.854],[-121.154,48.847]]]}},{"type":"Feature","properties":{"density":3},"geometry":{"type":"Polygon","coordinates":[[[-121.424,49.358],[-121.44,49.356],[-121.446,49.304],[-121.406,49.227],[-121.316,49.158],[-121.21,49.146],[-121.17,49.124],[-121.109,49.072],[-121.064,48.953],[-121.017,48.93],[-120.978,48.953],[-120.954,49.016],[-120.958,49.038],[-120.994,49.034],[-121.003,49.059],[-120.94,49.099],[-120.852,49.239],[-120.598,49.437],[-120.501,49.475],[-120.479,49.54],[-120.537,49.655],[-120.614,49.668],[-120.72,49.635],[-120.742,49.596],[-120.735,49.497],[-120.762,49.443],[-120.954,49.268],[-120.976,49.234],[-120.958,49.187],[-120.976,49.169],[-121.073,49.137],[-121.122,49.146],[-121.032,49.241],[-121.028,49.263],[-121.044,49.275],[-121.105,49.276],[-121.329,49.41],[-121.368,49.398],[-121.368,49.378],[-121.323,49.335],[-121.13,49.263],[-121.123,49.246],[-121.21,49.192],[-121.263,49.203],[-121.317,49.224],[-121.404,49.353],[-121.424,49.358]]]}},{"type":"Feature","properties":{"density":3},"geometry":{"type":"Polygon","coordinates":[[[-97.332,21.16],[-97.341,21.013],[-97.321,21.003],[-97.272,21.039],[-97.263,21.087],[-97.285,21.135],[-97.332,21.16]]]}},{"type":"Feature","properties":{"density":3},"geometry":{"type":"Polygon","coordinates":[[[-93.618,19.608],[-93.972,19.486],[-94.018,19.461],[-94.079,19.39],[-94.079,19.324],[-94.053,19.284],[-93.967,19.218],[-93.896,19.132],[-93.815,19.092],[-93.689,19.071],[-93.552,19.137],[-93.41,19.33],[-93.39,19.451],[-93.41,19.547],[-93.476,19.588],[-93.618,19.608]]]}}]}