{"type":"FeatureCollection","features":[{"type":"Feature","properties":{"density":1},"geometry":{"type":"Polygon","coordinates":[[[-108.402,29.249],[-108.423,29.346],[-108.37,29.456],[-108.314,29.495],[-108.291,29.472],[-108.308,29.29],[-108.339,29.237],[-108.399,29.248],[-108.402,29.249]]]}},{"type":"Feature","properties":{"density":1},"geometry":{"type":"Polygon","coordinates":[[[-110.221,27.373],[-110.147,27.348],[-110.122,27.313],[-110.126,27.286],[-110.173,27.281],[-110.213,27.3],[-110.237,27.331],[-110.228,27.371],[-110.221,27.373]]]}},{"type":"Feature","properties":{"density":1},"geometry":{"type":"Polygon","coordinates":[[[-105.146,20.284],[-104.912,20.287],[-104.662,20.132],[-104.646,20.076],[-104.673,19.989],[-104.731,19.883],[-104.782,19.866],[-104.962,19.916],[-104.989,19.933],[-104.984,19.999],[-105.009,20.017],[-105.06,19.981],[-105.127,19.966],[-105.213,19.979],[-105.264,20.137],[-105.343,20.19],[-105.357,20.221],[-105.312,20.256],[-105.15,20.285],[-105.146,20.284]]]}},{"type":"Feature","properties":{"density":1},"geometry":{"type":"Polygon","coordinates":[[[-104.276,21.131],[-104.232,21.14],[-104.198,21.113],[-104.187,21.069],[-104.207,21.033],[-104.284,21.035],[-104.297,21.064],[-104.279,21.126],[-104.276,21.131]]]}},{"type":"Feature","properties":{"density":1},"geometry":{"type":"Polygon","coordinates":[[[-104.011,21.444],[-103.944,21.402],[-103.936,21.373],[-103.966,21.371],[-104.016,21.403],[-104.028,21.422],[-104.012,21.445],[-104.011,21.444]]]}},{"type":"Feature","properties":{"density":1},"geometry":{"type":"Polygon","coordinates":[[[-104.86,19.707],[-104.717,19.668],[-104.693,19.637],[-104.691,19.572],[-104.744,19.544],[-104.821,19.561],[-104.876,19.635],[-104.878,19.695],[-104.864,19.706],[-104.86,19.707]]]}},{"type":"Feature","properties":{"density":1},"geometry":{"type":"Polygon","coordinates":[[[-104.568,19.658],[-104.521,19.688],[-104.462,19.669],[-104.441,19.644],[-104.429,19.568],[-104.495,19.461],[-104.573,19.43],[-104.641,19.456],[-104.664,19.485],[-104.665,19.515],[-104.583,19.606],[-104.571,19.65],[-104.568,19.658]]]}},{"type":"Feature","properties":{"density":1},"geometry":{"type":"Polygon","coordinates":[[[-104.219,19.465],[-104.162,19.44],[-104.128,19.381],[-104.137,19.315],[-104.168,19.285],[-104.286,19.257],[-104.428,19.254],[-104.493,19.298],[-104.495,19.357],[-104.378,19.364],[-104.286,19.455],[-104.227,19.466],[-104.219,19.465]]]}},{"type":"Feature","properties":{"density":1},"geometry":{"type":"Polygon","coordinates":[[[-103.265,19.107],[-103.332,19.086],[-103.566,19.071],[-103.692,19.079],[-103.791,19.119],[-103.843,19.175],[-103.869,19.308],[-103.845,19.342],[-103.657,19.44],[-103.549,19.469],[-103.46,19.464],[-103.336,19.36],[-103.309,19.301],[-103.251,19.275],[-103.19,19.204],[-103.196,19.147],[-103.259,19.11],[-103.265,19.107]]]}},{"type":"Feature","properties":{"density":1},"geometry":{"type":"Polygon","coordinates":[[[-98.848,16.884],[-98.902,16.895],[-98.981,16.886],[-99.008,16.871],[-99.007,16.839],[-98.928,16.795],[-98.841,16.804],[-98.819,16.832],[-98.847,16.88],[-98.848,16.884]]]}},{"type":"Feature","properties":{"density":1},"geometry":{"type":"Polygon","coordinates":[[[-101.0,17.426],[-100.821,17.412],[-100.799,17.401],[-100.795,17.374],[-100.865,17.356],[-101.034,17.365],[-101.045,17.4],[-101.01,17.422],[-101.0,17.426]]]}},{"type":"Feature","properties":{"density":1},"geometry":{"type":"Polygon","coordinates":[[[-101.537,17.849],[-101.457,17.855],[-101.429,17.831],[-101.458,17.806],[-101.534,17.807],[-101.56,17.818],[-101.542,17.846],[-101.537,17.849]]]}},{"type":"Feature","properties":{"density":1},"geometry":{"type":"Polygon","coordinates":[[[-96.869,28.009],[-96.292,28.13],[-95.678,28.148],[-95.074,28.25],[-94.06,28.539],[-93.576,28.65],[-92.432,28.799],[-91.605,28.883],[-91.223,28.846],[-90.824,28.567],[-90.656,28.12],[-90.749,26.93],[-90.842,26.455],[-91.196,25.284],[-91.307,24.614],[-91.363,23.972],[-91.363,23.368],[-91.524,22.918],[-91.589,22.23],[-91.654,21.793],[-91.654,21.365],[-91.58,20.863],[-91.422,20.268],[-91.236,19.858],[-90.65,18.873],[-90.501,18.547],[-89.915,17.924],[-89.273,16.938],[-88.994,16.659],[-88.567,16.352],[-87.804,16.064],[-87.59,15.952],[-87.083,15.902],[-86.665,15.79],[-86.38,15.544],[-86.16,15.031],[-86.181,14.426],[-86.435,13.719],[-87.274,13.109],[-87.74,12.855],[-87.955,12.689],[-88.232,12.421],[-89.51,11.79],[-90.97,11.176],[-92.291,10.478],[-92.802,10.237],[-93.76,9.846],[-94.542,9.688],[-96.374,9.548],[-99.243,9.44],[-101.859,9.377],[-106.965,9.314],[-109.204,9.377],[-110.104,9.461],[-110.71,9.628],[-111.799,10.277],[-112.322,10.8],[-112.74,11.532],[-112.761,12.16],[-112.719,12.976],[-112.489,13.562],[-111.547,14.776],[-110.92,15.194],[-110.229,15.383],[-109.601,15.487],[-108.932,15.634],[-108.074,15.948],[-107.174,16.555],[-106.316,17.078],[-106.171,17.364],[-106.078,17.726],[-106.134,18.368],[-106.276,19.152],[-106.256,19.764],[-106.161,20.02],[-106.053,20.206],[-105.921,20.314],[-105.776,20.376],[-105.565,20.43],[-105.007,20.483],[-104.664,20.396],[-104.539,20.255],[-104.382,20.147],[-104.114,20.061],[-103.832,20.04],[-103.419,20.04],[-103.142,20.147],[-103.017,20.377],[-102.67,20.836],[-102.26,21.095],[-102.001,21.204],[-101.625,21.586],[-101.379,22.055],[-101.357,22.557],[-101.318,22.975],[-101.044,23.327],[-100.659,23.573],[-100.269,23.93],[-100.034,24.276],[-99.576,24.648],[-99.042,24.953],[-98.348,25.095],[-97.644,25.413],[-97.402,25.932],[-97.444,26.744],[-97.368,27.213],[-97.224,27.628],[-96.979,27.927],[-96.869,28.009]]]}},{"type":"Feature","properties":{"density":1},"geometry":{"type":"Polygon","coordinates":[[[-108.254,27.081],[-108.301,27.135],[-108.333,27.212],[-108.333,27.248],[-108.314,27.271],[-108.254,27.277],[-108.224,27.247],[-108.2,27.168],[-108.2,27.087],[-108.226,27.057],[-108.25,27.072],[-108.254,27.081]]]}},{"type":"Feature","properties":{"density":1},"geometry":{"type":"Polygon","coordinates":[[[-93.335,49.957],[-92.96,49.948],[-91.882,49.629],[-91.188,49.367],[-90.748,49.161],[-89.825,48.778],[-89.317,48.676],[-88.809,48.633],[-87.513,48.261],[-86.44,48.025],[-85.789,47.857],[-85.181,47.771],[-84.588,47.782],[-82.638,48.017],[-82.067,47.998],[-81.513,47.951],[-80.703,47.585],[-80.261,47.173],[-79.857,46.76],[-79.119,46.469],[-78.699,46.277],[-78.349,45.944],[-78.167,45.597],[-78.035,45.509],[-77.917,45.291],[-77.917,45.116],[-78.042,44.884],[-78.173,44.722],[-78.404,44.591],[-79.173,44.225],[-80.382,43.803],[-80.832,43.691],[-81.217,43.466],[-81.554,43.381],[-81.957,43.381],[-82.332,43.513],[-82.585,43.756],[-83.185,44.506],[-83.41,44.75],[-83.654,44.863],[-84.038,44.966],[-84.882,44.975],[-85.21,44.9],[-85.632,44.741],[-86.954,44.366],[-87.142,44.328],[-87.526,44.319],[-87.695,44.356],[-87.929,44.516],[-88.135,44.825],[-88.173,45.088],[-88.332,45.547],[-88.585,45.856],[-88.801,46.091],[-89.082,46.213],[-89.523,46.325],[-91.079,46.944],[-91.454,47.178],[-93.563,48.031],[-94.042,48.313],[-94.22,48.566],[-94.267,48.763],[-94.267,48.997],[-94.248,49.119],[-94.154,49.306],[-93.826,49.663],[-93.442,49.934],[-93.335,49.957]]]}},{"type":"Feature","properties":{"density":1},"geometry":{"type":"Polygon","coordinates":[[[-81.87,28.006],[-81.94,28.022],[-81.972,27.998],[-82.015,27.909],[-82.013,27.81],[-81.929,27.593],[-81.881,27.298],[-81.822,27.199],[-81.798,27.121],[-81.766,27.1],[-81.742,27.108],[-81.723,27.148],[-81.726,27.252],[-81.806,27.478],[-81.803,27.786],[-81.836,27.912],[-81.87,28.006]]]}},{"type":"Feature","properties":{"density":1},"geometry":{"type":"Polygon","coordinates":[[[-86.71,45.69],[-86.9,45.703],[-87.104,45.744],[-87.348,45.703],[-87.511,45.622],[-87.661,45.472],[-87.769,45.147],[-87.769,44.929],[-87.661,44.712],[-87.538,44.549],[-87.335,44.373],[-86.9,44.21],[-86.615,44.155],[-86.384,44.142],[-86.059,44.183],[-85.19,44.237],[-84.769,44.373],[-84.511,44.495],[-84.09,44.631],[-83.547,44.698],[-83.153,44.726],[-82.936,44.712],[-82.475,44.644],[-82.054,44.644],[-81.714,44.712],[-81.416,44.794],[-80.954,45.065],[-80.37,45.323],[-79.501,45.445],[-79.216,45.527],[-78.904,45.649],[-78.673,45.771],[-78.537,45.961],[-78.537,46.586],[-78.632,46.966],[-78.836,47.264],[-79.121,47.522],[-79.488,47.74],[-79.719,47.821],[-80.058,47.875],[-80.316,47.875],[-80.587,47.835],[-80.94,47.712],[-81.239,47.563],[-81.497,47.359],[-81.836,47.196],[-82.176,47.101],[-83.045,47.034],[-83.547,46.952],[-83.981,46.816],[-84.457,46.613],[-85.149,46.205],[-85.434,46.056],[-85.801,45.934],[-86.71,45.69]]]}},{"type":"Feature","properties":{"density":1},"geometry":{"type":"Polygon","coordinates":[[[-84.897,44.556],[-84.94,44.554],[-84.958,44.531],[-84.917,44.511],[-84.717,44.528],[-84.536,44.479],[-84.422,44.47],[-84.361,44.483],[-84.304,44.558],[-84.307,44.59],[-84.354,44.644],[-84.423,44.669],[-84.507,44.674],[-84.584,44.654],[-84.704,44.594],[-84.829,44.569],[-84.897,44.556]]]}},{"type":"Feature","properties":{"density":1},"geometry":{"type":"Polygon","coordinates":[[[-100.887,51.116],[-100.841,51.113],[-100.76,51.063],[-100.614,51.05],[-100.539,50.991],[-100.49,50.998],[-100.478,51.03],[-100.487,51.104],[-100.535,51.168],[-100.741,51.247],[-100.842,51.247],[-100.88,51.232],[-100.926,51.179],[-100.912,51.122],[-100.887,51.116]]]}},{"type":"Feature","properties":{"density":1},"geometry":{"type":"Polygon","coordinates":[[[-99.794,52.04],[-99.837,52.043],[-99.839,51.988],[-99.776,51.918],[-99.73,51.836],[-99.69,51.829],[-99.662,51.861],[-99.665,51.9],[-99.739,52.0],[-99.794,52.04]]]}},{"type":"Feature","properties":{"density":1},"geometry":{"type":"Polygon","coordinates":[[[-108.352,29.247],[-108.38,29.257],[-108.443,29.372],[-108.457,29.465],[-108.314,29.692],[-108.277,29.72],[-108.227,29.724],[-108.2,29.672],[-108.198,29.586],[-108.286,29.392],[-108.28,29.263],[-108.293,29.232],[-108.343,29.245],[-108.352,29.247]]]}},{"type":"Feature","properties":{"density":1},"geometry":{"type":"Polygon","coordinates":[[[-96.721,17.688],[-96.75,17.67],[-96.75,17.639],[-96.683,17.622],[-96.651,17.591],[-96.613,17.591],[-96.601,17.629],[-96.657,17.677],[-96.721,17.688]]]}},{"type":"Feature","properties":{"density":1},"geometry":{"type":"Polygon","coordinates":[[[-98.882,16.811],[-98.962,16.839],[-98.979,16.89],[-98.964,16.935],[-98.882,16.947],[-98.826,17.002],[-98.782,17.01],[-98.751,16.981],[-98.751,16.914],[-98.796,16.834],[-98.861,16.812],[-98.882,16.811]]]}},{"type":"Feature","properties":{"density":1},"geometry":{"type":"Polygon","coordinates":[[[-99.054,16.812],[-99.103,16.79],[-99.083,16.753],[-99.037,16.753],[-99.026,16.786],[-99.041,16.808],[-99.054,16.812]]]}},{"type":"Feature","properties":{"density":1},"geometry":{"type":"Polygon","coordinates":[[[-100.963,17.406],[-101.003,17.415],[-101.048,17.401],[-101.147,17.441],[-101.169,17.419],[-101.123,17.368],[-101.061,17.346],[-100.97,17.351],[-100.953,17.361],[-100.953,17.391],[-100.963,17.406]]]}},{"type":"Feature","properties":{"density":1},"geometry":{"type":"Polygon","coordinates":[[[-100.787,19.386],[-100.824,19.391],[-100.86,19.344],[-100.842,19.294],[-100.781,19.293],[-100.767,19.311],[-100.776,19.371],[-100.787,19.386]]]}},{"type":"Feature","properties":{"density":1},"geometry":{"type":"Polygon","coordinates":[[[-102.292,20.356],[-102.348,20.343],[-102.362,20.326],[-102.353,20.298],[-102.274,20.301],[-102.282,20.356],[-102.292,20.356]]]}},{"type":"Feature","properties":{"density":1},"geometry":{"type":"Polygon","coordinates":[[[-102.838,18.409],[-102.868,18.407],[-102.88,18.337],[-102.845,18.344],[-102.838,18.379],[-102.838,18.409]]]}},{"type":"Feature","properties":{"density":1},"geometry":{"type":"Polygon","coordinates":[[[-102.363,19.133],[-102.388,19.148],[-102.413,19.123],[-102.385,19.094],[-102.38,19.063],[-102.335,19.046],[-102.324,19.066],[-102.343,19.101],[-102.363,19.133]]]}},{"type":"Feature","properties":{"density":1},"geometry":{"type":"Polygon","coordinates":[[[-101.807,19.194],[-101.837,19.246],[-101.867,19.262],[-101.92,19.264],[-101.933,19.246],[-101.928,19.216],[-101.877,19.184],[-101.865,19.143],[-101.84,19.133],[-101.822,19.154],[-101.807,19.194]]]}},{"type":"Feature","properties":{"density":1},"geometry":{"type":"Polygon","coordinates":[[[-103.233,19.337],[-103.303,19.41],[-103.38,19.417],[-103.412,19.397],[-103.435,19.347],[-103.45,19.243],[-103.542,19.178],[-103.549,19.098],[-103.529,19.049],[-103.504,19.024],[-103.415,19.001],[-103.382,19.006],[-103.318,19.056],[-103.181,19.071],[-103.141,19.133],[-103.138,19.185],[-103.166,19.265],[-103.233,19.337]]]}},{"type":"Feature","properties":{"density":1},"geometry":{"type":"Polygon","coordinates":[[[-103.412,18.845],[-103.461,18.909],[-103.469,18.869],[-103.426,18.8],[-103.4,18.801],[-103.403,18.841],[-103.412,18.845]]]}},{"type":"Feature","properties":{"density":1},"geometry":{"type":"Polygon","coordinates":[[[-104.148,19.557],[-104.18,19.583],[-104.21,19.583],[-104.243,19.554],[-104.277,19.443],[-104.35,19.355],[-104.348,19.317],[-104.276,19.286],[-104.228,19.286],[-104.178,19.307],[-104.128,19.342],[-104.096,19.467],[-104.148,19.557]]]}},{"type":"Feature","properties":{"density":1},"geometry":{"type":"Polygon","coordinates":[[[-104.721,19.666],[-104.791,19.692],[-104.836,19.678],[-104.891,19.554],[-104.889,19.524],[-104.866,19.502],[-104.778,19.53],[-104.689,19.522],[-104.667,19.552],[-104.663,19.597],[-104.682,19.634],[-104.721,19.666]]]}},{"type":"Feature","properties":{"density":1},"geometry":{"type":"Polygon","coordinates":[[[-104.46,19.664],[-104.516,19.688],[-104.543,19.671],[-104.539,19.603],[-104.563,19.542],[-104.56,19.508],[-104.498,19.489],[-104.467,19.509],[-104.431,19.568],[-104.431,19.616],[-104.46,19.664]]]}},{"type":"Feature","properties":{"density":1},"geometry":{"type":"Polygon","coordinates":[[[-105.107,19.94],[-105.082,19.955],[-105.045,19.946],[-104.937,19.877],[-104.848,19.847],[-104.73,19.837],[-104.705,19.865],[-104.709,19.962],[-104.653,20.076],[-104.662,20.164],[-104.753,20.237],[-104.846,20.365],[-104.942,20.433],[-105.026,20.447],[-105.1,20.426],[-105.178,20.349],[-105.284,20.294],[-105.323,20.246],[-105.33,20.19],[-105.245,20.108],[-105.268,20.027],[-105.263,19.957],[-105.185,19.911],[-105.124,19.921],[-105.107,19.94]]]}},{"type":"Feature","properties":{"density":1},"geometry":{"type":"Polygon","coordinates":[[[-103.999,21.448],[-104.026,21.449],[-104.051,21.41],[-104.001,21.211],[-103.963,21.162],[-103.88,21.147],[-103.854,21.166],[-103.849,21.201],[-103.924,21.306],[-103.982,21.427],[-103.999,21.448]]]}},{"type":"Feature","properties":{"density":1},"geometry":{"type":"Polygon","coordinates":[[[-105.032,21.213],[-105.059,21.207],[-105.072,21.178],[-105.016,21.172],[-104.968,21.144],[-104.959,21.176],[-104.998,21.202],[-105.032,21.213]]]}},{"type":"Feature","properties":{"density":1},"geometry":{"type":"Polygon","coordinates":[[[-102.274,18.466],[-102.304,18.464],[-102.341,18.415],[-102.331,18.378],[-102.271,18.377],[-102.264,18.439],[-102.274,18.466]]]}},{"type":"Feature","properties":{"density":1},"geometry":{"type":"Polygon","coordinates":[[[-93.726,17.839],[-93.755,17.866],[-93.815,17.883],[-93.867,17.878],[-93.91,17.826],[-93.932,17.707],[-93.96,17.644],[-94.044,17.56],[-94.169,17.527],[-94.52,17.542],[-94.754,17.455],[-94.951,17.311],[-95.023,17.199],[-95.04,17.004],[-95.013,16.815],[-94.933,16.584],[-94.916,16.444],[-94.888,16.37],[-94.831,16.335],[-94.781,16.327],[-94.719,16.335],[-94.657,16.365],[-94.572,16.452],[-94.497,16.624],[-94.405,16.731],[-94.171,16.853],[-94.009,16.997],[-93.865,17.229],[-93.738,17.318],[-93.701,17.366],[-93.663,17.47],[-93.658,17.53],[-93.661,17.674],[-93.676,17.717],[-93.726,17.839]]]}},{"type":"Feature","properties":{"density":1},"geometry":{"type":"Polygon","coordinates":[[[-94.297,16.729],[-94.346,16.787],[-94.381,16.795],[-94.416,16.782],[-94.438,16.747],[-94.441,16.699],[-94.388,16.611],[-94.373,16.518],[-94.348,16.475],[-94.292,16.473],[-94.268,16.505],[-94.258,16.613],[-94.268,16.666],[-94.297,16.729]]]}},{"type":"Feature","properties":{"density":1},"geometry":{"type":"Polygon","coordinates":[[[-93.015,16.033],[-93.07,16.02],[-93.108,15.919],[-93.048,15.912],[-92.993,15.949],[-92.979,16.005],[-93.004,16.032],[-93.015,16.033]]]}},{"type":"Feature","properties":{"density":1},"geometry":{"type":"Polygon","coordinates":[[[-93.728,18.223],[-93.879,18.008],[-93.867,17.979],[-93.779,17.943],[-93.727,17.964],[-93.612,18.092],[-93.622,18.166],[-93.654,18.215],[-93.695,18.236],[-93.728,18.223]]]}},{"type":"Feature","properties":{"density":1},"geometry":{"type":"Polygon","coordinates":[[[-92.894,17.775],[-93.014,17.906],[-93.17,17.946],[-93.278,18.027],[-93.357,18.048],[-93.455,18.05],[-93.582,18.128],[-93.611,18.088],[-93.591,18.024],[-93.538,17.971],[-93.4,17.937],[-93.305,17.864],[-93.127,17.838],[-92.991,17.746],[-92.917,17.719],[-92.867,17.73],[-92.868,17.76],[-92.894,17.775]]]}},{"type":"Feature","properties":{"density":1},"geometry":{"type":"Polygon","coordinates":[[[-93.054,17.85],[-93.081,17.866],[-93.102,17.934],[-93.083,18.031],[-93.098,18.07],[-93.129,18.102],[-93.288,18.177],[-93.301,18.103],[-93.246,18.005],[-93.25,17.938],[-93.228,17.882],[-93.111,17.79],[-93.047,17.786],[-93.028,17.798],[-93.029,17.842],[-93.054,17.85]]]}},{"type":"Feature","properties":{"density":1},"geometry":{"type":"Polygon","coordinates":[[[-93.462,18.281],[-93.485,18.297],[-93.514,18.29],[-93.535,18.243],[-93.514,18.145],[-93.52,18.039],[-93.486,18.024],[-93.462,18.063],[-93.464,18.149],[-93.446,18.216],[-93.459,18.26],[-93.462,18.281]]]}},{"type":"Feature","properties":{"density":1},"geometry":{"type":"Polygon","coordinates":[[[-93.299,18.046],[-93.365,18.072],[-93.431,18.132],[-93.436,18.191],[-93.4,18.225],[-93.382,18.281],[-93.346,18.274],[-93.332,18.189],[-93.267,18.131],[-93.252,18.062],[-93.284,18.046],[-93.299,18.046]]]}},{"type":"Feature","properties":{"density":1},"geometry":{"type":"Polygon","coordinates":[[[-92.201,15.264],[-92.25,15.279],[-92.274,15.264],[-92.286,15.225],[-92.264,15.046],[-92.269,14.97],[-92.298,14.917],[-92.301,14.872],[-92.264,14.842],[-92.236,14.847],[-92.206,14.89],[-92.205,15.038],[-92.173,15.124],[-92.18,15.204],[-92.201,15.264]]]}},{"type":"Feature","properties":{"density":1},"geometry":{"type":"Polygon","coordinates":[[[-89.94,16.143],[-89.983,16.21],[-90.013,16.229],[-90.045,16.229],[-90.081,16.185],[-90.025,16.06],[-90.025,16.019],[-90.104,15.934],[-90.123,15.859],[-90.068,15.773],[-90.021,15.758],[-89.975,15.775],[-89.922,15.824],[-89.821,15.833],[-89.701,15.791],[-89.648,15.79],[-89.6,15.809],[-89.596,15.911],[-89.646,15.962],[-89.757,16.022],[-89.85,16.105],[-89.94,16.143]]]}},{"type":"Feature","properties":{"density":1},"geometry":{"type":"Polygon","coordinates":[[[-93.831,17.548],[-93.993,17.468],[-94.395,17.313],[-94.485,17.256],[-94.57,17.199],[-94.6,17.156],[-94.607,17.107],[-94.59,17.049],[-94.562,17.01],[-94.491,16.959],[-94.409,16.925],[-94.264,16.902],[-94.183,16.927],[-94.099,16.988],[-94.004,17.141],[-93.83,17.339],[-93.779,17.506],[-93.79,17.534],[-93.826,17.548],[-93.831,17.548]]]}},{"type":"Feature","properties":{"density":1},"geometry":{"type":"Polygon","coordinates":[[[-78.298,22.307],[-78.337,22.337],[-78.368,22.34],[-78.397,22.325],[-78.405,22.27],[-78.349,22.142],[-78.307,22.129],[-78.268,22.09],[-78.228,22.103],[-78.22,22.146],[-78.261,22.242],[-78.298,22.307]]]}},{"type":"Feature","properties":{"density":1},"geometry":{"type":"Polygon","coordinates":[[[-81.006,31.483],[-81.006,31.539],[-81.07,31.623],[-81.139,31.671],[-81.203,31.687],[-81.271,31.663],[-81.331,31.611],[-81.384,31.543],[-81.416,31.471],[-81.44,31.27],[-81.44,30.981],[-81.38,30.68],[-81.372,30.382],[-81.376,30.31],[-81.46,30.021],[-81.464,29.756],[-81.448,29.656],[-81.388,29.483],[-81.303,29.358],[-81.259,29.366],[-81.215,29.415],[-81.175,29.567],[-81.155,29.76],[-81.151,30.419],[-81.131,30.551],[-81.026,30.953],[-81.002,31.246],[-81.006,31.483]]]}},{"type":"Feature","properties":{"density":1},"geometry":{"type":"Polygon","coordinates":[[[-83.693,46.04],[-83.838,46.049],[-84.037,45.994],[-84.118,45.895],[-84.19,45.732],[-84.244,45.525],[-84.181,45.281],[-84.1,45.109],[-83.955,44.964],[-83.766,44.883],[-83.531,44.73],[-83.323,44.413],[-83.097,43.935],[-82.989,43.817],[-82.808,43.727],[-82.474,43.691],[-82.203,43.718],[-81.886,43.808],[-81.805,43.889],[-81.679,44.097],[-81.263,44.395],[-80.775,44.522],[-80.396,44.495],[-79.673,44.35],[-79.393,44.26],[-78.534,44.106],[-78.019,44.079],[-77.559,44.079],[-77.224,44.151],[-76.944,44.323],[-76.827,44.549],[-76.8,44.892],[-76.881,45.272],[-77.017,45.561],[-77.233,45.841],[-77.486,46.067],[-77.911,46.266],[-78.399,46.446],[-78.887,46.528],[-79.131,46.528],[-79.61,46.446],[-79.98,46.356],[-80.441,46.202],[-81.552,45.949],[-81.995,45.94],[-83.693,46.04]]]}},{"type":"Feature","properties":{"density":1},"geometry":{"type":"Polygon","coordinates":[[[-84.81,44.564],[-84.894,44.559],[-84.93,44.536],[-84.939,44.505],[-84.899,44.475],[-84.864,44.473],[-84.614,44.491],[-84.476,44.437],[-84.284,44.404],[-84.144,44.404],[-83.973,44.434],[-83.664,44.416],[-83.582,44.445],[-83.554,44.505],[-83.566,44.566],[-83.598,44.621],[-83.638,44.652],[-83.804,44.714],[-83.896,44.718],[-84.15,44.628],[-84.562,44.598],[-84.81,44.564]]]}},{"type":"Feature","properties":{"density":1},"geometry":{"type":"Polygon","coordinates":[[[-88.674,43.927],[-88.703,43.915],[-88.708,43.886],[-88.524,43.938],[-88.257,43.957],[-88.218,43.976],[-88.209,44.016],[-88.239,44.053],[-88.309,44.068],[-88.599,43.949],[-88.674,43.927]]]}},{"type":"Feature","properties":{"density":1},"geometry":{"type":"Polygon","coordinates":[[[-96.264,48.533],[-96.335,48.542],[-96.46,48.463],[-96.53,48.457],[-96.559,48.47],[-96.598,48.516],[-96.64,48.61],[-96.642,48.738],[-96.581,48.805],[-96.479,48.834],[-96.444,48.828],[-96.366,48.744],[-96.267,48.718],[-96.232,48.683],[-96.203,48.544],[-96.242,48.523],[-96.264,48.533]]]}},{"type":"Feature","properties":{"density":1},"geometry":{"type":"Polygon","coordinates":[[[-96.383,47.354],[-96.443,47.351],[-96.491,47.286],[-96.493,47.226],[-96.451,47.156],[-96.434,47.062],[-96.392,46.965],[-96.359,46.915],[-96.3,46.886],[-96.236,46.91],[-96.226,47.005],[-96.361,47.321],[-96.383,47.354]]]}},{"type":"Feature","properties":{"density":1},"geometry":{"type":"Polygon","coordinates":[[[-94.357,47.303],[-94.425,47.308],[-94.461,47.283],[-94.478,47.196],[-94.381,47.009],[-94.358,46.979],[-94.321,46.968],[-94.278,46.989],[-94.259,47.043],[-94.272,47.157],[-94.31,47.242],[-94.357,47.303]]]}},{"type":"Feature","properties":{"density":1},"geometry":{"type":"Polygon","coordinates":[[[-100.33,51.14],[-100.404,51.246],[-100.457,51.3],[-100.608,51.399],[-100.729,51.551],[-100.852,51.656],[-100.982,51.735],[-101.186,51.798],[-101.286,51.792],[-101.374,51.748],[-101.409,51.641],[-101.387,51.493],[-101.302,51.318],[-101.177,51.134],[-101.135,51.105],[-100.876,50.991],[-100.745,50.984],[-100.578,51.015],[-100.378,50.978],[-100.327,51.002],[-100.31,51.094],[-100.33,51.14]]]}},{"type":"Feature","properties":{"density":1},"geometry":{"type":"Polygon","coordinates":[[[-100.411,53.213],[-100.462,53.143],[-100.477,53.068],[-100.457,53.007],[-100.404,52.97],[-100.301,52.97],[-100.121,53.062],[-100.073,53.066],[-99.944,53.037],[-99.834,53.053],[-99.803,53.073],[-99.825,53.138],[-99.902,53.171],[-100.055,53.305],[-100.174,53.334],[-100.293,53.301],[-100.411,53.213]]]}},{"type":"Feature","properties":{"density":1},"geometry":{"type":"Polygon","coordinates":[[[-115.677,49.419],[-115.725,49.438],[-115.808,49.442],[-115.905,49.399],[-115.936,49.377],[-115.942,49.353],[-115.933,49.274],[-115.881,49.216],[-115.824,49.186],[-115.762,49.039],[-115.642,49.034],[-115.562,48.995],[-115.516,48.997],[-115.475,49.047],[-115.475,49.109],[-115.549,49.203],[-115.626,49.392],[-115.677,49.419]]]}},{"type":"Feature","properties":{"density":1},"geometry":{"type":"Polygon","coordinates":[[[-115.706,43.227],[-115.775,43.235],[-115.791,43.216],[-115.791,43.158],[-115.628,43.02],[-115.587,42.921],[-115.538,42.869],[-115.452,42.839],[-115.386,42.767],[-115.325,42.728],[-115.29,42.77],[-115.306,42.852],[-115.507,43.018],[-115.631,43.178],[-115.706,43.227]]]}},{"type":"Feature","properties":{"density":1},"geometry":{"type":"Polygon","coordinates":[[[-113.916,42.509],[-113.971,42.512],[-113.953,42.419],[-113.81,42.211],[-113.764,42.178],[-113.714,42.171],[-113.703,42.182],[-113.714,42.222],[-113.88,42.459],[-113.916,42.509]]]}},{"type":"Feature","properties":{"density":1},"geometry":{"type":"Polygon","coordinates":[[[-108.117,27.381],[-108.168,27.392],[-108.187,27.375],[-108.212,27.261],[-108.261,27.171],[-108.266,27.101],[-108.22,27.06],[-108.19,27.093],[-108.157,27.214],[-108.083,27.28],[-108.08,27.321],[-108.1,27.372],[-108.117,27.381]]]}},{"type":"Feature","properties":{"density":1},"geometry":{"type":"Polygon","coordinates":[[[-108.449,29.301],[-108.458,29.252],[-108.438,29.2],[-108.403,29.178],[-108.359,29.184],[-108.32,29.211],[-108.263,29.312],[-108.096,29.434],[-108.078,29.476],[-108.041,29.757],[-108.081,29.862],[-108.138,29.941],[-108.21,29.955],[-108.285,29.919],[-108.359,29.817],[-108.357,29.503],[-108.425,29.349],[-108.449,29.301]]]}},{"type":"Feature","properties":{"density":1},"geometry":{"type":"Polygon","coordinates":[[[-104.002,21.487],[-104.046,21.472],[-104.053,21.437],[-104.02,21.388],[-103.978,21.375],[-103.946,21.392],[-103.939,21.43],[-103.948,21.461],[-103.978,21.487],[-104.002,21.487]]]}},{"type":"Feature","properties":{"density":1},"geometry":{"type":"Polygon","coordinates":[[[-105.454,20.327],[-105.504,20.239],[-105.501,20.17],[-105.435,20.112],[-105.217,20.06],[-105.088,19.925],[-105.013,19.883],[-104.909,19.853],[-104.743,19.839],[-104.644,19.875],[-104.578,19.925],[-104.561,20.032],[-104.611,20.181],[-104.685,20.247],[-104.823,20.324],[-104.936,20.443],[-104.978,20.47],[-105.082,20.49],[-105.181,20.468],[-105.306,20.404],[-105.454,20.327]]]}},{"type":"Feature","properties":{"density":1},"geometry":{"type":"Polygon","coordinates":[[[-104.891,20.269],[-104.932,20.26],[-104.946,20.232],[-104.925,20.124],[-104.897,20.119],[-104.87,20.142],[-104.86,20.237],[-104.875,20.26],[-104.891,20.269]]]}},{"type":"Feature","properties":{"density":1},"geometry":{"type":"Polygon","coordinates":[[[-104.78,20.249],[-104.841,20.232],[-104.872,20.193],[-104.877,20.151],[-104.819,20.073],[-104.756,20.039],[-104.678,20.054],[-104.656,20.118],[-104.681,20.216],[-104.731,20.242],[-104.78,20.249]]]}},{"type":"Feature","properties":{"density":1},"geometry":{"type":"Polygon","coordinates":[[[-104.744,20.01],[-104.879,20.065],[-104.927,20.043],[-104.937,20.01],[-104.893,19.947],[-104.881,19.897],[-104.847,19.866],[-104.718,19.862],[-104.688,19.911],[-104.691,19.949],[-104.714,19.982],[-104.744,20.01]]]}},{"type":"Feature","properties":{"density":1},"geometry":{"type":"Polygon","coordinates":[[[-105.164,20.423],[-105.222,20.406],[-105.259,20.342],[-105.251,20.262],[-105.216,20.198],[-105.215,20.133],[-105.2,20.123],[-105.109,20.155],[-105.016,20.249],[-105.008,20.329],[-105.026,20.37],[-105.091,20.413],[-105.164,20.423]]]}},{"type":"Feature","properties":{"density":1},"geometry":{"type":"Polygon","coordinates":[[[-104.853,19.619],[-104.837,19.67],[-104.684,19.769],[-104.57,19.688],[-104.582,19.612],[-104.61,19.561],[-104.708,19.513],[-104.78,19.515],[-104.833,19.564],[-104.853,19.619]]]}},{"type":"Feature","properties":{"density":1},"geometry":{"type":"Polygon","coordinates":[[[-104.751,19.475],[-104.794,19.448],[-104.78,19.425],[-104.666,19.406],[-104.589,19.348],[-104.538,19.344],[-104.522,19.356],[-104.517,19.431],[-104.567,19.46],[-104.637,19.468],[-104.751,19.475]]]}},{"type":"Feature","properties":{"density":1},"geometry":{"type":"Polygon","coordinates":[[[-104.491,19.713],[-104.532,19.705],[-104.534,19.643],[-104.56,19.591],[-104.55,19.546],[-104.501,19.515],[-104.448,19.526],[-104.412,19.568],[-104.412,19.642],[-104.46,19.695],[-104.491,19.713]]]}},{"type":"Feature","properties":{"density":1},"geometry":{"type":"Polygon","coordinates":[[[-104.146,19.588],[-104.213,19.575],[-104.224,19.487],[-104.328,19.35],[-104.324,19.213],[-104.271,19.182],[-104.164,19.226],[-104.095,19.291],[-103.989,19.308],[-103.972,19.332],[-103.963,19.421],[-103.976,19.465],[-104.066,19.563],[-104.146,19.588]]]}},{"type":"Feature","properties":{"density":1},"geometry":{"type":"Polygon","coordinates":[[[-103.869,19.771],[-103.938,19.751],[-103.966,19.7],[-103.952,19.649],[-103.897,19.608],[-103.826,19.621],[-103.785,19.675],[-103.79,19.729],[-103.829,19.773],[-103.869,19.771]]]}},{"type":"Feature","properties":{"density":1},"geometry":{"type":"Polygon","coordinates":[[[-103.738,19.377],[-103.786,19.368],[-103.799,19.333],[-103.791,19.285],[-103.776,19.258],[-103.719,19.226],[-103.688,19.161],[-103.656,19.154],[-103.627,19.193],[-103.625,19.23],[-103.638,19.268],[-103.703,19.346],[-103.738,19.377]]]}},{"type":"Feature","properties":{"density":1},"geometry":{"type":"Polygon","coordinates":[[[-103.255,19.282],[-103.292,19.283],[-103.319,19.25],[-103.365,19.24],[-103.386,19.193],[-103.346,19.159],[-103.27,19.133],[-103.228,19.137],[-103.195,19.192],[-103.2,19.22],[-103.246,19.252],[-103.255,19.282]]]}},{"type":"Feature","properties":{"density":1},"geometry":{"type":"Polygon","coordinates":[[[-102.64,19.588],[-102.665,19.59],[-102.699,19.491],[-102.684,19.44],[-102.641,19.449],[-102.618,19.482],[-102.606,19.545],[-102.623,19.579],[-102.64,19.588]]]}},{"type":"Feature","properties":{"density":1},"geometry":{"type":"Polygon","coordinates":[[[-102.471,19.624],[-102.505,19.628],[-102.51,19.603],[-102.462,19.531],[-102.421,19.512],[-102.408,19.552],[-102.445,19.602],[-102.471,19.624]]]}},{"type":"Feature","properties":{"density":1},"geometry":{"type":"Polygon","coordinates":[[[-102.363,19.147],[-102.396,19.138],[-102.4,19.112],[-102.351,19.053],[-102.332,19.063],[-102.348,19.136],[-102.363,19.147]]]}},{"type":"Feature","properties":{"density":1},"geometry":{"type":"Polygon","coordinates":[[[-103.148,18.659],[-103.181,18.659],[-103.207,18.638],[-103.218,18.538],[-103.169,18.539],[-103.162,18.575],[-103.128,18.598],[-103.132,18.653],[-103.148,18.659]]]}},{"type":"Feature","properties":{"density":1},"geometry":{"type":"Polygon","coordinates":[[[-100.954,17.439],[-100.996,17.435],[-101.005,17.393],[-100.956,17.349],[-100.919,17.229],[-100.888,17.216],[-100.858,17.244],[-100.858,17.305],[-100.891,17.384],[-100.93,17.431],[-100.954,17.439]]]}},{"type":"Feature","properties":{"density":1},"geometry":{"type":"Polygon","coordinates":[[[-98.768,17.107],[-98.838,17.127],[-98.896,17.077],[-98.908,16.979],[-98.995,16.844],[-98.989,16.773],[-98.973,16.752],[-98.885,16.739],[-98.746,16.667],[-98.661,16.659],[-98.596,16.686],[-98.563,16.76],[-98.557,16.852],[-98.597,16.958],[-98.672,17.058],[-98.768,17.107]]]}},{"type":"Feature","properties":{"density":1},"geometry":{"type":"Polygon","coordinates":[[[-96.165,18.685],[-96.189,18.7],[-96.272,18.694],[-96.325,18.635],[-96.329,18.588],[-96.301,18.516],[-96.274,18.332],[-96.224,18.257],[-96.154,18.22],[-96.068,18.261],[-96.042,18.307],[-96.04,18.413],[-96.062,18.523],[-96.121,18.622],[-96.165,18.685]]]}},{"type":"Feature","properties":{"density":1},"geometry":{"type":"Polygon","coordinates":[[[-95.724,17.506],[-95.823,17.607],[-95.866,17.606],[-95.87,17.553],[-95.854,17.525],[-95.78,17.458],[-95.723,17.441],[-95.708,17.471],[-95.714,17.501],[-95.724,17.506]]]}},{"type":"Feature","properties":{"density":1},"geometry":{"type":"Polygon","coordinates":[[[-95.726,17.383],[-95.814,17.384],[-95.849,17.314],[-95.845,17.29],[-95.808,17.291],[-95.77,17.318],[-95.691,17.314],[-95.68,17.355],[-95.692,17.371],[-95.726,17.383]]]}},{"type":"Feature","properties":{"density":1},"geometry":{"type":"Polygon","coordinates":[[[-95.654,17.204],[-95.697,17.199],[-95.794,17.142],[-95.8,17.114],[-95.748,17.098],[-95.696,17.134],[-95.631,17.15],[-95.622,17.182],[-95.634,17.192],[-95.654,17.204]]]}},{"type":"Feature","properties":{"density":1},"geometry":{"type":"Polygon","coordinates":[[[-95.126,17.127],[-95.193,17.104],[-95.225,17.006],[-95.276,16.918],[-95.234,16.773],[-95.18,16.769],[-95.113,16.817],[-95.089,16.932],[-95.039,17.029],[-95.055,17.092],[-95.089,17.116],[-95.126,17.127]]]}},{"type":"Feature","properties":{"density":1},"geometry":{"type":"Polygon","coordinates":[[[-94.885,17.71],[-95.026,17.671],[-95.062,17.614],[-95.067,17.465],[-95.034,17.299],[-95.026,17.131],[-95.103,16.914],[-95.084,16.784],[-95.012,16.632],[-94.96,16.597],[-94.899,16.583],[-94.775,16.588],[-94.651,16.531],[-94.569,16.519],[-94.425,16.577],[-94.37,16.624],[-94.268,16.795],[-94.02,17.013],[-93.935,17.129],[-93.723,17.241],[-93.678,17.324],[-93.667,17.423],[-93.692,17.539],[-93.687,17.602],[-93.645,17.685],[-93.643,17.724],[-93.701,17.823],[-93.852,17.886],[-93.946,17.867],[-94.02,17.793],[-94.075,17.765],[-94.464,17.729],[-94.885,17.71]]]}},{"type":"Feature","properties":{"density":1},"geometry":{"type":"Polygon","coordinates":[[[-93.413,18.314],[-93.49,18.309],[-93.554,18.213],[-93.65,18.177],[-93.712,18.132],[-93.762,18.061],[-93.747,18.006],[-93.584,17.89],[-93.404,17.883],[-93.362,17.862],[-93.328,17.835],[-93.222,17.681],[-93.193,17.67],[-93.152,17.671],[-93.069,17.708],[-92.906,17.699],[-92.855,17.715],[-92.829,17.743],[-92.82,17.785],[-92.827,17.884],[-92.853,17.916],[-93.027,17.971],[-93.172,18.149],[-93.264,18.213],[-93.334,18.292],[-93.358,18.298],[-93.413,18.314]]]}},{"type":"Feature","properties":{"density":1},"geometry":{"type":"Polygon","coordinates":[[[-92.34,14.663],[-92.39,14.641],[-92.396,14.589],[-92.37,14.56],[-92.236,14.508],[-92.17,14.523],[-92.137,14.545],[-92.133,14.624],[-92.188,14.701],[-92.249,14.69],[-92.34,14.663]]]}},{"type":"Feature","properties":{"density":1},"geometry":{"type":"Polygon","coordinates":[[[-92.204,15.05],[-92.254,15.036],[-92.267,14.949],[-92.304,14.896],[-92.309,14.869],[-92.291,14.854],[-92.238,14.867],[-92.204,14.931],[-92.164,14.968],[-92.168,15.027],[-92.204,15.05]]]}},{"type":"Feature","properties":{"density":1},"geometry":{"type":"Polygon","coordinates":[[[-90.846,17.742],[-90.886,17.756],[-90.925,17.733],[-90.923,17.703],[-90.864,17.617],[-90.475,17.299],[-90.403,17.295],[-90.4,17.354],[-90.422,17.385],[-90.572,17.479],[-90.769,17.705],[-90.846,17.742]]]}},{"type":"Feature","properties":{"density":1},"geometry":{"type":"Polygon","coordinates":[[[-94.958,17.695],[-95.023,17.706],[-95.066,17.646],[-94.974,17.65],[-94.955,17.684],[-94.958,17.695]]]}},{"type":"Feature","properties":{"density":1},"geometry":{"type":"Polygon","coordinates":[[[-86.956,16.711],[-87.026,16.724],[-87.074,16.711],[-87.107,16.673],[-87.118,16.541],[-87.14,16.48],[-87.239,16.357],[-87.266,16.293],[-87.287,16.149],[-87.268,16.002],[-87.244,15.942],[-87.138,15.831],[-87.057,15.793],[-86.86,15.754],[-86.758,15.718],[-86.682,15.655],[-86.625,15.561],[-86.57,15.528],[-86.407,15.479],[-86.225,15.38],[-86.098,15.363],[-86.069,15.387],[-86.05,15.457],[-86.056,15.519],[-86.085,15.571],[-86.24,15.692],[-86.37,15.839],[-86.409,15.898],[-86.484,16.138],[-86.533,16.217],[-86.664,16.355],[-86.849,16.655],[-86.956,16.711]]]}},{"type":"Feature","properties":{"density":1},"geometry":{"type":"Polygon","coordinates":[[[-86.344,16.199],[-86.37,16.212],[-86.429,16.201],[-86.443,16.127],[-86.425,16.05],[-86.344,15.949],[-86.287,15.809],[-86.234,15.773],[-86.166,15.668],[-86.111,15.659],[-86.07,15.736],[-86.067,15.837],[-86.094,15.898],[-86.284,16.155],[-86.344,16.199]]]}},{"type":"Feature","properties":{"density":1},"geometry":{"type":"Polygon","coordinates":[[[-78.596,22.816],[-78.626,22.843],[-78.73,22.886],[-78.784,22.894],[-78.805,22.87],[-78.805,22.814],[-78.746,22.733],[-78.666,22.666],[-78.601,22.497],[-78.398,22.358],[-78.301,22.143],[-78.255,22.127],[-78.223,22.154],[-78.205,22.221],[-78.205,22.285],[-78.229,22.358],[-78.264,22.428],[-78.516,22.736],[-78.596,22.816]]]}},{"type":"Feature","properties":{"density":1},"geometry":{"type":"Polygon","coordinates":[[[-100.067,53.614],[-100.167,53.686],[-100.292,53.743],[-100.385,53.751],[-100.622,53.69],[-100.783,53.67],[-101.117,53.662],[-101.668,53.791],[-101.925,53.815],[-102.03,53.811],[-102.151,53.775],[-102.231,53.727],[-102.352,53.586],[-102.372,53.481],[-102.38,53.22],[-102.404,53.131],[-102.545,52.97],[-102.581,52.858],[-102.557,52.797],[-102.513,52.745],[-102.34,52.637],[-102.058,52.552],[-101.909,52.532],[-101.736,52.524],[-101.62,52.536],[-101.109,52.685],[-100.747,52.765],[-100.686,52.761],[-100.529,52.709],[-100.252,52.419],[-100.171,52.371],[-99.99,52.315],[-99.749,52.21],[-99.636,52.094],[-99.58,52.057],[-99.218,51.965],[-99.009,51.84],[-98.812,51.78],[-98.651,51.768],[-98.498,51.796],[-98.406,51.852],[-98.397,51.904],[-98.41,51.993],[-98.45,52.114],[-98.554,52.234],[-98.607,52.439],[-98.655,52.568],[-98.707,52.657],[-98.788,52.741],[-98.888,52.81],[-99.15,52.894],[-99.355,52.991],[-99.693,53.232],[-99.793,53.32],[-100.067,53.614]]]}},{"type":"Feature","properties":{"density":1},"geometry":{"type":"Polygon","coordinates":[[[-102.843,51.885],[-102.956,51.914],[-103.053,51.897],[-103.117,51.865],[-103.157,51.805],[-103.173,51.712],[-103.161,51.624],[-103.101,51.543],[-103.016,51.491],[-102.884,51.459],[-102.65,51.459],[-102.534,51.427],[-102.445,51.366],[-102.284,51.129],[-102.156,51.037],[-101.987,50.972],[-101.625,50.924],[-101.226,50.775],[-100.997,50.743],[-100.808,50.848],[-100.736,50.872],[-100.382,50.912],[-100.325,50.944],[-100.293,51.004],[-100.285,51.085],[-100.301,51.177],[-100.353,51.238],[-100.494,51.338],[-100.615,51.379],[-101.045,51.435],[-101.85,51.761],[-102.843,51.885]]]}},{"type":"Feature","properties":{"density":1},"geometry":{"type":"Polygon","coordinates":[[[-104.572,54.092],[-104.713,54.117],[-104.842,54.088],[-105.148,53.783],[-105.228,53.718],[-105.365,53.658],[-105.405,53.622],[-105.449,53.537],[-105.449,53.401],[-105.409,53.316],[-105.333,53.256],[-105.095,53.135],[-104.717,53.055],[-104.412,53.014],[-104.118,53.043],[-103.76,53.115],[-103.321,53.127],[-102.931,53.071],[-102.827,53.087],[-102.778,53.135],[-102.758,53.187],[-102.77,53.296],[-102.867,53.457],[-102.935,53.505],[-103.112,53.517],[-103.16,53.541],[-103.221,53.582],[-103.362,53.738],[-103.43,53.791],[-103.647,53.879],[-104.029,53.895],[-104.122,53.919],[-104.255,53.988],[-104.572,54.092]]]}},{"type":"Feature","properties":{"density":1},"geometry":{"type":"Polygon","coordinates":[[[-107.543,53.526],[-107.708,53.587],[-107.77,53.594],[-107.87,53.573],[-107.91,53.548],[-107.924,53.515],[-107.919,53.417],[-107.86,53.335],[-107.733,53.262],[-107.679,53.219],[-107.613,53.133],[-107.549,53.102],[-107.221,53.056],[-107.059,52.977],[-106.821,52.929],[-106.605,52.861],[-106.385,52.874],[-106.16,52.863],[-106.108,52.904],[-106.133,53.051],[-106.17,53.095],[-106.308,53.181],[-106.51,53.258],[-107.236,53.472],[-107.543,53.526]]]}},{"type":"Feature","properties":{"density":1},"geometry":{"type":"Polygon","coordinates":[[[-116.756,49.5],[-116.836,49.504],[-116.892,49.428],[-116.897,49.335],[-116.852,49.243],[-116.784,49.178],[-116.579,49.106],[-116.506,49.033],[-116.362,48.953],[-116.185,48.929],[-115.859,48.973],[-115.778,48.945],[-115.581,48.913],[-115.493,48.913],[-115.432,48.937],[-115.416,49.053],[-115.46,49.118],[-115.525,49.174],[-115.682,49.239],[-115.947,49.295],[-116.197,49.379],[-116.756,49.5]]]}},{"type":"Feature","properties":{"density":1},"geometry":{"type":"Polygon","coordinates":[[[-95.354,32.208],[-95.458,32.233],[-95.493,32.2],[-95.49,32.058],[-95.466,31.994],[-95.413,31.935],[-95.273,31.844],[-95.233,31.795],[-95.179,31.667],[-95.134,31.613],[-94.93,31.503],[-94.884,31.463],[-94.847,31.412],[-94.804,31.264],[-94.748,31.2],[-94.683,31.173],[-94.662,31.187],[-94.651,31.291],[-94.707,31.476],[-94.796,31.594],[-94.89,31.656],[-95.029,31.801],[-95.185,32.058],[-95.354,32.208]]]}},{"type":"Feature","properties":{"density":1},"geometry":{"type":"Polygon","coordinates":[[[-90.226,45.855],[-90.149,45.885],[-89.988,45.821],[-89.781,45.791],[-89.746,45.759],[-89.744,45.711],[-89.778,45.692],[-89.87,45.681],[-89.937,45.692],[-90.071,45.783],[-90.221,45.767],[-90.242,45.775],[-90.253,45.804],[-90.237,45.842],[-90.226,45.855]]]}},{"type":"Feature","properties":{"density":1},"geometry":{"type":"Polygon","coordinates":[[[-97.838,49.033],[-97.888,49.013],[-97.942,48.955],[-97.954,48.88],[-97.942,48.781],[-97.867,48.682],[-97.644,48.645],[-97.214,48.674],[-97.02,48.632],[-96.871,48.574],[-96.317,48.496],[-96.235,48.5],[-96.185,48.541],[-96.173,48.583],[-96.21,48.806],[-96.164,48.913],[-96.082,49.013],[-96.057,49.108],[-96.053,49.203],[-96.069,49.327],[-96.135,49.492],[-96.222,49.62],[-96.309,49.711],[-96.441,49.781],[-96.619,49.806],[-96.797,49.815],[-96.962,49.802],[-97.367,49.591],[-97.479,49.513],[-97.838,49.033]]]}},{"type":"Feature","properties":{"density":1},"geometry":{"type":"Polygon","coordinates":[[[-114.079,43.0],[-114.189,43.053],[-114.216,43.047],[-114.244,43.009],[-114.244,42.912],[-114.161,42.772],[-114.112,42.728],[-114.018,42.438],[-113.913,42.323],[-113.836,42.174],[-113.792,42.135],[-113.718,42.124],[-113.676,42.188],[-113.696,42.248],[-113.822,42.364],[-113.839,42.419],[-113.82,42.642],[-113.963,42.885],[-114.079,43.0]]]}},{"type":"Feature","properties":{"density":1},"geometry":{"type":"Polygon","coordinates":[[[-121.216,36.022],[-121.252,36.033],[-121.335,36.016],[-121.387,35.95],[-121.423,35.851],[-121.42,35.782],[-121.351,35.575],[-121.338,35.322],[-121.255,35.189],[-121.101,35.06],[-120.979,35.01],[-120.869,35.008],[-120.833,35.024],[-120.753,35.104],[-120.671,35.129],[-120.649,35.245],[-120.673,35.338],[-120.83,35.534],[-120.847,35.578],[-120.839,35.669],[-120.748,35.768],[-120.742,35.911],[-120.786,35.969],[-120.886,36.035],[-121.007,36.044],[-121.216,36.022]]]}},{"type":"Feature","properties":{"density":1},"geometry":{"type":"Polygon","coordinates":[[[-115.65,31.209],[-115.675,31.163],[-115.677,31.097],[-115.658,31.07],[-115.601,31.073],[-115.562,31.096],[-115.497,31.186],[-115.383,31.223],[-115.351,31.252],[-115.299,31.364],[-115.306,31.443],[-115.348,31.489],[-115.403,31.494],[-115.465,31.451],[-115.534,31.322],[-115.598,31.266],[-115.65,31.209]]]}},{"type":"Feature","properties":{"density":1},"geometry":{"type":"Polygon","coordinates":[[[-112.234,31.054],[-112.269,31.076],[-112.366,31.095],[-112.397,31.093],[-112.421,31.069],[-112.445,30.951],[-112.445,30.837],[-112.43,30.773],[-112.375,30.674],[-112.355,30.534],[-112.212,30.435],[-112.136,30.422],[-112.07,30.448],[-112.045,30.527],[-112.028,30.768],[-112.041,30.839],[-112.135,31.005],[-112.234,31.054]]]}},{"type":"Feature","properties":{"density":1},"geometry":{"type":"Polygon","coordinates":[[[-107.853,27.744],[-107.972,27.729],[-108.051,27.63],[-108.095,27.429],[-108.24,27.229],[-108.277,27.15],[-108.272,27.115],[-108.215,27.071],[-108.147,27.123],[-108.108,27.207],[-107.943,27.406],[-107.9,27.499],[-107.759,27.578],[-107.746,27.643],[-107.759,27.685],[-107.813,27.733],[-107.853,27.744]]]}},{"type":"Feature","properties":{"density":1},"geometry":{"type":"Polygon","coordinates":[[[-104.847,20.596],[-104.922,20.633],[-104.996,20.629],[-105.05,20.604],[-105.087,20.525],[-105.124,20.29],[-105.207,20.186],[-105.294,20.108],[-105.372,19.992],[-105.405,19.827],[-105.401,19.711],[-105.351,19.645],[-105.24,19.55],[-105.199,19.43],[-105.124,19.364],[-104.992,19.327],[-104.818,19.356],[-104.752,19.347],[-104.653,19.285],[-104.616,19.211],[-104.624,19.166],[-104.649,19.116],[-104.744,19.025],[-104.769,18.967],[-104.773,18.901],[-104.703,18.814],[-104.653,18.785],[-104.512,18.748],[-104.364,18.76],[-104.273,18.81],[-104.19,18.88],[-104.0,18.959],[-103.839,18.971],[-103.731,19.033],[-103.686,19.145],[-103.682,19.43],[-103.648,19.69],[-103.673,19.769],[-103.772,19.926],[-104.198,20.203],[-104.591,20.41],[-104.628,20.447],[-104.847,20.596]]]}},{"type":"Feature","properties":{"density":1},"geometry":{"type":"Polygon","coordinates":[[[-103.569,19.061],[-103.596,19.097],[-103.643,19.108],[-103.764,19.069],[-103.852,19.066],[-103.899,19.16],[-103.919,19.27],[-103.916,19.375],[-103.858,19.46],[-103.728,19.54],[-103.695,19.582],[-103.668,19.714],[-103.668,19.852],[-103.629,19.901],[-103.558,19.923],[-103.497,19.923],[-103.422,19.876],[-103.351,19.797],[-103.235,19.752],[-103.18,19.714],[-103.155,19.659],[-103.15,19.491],[-103.05,19.394],[-103.009,19.328],[-102.984,19.196],[-102.993,19.039],[-103.103,18.931],[-103.307,18.898],[-103.398,18.929],[-103.483,18.989],[-103.569,19.061]]]}},{"type":"Feature","properties":{"density":1},"geometry":{"type":"Polygon","coordinates":[[[-103.98,21.443],[-104.031,21.444],[-104.038,21.407],[-103.941,21.328],[-103.911,21.249],[-103.805,21.105],[-103.783,21.083],[-103.75,21.085],[-103.733,21.177],[-103.773,21.267],[-103.916,21.386],[-103.98,21.443]]]}},{"type":"Feature","properties":{"density":1},"geometry":{"type":"Polygon","coordinates":[[[-100.908,17.537],[-100.98,17.537],[-101.002,17.487],[-101.029,17.471],[-101.112,17.476],[-101.129,17.463],[-101.123,17.394],[-101.101,17.361],[-100.991,17.305],[-100.944,17.154],[-100.892,17.079],[-100.858,16.98],[-100.795,16.936],[-100.74,16.928],[-100.679,17.011],[-100.682,17.102],[-100.784,17.278],[-100.803,17.432],[-100.853,17.501],[-100.908,17.537]]]}},{"type":"Feature","properties":{"density":1},"geometry":{"type":"Polygon","coordinates":[[[-100.567,17.31],[-100.6,17.358],[-100.716,17.428],[-100.779,17.53],[-100.784,17.714],[-100.771,17.767],[-100.72,17.815],[-100.646,17.801],[-100.578,17.729],[-100.501,17.7],[-100.453,17.633],[-100.442,17.542],[-100.365,17.453],[-100.363,17.36],[-100.42,17.275],[-100.514,17.279],[-100.567,17.31]]]}},{"type":"Feature","properties":{"density":1},"geometry":{"type":"Polygon","coordinates":[[[-100.093,17.264],[-100.126,17.284],[-100.154,17.231],[-100.139,17.192],[-100.141,17.108],[-100.091,17.126],[-100.088,17.22],[-100.093,17.264]]]}},{"type":"Feature","properties":{"density":1},"geometry":{"type":"Polygon","coordinates":[[[-98.728,17.339],[-98.804,17.398],[-98.877,17.415],[-98.921,17.406],[-98.969,17.338],[-99.004,17.207],[-99.148,17.0],[-99.167,16.931],[-99.159,16.765],[-99.189,16.531],[-99.173,16.465],[-99.137,16.41],[-99.041,16.385],[-98.947,16.399],[-98.895,16.391],[-98.779,16.28],[-98.743,16.269],[-98.699,16.269],[-98.63,16.319],[-98.572,16.44],[-98.47,16.589],[-98.476,16.837],[-98.517,16.969],[-98.58,17.096],[-98.728,17.339]]]}},{"type":"Feature","properties":{"density":1},"geometry":{"type":"Polygon","coordinates":[[[-98.019,21.958],[-98.129,22.126],[-98.19,22.123],[-98.193,22.09],[-98.165,22.035],[-98.066,21.919],[-98.038,21.806],[-97.994,21.718],[-97.923,21.652],[-97.832,21.6],[-97.733,21.503],[-97.702,21.487],[-97.661,21.5],[-97.666,21.591],[-97.733,21.658],[-97.846,21.721],[-97.95,21.839],[-98.019,21.958]]]}},{"type":"Feature","properties":{"density":1},"geometry":{"type":"Polygon","coordinates":[[[-97.594,16.64],[-97.664,16.648],[-97.739,16.617],[-97.746,16.455],[-97.772,16.383],[-97.774,16.321],[-97.757,16.267],[-97.711,16.212],[-97.598,16.117],[-97.563,16.111],[-97.524,16.148],[-97.474,16.293],[-97.498,16.391],[-97.493,16.501],[-97.542,16.602],[-97.594,16.64]]]}},{"type":"Feature","properties":{"density":1},"geometry":{"type":"Polygon","coordinates":[[[-96.016,17.632],[-96.094,17.677],[-96.133,17.669],[-96.195,17.543],[-96.164,17.519],[-96.14,17.522],[-96.019,17.577],[-96.011,17.616],[-96.016,17.632]]]}},{"type":"Feature","properties":{"density":1},"geometry":{"type":"Polygon","coordinates":[[[-95.718,17.507],[-95.813,17.587],[-95.89,17.616],[-95.909,17.608],[-95.934,17.54],[-96.019,17.501],[-96.038,17.468],[-96.017,17.418],[-95.952,17.404],[-95.837,17.442],[-95.748,17.428],[-95.711,17.458],[-95.722,17.495],[-95.718,17.507]]]}},{"type":"Feature","properties":{"density":1},"geometry":{"type":"Polygon","coordinates":[[[-95.652,17.442],[-95.723,17.453],[-95.79,17.412],[-95.88,17.388],[-95.908,17.366],[-95.909,17.335],[-95.88,17.31],[-95.855,17.31],[-95.668,17.387],[-95.641,17.428],[-95.652,17.442]]]}},{"type":"Feature","properties":{"density":1},"geometry":{"type":"Polygon","coordinates":[[[-95.64,17.475],[-95.652,17.459],[-95.634,17.451],[-95.548,17.457],[-95.554,17.496],[-95.599,17.488],[-95.64,17.475]]]}},{"type":"Feature","properties":{"density":1},"geometry":{"type":"Polygon","coordinates":[[[-95.668,17.215],[-95.811,17.237],[-95.846,17.2],[-95.821,17.094],[-95.861,17.009],[-95.853,16.965],[-95.8,16.963],[-95.781,16.982],[-95.728,17.124],[-95.647,17.167],[-95.657,17.199],[-95.668,17.215]]]}},{"type":"Feature","properties":{"density":1},"geometry":{"type":"Polygon","coordinates":[[[-96.023,17.042],[-96.049,17.031],[-96.049,16.999],[-95.913,16.968],[-95.918,17.0],[-95.989,17.03],[-96.023,17.042]]]}},{"type":"Feature","properties":{"density":1},"geometry":{"type":"Polygon","coordinates":[[[-95.57,17.146],[-95.615,17.146],[-95.645,17.098],[-95.734,17.037],[-95.788,16.921],[-95.759,16.883],[-95.692,16.859],[-95.632,16.864],[-95.579,16.895],[-95.517,17.043],[-95.534,17.118],[-95.57,17.146]]]}},{"type":"Feature","properties":{"density":1},"geometry":{"type":"Polygon","coordinates":[[[-95.705,18.429],[-95.731,18.447],[-95.794,18.442],[-95.818,18.426],[-95.839,18.359],[-95.785,18.238],[-95.773,18.135],[-95.716,18.071],[-95.691,18.065],[-95.61,18.069],[-95.58,18.114],[-95.589,18.3],[-95.655,18.406],[-95.705,18.429]]]}},{"type":"Feature","properties":{"density":1},"geometry":{"type":"Polygon","coordinates":[[[-95.219,17.639],[-95.241,17.621],[-95.24,17.587],[-95.164,17.572],[-95.081,17.619],[-94.963,17.644],[-94.947,17.678],[-94.966,17.706],[-94.994,17.709],[-95.106,17.667],[-95.219,17.639]]]}},{"type":"Feature","properties":{"density":1},"geometry":{"type":"Polygon","coordinates":[[[-95.083,17.114],[-95.152,17.123],[-95.182,17.095],[-95.221,17.008],[-95.324,16.932],[-95.332,16.817],[-95.264,16.741],[-95.182,16.695],[-95.084,16.683],[-95.041,16.694],[-95.005,16.73],[-94.958,16.811],[-94.947,16.918],[-94.976,17.013],[-95.012,17.06],[-95.083,17.114]]]}},{"type":"Feature","properties":{"density":1},"geometry":{"type":"Polygon","coordinates":[[[-93.789,17.752],[-93.86,17.773],[-93.938,17.76],[-94.017,17.587],[-94.058,17.537],[-94.228,17.492],[-94.405,17.413],[-94.459,17.397],[-94.633,17.392],[-94.794,17.409],[-94.881,17.38],[-94.988,17.14],[-95.025,17.012],[-95.05,16.884],[-95.058,16.723],[-94.955,16.223],[-94.872,16.037],[-94.765,15.892],[-94.645,15.842],[-94.521,15.826],[-94.381,15.875],[-94.203,16.045],[-94.05,16.409],[-93.975,16.516],[-93.885,16.562],[-93.752,16.582],[-93.616,16.632],[-93.533,16.706],[-93.5,16.801],[-93.492,17.012],[-93.426,17.178],[-93.405,17.277],[-93.401,17.405],[-93.508,17.599],[-93.591,17.674],[-93.789,17.752]]]}},{"type":"Feature","properties":{"density":1},"geometry":{"type":"Polygon","coordinates":[[[-88.967,15.503],[-89.09,15.463],[-89.129,15.424],[-89.162,15.367],[-89.206,15.222],[-89.136,15.2],[-89.059,15.215],[-88.791,15.395],[-88.644,15.54],[-88.64,15.571],[-88.658,15.593],[-88.752,15.545],[-88.967,15.503]]]}},{"type":"Feature","properties":{"density":1},"geometry":{"type":"Polygon","coordinates":[[[-86.112,15.869],[-86.173,15.957],[-86.184,16.271],[-86.21,16.371],[-86.27,16.481],[-86.359,16.576],[-86.487,16.675],[-86.669,16.764],[-87.069,17.052],[-87.151,17.088],[-87.256,17.121],[-87.416,17.132],[-87.512,17.082],[-87.556,17.03],[-87.603,16.942],[-87.625,16.799],[-87.614,16.653],[-87.529,16.438],[-87.471,16.344],[-87.383,16.269],[-86.903,16.03],[-86.666,15.782],[-86.479,15.669],[-86.336,15.528],[-86.212,15.377],[-86.145,15.338],[-86.066,15.346],[-86.005,15.382],[-85.98,15.454],[-85.997,15.674],[-86.035,15.729],[-86.112,15.869]]]}},{"type":"Feature","properties":{"density":1},"geometry":{"type":"Polygon","coordinates":[[[-105.576,22.366],[-105.98,21.71],[-106.12,21.599],[-106.441,21.529],[-107.037,21.48],[-107.454,21.414],[-107.876,21.369],[-109.029,21.179],[-109.653,20.955],[-109.748,20.728],[-109.69,20.397],[-109.119,19.269],[-108.966,18.878],[-108.924,18.516],[-108.938,18.097],[-109.036,17.734],[-109.161,17.441],[-109.356,17.149],[-109.608,16.897],[-109.9,16.716],[-110.863,16.563],[-110.933,16.465],[-111.058,16.256],[-111.198,15.921],[-111.296,15.572],[-111.351,15.14],[-111.323,14.735],[-111.226,14.386],[-111.114,14.107],[-110.891,13.731],[-110.277,13.131],[-109.9,12.894],[-109.091,12.545],[-108.645,12.405],[-108.352,12.196],[-107.975,11.582],[-107.752,11.303],[-107.32,11.094],[-105.454,9.973],[-104.763,9.701],[-103.78,9.408],[-102.817,9.052],[-101.813,8.822],[-100.934,8.654],[-100.013,8.592],[-98.737,8.445],[-96.602,8.34],[-95.807,8.278],[-94.886,8.236],[-93.903,8.257],[-92.961,8.361],[-92.019,8.592],[-91.266,8.885],[-90.638,9.198],[-89.252,10.431],[-88.932,10.584],[-88.597,10.71],[-87.899,10.779],[-87.578,10.835],[-87.23,10.989],[-86.909,11.435],[-86.769,11.672],[-85.914,12.807],[-85.886,13.002],[-85.76,13.421],[-85.607,13.77],[-85.411,14.104],[-85.188,14.425],[-84.909,14.648],[-84.449,14.872],[-84.198,15.067],[-84.016,15.332],[-83.947,15.681],[-83.933,16.546],[-83.988,16.936],[-84.114,17.257],[-84.393,17.634],[-84.686,17.843],[-86.151,18.373],[-86.276,18.345],[-86.695,18.038],[-86.918,17.941],[-87.643,17.871],[-88.099,18.066],[-88.239,18.206],[-88.425,18.494],[-88.443,18.987],[-88.527,19.229],[-88.732,19.489],[-89.029,19.74],[-89.271,19.824],[-89.606,19.871],[-89.903,19.871],[-90.517,19.796],[-91.089,19.833],[-91.187,19.945],[-91.312,20.14],[-91.494,20.615],[-91.522,20.936],[-91.522,21.229],[-91.466,21.619],[-91.382,22.428],[-91.243,22.833],[-91.145,23.237],[-91.159,24.144],[-91.299,24.632],[-91.494,24.995],[-91.773,25.414],[-92.261,25.804],[-92.708,26.055],[-93.475,26.404],[-94.13,26.586],[-94.898,26.669],[-95.33,26.669],[-95.818,26.627],[-96.893,26.404],[-97.116,26.404],[-97.381,26.376],[-97.604,26.293],[-98.385,25.902],[-99.125,25.316],[-99.39,25.009],[-99.529,24.925],[-99.822,24.856],[-100.073,24.772],[-100.269,24.688],[-100.492,24.521],[-100.604,24.27],[-100.631,24.019],[-100.534,23.67],[-100.235,23.006],[-100.095,22.858],[-99.891,22.681],[-99.807,22.504],[-99.807,21.881],[-99.732,21.621],[-99.491,21.23],[-99.193,20.867],[-98.951,20.626],[-98.7,20.412],[-98.393,20.068],[-98.319,19.863],[-98.319,19.649],[-98.421,19.491],[-98.719,19.389],[-99.016,19.389],[-99.584,19.593],[-99.816,19.733],[-100.067,19.919],[-100.635,20.672],[-100.904,21.072],[-101.155,21.639],[-101.379,22.374],[-101.518,22.755],[-101.686,23.053],[-101.844,23.313],[-102.002,23.481],[-102.197,23.62],[-102.495,23.76],[-102.736,23.825],[-103.118,23.881],[-103.48,23.89],[-103.825,23.825],[-104.225,23.713],[-104.522,23.592],[-104.792,23.378],[-105.576,22.366]]]}},{"type":"Feature","properties":{"density":1},"geometry":{"type":"Polygon","coordinates":[[[-98.263,54.3],[-98.458,54.356],[-98.709,54.259],[-98.947,54.091],[-99.184,53.854],[-99.477,53.659],[-99.853,53.519],[-100.328,53.477],[-100.76,53.505],[-101.221,53.463],[-101.625,53.38],[-101.974,53.24],[-102.155,52.989],[-102.113,52.515],[-101.848,52.082],[-101.444,51.789],[-101.025,51.622],[-99.421,51.092],[-98.988,50.813],[-98.682,50.422],[-98.5,50.045],[-98.444,49.669],[-98.458,48.943],[-98.347,48.497],[-98.165,48.218],[-97.747,47.799],[-97.063,47.52],[-96.701,47.465],[-96.254,47.423],[-95.096,47.409],[-94.678,47.325],[-94.022,46.972],[-93.092,46.702],[-92.357,46.562],[-91.976,46.349],[-91.725,46.274],[-91.437,46.218],[-91.195,46.218],[-90.646,46.283],[-89.658,46.276],[-89.49,46.221],[-89.197,46.025],[-89.002,45.83],[-88.598,45.119],[-88.374,44.867],[-88.137,44.686],[-87.83,44.616],[-87.495,44.644],[-86.589,44.923],[-86.184,44.951],[-85.821,44.909],[-85.319,44.756],[-84.929,44.616],[-83.938,44.393],[-83.45,44.323],[-82.843,44.075],[-82.689,43.921],[-82.327,43.391],[-82.131,43.168],[-81.866,42.819],[-81.573,42.61],[-81.239,42.498],[-80.848,42.401],[-80.457,42.345],[-80.123,42.345],[-79.788,42.387],[-79.425,42.512],[-79.104,42.707],[-78.602,43.154],[-78.337,43.307],[-78.044,43.405],[-77.639,43.489],[-76.663,43.503],[-76.3,43.572],[-76.049,43.712],[-75.882,44.047],[-75.854,45.567],[-75.909,45.804],[-76.161,46.167],[-76.509,46.39],[-76.844,46.446],[-77.346,46.432],[-77.918,46.349],[-79.16,46.307],[-81.518,46.669],[-81.797,46.683],[-82.634,46.879],[-83.275,47.074],[-83.917,47.325],[-84.712,47.688],[-85.494,48.134],[-86.163,48.595],[-86.693,48.985],[-87.237,49.334],[-88.144,50.045],[-88.688,50.352],[-89.442,50.59],[-90.069,50.715],[-90.669,50.785],[-91.158,50.785],[-91.939,50.855],[-92.622,50.896],[-93.376,51.092],[-94.185,51.329],[-95.454,51.999],[-95.747,52.054],[-96.18,52.18],[-96.584,52.389],[-96.919,52.598],[-97.17,52.877],[-97.379,53.547],[-97.658,53.952],[-97.91,54.203],[-98.263,54.3]]]}},{"type":"Feature","properties":{"density":2},"geometry":{"type":"Polygon","coordinates":[[[-105.204,20.266],[-105.182,20.282],[-105.141,20.28],[-105.019,20.247],[-104.937,20.264],[-104.886,20.184],[-104.785,20.155],[-104.767,20.124],[-104.784,20.018],[-104.749,19.945],[-104.755,19.889],[-104.775,19.88],[-104.803,19.894],[-104.829,19.942],[-104.915,20.025],[-104.923,20.063],[-104.951,20.093],[-105.088,20.115],[-105.204,20.18],[-105.207,20.264],[-105.204,20.266]]]}},{"type":"Feature","properties":{"density":2},"geometry":{"type":"Polygon","coordinates":[[[-104.014,21.435],[-103.971,21.417],[-103.965,21.397],[-104.018,21.412],[-104.017,21.434],[-104.014,21.435]]]}},{"type":"Feature","properties":{"density":2},"geometry":{"type":"Polygon","coordinates":[[[-103.336,19.198],[-103.235,19.234],[-103.207,19.212],[-103.206,19.189],[-103.239,19.158],[-103.304,19.152],[-103.337,19.169],[-103.339,19.197],[-103.336,19.198]]]}},{"type":"Feature","properties":{"density":2},"geometry":{"type":"Polygon","coordinates":[[[-98.878,16.829],[-98.924,16.843],[-98.926,16.872],[-98.855,16.868],[-98.856,16.838],[-98.876,16.829],[-98.878,16.829]]]}},{"type":"Feature","properties":{"density":2},"geometry":{"type":"Polygon","coordinates":[[[-98.813,16.923],[-98.867,16.915],[-98.905,16.86],[-98.895,16.829],[-98.864,16.827],[-98.842,16.868],[-98.795,16.894],[-98.797,16.918],[-98.813,16.923]]]}},{"type":"Feature","properties":{"density":2},"geometry":{"type":"Polygon","coordinates":[[[-103.254,19.251],[-103.282,19.258],[-103.289,19.246],[-103.277,19.172],[-103.256,19.153],[-103.216,19.176],[-103.234,19.237],[-103.254,19.251]]]}},{"type":"Feature","properties":{"density":2},"geometry":{"type":"Polygon","coordinates":[[[-104.705,20.142],[-104.75,20.136],[-104.754,20.112],[-104.804,20.084],[-104.801,20.06],[-104.736,20.049],[-104.704,20.074],[-104.694,20.121],[-104.705,20.142]]]}},{"type":"Feature","properties":{"density":2},"geometry":{"type":"Polygon","coordinates":[[[-104.773,20.007],[-104.794,20.015],[-104.812,19.95],[-104.856,19.929],[-104.866,19.907],[-104.856,19.889],[-104.747,19.871],[-104.721,19.914],[-104.749,19.978],[-104.773,20.007]]]}},{"type":"Feature","properties":{"density":2},"geometry":{"type":"Polygon","coordinates":[[[-105.151,20.314],[-105.174,20.325],[-105.208,20.298],[-105.213,20.242],[-105.196,20.221],[-105.147,20.247],[-105.115,20.238],[-105.102,20.249],[-105.1,20.27],[-105.135,20.299],[-105.151,20.314]]]}},{"type":"Feature","properties":{"density":2},"geometry":{"type":"Polygon","coordinates":[[[-93.811,17.549],[-93.866,17.561],[-93.931,17.529],[-93.997,17.519],[-94.047,17.488],[-94.171,17.307],[-94.223,17.258],[-94.316,17.204],[-94.492,17.156],[-94.548,17.064],[-94.551,17.026],[-94.512,16.953],[-94.442,16.92],[-94.372,16.916],[-94.301,16.958],[-94.234,17.044],[-94.111,17.102],[-93.909,17.345],[-93.758,17.469],[-93.756,17.522],[-93.773,17.539],[-93.811,17.549]]]}},{"type":"Feature","properties":{"density":2},"geometry":{"type":"Polygon","coordinates":[[[-93.821,17.528],[-93.877,17.502],[-94.11,17.302],[-94.303,17.202],[-94.328,17.124],[-94.297,17.103],[-94.176,17.119],[-94.044,17.194],[-93.896,17.304],[-93.835,17.377],[-93.805,17.452],[-93.794,17.517],[-93.814,17.528],[-93.821,17.528]]]}},{"type":"Feature","properties":{"density":2},"geometry":{"type":"Polygon","coordinates":[[[-105.157,20.404],[-105.202,20.398],[-105.245,20.316],[-105.202,20.151],[-105.184,20.139],[-105.142,20.156],[-105.043,20.267],[-105.052,20.339],[-105.113,20.387],[-105.157,20.404]]]}},{"type":"Feature","properties":{"density":2},"geometry":{"type":"Polygon","coordinates":[[[-104.872,20.21],[-104.897,20.262],[-104.926,20.248],[-104.92,20.147],[-104.904,20.123],[-104.886,20.134],[-104.878,20.186],[-104.872,20.21]]]}},{"type":"Feature","properties":{"density":2},"geometry":{"type":"Polygon","coordinates":[[[-104.698,20.171],[-104.773,20.236],[-104.852,20.208],[-104.868,20.173],[-104.81,20.082],[-104.778,20.058],[-104.715,20.061],[-104.686,20.08],[-104.689,20.159],[-104.698,20.171]]]}},{"type":"Feature","properties":{"density":2},"geometry":{"type":"Polygon","coordinates":[[[-104.855,20.051],[-104.91,20.032],[-104.918,20.002],[-104.832,19.947],[-104.806,19.886],[-104.771,19.877],[-104.739,19.899],[-104.74,19.964],[-104.824,20.037],[-104.855,20.051]]]}},{"type":"Feature","properties":{"density":2},"geometry":{"type":"Polygon","coordinates":[[[-103.261,19.224],[-103.276,19.205],[-103.262,19.177],[-103.239,19.189],[-103.249,19.223],[-103.261,19.224]]]}},{"type":"Feature","properties":{"density":2},"geometry":{"type":"Polygon","coordinates":[[[-98.825,17.012],[-98.868,16.987],[-98.858,16.896],[-98.903,16.836],[-98.895,16.804],[-98.863,16.805],[-98.836,16.852],[-98.772,16.87],[-98.742,16.899],[-98.744,16.953],[-98.791,17.0],[-98.825,17.012]]]}},{"type":"Feature","properties":{"density":2},"geometry":{"type":"Polygon","coordinates":[[[-95.122,17.0],[-95.212,16.941],[-95.165,16.887],[-95.126,16.898],[-95.103,16.952],[-95.114,16.996],[-95.122,17.0]]]}},{"type":"Feature","properties":{"density":2},"geometry":{"type":"Polygon","coordinates":[[[-93.827,17.688],[-93.885,17.699],[-93.92,17.659],[-94.058,17.608],[-94.076,17.512],[-94.159,17.435],[-94.214,17.283],[-94.422,17.149],[-94.476,17.065],[-94.476,17.003],[-94.433,16.967],[-94.372,16.982],[-94.339,17.009],[-94.312,17.085],[-94.271,17.143],[-94.149,17.134],[-94.106,17.149],[-94.074,17.176],[-94.045,17.249],[-93.982,17.339],[-93.751,17.408],[-93.723,17.57],[-93.776,17.664],[-93.827,17.688]]]}},{"type":"Feature","properties":{"density":2},"geometry":{"type":"Polygon","coordinates":[[[-93.488,18.167],[-93.582,18.171],[-93.608,18.129],[-93.558,18.048],[-93.542,17.967],[-93.512,17.938],[-93.475,17.938],[-93.439,18.041],[-93.396,18.094],[-93.395,18.129],[-93.431,18.169],[-93.488,18.167]]]}},{"type":"Feature","properties":{"density":2},"geometry":{"type":"Polygon","coordinates":[[[-93.193,18.131],[-93.24,18.112],[-93.246,18.077],[-93.22,17.998],[-93.226,17.879],[-93.198,17.848],[-93.121,17.848],[-93.02,17.765],[-92.978,17.75],[-92.93,17.765],[-92.902,17.809],[-92.9,17.844],[-92.924,17.883],[-92.954,17.905],[-93.099,17.945],[-93.115,18.059],[-93.154,18.12],[-93.193,18.131]]]}},{"type":"Feature","properties":{"density":2},"geometry":{"type":"Polygon","coordinates":[[[-86.574,15.936],[-86.62,15.947],[-86.633,15.923],[-86.557,15.855],[-86.486,15.754],[-86.398,15.677],[-86.324,15.574],[-86.155,15.437],[-86.124,15.433],[-86.122,15.484],[-86.153,15.521],[-86.267,15.606],[-86.434,15.819],[-86.541,15.92],[-86.574,15.936]]]}},{"type":"Feature","properties":{"density":2},"geometry":{"type":"Polygon","coordinates":[[[-86.311,16.083],[-86.364,16.092],[-86.374,16.076],[-86.359,16.03],[-86.311,16.001],[-86.19,15.798],[-86.155,15.795],[-86.137,15.819],[-86.138,15.855],[-86.28,16.057],[-86.311,16.083]]]}},{"type":"Feature","properties":{"density":2},"geometry":{"type":"Polygon","coordinates":[[[-99.858,53.099],[-100.067,53.22],[-100.401,53.341],[-100.521,53.361],[-100.71,53.361],[-100.9,53.268],[-100.98,53.204],[-101.237,53.123],[-101.998,53.095],[-102.07,53.055],[-102.11,52.938],[-102.046,52.854],[-101.937,52.785],[-101.632,52.745],[-101.451,52.749],[-101.338,52.773],[-101.213,52.802],[-101.032,52.874],[-100.775,52.93],[-100.36,52.938],[-100.296,52.886],[-100.196,52.737],[-100.015,52.629],[-99.938,52.512],[-99.862,52.431],[-99.632,52.299],[-99.419,52.118],[-99.206,52.021],[-98.872,51.961],[-98.82,51.965],[-98.792,52.025],[-98.788,52.126],[-98.804,52.198],[-98.872,52.343],[-99.459,52.741],[-99.725,52.983],[-99.858,53.099]]]}},{"type":"Feature","properties":{"density":2},"geometry":{"type":"Polygon","coordinates":[[[-100.61,51.225],[-100.742,51.202],[-100.882,51.239],[-100.909,51.216],[-100.869,51.169],[-100.755,51.126],[-100.744,51.064],[-100.658,51.091],[-100.628,51.118],[-100.574,51.118],[-100.478,51.062],[-100.378,51.039],[-100.361,51.057],[-100.369,51.1],[-100.465,51.185],[-100.517,51.205],[-100.61,51.225]]]}},{"type":"Feature","properties":{"density":2},"geometry":{"type":"Polygon","coordinates":[[[-103.383,53.441],[-103.421,53.414],[-103.419,53.35],[-103.367,53.32],[-103.295,53.236],[-102.968,53.164],[-102.879,53.118],[-102.84,53.137],[-102.856,53.205],[-102.909,53.248],[-103.076,53.295],[-103.163,53.336],[-103.292,53.432],[-103.354,53.441],[-103.383,53.441]]]}},{"type":"Feature","properties":{"density":2},"geometry":{"type":"Polygon","coordinates":[[[-107.032,53.353],[-107.086,53.376],[-107.218,53.356],[-107.343,53.358],[-107.457,53.397],[-107.541,53.397],[-107.568,53.349],[-107.55,53.294],[-107.488,53.224],[-107.364,53.181],[-107.211,53.163],[-107.048,53.081],[-106.839,53.027],[-106.635,52.906],[-106.497,52.891],[-106.397,52.924],[-106.201,52.904],[-106.177,52.924],[-106.183,52.981],[-106.233,53.063],[-106.821,53.283],[-107.032,53.353]]]}},{"type":"Feature","properties":{"density":2},"geometry":{"type":"Polygon","coordinates":[[[-90.2,45.836],[-90.112,45.845],[-89.972,45.795],[-89.963,45.775],[-89.997,45.764],[-90.062,45.8],[-90.173,45.783],[-90.204,45.818],[-90.2,45.836]]]}},{"type":"Feature","properties":{"density":2},"geometry":{"type":"Polygon","coordinates":[[[-115.642,31.167],[-115.655,31.104],[-115.644,31.089],[-115.604,31.089],[-115.518,31.212],[-115.383,31.266],[-115.381,31.337],[-115.398,31.354],[-115.434,31.356],[-115.487,31.34],[-115.596,31.225],[-115.642,31.167]]]}},{"type":"Feature","properties":{"density":2},"geometry":{"type":"Polygon","coordinates":[[[-112.193,30.74],[-112.256,30.813],[-112.285,30.826],[-112.309,30.813],[-112.307,30.773],[-112.219,30.689],[-112.234,30.604],[-112.147,30.475],[-112.116,30.466],[-112.096,30.475],[-112.087,30.545],[-112.168,30.694],[-112.193,30.74]]]}},{"type":"Feature","properties":{"density":2},"geometry":{"type":"Polygon","coordinates":[[[-105.007,20.371],[-105.049,20.382],[-105.134,20.371],[-105.196,20.248],[-105.139,20.136],[-105.145,20.033],[-105.073,19.961],[-105.013,19.837],[-104.946,19.829],[-104.878,19.848],[-104.665,19.811],[-104.629,19.765],[-104.572,19.746],[-104.513,19.809],[-104.465,19.96],[-104.461,20.064],[-104.476,20.112],[-104.588,20.224],[-104.676,20.283],[-104.809,20.338],[-105.007,20.371]]]}},{"type":"Feature","properties":{"density":2},"geometry":{"type":"Polygon","coordinates":[[[-98.756,17.027],[-98.802,17.033],[-98.824,17.012],[-98.833,16.943],[-98.853,16.911],[-98.974,16.845],[-98.973,16.781],[-98.947,16.739],[-98.901,16.733],[-98.853,16.752],[-98.776,16.735],[-98.76,16.746],[-98.738,16.772],[-98.719,16.842],[-98.732,16.987],[-98.756,17.027]]]}},{"type":"Feature","properties":{"density":2},"geometry":{"type":"Polygon","coordinates":[[[-97.636,16.602],[-97.675,16.602],[-97.717,16.558],[-97.715,16.409],[-97.737,16.29],[-97.634,16.172],[-97.592,16.159],[-97.555,16.177],[-97.539,16.253],[-97.577,16.346],[-97.548,16.501],[-97.592,16.576],[-97.636,16.602]]]}},{"type":"Feature","properties":{"density":2},"geometry":{"type":"Polygon","coordinates":[[[-95.612,17.085],[-95.661,16.981],[-95.618,16.981],[-95.591,17.011],[-95.575,17.121],[-95.598,17.135],[-95.608,17.113],[-95.612,17.085]]]}},{"type":"Feature","properties":{"density":2},"geometry":{"type":"Polygon","coordinates":[[[-95.725,18.379],[-95.749,18.381],[-95.765,18.363],[-95.764,18.303],[-95.72,18.164],[-95.683,18.099],[-95.662,18.096],[-95.634,18.131],[-95.634,18.186],[-95.648,18.292],[-95.694,18.372],[-95.725,18.379]]]}},{"type":"Feature","properties":{"density":2},"geometry":{"type":"Polygon","coordinates":[[[-95.134,17.073],[-95.171,17.064],[-95.191,17.002],[-95.161,16.918],[-95.178,16.823],[-95.139,16.796],[-95.081,16.822],[-95.027,16.932],[-95.032,16.989],[-95.093,17.062],[-95.134,17.073]]]}},{"type":"Feature","properties":{"density":2},"geometry":{"type":"Polygon","coordinates":[[[-93.828,17.703],[-93.923,17.705],[-94.002,17.63],[-94.112,17.593],[-94.129,17.514],[-94.072,17.386],[-94.07,17.286],[-94.158,17.189],[-94.224,17.086],[-94.348,17.031],[-94.368,17.005],[-94.377,16.963],[-94.357,16.921],[-94.322,16.895],[-94.226,16.864],[-94.118,16.91],[-93.997,17.009],[-93.951,17.018],[-93.761,17.003],[-93.686,17.016],[-93.633,17.062],[-93.567,17.327],[-93.57,17.446],[-93.614,17.555],[-93.774,17.698],[-93.828,17.703]]]}},{"type":"Feature","properties":{"density":2},"geometry":{"type":"Polygon","coordinates":[[[-93.822,18.527],[-93.88,18.553],[-93.97,18.543],[-94.145,18.635],[-94.195,18.644],[-94.239,18.632],[-94.318,18.567],[-94.347,18.505],[-94.362,18.373],[-94.336,18.299],[-94.274,18.207],[-94.2,18.156],[-93.981,18.086],[-93.926,18.031],[-93.774,17.752],[-93.684,17.689],[-93.544,17.647],[-93.406,17.529],[-93.357,17.52],[-93.293,17.52],[-93.124,17.599],[-92.857,17.606],[-92.802,17.617],[-92.765,17.652],[-92.763,17.757],[-92.798,17.818],[-92.857,17.873],[-92.94,17.908],[-93.243,17.937],[-93.313,17.957],[-93.456,18.047],[-93.574,18.156],[-93.621,18.22],[-93.75,18.494],[-93.822,18.527]]]}},{"type":"Feature","properties":{"density":2},"geometry":{"type":"Polygon","coordinates":[[[-86.976,16.789],[-87.133,16.841],[-87.326,16.963],[-87.373,16.968],[-87.415,16.943],[-87.434,16.908],[-87.437,16.863],[-87.412,16.811],[-87.285,16.676],[-87.246,16.552],[-87.145,16.483],[-87.021,16.456],[-86.979,16.414],[-86.883,16.238],[-86.795,16.15],[-86.717,16.1],[-86.643,15.943],[-86.604,15.896],[-86.326,15.651],[-86.169,15.439],[-86.108,15.428],[-86.106,15.532],[-86.125,15.585],[-86.348,15.814],[-86.381,15.869],[-86.395,16.147],[-86.464,16.312],[-86.566,16.417],[-86.662,16.461],[-86.772,16.555],[-86.916,16.77],[-86.976,16.789]]]}},{"type":"Feature","properties":{"density":2},"geometry":{"type":"Polygon","coordinates":[[[-86.782,16.658],[-86.826,16.66],[-86.857,16.608],[-86.861,16.58],[-86.836,16.531],[-86.682,16.406],[-86.635,16.285],[-86.51,16.166],[-86.457,16.047],[-86.352,15.976],[-86.21,15.826],[-86.138,15.805],[-86.117,15.857],[-86.167,15.948],[-86.419,16.148],[-86.61,16.497],[-86.727,16.638],[-86.782,16.658]]]}},{"type":"Feature","properties":{"density":2},"geometry":{"type":"Polygon","coordinates":[[[-104.726,20.604],[-104.819,20.629],[-104.943,20.629],[-105.104,20.579],[-105.203,20.48],[-105.253,20.331],[-105.222,20.102],[-105.011,19.755],[-104.93,19.519],[-104.924,19.321],[-104.874,19.172],[-104.769,19.06],[-104.639,18.955],[-104.36,18.911],[-103.715,18.893],[-103.504,18.837],[-103.312,18.744],[-103.114,18.62],[-102.58,18.254],[-102.388,18.198],[-102.171,18.205],[-101.979,18.149],[-101.551,17.913],[-100.912,17.368],[-100.658,17.132],[-100.367,17.008],[-100.051,16.934],[-99.784,16.927],[-99.598,16.971],[-99.443,17.033],[-99.387,17.2],[-99.369,17.392],[-99.387,17.678],[-99.486,17.895],[-99.629,18.118],[-99.759,18.267],[-100.026,18.446],[-100.274,18.546],[-101.061,18.639],[-101.644,18.769],[-101.954,18.868],[-102.289,19.048],[-102.574,19.259],[-103.058,19.811],[-103.262,19.972],[-103.969,20.276],[-104.335,20.455],[-104.726,20.604]]]}},{"type":"Feature","properties":{"density":2},"geometry":{"type":"Polygon","coordinates":[[[-98.321,22.266],[-98.532,22.291],[-98.773,22.266],[-98.928,22.21],[-99.046,22.08],[-99.121,21.906],[-99.158,21.658],[-99.17,21.373],[-99.133,21.075],[-99.015,20.803],[-98.835,20.629],[-98.364,20.381],[-97.806,20.009],[-97.589,19.817],[-97.068,19.085],[-96.882,18.899],[-96.526,18.663],[-96.321,18.496],[-96.116,18.226],[-95.893,17.733],[-95.893,17.538],[-95.782,17.036],[-95.791,16.887],[-95.958,16.617],[-96.247,16.515],[-96.647,16.506],[-97.112,16.589],[-97.642,16.757],[-98.758,17.064],[-99.121,17.11],[-99.4,17.11],[-99.744,17.008],[-99.967,16.841],[-100.888,16.738],[-101.762,16.394],[-102.487,16.041],[-102.766,15.818],[-103.324,15.12],[-103.724,14.432],[-103.715,14.19],[-103.641,13.93],[-103.445,13.688],[-103.213,13.53],[-102.887,13.39],[-102.366,13.465],[-102.218,13.502],[-101.966,13.595],[-101.613,13.66],[-101.278,13.697],[-100.953,13.613],[-100.72,13.465],[-100.478,13.279],[-100.199,13.148],[-99.827,13.065],[-99.595,13.083],[-99.204,13.167],[-98.879,13.26],[-98.544,13.306],[-98.218,13.316],[-97.93,13.26],[-97.716,13.167],[-97.446,13.0],[-97.251,12.925],[-97.028,12.879],[-96.582,12.86],[-96.358,12.953],[-96.21,13.083],[-96.023,13.195],[-95.577,13.651],[-95.363,13.809],[-94.396,14.385],[-94.322,14.469],[-94.173,14.553],[-93.987,14.608],[-93.289,14.748],[-92.784,15.687],[-92.709,15.997],[-92.641,16.152],[-92.53,16.289],[-92.294,16.487],[-92.207,16.673],[-92.139,16.89],[-92.114,17.132],[-92.511,18.136],[-92.573,18.248],[-92.747,18.484],[-92.846,18.577],[-93.311,18.88],[-93.515,19.029],[-93.689,19.19],[-93.906,19.432],[-94.117,19.711],[-94.328,20.028],[-94.607,20.362],[-94.935,20.666],[-95.221,20.846],[-95.853,21.094],[-96.43,21.367],[-96.919,21.726],[-97.229,21.9],[-97.546,22.055],[-98.321,22.266]]]}},{"type":"Feature","properties":{"density":3},"geometry":{"type":"Polygon","coordinates":[[[-105.199,20.236],[-105.159,20.269],[-105.11,20.218],[-105.132,20.193],[-105.178,20.178],[-105.2,20.195],[-105.199,20.234],[-105.199,20.236]]]}},{"type":"Feature","properties":{"density":3},"geometry":{"type":"Polygon","coordinates":[[[-93.882,17.444],[-93.849,17.489],[-93.794,17.512],[-93.793,17.529],[-93.846,17.551],[-93.894,17.534],[-93.964,17.434],[-94.087,17.355],[-94.16,17.222],[-94.211,17.172],[-94.412,17.111],[-94.434,17.071],[-94.417,17.013],[-94.394,17.011],[-94.351,17.079],[-94.233,17.102],[-94.125,17.169],[-93.999,17.336],[-93.921,17.405],[-93.882,17.444]]]}},{"type":"Feature","properties":{"density":3},"geometry":{"type":"Polygon","coordinates":[[[-93.822,17.52],[-93.872,17.492],[-93.95,17.36],[-93.946,17.336],[-93.903,17.328],[-93.85,17.39],[-93.805,17.488],[-93.802,17.512],[-93.815,17.52],[-93.822,17.52]]]}},{"type":"Feature","properties":{"density":3},"geometry":{"type":"Polygon","coordinates":[[[-105.193,20.234],[-105.183,20.284],[-105.127,20.299],[-105.114,20.259],[-105.133,20.229],[-105.131,20.197],[-105.156,20.188],[-105.179,20.199],[-105.193,20.234]]]}},{"type":"Feature","properties":{"density":3},"geometry":{"type":"Polygon","coordinates":[[[-104.705,20.163],[-104.768,20.134],[-104.769,20.114],[-104.696,20.101],[-104.686,20.135],[-104.698,20.157],[-104.705,20.163]]]}},{"type":"Feature","properties":{"density":3},"geometry":{"type":"Polygon","coordinates":[[[-93.829,17.674],[-93.861,17.68],[-93.899,17.636],[-94.031,17.586],[-94.04,17.512],[-93.981,17.487],[-93.981,17.385],[-93.921,17.375],[-93.795,17.407],[-93.758,17.439],[-93.743,17.479],[-93.748,17.585],[-93.791,17.645],[-93.829,17.674]]]}},{"type":"Feature","properties":{"density":3},"geometry":{"type":"Polygon","coordinates":[[[-99.866,53.099],[-100.039,53.155],[-100.147,53.212],[-100.288,53.244],[-100.55,53.264],[-100.739,53.204],[-100.859,53.139],[-101.024,53.079],[-101.503,53.051],[-101.624,53.019],[-101.692,52.958],[-101.624,52.91],[-101.382,52.866],[-101.306,52.874],[-100.654,53.055],[-100.614,53.055],[-100.537,53.023],[-100.34,52.999],[-100.296,52.978],[-100.192,52.886],[-100.095,52.769],[-99.978,52.713],[-99.91,52.657],[-99.805,52.496],[-99.769,52.464],[-99.58,52.359],[-99.439,52.23],[-99.274,52.126],[-99.21,52.102],[-99.053,52.081],[-99.017,52.09],[-98.981,52.126],[-98.977,52.182],[-99.025,52.271],[-99.069,52.319],[-99.198,52.383],[-99.407,52.556],[-99.753,52.95],[-99.797,53.019],[-99.866,53.099]]]}},{"type":"Feature","properties":{"density":3},"geometry":{"type":"Polygon","coordinates":[[[-103.269,53.377],[-103.299,53.382],[-103.315,53.368],[-103.295,53.321],[-103.185,53.268],[-103.142,53.228],[-102.95,53.184],[-102.882,53.137],[-102.856,53.144],[-102.888,53.202],[-103.117,53.279],[-103.192,53.321],[-103.269,53.377]]]}},{"type":"Feature","properties":{"density":3},"geometry":{"type":"Polygon","coordinates":[[[-106.955,53.278],[-107.039,53.294],[-107.069,53.254],[-106.982,53.163],[-106.762,53.102],[-106.606,52.972],[-106.513,52.949],[-106.374,52.974],[-106.274,52.94],[-106.208,52.94],[-106.235,52.992],[-106.29,53.04],[-106.637,53.136],[-106.853,53.233],[-106.955,53.278]]]}},{"type":"Feature","properties":{"density":3},"geometry":{"type":"Polygon","coordinates":[[[-105.189,20.252],[-105.196,20.215],[-105.171,20.215],[-105.137,20.266],[-105.103,20.283],[-105.101,20.314],[-105.123,20.347],[-105.167,20.303],[-105.189,20.252]]]}},{"type":"Feature","properties":{"density":3},"geometry":{"type":"Polygon","coordinates":[[[-93.839,17.646],[-93.866,17.635],[-93.892,17.556],[-93.953,17.54],[-93.998,17.494],[-94.008,17.411],[-93.945,17.191],[-93.863,17.139],[-93.745,17.121],[-93.693,17.145],[-93.651,17.198],[-93.629,17.422],[-93.657,17.465],[-93.723,17.507],[-93.728,17.577],[-93.75,17.621],[-93.778,17.639],[-93.839,17.646]]]}}]}