{"type":"FeatureCollection","features":[{"type":"Feature","properties":{"density":1},"geometry":{"type":"Polygon","coordinates":[[[-71.507,18.661],[-71.591,18.702],[-71.761,18.724],[-72.044,18.719],[-72.151,18.7],[-72.293,18.658],[-72.371,18.617],[-72.453,18.533],[-72.547,18.472],[-72.504,18.431],[-72.366,18.416],[-71.732,18.593],[-71.49,18.574],[-71.468,18.612],[-71.507,18.661]]]}},{"type":"Feature","properties":{"density":1},"geometry":{"type":"Polygon","coordinates":[[[-72.338,19.51],[-72.643,19.524],[-72.769,19.515],[-72.883,19.478],[-73.177,19.258],[-73.316,19.176],[-73.749,19.086],[-74.411,19.005],[-74.803,18.899],[-74.95,18.801],[-75.04,18.686],[-75.105,18.547],[-75.187,18.245],[-75.244,18.106],[-75.44,17.869],[-75.562,17.771],[-75.636,17.682],[-75.677,17.6],[-75.701,17.502],[-75.677,17.42],[-75.595,17.363],[-75.374,17.298],[-75.064,17.29],[-74.19,17.428],[-73.496,17.567],[-73.292,17.592],[-71.65,17.608],[-71.446,17.649],[-71.095,17.78],[-71.005,17.869],[-70.686,18.302],[-70.531,18.556],[-70.499,18.654],[-70.507,18.752],[-70.564,18.841],[-70.646,18.899],[-71.16,19.086],[-71.283,19.168],[-71.454,19.25],[-72.018,19.397],[-72.338,19.51]]]}},{"type":"Feature","properties":{"density":1},"geometry":{"type":"Polygon","coordinates":[[[-71.715,19.339],[-71.753,19.349],[-71.789,19.334],[-71.79,19.295],[-71.763,19.253],[-71.669,19.186],[-71.584,19.207],[-71.584,19.239],[-71.652,19.273],[-71.715,19.339]]]}},{"type":"Feature","properties":{"density":1},"geometry":{"type":"Polygon","coordinates":[[[-74.975,20.399],[-75.113,20.421],[-75.464,20.421],[-75.529,20.462],[-75.539,20.503],[-75.505,20.539],[-75.379,20.583],[-75.127,20.612],[-75.018,20.571],[-74.934,20.479],[-74.941,20.423],[-74.975,20.399]]]}},{"type":"Feature","properties":{"density":1},"geometry":{"type":"Polygon","coordinates":[[[-76.601,20.214],[-76.67,20.208],[-76.737,20.174],[-76.746,20.146],[-76.661,20.112],[-76.483,20.091],[-76.407,20.093],[-76.388,20.108],[-76.459,20.172],[-76.601,20.214]]]}},{"type":"Feature","properties":{"density":1},"geometry":{"type":"Polygon","coordinates":[[[-78.214,22.033],[-78.274,22.058],[-78.41,22.048],[-78.502,22.058],[-78.633,22.096],[-78.833,22.186],[-78.954,22.193],[-78.957,22.174],[-78.916,22.125],[-78.872,22.096],[-78.744,22.033],[-78.633,22.0],[-78.408,21.963],[-78.238,21.958],[-78.185,21.983],[-78.214,22.033]]]}},{"type":"Feature","properties":{"density":1},"geometry":{"type":"Polygon","coordinates":[[[-78.758,22.203],[-79.022,22.355],[-79.071,22.367],[-79.109,22.353],[-79.049,22.261],[-79.025,22.193],[-78.954,22.147],[-78.843,22.116],[-78.739,22.116],[-78.727,22.154],[-78.758,22.203]]]}},{"type":"Feature","properties":{"density":1},"geometry":{"type":"Polygon","coordinates":[[[-80.154,22.783],[-80.292,22.827],[-80.466,22.838],[-80.637,22.74],[-80.891,22.667],[-80.913,22.638],[-80.92,22.587],[-80.891,22.547],[-80.786,22.478],[-80.477,22.34],[-80.318,22.319],[-80.22,22.333],[-80.125,22.373],[-79.966,22.544],[-79.951,22.591],[-79.955,22.62],[-79.998,22.678],[-80.154,22.783]]]}},{"type":"Feature","properties":{"density":1},"geometry":{"type":"Polygon","coordinates":[[[-83.437,22.434],[-83.502,22.405],[-83.504,22.386],[-83.437,22.394],[-83.426,22.408],[-83.437,22.434]]]}},{"type":"Feature","properties":{"density":1},"geometry":{"type":"Polygon","coordinates":[[[-92.6,29.869],[-92.684,29.866],[-92.745,29.845],[-92.759,29.825],[-92.748,29.771],[-92.681,29.727],[-92.435,29.666],[-92.225,29.639],[-92.117,29.599],[-91.776,29.319],[-91.56,29.224],[-91.338,29.194],[-90.97,29.261],[-90.855,29.261],[-90.713,29.214],[-90.676,29.224],[-90.629,29.299],[-90.636,29.39],[-90.737,29.498],[-90.966,29.612],[-91.172,29.683],[-91.469,29.758],[-91.749,29.808],[-92.303,29.859],[-92.6,29.869]]]}},{"type":"Feature","properties":{"density":1},"geometry":{"type":"Polygon","coordinates":[[[-99.244,27.654],[-99.312,27.671],[-99.464,27.674],[-99.535,27.64],[-99.562,27.573],[-99.565,27.36],[-99.518,27.222],[-99.484,27.154],[-99.41,27.07],[-99.062,26.847],[-98.941,26.726],[-98.863,26.709],[-98.802,26.732],[-98.782,26.773],[-98.799,26.854],[-98.843,26.918],[-98.978,27.043],[-99.069,27.154],[-99.086,27.282],[-99.066,27.441],[-99.096,27.519],[-99.153,27.586],[-99.244,27.654]]]}},{"type":"Feature","properties":{"density":1},"geometry":{"type":"Polygon","coordinates":[[[-100.209,31.519],[-100.281,31.51],[-100.404,31.415],[-100.463,31.327],[-100.555,31.105],[-100.515,31.093],[-100.467,31.107],[-100.359,31.213],[-100.24,31.39],[-100.175,31.449],[-100.175,31.478],[-100.209,31.519]]]}},{"type":"Feature","properties":{"density":1},"geometry":{"type":"Polygon","coordinates":[[[-109.976,39.651],[-110.02,39.671],[-110.053,39.664],[-110.057,39.543],[-109.996,39.401],[-109.908,39.323],[-109.888,39.367],[-109.935,39.58],[-109.976,39.651]]]}},{"type":"Feature","properties":{"density":1},"geometry":{"type":"Polygon","coordinates":[[[-115.479,44.432],[-115.565,44.442],[-115.595,44.427],[-115.631,44.387],[-115.681,44.265],[-115.686,44.078],[-115.651,43.951],[-115.651,43.82],[-115.625,43.789],[-115.524,43.784],[-115.458,43.835],[-115.423,43.901],[-115.393,44.093],[-115.393,44.286],[-115.433,44.402],[-115.479,44.432]]]}},{"type":"Feature","properties":{"density":1},"geometry":{"type":"Polygon","coordinates":[[[-115.04,46.384],[-115.116,46.399],[-115.172,46.389],[-115.253,46.333],[-115.37,46.287],[-115.911,46.328],[-115.987,46.293],[-116.043,46.227],[-116.053,46.171],[-116.033,46.105],[-115.992,46.05],[-115.937,46.004],[-115.825,45.958],[-115.769,45.898],[-115.724,45.786],[-115.678,45.741],[-115.607,45.715],[-115.44,45.715],[-115.167,45.847],[-114.939,45.923],[-114.894,45.969],[-114.803,46.014],[-114.676,46.039],[-114.62,46.09],[-114.615,46.171],[-114.671,46.232],[-114.792,46.293],[-115.04,46.384]]]}},{"type":"Feature","properties":{"density":1},"geometry":{"type":"Polygon","coordinates":[[[-121.533,42.578],[-121.585,42.547],[-121.659,42.466],[-121.686,42.416],[-121.68,42.398],[-121.639,42.41],[-121.491,42.52],[-121.459,42.558],[-121.455,42.587],[-121.533,42.578]]]}},{"type":"Feature","properties":{"density":1},"geometry":{"type":"Polygon","coordinates":[[[-119.675,41.405],[-119.72,41.427],[-119.811,41.439],[-120.108,41.45],[-120.21,41.416],[-120.381,41.325],[-120.506,41.222],[-120.552,41.131],[-120.597,41.029],[-120.643,40.801],[-120.666,40.414],[-120.7,40.254],[-120.962,39.559],[-121.224,38.728],[-121.315,38.136],[-121.315,37.657],[-121.74,36.907],[-121.833,36.815],[-121.892,36.73],[-122.021,36.379],[-122.027,36.273],[-122.089,36.132],[-122.179,35.457],[-122.19,35.215],[-122.19,34.928],[-122.145,34.09],[-121.892,33.556],[-121.746,33.319],[-121.613,33.18],[-121.538,33.142],[-121.348,33.092],[-121.082,33.066],[-120.867,33.104],[-120.411,33.256],[-120.247,33.383],[-120.107,33.509],[-119.981,33.661],[-119.55,34.496],[-119.538,34.838],[-119.601,35.041],[-120.006,35.661],[-120.095,35.775],[-120.234,35.901],[-120.803,36.294],[-120.854,36.37],[-120.905,36.521],[-120.905,36.686],[-120.778,37.04],[-120.538,37.547],[-120.297,38.268],[-120.259,38.496],[-120.247,38.951],[-120.323,39.205],[-120.424,39.799],[-120.398,39.901],[-120.221,40.103],[-119.968,40.293],[-119.69,40.382],[-119.563,40.445],[-119.411,40.597],[-119.361,40.736],[-119.335,40.863],[-119.335,41.09],[-119.411,41.204],[-119.55,41.343],[-119.675,41.405]]]}},{"type":"Feature","properties":{"density":1},"geometry":{"type":"Polygon","coordinates":[[[-92.972,15.981],[-93.047,16.013],[-93.087,16.001],[-93.17,15.836],[-93.247,15.776],[-93.26,15.741],[-93.177,15.756],[-92.957,15.901],[-92.932,15.958],[-92.972,15.981]]]}},{"type":"Feature","properties":{"density":1},"geometry":{"type":"Polygon","coordinates":[[[-102.949,55.993],[-103.051,55.958],[-103.149,55.866],[-103.254,55.656],[-103.266,55.553],[-103.244,55.513],[-103.179,55.498],[-103.121,55.536],[-103.059,55.611],[-102.964,55.806],[-102.871,55.946],[-102.921,55.991],[-102.949,55.993]]]}},{"type":"Feature","properties":{"density":1},"geometry":{"type":"Polygon","coordinates":[[[-125.997,53.786],[-126.183,53.791],[-126.278,53.763],[-126.357,53.707],[-126.425,53.628],[-126.503,53.426],[-126.526,53.24],[-126.475,52.965],[-126.492,52.74],[-126.458,52.61],[-126.363,52.543],[-126.239,52.537],[-126.166,52.571],[-126.098,52.633],[-125.913,52.908],[-125.75,53.043],[-125.665,53.184],[-125.598,53.341],[-125.48,53.471],[-125.446,53.533],[-125.446,53.606],[-125.497,53.645],[-125.997,53.786]]]}},{"type":"Feature","properties":{"density":1},"geometry":{"type":"Polygon","coordinates":[[[-125.367,52.498],[-125.57,52.627],[-125.66,52.711],[-125.733,52.807],[-125.806,53.01],[-125.806,53.116],[-125.783,53.212],[-125.682,53.386],[-125.457,53.64],[-125.362,53.69],[-125.266,53.685],[-125.092,53.533],[-125.103,53.426],[-125.204,53.201],[-125.176,53.083],[-125.114,52.993],[-125.063,52.953],[-124.867,52.841],[-124.822,52.79],[-124.793,52.666],[-124.855,52.509],[-124.928,52.425],[-125.018,52.385],[-125.114,52.38],[-125.277,52.413],[-125.367,52.498]]]}},{"type":"Feature","properties":{"density":1},"geometry":{"type":"Polygon","coordinates":[[[-126.428,50.167],[-126.57,50.045],[-126.593,49.968],[-126.57,49.944],[-126.526,49.94],[-126.472,49.964],[-126.394,50.049],[-126.37,50.096],[-126.36,50.191],[-126.38,50.204],[-126.428,50.167]]]}},{"type":"Feature","properties":{"density":1},"geometry":{"type":"Polygon","coordinates":[[[-126.176,72.264],[-127.201,71.837],[-127.671,71.58],[-128.055,71.324],[-129.507,70.256],[-129.764,69.915],[-130.02,69.445],[-130.191,68.889],[-130.234,68.249],[-130.191,67.565],[-130.063,66.925],[-129.636,65.899],[-129.294,65.472],[-128.867,65.045],[-128.482,64.618],[-128.098,64.148],[-127.799,63.55],[-127.628,62.867],[-127.414,61.628],[-127.372,60.56],[-127.372,59.535],[-127.585,58.467],[-128.012,57.485],[-128.482,56.502],[-128.867,55.52],[-129.191,53.606],[-129.105,52.837],[-128.61,51.547],[-128.055,50.821],[-127.842,50.565],[-126.774,49.54],[-126.347,49.198],[-125.749,48.771],[-124.125,47.461],[-123.784,47.148],[-123.556,46.891],[-123.271,46.663],[-123.015,46.521],[-122.673,46.407],[-121.392,46.179],[-120.708,45.952],[-120.281,45.752],[-119.882,45.496],[-119.541,45.097],[-119.142,44.699],[-118.345,43.987],[-118.003,43.759],[-117.576,43.531],[-117.23,43.155],[-116.12,42.642],[-115.098,42.648],[-114.785,42.705],[-113.02,42.876],[-112.735,42.933],[-110.542,43.218],[-110.229,43.275],[-109.887,43.275],[-109.488,43.303],[-109.033,43.303],[-108.663,43.275],[-108.207,43.189],[-107.837,43.075],[-107.182,42.677],[-106.869,42.392],[-106.584,42.079],[-106.328,41.737],[-106.071,41.281],[-105.872,40.826],[-105.758,40.427],[-105.669,39.595],[-105.498,38.798],[-104.602,38.232],[-104.317,38.09],[-103.719,37.748],[-103.092,37.321],[-102.779,37.064],[-102.409,36.837],[-102.039,36.495],[-101.725,36.153],[-101.384,35.726],[-101.127,35.214],[-101.071,34.729],[-101.071,34.188],[-101.156,33.59],[-101.27,33.192],[-101.583,32.451],[-101.754,31.996],[-101.868,31.483],[-101.925,30.942],[-101.953,30.458],[-101.896,29.888],[-101.682,29.23],[-101.511,28.575],[-101.454,27.664],[-101.745,27.224],[-102.002,27.096],[-102.343,27.011],[-102.685,27.011],[-103.069,27.053],[-103.497,27.182],[-104.308,27.523],[-105.205,27.993],[-105.718,28.207],[-106.358,28.463],[-106.999,28.677],[-107.683,28.847],[-108.409,28.933],[-109.263,28.976],[-110.203,28.976],[-111.356,28.933],[-112.467,28.762],[-113.449,28.506],[-114.517,28.121],[-115.542,27.566],[-116.439,26.84],[-116.994,26.199],[-117.507,25.473],[-117.849,24.661],[-118.361,23.978],[-118.917,23.38],[-119.515,22.825],[-120.113,22.184],[-120.753,21.543],[-121.223,20.988],[-121.608,20.262],[-121.65,19.407],[-121.309,18.51],[-120.839,18.041],[-119.6,17.357],[-118.831,17.101],[-117.678,16.845],[-116.097,16.759],[-115.414,16.93],[-114.731,17.144],[-113.834,17.357],[-112.979,17.87],[-112.253,18.34],[-111.527,18.938],[-110.758,19.621],[-109.989,20.433],[-109.391,20.988],[-108.921,21.5],[-108.451,21.97],[-107.853,22.483],[-107.17,22.91],[-106.487,23.124],[-105.846,23.209],[-104.949,23.252],[-104.308,23.209],[-103.155,23.038],[-102.471,22.91],[-101.66,22.696],[-101.062,22.483],[-100.036,21.998],[-99.637,21.685],[-99.238,21.4],[-98.897,20.973],[-98.612,20.517],[-98.327,19.947],[-98.099,19.292],[-97.957,18.581],[-97.9,17.926],[-97.871,17.271],[-97.871,16.673],[-97.843,15.961],[-97.701,15.163],[-97.473,14.537],[-97.159,13.825],[-96.846,13.17],[-96.419,12.657],[-95.85,12.373],[-95.166,12.202],[-94.511,12.202],[-93.571,12.23],[-92.831,12.316],[-92.205,12.458],[-91.635,12.657],[-91.051,12.799],[-90.557,13.16],[-90.064,13.387],[-89.285,14.412],[-89.08,15.198],[-89.166,15.668],[-89.379,16.095],[-90.02,16.736],[-90.789,17.633],[-91.088,18.188],[-91.216,18.701],[-91.216,19.299],[-90.96,19.811],[-90.618,20.281],[-90.063,20.708],[-89.507,21.05],[-88.441,21.769],[-87.87,22.203],[-87.699,22.516],[-87.443,22.744],[-87.187,23.029],[-86.902,23.285],[-86.532,23.542],[-86.047,23.826],[-85.62,24.026],[-85.222,24.14],[-84.908,24.168],[-84.652,24.168],[-84.453,24.111],[-84.282,23.94],[-84.168,23.769],[-83.769,23.029],[-83.072,22.104],[-82.986,21.961],[-82.758,21.762],[-82.531,21.534],[-80.661,19.351],[-80.471,19.18],[-80.072,18.876],[-79.275,18.326],[-78.99,18.098],[-78.553,17.851],[-78.098,17.642],[-77.585,17.433],[-76.997,17.225],[-76.465,17.111],[-75.383,16.94],[-73.617,16.94],[-73.352,17.016],[-71.852,17.225],[-70.941,17.49],[-70.675,17.623],[-70.314,17.908],[-69.109,18.758],[-68.852,19.014],[-68.553,19.484],[-68.425,19.911],[-68.383,20.423],[-68.553,20.936],[-69.023,21.235],[-69.536,21.534],[-70.048,21.705],[-71.202,21.961],[-72.141,22.26],[-73.209,22.645],[-74.192,23.072],[-75.601,23.584],[-76.669,24.011],[-77.822,24.652],[-78.677,25.207],[-79.488,26.361],[-79.659,27.087],[-79.36,27.941],[-78.677,29.564],[-78.207,30.291],[-77.267,30.931],[-76.797,31.017],[-76.157,31.102],[-75.388,31.059],[-74.533,30.931],[-73.508,30.718],[-72.355,30.718],[-71.159,30.803],[-69.792,31.059],[-68.425,31.358],[-65.008,32.255],[-63.086,32.982],[-59.541,34.562],[-58.644,35.117],[-57.576,35.801],[-56.508,36.57],[-55.696,37.595],[-55.141,38.492],[-54.885,39.389],[-55.013,39.987],[-55.568,40.414],[-56.337,40.585],[-58.43,40.585],[-59.412,40.499],[-60.779,40.286],[-62.103,40.115],[-63.257,39.816],[-64.282,39.602],[-65.264,39.261],[-66.247,39.09],[-67.382,38.656],[-68.279,38.058],[-69.023,37.616],[-70.048,36.89],[-70.689,36.506],[-71.287,36.249],[-72.227,36.036],[-73.337,35.865],[-74.533,35.865],[-75.473,35.993],[-76.327,36.292],[-77.378,36.562],[-78.164,36.997],[-78.335,37.296],[-78.378,37.808],[-78.25,38.492],[-77.951,39.09],[-77.438,39.602],[-76.755,39.944],[-75.559,40.628],[-75.046,40.969],[-74.021,41.738],[-73.466,42.251],[-71.244,44.757],[-70.988,45.269],[-70.646,46.038],[-70.518,46.593],[-70.476,47.106],[-70.476,47.576],[-70.604,48.046],[-70.988,48.516],[-71.33,48.815],[-71.757,49.028],[-72.355,49.156],[-73.038,49.156],[-74.363,49.071],[-75.131,48.985],[-76.114,49.028],[-76.925,49.199],[-77.78,49.498],[-78.762,49.968],[-79.873,50.609],[-80.77,51.292],[-81.795,51.933],[-82.906,52.488],[-83.931,52.83],[-85.041,53.086],[-86.451,53.3],[-87.69,53.556],[-88.8,53.727],[-90.124,54.239],[-91.32,54.752],[-92.26,55.393],[-93.755,56.204],[-94.011,56.674],[-94.225,57.357],[-94.268,58.126],[-94.097,58.895],[-93.627,59.792],[-93.413,60.134],[-92.858,60.647],[-91.15,61.757],[-90.637,62.27],[-90.21,63.081],[-89.911,65.324],[-90.103,65.836],[-90.744,66.541],[-91.384,67.118],[-92.41,67.759],[-93.691,68.335],[-95.165,68.976],[-97.023,69.681],[-98.625,70.321],[-100.803,71.09],[-102.982,71.795],[-105.224,72.436],[-107.018,72.884],[-108.94,73.333],[-113.682,73.909],[-119.512,74.23],[-121.434,73.974],[-122.588,73.781],[-126.176,72.264]]]}},{"type":"Feature","properties":{"density":1},"geometry":{"type":"Polygon","coordinates":[[[-126.092,50.201],[-126.194,50.252],[-126.255,50.259],[-126.299,50.235],[-126.282,50.177],[-126.163,50.086],[-126.055,50.049],[-125.967,50.049],[-125.994,50.103],[-126.092,50.201]]]}},{"type":"Feature","properties":{"density":1},"geometry":{"type":"Polygon","coordinates":[[[-70.597,18.712],[-70.882,18.498],[-71.235,18.383],[-71.517,18.32],[-71.774,18.328],[-72.139,18.399],[-72.282,18.443],[-72.4,18.506],[-72.432,18.566],[-72.412,18.669],[-72.206,18.776],[-71.481,18.863],[-70.922,18.867],[-70.783,18.843],[-70.652,18.787],[-70.613,18.764],[-70.585,18.724],[-70.597,18.712]]]}},{"type":"Feature","properties":{"density":1},"geometry":{"type":"Polygon","coordinates":[[[-74.937,20.387],[-75.268,20.401],[-75.425,20.424],[-75.495,20.498],[-75.495,20.558],[-75.467,20.591],[-75.416,20.613],[-75.34,20.62],[-75.279,20.602],[-74.96,20.447],[-74.924,20.41],[-74.937,20.387]]]}},{"type":"Feature","properties":{"density":1},"geometry":{"type":"Polygon","coordinates":[[[-78.712,21.963],[-78.782,21.965],[-78.902,22.0],[-78.936,22.05],[-78.936,22.101],[-78.892,22.129],[-78.849,22.127],[-78.726,22.083],[-78.677,22.0],[-78.694,21.962],[-78.712,21.963]]]}},{"type":"Feature","properties":{"density":1},"geometry":{"type":"Polygon","coordinates":[[[-90.856,33.383],[-90.846,33.329],[-90.789,33.249],[-90.692,33.227],[-90.664,33.246],[-90.652,33.307],[-90.679,33.362],[-90.8,33.409],[-90.843,33.407],[-90.856,33.383]]]}},{"type":"Feature","properties":{"density":1},"geometry":{"type":"Polygon","coordinates":[[[-91.904,34.19],[-91.877,34.148],[-91.814,34.109],[-91.723,34.105],[-91.663,34.132],[-91.673,34.198],[-91.702,34.206],[-91.756,34.218],[-91.881,34.206],[-91.904,34.19]]]}},{"type":"Feature","properties":{"density":1},"geometry":{"type":"Polygon","coordinates":[[[-98.982,30.711],[-98.897,30.748],[-98.869,30.774],[-98.866,30.811],[-98.906,30.837],[-98.984,30.815],[-99.015,30.76],[-99.017,30.725],[-98.982,30.711]]]}},{"type":"Feature","properties":{"density":1},"geometry":{"type":"Polygon","coordinates":[[[-103.236,55.553],[-103.265,55.96],[-103.239,56.055],[-103.173,56.158],[-103.067,56.214],[-103.017,56.211],[-102.985,56.193],[-102.948,56.079],[-102.967,55.915],[-103.136,55.58],[-103.183,55.537],[-103.218,55.535],[-103.236,55.553]]]}},{"type":"Feature","properties":{"density":1},"geometry":{"type":"Polygon","coordinates":[[[-116.474,48.874],[-116.208,48.901],[-116.065,48.945],[-115.966,49.02],[-115.903,49.131],[-115.895,49.222],[-115.907,49.361],[-115.954,49.492],[-115.99,49.547],[-116.339,49.766],[-116.478,49.797],[-116.799,49.785],[-117.1,49.67],[-117.195,49.524],[-117.251,49.353],[-117.243,49.27],[-117.096,48.989],[-117.013,48.893],[-116.926,48.846],[-116.648,48.814],[-116.49,48.854],[-116.474,48.874]]]}},{"type":"Feature","properties":{"density":1},"geometry":{"type":"Polygon","coordinates":[[[-122.122,45.16],[-122.158,45.072],[-122.141,44.968],[-122.066,44.892],[-121.949,44.848],[-121.661,44.869],[-121.594,44.839],[-121.468,44.74],[-121.322,44.703],[-120.979,44.786],[-120.931,44.823],[-120.891,45.066],[-120.892,45.153],[-120.938,45.282],[-121.012,45.384],[-121.117,45.471],[-121.276,45.529],[-121.498,45.512],[-121.591,45.462],[-121.718,45.269],[-121.772,45.232],[-121.859,45.198],[-122.122,45.16]]]}},{"type":"Feature","properties":{"density":1},"geometry":{"type":"Polygon","coordinates":[[[-125.355,52.606],[-125.461,52.651],[-125.546,52.739],[-125.593,52.838],[-125.611,52.955],[-125.56,53.083],[-125.479,53.135],[-125.335,53.182],[-125.238,53.195],[-125.096,53.173],[-125.053,53.128],[-125.038,52.993],[-125.236,52.655],[-125.283,52.606],[-125.317,52.595],[-125.355,52.606]]]}},{"type":"Feature","properties":{"density":1},"geometry":{"type":"Polygon","coordinates":[[[-126.367,52.759],[-126.363,52.925],[-126.491,53.146],[-126.509,53.202],[-126.509,53.234],[-126.466,53.281],[-126.37,53.303],[-126.282,53.292],[-126.174,53.249],[-126.106,53.166],[-126.084,53.036],[-126.106,52.885],[-126.158,52.795],[-126.289,52.73],[-126.367,52.759]]]}},{"type":"Feature","properties":{"density":1},"geometry":{"type":"Polygon","coordinates":[[[-74.878,20.434],[-74.956,20.377],[-75.087,20.344],[-75.274,20.35],[-75.432,20.398],[-75.516,20.449],[-75.544,20.501],[-75.568,20.584],[-75.535,20.731],[-75.496,20.768],[-75.409,20.803],[-75.133,20.777],[-75.004,20.707],[-74.953,20.66],[-74.887,20.536],[-74.878,20.434]]]}},{"type":"Feature","properties":{"density":1},"geometry":{"type":"Polygon","coordinates":[[[-90.852,33.876],[-90.795,33.694],[-90.68,33.512],[-90.532,33.407],[-90.478,33.39],[-90.403,33.394],[-90.363,33.417],[-90.299,33.515],[-90.292,33.63],[-90.42,33.778],[-90.491,33.832],[-90.64,33.903],[-90.778,33.94],[-90.842,33.94],[-90.859,33.927],[-90.852,33.876]]]}},{"type":"Feature","properties":{"density":1},"geometry":{"type":"Polygon","coordinates":[[[-91.461,33.611],[-91.359,33.442],[-91.291,33.388],[-91.191,33.326],[-91.117,33.328],[-91.084,33.358],[-91.077,33.455],[-91.095,33.532],[-91.141,33.592],[-91.239,33.64],[-91.353,33.667],[-91.461,33.64],[-91.461,33.611]]]}},{"type":"Feature","properties":{"density":1},"geometry":{"type":"Polygon","coordinates":[[[-109.926,39.332],[-109.681,39.38],[-109.609,39.436],[-109.587,39.481],[-109.576,39.548],[-109.59,39.583],[-109.656,39.617],[-109.717,39.61],[-109.915,39.493],[-109.975,39.416],[-109.983,39.38],[-109.968,39.343],[-109.926,39.332]]]}},{"type":"Feature","properties":{"density":1},"geometry":{"type":"Polygon","coordinates":[[[-122.166,45.157],[-122.124,45.004],[-122.094,44.955],[-122.007,44.887],[-121.651,44.851],[-121.505,44.8],[-121.428,44.748],[-121.356,44.743],[-121.282,44.716],[-121.167,44.716],[-120.978,44.786],[-120.837,44.932],[-120.789,45.067],[-120.78,45.18],[-120.787,45.29],[-120.83,45.499],[-120.913,45.686],[-120.974,45.763],[-121.091,45.817],[-121.273,45.756],[-121.372,45.682],[-121.53,45.522],[-121.57,45.432],[-121.703,45.277],[-121.813,45.232],[-122.058,45.232],[-122.148,45.205],[-122.166,45.157]]]}},{"type":"Feature","properties":{"density":1},"geometry":{"type":"Polygon","coordinates":[[[-119.948,39.505],[-119.639,39.677],[-119.508,39.83],[-119.417,39.968],[-119.402,40.027],[-119.406,40.144],[-119.426,40.229],[-119.463,40.259],[-119.597,40.255],[-119.679,40.213],[-119.757,40.138],[-119.808,40.061],[-119.981,39.742],[-120.02,39.625],[-120.023,39.601],[-119.993,39.539],[-119.972,39.505],[-119.948,39.505]]]}},{"type":"Feature","properties":{"density":1},"geometry":{"type":"Polygon","coordinates":[[[-121.619,36.194],[-121.508,36.393],[-121.373,36.562],[-121.302,36.697],[-121.271,36.876],[-121.285,36.967],[-121.322,37.031],[-121.44,37.034],[-121.511,37.007],[-121.606,36.933],[-121.825,36.656],[-121.896,36.535],[-121.936,36.376],[-121.96,36.231],[-121.973,35.981],[-121.899,35.779],[-121.818,35.637],[-121.747,35.576],[-121.666,35.539],[-121.511,35.576],[-121.46,35.654],[-121.45,35.789],[-121.538,36.035],[-121.622,36.157],[-121.619,36.194]]]}},{"type":"Feature","properties":{"density":1},"geometry":{"type":"Polygon","coordinates":[[[-70.561,18.687],[-71.844,18.201],[-72.277,18.117],[-72.558,18.026],[-72.869,17.882],[-73.621,17.798],[-73.94,17.828],[-74.19,17.927],[-74.259,18.026],[-74.35,18.261],[-74.373,18.482],[-74.358,18.755],[-74.221,18.952],[-74.031,19.059],[-73.78,19.119],[-73.401,19.15],[-72.801,19.112],[-72.292,18.96],[-71.472,18.793],[-70.675,18.793],[-70.545,18.725],[-70.561,18.687]]]}},{"type":"Feature","properties":{"density":1},"geometry":{"type":"Polygon","coordinates":[[[-74.883,20.393],[-75.163,20.312],[-75.615,20.272],[-75.75,20.279],[-75.929,20.339],[-76.452,20.447],[-76.5,20.474],[-76.557,20.569],[-76.55,20.626],[-76.496,20.684],[-76.371,20.731],[-75.906,20.771],[-75.285,20.744],[-74.964,20.697],[-74.9,20.67],[-74.87,20.633],[-74.849,20.471],[-74.853,20.427],[-74.883,20.393]]]}},{"type":"Feature","properties":{"density":1},"geometry":{"type":"Polygon","coordinates":[[[-90.368,33.302],[-90.287,33.13],[-90.125,32.897],[-90.024,32.786],[-89.771,32.644],[-89.65,32.598],[-89.569,32.609],[-89.488,32.695],[-89.513,32.791],[-89.609,32.943],[-90.024,33.277],[-90.282,33.378],[-90.338,33.383],[-90.368,33.343],[-90.368,33.302]]]}},{"type":"Feature","properties":{"density":1},"geometry":{"type":"Polygon","coordinates":[[[-90.94,32.826],[-90.946,32.705],[-90.905,32.512],[-90.824,32.426],[-90.682,32.35],[-90.637,32.371],[-90.601,32.411],[-90.611,32.512],[-90.632,32.588],[-90.682,32.664],[-90.819,32.801],[-90.93,32.836],[-90.94,32.826]]]}},{"type":"Feature","properties":{"density":1},"geometry":{"type":"Polygon","coordinates":[[[-93.397,39.573],[-93.408,39.141],[-93.347,39.013],[-93.289,38.986],[-93.232,38.996],[-93.202,39.104],[-93.205,39.269],[-93.306,39.526],[-93.35,39.58],[-93.397,39.573]]]}},{"type":"Feature","properties":{"density":1},"geometry":{"type":"Polygon","coordinates":[[[-98.43,46.524],[-98.525,46.392],[-98.484,46.244],[-98.41,46.183],[-98.353,46.149],[-97.934,46.004],[-97.826,45.99],[-97.779,46.004],[-97.755,46.055],[-97.782,46.125],[-97.853,46.206],[-97.975,46.294],[-98.349,46.497],[-98.43,46.524]]]}},{"type":"Feature","properties":{"density":1},"geometry":{"type":"Polygon","coordinates":[[[-98.299,46.723],[-98.282,46.598],[-98.187,46.49],[-98.09,46.463],[-97.992,46.493],[-97.975,46.527],[-98.005,46.638],[-98.086,46.713],[-98.174,46.76],[-98.225,46.767],[-98.289,46.746],[-98.299,46.723]]]}},{"type":"Feature","properties":{"density":1},"geometry":{"type":"Polygon","coordinates":[[[-115.911,43.091],[-116.052,43.081],[-116.403,43.105],[-116.515,43.179],[-116.532,43.287],[-116.518,43.388],[-116.484,43.439],[-116.339,43.523],[-116.201,43.57],[-115.877,43.564],[-115.745,43.537],[-115.634,43.452],[-115.607,43.398],[-115.627,43.246],[-115.715,43.138],[-115.911,43.091]]]}},{"type":"Feature","properties":{"density":1},"geometry":{"type":"Polygon","coordinates":[[[-120.06,39.517],[-120.076,39.737],[-120.007,39.988],[-119.893,40.193],[-119.673,40.489],[-119.445,40.725],[-119.119,41.142],[-118.671,41.666],[-118.359,42.13],[-118.185,42.304],[-117.934,42.418],[-117.76,42.441],[-117.608,42.38],[-117.471,42.16],[-117.494,41.955],[-117.722,41.499],[-118.078,41.074],[-118.542,40.641],[-119.309,39.859],[-119.643,39.563],[-119.931,39.457],[-120.007,39.472],[-120.06,39.517]]]}},{"type":"Feature","properties":{"density":1},"geometry":{"type":"Polygon","coordinates":[[[-121.417,36.149],[-121.455,35.739],[-121.524,35.679],[-121.744,35.671],[-121.964,35.785],[-122.055,36.02],[-122.055,36.286],[-121.979,36.689],[-121.676,37.167],[-121.478,37.41],[-121.273,37.547],[-120.931,37.835],[-120.84,37.873],[-120.65,37.843],[-120.567,37.767],[-120.567,37.547],[-120.628,37.319],[-120.757,36.985],[-120.992,36.628],[-121.053,36.506],[-121.265,36.324],[-121.417,36.149]]]}},{"type":"Feature","properties":{"density":1},"geometry":{"type":"Polygon","coordinates":[[[-122.709,44.769],[-122.544,44.907],[-122.466,44.998],[-122.422,45.16],[-122.442,45.245],[-122.476,45.262],[-122.598,45.238],[-122.665,45.187],[-122.739,45.093],[-122.797,44.944],[-122.814,44.786],[-122.787,44.745],[-122.739,44.749],[-122.709,44.769]]]}},{"type":"Feature","properties":{"density":1},"geometry":{"type":"Polygon","coordinates":[[[-122.054,44.988],[-122.085,45.032],[-122.085,45.09],[-122.061,45.144],[-121.99,45.228],[-121.72,45.397],[-121.592,45.444],[-121.369,45.488],[-121.261,45.555],[-120.775,45.603],[-120.6,45.586],[-120.468,45.552],[-120.33,45.505],[-120.137,45.407],[-120.06,45.336],[-120.016,45.09],[-120.046,44.978],[-120.161,44.83],[-120.249,44.755],[-120.451,44.698],[-120.886,44.772],[-121.055,44.857],[-121.163,44.887],[-121.437,44.904],[-121.72,44.897],[-121.919,44.917],[-122.054,44.988]]]}},{"type":"Feature","properties":{"density":1},"geometry":{"type":"Polygon","coordinates":[[[-120.066,46.092],[-119.864,46.095],[-119.641,46.126],[-119.462,46.176],[-119.364,46.227],[-119.307,46.294],[-119.273,46.514],[-119.28,46.602],[-119.358,46.831],[-119.439,46.926],[-119.557,46.993],[-119.698,47.04],[-119.867,47.057],[-119.958,47.047],[-120.08,46.98],[-120.286,46.598],[-120.316,46.399],[-120.306,46.301],[-120.269,46.207],[-120.174,46.092],[-120.066,46.092]]]}},{"type":"Feature","properties":{"density":1},"geometry":{"type":"Polygon","coordinates":[[[-124.435,47.752],[-125.434,49.098],[-126.434,50.52],[-127.011,51.789],[-127.241,53.019],[-127.203,54.249],[-126.972,56.133],[-126.972,56.786],[-126.28,59.439],[-125.55,61.515],[-124.396,63.091],[-122.666,64.667],[-119.706,66.512],[-116.054,67.473],[-112.633,67.397],[-109.327,67.243],[-106.866,67.243],[-100.331,66.205],[-95.525,65.052],[-87.621,62.956],[-78.192,60.707],[-74.559,59.237],[-71.791,57.334],[-70.581,55.777],[-70.062,53.788],[-70.84,50.155],[-71.705,47.473],[-72.829,45.311],[-73.694,42.716],[-70.754,40.294],[-68.591,40.034],[-64.266,40.64],[-59.855,41.418],[-54.924,42.197],[-51.032,43.062],[-48.178,42.543],[-45.756,41.332],[-45.323,39.861],[-45.669,38.564],[-48.005,36.921],[-52.07,35.191],[-54.319,34.326],[-58.125,32.509],[-62.277,30.779],[-64.353,29.482],[-67.899,26.887],[-71.791,22.475],[-73.435,20.227],[-74.905,19.362],[-78.106,18.497],[-81.047,18.929],[-83.209,21.178],[-83.209,22.908],[-82.344,24.032],[-80.787,25.416],[-79.144,26.627],[-77.241,28.617],[-76.462,30.866],[-76.03,33.807],[-77.241,36.661],[-80.182,39.343],[-82.431,40.207],[-85.718,41.072],[-88.14,41.937],[-91.426,43.84],[-92.551,44.792],[-93.848,46.695],[-95.578,48.425],[-97.654,49.203],[-101.46,49.809],[-104.574,49.982],[-108.034,49.636],[-111.061,48.425],[-113.483,46.868],[-116.251,46.003],[-119.538,45.743],[-121.701,46.089],[-122.479,46.435],[-124.435,47.752]]]}},{"type":"Feature","properties":{"density":1},"geometry":{"type":"Polygon","coordinates":[[[-94.973,34.066],[-96.616,30.606],[-96.962,28.876],[-96.962,26.973],[-97.049,24.811],[-97.049,23.081],[-98.865,21.178],[-100.768,20.4],[-103.882,20.14],[-105.093,21.005],[-106.477,21.697],[-109.331,22.562],[-112.272,22.648],[-114.089,21.265],[-114.781,20.227],[-114.694,18.151],[-113.916,16.075],[-111.926,15.21],[-108.553,14.431],[-101.893,13.739],[-98.173,13.999],[-95.232,13.999],[-92.81,15.037],[-91.08,16.594],[-89.437,17.891],[-89.35,19.535],[-89.523,21.265],[-89.696,23.6],[-88.918,25.416],[-88.053,26.627],[-86.064,27.925],[-85.718,28.876],[-85.026,30.606],[-84.853,33.374],[-86.237,35.45],[-87.534,36.575],[-89.004,36.834],[-91.34,36.488],[-93.848,35.277],[-94.973,34.066]]]}},{"type":"Feature","properties":{"density":2},"geometry":{"type":"Polygon","coordinates":[[[-70.694,18.736],[-70.856,18.709],[-70.921,18.666],[-71.011,18.641],[-71.03,18.615],[-70.96,18.608],[-70.866,18.639],[-70.631,18.658],[-70.604,18.685],[-70.609,18.726],[-70.694,18.736]]]}},{"type":"Feature","properties":{"density":2},"geometry":{"type":"Polygon","coordinates":[[[-115.504,44.144],[-115.56,44.164],[-115.6,44.149],[-115.61,44.103],[-115.575,43.951],[-115.585,43.84],[-115.539,43.82],[-115.499,43.865],[-115.479,43.926],[-115.474,44.037],[-115.504,44.144]]]}},{"type":"Feature","properties":{"density":2},"geometry":{"type":"Polygon","coordinates":[[[-115.045,46.302],[-115.072,46.319],[-115.126,46.312],[-115.193,46.221],[-115.301,46.177],[-115.44,46.18],[-115.774,46.282],[-115.838,46.265],[-115.855,46.217],[-115.848,46.184],[-115.797,46.123],[-115.672,46.045],[-115.507,46.001],[-115.183,45.981],[-115.072,46.022],[-115.011,46.109],[-114.997,46.201],[-115.045,46.302]]]}},{"type":"Feature","properties":{"density":2},"geometry":{"type":"Polygon","coordinates":[[[-115.138,46.894],[-115.199,46.891],[-115.246,46.851],[-115.26,46.783],[-115.229,46.729],[-115.162,46.722],[-115.098,46.759],[-115.067,46.8],[-115.078,46.851],[-115.138,46.894]]]}},{"type":"Feature","properties":{"density":2},"geometry":{"type":"Polygon","coordinates":[[[-116.461,49.14],[-116.539,49.137],[-116.633,49.049],[-116.731,49.012],[-116.775,48.958],[-116.775,48.937],[-116.748,48.917],[-116.66,48.914],[-116.569,48.819],[-116.522,48.826],[-116.482,48.856],[-116.401,48.978],[-116.401,49.059],[-116.461,49.14]]]}},{"type":"Feature","properties":{"density":2},"geometry":{"type":"Polygon","coordinates":[[[-120.508,49.425],[-120.589,49.445],[-120.629,49.425],[-120.69,49.361],[-120.724,49.287],[-120.714,49.108],[-120.751,48.872],[-120.683,48.807],[-120.565,48.794],[-120.498,48.838],[-120.427,49.017],[-120.373,49.101],[-120.37,49.169],[-120.397,49.246],[-120.508,49.425]]]}},{"type":"Feature","properties":{"density":2},"geometry":{"type":"Polygon","coordinates":[[[-121.09,49.604],[-121.168,49.594],[-121.259,49.547],[-121.472,49.486],[-121.546,49.401],[-121.576,49.293],[-121.573,49.223],[-121.526,49.054],[-121.407,48.919],[-121.303,48.74],[-121.178,48.676],[-121.07,48.659],[-120.908,48.703],[-120.813,48.78],[-120.756,48.875],[-120.699,49.04],[-120.641,49.128],[-120.52,49.25],[-120.381,49.361],[-120.341,49.469],[-120.398,49.54],[-120.5,49.577],[-120.618,49.594],[-121.09,49.604]]]}},{"type":"Feature","properties":{"density":2},"geometry":{"type":"Polygon","coordinates":[[[-120.159,49.212],[-120.209,49.218],[-120.386,49.162],[-120.786,48.909],[-120.918,48.782],[-120.994,48.585],[-121.034,48.362],[-121.004,48.205],[-120.883,48.018],[-120.751,47.871],[-120.67,47.81],[-120.569,47.77],[-120.432,47.754],[-120.326,47.82],[-120.295,47.856],[-120.24,47.962],[-120.23,48.023],[-120.26,48.327],[-120.219,48.478],[-120.184,48.534],[-119.936,48.732],[-119.906,48.792],[-119.895,48.873],[-119.966,49.05],[-120.017,49.126],[-120.083,49.182],[-120.159,49.212]]]}},{"type":"Feature","properties":{"density":2},"geometry":{"type":"Polygon","coordinates":[[[-117.929,46.052],[-117.956,46.067],[-118.071,46.067],[-118.442,45.884],[-118.827,45.783],[-118.912,45.736],[-118.945,45.682],[-118.945,45.641],[-118.908,45.594],[-118.719,45.608],[-118.257,45.787],[-118.031,45.841],[-117.943,45.881],[-117.899,45.922],[-117.88,45.966],[-117.886,46.003],[-117.929,46.052]]]}},{"type":"Feature","properties":{"density":2},"geometry":{"type":"Polygon","coordinates":[[[-118.125,45.793],[-118.237,45.797],[-118.378,45.753],[-118.733,45.56],[-118.777,45.51],[-118.739,45.5],[-118.642,45.517],[-118.419,45.645],[-118.108,45.719],[-118.085,45.76],[-118.125,45.793]]]}},{"type":"Feature","properties":{"density":2},"geometry":{"type":"Polygon","coordinates":[[[-121.362,36.368],[-121.441,36.351],[-121.728,36.368],[-121.891,36.34],[-121.941,36.273],[-121.947,36.154],[-121.829,35.834],[-121.66,35.558],[-121.525,35.283],[-121.458,34.99],[-121.413,34.934],[-121.351,34.923],[-121.238,34.968],[-121.126,35.125],[-121.081,35.367],[-121.03,35.508],[-121.024,35.586],[-121.03,35.665],[-121.12,35.806],[-121.278,35.901],[-121.452,35.963],[-121.519,36.008],[-121.542,36.053],[-121.519,36.126],[-121.334,36.183],[-121.278,36.211],[-121.233,36.267],[-121.216,36.306],[-121.227,36.402],[-121.255,36.419],[-121.328,36.413],[-121.362,36.368]]]}},{"type":"Feature","properties":{"density":2},"geometry":{"type":"Polygon","coordinates":[[[-103.076,55.833],[-103.156,55.776],[-103.186,55.728],[-103.231,55.596],[-103.209,55.556],[-103.191,55.553],[-103.154,55.593],[-103.109,55.693],[-103.036,55.798],[-103.039,55.828],[-103.076,55.833]]]}},{"type":"Feature","properties":{"density":2},"geometry":{"type":"Polygon","coordinates":[[[-126.207,53.25],[-126.286,53.276],[-126.327,53.276],[-126.357,53.25],[-126.365,53.205],[-126.327,53.122],[-126.316,53.047],[-126.368,52.781],[-126.357,52.74],[-126.327,52.721],[-126.286,52.717],[-126.207,52.762],[-126.11,52.942],[-126.05,53.025],[-125.967,53.103],[-125.945,53.148],[-125.952,53.19],[-125.982,53.201],[-126.042,53.186],[-126.128,53.193],[-126.207,53.25]]]}},{"type":"Feature","properties":{"density":2},"geometry":{"type":"Polygon","coordinates":[[[-125.371,53.133],[-125.476,53.175],[-125.558,53.175],[-125.622,53.156],[-125.663,53.118],[-125.682,53.07],[-125.686,52.946],[-125.648,52.822],[-125.577,52.706],[-125.465,52.612],[-125.33,52.541],[-125.273,52.56],[-125.24,52.605],[-125.232,52.657],[-125.243,52.706],[-125.375,52.833],[-125.378,52.908],[-125.322,53.017],[-125.326,53.062],[-125.371,53.133]]]}},{"type":"Feature","properties":{"density":2},"geometry":{"type":"Polygon","coordinates":[[[-124.579,68.388],[-125.263,68.345],[-125.861,68.217],[-126.758,67.875],[-127.185,67.576],[-127.441,67.064],[-127.569,66.466],[-127.569,65.996],[-127.356,65.483],[-127.057,64.928],[-126.587,64.415],[-126.202,64.116],[-125.903,63.817],[-125.604,63.604],[-125.391,63.347],[-124.964,62.365],[-124.878,61.938],[-124.793,60.827],[-124.921,60.229],[-125.391,59.033],[-125.775,57.88],[-126.032,56.855],[-126.032,56.385],[-125.946,56.043],[-125.903,55.616],[-125.903,55.274],[-125.946,54.847],[-126.074,54.292],[-126.117,53.779],[-126.074,53.438],[-125.903,53.096],[-125.647,52.754],[-125.092,52.37],[-124.835,52.071],[-124.665,51.686],[-124.622,51.259],[-124.622,50.319],[-124.28,49.508],[-124.067,49.123],[-122.958,47.777],[-122.629,47.671],[-122.258,47.671],[-122.002,47.728],[-121.66,47.757],[-121.433,47.757],[-120.336,47.657],[-120.137,47.771],[-119.909,47.942],[-119.738,48.169],[-119.624,48.426],[-119.624,49.593],[-119.567,49.963],[-119.539,50.419],[-119.453,50.932],[-119.283,51.245],[-119.083,51.501],[-118.827,51.729],[-118.599,51.843],[-118.257,51.985],[-117.602,52.156],[-115.751,52.156],[-115.381,52.071],[-114.954,51.9],[-114.47,51.615],[-113.901,51.245],[-112.747,50.191],[-112.149,49.166],[-111.936,48.739],[-111.722,48.226],[-111.081,47.159],[-110.611,46.731],[-110.184,46.432],[-109.586,46.048],[-109.074,45.877],[-108.647,45.706],[-108.177,45.621],[-107.664,45.493],[-106.554,45.108],[-105.913,44.809],[-105.059,44.468],[-104.162,44.083],[-102.154,43.015],[-101.257,42.588],[-100.317,42.204],[-99.634,41.862],[-99.078,41.435],[-98.566,41.136],[-97.968,40.965],[-97.455,40.879],[-95.234,39.982],[-94.764,39.683],[-94.337,39.384],[-93.91,38.957],[-93.269,38.231],[-92.885,37.761],[-92.5,37.334],[-92.031,36.95],[-91.561,36.608],[-90.963,36.352],[-90.365,36.138],[-89.767,36.01],[-88.741,35.839],[-88.186,35.839],[-87.631,35.882],[-87.118,35.967],[-86.648,36.095],[-86.478,36.352],[-86.349,36.736],[-86.264,37.719],[-86.264,38.188],[-86.648,38.829],[-87.076,39.384],[-87.545,39.683],[-88.186,39.897],[-89.638,40.239],[-90.279,40.495],[-90.792,40.751],[-91.176,41.093],[-91.262,41.477],[-91.262,41.819],[-91.304,42.246],[-91.774,42.673],[-92.415,43.015],[-93.227,43.314],[-97.626,44.425],[-98.267,44.596],[-99.036,44.852],[-99.719,45.194],[-100.232,45.535],[-100.702,45.963],[-100.915,46.432],[-100.915,46.817],[-100.659,47.372],[-100.488,47.5],[-100.146,47.543],[-99.805,47.5],[-99.292,47.372],[-98.609,47.287],[-98.224,47.329],[-97.37,47.329],[-96.857,47.244],[-95.875,46.817],[-95.277,46.518],[-94.722,46.304],[-94.209,46.176],[-93.227,46.091],[-92.842,46.133],[-92.5,46.262],[-92.244,46.518],[-91.817,47.201],[-91.518,47.543],[-91.176,47.885],[-90.792,48.184],[-90.151,48.525],[-89.767,48.782],[-89.254,49.038],[-88.827,49.294],[-88.357,49.679],[-88.101,50.063],[-88.015,50.405],[-88.058,50.789],[-88.485,51.131],[-88.87,51.259],[-89.382,51.345],[-90.792,51.43],[-91.774,51.131],[-92.415,50.875],[-93.056,50.661],[-93.611,50.576],[-94.294,50.533],[-94.935,50.576],[-95.49,50.704],[-96.046,50.917],[-96.644,51.046],[-98.267,51.216],[-98.908,51.43],[-99.506,51.772],[-101.769,52.946],[-102.154,53.203],[-102.368,53.459],[-102.581,53.801],[-102.752,54.228],[-102.752,54.655],[-102.538,55.039],[-102.368,55.467],[-102.154,55.936],[-101.898,56.919],[-101.855,57.346],[-102.111,59.823],[-102.239,60.122],[-102.581,60.763],[-102.88,61.233],[-103.393,61.874],[-104.076,62.472],[-104.717,62.984],[-105.315,63.497],[-105.913,63.967],[-107.621,65.248],[-108.262,65.675],[-109.159,66.145],[-110.27,66.658],[-111.423,67.085],[-114.029,67.768],[-115.353,68.025],[-116.592,68.153],[-118.77,68.409],[-119.966,68.452],[-121.077,68.452],[-123.041,68.495],[-124.579,68.388]]]}},{"type":"Feature","properties":{"density":2},"geometry":{"type":"Polygon","coordinates":[[[-126.126,50.184],[-126.207,50.215],[-126.235,50.215],[-126.245,50.198],[-126.167,50.12],[-126.062,50.096],[-126.065,50.123],[-126.126,50.184]]]}},{"type":"Feature","properties":{"density":2},"geometry":{"type":"Polygon","coordinates":[[[-126.438,50.113],[-126.546,50.005],[-126.563,49.947],[-126.536,49.947],[-126.461,50.005],[-126.414,50.083],[-126.411,50.12],[-126.438,50.113]]]}},{"type":"Feature","properties":{"density":2},"geometry":{"type":"Polygon","coordinates":[[[-116.525,48.915],[-116.393,49.094],[-116.39,49.118],[-116.417,49.139],[-116.47,49.144],[-116.591,49.078],[-116.766,48.946],[-116.803,48.891],[-116.797,48.867],[-116.734,48.856],[-116.538,48.88],[-116.525,48.915]]]}},{"type":"Feature","properties":{"density":2},"geometry":{"type":"Polygon","coordinates":[[[-122.109,45.151],[-122.116,45.064],[-122.098,45.035],[-121.97,44.978],[-121.931,44.925],[-121.894,44.912],[-121.819,44.929],[-121.715,44.989],[-121.69,45.028],[-121.709,45.084],[-121.754,45.104],[-121.981,45.1],[-122.043,45.123],[-122.082,45.162],[-122.109,45.151]]]}},{"type":"Feature","properties":{"density":2},"geometry":{"type":"Polygon","coordinates":[[[-121.991,45.004],[-121.918,44.982],[-121.878,44.924],[-121.819,44.917],[-121.775,44.932],[-121.693,45.029],[-121.7,45.122],[-121.776,45.138],[-121.862,45.111],[-122.0,45.042],[-122.016,45.01],[-121.991,45.004]]]}},{"type":"Feature","properties":{"density":2},"geometry":{"type":"Polygon","coordinates":[[[-121.635,36.244],[-121.63,36.328],[-121.576,36.544],[-121.583,36.564],[-121.617,36.575],[-121.646,36.553],[-121.711,36.391],[-121.826,36.28],[-121.889,36.168],[-121.862,36.013],[-121.821,35.999],[-121.79,36.04],[-121.77,36.148],[-121.749,36.179],[-121.635,36.244]]]}},{"type":"Feature","properties":{"density":2},"geometry":{"type":"Polygon","coordinates":[[[-74.961,20.393],[-75.224,20.366],[-75.555,20.356],[-75.582,20.366],[-75.615,20.437],[-75.602,20.498],[-75.558,20.545],[-75.413,20.592],[-75.285,20.596],[-75.15,20.562],[-74.893,20.457],[-74.903,20.414],[-74.961,20.393]]]}},{"type":"Feature","properties":{"density":2},"geometry":{"type":"Polygon","coordinates":[[[-115.897,43.111],[-115.961,43.111],[-116.035,43.155],[-116.093,43.209],[-116.116,43.267],[-116.076,43.294],[-115.772,43.314],[-115.735,43.28],[-115.738,43.24],[-115.813,43.148],[-115.897,43.111]]]}},{"type":"Feature","properties":{"density":2},"geometry":{"type":"Polygon","coordinates":[[[-120.003,39.563],[-119.992,39.709],[-119.958,39.829],[-119.866,39.977],[-119.661,40.13],[-119.454,40.443],[-119.116,40.792],[-119.013,40.832],[-118.896,40.85],[-118.885,40.812],[-118.93,40.69],[-119.044,40.528],[-119.11,40.452],[-119.184,40.407],[-119.65,39.878],[-119.706,39.799],[-119.78,39.617],[-119.821,39.556],[-119.884,39.518],[-119.94,39.514],[-120.001,39.541],[-120.003,39.563]]]}},{"type":"Feature","properties":{"density":2},"geometry":{"type":"Polygon","coordinates":[[[-121.758,36.253],[-121.707,36.511],[-121.636,36.668],[-121.393,36.987],[-121.246,37.22],[-121.155,37.286],[-121.13,37.291],[-121.069,37.261],[-121.059,37.195],[-121.1,37.083],[-121.165,37.028],[-121.282,36.856],[-121.434,36.694],[-121.525,36.532],[-121.56,36.441],[-121.555,36.309],[-121.587,36.219],[-121.67,36.206],[-121.758,36.253]]]}},{"type":"Feature","properties":{"density":2},"geometry":{"type":"Polygon","coordinates":[[[-121.899,45.002],[-121.713,45.066],[-121.383,45.13],[-121.302,45.164],[-121.261,45.228],[-121.315,45.319],[-121.406,45.329],[-121.639,45.316],[-121.676,45.282],[-121.936,45.157],[-122.01,45.063],[-122.017,45.022],[-121.909,44.982],[-121.899,45.002]]]}},{"type":"Feature","properties":{"density":2},"geometry":{"type":"Polygon","coordinates":[[[-120.049,46.116],[-119.827,46.18],[-119.698,46.251],[-119.668,46.298],[-119.685,46.362],[-119.732,46.426],[-119.864,46.51],[-119.989,46.514],[-120.076,46.467],[-120.164,46.305],[-120.181,46.186],[-120.178,46.159],[-120.137,46.132],[-120.06,46.105],[-120.049,46.116]]]}},{"type":"Feature","properties":{"density":2},"geometry":{"type":"Polygon","coordinates":[[[-120.872,49.706],[-120.462,50.407],[-119.762,51.381],[-118.959,52.218],[-117.712,52.713],[-117.045,52.867],[-116.02,52.901],[-113.679,52.389],[-112.586,52.235],[-111.834,52.098],[-110.809,52.081],[-110.228,52.337],[-109.613,52.662],[-109.357,53.192],[-108.964,53.824],[-108.861,54.354],[-108.878,55.105],[-109.169,55.908],[-109.527,56.677],[-109.972,57.173],[-111.646,57.907],[-113.594,58.027],[-114.585,58.13],[-115.764,58.027],[-117.233,57.6],[-117.934,57.275],[-119.044,56.421],[-120.104,55.703],[-122.0,54.063],[-123.128,53.482],[-123.931,53.414],[-124.717,53.311],[-126.169,53.089],[-126.46,52.918],[-126.528,52.765],[-126.528,52.645],[-126.084,52.457],[-125.588,52.372],[-125.161,52.218],[-124.563,51.962],[-124.067,51.671],[-123.777,51.022],[-123.845,50.321],[-123.828,49.945],[-123.589,49.484],[-122.547,49.04],[-122.086,49.074],[-121.573,49.211],[-121.06,49.45],[-120.872,49.706]]]}},{"type":"Feature","properties":{"density":2},"geometry":{"type":"Polygon","coordinates":[[[-123.109,61.822],[-121.861,61.019],[-120.546,60.746],[-119.367,60.626],[-116.582,60.233],[-115.198,59.943],[-113.028,59.618],[-111.234,59.413],[-110.14,59.362],[-108.859,59.379],[-106.843,60.062],[-106.211,60.438],[-105.493,60.814],[-105.168,61.258],[-105.066,61.651],[-105.032,61.976],[-105.22,62.437],[-105.8,62.813],[-106.535,62.984],[-107.304,63.138],[-108.005,63.172],[-109.064,63.309],[-112.276,63.565],[-113.147,63.719],[-113.916,63.975],[-115.283,64.214],[-116.787,64.556],[-117.692,64.624],[-118.342,64.556],[-119.179,64.624],[-120.101,64.607],[-121.041,64.454],[-121.81,64.146],[-122.169,63.907],[-122.716,63.343],[-123.126,62.762],[-123.194,62.386],[-123.091,62.061],[-123.109,61.822]]]}},{"type":"Feature","properties":{"density":2},"geometry":{"type":"Polygon","coordinates":[[[-100.183,48.162],[-98.466,47.06],[-96.237,45.522],[-93.187,43.908],[-92.29,43.882],[-91.418,44.087],[-90.803,44.677],[-89.317,45.061],[-88.471,45.163],[-86.498,45.676],[-86.062,46.214],[-85.703,46.855],[-85.498,47.547],[-85.447,48.598],[-85.524,49.367],[-86.395,50.341],[-86.805,50.52],[-87.497,50.341],[-88.804,49.187],[-89.522,48.803],[-91.06,47.111],[-91.675,46.676],[-92.341,46.599],[-93.007,46.573],[-94.596,46.752],[-97.031,47.906],[-98.287,49.008],[-98.902,49.52],[-100.03,49.828],[-100.619,49.572],[-100.722,49.367],[-100.722,48.905],[-100.542,48.521],[-100.389,48.341],[-100.183,48.162]]]}},{"type":"Feature","properties":{"density":3},"geometry":{"type":"Polygon","coordinates":[[[-70.67,18.719],[-70.803,18.709],[-70.832,18.692],[-70.832,18.675],[-70.713,18.668],[-70.624,18.692],[-70.629,18.721],[-70.67,18.719]]]}},{"type":"Feature","properties":{"density":3},"geometry":{"type":"Polygon","coordinates":[[[-115.077,46.266],[-115.091,46.259],[-115.118,46.169],[-115.201,46.102],[-115.298,46.09],[-115.467,46.133],[-115.48,46.097],[-115.442,46.061],[-115.35,46.03],[-115.215,46.032],[-115.158,46.052],[-115.113,46.079],[-115.073,46.135],[-115.057,46.189],[-115.068,46.286],[-115.077,46.266]]]}},{"type":"Feature","properties":{"density":3},"geometry":{"type":"Polygon","coordinates":[[[-115.138,46.869],[-115.208,46.851],[-115.231,46.767],[-115.186,46.752],[-115.107,46.801],[-115.102,46.83],[-115.138,46.869]]]}},{"type":"Feature","properties":{"density":3},"geometry":{"type":"Polygon","coordinates":[[[-120.962,49.307],[-121.036,49.324],[-121.137,49.307],[-121.198,49.327],[-121.279,49.432],[-121.306,49.428],[-121.316,49.405],[-121.283,49.347],[-121.208,49.27],[-121.218,49.202],[-121.296,49.209],[-121.357,49.28],[-121.418,49.266],[-121.391,49.182],[-121.316,49.135],[-121.215,49.108],[-121.168,49.067],[-121.158,48.996],[-121.215,48.915],[-121.225,48.851],[-121.212,48.811],[-121.185,48.791],[-121.148,48.78],[-121.016,48.848],[-120.932,48.851],[-120.915,48.878],[-120.915,48.912],[-120.999,49.0],[-121.013,49.034],[-121.006,49.061],[-120.901,49.104],[-120.881,49.145],[-120.911,49.239],[-120.962,49.307]]]}},{"type":"Feature","properties":{"density":3},"geometry":{"type":"Polygon","coordinates":[[[-120.579,49.118],[-120.619,49.118],[-120.633,49.101],[-120.64,49.027],[-120.677,48.953],[-120.67,48.868],[-120.626,48.831],[-120.599,48.838],[-120.582,48.926],[-120.548,48.976],[-120.548,49.05],[-120.579,49.118]]]}},{"type":"Feature","properties":{"density":3},"geometry":{"type":"Polygon","coordinates":[[[-120.628,48.571],[-120.665,48.578],[-120.709,48.561],[-120.746,48.514],[-120.759,48.446],[-120.837,48.284],[-120.827,48.126],[-120.763,47.991],[-120.665,47.873],[-120.608,47.852],[-120.503,47.876],[-120.398,47.879],[-120.371,47.903],[-120.368,47.984],[-120.452,48.132],[-120.452,48.321],[-120.473,48.372],[-120.628,48.571]]]}},{"type":"Feature","properties":{"density":3},"geometry":{"type":"Polygon","coordinates":[[[-117.947,46.009],[-118.025,46.006],[-118.217,45.908],[-118.444,45.837],[-118.471,45.824],[-118.481,45.797],[-118.44,45.787],[-118.329,45.807],[-117.968,45.932],[-117.934,45.982],[-117.947,46.009]]]}},{"type":"Feature","properties":{"density":3},"geometry":{"type":"Polygon","coordinates":[[[-118.189,45.778],[-118.12,45.76],[-118.156,45.739],[-118.385,45.708],[-118.342,45.742],[-118.189,45.778]]]}},{"type":"Feature","properties":{"density":3},"geometry":{"type":"Polygon","coordinates":[[[-121.656,36.249],[-121.731,36.281],[-121.803,36.281],[-121.886,36.224],[-121.878,36.141],[-121.618,35.696],[-121.453,35.561],[-121.446,35.601],[-121.543,35.759],[-121.741,36.004],[-121.743,36.124],[-121.663,36.191],[-121.656,36.249]]]}},{"type":"Feature","properties":{"density":3},"geometry":{"type":"Polygon","coordinates":[[[-118.744,65.299],[-119.057,65.47],[-119.968,65.811],[-120.339,65.925],[-121.022,66.039],[-121.449,66.068],[-121.848,66.068],[-122.275,65.954],[-122.674,65.754],[-122.901,65.527],[-123.015,65.299],[-123.072,64.986],[-123.072,64.672],[-123.186,64.388],[-123.471,64.103],[-123.756,63.903],[-124.041,63.619],[-124.211,63.334],[-124.211,62.85],[-123.984,62.423],[-123.613,62.081],[-123.215,61.796],[-122.674,61.511],[-122.076,61.369],[-121.478,61.341],[-120.937,61.341],[-120.481,61.483],[-119.769,61.654],[-118.26,61.768],[-117.89,61.625],[-117.377,61.369],[-116.836,61.227],[-115.811,60.999],[-114.643,60.885],[-113.704,60.885],[-113.333,60.97],[-112.764,61.056],[-112.194,61.255],[-111.881,61.398],[-111.625,61.568],[-111.34,61.796],[-111.027,61.996],[-110.714,62.223],[-110.429,62.48],[-110.315,62.764],[-110.315,63.021],[-110.486,63.305],[-110.827,63.476],[-111.312,63.562],[-111.824,63.619],[-112.394,63.704],[-113.134,63.932],[-113.761,64.103],[-115.013,64.359],[-115.668,64.445],[-116.437,64.587],[-117.035,64.701],[-117.662,64.843],[-118.26,65.043],[-118.744,65.299]]]}},{"type":"Feature","properties":{"density":3},"geometry":{"type":"Polygon","coordinates":[[[-126.237,53.043],[-126.32,52.818],[-126.323,52.758],[-126.252,52.77],[-126.211,52.83],[-126.203,52.965],[-126.177,53.07],[-126.2,53.073],[-126.237,53.043]]]}},{"type":"Feature","properties":{"density":3},"geometry":{"type":"Polygon","coordinates":[[[-125.498,52.995],[-125.558,52.942],[-125.577,52.901],[-125.588,52.86],[-125.562,52.773],[-125.468,52.683],[-125.393,52.642],[-125.303,52.62],[-125.288,52.642],[-125.296,52.672],[-125.435,52.785],[-125.465,52.845],[-125.465,52.908],[-125.412,52.972],[-125.416,53.032],[-125.435,53.036],[-125.498,52.995]]]}},{"type":"Feature","properties":{"density":3},"geometry":{"type":"Polygon","coordinates":[[[-122.84,51.207],[-122.888,51.23],[-122.941,51.211],[-122.952,51.158],[-122.99,51.128],[-122.986,51.083],[-122.821,51.027],[-122.791,50.918],[-122.705,50.896],[-122.641,50.9],[-122.633,50.926],[-122.72,51.038],[-122.735,51.132],[-122.84,51.207]]]}},{"type":"Feature","properties":{"density":3},"geometry":{"type":"Polygon","coordinates":[[[-122.712,51.38],[-122.746,51.335],[-122.75,51.203],[-122.723,51.166],[-122.652,51.162],[-122.585,51.2],[-122.566,51.23],[-122.528,51.44],[-122.54,51.462],[-122.6,51.485],[-122.712,51.38]]]}},{"type":"Feature","properties":{"density":3},"geometry":{"type":"Polygon","coordinates":[[[-122.19,54.855],[-122.33,54.83],[-122.659,54.817],[-122.823,54.792],[-122.962,54.741],[-123.114,54.665],[-123.241,54.539],[-123.266,54.349],[-123.216,54.172],[-123.076,54.045],[-122.95,53.957],[-122.152,53.64],[-121.95,53.526],[-121.798,53.374],[-121.709,53.197],[-121.621,52.957],[-121.633,52.514],[-121.722,52.337],[-121.823,52.21],[-121.925,52.121],[-122.38,51.881],[-122.583,51.729],[-122.633,51.64],[-122.659,51.362],[-122.861,51.134],[-122.886,51.071],[-122.861,51.02],[-122.76,50.995],[-122.456,51.02],[-122.38,50.97],[-122.279,50.843],[-122.19,50.818],[-122.114,50.856],[-121.798,50.881],[-121.646,50.957],[-121.596,51.033],[-121.456,51.375],[-121.355,51.527],[-121.279,51.691],[-121.153,51.818],[-120.963,51.919],[-120.621,52.02],[-120.482,52.096],[-120.393,52.172],[-120.241,52.4],[-120.178,52.552],[-120.089,52.691],[-119.963,52.792],[-119.824,52.868],[-119.495,53.26],[-119.444,53.362],[-119.216,53.665],[-118.545,54.324],[-118.305,54.501],[-118.026,54.627],[-117.533,54.741],[-116.913,54.767],[-116.634,54.754],[-116.318,54.665],[-115.748,54.336],[-115.445,54.121],[-114.673,53.336],[-114.166,52.868],[-113.888,52.767],[-113.584,52.754],[-113.268,52.817],[-113.015,52.944],[-112.85,53.21],[-112.686,53.59],[-112.622,53.881],[-112.635,54.222],[-112.863,54.893],[-113.268,55.336],[-113.761,55.615],[-114.47,55.842],[-115.027,56.121],[-115.584,56.437],[-115.926,56.576],[-116.47,56.754],[-116.989,56.817],[-117.596,56.652],[-118.064,56.64],[-118.216,56.602],[-118.558,56.475],[-118.672,56.399],[-119.077,56.02],[-119.406,55.792],[-119.596,55.703],[-119.988,55.551],[-121.254,55.108],[-122.19,54.855]]]}},{"type":"Feature","properties":{"density":3},"geometry":{"type":"Polygon","coordinates":[[[-122.015,45.022],[-121.975,44.996],[-121.943,44.996],[-121.917,44.916],[-121.841,44.934],[-121.827,44.992],[-121.864,45.036],[-121.961,45.059],[-122.008,45.042],[-122.015,45.022]]]}},{"type":"Feature","properties":{"density":3},"geometry":{"type":"Polygon","coordinates":[[[-122.097,45.137],[-122.095,45.083],[-122.068,45.049],[-122.057,45.09],[-122.084,45.14],[-122.097,45.137]]]}},{"type":"Feature","properties":{"density":3},"geometry":{"type":"Polygon","coordinates":[[[-120.001,39.581],[-119.971,39.709],[-119.922,39.826],[-119.879,39.883],[-119.762,39.975],[-119.688,39.975],[-119.659,39.946],[-119.674,39.914],[-119.839,39.653],[-119.913,39.565],[-119.956,39.543],[-119.992,39.554],[-120.001,39.581]]]}},{"type":"Feature","properties":{"density":3},"geometry":{"type":"Polygon","coordinates":[[[-121.863,50.851],[-121.641,50.748],[-121.488,50.817],[-121.351,50.953],[-121.18,51.159],[-120.992,51.739],[-120.924,52.013],[-120.736,52.44],[-120.138,53.055],[-119.608,53.431],[-118.959,53.653],[-118.429,53.858],[-117.934,53.824],[-117.267,53.841],[-116.909,53.944],[-116.721,54.234],[-116.738,54.524],[-116.84,54.712],[-117.199,54.969],[-118.19,55.088],[-119.403,54.832],[-120.531,54.456],[-121.163,53.926],[-121.846,53.14],[-122.649,52.167],[-122.82,52.047],[-123.111,51.688],[-123.128,51.278],[-123.025,50.919],[-122.837,50.817],[-122.479,50.8],[-122.103,50.868],[-121.863,50.851]]]}}]}