{"type":"FeatureCollection","features":[{"type":"Feature","properties":{"density":1},"geometry":{"type":"Polygon","coordinates":[[[-117.001,33.985],[-117.098,34.016],[-117.134,33.988],[-117.139,33.944],[-117.088,33.86],[-116.979,33.813],[-116.875,33.849],[-116.864,33.889],[-116.897,33.959],[-116.974,33.982],[-117.001,33.985]]]}},{"type":"Feature","properties":{"density":1},"geometry":{"type":"Polygon","coordinates":[[[-117.541,33.6],[-117.575,33.603],[-117.604,33.565],[-117.591,33.482],[-117.524,33.419],[-117.453,33.408],[-117.423,33.446],[-117.425,33.5],[-117.527,33.594],[-117.541,33.6]]]}},{"type":"Feature","properties":{"density":1},"geometry":{"type":"Polygon","coordinates":[[[-112.123,36.895],[-112.097,36.937],[-112.114,36.962],[-112.194,36.932],[-112.209,36.912],[-112.194,36.881],[-112.139,36.886],[-112.123,36.895]]]}},{"type":"Feature","properties":{"density":1},"geometry":{"type":"Polygon","coordinates":[[[-117.467,36.226],[-117.219,36.524],[-116.952,36.765],[-116.685,36.877],[-116.289,36.958],[-115.938,36.942],[-115.287,36.868],[-114.525,36.821],[-114.171,36.821],[-112.897,36.951],[-112.385,36.914],[-112.162,36.756],[-112.004,36.365],[-111.948,36.17],[-111.744,35.724],[-111.669,35.584],[-111.455,35.38],[-110.823,34.952],[-110.46,34.784],[-110.209,34.561],[-109.4,34.189],[-109.093,33.854],[-109.075,33.529],[-109.13,33.073],[-109.233,32.822],[-109.912,32.255],[-110.321,32.106],[-110.739,32.218],[-111.037,32.338],[-111.232,32.385],[-111.428,32.571],[-111.781,32.962],[-112.013,33.557],[-112.404,33.91],[-112.785,34.012],[-113.241,34.282],[-113.483,34.44],[-113.911,34.682],[-114.106,34.831],[-114.292,35.036],[-114.627,35.166],[-114.924,35.231],[-115.25,35.268],[-116.292,35.249],[-116.828,35.222],[-117.169,35.284],[-117.448,35.463],[-117.516,35.804],[-117.467,36.226]]]}},{"type":"Feature","properties":{"density":1},"geometry":{"type":"Polygon","coordinates":[[[-108.082,32.979],[-108.016,32.918],[-107.958,32.921],[-107.885,33.019],[-107.852,33.147],[-107.832,33.398],[-107.837,33.531],[-107.933,33.82],[-108.067,34.036],[-108.209,34.126],[-108.283,34.12],[-108.329,34.097],[-108.351,34.031],[-108.322,33.957],[-108.228,33.836],[-108.2,33.743],[-108.148,33.453],[-108.112,33.029],[-108.082,32.979]]]}},{"type":"Feature","properties":{"density":1},"geometry":{"type":"Polygon","coordinates":[[[-99.151,35.703],[-99.187,35.695],[-99.219,35.719],[-99.186,35.76],[-99.055,35.789],[-99.05,35.776],[-99.127,35.718],[-99.151,35.703]]]}},{"type":"Feature","properties":{"density":1},"geometry":{"type":"Polygon","coordinates":[[[-77.598,26.938],[-77.64,26.881],[-77.621,26.848],[-77.543,26.864],[-77.359,26.993],[-77.171,27.213],[-77.14,27.268],[-77.037,27.493],[-77.047,27.553],[-77.105,27.583],[-77.148,27.583],[-77.19,27.549],[-77.328,27.344],[-77.508,27.019],[-77.563,26.956],[-77.598,26.938]]]}},{"type":"Feature","properties":{"density":1},"geometry":{"type":"Polygon","coordinates":[[[-93.845,17.534],[-93.828,17.496],[-93.798,17.498],[-93.76,17.849],[-93.76,17.921],[-93.78,17.941],[-93.827,17.939],[-93.851,17.884],[-93.85,17.559],[-93.845,17.534]]]}},{"type":"Feature","properties":{"density":1},"geometry":{"type":"Polygon","coordinates":[[[-104.862,57.526],[-104.798,57.555],[-104.738,57.555],[-104.682,57.534],[-104.537,57.387],[-104.473,57.233],[-104.477,57.175],[-104.647,57.026],[-104.754,56.972],[-105.089,56.914],[-105.965,56.877],[-106.139,56.857],[-106.428,56.852],[-106.523,56.873],[-106.561,56.931],[-106.557,56.989],[-106.453,57.051],[-105.813,57.187],[-105.316,57.252],[-105.031,57.361],[-104.932,57.474],[-104.862,57.526]]]}},{"type":"Feature","properties":{"density":1},"geometry":{"type":"Polygon","coordinates":[[[-105.728,55.943],[-105.806,55.888],[-105.799,55.851],[-105.768,55.833],[-105.476,55.809],[-105.288,55.829],[-105.028,55.908],[-104.837,56.002],[-104.796,56.059],[-104.798,56.084],[-104.842,56.127],[-104.879,56.118],[-105.07,56.007],[-105.276,55.949],[-105.688,55.944],[-105.728,55.943]]]}},{"type":"Feature","properties":{"density":1},"geometry":{"type":"Polygon","coordinates":[[[-104.324,55.399],[-104.383,55.405],[-104.547,55.353],[-104.589,55.296],[-104.584,55.239],[-104.553,55.212],[-104.47,55.205],[-104.379,55.257],[-104.338,55.304],[-104.316,55.368],[-104.324,55.399]]]}},{"type":"Feature","properties":{"density":1},"geometry":{"type":"Polygon","coordinates":[[[-103.773,54.675],[-103.993,54.661],[-104.042,54.626],[-104.069,54.554],[-104.041,54.513],[-103.999,54.488],[-103.817,54.475],[-103.521,54.504],[-103.385,54.552],[-103.308,54.59],[-103.192,54.726],[-103.167,54.829],[-103.2,54.943],[-103.24,54.98],[-103.304,54.987],[-103.334,54.969],[-103.358,54.894],[-103.437,54.787],[-103.488,54.756],[-103.732,54.679],[-103.773,54.675]]]}},{"type":"Feature","properties":{"density":1},"geometry":{"type":"Polygon","coordinates":[[[-116.362,68.098],[-116.708,68.412],[-117.335,68.694],[-118.591,68.914],[-119.501,68.914],[-120.443,68.882],[-121.276,68.831],[-122.385,68.538],[-123.268,68.066],[-123.927,67.282],[-124.21,66.654],[-124.492,65.367],[-124.366,64.676],[-124.115,64.174],[-123.644,63.421],[-123.142,62.762],[-122.595,62.344],[-121.486,61.695],[-120.914,61.537],[-119.627,61.412],[-118.999,61.443],[-117.806,61.945],[-117.524,62.102],[-116.631,62.491],[-115.543,62.637],[-114.727,62.637],[-114.196,62.416],[-113.569,62.071],[-112.533,61.412],[-111.748,60.878],[-110.901,60.721],[-108.991,60.434],[-107.484,60.89],[-106.758,61.838],[-106.517,62.685],[-106.632,63.452],[-106.977,65.21],[-107.762,65.963],[-109.708,66.277],[-112.439,67.03],[-113.977,67.093],[-115.64,67.752],[-116.362,68.098]]]}},{"type":"Feature","properties":{"density":1},"geometry":{"type":"Polygon","coordinates":[[[-106.291,57.934],[-106.824,58.163],[-107.141,58.356],[-107.893,58.707],[-108.442,58.819],[-108.693,58.819],[-108.888,58.782],[-109.065,58.698],[-109.456,58.261],[-109.493,58.037],[-109.409,57.777],[-109.13,57.293],[-108.86,56.987],[-107.847,56.401],[-107.112,56.001],[-106.805,55.768],[-106.238,55.536],[-105.894,55.331],[-105.41,54.978],[-104.171,54.214],[-103.571,53.893],[-103.375,53.74],[-102.636,53.335],[-101.618,52.707],[-100.809,52.4],[-98.883,52.191],[-98.27,52.219],[-97.363,52.289],[-96.774,52.437],[-96.707,52.777],[-97.391,53.335],[-98.13,53.726],[-98.897,54.005],[-99.86,54.312],[-100.613,54.702],[-101.897,55.428],[-103.11,56.209],[-104.478,56.948],[-105.175,57.413],[-105.652,57.674],[-106.291,57.934]]]}},{"type":"Feature","properties":{"density":1},"geometry":{"type":"Polygon","coordinates":[[[-99.304,38.993],[-99.304,39.055],[-99.932,39.495],[-100.769,39.746],[-101.104,39.767],[-102.045,39.725],[-102.631,39.599],[-103.364,38.972],[-103.615,38.281],[-103.782,37.528],[-103.782,36.816],[-103.97,35.979],[-104.075,35.184],[-104.535,34.138],[-105.059,33.677],[-105.477,33.112],[-105.833,32.045],[-105.707,31.438],[-105.289,30.413],[-104.933,29.869],[-104.577,29.492],[-104.096,29.074],[-103.657,28.76],[-103.133,28.551],[-102.547,28.425],[-101.397,28.362],[-99.911,28.613],[-99.283,29.032],[-98.613,29.639],[-98.258,30.371],[-98.258,33.908],[-98.111,34.326],[-97.567,34.494],[-97.086,34.535],[-96.793,34.41],[-95.621,34.096],[-94.784,33.719],[-92.796,33.594],[-92.001,33.636],[-90.808,33.656],[-89.553,33.991],[-88.736,34.096],[-88.046,34.326],[-87.523,34.452],[-86.832,34.745],[-86.267,34.849],[-85.681,35.1],[-84.677,35.393],[-82.584,36.147],[-81.496,36.565],[-80.68,37.151],[-80.261,37.632],[-80.031,38.197],[-79.822,38.972],[-79.948,39.976],[-80.22,40.395],[-80.764,40.709],[-81.643,40.813],[-82.626,40.667],[-83.128,40.332],[-83.61,39.934],[-84.133,39.537],[-87.899,37.904],[-89.322,37.591],[-90.599,37.256],[-91.792,37.046],[-92.838,37.026],[-94.303,37.046],[-95.684,37.319],[-97.253,38.051],[-97.965,38.428],[-98.655,38.595],[-99.304,38.993]]]}},{"type":"Feature","properties":{"density":1},"geometry":{"type":"Polygon","coordinates":[[[-110.269,27.888],[-110.576,27.958],[-110.939,28.0],[-111.385,27.944],[-111.72,27.86],[-111.971,27.504],[-112.034,27.169],[-111.992,26.73],[-111.804,26.249],[-111.532,25.684],[-111.197,24.93],[-110.778,24.47],[-110.485,23.738],[-110.339,23.11],[-110.318,22.608],[-110.13,21.415],[-110.088,20.975],[-109.899,20.096],[-109.879,19.406],[-109.962,18.82],[-110.13,18.15],[-110.046,17.836],[-109.983,17.418],[-109.858,17.146],[-109.669,16.832],[-108.979,16.288],[-108.497,15.974],[-107.723,15.681],[-106.991,15.535],[-106.384,15.451],[-104.187,15.074],[-103.852,14.907],[-103.14,14.593],[-101.843,14.174],[-101.383,14.091],[-100.943,13.923],[-99.771,13.672],[-98.558,13.379],[-97.114,13.505],[-96.36,13.672],[-95.858,14.363],[-95.042,15.304],[-94.896,16.434],[-94.854,17.146],[-94.958,17.669],[-95.147,18.339],[-95.314,19.343],[-95.314,19.783],[-95.272,20.369],[-94.979,20.975],[-94.728,21.415],[-94.226,22.043],[-93.849,22.691],[-93.494,23.361],[-93.033,24.051],[-92.782,24.763],[-92.594,25.621],[-92.908,26.458],[-93.577,26.856],[-94.665,26.584],[-95.377,26.081],[-95.67,25.537],[-96.005,24.533],[-96.193,23.528],[-96.298,23.256],[-96.863,22.44],[-97.281,21.54],[-97.7,20.975],[-98.411,20.661],[-99.102,20.306],[-100.42,20.138],[-101.487,20.369],[-101.717,20.515],[-102.387,20.808],[-103.35,21.289],[-103.747,21.415],[-104.229,21.666],[-104.814,22.001],[-105.296,22.315],[-105.819,22.733],[-106.656,23.821],[-107.221,24.512],[-107.765,25.328],[-108.204,25.893],[-108.456,26.395],[-108.79,26.856],[-109.523,27.546],[-109.899,27.693],[-110.269,27.888]]]}},{"type":"Feature","properties":{"density":1},"geometry":{"type":"Polygon","coordinates":[[[-112.443,35.117],[-112.353,35.255],[-112.061,35.345],[-111.967,35.485],[-112.011,35.717],[-112.241,36.025],[-112.349,36.141],[-112.372,36.249],[-112.332,36.318],[-112.195,36.36],[-111.983,36.376],[-111.781,36.46],[-111.677,36.545],[-111.688,36.706],[-111.877,36.851],[-112.143,36.978],[-112.384,37.046],[-112.719,37.082],[-113.066,37.082],[-113.545,36.921],[-114.628,36.635],[-115.037,36.495],[-115.236,36.466],[-115.745,36.335],[-115.947,36.258],[-116.377,36.181],[-116.633,36.07],[-116.811,35.94],[-116.883,35.836],[-116.826,35.757],[-116.699,35.68],[-116.519,35.691],[-115.698,35.851],[-114.735,35.907],[-114.487,35.892],[-113.687,35.721],[-113.534,35.672],[-113.282,35.4],[-112.827,35.113],[-112.553,35.032],[-112.443,35.117]]]}},{"type":"Feature","properties":{"density":1},"geometry":{"type":"Polygon","coordinates":[[[-110.925,34.091],[-110.583,33.835],[-110.478,33.766],[-110.373,33.727],[-110.192,33.697],[-110.018,33.705],[-109.96,33.727],[-109.899,33.785],[-109.886,33.821],[-109.883,33.994],[-109.988,34.171],[-110.227,34.339],[-110.362,34.386],[-110.619,34.435],[-110.729,34.441],[-110.834,34.424],[-110.969,34.375],[-111.032,34.314],[-111.032,34.276],[-111.002,34.176],[-110.947,34.11],[-110.925,34.091]]]}},{"type":"Feature","properties":{"density":1},"geometry":{"type":"Polygon","coordinates":[[[-108.315,34.123],[-108.182,34.096],[-108.138,34.058],[-108.055,33.893],[-108.04,33.771],[-108.047,33.516],[-108.086,33.421],[-108.156,33.379],[-108.198,33.395],[-108.248,33.456],[-108.271,33.533],[-108.303,33.818],[-108.347,34.015],[-108.344,34.081],[-108.324,34.112],[-108.315,34.123]]]}},{"type":"Feature","properties":{"density":1},"geometry":{"type":"Polygon","coordinates":[[[-89.962,37.18],[-89.729,37.244],[-89.62,37.257],[-89.488,37.217],[-89.45,37.182],[-89.43,37.127],[-89.475,37.072],[-89.544,37.045],[-89.587,37.007],[-89.624,36.922],[-89.655,36.888],[-89.681,36.884],[-89.804,36.957],[-89.931,37.07],[-89.977,37.143],[-89.97,37.179],[-89.962,37.18]]]}},{"type":"Feature","properties":{"density":1},"geometry":{"type":"Polygon","coordinates":[[[-89.421,36.91],[-89.157,36.933],[-89.082,36.901],[-89.049,36.814],[-89.089,36.743],[-89.2,36.733],[-89.396,36.831],[-89.422,36.862],[-89.424,36.906],[-89.421,36.91]]]}},{"type":"Feature","properties":{"density":1},"geometry":{"type":"Polygon","coordinates":[[[-93.839,17.512],[-93.855,17.708],[-93.844,18.198],[-93.838,18.268],[-93.818,18.289],[-93.777,18.295],[-93.739,18.271],[-93.718,18.201],[-93.74,17.867],[-93.777,17.512],[-93.808,17.485],[-93.837,17.507],[-93.839,17.512]]]}},{"type":"Feature","properties":{"density":1},"geometry":{"type":"Polygon","coordinates":[[[-92.671,15.101],[-92.606,15.083],[-92.488,15.009],[-92.335,14.857],[-92.208,14.757],[-92.174,14.697],[-92.242,14.647],[-92.292,14.634],[-92.351,14.637],[-92.487,14.688],[-92.655,14.798],[-92.766,14.911],[-92.881,14.973],[-92.929,15.03],[-92.922,15.068],[-92.871,15.091],[-92.679,15.106],[-92.671,15.101]]]}},{"type":"Feature","properties":{"density":1},"geometry":{"type":"Polygon","coordinates":[[[-77.629,26.914],[-77.562,27.015],[-77.383,27.237],[-77.302,27.311],[-77.159,27.498],[-76.843,27.799],[-76.745,27.916],[-76.653,27.965],[-76.627,27.943],[-76.622,27.899],[-76.688,27.76],[-77.01,27.414],[-77.156,27.227],[-77.555,26.863],[-77.611,26.851],[-77.63,26.87],[-77.631,26.907],[-77.629,26.914]]]}},{"type":"Feature","properties":{"density":1},"geometry":{"type":"Polygon","coordinates":[[[-117.465,33.378],[-117.532,33.393],[-117.589,33.442],[-117.656,33.547],[-117.665,33.643],[-117.624,33.655],[-117.51,33.578],[-117.436,33.559],[-117.401,33.531],[-117.389,33.452],[-117.429,33.392],[-117.456,33.378],[-117.465,33.378]]]}},{"type":"Feature","properties":{"density":1},"geometry":{"type":"Polygon","coordinates":[[[-117.116,33.993],[-116.914,33.989],[-116.868,33.941],[-116.867,33.896],[-116.908,33.827],[-116.957,33.799],[-117.018,33.796],[-117.08,33.829],[-117.122,33.886],[-117.144,33.952],[-117.121,33.99],[-117.116,33.993]]]}},{"type":"Feature","properties":{"density":1},"geometry":{"type":"Polygon","coordinates":[[[-103.281,54.973],[-103.22,54.956],[-103.174,54.918],[-103.159,54.82],[-103.174,54.622],[-103.207,54.556],[-103.246,54.528],[-103.369,54.506],[-103.409,54.539],[-103.426,54.626],[-103.315,54.796],[-103.319,54.943],[-103.293,54.962],[-103.281,54.973]]]}},{"type":"Feature","properties":{"density":1},"geometry":{"type":"Polygon","coordinates":[[[-104.873,57.536],[-104.932,57.371],[-104.951,57.242],[-104.922,57.17],[-104.853,57.15],[-104.78,57.173],[-104.771,57.198],[-104.786,57.356],[-104.77,57.491],[-104.793,57.543],[-104.866,57.541],[-104.873,57.536]]]}},{"type":"Feature","properties":{"density":1},"geometry":{"type":"Polygon","coordinates":[[[-115.924,44.116],[-115.848,44.125],[-115.832,44.096],[-115.858,44.069],[-116.01,44.012],[-116.049,44.02],[-116.046,44.077],[-115.981,44.165],[-115.956,44.172],[-115.927,44.124],[-115.924,44.116]]]}},{"type":"Feature","properties":{"density":1},"geometry":{"type":"Polygon","coordinates":[[[-95.511,40.086],[-95.47,40.064],[-95.46,39.978],[-95.474,39.907],[-95.522,39.881],[-95.561,39.917],[-95.569,40.028],[-95.548,40.069],[-95.514,40.085],[-95.511,40.086]]]}},{"type":"Feature","properties":{"density":1},"geometry":{"type":"Polygon","coordinates":[[[-124.062,43.723],[-123.969,43.738],[-123.894,43.729],[-123.838,43.703],[-123.823,43.645],[-123.842,43.609],[-123.882,43.582],[-123.939,43.564],[-124.006,43.571],[-124.068,43.617],[-124.085,43.682],[-124.067,43.72],[-124.062,43.723]]]}},{"type":"Feature","properties":{"density":1},"geometry":{"type":"Polygon","coordinates":[[[-117.842,43.821],[-117.672,43.821],[-117.534,43.785],[-117.384,43.718],[-117.381,43.677],[-117.406,43.655],[-117.48,43.654],[-117.754,43.727],[-117.849,43.769],[-117.847,43.817],[-117.842,43.821]]]}},{"type":"Feature","properties":{"density":1},"geometry":{"type":"Polygon","coordinates":[[[-120.769,37.377],[-120.679,37.411],[-120.645,37.386],[-120.634,37.272],[-120.556,37.123],[-120.554,37.068],[-120.576,37.038],[-120.603,37.035],[-120.665,37.069],[-120.796,37.206],[-120.827,37.309],[-120.774,37.374],[-120.769,37.377]]]}},{"type":"Feature","properties":{"density":1},"geometry":{"type":"Polygon","coordinates":[[[-117.431,33.505],[-117.381,33.479],[-117.325,33.406],[-117.191,33.326],[-117.035,33.171],[-117.022,33.128],[-117.045,33.114],[-117.131,33.124],[-117.459,33.353],[-117.491,33.399],[-117.499,33.479],[-117.449,33.509],[-117.431,33.505]]]}},{"type":"Feature","properties":{"density":1},"geometry":{"type":"Polygon","coordinates":[[[-77.629,26.891],[-77.515,27.102],[-77.274,27.443],[-76.433,28.131],[-76.174,28.253],[-75.999,28.286],[-75.841,28.275],[-75.793,28.231],[-75.821,28.161],[-76.267,27.924],[-76.385,27.836],[-76.545,27.639],[-76.823,27.375],[-77.176,27.143],[-77.556,26.865],[-77.609,26.858],[-77.629,26.884],[-77.629,26.891]]]}},{"type":"Feature","properties":{"density":1},"geometry":{"type":"Polygon","coordinates":[[[-80.477,25.798],[-80.486,25.898],[-80.466,26.073],[-80.416,26.211],[-80.313,26.335],[-80.08,26.464],[-80.01,26.475],[-79.612,26.432],[-79.568,26.395],[-79.577,26.31],[-79.781,26.121],[-80.08,25.987],[-80.408,25.781],[-80.445,25.775],[-80.475,25.794],[-80.477,25.798]]]}},{"type":"Feature","properties":{"density":1},"geometry":{"type":"Polygon","coordinates":[[[-81.467,25.998],[-81.425,26.11],[-81.309,26.233],[-81.238,26.277],[-81.201,26.264],[-81.194,26.229],[-81.212,26.196],[-81.349,26.044],[-81.421,25.984],[-81.447,25.978],[-81.467,25.992],[-81.467,25.998]]]}},{"type":"Feature","properties":{"density":1},"geometry":{"type":"Polygon","coordinates":[[[-93.839,17.501],[-93.886,17.903],[-93.845,18.402],[-93.834,18.451],[-93.81,18.471],[-93.775,18.464],[-93.749,18.432],[-93.735,18.374],[-93.718,18.223],[-93.723,17.857],[-93.78,17.502],[-93.813,17.483],[-93.836,17.496],[-93.839,17.501]]]}},{"type":"Feature","properties":{"density":1},"geometry":{"type":"Polygon","coordinates":[[[-92.724,15.103],[-92.568,15.132],[-92.521,15.101],[-92.517,15.064],[-92.545,14.941],[-92.573,14.896],[-92.742,14.811],[-92.844,14.813],[-92.889,14.845],[-93.036,14.985],[-93.069,15.051],[-93.062,15.105],[-93.022,15.145],[-92.984,15.155],[-92.836,15.181],[-92.776,15.16],[-92.734,15.111],[-92.724,15.103]]]}},{"type":"Feature","properties":{"density":1},"geometry":{"type":"Polygon","coordinates":[[[-112.242,36.93],[-112.213,36.972],[-112.091,37.003],[-112.026,36.995],[-112.003,36.965],[-112.004,36.942],[-112.04,36.903],[-112.147,36.868],[-112.191,36.87],[-112.238,36.917],[-112.242,36.93]]]}},{"type":"Feature","properties":{"density":1},"geometry":{"type":"Polygon","coordinates":[[[-80.569,28.331],[-80.29,28.576],[-79.827,28.8],[-79.752,28.817],[-79.619,28.816],[-79.58,28.795],[-79.558,28.76],[-79.549,28.718],[-79.565,28.675],[-79.702,28.592],[-79.956,28.528],[-80.373,28.331],[-80.555,28.288],[-80.577,28.308],[-80.573,28.329],[-80.569,28.331]]]}},{"type":"Feature","properties":{"density":1},"geometry":{"type":"Polygon","coordinates":[[[-103.318,54.963],[-103.198,54.967],[-103.171,54.923],[-103.178,54.894],[-103.216,54.875],[-103.288,54.886],[-103.327,54.924],[-103.32,54.962],[-103.318,54.963]]]}},{"type":"Feature","properties":{"density":1},"geometry":{"type":"Polygon","coordinates":[[[-125.547,66.024],[-125.727,66.063],[-126.194,66.071],[-126.346,66.096],[-126.45,66.145],[-126.558,66.229],[-126.846,66.398],[-126.958,66.535],[-126.978,66.654],[-126.967,66.719],[-126.868,66.763],[-126.605,66.757],[-125.979,66.599],[-125.615,66.46],[-125.554,66.414],[-125.48,66.325],[-125.421,66.221],[-125.411,66.082],[-125.438,66.03],[-125.483,66.014],[-125.547,66.024]]]}},{"type":"Feature","properties":{"density":1},"geometry":{"type":"Polygon","coordinates":[[[-95.522,40.081],[-95.477,40.088],[-95.443,40.02],[-95.462,39.839],[-95.509,39.81],[-95.545,39.83],[-95.578,39.946],[-95.571,40.01],[-95.534,40.075],[-95.522,40.081]]]}},{"type":"Feature","properties":{"density":1},"geometry":{"type":"Polygon","coordinates":[[[-125.537,66.046],[-125.812,66.08],[-126.101,66.091],[-126.137,66.15],[-126.113,66.2],[-126.003,66.202],[-125.981,66.227],[-125.981,66.312],[-125.964,66.344],[-125.899,66.367],[-125.853,66.365],[-125.782,66.345],[-125.479,66.138],[-125.453,66.106],[-125.447,66.05],[-125.501,66.047],[-125.537,66.046]]]}},{"type":"Feature","properties":{"density":1},"geometry":{"type":"Polygon","coordinates":[[[-124.064,43.721],[-123.872,43.723],[-123.803,43.69],[-123.767,43.626],[-123.809,43.593],[-123.938,43.599],[-124.062,43.667],[-124.07,43.72],[-124.064,43.721]]]}},{"type":"Feature","properties":{"density":1},"geometry":{"type":"Polygon","coordinates":[[[-117.352,47.699],[-117.251,47.78],[-116.99,47.874],[-116.756,47.992],[-116.423,48.188],[-116.276,48.237],[-115.953,48.285],[-115.683,48.306],[-115.578,48.35],[-115.405,48.376],[-114.973,48.276],[-114.906,48.236],[-114.876,48.171],[-114.871,48.132],[-114.89,48.101],[-115.084,48.023],[-115.811,47.919],[-116.645,47.702],[-116.745,47.684],[-117.014,47.686],[-117.306,47.664],[-117.341,47.67],[-117.354,47.696],[-117.352,47.699]]]}},{"type":"Feature","properties":{"density":1},"geometry":{"type":"Polygon","coordinates":[[[-118.648,45.613],[-118.603,45.649],[-118.497,45.666],[-118.18,45.658],[-117.891,45.685],[-117.609,45.673],[-117.355,45.63],[-117.316,45.597],[-117.301,45.538],[-117.35,45.483],[-117.439,45.474],[-117.663,45.493],[-118.027,45.495],[-118.575,45.56],[-118.63,45.575],[-118.649,45.608],[-118.648,45.613]]]}},{"type":"Feature","properties":{"density":1},"geometry":{"type":"Polygon","coordinates":[[[-116.087,47.539],[-116.033,47.585],[-115.764,47.662],[-115.674,47.644],[-115.653,47.614],[-115.658,47.572],[-115.703,47.543],[-116.016,47.52],[-116.086,47.537],[-116.087,47.539]]]}},{"type":"Feature","properties":{"density":1},"geometry":{"type":"Polygon","coordinates":[[[-117.988,46.495],[-117.971,46.55],[-117.926,46.602],[-117.814,46.643],[-117.659,46.667],[-117.548,46.652],[-117.478,46.623],[-117.348,46.509],[-117.369,46.477],[-117.432,46.458],[-117.701,46.492],[-117.951,46.455],[-117.978,46.463],[-117.989,46.491],[-117.988,46.495]]]}},{"type":"Feature","properties":{"density":1},"geometry":{"type":"Polygon","coordinates":[[[-92.598,33.912],[-92.622,34.069],[-92.613,34.093],[-92.576,34.115],[-92.55,34.105],[-92.532,34.047],[-92.561,33.904],[-92.576,33.896],[-92.598,33.91],[-92.598,33.912]]]}},{"type":"Feature","properties":{"density":1},"geometry":{"type":"Polygon","coordinates":[[[-91.995,33.96],[-92.068,34.031],[-92.087,34.125],[-92.065,34.194],[-92.0,34.228],[-91.931,34.201],[-91.91,34.149],[-91.946,33.991],[-91.969,33.958],[-91.992,33.957],[-91.995,33.96]]]}},{"type":"Feature","properties":{"density":1},"geometry":{"type":"Polygon","coordinates":[[[-89.793,36.154],[-89.441,36.459],[-89.176,36.614],[-89.046,36.639],[-88.944,36.627],[-88.903,36.599],[-88.894,36.528],[-88.953,36.438],[-89.197,36.304],[-89.741,36.085],[-89.79,36.1],[-89.796,36.149],[-89.793,36.154]]]}},{"type":"Feature","properties":{"density":1},"geometry":{"type":"Polygon","coordinates":[[[-103.314,54.972],[-103.241,54.985],[-103.191,54.975],[-103.088,54.901],[-102.925,54.7],[-102.828,54.627],[-102.701,54.499],[-102.67,54.416],[-102.673,54.378],[-102.693,54.356],[-102.798,54.336],[-102.98,54.388],[-103.107,54.461],[-103.212,54.555],[-103.297,54.683],[-103.324,54.757],[-103.348,54.848],[-103.349,54.914],[-103.331,54.963],[-103.314,54.972]]]}},{"type":"Feature","properties":{"density":1},"geometry":{"type":"Polygon","coordinates":[[[-104.4,55.432],[-104.316,55.434],[-104.286,55.414],[-104.269,55.354],[-104.211,54.909],[-104.218,54.842],[-104.26,54.818],[-104.313,54.82],[-104.363,54.842],[-104.452,54.938],[-104.476,55.002],[-104.494,55.2],[-104.458,55.338],[-104.413,55.43],[-104.4,55.432]]]}},{"type":"Feature","properties":{"density":1},"geometry":{"type":"Polygon","coordinates":[[[-125.532,66.021],[-125.748,66.056],[-126.016,66.141],[-126.317,66.294],[-126.635,66.432],[-127.011,66.658],[-127.281,66.828],[-127.297,67.01],[-127.272,67.107],[-127.184,67.214],[-127.096,67.272],[-127.0,67.313],[-126.785,67.327],[-126.683,67.322],[-126.437,67.266],[-126.181,67.189],[-125.947,67.162],[-125.586,67.093],[-125.476,67.027],[-125.346,66.883],[-125.294,66.798],[-125.288,66.627],[-125.331,66.339],[-125.398,66.155],[-125.41,66.037],[-125.441,66.012],[-125.526,66.018],[-125.532,66.021]]]}},{"type":"Feature","properties":{"density":1},"geometry":{"type":"Polygon","coordinates":[[[-127.72,65.457],[-127.594,65.484],[-127.511,65.474],[-127.023,65.279],[-126.88,65.164],[-126.87,65.068],[-126.937,65.011],[-127.083,65.027],[-127.169,65.046],[-127.6,65.21],[-127.764,65.317],[-127.764,65.39],[-127.738,65.44],[-127.72,65.457]]]}},{"type":"Feature","properties":{"density":1},"geometry":{"type":"Polygon","coordinates":[[[-77.651,26.894],[-77.516,27.095],[-77.435,27.183],[-77.206,27.365],[-77.011,27.477],[-76.634,27.839],[-76.41,28.08],[-76.221,28.188],[-75.997,28.282],[-75.792,28.295],[-75.677,28.225],[-75.655,28.13],[-75.723,28.027],[-76.123,27.727],[-76.337,27.515],[-76.426,27.454],[-76.779,27.231],[-77.107,27.057],[-77.401,26.939],[-77.57,26.842],[-77.634,26.833],[-77.651,26.85],[-77.652,26.885],[-77.651,26.894]]]}},{"type":"Feature","properties":{"density":1},"geometry":{"type":"Polygon","coordinates":[[[-80.487,25.826],[-80.479,25.968],[-80.426,26.175],[-80.219,26.492],[-80.092,26.645],[-79.723,26.955],[-79.517,27.089],[-78.996,27.35],[-78.838,27.363],[-78.773,27.35],[-78.67,27.258],[-78.658,27.161],[-78.667,27.087],[-78.904,26.591],[-79.043,26.422],[-79.277,26.228],[-79.477,26.116],[-80.311,25.795],[-80.449,25.764],[-80.486,25.812],[-80.487,25.826]]]}},{"type":"Feature","properties":{"density":1},"geometry":{"type":"Polygon","coordinates":[[[-78.695,26.628],[-78.594,26.907],[-78.482,27.104],[-78.386,27.199],[-78.335,27.227],[-78.269,27.24],[-78.235,27.223],[-78.195,27.161],[-78.179,27.082],[-78.221,26.937],[-78.471,26.68],[-78.625,26.55],[-78.687,26.528],[-78.704,26.54],[-78.699,26.598],[-78.695,26.628]]]}},{"type":"Feature","properties":{"density":1},"geometry":{"type":"Polygon","coordinates":[[[-81.47,25.993],[-81.449,26.068],[-81.301,26.303],[-81.246,26.378],[-81.167,26.445],[-80.942,26.538],[-80.83,26.552],[-80.802,26.536],[-80.769,26.49],[-80.776,26.41],[-80.829,26.307],[-80.918,26.219],[-81.1,26.105],[-81.324,25.998],[-81.44,25.962],[-81.467,25.969],[-81.471,25.989],[-81.47,25.993]]]}},{"type":"Feature","properties":{"density":1},"geometry":{"type":"Polygon","coordinates":[[[-82.262,27.245],[-82.185,27.308],[-82.035,27.38],[-81.97,27.359],[-81.969,27.319],[-82.044,27.273],[-82.23,27.207],[-82.263,27.207],[-82.263,27.243],[-82.262,27.245]]]}},{"type":"Feature","properties":{"density":1},"geometry":{"type":"Polygon","coordinates":[[[-113.74,38.24],[-113.593,38.257],[-113.372,38.224],[-113.162,38.233],[-112.991,38.199],[-112.901,38.152],[-112.856,38.096],[-112.853,37.973],[-112.868,37.924],[-112.994,37.708],[-113.062,37.642],[-113.181,37.567],[-113.285,37.555],[-113.574,37.644],[-113.792,37.765],[-113.946,37.825],[-113.977,37.868],[-113.903,38.085],[-113.858,38.168],[-113.761,38.233],[-113.74,38.24]]]}},{"type":"Feature","properties":{"density":1},"geometry":{"type":"Polygon","coordinates":[[[-112.217,36.903],[-112.214,36.943],[-112.18,36.971],[-112.059,37.0],[-111.918,36.999],[-111.772,36.968],[-111.532,36.946],[-111.223,36.95],[-111.118,36.973],[-111.019,36.942],[-110.895,36.841],[-110.782,36.809],[-110.744,36.761],[-110.743,36.721],[-110.766,36.683],[-110.828,36.65],[-110.902,36.634],[-111.013,36.616],[-111.265,36.618],[-111.8,36.695],[-112.126,36.832],[-112.217,36.894],[-112.217,36.903]]]}},{"type":"Feature","properties":{"density":1},"geometry":{"type":"Polygon","coordinates":[[[-117.47,33.485],[-117.098,33.465],[-117.023,33.434],[-116.997,33.393],[-116.996,33.35],[-117.073,33.099],[-117.135,33.08],[-117.195,33.106],[-117.405,33.267],[-117.454,33.315],[-117.499,33.409],[-117.484,33.48],[-117.47,33.485]]]}},{"type":"Feature","properties":{"density":1},"geometry":{"type":"Polygon","coordinates":[[[-120.783,37.275],[-120.798,37.427],[-120.78,37.472],[-120.721,37.535],[-120.581,37.559],[-120.471,37.557],[-120.385,37.488],[-120.291,37.303],[-120.182,36.969],[-120.175,36.884],[-120.188,36.815],[-120.253,36.664],[-120.286,36.627],[-120.362,36.597],[-120.41,36.606],[-120.474,36.706],[-120.55,36.902],[-120.683,37.109],[-120.774,37.221],[-120.786,37.258],[-120.783,37.275]]]}},{"type":"Feature","properties":{"density":1},"geometry":{"type":"Polygon","coordinates":[[[-123.062,39.81],[-123.237,40.203],[-123.382,40.368],[-123.713,41.108],[-123.762,41.463],[-123.704,41.711],[-123.585,41.893],[-123.341,42.009],[-123.072,42.042],[-122.828,42.001],[-122.535,41.757],[-122.32,41.674],[-122.109,41.682],[-121.319,41.868],[-121.055,41.897],[-120.902,41.819],[-120.861,41.629],[-121.179,40.959],[-121.237,40.616],[-121.216,40.269],[-121.034,39.946],[-120.656,39.085],[-120.383,38.911],[-120.179,38.713],[-119.695,38.142],[-119.422,37.739],[-119.1,37.386],[-118.858,37.15],[-118.523,36.995],[-117.692,36.871],[-117.295,36.981],[-117.101,36.972],[-116.832,36.906],[-116.634,36.815],[-116.589,36.757],[-116.613,36.642],[-116.717,36.534],[-116.948,36.464],[-117.639,36.278],[-118.209,36.17],[-118.697,36.034],[-118.916,36.005],[-119.197,36.022],[-119.536,36.113],[-120.478,36.427],[-120.842,36.702],[-121.236,37.189],[-121.517,37.387],[-121.835,37.639],[-122.224,38.053],[-122.639,38.746],[-122.819,39.093],[-122.937,39.409],[-123.033,39.724],[-123.062,39.81]]]}},{"type":"Feature","properties":{"density":1},"geometry":{"type":"Polygon","coordinates":[[[-93.317,13.688],[-94.233,13.796],[-95.032,13.808],[-96.012,13.939],[-97.947,14.081],[-98.74,14.125],[-99.416,13.926],[-100.098,13.666],[-100.182,13.489],[-101.344,13.126],[-101.856,12.987],[-102.842,12.922],[-103.325,12.829],[-103.93,12.764],[-104.86,12.764],[-105.306,13.108],[-105.576,13.629],[-105.79,14.289],[-106.227,15.173],[-106.757,16.54],[-108.394,18.189],[-109.169,18.815],[-109.386,19.2],[-109.485,19.677],[-109.287,21.246],[-109.305,22.163],[-109.38,22.728],[-109.957,23.918],[-110.149,24.656],[-110.019,25.152],[-109.771,25.474],[-109.38,25.679],[-109.02,25.784],[-108.679,25.784],[-108.183,25.629],[-107.836,25.437],[-107.563,25.164],[-106.856,24.662],[-105.796,23.459],[-105.443,23.087],[-104.91,22.622],[-104.556,22.337],[-104.072,21.812],[-103.812,21.585],[-103.527,21.258],[-103.01,20.464],[-102.769,20.131],[-102.626,19.883],[-102.502,19.598],[-102.385,19.474],[-102.211,19.213],[-102.025,18.99],[-101.69,18.773],[-101.213,18.496],[-100.87,18.442],[-100.126,18.451],[-99.799,18.538],[-99.154,18.757],[-97.767,19.191],[-97.424,19.735],[-97.393,20.143],[-97.429,20.597],[-97.374,21.118],[-96.851,21.782],[-96.407,22.083],[-95.564,22.495],[-94.268,22.545],[-93.146,22.396],[-92.49,22.068],[-92.298,21.919],[-92.094,21.671],[-91.641,20.655],[-91.567,20.314],[-91.567,18.621],[-91.629,17.151],[-91.529,16.817],[-91.474,16.494],[-91.474,15.781],[-91.449,15.446],[-91.263,14.913],[-90.971,14.275],[-90.956,14.017],[-91.03,13.831],[-91.672,13.534],[-92.072,13.468],[-92.416,13.459],[-92.695,13.534],[-92.972,13.661],[-93.317,13.688]]]}},{"type":"Feature","properties":{"density":1},"geometry":{"type":"Polygon","coordinates":[[[-108.3,34.083],[-108.143,34.098],[-107.971,34.01],[-107.905,33.922],[-107.838,33.767],[-107.837,33.604],[-107.873,33.573],[-107.928,33.563],[-108.094,33.657],[-108.334,33.969],[-108.349,34.047],[-108.321,34.074],[-108.3,34.083]]]}},{"type":"Feature","properties":{"density":1},"geometry":{"type":"Polygon","coordinates":[[[-99.726,39.283],[-99.189,39.259],[-98.478,39.119],[-97.613,38.882],[-96.553,38.52],[-95.716,38.324],[-94.851,38.003],[-93.749,37.724],[-92.84,37.865],[-92.574,37.996],[-91.885,38.113],[-91.309,38.144],[-90.72,38.095],[-90.125,37.921],[-89.357,37.508],[-89.074,37.488],[-88.669,37.543],[-88.209,37.46],[-88.028,36.971],[-88.195,36.26],[-88.739,35.576],[-89.59,34.809],[-90.399,33.623],[-90.86,33.177],[-91.948,32.41],[-93.65,31.517],[-94.431,31.07],[-95.198,30.763],[-96.105,30.429],[-97.068,30.303],[-97.751,30.456],[-98.421,30.973],[-98.742,31.712],[-98.909,32.423],[-98.811,33.623],[-98.909,34.125],[-99.188,34.739],[-99.523,35.353],[-99.844,36.079],[-100.095,36.553],[-100.499,37.111],[-100.918,37.571],[-101.225,37.808],[-101.546,38.143],[-101.588,38.52],[-101.532,38.855],[-101.35,39.134],[-101.155,39.245],[-100.988,39.287],[-100.739,39.336],[-100.334,39.336],[-99.726,39.283]]]}},{"type":"Feature","properties":{"density":1},"geometry":{"type":"Polygon","coordinates":[[[-120.887,49.565],[-120.752,49.66],[-120.607,49.698],[-120.289,49.715],[-120.212,49.668],[-120.187,49.624],[-120.187,49.58],[-120.228,49.538],[-120.311,49.527],[-120.889,49.511],[-120.923,49.538],[-120.92,49.556],[-120.895,49.565],[-120.887,49.565]]]}},{"type":"Feature","properties":{"density":2},"geometry":{"type":"Polygon","coordinates":[[[-117.083,33.97],[-117.123,33.949],[-117.091,33.897],[-117.066,33.925],[-117.075,33.966],[-117.083,33.97]]]}},{"type":"Feature","properties":{"density":2},"geometry":{"type":"Polygon","coordinates":[[[-117.444,33.467],[-117.501,33.491],[-117.491,33.445],[-117.448,33.437],[-117.442,33.458],[-117.444,33.467]]]}},{"type":"Feature","properties":{"density":2},"geometry":{"type":"Polygon","coordinates":[[[-116.775,35.656],[-116.332,35.798],[-115.864,36.034],[-115.597,36.124],[-115.29,36.31],[-114.983,36.421],[-114.825,36.496],[-114.407,36.607],[-113.867,36.778],[-113.21,36.871],[-112.807,36.877],[-112.416,36.821],[-112.336,36.697],[-112.305,36.393],[-112.361,36.217],[-112.454,36.086],[-112.816,35.873],[-112.947,35.677],[-113.086,35.287],[-113.319,35.119],[-113.542,35.11],[-113.737,35.122],[-113.942,35.231],[-113.998,35.389],[-114.091,35.538],[-114.249,35.705],[-114.732,35.687],[-114.974,35.621],[-115.541,35.547],[-116.713,35.507],[-116.775,35.656]]]}},{"type":"Feature","properties":{"density":2},"geometry":{"type":"Polygon","coordinates":[[[-108.233,34.085],[-108.285,34.08],[-108.304,34.044],[-108.298,34.011],[-108.174,33.784],[-108.144,33.757],[-108.098,33.752],[-108.025,33.833],[-108.01,33.877],[-108.043,33.924],[-108.103,33.96],[-108.214,34.073],[-108.233,34.085]]]}},{"type":"Feature","properties":{"density":2},"geometry":{"type":"Polygon","coordinates":[[[-103.264,54.931],[-103.31,54.948],[-103.326,54.925],[-103.352,54.815],[-103.38,54.769],[-103.368,54.745],[-103.337,54.758],[-103.279,54.822],[-103.261,54.915],[-103.264,54.931]]]}},{"type":"Feature","properties":{"density":2},"geometry":{"type":"Polygon","coordinates":[[[-108.265,34.073],[-108.23,34.054],[-108.181,33.934],[-108.168,33.752],[-108.208,33.764],[-108.255,33.948],[-108.307,34.021],[-108.306,34.052],[-108.272,34.073],[-108.265,34.073]]]}},{"type":"Feature","properties":{"density":2},"geometry":{"type":"Polygon","coordinates":[[[-93.83,17.51],[-93.841,17.825],[-93.818,17.962],[-93.802,18.0],[-93.774,18.009],[-93.745,17.982],[-93.745,17.919],[-93.779,17.6],[-93.801,17.511],[-93.83,17.509],[-93.83,17.51]]]}},{"type":"Feature","properties":{"density":2},"geometry":{"type":"Polygon","coordinates":[[[-92.708,15.082],[-92.654,15.076],[-92.587,15.038],[-92.54,14.96],[-92.561,14.907],[-92.632,14.884],[-92.721,14.906],[-92.767,14.942],[-92.783,14.976],[-92.779,15.022],[-92.721,15.075],[-92.708,15.082]]]}},{"type":"Feature","properties":{"density":2},"geometry":{"type":"Polygon","coordinates":[[[-117.457,33.418],[-117.533,33.466],[-117.546,33.489],[-117.536,33.512],[-117.489,33.51],[-117.428,33.471],[-117.424,33.44],[-117.455,33.417],[-117.457,33.418]]]}},{"type":"Feature","properties":{"density":2},"geometry":{"type":"Polygon","coordinates":[[[-117.096,33.983],[-117.033,33.989],[-116.978,33.97],[-116.97,33.921],[-117.011,33.871],[-117.057,33.868],[-117.121,33.942],[-117.121,33.972],[-117.099,33.982],[-117.096,33.983]]]}},{"type":"Feature","properties":{"density":2},"geometry":{"type":"Polygon","coordinates":[[[-104.852,57.521],[-104.893,57.457],[-104.903,57.386],[-104.887,57.352],[-104.841,57.357],[-104.786,57.432],[-104.8,57.524],[-104.838,57.529],[-104.852,57.521]]]}},{"type":"Feature","properties":{"density":2},"geometry":{"type":"Polygon","coordinates":[[[-120.717,37.301],[-120.684,37.294],[-120.675,37.273],[-120.66,37.167],[-120.698,37.18],[-120.754,37.252],[-120.753,37.284],[-120.732,37.298],[-120.717,37.301]]]}},{"type":"Feature","properties":{"density":2},"geometry":{"type":"Polygon","coordinates":[[[-117.465,33.484],[-117.442,33.485],[-117.402,33.443],[-117.391,33.403],[-117.409,33.383],[-117.438,33.386],[-117.464,33.421],[-117.471,33.481],[-117.465,33.484]]]}},{"type":"Feature","properties":{"density":2},"geometry":{"type":"Polygon","coordinates":[[[-80.475,25.83],[-80.448,26.072],[-80.389,26.214],[-80.214,26.372],[-80.079,26.392],[-80.029,26.382],[-79.974,26.35],[-79.846,26.199],[-79.844,26.147],[-79.868,26.106],[-80.069,26.016],[-80.4,25.79],[-80.451,25.783],[-80.475,25.826],[-80.475,25.83]]]}},{"type":"Feature","properties":{"density":2},"geometry":{"type":"Polygon","coordinates":[[[-81.459,26.011],[-81.428,26.08],[-81.359,26.161],[-81.287,26.213],[-81.251,26.22],[-81.242,26.187],[-81.304,26.104],[-81.438,25.983],[-81.461,26.009],[-81.459,26.011]]]}},{"type":"Feature","properties":{"density":2},"geometry":{"type":"Polygon","coordinates":[[[-93.834,17.519],[-93.84,17.703],[-93.818,17.75],[-93.8,17.728],[-93.793,17.507],[-93.811,17.492],[-93.832,17.516],[-93.834,17.519]]]}},{"type":"Feature","properties":{"density":2},"geometry":{"type":"Polygon","coordinates":[[[-92.72,15.073],[-92.632,15.039],[-92.616,14.98],[-92.713,14.868],[-92.781,14.855],[-92.873,14.927],[-92.894,15.024],[-92.729,15.07],[-92.72,15.073]]]}},{"type":"Feature","properties":{"density":2},"geometry":{"type":"Polygon","coordinates":[[[-125.521,66.05],[-125.858,66.108],[-125.991,66.148],[-126.127,66.224],[-126.37,66.268],[-126.638,66.341],[-126.754,66.44],[-126.765,66.534],[-126.725,66.556],[-126.578,66.561],[-126.1,66.464],[-125.947,66.397],[-125.838,66.376],[-125.653,66.433],[-125.577,66.375],[-125.438,66.174],[-125.425,66.103],[-125.445,66.054],[-125.512,66.05],[-125.521,66.05]]]}},{"type":"Feature","properties":{"density":2},"geometry":{"type":"Polygon","coordinates":[[[-125.514,66.059],[-125.681,66.077],[-125.827,66.17],[-125.874,66.266],[-125.843,66.29],[-125.794,66.292],[-125.675,66.249],[-125.586,66.175],[-125.474,66.117],[-125.463,66.075],[-125.506,66.061],[-125.514,66.059]]]}},{"type":"Feature","properties":{"density":2},"geometry":{"type":"Polygon","coordinates":[[[-117.332,47.709],[-117.266,47.753],[-117.114,47.814],[-116.82,47.863],[-116.757,47.869],[-116.674,47.853],[-116.62,47.797],[-116.659,47.735],[-116.701,47.725],[-117.133,47.725],[-117.256,47.704],[-117.329,47.675],[-117.341,47.678],[-117.336,47.705],[-117.332,47.709]]]}},{"type":"Feature","properties":{"density":2},"geometry":{"type":"Polygon","coordinates":[[[-118.626,45.631],[-118.455,45.651],[-118.231,45.636],[-118.189,45.62],[-118.168,45.584],[-118.197,45.558],[-118.322,45.555],[-118.606,45.585],[-118.64,45.6],[-118.629,45.628],[-118.626,45.631]]]}},{"type":"Feature","properties":{"density":2},"geometry":{"type":"Polygon","coordinates":[[[-116.074,47.553],[-115.927,47.602],[-115.888,47.602],[-115.861,47.578],[-115.875,47.553],[-115.996,47.528],[-116.065,47.526],[-116.076,47.551],[-116.074,47.553]]]}},{"type":"Feature","properties":{"density":2},"geometry":{"type":"Polygon","coordinates":[[[-117.971,46.532],[-117.896,46.597],[-117.791,46.633],[-117.648,46.644],[-117.619,46.642],[-117.549,46.597],[-117.513,46.523],[-117.546,46.498],[-117.744,46.511],[-117.946,46.471],[-117.978,46.485],[-117.975,46.516],[-117.971,46.532]]]}},{"type":"Feature","properties":{"density":2},"geometry":{"type":"Polygon","coordinates":[[[-103.301,54.957],[-103.246,54.965],[-103.183,54.947],[-103.104,54.877],[-102.978,54.694],[-102.763,54.491],[-102.746,54.429],[-102.775,54.412],[-102.81,54.418],[-103.102,54.565],[-103.169,54.619],[-103.324,54.92],[-103.306,54.955],[-103.301,54.957]]]}},{"type":"Feature","properties":{"density":2},"geometry":{"type":"Polygon","coordinates":[[[-126.541,66.426],[-126.599,66.49],[-126.719,66.56],[-127.029,66.699],[-127.187,66.789],[-127.23,66.852],[-127.215,66.944],[-127.163,67.045],[-127.026,67.219],[-126.903,67.256],[-126.695,67.256],[-126.585,67.229],[-126.368,67.128],[-126.261,67.026],[-126.211,66.836],[-126.233,66.671],[-126.389,66.42],[-126.435,66.389],[-126.525,66.398],[-126.536,66.414],[-126.541,66.426]]]}},{"type":"Feature","properties":{"density":2},"geometry":{"type":"Polygon","coordinates":[[[-125.567,66.034],[-125.649,66.059],[-125.791,66.135],[-125.881,66.137],[-126.051,66.225],[-126.13,66.285],[-126.166,66.378],[-126.148,66.46],[-126.09,66.517],[-126.051,66.6],[-125.963,66.69],[-125.885,66.723],[-125.804,66.862],[-125.732,66.89],[-125.643,66.897],[-125.428,66.8],[-125.375,66.751],[-125.357,66.689],[-125.375,66.563],[-125.341,66.393],[-125.368,66.304],[-125.429,66.201],[-125.423,66.034],[-125.453,66.017],[-125.54,66.034],[-125.567,66.034]]]}},{"type":"Feature","properties":{"density":2},"geometry":{"type":"Polygon","coordinates":[[[-127.558,65.233],[-127.62,65.278],[-127.636,65.331],[-127.63,65.382],[-127.544,65.419],[-127.402,65.395],[-127.297,65.36],[-127.112,65.235],[-127.082,65.189],[-127.083,65.116],[-127.1,65.099],[-127.182,65.097],[-127.55,65.23],[-127.558,65.233]]]}},{"type":"Feature","properties":{"density":2},"geometry":{"type":"Polygon","coordinates":[[[-77.627,26.922],[-77.478,27.112],[-77.298,27.247],[-77.024,27.324],[-76.948,27.327],[-76.903,27.307],[-76.896,27.269],[-76.91,27.236],[-77.109,27.087],[-77.572,26.857],[-77.636,26.855],[-77.642,26.89],[-77.627,26.922]]]}},{"type":"Feature","properties":{"density":2},"geometry":{"type":"Polygon","coordinates":[[[-80.468,25.86],[-80.433,26.049],[-80.326,26.271],[-80.207,26.4],[-80.042,26.633],[-79.864,26.808],[-79.61,26.954],[-79.407,27.015],[-79.186,27.028],[-79.074,26.945],[-78.998,26.815],[-78.974,26.724],[-78.985,26.64],[-79.077,26.456],[-79.271,26.281],[-79.404,26.217],[-79.519,26.14],[-80.086,25.928],[-80.389,25.783],[-80.435,25.774],[-80.468,25.788],[-80.469,25.854],[-80.468,25.86]]]}},{"type":"Feature","properties":{"density":2},"geometry":{"type":"Polygon","coordinates":[[[-81.46,25.987],[-81.442,26.06],[-81.226,26.345],[-81.088,26.375],[-80.964,26.343],[-80.952,26.266],[-81.07,26.156],[-81.367,25.995],[-81.427,25.975],[-81.459,25.984],[-81.46,25.987]]]}},{"type":"Feature","properties":{"density":2},"geometry":{"type":"Polygon","coordinates":[[[-94.045,18.336],[-94.087,18.511],[-94.083,18.572],[-94.028,18.638],[-93.971,18.673],[-93.775,18.733],[-93.613,18.827],[-93.336,18.948],[-93.0,19.042],[-92.854,19.005],[-92.812,18.935],[-92.799,18.856],[-92.812,18.733],[-92.95,18.616],[-92.967,18.586],[-93.033,18.375],[-93.046,18.182],[-93.036,18.145],[-92.981,18.072],[-92.842,17.998],[-92.731,17.879],[-92.531,17.739],[-92.527,17.644],[-92.638,17.543],[-92.731,17.51],[-92.864,17.504],[-93.044,17.534],[-93.444,17.563],[-93.575,17.789],[-93.6,17.818],[-93.666,17.841],[-93.742,17.532],[-93.755,17.501],[-93.814,17.482],[-94.005,17.669],[-94.011,17.959],[-94.056,18.143],[-94.056,18.314],[-94.045,18.336]]]}},{"type":"Feature","properties":{"density":2},"geometry":{"type":"Polygon","coordinates":[[[-113.741,38.219],[-113.665,38.235],[-113.571,38.23],[-113.376,38.154],[-113.262,38.193],[-113.071,38.173],[-112.883,38.104],[-112.897,37.996],[-113.1,37.655],[-113.218,37.582],[-113.295,37.583],[-113.592,37.684],[-113.875,37.832],[-113.922,37.872],[-113.929,37.955],[-113.888,38.086],[-113.807,38.189],[-113.76,38.216],[-113.741,38.219]]]}},{"type":"Feature","properties":{"density":2},"geometry":{"type":"Polygon","coordinates":[[[-112.2,36.944],[-112.035,36.959],[-111.738,36.926],[-111.315,36.916],[-111.133,36.846],[-111.048,36.78],[-111.046,36.748],[-111.111,36.689],[-111.146,36.682],[-111.582,36.709],[-112.057,36.835],[-112.201,36.895],[-112.204,36.943],[-112.2,36.944]]]}},{"type":"Feature","properties":{"density":3},"geometry":{"type":"Polygon","coordinates":[[[-114.891,35.85],[-115.058,35.905],[-115.105,35.989],[-115.124,36.073],[-115.012,36.259],[-114.891,36.352],[-114.37,36.37],[-113.868,36.473],[-113.701,36.538],[-113.543,36.631],[-113.468,36.64],[-113.152,36.752],[-112.938,36.761],[-112.668,36.696],[-112.65,36.482],[-112.771,36.333],[-113.133,36.157],[-113.152,35.924],[-113.245,35.775],[-113.57,35.645],[-113.775,35.673],[-113.887,35.757],[-114.035,35.794],[-114.082,35.831],[-114.538,35.924],[-114.761,35.868],[-114.891,35.85]]]}},{"type":"Feature","properties":{"density":3},"geometry":{"type":"Polygon","coordinates":[[[-108.246,34.005],[-108.182,33.904],[-108.173,33.945],[-108.199,34.007],[-108.235,34.06],[-108.267,34.077],[-108.288,34.056],[-108.264,34.022],[-108.246,34.005]]]}},{"type":"Feature","properties":{"density":3},"geometry":{"type":"Polygon","coordinates":[[[-80.461,25.83],[-80.416,26.041],[-80.325,26.191],[-80.242,26.268],[-80.217,26.281],[-80.171,26.274],[-80.135,26.229],[-80.118,26.172],[-80.14,25.994],[-80.238,25.907],[-80.419,25.794],[-80.453,25.791],[-80.462,25.814],[-80.461,25.83]]]}},{"type":"Feature","properties":{"density":3},"geometry":{"type":"Polygon","coordinates":[[[-81.456,26.005],[-81.418,26.078],[-81.381,26.095],[-81.352,26.083],[-81.362,26.054],[-81.421,26.0],[-81.447,25.987],[-81.457,26.002],[-81.456,26.005]]]}},{"type":"Feature","properties":{"density":3},"geometry":{"type":"Polygon","coordinates":[[[-125.556,66.077],[-125.61,66.187],[-125.599,66.232],[-125.581,66.238],[-125.514,66.22],[-125.487,66.147],[-125.493,66.079],[-125.553,66.075],[-125.556,66.077]]]}},{"type":"Feature","properties":{"density":3},"geometry":{"type":"Polygon","coordinates":[[[-117.967,46.507],[-117.862,46.585],[-117.761,46.595],[-117.733,46.553],[-117.748,46.527],[-117.924,46.486],[-117.954,46.485],[-117.968,46.503],[-117.967,46.507]]]}},{"type":"Feature","properties":{"density":3},"geometry":{"type":"Polygon","coordinates":[[[-103.304,54.953],[-103.21,54.939],[-103.115,54.872],[-103.005,54.677],[-103.007,54.632],[-103.064,54.625],[-103.095,54.651],[-103.153,54.714],[-103.273,54.908],[-103.313,54.924],[-103.309,54.952],[-103.304,54.953]]]}},{"type":"Feature","properties":{"density":3},"geometry":{"type":"Polygon","coordinates":[[[-125.537,66.039],[-125.66,66.077],[-125.858,66.204],[-125.873,66.244],[-125.885,66.503],[-125.861,66.548],[-125.809,66.584],[-125.589,66.614],[-125.504,66.605],[-125.43,66.535],[-125.37,66.44],[-125.368,66.376],[-125.477,66.197],[-125.484,66.128],[-125.433,66.064],[-125.455,66.031],[-125.516,66.036],[-125.537,66.039]]]}},{"type":"Feature","properties":{"density":3},"geometry":{"type":"Polygon","coordinates":[[[-126.512,66.441],[-126.594,66.539],[-126.814,66.678],[-126.915,66.818],[-126.95,66.932],[-126.932,67.001],[-126.875,67.097],[-126.801,67.128],[-126.684,67.119],[-126.59,67.093],[-126.345,66.962],[-126.278,66.901],[-126.256,66.749],[-126.285,66.628],[-126.301,66.596],[-126.37,66.546],[-126.427,66.413],[-126.476,66.408],[-126.507,66.434],[-126.512,66.441]]]}},{"type":"Feature","properties":{"density":3},"geometry":{"type":"Polygon","coordinates":[[[-80.456,25.858],[-80.332,26.19],[-80.29,26.239],[-80.193,26.297],[-79.962,26.567],[-79.708,26.686],[-79.556,26.692],[-79.446,26.723],[-79.333,26.71],[-79.234,26.651],[-79.218,26.627],[-79.187,26.547],[-79.213,26.43],[-79.365,26.278],[-79.747,26.092],[-79.917,26.047],[-80.464,25.79],[-80.46,25.85],[-80.456,25.858]]]}},{"type":"Feature","properties":{"density":3},"geometry":{"type":"Polygon","coordinates":[[[-81.453,26.013],[-81.226,26.308],[-81.169,26.326],[-81.094,26.301],[-81.118,26.224],[-81.25,26.092],[-81.397,25.992],[-81.447,25.982],[-81.454,26.01],[-81.453,26.013]]]}},{"type":"Feature","properties":{"density":3},"geometry":{"type":"Polygon","coordinates":[[[-113.769,38.195],[-113.662,38.218],[-113.556,38.192],[-113.386,38.108],[-113.265,38.01],[-113.143,37.867],[-113.153,37.727],[-113.174,37.691],[-113.254,37.641],[-113.347,37.637],[-113.723,37.819],[-113.816,37.913],[-113.868,38.015],[-113.859,38.109],[-113.84,38.144],[-113.777,38.189],[-113.769,38.195]]]}}]}