{"type":"FeatureCollection","features":[{"type":"Feature","properties":{"density":1},"geometry":{"type":"Polygon","coordinates":[[[-86.425,32.912],[-86.49,32.925],[-86.64,33.013],[-87.049,33.191],[-87.174,33.296],[-87.336,33.501],[-87.355,33.542],[-87.342,33.596],[-87.312,33.614],[-87.272,33.611],[-87.108,33.537],[-87.029,33.483],[-86.864,33.303],[-86.718,33.218],[-86.443,33.021],[-86.319,32.96],[-86.295,32.93],[-86.312,32.904],[-86.425,32.912]]]}},{"type":"Feature","properties":{"density":1},"geometry":{"type":"Polygon","coordinates":[[[-87.939,32.549],[-88.048,32.578],[-88.23,32.66],[-88.26,32.717],[-88.245,32.772],[-88.177,32.778],[-88.092,32.726],[-87.923,32.597],[-87.918,32.561],[-87.939,32.549]]]}},{"type":"Feature","properties":{"density":1},"geometry":{"type":"Polygon","coordinates":[[[-87.875,33.169],[-87.919,33.176],[-88.047,33.243],[-88.106,33.318],[-88.106,33.349],[-88.07,33.36],[-87.913,33.265],[-87.858,33.216],[-87.854,33.181],[-87.875,33.169]]]}},{"type":"Feature","properties":{"density":1},"geometry":{"type":"Polygon","coordinates":[[[-86.594,31.196],[-86.658,31.271],[-86.7,31.294],[-86.77,31.298],[-86.826,31.263],[-86.818,31.22],[-86.678,31.181],[-86.631,31.153],[-86.593,31.162],[-86.594,31.196]]]}},{"type":"Feature","properties":{"density":1},"geometry":{"type":"Polygon","coordinates":[[[-87.436,31.527],[-87.752,31.782],[-87.875,31.81],[-87.886,31.77],[-87.842,31.708],[-87.656,31.576],[-87.47,31.477],[-87.436,31.485],[-87.436,31.527]]]}},{"type":"Feature","properties":{"density":1},"geometry":{"type":"Polygon","coordinates":[[[-89.103,31.361],[-89.446,31.499],[-89.487,31.544],[-89.508,31.589],[-89.504,31.617],[-89.46,31.638],[-89.415,31.619],[-89.27,31.506],[-89.045,31.395],[-89.052,31.368],[-89.103,31.361]]]}},{"type":"Feature","properties":{"density":1},"geometry":{"type":"Polygon","coordinates":[[[-82.26,33.768],[-82.559,33.666],[-82.578,33.644],[-82.563,33.534],[-82.488,33.512],[-82.442,33.522],[-82.253,33.618],[-82.232,33.636],[-82.214,33.702],[-82.223,33.737],[-82.26,33.768]]]}},{"type":"Feature","properties":{"density":1},"geometry":{"type":"Polygon","coordinates":[[[-90.86,36.114],[-90.772,36.342],[-90.617,36.516],[-90.568,36.546],[-90.547,36.513],[-90.56,36.465],[-90.649,36.348],[-90.77,36.129],[-90.83,36.096],[-90.86,36.099],[-90.86,36.114]]]}},{"type":"Feature","properties":{"density":1},"geometry":{"type":"Polygon","coordinates":[[[-90.668,36.2],[-90.67,36.269],[-90.606,36.373],[-90.558,36.424],[-90.499,36.449],[-90.478,36.443],[-90.489,36.396],[-90.529,36.339],[-90.646,36.196],[-90.668,36.2]]]}},{"type":"Feature","properties":{"density":1},"geometry":{"type":"Polygon","coordinates":[[[-91.045,35.447],[-90.998,35.574],[-90.954,35.645],[-90.926,35.679],[-90.894,35.681],[-90.886,35.651],[-90.986,35.426],[-91.024,35.424],[-91.045,35.447]]]}},{"type":"Feature","properties":{"density":1},"geometry":{"type":"Polygon","coordinates":[[[-85.253,33.606],[-85.328,33.744],[-85.326,33.801],[-85.304,33.805],[-85.266,33.774],[-85.215,33.66],[-85.212,33.597],[-85.232,33.588],[-85.253,33.606]]]}},{"type":"Feature","properties":{"density":1},"geometry":{"type":"Polygon","coordinates":[[[-119.589,37.761],[-119.724,38.0],[-119.716,38.071],[-119.689,38.094],[-119.578,38.114],[-119.234,38.155],[-119.078,38.236],[-119.041,38.307],[-119.028,38.361],[-119.072,38.519],[-119.119,38.617],[-119.227,38.698],[-119.551,38.82],[-119.882,38.867],[-120.432,38.81],[-120.955,38.688],[-121.029,38.634],[-121.157,38.594],[-121.215,38.499],[-121.272,38.121],[-121.252,37.507],[-121.147,37.048],[-121.033,36.947],[-120.962,36.916],[-120.766,37.007],[-120.671,37.072],[-120.533,37.129],[-120.175,37.433],[-120.034,37.504],[-119.902,37.531],[-119.591,37.541],[-119.535,37.597],[-119.556,37.697],[-119.589,37.761]]]}},{"type":"Feature","properties":{"density":1},"geometry":{"type":"Polygon","coordinates":[[[-120.232,42.411],[-120.196,42.442],[-120.012,42.497],[-119.853,42.627],[-119.824,42.612],[-119.793,42.54],[-119.812,42.414],[-119.758,42.315],[-119.761,42.233],[-119.784,42.221],[-119.833,42.241],[-119.942,42.378],[-120.073,42.393],[-120.202,42.349],[-120.231,42.373],[-120.232,42.411]]]}},{"type":"Feature","properties":{"density":1},"geometry":{"type":"Polygon","coordinates":[[[-118.678,44.169],[-118.532,44.084],[-118.379,44.03],[-118.219,43.934],[-117.979,43.718],[-117.965,43.664],[-117.985,43.53],[-118.075,43.431],[-118.258,43.388],[-118.355,43.389],[-118.421,43.401],[-118.477,43.454],[-118.49,43.559],[-118.752,43.898],[-118.773,43.96],[-118.787,44.012],[-118.783,44.101],[-118.75,44.154],[-118.678,44.169]]]}},{"type":"Feature","properties":{"density":1},"geometry":{"type":"Polygon","coordinates":[[[-119.223,44.169],[-119.193,44.255],[-119.1,44.343],[-119.022,44.372],[-118.889,44.387],[-118.844,44.357],[-118.833,44.291],[-118.847,44.183],[-118.893,44.111],[-118.931,44.087],[-118.979,44.081],[-119.129,44.129],[-119.192,44.124],[-119.223,44.169]]]}},{"type":"Feature","properties":{"density":1},"geometry":{"type":"Polygon","coordinates":[[[-120.299,44.449],[-120.194,44.47],[-120.034,44.375],[-120.013,44.301],[-120.052,44.21],[-120.091,44.182],[-120.123,44.181],[-120.144,44.191],[-120.144,44.238],[-120.163,44.274],[-120.328,44.334],[-120.332,44.389],[-120.299,44.449]]]}},{"type":"Feature","properties":{"density":1},"geometry":{"type":"Polygon","coordinates":[[[-121.244,43.029],[-121.255,43.074],[-121.3,43.093],[-121.405,43.101],[-121.528,43.066],[-121.557,43.038],[-121.555,43.021],[-121.495,43.013],[-121.274,43.012],[-121.244,43.029]]]}},{"type":"Feature","properties":{"density":1},"geometry":{"type":"Polygon","coordinates":[[[-121.747,42.663],[-121.667,42.636],[-121.676,42.571],[-121.714,42.57],[-121.76,42.6],[-121.77,42.652],[-121.747,42.663]]]}},{"type":"Feature","properties":{"density":1},"geometry":{"type":"Polygon","coordinates":[[[-121.587,42.985],[-121.693,43.005],[-121.762,42.994],[-121.793,42.961],[-121.783,42.874],[-121.751,42.846],[-121.711,42.841],[-121.601,42.874],[-121.553,42.93],[-121.558,42.961],[-121.587,42.985]]]}},{"type":"Feature","properties":{"density":1},"geometry":{"type":"Polygon","coordinates":[[[-111.097,34.688],[-111.057,34.675],[-111.001,34.72],[-110.973,34.716],[-110.956,34.656],[-110.972,34.556],[-111.0,34.543],[-111.026,34.593],[-111.041,34.596],[-111.185,34.543],[-111.231,34.556],[-111.22,34.588],[-111.144,34.64],[-111.129,34.685],[-111.097,34.688]]]}},{"type":"Feature","properties":{"density":1},"geometry":{"type":"Polygon","coordinates":[[[-93.138,37.46],[-92.394,38.101],[-90.857,39.357],[-89.447,40.254],[-88.012,41.227],[-86.346,41.714],[-85.295,41.868],[-82.937,41.817],[-81.605,41.638],[-79.478,41.048],[-78.17,40.638],[-75.813,39.228],[-72.737,37.768],[-70.994,37.358],[-70.149,37.409],[-68.816,37.332],[-67.458,37.229],[-66.509,36.845],[-66.125,36.435],[-65.945,35.487],[-66.15,34.436],[-66.566,33.224],[-67.056,32.096],[-67.466,31.231],[-68.191,30.494],[-69.118,30.308],[-71.776,30.646],[-73.79,30.513],[-75.271,30.285],[-77.048,30.342],[-78.426,30.312],[-80.243,29.357],[-80.831,28.902],[-82.544,27.782],[-83.928,26.962],[-84.971,26.457],[-85.663,26.047],[-86.576,24.989],[-87.32,23.348],[-87.593,23.12],[-88.004,22.976],[-89.127,23.045],[-90.039,22.923],[-90.592,22.612],[-90.985,22.151],[-91.327,21.468],[-91.938,21.077],[-92.318,20.204],[-92.576,19.483],[-92.581,18.982],[-92.343,18.551],[-92.13,18.102],[-92.009,17.627],[-91.974,17.083],[-91.903,16.564],[-91.669,16.195],[-91.433,15.709],[-91.411,15.268],[-91.714,14.911],[-92.383,14.585],[-93.423,14.57],[-94.478,14.82],[-95.147,15.078],[-95.663,15.898],[-96.05,16.787],[-96.195,17.698],[-96.422,18.552],[-96.401,19.4],[-96.478,20.81],[-96.478,21.835],[-96.35,22.758],[-96.145,23.629],[-95.35,25.397],[-95.017,26.32],[-94.838,27.115],[-94.839,27.988],[-95.112,28.518],[-95.676,28.62],[-96.086,28.364],[-96.616,28.415],[-96.975,28.689],[-97.009,29.253],[-96.633,30.09],[-95.591,31.064],[-94.737,31.901],[-93.985,32.892],[-93.633,33.522],[-93.633,36.264],[-93.428,37.084],[-93.138,37.46]]]}},{"type":"Feature","properties":{"density":1},"geometry":{"type":"Polygon","coordinates":[[[-111.337,29.091],[-112.191,29.347],[-114.088,29.86],[-115.267,29.74],[-115.848,29.587],[-117.044,29.45],[-117.864,29.262],[-118.376,28.493],[-118.684,27.673],[-118.547,25.896],[-118.445,25.332],[-118.411,24.837],[-118.479,24.017],[-118.394,23.248],[-118.206,22.701],[-117.556,22.069],[-116.685,21.966],[-115.591,21.966],[-114.84,21.949],[-113.456,22.018],[-112.499,22.137],[-111.73,22.53],[-110.585,23.607],[-110.397,24.222],[-110.209,24.768],[-109.728,25.11],[-109.318,25.327],[-108.908,25.543],[-108.418,25.702],[-108.156,25.85],[-107.997,26.021],[-107.906,26.317],[-108.088,26.796],[-108.76,27.73],[-109.227,28.208],[-109.683,28.573],[-110.799,29.006],[-111.22,29.097],[-111.337,29.091]]]}},{"type":"Feature","properties":{"density":1},"geometry":{"type":"Polygon","coordinates":[[[-121.311,46.038],[-121.222,46.053],[-121.199,46.036],[-121.2,46.017],[-121.266,45.943],[-121.323,45.92],[-121.377,45.921],[-121.386,45.974],[-121.369,46.009],[-121.311,46.038]]]}},{"type":"Feature","properties":{"density":1},"geometry":{"type":"Polygon","coordinates":[[[-87.696,32.013],[-87.712,32.014],[-87.718,31.989],[-87.691,31.937],[-87.696,32.013]]]}},{"type":"Feature","properties":{"density":1},"geometry":{"type":"Polygon","coordinates":[[[-87.354,33.036],[-87.419,32.983],[-87.431,32.921],[-87.421,32.836],[-87.369,32.705],[-87.297,32.612],[-87.26,32.599],[-87.227,32.638],[-87.227,32.696],[-87.314,32.906],[-87.307,33.021],[-87.326,33.038],[-87.354,33.036]]]}},{"type":"Feature","properties":{"density":1},"geometry":{"type":"Polygon","coordinates":[[[-87.917,33.572],[-87.938,33.587],[-87.964,33.555],[-87.952,33.327],[-87.922,33.242],[-87.88,33.2],[-87.857,33.221],[-87.856,33.278],[-87.883,33.371],[-87.89,33.527],[-87.917,33.572]]]}},{"type":"Feature","properties":{"density":1},"geometry":{"type":"Polygon","coordinates":[[[-87.231,33.871],[-87.292,33.93],[-87.344,33.945],[-87.38,33.916],[-87.389,33.824],[-87.299,33.491],[-87.256,33.408],[-87.123,33.243],[-87.049,33.18],[-86.907,33.099],[-86.36,32.897],[-86.313,32.886],[-86.3,32.897],[-86.286,32.926],[-86.293,32.955],[-86.453,33.099],[-86.599,33.322],[-86.878,33.446],[-86.966,33.502],[-87.04,33.583],[-87.13,33.745],[-87.231,33.871]]]}},{"type":"Feature","properties":{"density":1},"geometry":{"type":"Polygon","coordinates":[[[-86.605,33.238],[-86.642,33.247],[-86.647,33.218],[-86.582,33.132],[-86.487,33.039],[-86.429,33.004],[-86.399,33.003],[-86.407,33.036],[-86.605,33.238]]]}},{"type":"Feature","properties":{"density":1},"geometry":{"type":"Polygon","coordinates":[[[-89.31,31.722],[-89.363,31.754],[-89.385,31.752],[-89.409,31.736],[-89.423,31.695],[-89.414,31.643],[-89.352,31.536],[-89.24,31.398],[-89.183,31.362],[-89.082,31.349],[-89.055,31.367],[-89.051,31.401],[-89.07,31.436],[-89.255,31.626],[-89.31,31.722]]]}},{"type":"Feature","properties":{"density":1},"geometry":{"type":"Polygon","coordinates":[[[-85.325,33.831],[-85.358,33.844],[-85.351,33.771],[-85.273,33.646],[-85.217,33.615],[-85.325,33.831]]]}},{"type":"Feature","properties":{"density":1},"geometry":{"type":"Polygon","coordinates":[[[-82.268,33.724],[-82.28,33.716],[-82.259,33.698],[-82.268,33.724]]]}},{"type":"Feature","properties":{"density":1},"geometry":{"type":"Polygon","coordinates":[[[-79.445,35.002],[-79.481,35.002],[-79.533,34.958],[-79.549,34.916],[-79.532,34.893],[-79.495,34.886],[-79.44,34.924],[-79.42,34.98],[-79.445,35.002]]]}},{"type":"Feature","properties":{"density":1},"geometry":{"type":"Polygon","coordinates":[[[-79.814,36.441],[-79.81,36.413],[-79.768,36.417],[-79.645,36.466],[-79.634,36.503],[-79.657,36.524],[-79.699,36.523],[-79.77,36.458],[-79.814,36.441]]]}},{"type":"Feature","properties":{"density":1},"geometry":{"type":"Polygon","coordinates":[[[-77.973,36.93],[-77.989,36.892],[-77.968,36.87],[-77.835,36.91],[-77.541,37.055],[-77.503,37.082],[-77.501,37.118],[-77.537,37.138],[-77.604,37.136],[-77.679,37.106],[-77.973,36.93]]]}},{"type":"Feature","properties":{"density":1},"geometry":{"type":"Polygon","coordinates":[[[-89.564,37.356],[-89.663,37.232],[-89.705,37.149],[-89.714,37.101],[-89.689,37.052],[-89.641,37.053],[-89.597,37.109],[-89.522,37.269],[-89.486,37.38],[-89.492,37.409],[-89.513,37.409],[-89.564,37.356]]]}},{"type":"Feature","properties":{"density":1},"geometry":{"type":"Polygon","coordinates":[[[-89.276,37.553],[-89.384,37.427],[-89.395,37.332],[-89.342,37.352],[-89.279,37.439],[-89.233,37.533],[-89.236,37.565],[-89.276,37.553]]]}},{"type":"Feature","properties":{"density":1},"geometry":{"type":"Polygon","coordinates":[[[-90.674,36.242],[-90.689,36.209],[-90.662,36.167],[-90.597,36.236],[-90.446,36.581],[-90.36,36.671],[-90.344,36.716],[-90.363,36.774],[-90.414,36.762],[-90.473,36.692],[-90.674,36.242]]]}},{"type":"Feature","properties":{"density":1},"geometry":{"type":"Polygon","coordinates":[[[-90.588,36.623],[-90.603,36.575],[-90.594,36.56],[-90.569,36.56],[-90.462,36.681],[-90.38,36.872],[-90.305,36.992],[-90.303,37.038],[-90.324,37.068],[-90.378,37.071],[-90.455,36.962],[-90.588,36.623]]]}},{"type":"Feature","properties":{"density":1},"geometry":{"type":"Polygon","coordinates":[[[-90.857,36.153],[-90.87,36.041],[-90.858,36.023],[-90.834,36.024],[-90.786,36.105],[-90.734,36.3],[-90.563,36.588],[-90.555,36.641],[-90.576,36.684],[-90.617,36.672],[-90.687,36.567],[-90.821,36.287],[-90.857,36.153]]]}},{"type":"Feature","properties":{"density":1},"geometry":{"type":"Polygon","coordinates":[[[-90.896,35.912],[-90.987,35.845],[-91.041,35.737],[-91.115,35.536],[-91.127,35.471],[-91.107,35.414],[-91.068,35.413],[-91.032,35.453],[-90.93,35.741],[-90.834,35.89],[-90.849,35.941],[-90.896,35.912]]]}},{"type":"Feature","properties":{"density":1},"geometry":{"type":"Polygon","coordinates":[[[-89.499,37.138],[-89.54,37.111],[-89.622,37.003],[-89.627,36.987],[-89.61,36.973],[-89.559,36.991],[-89.445,37.116],[-89.45,37.14],[-89.499,37.138]]]}},{"type":"Feature","properties":{"density":1},"geometry":{"type":"Polygon","coordinates":[[[-89.316,36.945],[-89.396,36.875],[-89.489,36.71],[-89.489,36.674],[-89.439,36.674],[-89.393,36.714],[-89.307,36.863],[-89.247,36.935],[-89.255,36.959],[-89.316,36.945]]]}},{"type":"Feature","properties":{"density":1},"geometry":{"type":"Polygon","coordinates":[[[-90.588,36.158],[-90.604,36.196],[-90.618,36.192],[-90.667,36.131],[-90.721,35.91],[-90.798,35.76],[-90.8,35.679],[-90.777,35.652],[-90.746,35.649],[-90.674,35.692],[-90.624,35.769],[-90.591,35.897],[-90.588,36.158]]]}},{"type":"Feature","properties":{"density":1},"geometry":{"type":"Polygon","coordinates":[[[-91.782,35.211],[-91.885,35.112],[-92.034,34.788],[-92.056,34.686],[-92.016,34.592],[-91.989,34.59],[-91.951,34.617],[-91.847,34.765],[-91.732,35.035],[-91.627,35.19],[-91.609,35.235],[-91.615,35.319],[-91.654,35.332],[-91.685,35.312],[-91.782,35.211]]]}},{"type":"Feature","properties":{"density":1},"geometry":{"type":"Polygon","coordinates":[[[-91.721,35.024],[-91.732,34.936],[-91.714,34.828],[-91.701,34.808],[-91.651,34.806],[-91.615,34.83],[-91.559,34.905],[-91.458,35.168],[-91.321,35.287],[-91.28,35.368],[-91.296,35.458],[-91.327,35.503],[-91.372,35.53],[-91.42,35.535],[-91.492,35.481],[-91.566,35.334],[-91.681,35.168],[-91.712,35.105],[-91.721,35.024]]]}},{"type":"Feature","properties":{"density":1},"geometry":{"type":"Polygon","coordinates":[[[-91.718,30.934],[-91.775,30.977],[-91.795,30.968],[-91.813,30.932],[-91.808,30.849],[-91.725,30.707],[-91.669,30.68],[-91.635,30.711],[-91.626,30.781],[-91.671,30.882],[-91.718,30.934]]]}},{"type":"Feature","properties":{"density":1},"geometry":{"type":"Polygon","coordinates":[[[-112.562,42.281],[-112.59,42.278],[-112.59,42.247],[-112.557,42.211],[-112.521,42.202],[-112.509,42.233],[-112.562,42.281]]]}},{"type":"Feature","properties":{"density":1},"geometry":{"type":"Polygon","coordinates":[[[-110.811,34.835],[-110.937,34.792],[-111.02,34.7],[-111.171,34.612],[-111.187,34.569],[-111.164,34.565],[-110.995,34.63],[-110.82,34.763],[-110.75,34.794],[-110.725,34.832],[-110.725,34.877],[-110.764,34.871],[-110.811,34.835]]]}},{"type":"Feature","properties":{"density":1},"geometry":{"type":"Polygon","coordinates":[[[-119.385,39.553],[-119.481,39.543],[-119.572,39.512],[-119.845,39.345],[-119.982,39.305],[-120.255,39.28],[-120.939,39.269],[-121.07,39.244],[-121.303,39.163],[-121.41,39.102],[-121.506,39.006],[-121.556,38.915],[-121.567,38.662],[-121.546,38.546],[-121.526,38.12],[-121.48,37.948],[-121.42,37.837],[-121.344,37.746],[-121.172,37.614],[-121.111,37.533],[-121.055,37.32],[-120.969,37.163],[-120.853,37.103],[-120.635,37.098],[-120.427,36.991],[-120.24,36.951],[-120.083,37.047],[-119.81,37.462],[-119.754,37.493],[-119.617,37.482],[-119.542,37.508],[-119.506,37.548],[-119.461,37.7],[-119.466,37.832],[-119.491,37.913],[-119.567,38.004],[-119.79,38.13],[-119.891,38.257],[-120.048,38.561],[-120.038,38.642],[-119.962,38.794],[-119.891,38.91],[-119.759,39.052],[-119.623,39.153],[-119.516,39.194],[-119.304,39.239],[-119.218,39.285],[-119.167,39.35],[-119.157,39.421],[-119.192,39.472],[-119.309,39.553],[-119.385,39.553]]]}},{"type":"Feature","properties":{"density":1},"geometry":{"type":"Polygon","coordinates":[[[-121.759,42.66],[-121.801,42.664],[-121.786,42.61],[-121.741,42.585],[-121.69,42.597],[-121.684,42.627],[-121.759,42.66]]]}},{"type":"Feature","properties":{"density":1},"geometry":{"type":"Polygon","coordinates":[[[-121.583,42.98],[-121.673,43.005],[-121.754,43.003],[-121.871,42.953],[-121.92,42.892],[-121.814,42.847],[-121.619,42.877],[-121.544,42.937],[-121.56,42.971],[-121.583,42.98]]]}},{"type":"Feature","properties":{"density":1},"geometry":{"type":"Polygon","coordinates":[[[-121.166,46.195],[-121.227,46.181],[-121.386,46.073],[-121.425,45.936],[-121.422,45.86],[-121.402,45.848],[-121.31,45.866],[-121.211,45.936],[-121.094,46.107],[-121.11,46.184],[-121.13,46.199],[-121.166,46.195]]]}},{"type":"Feature","properties":{"density":1},"geometry":{"type":"Polygon","coordinates":[[[-120.357,42.626],[-120.424,42.613],[-120.429,42.554],[-120.402,42.489],[-120.336,42.406],[-120.305,42.329],[-120.253,42.293],[-120.219,42.291],[-120.055,42.332],[-119.918,42.32],[-119.832,42.338],[-119.736,42.408],[-119.664,42.595],[-119.679,42.656],[-119.736,42.705],[-119.769,42.712],[-119.832,42.705],[-120.048,42.62],[-120.233,42.608],[-120.357,42.626]]]}},{"type":"Feature","properties":{"density":1},"geometry":{"type":"Polygon","coordinates":[[[-120.345,44.544],[-120.387,44.535],[-120.421,44.468],[-120.502,44.414],[-120.509,44.375],[-120.437,44.308],[-120.32,44.27],[-120.246,44.128],[-120.21,44.103],[-120.099,44.094],[-120.041,44.144],[-119.962,44.27],[-119.955,44.339],[-119.973,44.375],[-120.194,44.528],[-120.25,44.544],[-120.345,44.544]]]}},{"type":"Feature","properties":{"density":1},"geometry":{"type":"Polygon","coordinates":[[[-118.69,44.194],[-118.749,44.196],[-118.798,44.162],[-118.823,44.068],[-118.827,43.962],[-118.803,43.809],[-118.654,43.51],[-118.587,43.458],[-118.494,43.447],[-118.409,43.397],[-118.267,43.352],[-118.123,43.357],[-117.988,43.422],[-117.912,43.51],[-117.873,43.597],[-117.871,43.645],[-117.918,43.737],[-118.083,43.84],[-118.281,44.02],[-118.535,44.11],[-118.69,44.194]]]}},{"type":"Feature","properties":{"density":1},"geometry":{"type":"Polygon","coordinates":[[[-119.295,44.28],[-119.307,44.237],[-119.284,44.138],[-119.228,44.07],[-119.19,44.059],[-119.142,44.061],[-119.073,44.102],[-118.965,44.12],[-118.899,44.174],[-118.888,44.208],[-118.935,44.356],[-118.956,44.383],[-119.023,44.406],[-119.091,44.401],[-119.295,44.28]]]}},{"type":"Feature","properties":{"density":1},"geometry":{"type":"Polygon","coordinates":[[[-92.769,18.258],[-92.868,18.314],[-92.92,18.325],[-92.992,18.305],[-93.005,18.276],[-92.998,18.183],[-92.974,18.134],[-92.879,18.026],[-92.85,17.945],[-92.866,17.859],[-92.938,17.772],[-92.933,17.722],[-92.845,17.704],[-92.735,17.742],[-92.629,17.83],[-92.575,17.956],[-92.562,18.039],[-92.573,18.071],[-92.627,18.138],[-92.769,18.258]]]}},{"type":"Feature","properties":{"density":1},"geometry":{"type":"Polygon","coordinates":[[[-92.616,18.969],[-92.645,18.982],[-92.654,18.957],[-92.575,18.807],[-92.501,18.735],[-92.434,18.629],[-92.402,18.6],[-92.337,18.586],[-92.319,18.615],[-92.368,18.717],[-92.47,18.829],[-92.544,18.939],[-92.616,18.969]]]}},{"type":"Feature","properties":{"density":1},"geometry":{"type":"Polygon","coordinates":[[[-94.792,18.472],[-94.812,18.476],[-94.837,18.452],[-94.846,18.4],[-94.824,18.33],[-94.729,18.211],[-94.623,18.123],[-94.574,17.986],[-94.551,17.961],[-94.52,17.952],[-94.488,17.966],[-94.457,18.069],[-94.477,18.195],[-94.599,18.337],[-94.792,18.472]]]}},{"type":"Feature","properties":{"density":1},"geometry":{"type":"Polygon","coordinates":[[[-94.389,18.364],[-94.437,18.472],[-94.509,18.573],[-94.54,18.598],[-94.569,18.58],[-94.617,18.456],[-94.599,18.395],[-94.529,18.321],[-94.477,18.2],[-94.392,18.098],[-94.344,18.085],[-94.333,18.157],[-94.389,18.364]]]}},{"type":"Feature","properties":{"density":1},"geometry":{"type":"Polygon","coordinates":[[[-82.125,30.225],[-82.152,30.236],[-82.17,30.221],[-82.172,30.156],[-82.06,29.926],[-82.008,29.885],[-82.008,29.965],[-82.125,30.225]]]}},{"type":"Feature","properties":{"density":1},"geometry":{"type":"Polygon","coordinates":[[[-85.743,33.13],[-85.788,33.157],[-85.829,33.142],[-85.844,33.048],[-85.918,32.921],[-85.938,32.837],[-85.909,32.769],[-85.858,32.716],[-85.721,32.642],[-85.669,32.593],[-85.612,32.626],[-85.594,32.691],[-85.645,32.827],[-85.657,32.991],[-85.71,33.101],[-85.743,33.13]]]}},{"type":"Feature","properties":{"density":1},"geometry":{"type":"Polygon","coordinates":[[[-85.059,33.748],[-85.1,33.798],[-85.136,33.813],[-85.218,33.798],[-85.244,33.697],[-85.21,33.563],[-85.102,33.443],[-84.97,33.378],[-84.878,33.308],[-84.819,33.304],[-84.797,33.317],[-84.795,33.378],[-84.852,33.483],[-84.88,33.597],[-85.059,33.748]]]}},{"type":"Feature","properties":{"density":1},"geometry":{"type":"Polygon","coordinates":[[[-86.389,32.142],[-86.432,32.185],[-86.48,32.197],[-86.48,32.148],[-86.438,32.078],[-86.306,31.999],[-86.297,32.026],[-86.389,32.142]]]}},{"type":"Feature","properties":{"density":1},"geometry":{"type":"Polygon","coordinates":[[[-88.915,33.558],[-88.893,33.497],[-88.856,33.497],[-88.828,33.55],[-88.821,33.607],[-88.84,33.839],[-88.858,33.877],[-88.899,33.908],[-88.937,33.851],[-88.915,33.558]]]}},{"type":"Feature","properties":{"density":1},"geometry":{"type":"Polygon","coordinates":[[[-81.448,35.993],[-81.661,35.855],[-81.681,35.798],[-81.657,35.751],[-81.608,35.749],[-81.494,35.782],[-81.401,35.897],[-81.328,35.932],[-81.281,35.987],[-81.297,36.03],[-81.317,36.036],[-81.448,35.993]]]}},{"type":"Feature","properties":{"density":1},"geometry":{"type":"Polygon","coordinates":[[[-82.314,33.899],[-82.391,33.92],[-82.421,33.909],[-82.43,33.881],[-82.419,33.848],[-82.369,33.796],[-82.328,33.651],[-82.277,33.645],[-82.24,33.7],[-82.228,33.781],[-82.257,33.857],[-82.314,33.899]]]}},{"type":"Feature","properties":{"density":1},"geometry":{"type":"Polygon","coordinates":[[[-82.069,33.207],[-82.109,33.183],[-82.117,33.142],[-82.089,33.069],[-82.081,32.989],[-82.054,32.957],[-82.014,33.01],[-82.01,33.097],[-82.036,33.174],[-82.069,33.207]]]}},{"type":"Feature","properties":{"density":1},"geometry":{"type":"Polygon","coordinates":[[[-79.526,35.577],[-79.782,35.479],[-79.854,35.43],[-79.984,35.284],[-79.996,35.245],[-79.984,35.221],[-79.927,35.215],[-79.821,35.249],[-79.762,35.292],[-79.652,35.422],[-79.469,35.471],[-79.414,35.505],[-79.398,35.56],[-79.408,35.585],[-79.526,35.577]]]}},{"type":"Feature","properties":{"density":1},"geometry":{"type":"Polygon","coordinates":[[[-79.518,34.985],[-79.547,34.908],[-79.522,34.861],[-79.457,34.869],[-79.386,34.926],[-79.303,35.052],[-79.193,35.131],[-79.179,35.233],[-79.205,35.276],[-79.282,35.28],[-79.307,35.259],[-79.486,35.044],[-79.518,34.985]]]}},{"type":"Feature","properties":{"density":1},"geometry":{"type":"Polygon","coordinates":[[[-79.233,36.821],[-79.717,36.583],[-79.794,36.526],[-79.833,36.463],[-79.831,36.424],[-79.778,36.392],[-79.67,36.408],[-79.524,36.502],[-79.316,36.554],[-79.164,36.624],[-79.109,36.697],[-79.097,36.766],[-79.123,36.809],[-79.233,36.821]]]}},{"type":"Feature","properties":{"density":1},"geometry":{"type":"Polygon","coordinates":[[[-80.691,36.85],[-80.726,36.818],[-80.733,36.769],[-80.676,36.752],[-80.525,36.782],[-80.283,36.786],[-80.214,36.82],[-80.206,36.845],[-80.21,36.873],[-80.239,36.895],[-80.307,36.91],[-80.456,36.903],[-80.691,36.85]]]}},{"type":"Feature","properties":{"density":1},"geometry":{"type":"Polygon","coordinates":[[[-77.978,36.932],[-77.988,36.914],[-77.978,36.873],[-77.897,36.861],[-77.604,36.995],[-77.096,37.373],[-77.033,37.463],[-77.025,37.542],[-77.057,37.567],[-77.092,37.569],[-77.199,37.526],[-77.388,37.361],[-77.978,36.932]]]}},{"type":"Feature","properties":{"density":1},"geometry":{"type":"Polygon","coordinates":[[[-89.247,37.17],[-89.306,37.168],[-89.369,37.12],[-89.452,36.886],[-89.562,36.709],[-89.58,36.626],[-89.566,36.599],[-89.531,36.581],[-89.464,36.609],[-89.298,36.884],[-89.182,36.998],[-89.155,37.046],[-89.149,37.105],[-89.165,37.146],[-89.206,37.183],[-89.247,37.17]]]}},{"type":"Feature","properties":{"density":1},"geometry":{"type":"Polygon","coordinates":[[[-89.723,37.135],[-89.736,37.068],[-89.714,37.046],[-89.675,37.043],[-89.617,37.138],[-89.513,37.455],[-89.498,37.568],[-89.528,37.62],[-89.559,37.595],[-89.617,37.486],[-89.723,37.135]]]}},{"type":"Feature","properties":{"density":1},"geometry":{"type":"Polygon","coordinates":[[[-90.737,36.137],[-90.727,36.055],[-90.703,36.025],[-90.666,36.019],[-90.569,36.126],[-90.54,36.183],[-90.463,36.488],[-90.41,36.618],[-90.268,36.771],[-90.19,36.893],[-90.194,36.964],[-90.225,37.013],[-90.264,37.025],[-90.314,36.999],[-90.483,36.808],[-90.571,36.661],[-90.693,36.401],[-90.737,36.22],[-90.737,36.137]]]}},{"type":"Feature","properties":{"density":1},"geometry":{"type":"Polygon","coordinates":[[[-90.719,36.436],[-90.737,36.36],[-90.731,36.342],[-90.695,36.342],[-90.63,36.397],[-90.56,36.509],[-90.457,36.775],[-90.325,37.003],[-90.306,37.066],[-90.314,37.113],[-90.343,37.155],[-90.373,37.155],[-90.416,37.123],[-90.571,36.836],[-90.695,36.543],[-90.719,36.436]]]}},{"type":"Feature","properties":{"density":1},"geometry":{"type":"Polygon","coordinates":[[[-91.206,34.433],[-91.271,34.382],[-91.306,34.299],[-91.32,34.106],[-91.395,33.888],[-91.385,33.725],[-91.33,33.648],[-91.285,33.618],[-91.186,33.634],[-91.125,33.715],[-91.092,34.026],[-90.948,34.315],[-90.915,34.429],[-90.958,34.522],[-91.035,34.543],[-91.076,34.533],[-91.206,34.433]]]}},{"type":"Feature","properties":{"density":1},"geometry":{"type":"Polygon","coordinates":[[[-89.564,33.713],[-89.605,33.718],[-89.733,33.626],[-89.77,33.571],[-89.779,33.526],[-89.779,33.393],[-89.706,33.032],[-89.719,32.835],[-89.738,32.762],[-89.738,32.579],[-89.715,32.533],[-89.66,32.524],[-89.605,32.556],[-89.504,32.666],[-89.472,32.748],[-89.449,33.173],[-89.408,33.334],[-89.404,33.411],[-89.431,33.535],[-89.513,33.681],[-89.564,33.713]]]}},{"type":"Feature","properties":{"density":1},"geometry":{"type":"Polygon","coordinates":[[[-112.846,41.184],[-112.913,41.2],[-112.942,41.166],[-112.935,41.123],[-112.904,41.107],[-112.843,41.123],[-112.829,41.149],[-112.846,41.184]]]}},{"type":"Feature","properties":{"density":1},"geometry":{"type":"Polygon","coordinates":[[[-120.996,39.527],[-121.39,39.376],[-121.596,39.266],[-121.664,39.206],[-121.765,38.982],[-121.866,38.827],[-121.884,38.754],[-121.879,38.58],[-121.783,38.346],[-121.358,38.127],[-121.239,38.054],[-121.134,37.93],[-121.024,37.889],[-120.919,37.939],[-120.795,38.282],[-120.722,38.392],[-120.585,38.452],[-120.402,38.456],[-120.31,38.438],[-120.246,38.397],[-120.063,38.154],[-119.834,37.738],[-119.734,37.592],[-119.638,37.523],[-119.583,37.509],[-119.523,37.518],[-119.459,37.587],[-119.423,37.711],[-119.4,37.871],[-119.423,38.127],[-119.578,38.41],[-119.642,38.589],[-119.775,38.804],[-119.844,38.955],[-119.857,39.019],[-119.834,39.11],[-119.78,39.216],[-119.693,39.316],[-119.665,39.412],[-119.697,39.522],[-119.729,39.568],[-119.839,39.641],[-119.935,39.664],[-120.406,39.664],[-120.635,39.618],[-120.708,39.577],[-120.996,39.527]]]}},{"type":"Feature","properties":{"density":1},"geometry":{"type":"Polygon","coordinates":[[[-120.302,38.421],[-120.334,38.424],[-120.329,38.373],[-120.295,38.284],[-120.258,38.237],[-120.24,38.266],[-120.244,38.292],[-120.302,38.421]]]}},{"type":"Feature","properties":{"density":1},"geometry":{"type":"Polygon","coordinates":[[[-122.559,40.582],[-122.583,40.59],[-122.63,40.512],[-122.614,40.458],[-122.564,40.423],[-122.511,40.445],[-122.496,40.481],[-122.505,40.536],[-122.559,40.582]]]}},{"type":"Feature","properties":{"density":1},"geometry":{"type":"Polygon","coordinates":[[[-123.992,40.665],[-124.017,40.632],[-124.033,40.535],[-124.031,40.471],[-123.999,40.379],[-123.859,40.257],[-123.772,40.157],[-123.722,40.143],[-123.696,40.153],[-123.672,40.185],[-123.662,40.291],[-123.704,40.401],[-123.793,40.507],[-123.847,40.626],[-123.885,40.67],[-123.943,40.686],[-123.992,40.665]]]}},{"type":"Feature","properties":{"density":1},"geometry":{"type":"Polygon","coordinates":[[[-121.741,42.646],[-121.777,42.608],[-121.765,42.568],[-121.739,42.55],[-121.703,42.572],[-121.689,42.632],[-121.705,42.654],[-121.741,42.646]]]}},{"type":"Feature","properties":{"density":1},"geometry":{"type":"Polygon","coordinates":[[[-121.304,43.163],[-121.339,43.165],[-121.391,43.063],[-121.361,43.021],[-121.328,43.009],[-121.256,43.015],[-121.22,43.063],[-121.22,43.111],[-121.26,43.151],[-121.304,43.163]]]}},{"type":"Feature","properties":{"density":1},"geometry":{"type":"Polygon","coordinates":[[[-120.395,42.969],[-120.425,42.9],[-120.434,42.816],[-120.434,42.744],[-120.398,42.633],[-120.299,42.44],[-120.236,42.389],[-120.2,42.377],[-120.173,42.386],[-120.155,42.422],[-120.161,42.458],[-120.203,42.551],[-120.221,42.657],[-120.185,42.906],[-120.191,42.978],[-120.233,43.05],[-120.263,43.053],[-120.395,42.969]]]}},{"type":"Feature","properties":{"density":1},"geometry":{"type":"Polygon","coordinates":[[[-120.488,44.58],[-120.527,44.526],[-120.521,44.433],[-120.497,44.391],[-120.419,44.325],[-120.272,44.28],[-120.188,44.295],[-120.116,44.343],[-120.104,44.427],[-120.119,44.562],[-120.14,44.622],[-120.182,44.658],[-120.23,44.677],[-120.278,44.674],[-120.488,44.58]]]}},{"type":"Feature","properties":{"density":1},"geometry":{"type":"Polygon","coordinates":[[[-119.184,44.313],[-119.236,44.321],[-119.268,44.249],[-119.248,44.191],[-119.168,44.155],[-119.136,44.231],[-119.154,44.283],[-119.184,44.313]]]}},{"type":"Feature","properties":{"density":1},"geometry":{"type":"Polygon","coordinates":[[[-118.515,44.367],[-118.641,44.315],[-118.737,44.255],[-118.827,44.167],[-118.832,44.127],[-118.785,44.079],[-118.725,44.065],[-118.687,44.073],[-118.601,44.165],[-118.431,44.221],[-118.341,44.295],[-118.335,44.327],[-118.359,44.367],[-118.515,44.367]]]}},{"type":"Feature","properties":{"density":1},"geometry":{"type":"Polygon","coordinates":[[[-121.373,46.229],[-121.423,46.163],[-121.421,46.111],[-121.395,46.029],[-121.355,45.971],[-121.289,45.959],[-121.267,45.973],[-121.243,46.039],[-121.213,46.219],[-121.219,46.257],[-121.279,46.283],[-121.373,46.229]]]}},{"type":"Feature","properties":{"density":1},"geometry":{"type":"Polygon","coordinates":[[[-124.252,55.453],[-124.321,55.398],[-124.45,55.235],[-124.472,55.184],[-124.459,55.136],[-124.4,55.108],[-124.362,55.116],[-124.312,55.246],[-124.178,55.362],[-124.153,55.428],[-124.168,55.463],[-124.19,55.475],[-124.252,55.453]]]}},{"type":"Feature","properties":{"density":1},"geometry":{"type":"Polygon","coordinates":[[[-93.056,18.993],[-93.204,18.995],[-93.379,18.869],[-93.406,18.775],[-93.394,18.661],[-93.304,18.447],[-93.249,18.396],[-93.157,18.362],[-93.076,18.39],[-93.06,18.445],[-93.133,18.639],[-93.135,18.686],[-93.108,18.732],[-93.064,18.757],[-92.968,18.759],[-92.858,18.698],[-92.777,18.726],[-92.765,18.773],[-92.771,18.836],[-92.803,18.899],[-92.86,18.946],[-92.921,18.971],[-93.056,18.993]]]}},{"type":"Feature","properties":{"density":1},"geometry":{"type":"Polygon","coordinates":[[[-93.041,18.18],[-93.1,18.164],[-93.155,18.109],[-93.147,18.058],[-93.1,18.062],[-93.024,18.112],[-93.005,18.153],[-93.041,18.18]]]}},{"type":"Feature","properties":{"density":1},"geometry":{"type":"Polygon","coordinates":[[[-92.623,18.229],[-92.687,18.213],[-92.696,18.176],[-92.733,18.153],[-92.733,18.135],[-92.631,18.027],[-92.6,18.019],[-92.575,18.025],[-92.545,18.065],[-92.535,18.139],[-92.575,18.204],[-92.623,18.229]]]}},{"type":"Feature","properties":{"density":1},"geometry":{"type":"Polygon","coordinates":[[[-92.474,17.957],[-92.525,17.922],[-92.526,17.866],[-92.431,17.803],[-92.339,17.686],[-92.302,17.665],[-92.271,17.67],[-92.242,17.728],[-92.25,17.846],[-92.338,17.917],[-92.474,17.957]]]}},{"type":"Feature","properties":{"density":1},"geometry":{"type":"Polygon","coordinates":[[[-82.272,30.715],[-82.29,30.733],[-82.319,30.727],[-82.34,30.671],[-82.252,30.373],[-82.231,30.188],[-82.152,30.021],[-81.988,29.866],[-81.983,29.939],[-82.056,30.083],[-82.12,30.259],[-82.149,30.513],[-82.272,30.715]]]}},{"type":"Feature","properties":{"density":1},"geometry":{"type":"Polygon","coordinates":[[[-85.519,32.464],[-85.609,32.503],[-85.648,32.499],[-85.701,32.425],[-85.703,32.052],[-85.773,31.715],[-85.775,31.67],[-85.744,31.605],[-85.716,31.601],[-85.693,31.617],[-85.636,31.685],[-85.49,31.992],[-85.427,32.335],[-85.466,32.427],[-85.519,32.464]]]}},{"type":"Feature","properties":{"density":1},"geometry":{"type":"Polygon","coordinates":[[[-85.127,32.162],[-85.236,32.197],[-85.314,32.242],[-85.402,32.335],[-85.49,32.39],[-85.529,32.405],[-85.744,32.405],[-85.81,32.433],[-85.847,32.493],[-85.82,32.657],[-85.644,32.796],[-85.595,32.876],[-85.527,33.096],[-85.48,33.196],[-85.41,33.28],[-85.349,33.315],[-85.254,33.315],[-85.203,33.295],[-85.158,33.258],[-85.133,33.2],[-85.14,32.901],[-85.119,32.745],[-85.176,32.595],[-85.181,32.528],[-85.146,32.398],[-85.051,32.275],[-85.039,32.208],[-85.049,32.163],[-85.068,32.146],[-85.107,32.138],[-85.127,32.162]]]}},{"type":"Feature","properties":{"density":1},"geometry":{"type":"Polygon","coordinates":[[[-84.676,32.283],[-84.715,32.232],[-84.705,32.197],[-84.674,32.167],[-84.487,32.15],[-84.405,32.105],[-84.381,32.103],[-84.368,32.122],[-84.366,32.152],[-84.385,32.181],[-84.481,32.245],[-84.676,32.283]]]}},{"type":"Feature","properties":{"density":1},"geometry":{"type":"Polygon","coordinates":[[[-86.657,33.297],[-86.686,33.307],[-86.698,33.294],[-86.686,33.231],[-86.555,33.059],[-86.44,32.964],[-86.372,32.932],[-86.317,32.927],[-86.306,32.968],[-86.347,33.011],[-86.409,33.132],[-86.485,33.202],[-86.657,33.297]]]}},{"type":"Feature","properties":{"density":1},"geometry":{"type":"Polygon","coordinates":[[[-86.249,33.813],[-86.313,33.737],[-86.335,33.604],[-86.296,33.442],[-86.259,33.383],[-86.222,33.36],[-86.19,33.385],[-86.222,33.487],[-86.222,33.577],[-86.175,33.684],[-86.163,33.766],[-86.189,33.817],[-86.249,33.813]]]}},{"type":"Feature","properties":{"density":1},"geometry":{"type":"Polygon","coordinates":[[[-85.209,34.174],[-85.259,34.185],[-85.329,34.176],[-85.455,34.126],[-85.481,34.07],[-85.484,34.003],[-85.461,33.889],[-85.434,33.83],[-85.346,33.716],[-85.1,33.497],[-84.931,33.318],[-84.875,33.283],[-84.825,33.277],[-84.799,33.297],[-84.79,33.417],[-84.831,33.529],[-84.913,33.619],[-84.983,33.769],[-84.998,33.854],[-84.98,33.965],[-84.989,34.009],[-85.054,34.091],[-85.209,34.174]]]}},{"type":"Feature","properties":{"density":1},"geometry":{"type":"Polygon","coordinates":[[[-82.219,34.306],[-82.409,34.171],[-82.45,34.088],[-82.461,33.989],[-82.447,33.848],[-82.395,33.73],[-82.354,33.683],[-82.257,33.65],[-82.221,33.669],[-82.194,33.746],[-82.219,33.969],[-82.095,34.16],[-82.078,34.231],[-82.081,34.262],[-82.12,34.306],[-82.219,34.306]]]}},{"type":"Feature","properties":{"density":1},"geometry":{"type":"Polygon","coordinates":[[[-82.281,33.164],[-82.354,33.151],[-82.389,33.129],[-82.42,33.061],[-82.406,33.026],[-82.371,33.0],[-82.244,32.987],[-82.112,32.931],[-82.068,32.923],[-82.005,32.951],[-82.0,33.017],[-82.046,33.074],[-82.182,33.149],[-82.281,33.164]]]}},{"type":"Feature","properties":{"density":1},"geometry":{"type":"Polygon","coordinates":[[[-81.45,32.63],[-81.47,32.646],[-81.501,32.639],[-81.516,32.611],[-81.505,32.451],[-81.523,32.259],[-81.516,32.226],[-81.496,32.222],[-81.462,32.303],[-81.439,32.426],[-81.437,32.604],[-81.45,32.63]]]}},{"type":"Feature","properties":{"density":1},"geometry":{"type":"Polygon","coordinates":[[[-81.287,36.465],[-81.419,36.377],[-81.524,36.33],[-81.609,36.222],[-81.637,36.082],[-81.698,35.919],[-81.7,35.812],[-81.667,35.776],[-81.604,35.776],[-81.554,35.809],[-81.367,36.029],[-81.279,36.225],[-81.113,36.382],[-81.119,36.456],[-81.133,36.47],[-81.202,36.481],[-81.287,36.465]]]}},{"type":"Feature","properties":{"density":1},"geometry":{"type":"Polygon","coordinates":[[[-79.09,35.607],[-79.141,35.591],[-79.228,35.532],[-79.316,35.442],[-79.387,35.216],[-79.525,35.006],[-79.556,34.902],[-79.544,34.878],[-79.472,34.883],[-79.277,35.041],[-79.165,35.091],[-79.097,35.161],[-79.077,35.196],[-79.053,35.343],[-78.952,35.442],[-78.91,35.525],[-78.919,35.585],[-78.945,35.602],[-79.09,35.607]]]}},{"type":"Feature","properties":{"density":1},"geometry":{"type":"Polygon","coordinates":[[[-79.857,35.118],[-79.853,35.057],[-79.794,35.055],[-79.592,35.189],[-79.516,35.3],[-79.453,35.345],[-79.24,35.441],[-79.103,35.546],[-79.086,35.579],[-79.1,35.612],[-79.169,35.617],[-79.24,35.593],[-79.364,35.502],[-79.626,35.358],[-79.734,35.276],[-79.857,35.118]]]}},{"type":"Feature","properties":{"density":1},"geometry":{"type":"Polygon","coordinates":[[[-79.998,35.333],[-80.007,35.236],[-79.987,35.211],[-79.962,35.209],[-79.874,35.264],[-79.772,35.36],[-79.596,35.47],[-79.453,35.534],[-79.375,35.627],[-79.296,35.691],[-79.279,35.729],[-79.304,35.801],[-79.362,35.837],[-79.411,35.834],[-79.568,35.754],[-79.836,35.55],[-79.965,35.399],[-79.998,35.333]]]}},{"type":"Feature","properties":{"density":1},"geometry":{"type":"Polygon","coordinates":[[[-80.717,36.859],[-80.748,36.78],[-80.741,36.749],[-80.723,36.74],[-80.574,36.758],[-80.328,36.701],[-80.212,36.699],[-80.087,36.725],[-79.977,36.773],[-79.806,36.793],[-79.766,36.822],[-79.753,36.876],[-79.762,36.911],[-79.815,36.971],[-79.935,37.026],[-80.067,37.113],[-80.173,37.146],[-80.385,37.109],[-80.515,36.984],[-80.653,36.918],[-80.717,36.859]]]}},{"type":"Feature","properties":{"density":1},"geometry":{"type":"Polygon","coordinates":[[[-76.165,35.866],[-76.205,35.853],[-76.165,35.776],[-76.038,35.684],[-75.878,35.526],[-75.79,35.469],[-75.72,35.449],[-75.669,35.457],[-75.639,35.473],[-75.531,35.598],[-75.514,35.708],[-75.548,35.771],[-75.636,35.828],[-75.775,35.87],[-75.95,35.853],[-76.165,35.866]]]}},{"type":"Feature","properties":{"density":1},"geometry":{"type":"Polygon","coordinates":[[[-77.976,36.936],[-77.958,36.878],[-77.899,36.874],[-77.712,36.993],[-77.486,37.085],[-77.379,37.164],[-77.333,37.252],[-77.348,37.331],[-77.368,37.355],[-77.447,37.375],[-77.583,37.32],[-77.73,37.173],[-77.912,37.037],[-77.976,36.936]]]}},{"type":"Feature","properties":{"density":1},"geometry":{"type":"Polygon","coordinates":[[[-86.315,32.053],[-86.317,32.002],[-86.289,31.987],[-86.234,32.14],[-86.249,32.199],[-86.315,32.053]]]}},{"type":"Feature","properties":{"density":1},"geometry":{"type":"Polygon","coordinates":[[[-90.105,31.06],[-90.131,30.998],[-90.083,30.878],[-89.971,30.755],[-89.74,30.555],[-89.611,30.34],[-89.563,30.325],[-89.538,30.34],[-89.525,30.369],[-89.53,30.443],[-89.617,30.603],[-89.824,30.832],[-89.945,31.005],[-90.023,31.055],[-90.105,31.06]]]}},{"type":"Feature","properties":{"density":1},"geometry":{"type":"Polygon","coordinates":[[[-89.475,34.301],[-89.59,34.292],[-89.677,34.251],[-89.789,34.131],[-89.83,34.011],[-89.842,33.751],[-89.776,33.457],[-89.764,33.172],[-89.834,32.804],[-89.838,32.614],[-89.818,32.486],[-89.78,32.445],[-89.681,32.424],[-89.632,32.432],[-89.599,32.457],[-89.537,32.548],[-89.504,32.804],[-89.392,33.176],[-89.342,33.586],[-89.243,33.871],[-89.222,33.974],[-89.218,34.069],[-89.239,34.127],[-89.4,34.272],[-89.475,34.301]]]}},{"type":"Feature","properties":{"density":1},"geometry":{"type":"Polygon","coordinates":[[[-90.428,36.195],[-90.472,36.117],[-90.494,36.007],[-90.656,35.712],[-90.756,35.462],[-90.775,35.376],[-90.769,35.313],[-90.753,35.285],[-90.717,35.266],[-90.632,35.294],[-90.552,35.384],[-90.461,35.608],[-90.386,35.908],[-90.306,36.068],[-90.29,36.153],[-90.306,36.197],[-90.392,36.214],[-90.428,36.195]]]}},{"type":"Feature","properties":{"density":1},"geometry":{"type":"Polygon","coordinates":[[[-101.117,51.16],[-101.135,51.17],[-101.152,51.138],[-101.146,51.053],[-101.119,51.02],[-101.1,51.037],[-101.094,51.084],[-101.117,51.16]]]}},{"type":"Feature","properties":{"density":1},"geometry":{"type":"Polygon","coordinates":[[[-123.994,55.849],[-124.036,55.844],[-124.217,55.758],[-124.361,55.656],[-124.534,55.496],[-124.738,55.364],[-124.785,55.303],[-124.799,55.246],[-124.771,55.193],[-124.584,55.083],[-124.482,55.0],[-124.435,54.989],[-124.347,54.995],[-124.215,55.08],[-124.151,55.171],[-124.06,55.444],[-123.981,55.532],[-123.884,55.607],[-123.851,55.656],[-123.848,55.739],[-123.89,55.805],[-123.956,55.849],[-123.994,55.849]]]}},{"type":"Feature","properties":{"density":1},"geometry":{"type":"Polygon","coordinates":[[[-111.102,34.692],[-111.147,34.661],[-111.158,34.607],[-111.145,34.589],[-111.101,34.595],[-111.065,34.628],[-111.064,34.665],[-111.102,34.692]]]}},{"type":"Feature","properties":{"density":1},"geometry":{"type":"Polygon","coordinates":[[[-112.912,41.174],[-112.947,41.145],[-112.95,41.103],[-112.936,41.088],[-112.75,41.066],[-112.519,40.919],[-112.447,40.889],[-112.307,40.886],[-112.159,40.921],[-112.081,40.971],[-112.05,41.122],[-111.989,41.262],[-111.988,41.332],[-112.017,41.406],[-112.086,41.452],[-112.252,41.338],[-112.322,41.311],[-112.437,41.294],[-112.604,41.334],[-112.683,41.332],[-112.835,41.208],[-112.912,41.174]]]}},{"type":"Feature","properties":{"density":1},"geometry":{"type":"Polygon","coordinates":[[[-112.458,42.616],[-112.596,42.508],[-112.643,42.449],[-112.676,42.321],[-112.654,42.255],[-112.575,42.191],[-112.509,42.167],[-112.439,42.2],[-112.387,42.206],[-112.211,42.159],[-112.112,42.176],[-112.097,42.193],[-112.1,42.236],[-112.187,42.301],[-112.22,42.355],[-112.217,42.48],[-112.178,42.546],[-112.193,42.585],[-112.221,42.596],[-112.296,42.583],[-112.398,42.629],[-112.458,42.616]]]}},{"type":"Feature","properties":{"density":1},"geometry":{"type":"Polygon","coordinates":[[[-116.329,45.188],[-116.388,45.175],[-116.526,45.054],[-116.553,44.997],[-116.531,44.951],[-116.491,44.927],[-116.45,44.926],[-116.388,44.957],[-116.259,44.973],[-116.217,44.995],[-116.202,45.039],[-116.217,45.087],[-116.329,45.188]]]}},{"type":"Feature","properties":{"density":1},"geometry":{"type":"Polygon","coordinates":[[[-121.489,46.014],[-121.415,45.953],[-121.332,45.934],[-121.252,45.953],[-121.131,46.053],[-120.999,46.077],[-120.902,46.119],[-120.748,46.279],[-120.574,46.389],[-120.489,46.477],[-120.47,46.593],[-120.525,46.742],[-120.555,46.777],[-120.798,46.946],[-120.878,46.965],[-120.924,46.959],[-120.974,46.923],[-121.178,46.711],[-121.498,46.507],[-121.58,46.422],[-121.616,46.345],[-121.613,46.193],[-121.583,46.116],[-121.489,46.014]]]}},{"type":"Feature","properties":{"density":1},"geometry":{"type":"Polygon","coordinates":[[[-121.118,46.071],[-121.21,46.117],[-121.258,46.093],[-121.291,45.981],[-121.35,45.869],[-121.348,45.834],[-121.295,45.777],[-121.219,45.773],[-121.17,45.788],[-121.063,45.88],[-121.054,46.034],[-121.083,46.069],[-121.118,46.071]]]}},{"type":"Feature","properties":{"density":1},"geometry":{"type":"Polygon","coordinates":[[[-120.399,44.642],[-120.477,44.506],[-120.494,44.357],[-120.444,44.27],[-120.394,44.241],[-120.345,44.237],[-120.287,44.258],[-120.196,44.332],[-120.047,44.592],[-119.998,44.646],[-119.886,44.708],[-119.626,44.725],[-119.559,44.745],[-119.506,44.787],[-119.468,44.874],[-119.53,45.006],[-119.65,45.072],[-119.754,45.163],[-119.82,45.196],[-119.865,45.2],[-119.977,45.159],[-120.113,45.068],[-120.399,44.642]]]}},{"type":"Feature","properties":{"density":1},"geometry":{"type":"Polygon","coordinates":[[[-122.248,43.576],[-122.325,43.54],[-122.358,43.463],[-122.331,43.427],[-122.251,43.427],[-122.182,43.509],[-122.165,43.551],[-122.174,43.576],[-122.248,43.576]]]}},{"type":"Feature","properties":{"density":1},"geometry":{"type":"Polygon","coordinates":[[[-121.698,43.554],[-121.849,43.516],[-121.904,43.472],[-121.943,43.389],[-121.946,43.345],[-121.91,43.287],[-121.833,43.287],[-121.725,43.394],[-121.629,43.45],[-121.607,43.483],[-121.61,43.529],[-121.698,43.554]]]}},{"type":"Feature","properties":{"density":1},"geometry":{"type":"Polygon","coordinates":[[[-121.644,43.095],[-121.748,42.954],[-121.737,42.894],[-121.682,42.869],[-121.544,42.888],[-121.357,43.026],[-121.208,43.098],[-121.117,43.18],[-121.013,43.362],[-120.878,43.481],[-120.856,43.583],[-120.858,43.63],[-120.886,43.676],[-120.927,43.701],[-120.974,43.704],[-121.048,43.668],[-121.28,43.318],[-121.415,43.213],[-121.644,43.095]]]}},{"type":"Feature","properties":{"density":1},"geometry":{"type":"Polygon","coordinates":[[[-121.29,43.225],[-121.349,43.179],[-121.387,43.061],[-121.367,42.964],[-121.29,42.896],[-121.187,42.875],[-121.103,42.899],[-120.928,43.004],[-120.823,43.19],[-120.743,43.392],[-120.645,43.528],[-120.616,43.653],[-120.654,43.783],[-120.702,43.8],[-120.733,43.794],[-120.869,43.73],[-120.954,43.631],[-121.141,43.353],[-121.29,43.225]]]}},{"type":"Feature","properties":{"density":1},"geometry":{"type":"Polygon","coordinates":[[[-120.299,42.728],[-120.345,42.608],[-120.349,42.459],[-120.324,42.397],[-120.287,42.364],[-120.25,42.343],[-120.155,42.331],[-120.109,42.339],[-120.043,42.381],[-119.919,42.492],[-119.667,42.571],[-119.477,42.691],[-119.229,43.013],[-119.08,43.154],[-119.018,43.269],[-118.981,43.422],[-118.981,43.604],[-118.989,43.699],[-119.043,43.84],[-119.097,43.894],[-119.167,43.918],[-119.221,43.918],[-119.299,43.885],[-119.452,43.732],[-119.634,43.468],[-119.775,43.302],[-120.13,42.93],[-120.299,42.728]]]}},{"type":"Feature","properties":{"density":1},"geometry":{"type":"Polygon","coordinates":[[[-118.889,44.552],[-119.027,44.466],[-119.085,44.375],[-119.217,44.24],[-119.261,44.166],[-119.25,44.1],[-119.176,44.086],[-119.082,44.122],[-118.889,44.345],[-118.771,44.439],[-118.752,44.516],[-118.774,44.552],[-118.889,44.552]]]}},{"type":"Feature","properties":{"density":1},"geometry":{"type":"Polygon","coordinates":[[[-118.609,44.606],[-118.801,44.399],[-118.846,44.311],[-118.857,44.157],[-118.843,44.113],[-118.779,44.049],[-118.691,44.002],[-118.631,44.002],[-118.57,44.027],[-118.35,44.193],[-118.14,44.256],[-118.099,44.286],[-118.057,44.369],[-118.066,44.573],[-118.052,44.722],[-118.079,44.821],[-118.107,44.851],[-118.146,44.862],[-118.215,44.843],[-118.366,44.741],[-118.496,44.686],[-118.609,44.606]]]}},{"type":"Feature","properties":{"density":1},"geometry":{"type":"Polygon","coordinates":[[[-117.785,45.675],[-118.019,45.705],[-118.118,45.683],[-118.482,45.336],[-118.548,45.229],[-118.537,45.163],[-118.465,45.107],[-118.303,45.099],[-117.964,45.196],[-117.721,45.212],[-117.677,45.237],[-117.65,45.267],[-117.617,45.353],[-117.545,45.441],[-117.531,45.485],[-117.534,45.565],[-117.561,45.606],[-117.611,45.631],[-117.699,45.667],[-117.785,45.675]]]}},{"type":"Feature","properties":{"density":1},"geometry":{"type":"Polygon","coordinates":[[[-123.349,41.903],[-123.396,41.828],[-123.384,41.785],[-123.345,41.765],[-123.251,41.826],[-123.148,41.811],[-123.093,41.824],[-123.079,41.844],[-123.09,41.883],[-123.145,41.905],[-123.349,41.903]]]}},{"type":"Feature","properties":{"density":1},"geometry":{"type":"Polygon","coordinates":[[[-123.047,41.657],[-123.103,41.633],[-123.132,41.594],[-123.136,41.53],[-123.093,41.49],[-122.998,41.493],[-122.882,41.545],[-122.84,41.594],[-122.834,41.651],[-122.875,41.694],[-122.948,41.703],[-123.047,41.657]]]}},{"type":"Feature","properties":{"density":1},"geometry":{"type":"Polygon","coordinates":[[[-123.799,41.311],[-123.846,41.306],[-123.849,41.28],[-123.818,41.253],[-123.77,41.253],[-123.799,41.311]]]}},{"type":"Feature","properties":{"density":1},"geometry":{"type":"Polygon","coordinates":[[[-123.995,41.241],[-124.086,41.255],[-124.149,41.241],[-124.29,41.045],[-124.303,40.971],[-124.287,40.88],[-124.188,40.717],[-124.03,40.574],[-123.97,40.491],[-123.791,40.141],[-123.518,39.946],[-123.424,39.932],[-123.388,39.959],[-123.364,40.017],[-123.375,40.158],[-123.435,40.23],[-123.562,40.334],[-123.667,40.458],[-123.7,40.524],[-123.887,41.147],[-123.934,41.216],[-123.995,41.241]]]}},{"type":"Feature","properties":{"density":1},"geometry":{"type":"Polygon","coordinates":[[[-122.709,40.806],[-122.786,40.8],[-122.905,40.751],[-122.955,40.698],[-122.957,40.668],[-122.935,40.613],[-122.817,40.505],[-122.698,40.357],[-122.629,40.332],[-122.555,40.329],[-122.392,40.45],[-122.271,40.445],[-122.183,40.497],[-122.164,40.541],[-122.177,40.651],[-122.241,40.718],[-122.282,40.737],[-122.428,40.742],[-122.555,40.784],[-122.709,40.806]]]}},{"type":"Feature","properties":{"density":1},"geometry":{"type":"Polygon","coordinates":[[[-122.386,39.743],[-122.463,39.749],[-122.493,39.732],[-122.515,39.71],[-122.51,39.627],[-122.375,39.525],[-122.237,39.349],[-122.21,39.33],[-122.135,39.332],[-122.108,39.36],[-122.041,39.531],[-122.044,39.594],[-122.097,39.644],[-122.256,39.71],[-122.386,39.743]]]}},{"type":"Feature","properties":{"density":1},"geometry":{"type":"Polygon","coordinates":[[[-122.215,40.228],[-122.245,40.239],[-122.265,40.222],[-122.248,40.087],[-122.218,40.065],[-122.199,40.079],[-122.188,40.148],[-122.193,40.209],[-122.215,40.228]]]}},{"type":"Feature","properties":{"density":1},"geometry":{"type":"Polygon","coordinates":[[[-121.725,40.118],[-121.744,40.134],[-121.763,40.129],[-121.769,40.096],[-121.733,40.002],[-121.636,39.861],[-121.587,39.837],[-121.57,39.856],[-121.587,39.914],[-121.725,40.118]]]}},{"type":"Feature","properties":{"density":1},"geometry":{"type":"Polygon","coordinates":[[[-120.025,38.918],[-120.194,38.822],[-120.279,38.71],[-120.27,38.525],[-120.316,38.387],[-120.325,38.311],[-120.299,38.227],[-120.277,38.212],[-120.244,38.21],[-120.198,38.256],[-120.097,38.442],[-119.954,38.602],[-119.922,38.66],[-119.904,38.754],[-119.913,38.842],[-119.948,38.901],[-120.025,38.918]]]}},{"type":"Feature","properties":{"density":1},"geometry":{"type":"Polygon","coordinates":[[[-118.792,39.845],[-119.226,40.05],[-119.481,40.136],[-120.045,40.31],[-120.454,40.378],[-120.708,40.384],[-120.993,40.347],[-121.055,40.329],[-121.341,40.149],[-121.452,40.043],[-121.663,39.715],[-121.793,39.43],[-121.992,38.841],[-122.01,38.673],[-122.01,38.338],[-121.961,38.109],[-121.793,37.718],[-121.713,37.619],[-121.551,37.526],[-121.266,37.421],[-121.148,37.452],[-121.074,37.495],[-120.869,37.786],[-120.82,37.817],[-120.696,37.855],[-120.652,37.855],[-120.38,37.743],[-120.008,37.669],[-119.493,37.501],[-119.295,37.526],[-119.133,37.613],[-119.065,37.706],[-119.04,37.811],[-119.022,37.966],[-118.978,38.127],[-118.978,38.344],[-118.96,38.406],[-118.91,38.5],[-118.662,38.729],[-118.544,38.878],[-118.458,39.058],[-118.439,39.132],[-118.42,39.312],[-118.445,39.423],[-118.532,39.628],[-118.582,39.709],[-118.672,39.781],[-118.792,39.845]]]}},{"type":"Feature","properties":{"density":1},"geometry":{"type":"Polygon","coordinates":[[[-114.986,32.671],[-115.076,32.641],[-115.111,32.583],[-115.089,32.456],[-115.052,32.404],[-115.026,32.404],[-114.995,32.436],[-114.975,32.527],[-114.94,32.584],[-114.942,32.649],[-114.986,32.671]]]}},{"type":"Feature","properties":{"density":1},"geometry":{"type":"Polygon","coordinates":[[[-85.592,33.664],[-85.7,33.631],[-86.246,33.345],[-86.332,33.254],[-86.374,33.118],[-86.357,32.957],[-86.316,32.866],[-86.254,32.783],[-86.167,32.705],[-85.89,32.543],[-85.799,32.523],[-85.65,32.539],[-85.601,32.564],[-85.568,32.605],[-85.563,32.668],[-85.683,32.841],[-85.696,32.924],[-85.683,32.986],[-85.576,33.234],[-85.468,33.577],[-85.501,33.626],[-85.592,33.664]]]}},{"type":"Feature","properties":{"density":1},"geometry":{"type":"Polygon","coordinates":[[[-117.822,32.64],[-118.073,32.535],[-118.387,32.368],[-118.701,32.138],[-118.91,31.907],[-119.14,31.594],[-119.475,30.798],[-119.538,30.38],[-119.538,29.857],[-119.517,29.292],[-119.517,28.622],[-119.538,28.036],[-119.643,27.492],[-119.852,26.592],[-119.956,25.902],[-119.977,25.148],[-119.894,24.521],[-119.538,22.951],[-119.308,22.282],[-118.994,21.696],[-118.596,21.235],[-118.031,20.817],[-117.55,20.545],[-116.943,20.294],[-116.315,20.084],[-115.771,20.042],[-115.29,20.126],[-114.851,20.273],[-114.537,20.482],[-114.202,20.67],[-113.951,20.9],[-113.574,21.528],[-113.135,22.323],[-112.695,23.056],[-112.381,23.391],[-112.005,23.621],[-111.628,23.746],[-110.519,24.06],[-110.121,24.06],[-109.724,23.893],[-109.201,23.286],[-108.928,22.93],[-108.552,22.637],[-107.966,22.386],[-107.317,22.219],[-106.731,22.156],[-106.313,22.198],[-105.873,22.323],[-105.58,22.491],[-105.434,22.721],[-105.371,23.056],[-105.392,23.37],[-105.476,23.663],[-105.748,24.29],[-105.999,24.73],[-106.794,25.713],[-107.171,26.069],[-107.568,26.362],[-107.903,26.446],[-108.154,26.488],[-108.873,26.481],[-109.026,26.425],[-109.207,26.313],[-109.459,26.132],[-109.877,25.797],[-110.226,25.574],[-110.923,25.267],[-111.3,25.169],[-111.816,25.141],[-112.402,25.197],[-112.793,25.337],[-113.016,25.476],[-113.658,26.02],[-113.937,26.341],[-114.174,26.704],[-114.411,27.15],[-114.481,27.653],[-114.537,28.49],[-114.592,28.894],[-114.788,29.745],[-114.927,30.219],[-115.025,30.652],[-115.22,31.168],[-115.499,31.642],[-115.82,32.089],[-116.113,32.382],[-116.406,32.591],[-116.755,32.717],[-117.145,32.758],[-117.822,32.64]]]}},{"type":"Feature","properties":{"density":1},"geometry":{"type":"Polygon","coordinates":[[[-99.342,26.43],[-99.572,26.262],[-99.719,26.116],[-99.823,25.927],[-99.865,25.676],[-99.733,25.055],[-99.579,24.86],[-99.398,24.679],[-99.272,24.497],[-99.161,24.302],[-99.091,23.981],[-99.077,23.451],[-99.119,22.809],[-99.119,22.154],[-99.063,21.526],[-99.007,21.121],[-98.882,20.619],[-98.742,20.424],[-98.226,20.047],[-98.059,19.963],[-97.905,19.824],[-97.794,19.629],[-97.71,19.294],[-97.598,18.945],[-97.529,18.568],[-97.431,18.178],[-96.887,17.285],[-96.733,17.131],[-96.566,17.048],[-96.412,16.936],[-96.231,16.866],[-95.366,16.741],[-95.129,16.615],[-94.892,16.308],[-94.599,15.848],[-94.487,15.597],[-94.445,15.374],[-94.445,15.15],[-94.418,14.885],[-94.362,14.551],[-94.236,14.244],[-94.097,13.965],[-93.901,13.727],[-93.636,13.476],[-93.343,13.323],[-92.953,13.197],[-92.52,13.169],[-92.06,13.197],[-91.711,13.354],[-91.572,13.484],[-91.395,13.698],[-91.283,13.912],[-91.181,14.182],[-91.134,14.461],[-91.144,14.712],[-91.218,15.028],[-91.525,15.744],[-91.609,16.023],[-91.655,16.404],[-91.637,16.804],[-91.534,17.4],[-91.441,17.632],[-91.302,17.855],[-90.842,18.883],[-90.851,19.181],[-90.935,19.432],[-91.279,19.953],[-91.4,20.204],[-91.53,20.557],[-91.604,20.855],[-91.632,21.152],[-91.632,21.459],[-91.567,21.785],[-91.446,22.11],[-91.279,22.352],[-91.065,22.529],[-90.767,22.668],[-90.172,22.845],[-89.902,23.059],[-89.388,23.366],[-89.033,23.784],[-88.719,24.224],[-88.363,24.81],[-87.756,25.982],[-87.547,26.505],[-87.296,27.007],[-86.94,27.53],[-86.061,28.43],[-85.475,28.89],[-84.931,29.372],[-84.241,29.874],[-83.55,30.292],[-82.88,30.627],[-82.211,30.774],[-81.625,30.69],[-81.102,30.481],[-79.909,30.502],[-79.428,30.418],[-78.904,30.25],[-78.319,30.125],[-77.691,30.02],[-76.644,29.957],[-76.31,29.978],[-75.849,30.041],[-75.326,30.146],[-74.761,30.188],[-74.217,30.188],[-73.568,30.125],[-72.606,30.083],[-72.187,30.083],[-71.392,30.041],[-71.057,30.125],[-69.634,30.753],[-69.279,30.983],[-68.902,31.276],[-68.525,31.652],[-68.086,32.029],[-67.73,32.385],[-67.081,33.431],[-66.788,33.975],[-66.621,34.164],[-66.433,34.331],[-66.161,34.54],[-65.784,34.75],[-65.47,35.001],[-65.198,35.461],[-64.989,36.026],[-64.947,36.465],[-65.01,36.821],[-65.135,36.968],[-65.449,37.093],[-65.784,37.03],[-66.621,36.612],[-67.374,35.942],[-67.835,35.587],[-68.316,35.294],[-68.755,35.084],[-69.299,34.875],[-69.76,34.75],[-70.199,34.687],[-70.618,34.791],[-70.932,34.98],[-71.246,35.273],[-71.371,35.566],[-71.434,35.9],[-71.455,36.319],[-71.392,36.758],[-71.266,37.093],[-71.078,37.386],[-70.743,37.721],[-70.492,38.14],[-70.22,38.746],[-70.178,39.29],[-70.262,39.688],[-70.492,40.086],[-71.894,40.839],[-72.355,40.965],[-72.815,40.944],[-73.15,40.881],[-74.154,40.546],[-75.326,40.316],[-76.038,40.211],[-76.728,40.148],[-77.712,40.19],[-78.088,40.274],[-79.679,40.525],[-80.306,40.588],[-81.102,40.567],[-82.19,40.483],[-83.006,40.358],[-83.843,40.19],[-84.575,40.023],[-86.061,39.625],[-86.856,39.479],[-87.463,39.416],[-88.593,39.228],[-89.074,38.997],[-89.472,38.725],[-90.204,38.16],[-90.769,37.679],[-91.397,37.03],[-92.234,35.733],[-92.548,35.105],[-93.05,34.017],[-93.134,33.578],[-93.218,32.343],[-93.343,31.694],[-93.615,30.836],[-93.908,30.041],[-94.076,29.748],[-94.327,29.392],[-94.62,29.058],[-94.892,28.807],[-95.206,28.555],[-95.813,28.179],[-96.022,27.99],[-96.189,27.802],[-96.336,27.551],[-96.65,27.091],[-96.775,26.944],[-96.984,26.756],[-97.34,26.609],[-97.549,26.547],[-97.884,26.484],[-98.303,26.358],[-99.342,26.43]]]}},{"type":"Feature","properties":{"density":2},"geometry":{"type":"Polygon","coordinates":[[[-86.338,32.911],[-86.425,32.933],[-86.435,32.962],[-86.311,32.931],[-86.317,32.913],[-86.338,32.911]]]}},{"type":"Feature","properties":{"density":2},"geometry":{"type":"Polygon","coordinates":[[[-90.662,36.212],[-90.632,36.299],[-90.594,36.329],[-90.591,36.309],[-90.643,36.208],[-90.662,36.212]]]}},{"type":"Feature","properties":{"density":2},"geometry":{"type":"Polygon","coordinates":[[[-120.7,37.875],[-120.868,37.722],[-120.932,37.504],[-120.989,37.475],[-121.034,37.505],[-121.066,37.683],[-121.071,38.064],[-121.062,38.239],[-121.03,38.433],[-120.994,38.507],[-120.918,38.577],[-120.766,38.63],[-120.679,38.604],[-120.657,38.581],[-120.657,38.546],[-120.695,38.491],[-120.621,38.259],[-120.623,38.068],[-120.581,37.956],[-120.607,37.911],[-120.7,37.875]]]}},{"type":"Feature","properties":{"density":2},"geometry":{"type":"Polygon","coordinates":[[[-119.706,37.569],[-120.144,37.567],[-120.268,37.671],[-120.273,37.734],[-120.228,37.756],[-119.986,37.714],[-119.964,37.727],[-119.974,37.748],[-120.124,37.819],[-120.144,37.866],[-120.054,37.945],[-119.892,37.961],[-119.802,37.992],[-119.73,37.95],[-119.676,37.817],[-119.587,37.704],[-119.562,37.641],[-119.56,37.62],[-119.587,37.59],[-119.706,37.569]]]}},{"type":"Feature","properties":{"density":2},"geometry":{"type":"Polygon","coordinates":[[[-120.218,42.403],[-120.145,42.445],[-119.957,42.475],[-119.844,42.473],[-119.828,42.435],[-119.842,42.36],[-119.864,42.355],[-119.945,42.407],[-120.074,42.412],[-120.193,42.36],[-120.223,42.372],[-120.218,42.403]]]}},{"type":"Feature","properties":{"density":2},"geometry":{"type":"Polygon","coordinates":[[[-118.674,44.153],[-118.599,44.056],[-118.507,44.032],[-118.29,43.919],[-118.219,43.816],[-118.203,43.762],[-118.185,43.678],[-118.203,43.621],[-118.261,43.606],[-118.357,43.612],[-118.477,43.654],[-118.66,43.879],[-118.741,43.936],[-118.761,44.002],[-118.753,44.102],[-118.721,44.158],[-118.674,44.153]]]}},{"type":"Feature","properties":{"density":2},"geometry":{"type":"Polygon","coordinates":[[[-119.21,44.173],[-119.167,44.265],[-119.104,44.308],[-118.977,44.346],[-118.927,44.335],[-118.895,44.303],[-118.885,44.229],[-118.925,44.149],[-118.968,44.114],[-119.005,44.111],[-119.093,44.148],[-119.195,44.142],[-119.21,44.173]]]}},{"type":"Feature","properties":{"density":2},"geometry":{"type":"Polygon","coordinates":[[[-120.321,44.394],[-120.282,44.448],[-120.253,44.458],[-120.188,44.446],[-120.061,44.332],[-120.049,44.286],[-120.062,44.246],[-120.098,44.218],[-120.13,44.281],[-120.156,44.297],[-120.32,44.344],[-120.321,44.394]]]}},{"type":"Feature","properties":{"density":2},"geometry":{"type":"Polygon","coordinates":[[[-121.588,42.918],[-121.577,42.964],[-121.618,42.984],[-121.732,42.982],[-121.774,42.953],[-121.761,42.888],[-121.725,42.861],[-121.588,42.918]]]}},{"type":"Feature","properties":{"density":2},"geometry":{"type":"Polygon","coordinates":[[[-121.75,42.655],[-121.678,42.633],[-121.686,42.58],[-121.752,42.607],[-121.762,42.642],[-121.75,42.655]]]}},{"type":"Feature","properties":{"density":2},"geometry":{"type":"Polygon","coordinates":[[[-110.999,34.71],[-110.974,34.694],[-110.977,34.653],[-111.113,34.599],[-111.132,34.634],[-111.127,34.68],[-111.099,34.684],[-111.073,34.659],[-111.023,34.671],[-110.999,34.71]]]}},{"type":"Feature","properties":{"density":2},"geometry":{"type":"Polygon","coordinates":[[[-85.798,31.42],[-86.208,31.534],[-86.664,31.728],[-87.358,32.218],[-87.62,32.935],[-87.746,33.516],[-87.768,34.029],[-87.666,34.416],[-87.506,34.598],[-87.222,34.735],[-86.607,34.723],[-86.254,34.872],[-85.798,35.19],[-85.468,35.521],[-84.921,35.965],[-84.727,36.09],[-84.306,36.159],[-83.839,36.056],[-83.6,35.737],[-83.497,35.475],[-83.451,35.19],[-83.44,34.963],[-83.782,34.598],[-84.329,34.268],[-84.534,34.029],[-84.727,33.641],[-84.784,33.265],[-84.796,32.855],[-84.909,32.331],[-85.012,31.944],[-85.194,31.716],[-85.479,31.534],[-85.616,31.466],[-85.798,31.42]]]}},{"type":"Feature","properties":{"density":2},"geometry":{"type":"Polygon","coordinates":[[[-95.044,16.833],[-95.434,17.055],[-95.673,17.343],[-95.992,18.003],[-96.106,18.504],[-96.197,19.028],[-96.22,19.53],[-96.186,19.837],[-96.083,20.031],[-95.901,20.099],[-95.586,20.126],[-95.32,20.019],[-95.016,19.951],[-94.523,19.643],[-94.204,19.473],[-94.006,19.26],[-93.862,18.949],[-93.695,18.744],[-93.475,18.516],[-93.076,18.208],[-92.848,17.992],[-92.757,17.787],[-92.837,17.593],[-93.057,17.47],[-93.331,17.394],[-93.632,17.197],[-93.851,17.081],[-93.987,16.944],[-94.17,16.796],[-94.523,16.705],[-94.671,16.693],[-95.044,16.833]]]}},{"type":"Feature","properties":{"density":2},"geometry":{"type":"Polygon","coordinates":[[[-121.321,46.019],[-121.228,46.017],[-121.286,45.962],[-121.341,45.937],[-121.355,45.979],[-121.321,46.019]]]}},{"type":"Feature","properties":{"density":2},"geometry":{"type":"Polygon","coordinates":[[[-87.274,32.67],[-87.317,32.741],[-87.278,32.613],[-87.259,32.635],[-87.274,32.67]]]}},{"type":"Feature","properties":{"density":2},"geometry":{"type":"Polygon","coordinates":[[[-79.485,34.957],[-79.516,34.936],[-79.52,34.911],[-79.47,34.941],[-79.466,34.959],[-79.485,34.957]]]}},{"type":"Feature","properties":{"density":2},"geometry":{"type":"Polygon","coordinates":[[[-90.672,36.222],[-90.675,36.198],[-90.659,36.191],[-90.621,36.225],[-90.465,36.578],[-90.471,36.612],[-90.489,36.609],[-90.525,36.557],[-90.545,36.473],[-90.672,36.222]]]}},{"type":"Feature","properties":{"density":2},"geometry":{"type":"Polygon","coordinates":[[[-89.36,36.876],[-89.477,36.683],[-89.448,36.689],[-89.396,36.744],[-89.319,36.893],[-89.36,36.876]]]}},{"type":"Feature","properties":{"density":2},"geometry":{"type":"Polygon","coordinates":[[[-120.962,38.735],[-121.027,38.684],[-121.06,38.593],[-121.054,38.245],[-121.03,38.137],[-120.993,38.103],[-120.939,38.093],[-120.888,38.114],[-120.834,38.161],[-120.763,38.265],[-120.76,38.296],[-120.861,38.404],[-120.871,38.492],[-120.797,38.606],[-120.73,38.67],[-120.726,38.728],[-120.74,38.751],[-120.817,38.772],[-120.895,38.768],[-120.962,38.735]]]}},{"type":"Feature","properties":{"density":2},"geometry":{"type":"Polygon","coordinates":[[[-119.922,38.048],[-119.935,38.037],[-119.938,37.981],[-119.899,37.832],[-119.818,37.812],[-119.818,37.769],[-119.92,37.731],[-119.967,37.682],[-120.039,37.677],[-120.095,37.7],[-120.127,37.675],[-120.129,37.632],[-120.084,37.592],[-120.048,37.585],[-119.908,37.623],[-119.816,37.594],[-119.735,37.589],[-119.708,37.616],[-119.751,37.675],[-119.753,37.688],[-119.728,37.7],[-119.641,37.598],[-119.571,37.585],[-119.553,37.668],[-119.566,37.718],[-119.663,37.873],[-119.776,37.918],[-119.848,38.053],[-119.922,38.048]]]}},{"type":"Feature","properties":{"density":2},"geometry":{"type":"Polygon","coordinates":[[[-121.727,42.635],[-121.766,42.644],[-121.784,42.624],[-121.732,42.607],[-121.717,42.615],[-121.727,42.635]]]}},{"type":"Feature","properties":{"density":2},"geometry":{"type":"Polygon","coordinates":[[[-121.647,42.936],[-121.728,42.963],[-121.769,42.954],[-121.785,42.924],[-121.727,42.889],[-121.656,42.889],[-121.625,42.906],[-121.622,42.922],[-121.647,42.936]]]}},{"type":"Feature","properties":{"density":2},"geometry":{"type":"Polygon","coordinates":[[[-121.267,46.093],[-121.379,46.021],[-121.384,45.904],[-121.337,45.901],[-121.268,45.934],[-121.216,45.988],[-121.204,46.072],[-121.22,46.097],[-121.267,46.093]]]}},{"type":"Feature","properties":{"density":2},"geometry":{"type":"Polygon","coordinates":[[[-120.288,42.536],[-120.306,42.548],[-120.33,42.536],[-120.323,42.488],[-120.237,42.379],[-120.188,42.361],[-120.024,42.443],[-119.939,42.407],[-119.897,42.41],[-119.819,42.485],[-119.811,42.515],[-119.823,42.556],[-119.859,42.577],[-119.897,42.574],[-120.014,42.512],[-120.108,42.505],[-120.189,42.479],[-120.234,42.487],[-120.288,42.536]]]}},{"type":"Feature","properties":{"density":2},"geometry":{"type":"Polygon","coordinates":[[[-120.286,44.495],[-120.375,44.483],[-120.442,44.399],[-120.45,44.362],[-120.402,44.317],[-120.22,44.269],[-120.205,44.251],[-120.199,44.176],[-120.168,44.147],[-120.097,44.161],[-120.063,44.2],[-120.043,44.257],[-120.051,44.338],[-120.124,44.41],[-120.232,44.444],[-120.286,44.495]]]}},{"type":"Feature","properties":{"density":2},"geometry":{"type":"Polygon","coordinates":[[[-118.707,44.168],[-118.767,44.159],[-118.782,44.092],[-118.759,43.987],[-118.687,43.883],[-118.545,43.78],[-118.458,43.658],[-118.413,43.652],[-118.236,43.688],[-118.218,43.708],[-118.213,43.769],[-118.263,43.841],[-118.252,43.94],[-118.278,44.006],[-118.318,44.009],[-118.455,43.969],[-118.528,43.985],[-118.647,44.053],[-118.66,44.158],[-118.707,44.168]]]}},{"type":"Feature","properties":{"density":2},"geometry":{"type":"Polygon","coordinates":[[[-119.084,44.266],[-119.122,44.266],[-119.151,44.235],[-119.23,44.21],[-119.241,44.149],[-119.181,44.118],[-119.145,44.127],[-119.109,44.187],[-119.05,44.237],[-119.055,44.257],[-119.084,44.266]]]}},{"type":"Feature","properties":{"density":2},"geometry":{"type":"Polygon","coordinates":[[[-92.913,17.774],[-92.906,17.749],[-92.798,17.76],[-92.728,17.794],[-92.668,17.855],[-92.663,17.936],[-92.735,18.071],[-92.76,18.075],[-92.767,18.062],[-92.737,17.956],[-92.76,17.859],[-92.798,17.814],[-92.913,17.774]]]}},{"type":"Feature","properties":{"density":2},"geometry":{"type":"Polygon","coordinates":[[[-85.717,32.864],[-85.749,32.859],[-85.761,32.82],[-85.718,32.671],[-85.687,32.627],[-85.659,32.619],[-85.641,32.637],[-85.637,32.68],[-85.675,32.817],[-85.717,32.864]]]}},{"type":"Feature","properties":{"density":2},"geometry":{"type":"Polygon","coordinates":[[[-80.467,36.865],[-80.61,36.855],[-80.697,36.817],[-80.721,36.789],[-80.661,36.775],[-80.552,36.823],[-80.423,36.829],[-80.406,36.844],[-80.467,36.865]]]}},{"type":"Feature","properties":{"density":2},"geometry":{"type":"Polygon","coordinates":[[[-119.781,38.07],[-119.815,38.062],[-119.815,37.978],[-119.743,37.878],[-119.641,37.637],[-119.587,37.619],[-119.573,37.653],[-119.603,37.72],[-119.577,37.778],[-119.583,37.846],[-119.667,37.938],[-119.693,38.022],[-119.729,38.058],[-119.781,38.07]]]}},{"type":"Feature","properties":{"density":2},"geometry":{"type":"Polygon","coordinates":[[[-122.548,40.542],[-122.571,40.54],[-122.581,40.5],[-122.564,40.457],[-122.542,40.449],[-122.519,40.493],[-122.548,40.542]]]}},{"type":"Feature","properties":{"density":2},"geometry":{"type":"Polygon","coordinates":[[[-123.751,40.324],[-123.77,40.326],[-123.774,40.289],[-123.746,40.202],[-123.72,40.181],[-123.734,40.296],[-123.751,40.324]]]}},{"type":"Feature","properties":{"density":2},"geometry":{"type":"Polygon","coordinates":[[[-121.27,43.111],[-121.296,43.105],[-121.29,43.053],[-121.272,43.047],[-121.248,43.061],[-121.24,43.091],[-121.27,43.111]]]}},{"type":"Feature","properties":{"density":2},"geometry":{"type":"Polygon","coordinates":[[[-120.414,44.506],[-120.458,44.476],[-120.466,44.442],[-120.448,44.4],[-120.412,44.372],[-120.252,44.324],[-120.168,44.346],[-120.154,44.406],[-120.262,44.524],[-120.414,44.506]]]}},{"type":"Feature","properties":{"density":2},"geometry":{"type":"Polygon","coordinates":[[[-118.703,44.179],[-118.739,44.14],[-118.73,44.108],[-118.674,44.117],[-118.588,44.167],[-118.492,44.24],[-118.48,44.282],[-118.514,44.298],[-118.567,44.279],[-118.703,44.179]]]}},{"type":"Feature","properties":{"density":2},"geometry":{"type":"Polygon","coordinates":[[[-121.307,46.155],[-121.343,46.129],[-121.365,46.08],[-121.319,46.001],[-121.28,46.029],[-121.286,46.08],[-121.264,46.151],[-121.275,46.163],[-121.307,46.155]]]}},{"type":"Feature","properties":{"density":2},"geometry":{"type":"Polygon","coordinates":[[[-124.307,55.332],[-124.351,55.303],[-124.423,55.203],[-124.435,55.17],[-124.423,55.138],[-124.404,55.129],[-124.375,55.148],[-124.358,55.218],[-124.279,55.323],[-124.283,55.34],[-124.307,55.332]]]}},{"type":"Feature","properties":{"density":2},"geometry":{"type":"Polygon","coordinates":[[[-93.332,18.799],[-93.351,18.649],[-93.324,18.537],[-93.279,18.468],[-93.182,18.435],[-93.168,18.482],[-93.176,18.51],[-93.277,18.624],[-93.288,18.657],[-93.265,18.779],[-93.271,18.826],[-93.332,18.799]]]}},{"type":"Feature","properties":{"density":2},"geometry":{"type":"Polygon","coordinates":[[[-93.08,18.137],[-93.142,18.087],[-93.085,18.103],[-93.042,18.147],[-93.08,18.137]]]}},{"type":"Feature","properties":{"density":2},"geometry":{"type":"Polygon","coordinates":[[[-92.484,17.91],[-92.501,17.89],[-92.487,17.869],[-92.385,17.843],[-92.309,17.771],[-92.275,17.79],[-92.302,17.841],[-92.484,17.91]]]}},{"type":"Feature","properties":{"density":2},"geometry":{"type":"Polygon","coordinates":[[[-84.995,33.69],[-85.036,33.746],[-85.071,33.755],[-85.089,33.743],[-85.059,33.617],[-85.025,33.544],[-84.856,33.331],[-84.835,33.323],[-84.824,33.367],[-84.95,33.526],[-84.995,33.69]]]}},{"type":"Feature","properties":{"density":2},"geometry":{"type":"Polygon","coordinates":[[[-82.306,33.87],[-82.334,33.841],[-82.341,33.789],[-82.306,33.703],[-82.267,33.685],[-82.244,33.716],[-82.28,33.8],[-82.271,33.868],[-82.306,33.87]]]}},{"type":"Feature","properties":{"density":2},"geometry":{"type":"Polygon","coordinates":[[[-82.095,33.056],[-82.131,33.056],[-82.138,33.023],[-82.068,32.969],[-82.039,32.968],[-82.04,33.005],[-82.095,33.056]]]}},{"type":"Feature","properties":{"density":2},"geometry":{"type":"Polygon","coordinates":[[[-79.528,35.604],[-79.526,35.57],[-79.559,35.531],[-79.789,35.393],[-79.925,35.255],[-79.965,35.25],[-79.943,35.299],[-79.649,35.54],[-79.579,35.615],[-79.559,35.623],[-79.528,35.604]]]}},{"type":"Feature","properties":{"density":2},"geometry":{"type":"Polygon","coordinates":[[[-80.71,36.839],[-80.729,36.797],[-80.71,36.767],[-80.625,36.823],[-80.513,36.789],[-80.328,36.824],[-80.21,36.812],[-80.106,36.856],[-80.094,36.897],[-80.226,37.024],[-80.258,37.034],[-80.346,36.963],[-80.371,36.873],[-80.625,36.9],[-80.691,36.866],[-80.71,36.839]]]}},{"type":"Feature","properties":{"density":2},"geometry":{"type":"Polygon","coordinates":[[[-89.611,33.123],[-89.69,33.018],[-89.723,32.833],[-89.764,32.713],[-89.764,32.598],[-89.74,32.548],[-89.694,32.517],[-89.657,32.524],[-89.643,32.548],[-89.65,32.697],[-89.589,32.848],[-89.525,33.09],[-89.56,33.14],[-89.611,33.123]]]}},{"type":"Feature","properties":{"density":2},"geometry":{"type":"Polygon","coordinates":[[[-90.487,35.91],[-90.55,35.813],[-90.701,35.501],[-90.74,35.355],[-90.729,35.306],[-90.707,35.3],[-90.668,35.328],[-90.512,35.618],[-90.416,35.903],[-90.435,35.924],[-90.487,35.91]]]}},{"type":"Feature","properties":{"density":2},"geometry":{"type":"Polygon","coordinates":[[[-124.252,55.415],[-124.315,55.381],[-124.363,55.33],[-124.605,55.266],[-124.633,55.249],[-124.64,55.207],[-124.543,55.154],[-124.466,55.073],[-124.392,55.049],[-124.35,55.062],[-124.219,55.244],[-124.188,55.402],[-124.205,55.418],[-124.252,55.415]]]}},{"type":"Feature","properties":{"density":2},"geometry":{"type":"Polygon","coordinates":[[[-112.903,41.145],[-112.861,41.171],[-112.696,41.213],[-112.434,41.236],[-112.408,41.213],[-112.429,41.178],[-112.592,41.127],[-112.828,41.141],[-112.888,41.123],[-112.903,41.145]]]}},{"type":"Feature","properties":{"density":2},"geometry":{"type":"Polygon","coordinates":[[[-112.567,42.343],[-112.598,42.312],[-112.605,42.273],[-112.526,42.185],[-112.503,42.193],[-112.477,42.241],[-112.396,42.255],[-112.351,42.299],[-112.37,42.407],[-112.403,42.445],[-112.435,42.441],[-112.567,42.343]]]}},{"type":"Feature","properties":{"density":2},"geometry":{"type":"Polygon","coordinates":[[[-116.328,45.058],[-116.47,45.05],[-116.49,45.029],[-116.494,44.984],[-116.448,44.953],[-116.392,45.006],[-116.29,45.041],[-116.294,45.058],[-116.328,45.058]]]}},{"type":"Feature","properties":{"density":2},"geometry":{"type":"Polygon","coordinates":[[[-121.145,46.511],[-121.199,46.504],[-121.444,46.406],[-121.512,46.362],[-121.544,46.314],[-121.553,46.216],[-121.539,46.166],[-121.387,45.989],[-121.335,45.976],[-121.283,45.987],[-121.19,46.093],[-121.033,46.138],[-120.888,46.247],[-120.883,46.308],[-120.967,46.382],[-121.011,46.47],[-121.039,46.491],[-121.145,46.511]]]}},{"type":"Feature","properties":{"density":2},"geometry":{"type":"Polygon","coordinates":[[[-121.16,46.011],[-121.203,46.015],[-121.219,45.994],[-121.231,45.879],[-121.206,45.842],[-121.135,45.865],[-121.096,45.912],[-121.112,45.975],[-121.16,46.011]]]}},{"type":"Feature","properties":{"density":2},"geometry":{"type":"Polygon","coordinates":[[[-119.962,44.858],[-120.058,44.847],[-120.163,44.812],[-120.251,44.748],[-120.32,44.657],[-120.411,44.442],[-120.416,44.417],[-120.394,44.368],[-120.306,44.329],[-120.232,44.362],[-120.072,44.663],[-120.022,44.707],[-119.915,44.751],[-119.896,44.776],[-119.898,44.834],[-119.962,44.858]]]}},{"type":"Feature","properties":{"density":2},"geometry":{"type":"Polygon","coordinates":[[[-122.285,43.519],[-122.309,43.517],[-122.322,43.484],[-122.296,43.442],[-122.246,43.464],[-122.25,43.491],[-122.285,43.519]]]}},{"type":"Feature","properties":{"density":2},"geometry":{"type":"Polygon","coordinates":[[[-121.81,43.377],[-121.843,43.361],[-121.854,43.323],[-121.843,43.31],[-121.788,43.339],[-121.81,43.377]]]}},{"type":"Feature","properties":{"density":2},"geometry":{"type":"Polygon","coordinates":[[[-121.199,43.275],[-121.282,43.205],[-121.515,43.119],[-121.66,43.04],[-121.704,42.992],[-121.719,42.924],[-121.679,42.895],[-121.596,42.9],[-121.438,42.998],[-121.341,43.086],[-121.175,43.187],[-121.149,43.235],[-121.146,43.284],[-121.181,43.293],[-121.199,43.275]]]}},{"type":"Feature","properties":{"density":2},"geometry":{"type":"Polygon","coordinates":[[[-121.244,43.142],[-121.301,43.155],[-121.327,43.146],[-121.365,43.052],[-121.349,43.017],[-121.262,42.958],[-121.073,43.065],[-120.965,43.1],[-120.921,43.158],[-120.912,43.263],[-120.845,43.392],[-120.855,43.436],[-120.88,43.454],[-120.906,43.447],[-121.027,43.327],[-121.11,43.276],[-121.185,43.177],[-121.244,43.142]]]}},{"type":"Feature","properties":{"density":2},"geometry":{"type":"Polygon","coordinates":[[[-120.206,42.556],[-120.237,42.512],[-120.243,42.461],[-120.223,42.402],[-120.175,42.376],[-120.105,42.428],[-120.015,42.551],[-119.872,42.617],[-119.817,42.674],[-119.76,42.826],[-119.776,42.883],[-119.819,42.894],[-119.868,42.879],[-120.107,42.622],[-120.206,42.556]]]}},{"type":"Feature","properties":{"density":2},"geometry":{"type":"Polygon","coordinates":[[[-119.007,44.393],[-119.196,44.22],[-119.215,44.198],[-119.209,44.163],[-119.165,44.163],[-119.138,44.185],[-118.989,44.332],[-118.948,44.402],[-118.963,44.411],[-119.007,44.393]]]}},{"type":"Feature","properties":{"density":2},"geometry":{"type":"Polygon","coordinates":[[[-118.692,44.276],[-118.734,44.243],[-118.793,44.138],[-118.755,44.078],[-118.709,44.054],[-118.648,44.07],[-118.53,44.186],[-118.47,44.217],[-118.352,44.337],[-118.352,44.39],[-118.367,44.414],[-118.422,44.418],[-118.56,44.309],[-118.692,44.276]]]}},{"type":"Feature","properties":{"density":2},"geometry":{"type":"Polygon","coordinates":[[[-118.057,45.466],[-117.978,45.46],[-117.938,45.438],[-117.938,45.392],[-117.955,45.368],[-118.218,45.284],[-118.315,45.278],[-118.37,45.3],[-118.376,45.328],[-118.188,45.463],[-118.123,45.48],[-118.057,45.466]]]}},{"type":"Feature","properties":{"density":2},"geometry":{"type":"Polygon","coordinates":[[[-123.305,41.868],[-123.367,41.821],[-123.36,41.798],[-123.334,41.796],[-123.3,41.855],[-123.236,41.868],[-123.247,41.88],[-123.305,41.868]]]}},{"type":"Feature","properties":{"density":2},"geometry":{"type":"Polygon","coordinates":[[[-122.962,41.657],[-123.069,41.606],[-123.103,41.579],[-123.101,41.551],[-123.071,41.531],[-122.974,41.536],[-122.935,41.638],[-122.962,41.657]]]}},{"type":"Feature","properties":{"density":2},"geometry":{"type":"Polygon","coordinates":[[[-123.863,40.603],[-123.889,40.607],[-123.913,40.572],[-123.828,40.434],[-123.805,40.289],[-123.757,40.186],[-123.531,40.072],[-123.489,40.074],[-123.49,40.113],[-123.553,40.23],[-123.582,40.262],[-123.698,40.322],[-123.793,40.51],[-123.863,40.603]]]}},{"type":"Feature","properties":{"density":2},"geometry":{"type":"Polygon","coordinates":[[[-122.583,40.74],[-122.702,40.754],[-122.812,40.718],[-122.821,40.69],[-122.75,40.628],[-122.693,40.503],[-122.636,40.433],[-122.586,40.403],[-122.544,40.403],[-122.502,40.427],[-122.491,40.492],[-122.456,40.512],[-122.335,40.523],[-122.298,40.56],[-122.298,40.587],[-122.309,40.628],[-122.338,40.657],[-122.436,40.675],[-122.583,40.74]]]}},{"type":"Feature","properties":{"density":2},"geometry":{"type":"Polygon","coordinates":[[[-122.311,39.612],[-122.338,39.575],[-122.283,39.529],[-122.241,39.443],[-122.206,39.417],[-122.186,39.422],[-122.132,39.512],[-122.129,39.58],[-122.158,39.601],[-122.311,39.612]]]}},{"type":"Feature","properties":{"density":2},"geometry":{"type":"Polygon","coordinates":[[[-120.812,39.925],[-121.081,39.85],[-121.189,39.784],[-121.366,39.619],[-121.478,39.437],[-121.519,39.23],[-121.511,39.036],[-121.474,38.834],[-121.408,38.689],[-121.375,38.685],[-121.308,38.726],[-121.275,38.867],[-121.222,38.995],[-121.131,39.152],[-121.036,39.276],[-120.879,39.404],[-120.664,39.487],[-120.593,39.532],[-120.544,39.586],[-120.515,39.648],[-120.511,39.726],[-120.54,39.797],[-120.602,39.867],[-120.812,39.925]]]}},{"type":"Feature","properties":{"density":2},"geometry":{"type":"Polygon","coordinates":[[[-119.735,38.521],[-119.801,38.494],[-119.825,38.45],[-119.808,38.334],[-119.839,38.191],[-119.819,38.15],[-119.791,38.15],[-119.755,38.194],[-119.674,38.435],[-119.676,38.512],[-119.735,38.521]]]}},{"type":"Feature","properties":{"density":2},"geometry":{"type":"Polygon","coordinates":[[[-119.538,39.107],[-119.592,39.119],[-119.671,39.094],[-119.729,39.041],[-119.778,38.929],[-119.82,38.727],[-120.026,38.359],[-120.055,38.206],[-120.034,38.036],[-119.931,37.838],[-119.857,37.759],[-119.675,37.611],[-119.584,37.578],[-119.476,37.606],[-119.352,37.611],[-119.286,37.635],[-119.187,37.747],[-119.146,37.838],[-119.142,37.945],[-119.15,38.024],[-119.29,38.239],[-119.315,38.317],[-119.307,38.487],[-119.249,38.739],[-119.257,38.838],[-119.29,38.917],[-119.452,39.099],[-119.538,39.107]]]}},{"type":"Feature","properties":{"density":2},"geometry":{"type":"Polygon","coordinates":[[[-114.985,32.652],[-115.029,32.641],[-115.069,32.603],[-115.078,32.555],[-115.054,32.524],[-114.966,32.606],[-114.961,32.636],[-114.985,32.652]]]}},{"type":"Feature","properties":{"density":2},"geometry":{"type":"Polygon","coordinates":[[[-96.488,26.106],[-96.806,26.085],[-97.015,25.987],[-97.88,25.457],[-98.075,25.29],[-98.298,25.025],[-98.424,24.774],[-98.507,24.453],[-98.535,24.146],[-98.521,23.881],[-98.275,23.374],[-98.173,23.002],[-98.145,22.667],[-98.173,22.518],[-98.191,22.202],[-98.182,21.746],[-98.145,21.43],[-98.015,20.891],[-97.949,20.723],[-97.856,20.575],[-97.745,20.426],[-97.522,20.212],[-97.401,20.072],[-97.289,19.914],[-97.187,19.672],[-97.103,19.44],[-96.806,17.97],[-96.74,17.812],[-96.619,17.626],[-96.461,17.44],[-96.127,17.124],[-95.736,16.892],[-95.531,16.836],[-94.927,16.854],[-94.536,16.975],[-94.09,16.994],[-93.941,17.022],[-93.829,17.059],[-93.578,17.217],[-93.429,17.264],[-93.281,17.273],[-92.685,17.254],[-92.574,17.273],[-92.472,17.329],[-92.425,17.431],[-92.406,17.543],[-92.397,17.784],[-92.434,17.933],[-92.658,18.212],[-93.132,18.398],[-93.188,18.436],[-93.29,18.556],[-93.299,18.677],[-93.234,18.78],[-92.89,18.901],[-92.648,19.021],[-92.388,19.096],[-92.183,19.245],[-92.146,19.3],[-92.137,19.459],[-92.155,19.561],[-92.23,19.775],[-92.276,19.868],[-92.481,20.147],[-92.685,20.323],[-93.076,20.603],[-93.42,20.696],[-93.597,20.77],[-93.811,20.909],[-94.676,21.579],[-94.843,21.733],[-95.541,22.291],[-95.764,22.5],[-95.973,22.723],[-96.127,22.946],[-96.238,23.211],[-96.294,23.979],[-96.21,24.188],[-96.001,24.592],[-95.736,24.927],[-95.68,25.053],[-95.638,25.192],[-95.652,25.485],[-95.722,25.639],[-95.834,25.792],[-95.973,25.89],[-96.168,25.96],[-96.488,26.106]]]}},{"type":"Feature","properties":{"density":2},"geometry":{"type":"Polygon","coordinates":[[[-84.374,38.917],[-85.434,38.638],[-86.815,38.233],[-87.387,38.149],[-88.001,37.982],[-88.587,37.801],[-89.508,37.368],[-89.996,37.019],[-90.414,36.657],[-91.098,35.848],[-91.391,35.457],[-91.684,34.997],[-91.893,34.606],[-92.047,34.229],[-92.2,33.741],[-92.34,33.211],[-92.367,32.848],[-92.298,32.611],[-92.158,32.43],[-91.991,32.374],[-91.809,32.346],[-91.628,32.458],[-91.433,32.639],[-91.279,32.737],[-90.889,33.085],[-90.693,33.225],[-90.191,33.518],[-89.828,33.574],[-89.452,33.504],[-89.103,33.267],[-88.782,33.141],[-88.489,33.071],[-87.736,33.127],[-87.387,32.848],[-86.662,32.472],[-86.48,32.402],[-85.964,32.276],[-85.685,32.248],[-85.378,32.248],[-85.099,32.276],[-84.736,32.458],[-84.583,32.583],[-84.485,32.82],[-84.43,33.169],[-84.43,33.448],[-84.513,33.881],[-84.681,34.313],[-84.75,34.634],[-84.764,34.941],[-84.709,35.276],[-84.625,35.555],[-84.457,35.806],[-84.276,36.001],[-84.053,36.154],[-83.788,36.28],[-83.174,36.531],[-82.686,36.768],[-82.421,36.922],[-82.225,37.089],[-82.114,37.284],[-82.016,37.536],[-82.016,37.801],[-82.072,38.038],[-82.183,38.373],[-82.393,38.554],[-82.644,38.707],[-82.937,38.805],[-83.3,38.861],[-83.774,38.903],[-84.374,38.917]]]}},{"type":"Feature","properties":{"density":2},"geometry":{"type":"Polygon","coordinates":[[[-85.761,33.568],[-85.941,33.408],[-86.27,33.232],[-86.313,33.177],[-86.333,33.086],[-86.272,32.939],[-86.114,32.81],[-85.74,32.606],[-85.638,32.584],[-85.624,32.592],[-85.619,32.639],[-85.751,32.803],[-85.779,32.91],[-85.765,32.98],[-85.689,33.123],[-85.646,33.316],[-85.564,33.531],[-85.572,33.556],[-85.619,33.583],[-85.761,33.568]]]}},{"type":"Feature","properties":{"density":3},"geometry":{"type":"Polygon","coordinates":[[[-120.733,38.067],[-120.721,38.046],[-120.73,37.971],[-120.756,37.916],[-120.804,37.893],[-120.858,37.917],[-120.885,38.007],[-120.865,38.065],[-120.832,38.091],[-120.787,38.097],[-120.742,38.087],[-120.733,38.067]]]}},{"type":"Feature","properties":{"density":3},"geometry":{"type":"Polygon","coordinates":[[[-118.682,44.137],[-118.665,44.078],[-118.636,44.044],[-118.559,43.995],[-118.436,43.876],[-118.293,43.808],[-118.276,43.763],[-118.282,43.72],[-118.33,43.701],[-118.393,43.727],[-118.689,43.934],[-118.737,44.091],[-118.721,44.139],[-118.682,44.137]]]}},{"type":"Feature","properties":{"density":3},"geometry":{"type":"Polygon","coordinates":[[[-119.201,44.184],[-119.044,44.28],[-119.015,44.284],[-119.001,44.269],[-119.006,44.208],[-119.036,44.166],[-119.194,44.149],[-119.201,44.184]]]}},{"type":"Feature","properties":{"density":3},"geometry":{"type":"Polygon","coordinates":[[[-120.312,44.393],[-120.276,44.438],[-120.214,44.442],[-120.116,44.352],[-120.136,44.328],[-120.207,44.322],[-120.318,44.354],[-120.312,44.393]]]}},{"type":"Feature","properties":{"density":3},"geometry":{"type":"Polygon","coordinates":[[[-121.738,42.608],[-121.754,42.635],[-121.689,42.632],[-121.693,42.61],[-121.738,42.608]]]}},{"type":"Feature","properties":{"density":3},"geometry":{"type":"Polygon","coordinates":[[[-119.634,37.79],[-119.67,37.817],[-119.676,37.782],[-119.646,37.727],[-119.639,37.657],[-119.616,37.64],[-119.597,37.704],[-119.634,37.79]]]}},{"type":"Feature","properties":{"density":3},"geometry":{"type":"Polygon","coordinates":[[[-121.752,42.635],[-121.772,42.631],[-121.729,42.618],[-121.752,42.635]]]}},{"type":"Feature","properties":{"density":3},"geometry":{"type":"Polygon","coordinates":[[[-121.285,46.043],[-121.348,46.022],[-121.354,45.94],[-121.325,45.934],[-121.277,45.958],[-121.229,46.015],[-121.243,46.037],[-121.285,46.043]]]}},{"type":"Feature","properties":{"density":3},"geometry":{"type":"Polygon","coordinates":[[[-120.228,42.466],[-120.26,42.479],[-120.267,42.458],[-120.198,42.38],[-120.117,42.427],[-120.102,42.451],[-120.132,42.469],[-120.174,42.455],[-120.228,42.466]]]}},{"type":"Feature","properties":{"density":3},"geometry":{"type":"Polygon","coordinates":[[[-120.294,44.465],[-120.344,44.46],[-120.321,44.415],[-120.386,44.381],[-120.378,44.369],[-120.27,44.333],[-120.231,44.345],[-120.167,44.325],[-120.131,44.33],[-120.132,44.388],[-120.164,44.406],[-120.248,44.411],[-120.273,44.456],[-120.294,44.465]]]}},{"type":"Feature","properties":{"density":3},"geometry":{"type":"Polygon","coordinates":[[[-118.674,44.15],[-118.709,44.149],[-118.723,44.128],[-118.714,43.997],[-118.703,43.967],[-118.657,43.929],[-118.632,43.87],[-118.519,43.804],[-118.447,43.726],[-118.363,43.713],[-118.312,43.738],[-118.303,43.9],[-118.326,43.948],[-118.347,43.956],[-118.449,43.908],[-118.506,43.912],[-118.56,43.989],[-118.662,44.025],[-118.675,44.053],[-118.662,44.145],[-118.674,44.15]]]}},{"type":"Feature","properties":{"density":3},"geometry":{"type":"Polygon","coordinates":[[[-119.195,44.191],[-119.228,44.19],[-119.198,44.155],[-119.171,44.151],[-119.195,44.191]]]}},{"type":"Feature","properties":{"density":3},"geometry":{"type":"Polygon","coordinates":[[[-80.701,36.795],[-80.707,36.782],[-80.682,36.785],[-80.62,36.827],[-80.643,36.837],[-80.701,36.795]]]}},{"type":"Feature","properties":{"density":3},"geometry":{"type":"Polygon","coordinates":[[[-122.54,40.502],[-122.55,40.512],[-122.56,40.5],[-122.552,40.453],[-122.537,40.468],[-122.54,40.502]]]}},{"type":"Feature","properties":{"density":3},"geometry":{"type":"Polygon","coordinates":[[[-120.342,44.46],[-120.378,44.46],[-120.394,44.442],[-120.382,44.39],[-120.314,44.358],[-120.256,44.364],[-120.244,44.402],[-120.258,44.422],[-120.314,44.46],[-120.342,44.46]]]}},{"type":"Feature","properties":{"density":3},"geometry":{"type":"Polygon","coordinates":[[[-118.694,44.167],[-118.711,44.132],[-118.703,44.116],[-118.622,44.182],[-118.562,44.208],[-118.547,44.25],[-118.619,44.23],[-118.694,44.167]]]}},{"type":"Feature","properties":{"density":3},"geometry":{"type":"Polygon","coordinates":[[[-121.308,46.132],[-121.346,46.086],[-121.31,46.009],[-121.294,46.048],[-121.311,46.084],[-121.287,46.12],[-121.308,46.132]]]}},{"type":"Feature","properties":{"density":3},"geometry":{"type":"Polygon","coordinates":[[[-82.29,33.777],[-82.309,33.782],[-82.304,33.754],[-82.263,33.708],[-82.29,33.777]]]}},{"type":"Feature","properties":{"density":3},"geometry":{"type":"Polygon","coordinates":[[[-80.545,36.876],[-80.614,36.889],[-80.671,36.867],[-80.707,36.826],[-80.717,36.787],[-80.623,36.856],[-80.521,36.833],[-80.462,36.836],[-80.465,36.854],[-80.545,36.876]]]}},{"type":"Feature","properties":{"density":3},"geometry":{"type":"Polygon","coordinates":[[[-89.698,32.884],[-89.731,32.699],[-89.714,32.566],[-89.687,32.539],[-89.672,32.55],[-89.663,32.601],[-89.676,32.759],[-89.633,32.873],[-89.635,32.928],[-89.659,32.928],[-89.698,32.884]]]}},{"type":"Feature","properties":{"density":3},"geometry":{"type":"Polygon","coordinates":[[[-90.694,35.428],[-90.711,35.351],[-90.698,35.34],[-90.567,35.566],[-90.553,35.653],[-90.577,35.649],[-90.632,35.583],[-90.694,35.428]]]}},{"type":"Feature","properties":{"density":3},"geometry":{"type":"Polygon","coordinates":[[[-124.292,55.259],[-124.413,55.162],[-124.387,55.068],[-124.354,55.09],[-124.345,55.142],[-124.251,55.241],[-124.239,55.274],[-124.292,55.259]]]}},{"type":"Feature","properties":{"density":3},"geometry":{"type":"Polygon","coordinates":[[[-112.544,42.227],[-112.531,42.29],[-112.483,42.337],[-112.456,42.35],[-112.422,42.336],[-112.413,42.305],[-112.439,42.262],[-112.492,42.252],[-112.515,42.202],[-112.544,42.227]]]}},{"type":"Feature","properties":{"density":3},"geometry":{"type":"Polygon","coordinates":[[[-116.431,45.033],[-116.474,45.018],[-116.474,44.987],[-116.455,44.963],[-116.452,44.99],[-116.414,45.016],[-116.431,45.033]]]}},{"type":"Feature","properties":{"density":3},"geometry":{"type":"Polygon","coordinates":[[[-121.138,46.471],[-121.192,46.453],[-121.257,46.361],[-121.297,46.346],[-121.411,46.346],[-121.454,46.312],[-121.461,46.275],[-121.442,46.247],[-121.354,46.196],[-121.344,46.142],[-121.36,46.033],[-121.324,45.995],[-121.281,46.067],[-121.199,46.138],[-121.098,46.176],[-120.981,46.258],[-120.994,46.3],[-121.109,46.35],[-121.108,46.451],[-121.138,46.471]]]}},{"type":"Feature","properties":{"density":3},"geometry":{"type":"Polygon","coordinates":[[[-121.178,45.978],[-121.203,45.97],[-121.211,45.895],[-121.206,45.87],[-121.183,45.858],[-121.141,45.874],[-121.123,45.902],[-121.135,45.937],[-121.178,45.978]]]}},{"type":"Feature","properties":{"density":3},"geometry":{"type":"Polygon","coordinates":[[[-120.339,44.47],[-120.372,44.413],[-120.354,44.371],[-120.325,44.358],[-120.269,44.406],[-120.218,44.553],[-120.128,44.666],[-120.132,44.707],[-120.187,44.714],[-120.225,44.683],[-120.339,44.47]]]}},{"type":"Feature","properties":{"density":3},"geometry":{"type":"Polygon","coordinates":[[[-121.814,43.354],[-121.843,43.321],[-121.807,43.336],[-121.801,43.352],[-121.814,43.354]]]}},{"type":"Feature","properties":{"density":3},"geometry":{"type":"Polygon","coordinates":[[[-121.668,42.999],[-121.695,42.95],[-121.693,42.928],[-121.664,42.904],[-121.603,42.928],[-121.526,43.009],[-121.41,43.067],[-121.37,43.104],[-121.397,43.126],[-121.431,43.123],[-121.668,42.999]]]}},{"type":"Feature","properties":{"density":3},"geometry":{"type":"Polygon","coordinates":[[[-121.255,43.122],[-121.312,43.127],[-121.336,43.101],[-121.343,43.061],[-121.27,42.977],[-121.169,43.061],[-120.998,43.16],[-120.97,43.213],[-120.972,43.272],[-120.992,43.291],[-121.027,43.283],[-121.13,43.173],[-121.224,43.12],[-121.255,43.122]]]}},{"type":"Feature","properties":{"density":3},"geometry":{"type":"Polygon","coordinates":[[[-119.982,42.662],[-120.065,42.628],[-120.101,42.591],[-120.141,42.467],[-120.192,42.409],[-120.193,42.386],[-120.128,42.422],[-120.031,42.569],[-119.903,42.634],[-119.912,42.66],[-119.982,42.662]]]}},{"type":"Feature","properties":{"density":3},"geometry":{"type":"Polygon","coordinates":[[[-118.551,44.302],[-118.63,44.274],[-118.668,44.227],[-118.742,44.175],[-118.753,44.125],[-118.733,44.098],[-118.676,44.096],[-118.529,44.241],[-118.51,44.293],[-118.525,44.307],[-118.551,44.302]]]}},{"type":"Feature","properties":{"density":3},"geometry":{"type":"Polygon","coordinates":[[[-118.331,45.328],[-118.346,45.313],[-118.282,45.295],[-118.14,45.366],[-118.134,45.412],[-118.159,45.432],[-118.192,45.427],[-118.331,45.328]]]}},{"type":"Feature","properties":{"density":3},"geometry":{"type":"Polygon","coordinates":[[[-123.025,41.596],[-123.069,41.556],[-122.986,41.553],[-122.96,41.645],[-122.981,41.638],[-123.0,41.597],[-123.025,41.596]]]}},{"type":"Feature","properties":{"density":3},"geometry":{"type":"Polygon","coordinates":[[[-123.768,40.327],[-123.785,40.316],[-123.736,40.207],[-123.591,40.151],[-123.59,40.188],[-123.687,40.238],[-123.768,40.327]]]}},{"type":"Feature","properties":{"density":3},"geometry":{"type":"Polygon","coordinates":[[[-122.391,40.655],[-122.493,40.651],[-122.663,40.71],[-122.726,40.71],[-122.757,40.692],[-122.752,40.67],[-122.647,40.618],[-122.632,40.561],[-122.652,40.51],[-122.599,40.455],[-122.546,40.435],[-122.526,40.457],[-122.533,40.545],[-122.426,40.554],[-122.364,40.589],[-122.36,40.635],[-122.391,40.655]]]}},{"type":"Feature","properties":{"density":3},"geometry":{"type":"Polygon","coordinates":[[[-122.259,39.591],[-122.301,39.588],[-122.311,39.566],[-122.256,39.544],[-122.239,39.459],[-122.195,39.443],[-122.175,39.516],[-122.134,39.564],[-122.173,39.59],[-122.259,39.591]]]}},{"type":"Feature","properties":{"density":3},"geometry":{"type":"Polygon","coordinates":[[[-119.793,38.171],[-119.857,38.152],[-119.909,38.094],[-119.893,37.915],[-119.832,37.813],[-119.76,37.764],[-119.658,37.656],[-119.589,37.659],[-119.532,37.747],[-119.399,37.769],[-119.295,37.871],[-119.295,37.923],[-119.366,38.003],[-119.689,38.152],[-119.793,38.171]]]}},{"type":"Feature","properties":{"density":3},"geometry":{"type":"Polygon","coordinates":[[[-114.988,32.643],[-115.034,32.622],[-115.048,32.571],[-114.981,32.615],[-114.972,32.632],[-114.988,32.643]]]}},{"type":"Feature","properties":{"density":3},"geometry":{"type":"Polygon","coordinates":[[[-92.234,19.59],[-92.401,19.757],[-92.55,19.934],[-92.783,20.139],[-92.866,20.185],[-93.238,20.315],[-93.471,20.483],[-93.824,20.678],[-94.271,20.836],[-94.475,20.985],[-94.522,21.041],[-94.671,21.162],[-95.452,21.496],[-95.591,21.599],[-95.796,21.72],[-96.028,21.813],[-96.233,21.85],[-96.475,21.85],[-96.856,21.766],[-97.005,21.673],[-97.107,21.561],[-97.219,21.375],[-97.21,21.217],[-97.126,21.152],[-96.931,21.087],[-96.419,21.096],[-96.224,21.031],[-95.898,20.827],[-95.591,20.566],[-95.498,20.408],[-95.442,20.232],[-95.349,20.064],[-95.284,19.887],[-95.256,19.478],[-95.266,19.283],[-95.349,18.697],[-95.34,18.464],[-95.247,18.288],[-95.108,18.167],[-94.968,18.12],[-94.717,18.102],[-94.41,18.176],[-94.187,18.297],[-94.085,18.39],[-94.01,18.511],[-93.954,18.762],[-94.01,18.967],[-94.113,19.143],[-94.271,19.329],[-94.652,19.683],[-94.847,19.953],[-94.875,20.018],[-94.894,20.157],[-94.884,20.278],[-94.782,20.473],[-94.671,20.529],[-94.559,20.548],[-94.178,20.511],[-93.852,20.436],[-93.61,20.352],[-93.545,20.278],[-93.527,20.111],[-93.545,19.683],[-93.499,19.543],[-93.452,19.432],[-93.359,19.348],[-93.238,19.274],[-93.071,19.236],[-92.717,19.255],[-92.429,19.236],[-92.29,19.255],[-92.234,19.301],[-92.197,19.413],[-92.234,19.59]]]}}]}