{"type":"FeatureCollection","features":[{"type":"Feature","properties":{"density":1},"geometry":{"type":"Polygon","coordinates":[[[-91.453,63.052],[-93.337,63.552],[-93.798,64.167],[-94.067,65.897],[-93.221,67.781],[-91.876,69.088],[-89.992,69.933],[-87.455,70.625],[-84.341,71.279],[-81.265,71.663],[-76.268,72.125],[-68.752,72.874],[-63.793,72.797],[-60.833,72.836],[-57.911,72.797],[-55.258,72.49],[-53.106,72.298],[-51.76,71.875],[-50.261,70.952],[-49.069,69.53],[-48.415,68.3],[-47.762,66.493],[-47.378,64.647],[-47.161,63.407],[-46.762,61.781],[-46.631,60.742],[-46.853,59.426],[-47.315,58.521],[-48.07,57.228],[-48.838,55.998],[-49.723,55.19],[-51.145,53.691],[-54.912,52.0],[-56.143,51.346],[-57.834,50.27],[-58.68,49.424],[-59.564,47.732],[-59.526,46.271],[-58.526,44.272],[-57.45,43.196],[-56.758,42.427],[-55.335,41.466],[-54.22,41.005],[-53.221,40.851],[-52.298,40.813],[-50.447,40.809],[-48.332,41.117],[-43.911,42.039],[-42.643,42.193],[-40.99,42.578],[-39.413,42.924],[-37.914,43.116],[-36.838,43.462],[-34.223,43.962],[-32.686,44.423],[-31.34,45.0],[-29.841,45.384],[-29.149,45.461],[-28.38,45.307],[-28.342,44.846],[-28.495,44.231],[-29.187,43.423],[-30.379,42.501],[-31.417,41.54],[-32.378,40.732],[-33.724,39.771],[-34.992,39.156],[-36.838,37.619],[-37.222,37.157],[-38.298,35.389],[-39.529,34.082],[-40.874,32.506],[-42.45,31.698],[-44.757,30.199],[-45.68,30.007],[-47.179,29.968],[-48.909,29.968],[-52.253,30.468],[-53.945,31.045],[-56.252,31.698],[-57.866,31.89],[-59.365,31.775],[-61.941,31.698],[-63.671,31.006],[-65.978,30.968],[-67.938,31.16],[-70.591,31.506],[-71.821,31.929],[-74.358,33.582],[-74.897,34.274],[-75.166,35.312],[-75.243,36.196],[-75.166,37.584],[-75.234,38.336],[-75.439,39.105],[-75.917,39.806],[-76.584,40.301],[-76.96,40.933],[-77.506,41.172],[-78.48,41.446],[-79.42,41.787],[-81.265,42.215],[-81.915,42.334],[-82.701,42.385],[-83.316,42.368],[-84.033,42.146],[-85.195,41.822],[-85.861,41.446],[-86.306,41.002],[-86.887,40.455],[-87.399,40.096],[-88.014,38.832],[-88.168,38.08],[-88.048,36.525],[-87.553,34.458],[-87.365,33.518],[-87.433,32.817],[-87.365,32.117],[-87.468,30.733],[-88.151,29.708],[-88.561,29.281],[-90.099,27.828],[-90.628,27.606],[-91.984,26.758],[-92.257,26.57],[-92.804,24.724],[-92.804,24.024],[-92.753,22.794],[-92.565,22.076],[-92.497,20.47],[-92.497,18.83],[-92.377,17.48],[-92.343,16.916],[-92.309,16.643],[-92.069,16.113],[-91.881,15.857],[-90.737,15.037],[-89.845,14.111],[-89.526,13.599],[-89.413,13.268],[-89.469,12.881],[-89.515,12.744],[-89.857,12.402],[-90.21,12.175],[-90.865,11.662],[-92.198,10.757],[-92.761,10.552],[-93.479,10.176],[-94.162,9.902],[-95.751,9.475],[-97.323,9.407],[-100.006,9.202],[-100.911,9.27],[-103.269,9.663],[-103.884,9.851],[-104.431,10.278],[-104.756,10.671],[-105.2,11.611],[-105.337,12.123],[-105.371,13.166],[-105.337,13.832],[-105.217,14.498],[-105.097,14.994],[-105.012,15.558],[-105.166,16.07],[-105.456,16.532],[-106.328,16.839],[-107.353,17.113],[-108.882,17.198],[-109.702,17.198],[-110.65,17.608],[-111.778,18.274],[-112.88,19.402],[-113.341,20.094],[-115.34,21.786],[-116.391,22.17],[-117.365,22.426],[-119.518,22.956],[-120.304,23.058],[-121.158,23.263],[-121.842,23.759],[-122.166,24.34],[-121.961,24.733],[-121.517,25.075],[-121.107,25.502],[-120.782,26.031],[-120.714,26.681],[-120.782,27.774],[-121.175,28.355],[-121.602,29.056],[-121.602,29.756],[-121.466,30.235],[-121.295,30.593],[-120.868,30.867],[-120.338,30.867],[-119.586,30.44],[-117.946,29.021],[-117.399,28.782],[-116.784,28.475],[-116.169,28.355],[-115.691,28.543],[-115.144,29.073],[-114.956,29.295],[-114.614,29.5],[-113.333,29.756],[-112.889,29.773],[-112.137,29.602],[-111.419,29.278],[-108.908,27.467],[-108.344,27.039],[-107.364,26.048],[-107.057,25.764],[-106.316,24.864],[-105.701,24.351],[-104.892,23.93],[-104.266,23.759],[-103.605,23.713],[-102.614,23.782],[-102.193,23.918],[-101.726,24.123],[-101.304,24.34],[-101.145,24.488],[-101.065,24.739],[-101.054,24.989],[-101.111,25.228],[-101.202,25.49],[-101.76,26.675],[-102.064,27.677],[-102.14,28.057],[-102.17,28.315],[-102.284,28.634],[-102.292,28.778],[-102.405,29.075],[-102.861,30.054],[-102.899,30.252],[-102.914,30.548],[-102.819,31.239],[-102.762,31.432],[-102.375,32.025],[-101.965,32.56],[-101.122,34.03],[-100.758,34.827],[-100.621,35.339],[-100.507,35.943],[-100.564,36.217],[-100.735,36.513],[-101.077,36.74],[-101.555,36.809],[-102.17,36.843],[-103.058,36.752],[-103.89,36.729],[-104.277,36.775],[-104.71,36.877],[-104.813,37.025],[-104.904,37.219],[-104.984,37.526],[-104.881,37.857],[-104.665,38.164],[-104.254,38.483],[-103.355,39.087],[-102.9,39.265],[-102.596,39.533],[-102.449,39.832],[-102.208,40.196],[-101.638,40.423],[-101.175,40.575],[-100.021,40.788],[-99.505,40.803],[-98.844,40.727],[-98.214,40.704],[-97.485,40.537],[-96.976,40.256],[-96.604,40.006],[-96.004,39.36],[-95.647,39.178],[-95.328,38.912],[-95.077,38.563],[-94.827,38.297],[-94.478,37.773],[-94.174,37.599],[-93.885,37.5],[-93.68,37.454],[-93.483,37.545],[-93.293,37.781],[-92.989,38.115],[-92.799,38.358],[-92.572,38.821],[-92.203,39.653],[-92.044,39.96],[-91.816,40.553],[-91.668,41.042],[-91.543,41.532],[-91.497,41.931],[-91.508,42.421],[-91.7,43.331],[-91.966,43.577],[-92.383,43.293],[-92.63,42.932],[-93.257,42.116],[-93.845,41.66],[-94.491,41.052],[-94.965,40.844],[-95.554,40.901],[-96.332,41.356],[-97.205,41.565],[-98.667,41.793],[-99.806,42.267],[-100.793,42.894],[-101.553,43.425],[-101.857,44.261],[-101.496,44.849],[-100.243,45.571],[-99.389,45.78],[-98.193,45.761],[-96.477,46.476],[-95.886,46.898],[-95.485,47.404],[-95.042,47.721],[-94.199,48.29],[-92.574,48.965],[-91.815,49.598],[-90.887,50.315],[-90.043,51.117],[-89.237,51.523],[-88.997,51.865],[-88.741,52.275],[-88.485,52.634],[-88.365,52.873],[-88.263,53.009],[-88.16,53.078],[-87.494,53.214],[-86.964,53.214],[-86.588,53.009],[-86.161,52.48],[-85.7,51.455],[-85.614,51.079],[-85.751,50.276],[-85.854,49.934],[-86.024,49.541],[-86.319,49.123],[-86.455,48.835],[-86.645,48.546],[-87.215,47.741],[-87.283,47.536],[-87.283,47.362],[-87.219,47.081],[-87.093,46.955],[-86.512,46.728],[-85.92,46.602],[-85.168,46.534],[-84.439,46.534],[-83.836,46.511],[-82.799,46.409],[-82.412,46.306],[-81.876,46.112],[-81.478,45.862],[-80.578,45.383],[-79.598,45.099],[-79.074,44.905],[-76.904,44.279],[-76.05,44.142],[-75.093,44.261],[-73.675,44.689],[-73.043,45.15],[-72.394,45.714],[-71.138,47.158],[-70.728,47.721],[-69.856,48.593],[-68.934,49.567],[-67.755,50.541],[-66.883,50.976],[-66.063,51.412],[-65.91,51.899],[-65.756,52.591],[-65.628,53.616],[-65.551,54.411],[-65.628,55.487],[-65.833,56.717],[-66.345,57.383],[-67.649,57.918],[-69.323,58.499],[-71.385,59.137],[-73.612,59.74],[-76.315,60.561],[-79.237,61.253],[-81.812,61.792],[-83.504,62.099],[-85.042,62.291],[-86.425,62.676],[-87.963,62.753],[-91.069,62.992],[-91.453,63.052]]]}},{"type":"Feature","properties":{"density":1},"geometry":{"type":"Polygon","coordinates":[[[-121.874,50.164],[-121.721,50.171],[-121.66,50.155],[-121.657,50.141],[-121.687,50.123],[-121.849,50.114],[-121.877,50.128],[-121.874,50.164]]]}},{"type":"Feature","properties":{"density":1},"geometry":{"type":"Polygon","coordinates":[[[-123.499,49.814],[-123.81,50.36],[-123.932,50.52],[-124.274,50.733],[-124.668,50.839],[-125.071,50.854],[-125.451,50.839],[-126.483,50.915],[-128.162,50.771],[-128.572,50.672],[-129.506,50.353],[-130.227,50.049],[-130.546,49.935],[-131.229,49.51],[-131.586,49.259],[-132.391,48.766],[-132.741,48.447],[-132.885,48.098],[-132.976,47.687],[-132.999,47.361],[-132.801,47.118],[-132.589,47.034],[-131.974,47.08],[-131.48,47.262],[-130.971,47.513],[-129.597,48.515],[-128.83,48.842],[-128.108,48.971],[-127.296,49.077],[-125.8,49.351],[-124.962,49.247],[-124.648,49.191],[-124.471,49.09],[-123.347,48.821],[-123.175,48.806],[-122.932,48.827],[-122.664,48.892],[-122.355,48.999],[-122.325,49.08],[-122.426,49.186],[-122.527,49.211],[-122.892,49.358],[-123.089,49.459],[-123.461,49.756],[-123.499,49.814]]]}},{"type":"Feature","properties":{"density":1},"geometry":{"type":"Polygon","coordinates":[[[-106.818,37.531],[-106.792,37.602],[-106.683,37.61],[-106.618,37.597],[-106.583,37.562],[-106.568,37.477],[-106.529,37.452],[-106.491,37.386],[-106.531,37.356],[-106.772,37.286],[-106.916,37.306],[-106.941,37.329],[-106.948,37.361],[-106.932,37.422],[-106.818,37.531]]]}},{"type":"Feature","properties":{"density":1},"geometry":{"type":"Polygon","coordinates":[[[-105.836,35.909],[-105.816,35.931],[-105.768,35.94],[-105.715,35.92],[-105.735,35.872],[-105.81,35.835],[-105.848,35.849],[-105.836,35.909]]]}},{"type":"Feature","properties":{"density":1},"geometry":{"type":"Polygon","coordinates":[[[-105.358,41.952],[-105.429,42.03],[-105.499,42.148],[-105.497,42.207],[-105.465,42.231],[-105.409,42.243],[-105.341,42.222],[-105.256,42.108],[-105.234,41.977],[-105.28,41.947],[-105.358,41.952]]]}},{"type":"Feature","properties":{"density":1},"geometry":{"type":"Polygon","coordinates":[[[-115.125,43.543],[-115.125,43.603],[-115.109,43.631],[-114.913,43.723],[-114.823,43.733],[-114.836,43.702],[-114.949,43.646],[-115.077,43.527],[-115.098,43.523],[-115.125,43.543]]]}},{"type":"Feature","properties":{"density":1},"geometry":{"type":"Polygon","coordinates":[[[-122.986,39.265],[-122.933,39.258],[-122.768,39.136],[-122.737,39.079],[-122.744,39.019],[-122.85,39.027],[-122.897,39.061],[-122.981,39.16],[-123.016,39.229],[-123.01,39.254],[-122.986,39.265]]]}},{"type":"Feature","properties":{"density":1},"geometry":{"type":"Polygon","coordinates":[[[-94.148,29.865],[-94.095,29.976],[-93.747,30.441],[-93.339,30.792],[-93.011,30.944],[-92.743,31.151],[-92.641,31.262],[-92.512,31.318],[-92.407,31.339],[-92.174,31.437],[-91.972,31.433],[-91.813,31.362],[-91.79,31.322],[-91.776,31.24],[-91.788,31.195],[-91.887,31.156],[-92.052,31.138],[-92.191,31.079],[-92.488,30.88],[-92.687,30.778],[-92.779,30.708],[-92.947,30.532],[-93.15,30.272],[-93.251,30.187],[-93.584,29.818],[-93.742,29.694],[-94.014,29.598],[-94.147,29.588],[-94.174,29.604],[-94.183,29.642],[-94.148,29.865]]]}},{"type":"Feature","properties":{"density":1},"geometry":{"type":"Polygon","coordinates":[[[-121.167,42.858],[-121.143,43.091],[-121.103,43.13],[-121.06,43.126],[-121.043,43.088],[-121.027,42.865],[-121.039,42.832],[-121.075,42.817],[-121.167,42.858]]]}},{"type":"Feature","properties":{"density":1},"geometry":{"type":"Polygon","coordinates":[[[-123.037,39.235],[-122.993,39.299],[-122.933,39.339],[-122.845,39.367],[-122.739,39.369],[-122.709,39.356],[-122.677,39.298],[-122.677,39.23],[-122.701,39.205],[-122.788,39.168],[-122.977,39.174],[-123.029,39.196],[-123.037,39.235]]]}},{"type":"Feature","properties":{"density":1},"geometry":{"type":"Polygon","coordinates":[[[-106.855,37.397],[-106.845,37.438],[-106.788,37.526],[-106.707,37.578],[-106.621,37.598],[-106.562,37.592],[-106.496,37.563],[-106.439,37.504],[-106.421,37.38],[-106.461,37.277],[-106.577,37.227],[-106.718,37.26],[-106.828,37.313],[-106.855,37.397]]]}},{"type":"Feature","properties":{"density":1},"geometry":{"type":"Polygon","coordinates":[[[-105.29,41.895],[-105.361,41.908],[-105.398,41.94],[-105.429,41.993],[-105.441,42.067],[-105.422,42.109],[-105.331,42.163],[-105.277,42.181],[-105.184,42.179],[-105.114,42.131],[-105.097,42.05],[-105.104,42.011],[-105.147,41.952],[-105.23,41.908],[-105.29,41.895]]]}},{"type":"Feature","properties":{"density":1},"geometry":{"type":"Polygon","coordinates":[[[-120.981,50.07],[-121.714,50.551],[-122.656,50.928],[-124.037,51.367],[-125.209,51.765],[-126.694,52.183],[-128.222,52.539],[-129.289,52.706],[-131.068,52.706],[-131.926,52.644],[-133.098,52.392],[-134.06,52.016],[-135.086,51.304],[-136.885,49.819],[-137.45,49.212],[-137.952,48.479],[-138.476,47.81],[-139.124,46.68],[-139.334,46.073],[-139.564,45.612],[-139.752,45.048],[-140.024,44.378],[-140.108,43.645],[-139.94,43.164],[-139.501,42.557],[-138.852,42.243],[-138.057,41.909],[-136.571,41.365],[-135.379,41.051],[-133.621,40.716],[-132.219,40.548],[-130.817,40.569],[-129.54,40.528],[-128.536,40.653],[-127.301,40.758],[-126.443,40.904],[-125.627,41.26],[-125.25,41.553],[-125.062,42.034],[-124.895,42.871],[-125.02,43.604],[-125.25,43.959],[-125.794,44.19],[-126.59,44.357],[-127.992,44.817],[-128.431,45.068],[-128.536,45.382],[-128.473,45.78],[-128.117,46.408],[-127.322,46.973],[-126.318,47.81],[-125.711,48.228],[-125.062,48.437],[-124.392,48.521],[-122.572,48.605],[-121.065,48.814],[-120.647,49.17],[-120.605,49.421],[-120.626,49.693],[-120.751,49.944],[-120.981,50.07]]]}},{"type":"Feature","properties":{"density":1},"geometry":{"type":"Polygon","coordinates":[[[-105.568,41.886],[-105.548,42.146],[-105.428,42.332],[-105.3,42.452],[-105.122,42.522],[-104.944,42.526],[-104.812,42.493],[-104.704,42.39],[-104.646,42.282],[-104.618,42.167],[-104.626,42.063],[-104.713,41.91],[-104.899,41.77],[-105.089,41.704],[-105.238,41.683],[-105.316,41.695],[-105.465,41.77],[-105.527,41.824],[-105.568,41.886]]]}},{"type":"Feature","properties":{"density":1},"geometry":{"type":"Polygon","coordinates":[[[-106.883,37.528],[-106.748,37.685],[-106.483,37.844],[-106.147,37.933],[-105.86,37.933],[-105.717,37.911],[-105.452,37.784],[-105.356,37.594],[-105.326,37.492],[-105.328,37.395],[-105.372,37.211],[-105.45,37.07],[-105.53,36.982],[-105.593,36.927],[-105.706,36.877],[-105.868,36.863],[-106.004,36.877],[-106.185,36.921],[-106.329,36.985],[-106.442,37.07],[-106.75,37.244],[-106.874,37.326],[-106.921,37.376],[-106.918,37.437],[-106.883,37.528]]]}},{"type":"Feature","properties":{"density":1},"geometry":{"type":"Polygon","coordinates":[[[-105.884,36.001],[-105.955,35.98],[-106.05,35.906],[-106.07,35.819],[-106.041,35.745],[-106.021,35.712],[-105.959,35.679],[-105.814,35.687],[-105.632,35.749],[-105.545,35.848],[-105.537,35.918],[-105.587,35.993],[-105.669,36.022],[-105.884,36.001]]]}},{"type":"Feature","properties":{"density":1},"geometry":{"type":"Polygon","coordinates":[[[-98.775,33.878],[-98.936,34.027],[-99.036,34.194],[-99.091,34.424],[-99.079,34.672],[-99.04,34.858],[-98.986,34.994],[-98.912,35.05],[-98.8,35.044],[-98.657,34.982],[-98.527,34.858],[-98.434,34.734],[-98.347,34.566],[-98.292,34.293],[-98.304,34.039],[-98.453,33.834],[-98.527,33.797],[-98.67,33.797],[-98.775,33.878]]]}},{"type":"Feature","properties":{"density":1},"geometry":{"type":"Polygon","coordinates":[[[-123.021,39.316],[-122.922,39.347],[-122.718,39.446],[-122.608,39.517],[-122.354,39.785],[-122.134,39.956],[-122.035,39.991],[-121.919,40.0],[-121.798,39.958],[-121.723,39.903],[-121.682,39.815],[-121.646,39.697],[-121.635,39.589],[-121.657,39.512],[-121.726,39.391],[-121.825,39.316],[-122.101,39.184],[-122.214,39.143],[-122.451,39.099],[-122.853,39.112],[-123.007,39.148],[-123.049,39.181],[-123.076,39.223],[-123.074,39.267],[-123.06,39.294],[-123.021,39.316]]]}},{"type":"Feature","properties":{"density":1},"geometry":{"type":"Polygon","coordinates":[[[-84.785,68.822],[-83.407,69.705],[-80.229,70.976],[-75.144,72.247],[-72.072,72.565],[-67.411,72.989],[-63.409,73.248],[-60.949,73.307],[-58.724,73.307],[-53.321,72.671],[-50.885,71.824],[-48.66,69.175],[-47.542,67.41],[-46.694,65.526],[-46.318,64.49],[-45.694,63.455],[-45.27,62.501],[-44.952,60.7],[-45.27,58.793],[-45.611,57.169],[-46.647,55.297],[-48.024,53.391],[-51.626,50.848],[-54.275,49.047],[-55.97,48.153],[-58.23,47.023],[-59.266,46.599],[-60.348,45.61],[-60.843,44.704],[-61.055,42.903],[-60.631,41.208],[-59.678,39.195],[-59.03,38.736],[-57.559,38.453],[-54.91,38.877],[-51.414,39.936],[-47.813,40.89],[-44.423,41.631],[-41.986,42.267],[-39.679,43.209],[-37.231,44.009],[-34.147,44.704],[-32.346,44.704],[-31.345,44.339],[-30.757,43.856],[-30.639,42.644],[-31.204,41.137],[-32.24,39.819],[-33.935,38.03],[-36.795,35.487],[-39.161,33.886],[-41.421,32.662],[-43.363,31.885],[-45.988,31.061],[-49.402,30.614],[-55.016,31.25],[-59.36,31.991],[-64.974,33.157],[-67.093,33.792],[-70.165,35.381],[-72.072,37.182],[-74.297,38.771],[-77.016,39.371],[-78.617,39.419],[-80.971,38.948],[-83.043,38.006],[-84.126,37.111],[-84.973,36.123],[-85.821,34.946],[-86.621,33.627],[-87.468,32.592],[-88.128,31.226],[-88.975,30.379],[-90.246,29.484],[-91.355,28.864],[-92.757,27.985],[-93.469,27.19],[-93.971,26.29],[-94.295,25.623],[-94.343,24.587],[-94.295,23.74],[-94.154,23.081],[-93.165,21.386],[-92.271,20.444],[-91.847,19.832],[-91.188,18.796],[-90.529,17.666],[-90.105,16.583],[-89.702,15.189],[-89.483,13.871],[-89.671,12.866],[-90.079,12.113],[-90.613,11.265],[-91.994,10.732],[-93.375,10.387],[-94.86,10.274],[-96.231,10.104],[-97.497,10.133],[-99.286,10.086],[-100.84,10.274],[-102.253,10.321],[-103.383,10.745],[-104.889,11.451],[-105.972,12.063],[-106.255,12.581],[-107.29,13.899],[-107.667,14.982],[-108.661,17.386],[-109.289,18.474],[-110.356,19.5],[-111.716,20.774],[-113.056,22.346],[-113.788,23.975],[-114.165,25.058],[-114.07,26.188],[-113.505,27.177],[-112.564,27.789],[-111.669,27.883],[-110.21,27.318],[-109.033,26.094],[-108.185,25.105],[-107.243,23.928],[-106.255,22.374],[-105.313,21.48],[-104.418,20.491],[-103.665,20.35],[-102.535,20.632],[-101.735,20.962],[-100.934,21.998],[-99.898,24.634],[-98.957,28.354],[-98.533,29.578],[-98.768,31.367],[-98.938,32.195],[-99.286,33.015],[-100.84,35.887],[-101.028,37.159],[-100.887,38.806],[-100.216,40.105],[-99.369,41.141],[-98.584,41.894],[-97.203,42.899],[-96.073,43.683],[-94.441,44.123],[-92.62,44.343],[-91.082,43.997],[-90.172,43.934],[-88.728,44.123],[-87.472,44.374],[-86.217,44.782],[-84.832,45.445],[-82.796,46.54],[-80.83,47.423],[-78.852,48.6],[-77.298,49.306],[-75.274,49.965],[-71.978,50.671],[-69.577,50.766],[-67.128,50.577],[-65.104,50.342],[-62.42,50.483],[-60.16,50.86],[-58.748,51.189],[-57.9,51.754],[-57.853,52.743],[-58.088,53.732],[-58.983,54.956],[-60.819,56.18],[-63.126,57.357],[-67.788,59.57],[-70.063,60.159],[-71.947,60.567],[-74.756,61.265],[-77.816,61.783],[-80.312,62.066],[-82.242,62.254],[-84.691,62.725],[-86.433,63.149],[-87.845,63.619],[-88.363,64.137],[-88.646,64.749],[-88.598,65.314],[-88.222,66.115],[-87.657,66.774],[-86.903,67.48],[-85.977,68.194],[-84.785,68.822]]]}},{"type":"Feature","properties":{"density":2},"geometry":{"type":"Polygon","coordinates":[[[-123.463,49.618],[-123.926,50.157],[-124.397,50.301],[-124.989,50.392],[-126.876,50.559],[-127.674,50.445],[-128.084,50.343],[-128.642,50.138],[-130.02,49.773],[-130.669,49.318],[-131.285,48.851],[-132.298,48.03],[-132.401,47.86],[-132.344,47.609],[-132.105,47.541],[-131.581,47.689],[-130.59,48.304],[-129.997,48.816],[-129.052,49.283],[-128.665,49.443],[-128.209,49.511],[-127.936,49.591],[-127.526,49.614],[-127.036,49.602],[-126.557,49.568],[-126.068,49.511],[-124.511,49.226],[-123.605,48.978],[-123.341,48.938],[-122.744,48.953],[-122.618,48.999],[-122.597,49.08],[-122.699,49.196],[-122.866,49.292],[-123.286,49.464],[-123.463,49.618]]]}},{"type":"Feature","properties":{"density":2},"geometry":{"type":"Polygon","coordinates":[[[-62.102,56.307],[-63.691,56.948],[-65.818,57.717],[-67.868,58.358],[-69.893,59.05],[-72.892,59.972],[-75.711,60.69],[-79.478,62.048],[-80.478,62.305],[-81.811,62.484],[-82.887,62.868],[-83.533,63.029],[-83.909,63.519],[-83.761,63.963],[-83.123,64.408],[-81.964,64.842],[-80.965,65.252],[-79.504,65.56],[-78.171,65.765],[-76.813,65.765],[-75.429,65.662],[-72.687,66.252],[-71.738,66.738],[-70.662,67.687],[-69.688,68.456],[-68.689,69.276],[-67.638,70.66],[-66.715,70.967],[-65.177,70.89],[-60.59,70.455],[-59.052,70.25],[-56.464,69.737],[-55.31,69.327],[-54.139,69.039],[-53.398,68.675],[-52.715,67.701],[-51.979,66.969],[-51.44,66.277],[-51.21,65.867],[-50.62,65.047],[-50.031,64.278],[-49.544,63.56],[-49.288,63.099],[-48.754,62.612],[-47.956,61.936],[-47.212,61.268],[-47.167,60.714],[-47.394,60.19],[-47.858,59.787],[-48.746,59.56],[-50.052,59.711],[-52.03,61.1],[-53.081,62.151],[-53.747,62.51],[-54.593,62.561],[-55.097,62.552],[-55.729,62.433],[-56.498,61.971],[-57.284,61.237],[-57.66,60.758],[-57.895,60.266],[-58.225,59.833],[-58.441,59.457],[-58.794,59.206],[-59.25,58.944],[-59.751,58.808],[-60.23,58.933],[-60.583,59.058],[-60.838,59.255],[-61.043,59.619],[-61.202,60.103],[-61.305,60.821],[-61.886,61.385],[-62.654,61.658],[-63.543,61.573],[-63.97,61.351],[-64.209,61.094],[-64.278,60.308],[-64.124,59.864],[-63.304,59.454],[-62.381,59.112],[-61.51,58.839],[-60.587,58.361],[-59.596,57.951],[-59.212,57.506],[-59.109,57.353],[-58.836,57.079],[-58.648,56.755],[-58.511,56.345],[-58.545,55.764],[-58.699,55.422],[-59.092,55.336],[-59.57,55.285],[-60.408,55.473],[-61.108,55.729],[-62.102,56.307]]]}},{"type":"Feature","properties":{"density":2},"geometry":{"type":"Polygon","coordinates":[[[-106.78,37.515],[-106.781,37.578],[-106.746,37.589],[-106.642,37.505],[-106.645,37.473],[-106.692,37.405],[-106.746,37.369],[-106.808,37.355],[-106.854,37.305],[-106.875,37.303],[-106.894,37.329],[-106.9,37.402],[-106.813,37.464],[-106.78,37.515]]]}},{"type":"Feature","properties":{"density":2},"geometry":{"type":"Polygon","coordinates":[[[-105.805,35.894],[-105.785,35.918],[-105.754,35.918],[-105.768,35.878],[-105.805,35.894]]]}},{"type":"Feature","properties":{"density":2},"geometry":{"type":"Polygon","coordinates":[[[-105.356,41.976],[-105.466,42.132],[-105.472,42.18],[-105.459,42.209],[-105.397,42.214],[-105.331,42.173],[-105.256,42.023],[-105.254,41.989],[-105.273,41.967],[-105.335,41.961],[-105.356,41.976]]]}},{"type":"Feature","properties":{"density":2},"geometry":{"type":"Polygon","coordinates":[[[-122.997,39.243],[-122.966,39.258],[-122.841,39.171],[-122.816,39.115],[-122.826,39.083],[-122.871,39.083],[-122.92,39.117],[-122.997,39.217],[-122.997,39.243]]]}},{"type":"Feature","properties":{"density":2},"geometry":{"type":"Polygon","coordinates":[[[-94.165,29.679],[-93.972,30.022],[-93.895,30.109],[-93.716,30.248],[-93.622,30.239],[-93.607,30.201],[-93.662,30.059],[-93.826,29.856],[-93.923,29.757],[-94.102,29.636],[-94.167,29.642],[-94.165,29.679]]]}},{"type":"Feature","properties":{"density":2},"geometry":{"type":"Polygon","coordinates":[[[-121.148,42.869],[-121.124,43.043],[-121.1,43.081],[-121.078,43.081],[-121.065,42.845],[-121.115,42.84],[-121.148,42.869]]]}},{"type":"Feature","properties":{"density":2},"geometry":{"type":"Polygon","coordinates":[[[-96.15,17.714],[-96.305,18.234],[-96.305,18.544],[-96.15,18.909],[-96.052,18.966],[-95.573,18.501],[-95.475,17.939],[-95.138,17.391],[-94.716,17.067],[-93.534,16.28],[-93.323,15.942],[-93.113,15.394],[-93.014,14.03],[-93.042,13.65],[-93.281,12.891],[-93.471,12.616],[-93.809,12.426],[-94.315,12.426],[-95.116,12.848],[-95.644,13.418],[-95.834,13.776],[-96.129,14.198],[-96.15,14.515],[-95.981,14.916],[-95.834,15.612],[-95.559,16.16],[-95.494,16.544],[-95.55,16.769],[-95.766,17.126],[-96.094,17.604],[-96.15,17.714]]]}},{"type":"Feature","properties":{"density":2},"geometry":{"type":"Polygon","coordinates":[[[-123.001,39.236],[-122.93,39.298],[-122.873,39.322],[-122.784,39.32],[-122.745,39.276],[-122.753,39.23],[-122.873,39.192],[-122.983,39.195],[-123.004,39.214],[-123.001,39.236]]]}},{"type":"Feature","properties":{"density":2},"geometry":{"type":"Polygon","coordinates":[[[-106.81,37.411],[-106.786,37.473],[-106.74,37.519],[-106.667,37.547],[-106.603,37.552],[-106.551,37.536],[-106.52,37.484],[-106.533,37.363],[-106.553,37.326],[-106.608,37.289],[-106.641,37.297],[-106.698,37.343],[-106.79,37.344],[-106.819,37.372],[-106.81,37.411]]]}},{"type":"Feature","properties":{"density":2},"geometry":{"type":"Polygon","coordinates":[[[-105.305,41.943],[-105.364,41.957],[-105.405,42.025],[-105.391,42.06],[-105.35,42.087],[-105.271,42.075],[-105.245,42.045],[-105.235,41.979],[-105.247,41.957],[-105.305,41.943]]]}},{"type":"Feature","properties":{"density":2},"geometry":{"type":"Polygon","coordinates":[[[-93.709,29.959],[-93.702,29.989],[-93.611,30.068],[-93.578,30.083],[-93.55,30.072],[-93.545,30.046],[-93.567,30.022],[-93.689,29.944],[-93.709,29.959]]]}},{"type":"Feature","properties":{"density":2},"geometry":{"type":"Polygon","coordinates":[[[-92.712,18.148],[-92.875,18.271],[-92.958,18.308],[-92.991,18.308],[-93.018,18.277],[-93.017,18.238],[-92.971,18.192],[-92.761,18.128],[-92.712,18.148]]]}},{"type":"Feature","properties":{"density":2},"geometry":{"type":"Polygon","coordinates":[[[-92.456,18.242],[-92.636,18.358],[-92.671,18.361],[-92.69,18.345],[-92.699,18.321],[-92.684,18.293],[-92.491,18.22],[-92.454,18.224],[-92.456,18.242]]]}},{"type":"Feature","properties":{"density":2},"geometry":{"type":"Polygon","coordinates":[[[-124.497,50.614],[-125.271,50.718],[-126.715,50.781],[-127.95,50.488],[-130.063,49.526],[-131.068,48.835],[-131.779,48.145],[-132.449,47.37],[-133.119,46.554],[-133.432,46.073],[-133.704,45.508],[-133.935,44.817],[-134.165,44.294],[-134.29,43.729],[-134.186,43.541],[-133.453,43.436],[-132.7,43.687],[-132.156,44.064],[-131.612,44.734],[-131.319,45.131],[-130.775,45.947],[-130.252,46.596],[-129.896,47.077],[-129.456,47.559],[-128.829,48.165],[-127.929,48.793],[-127.029,49.254],[-126.255,49.609],[-125.083,49.881],[-124.267,49.881],[-123.534,49.756],[-122.907,49.714],[-122.279,49.63],[-121.672,49.505],[-121.463,49.567],[-121.212,49.505],[-120.961,49.609],[-120.961,49.777],[-121.295,50.091],[-121.672,50.195],[-122.404,50.363],[-123.325,50.425],[-123.953,50.509],[-124.476,50.635],[-124.497,50.614]]]}},{"type":"Feature","properties":{"density":2},"geometry":{"type":"Polygon","coordinates":[[[-106.805,37.437],[-106.726,37.536],[-106.607,37.621],[-106.475,37.682],[-106.326,37.729],[-106.185,37.745],[-106.045,37.734],[-105.896,37.704],[-105.725,37.632],[-105.563,37.478],[-105.532,37.315],[-105.549,37.224],[-105.626,37.136],[-105.695,37.095],[-105.822,37.054],[-105.97,37.037],[-106.119,37.051],[-106.249,37.087],[-106.695,37.313],[-106.808,37.348],[-106.825,37.404],[-106.805,37.437]]]}},{"type":"Feature","properties":{"density":2},"geometry":{"type":"Polygon","coordinates":[[[-105.822,35.984],[-105.868,35.976],[-105.996,35.877],[-106.012,35.827],[-106.004,35.794],[-105.963,35.753],[-105.897,35.736],[-105.843,35.757],[-105.719,35.84],[-105.694,35.873],[-105.694,35.939],[-105.727,35.968],[-105.777,35.989],[-105.822,35.984]]]}},{"type":"Feature","properties":{"density":2},"geometry":{"type":"Polygon","coordinates":[[[-98.695,33.952],[-98.769,34.132],[-98.825,34.361],[-98.837,34.597],[-98.794,34.628],[-98.738,34.616],[-98.651,34.541],[-98.564,34.424],[-98.44,34.095],[-98.447,34.039],[-98.496,33.958],[-98.552,33.927],[-98.595,33.927],[-98.67,33.971],[-98.695,33.952]]]}},{"type":"Feature","properties":{"density":2},"geometry":{"type":"Polygon","coordinates":[[[-122.073,39.848],[-122.241,39.768],[-122.319,39.708],[-122.332,39.644],[-122.296,39.581],[-122.296,39.537],[-122.335,39.471],[-122.432,39.382],[-122.589,39.333],[-122.793,39.319],[-122.974,39.272],[-123.005,39.25],[-122.999,39.201],[-122.894,39.126],[-122.826,39.11],[-122.729,39.112],[-122.415,39.181],[-122.233,39.25],[-122.095,39.327],[-122.048,39.44],[-121.93,39.614],[-121.845,39.71],[-121.814,39.801],[-121.811,39.867],[-121.894,39.906],[-122.073,39.848]]]}},{"type":"Feature","properties":{"density":2},"geometry":{"type":"Polygon","coordinates":[[[-95.194,19.943],[-95.631,19.822],[-96.152,19.645],[-96.54,19.271],[-96.708,18.873],[-96.708,18.078],[-96.52,17.409],[-96.227,16.509],[-96.227,15.965],[-96.478,15.17],[-96.75,14.532],[-97.064,13.947],[-97.357,13.307],[-97.629,12.491],[-97.629,12.114],[-97.503,11.78],[-97.336,11.528],[-96.75,11.361],[-96.101,11.403],[-95.285,11.717],[-94.573,11.959],[-94.008,12.219],[-92.439,12.868],[-91.874,13.119],[-91.548,13.414],[-91.435,13.768],[-91.372,14.479],[-91.539,15.128],[-91.632,15.851],[-91.614,16.52],[-91.53,17.023],[-91.539,17.681],[-91.665,18.162],[-91.832,18.58],[-92.753,19.543],[-93.192,19.941],[-93.695,20.108],[-93.967,20.148],[-94.385,20.12],[-95.194,19.943]]]}},{"type":"Feature","properties":{"density":2},"geometry":{"type":"Polygon","coordinates":[[[-50.169,63.305],[-50.075,64.906],[-50.64,67.072],[-51.77,68.72],[-52.711,69.897],[-54.03,70.698],[-56.337,71.215],[-58.032,71.357],[-60.668,71.451],[-62.881,71.215],[-64.765,70.415],[-65.518,69.662],[-65.8,68.955],[-65.518,67.873],[-64.623,65.518],[-64.482,64.483],[-64.67,63.494],[-65.094,62.693],[-66.13,62.034],[-67.26,62.175],[-68.814,62.646],[-71.827,63.494],[-72.439,63.447],[-72.816,62.976],[-72.58,62.223],[-71.45,61.093],[-69.708,60.245],[-68.672,60.01],[-66.177,59.162],[-64.906,58.974],[-64.105,58.456],[-62.222,57.185],[-60.998,56.384],[-59.209,55.678],[-58.314,55.348],[-56.996,54.454],[-55.96,53.889],[-54.971,53.7],[-54.595,54.077],[-54.453,54.454],[-54.642,55.301],[-55.395,56.196],[-56.29,56.808],[-56.949,57.891],[-57.561,59.115],[-58.267,60.716],[-58.408,61.846],[-58.032,62.788],[-57.372,63.023],[-56.29,63.353],[-55.583,63.305],[-54.595,63.07],[-54.077,62.599],[-53.559,61.658],[-52.994,61.234],[-52.193,60.904],[-51.205,60.575],[-50.687,60.669],[-50.357,60.951],[-50.122,61.516],[-50.027,61.893],[-50.027,62.74],[-50.169,63.305]]]}},{"type":"Feature","properties":{"density":3},"geometry":{"type":"Polygon","coordinates":[[[-106.803,37.454],[-106.702,37.471],[-106.696,37.444],[-106.722,37.404],[-106.786,37.371],[-106.856,37.375],[-106.857,37.413],[-106.803,37.454]]]}},{"type":"Feature","properties":{"density":3},"geometry":{"type":"Polygon","coordinates":[[[-122.988,39.264],[-122.649,39.261],[-122.542,39.289],[-122.454,39.325],[-122.266,39.495],[-122.255,39.542],[-122.266,39.608],[-122.252,39.655],[-122.208,39.694],[-122.126,39.721],[-122.073,39.716],[-122.024,39.639],[-122.021,39.567],[-122.062,39.468],[-122.2,39.322],[-122.31,39.247],[-122.63,39.17],[-122.87,39.162],[-122.977,39.179],[-122.999,39.195],[-123.016,39.242],[-122.988,39.264]]]}}]}