{"type":"FeatureCollection","features":[{"type":"Feature","properties":{"density":1},"geometry":{"type":"Polygon","coordinates":[[[-86.367,32.923],[-86.329,32.939],[-86.315,32.986],[-86.356,32.994],[-86.428,32.958],[-86.42,32.92],[-86.367,32.923]]]}},{"type":"Feature","properties":{"density":1},"geometry":{"type":"Polygon","coordinates":[[[-119.243,34.444],[-119.727,34.562],[-119.938,34.667],[-120.198,34.897],[-120.366,35.089],[-120.657,35.473],[-121.116,35.957],[-121.227,36.038],[-121.401,36.131],[-121.568,36.162],[-121.674,36.087],[-121.705,35.945],[-121.661,35.802],[-121.581,35.659],[-121.432,35.473],[-121.103,34.959],[-120.955,34.618],[-120.793,34.395],[-120.676,34.271],[-120.502,34.19],[-120.186,34.147],[-119.901,34.171],[-119.671,34.109],[-119.113,33.775],[-118.902,33.719],[-118.791,33.719],[-118.63,33.744],[-118.561,33.793],[-118.512,33.874],[-118.506,34.004],[-118.574,34.14],[-118.754,34.252],[-118.933,34.339],[-119.243,34.444]]]}},{"type":"Feature","properties":{"density":1},"geometry":{"type":"Polygon","coordinates":[[[-98.239,23.419],[-98.309,23.328],[-98.33,23.246],[-98.313,23.2],[-98.28,23.221],[-98.26,23.3],[-98.202,23.357],[-98.173,23.465],[-98.21,23.477],[-98.239,23.419]]]}},{"type":"Feature","properties":{"density":1},"geometry":{"type":"Polygon","coordinates":[[[-119.098,48.278],[-119.322,48.421],[-119.551,48.452],[-119.991,48.439],[-120.227,48.476],[-120.438,48.545],[-120.605,48.631],[-120.816,48.681],[-120.94,48.644],[-121.008,48.532],[-121.002,48.098],[-121.033,47.993],[-121.126,47.844],[-121.318,47.67],[-121.38,47.59],[-121.399,47.484],[-121.386,47.36],[-121.275,47.218],[-121.194,47.205],[-121.008,47.255],[-120.927,47.348],[-120.779,47.596],[-120.704,47.646],[-120.58,47.67],[-120.165,47.621],[-119.942,47.639],[-119.762,47.701],[-119.328,47.813],[-119.191,47.887],[-119.136,47.949],[-119.049,48.16],[-119.049,48.21],[-119.098,48.278]]]}},{"type":"Feature","properties":{"density":1},"geometry":{"type":"Polygon","coordinates":[[[-89.815,64.625],[-90.694,64.469],[-92.107,64.406],[-93.174,64.563],[-94.272,65.034],[-94.932,65.504],[-95.465,66.069],[-96.281,66.603],[-97.882,67.011],[-99.326,67.042],[-100.77,66.791],[-102.873,66.477],[-106.263,65.724],[-107.644,65.159],[-108.774,64.782],[-109.339,64.5],[-110.5,63.998],[-111.442,63.464],[-111.913,62.805],[-111.913,62.365],[-111.536,61.267],[-111.568,60.419],[-111.63,59.603],[-111.442,58.662],[-110.877,57.971],[-110.155,57.657],[-109.339,57.657],[-108.115,57.908],[-106.734,58.724],[-105.698,59.854],[-104.599,60.765],[-103.375,61.455],[-102.12,61.612],[-101.272,61.11],[-100.519,60.388],[-99.985,59.415],[-99.106,57.469],[-98.259,55.036],[-97.474,53.373],[-96.783,52.243],[-96.187,51.426],[-94.837,49.951],[-93.488,49.229],[-92.107,48.664],[-90.568,48.225],[-89.25,48.005],[-87.398,47.754],[-86.551,47.942],[-86.08,48.57],[-86.048,49.104],[-86.394,49.606],[-86.802,50.422],[-86.613,51.05],[-86.143,51.583],[-85.358,52.243],[-84.636,52.494],[-83.412,52.651],[-82.282,52.87],[-79.002,53.231],[-75.517,53.325],[-72.363,53.796],[-71.186,54.126],[-69.585,54.22],[-68.125,54.22],[-67.042,54.314],[-65.63,54.973],[-64.594,56.198],[-64.029,57.751],[-64.217,58.552],[-65.159,59.682],[-66.195,60.247],[-67.984,60.859],[-70.197,61.377],[-72.033,62.177],[-73.728,63.213],[-75.753,64.155],[-78.625,64.861],[-82.627,65.285],[-85.782,65.332],[-88.701,65.002],[-89.815,64.625]]]}},{"type":"Feature","properties":{"density":1},"geometry":{"type":"Polygon","coordinates":[[[-84.557,46.969],[-87.006,47.063],[-89.548,47.393],[-91.055,47.675],[-94.963,49.182],[-96.093,49.37],[-97.129,49.276],[-98.023,48.617],[-98.824,47.44],[-99.342,46.451],[-99.954,44.898],[-101.366,41.084],[-101.931,39.718],[-102.826,37.788],[-104.333,34.445],[-105.651,32.232],[-106.122,30.914],[-106.31,29.219],[-106.216,27.853],[-105.792,26.817],[-105.18,25.829],[-104.144,24.746],[-103.155,23.663],[-101.931,22.533],[-101.084,21.403],[-99.718,20.226],[-99.106,19.614],[-97.364,18.342],[-96.705,17.825],[-95.245,17.307],[-94.445,17.071],[-93.221,16.93],[-92.797,17.024],[-91.667,17.354],[-90.49,18.06],[-89.878,19.002],[-89.36,19.896],[-89.077,21.026],[-89.077,21.732],[-89.642,22.627],[-90.396,23.38],[-91.573,24.416],[-92.562,25.782],[-93.221,26.912],[-93.692,28.183],[-95.198,30.961],[-95.575,32.326],[-95.716,33.692],[-95.622,34.539],[-95.481,35.34],[-95.34,36.375],[-95.198,37.6],[-94.869,38.918],[-94.539,39.718],[-93.692,40.754],[-92.656,41.413],[-91.902,41.272],[-91.573,40.754],[-91.667,40.566],[-92.044,39.954],[-92.938,39.059],[-93.88,37.317],[-94.539,35.622],[-94.775,34.398],[-94.775,32.985],[-94.163,31.808],[-92.891,31.196],[-91.95,30.772],[-91.385,30.396],[-90.066,29.737],[-88.654,29.501],[-87.571,29.548],[-86.629,29.878],[-85.923,30.349],[-84.887,30.914],[-82.439,31.337],[-80.744,32.044],[-78.766,32.938],[-76.647,33.268],[-74.152,33.268],[-72.316,33.032],[-70.903,32.938],[-69.444,32.797],[-68.502,33.032],[-67.184,33.786],[-65.96,35.292],[-65.536,36.94],[-66.007,38.07],[-67.137,39.059],[-70.009,39.483],[-72.269,40.001],[-74.293,40.895],[-75.612,41.931],[-76.177,42.826],[-76.695,43.815],[-77.307,44.615],[-77.966,45.368],[-78.766,46.028],[-80.132,46.545],[-82.109,46.875],[-83.004,46.922],[-84.557,46.969]]]}},{"type":"Feature","properties":{"density":1},"geometry":{"type":"Polygon","coordinates":[[[-82.879,32.871],[-83.143,32.901],[-83.199,32.886],[-83.229,32.861],[-83.238,32.813],[-83.08,32.732],[-82.996,32.729],[-82.882,32.802],[-82.867,32.841],[-82.879,32.871]]]}},{"type":"Feature","properties":{"density":1},"geometry":{"type":"Polygon","coordinates":[[[-80.135,35.01],[-80.179,35.03],[-80.24,35.023],[-80.29,34.945],[-80.284,34.896],[-80.24,34.855],[-80.159,34.861],[-80.128,34.899],[-80.135,35.01]]]}},{"type":"Feature","properties":{"density":1},"geometry":{"type":"Polygon","coordinates":[[[-79.951,35.272],[-80.05,35.292],[-80.077,35.276],[-80.086,35.246],[-80.041,35.202],[-79.953,35.198],[-79.93,35.226],[-79.951,35.272]]]}},{"type":"Feature","properties":{"density":1},"geometry":{"type":"Polygon","coordinates":[[[-90.349,33.143],[-90.398,33.081],[-90.4,33.051],[-90.38,33.041],[-90.318,33.066],[-90.313,33.136],[-90.322,33.151],[-90.349,33.143]]]}},{"type":"Feature","properties":{"density":1},"geometry":{"type":"Polygon","coordinates":[[[-88.057,33.042],[-88.212,33.109],[-88.287,33.124],[-88.31,33.111],[-88.27,33.076],[-88.03,33.005],[-88.057,33.042]]]}},{"type":"Feature","properties":{"density":1},"geometry":{"type":"Polygon","coordinates":[[[-89.971,36.103],[-89.986,36.049],[-89.958,36.031],[-89.916,36.032],[-89.86,36.056],[-89.758,36.152],[-89.637,36.356],[-89.62,36.415],[-89.632,36.434],[-89.691,36.434],[-89.799,36.358],[-89.971,36.103]]]}},{"type":"Feature","properties":{"density":1},"geometry":{"type":"Polygon","coordinates":[[[-89.878,36.502],[-89.893,36.452],[-89.862,36.441],[-89.836,36.451],[-89.729,36.586],[-89.671,36.612],[-89.662,36.657],[-89.697,36.676],[-89.754,36.655],[-89.878,36.502]]]}},{"type":"Feature","properties":{"density":1},"geometry":{"type":"Polygon","coordinates":[[[-90.105,36.85],[-90.189,36.841],[-90.264,36.805],[-90.393,36.676],[-90.51,36.429],[-90.51,36.363],[-90.439,36.364],[-90.385,36.394],[-90.148,36.708],[-90.021,36.798],[-90.039,36.825],[-90.105,36.85]]]}},{"type":"Feature","properties":{"density":1},"geometry":{"type":"Polygon","coordinates":[[[-90.661,36.596],[-90.691,36.594],[-90.728,36.561],[-90.773,36.469],[-90.764,36.437],[-90.714,36.442],[-90.635,36.525],[-90.62,36.571],[-90.661,36.596]]]}},{"type":"Feature","properties":{"density":1},"geometry":{"type":"Polygon","coordinates":[[[-91.786,34.63],[-91.789,34.593],[-91.768,34.564],[-91.735,34.563],[-91.693,34.593],[-91.653,34.701],[-91.546,34.825],[-91.522,34.875],[-91.527,34.92],[-91.561,34.927],[-91.644,34.876],[-91.737,34.741],[-91.786,34.63]]]}},{"type":"Feature","properties":{"density":1},"geometry":{"type":"Polygon","coordinates":[[[-105.157,46.62],[-105.202,46.608],[-105.285,46.524],[-105.261,46.447],[-105.154,46.461],[-105.091,46.54],[-105.097,46.584],[-105.157,46.62]]]}},{"type":"Feature","properties":{"density":1},"geometry":{"type":"Polygon","coordinates":[[[-104.405,37.019],[-104.413,36.992],[-104.38,37.001],[-104.405,37.019]]]}},{"type":"Feature","properties":{"density":1},"geometry":{"type":"Polygon","coordinates":[[[-98.642,23.594],[-98.67,23.597],[-98.681,23.581],[-98.687,23.347],[-98.675,23.315],[-98.634,23.347],[-98.624,23.402],[-98.619,23.494],[-98.642,23.594]]]}},{"type":"Feature","properties":{"density":1},"geometry":{"type":"Polygon","coordinates":[[[-98.238,23.409],[-98.268,23.403],[-98.29,23.37],[-98.329,23.241],[-98.32,23.217],[-98.281,23.25],[-98.208,23.364],[-98.238,23.409]]]}},{"type":"Feature","properties":{"density":1},"geometry":{"type":"Polygon","coordinates":[[[-98.718,22.737],[-98.741,22.739],[-98.76,22.712],[-98.762,22.638],[-98.786,22.566],[-98.763,22.526],[-98.735,22.526],[-98.688,22.569],[-98.693,22.698],[-98.718,22.737]]]}},{"type":"Feature","properties":{"density":1},"geometry":{"type":"Polygon","coordinates":[[[-92.906,17.813],[-93.005,17.86],[-93.324,17.898],[-93.421,17.894],[-93.511,17.844],[-93.543,17.741],[-93.502,17.691],[-93.417,17.666],[-93.18,17.693],[-92.973,17.651],[-92.919,17.653],[-92.89,17.675],[-92.879,17.716],[-92.906,17.813]]]}},{"type":"Feature","properties":{"density":1},"geometry":{"type":"Polygon","coordinates":[[[-92.508,17.928],[-92.693,17.944],[-92.754,17.912],[-92.751,17.895],[-92.716,17.88],[-92.602,17.889],[-92.491,17.874],[-92.485,17.901],[-92.508,17.928]]]}},{"type":"Feature","properties":{"density":1},"geometry":{"type":"Polygon","coordinates":[[[-92.858,17.866],[-92.896,17.871],[-92.898,17.846],[-92.856,17.804],[-92.844,17.767],[-92.8,17.755],[-92.77,17.773],[-92.775,17.808],[-92.858,17.866]]]}},{"type":"Feature","properties":{"density":1},"geometry":{"type":"Polygon","coordinates":[[[-92.445,18.157],[-92.575,18.179],[-92.533,18.148],[-92.426,18.128],[-92.445,18.157]]]}},{"type":"Feature","properties":{"density":1},"geometry":{"type":"Polygon","coordinates":[[[-92.476,18.13],[-92.602,18.184],[-92.627,18.176],[-92.596,18.129],[-92.526,18.103],[-92.469,18.101],[-92.476,18.13]]]}},{"type":"Feature","properties":{"density":1},"geometry":{"type":"Polygon","coordinates":[[[-92.346,18.223],[-92.388,18.211],[-92.37,18.174],[-92.257,18.11],[-92.203,18.103],[-92.218,18.137],[-92.346,18.223]]]}},{"type":"Feature","properties":{"density":1},"geometry":{"type":"Polygon","coordinates":[[[-92.472,18.277],[-92.509,18.284],[-92.522,18.253],[-92.442,18.209],[-92.44,18.236],[-92.472,18.277]]]}},{"type":"Feature","properties":{"density":1},"geometry":{"type":"Polygon","coordinates":[[[-92.928,18.02],[-92.954,18.015],[-92.957,17.984],[-92.884,17.912],[-92.855,17.903],[-92.853,17.934],[-92.928,18.02]]]}},{"type":"Feature","properties":{"density":1},"geometry":{"type":"Polygon","coordinates":[[[-92.061,18.211],[-92.109,18.205],[-92.099,18.171],[-92.034,18.12],[-92.001,18.117],[-92.017,18.162],[-92.061,18.211]]]}},{"type":"Feature","properties":{"density":1},"geometry":{"type":"Polygon","coordinates":[[[-117.047,32.506],[-117.101,32.51],[-117.157,32.42],[-117.155,32.339],[-117.119,32.24],[-116.972,32.045],[-116.885,31.898],[-116.799,31.867],[-116.693,31.871],[-116.664,31.925],[-116.689,32.02],[-116.801,32.108],[-116.867,32.182],[-116.959,32.371],[-117.047,32.506]]]}},{"type":"Feature","properties":{"density":1},"geometry":{"type":"Polygon","coordinates":[[[-121.3,36.18],[-121.374,36.248],[-121.439,36.278],[-121.546,36.289],[-121.655,36.277],[-121.739,36.248],[-121.766,36.221],[-121.833,36.062],[-121.847,35.91],[-121.84,35.789],[-121.79,35.412],[-121.623,35.031],[-121.554,34.95],[-121.358,34.782],[-121.057,34.597],[-120.949,34.479],[-120.741,34.176],[-120.656,34.09],[-120.496,33.944],[-120.21,33.744],[-120.068,33.674],[-119.778,33.573],[-118.944,33.204],[-118.791,33.151],[-118.439,33.081],[-118.318,33.145],[-118.277,33.27],[-118.274,33.331],[-118.294,33.688],[-118.372,33.894],[-118.453,34.023],[-118.544,34.124],[-118.76,34.299],[-118.993,34.438],[-119.162,34.495],[-119.357,34.525],[-119.573,34.586],[-119.81,34.681],[-119.887,34.728],[-120.449,35.241],[-120.764,35.488],[-120.984,35.743],[-121.3,36.18]]]}},{"type":"Feature","properties":{"density":1},"geometry":{"type":"Polygon","coordinates":[[[-88.478,34.819],[-88.569,34.826],[-88.614,34.812],[-88.646,34.721],[-88.625,34.641],[-88.391,34.414],[-88.345,34.389],[-88.286,34.396],[-88.244,34.435],[-88.237,34.501],[-88.31,34.589],[-88.363,34.707],[-88.478,34.819]]]}},{"type":"Feature","properties":{"density":1},"geometry":{"type":"Polygon","coordinates":[[[-88.746,33.309],[-88.807,33.297],[-88.83,33.246],[-88.809,33.201],[-88.755,33.162],[-88.25,33.036],[-88.075,32.978],[-88.024,32.982],[-88.038,33.038],[-88.136,33.099],[-88.488,33.248],[-88.646,33.299],[-88.746,33.309]]]}},{"type":"Feature","properties":{"density":1},"geometry":{"type":"Polygon","coordinates":[[[-90.797,34.031],[-90.848,34.026],[-90.867,33.975],[-90.841,33.928],[-90.827,33.837],[-90.779,33.807],[-90.744,33.854],[-90.739,33.949],[-90.797,34.031]]]}},{"type":"Feature","properties":{"density":1},"geometry":{"type":"Polygon","coordinates":[[[-88.563,34.802],[-88.605,34.797],[-88.654,34.757],[-88.652,34.697],[-88.619,34.636],[-88.484,34.518],[-88.407,34.427],[-88.326,34.378],[-88.281,34.371],[-88.277,34.424],[-88.393,34.573],[-88.428,34.678],[-88.521,34.781],[-88.563,34.802]]]}},{"type":"Feature","properties":{"density":1},"geometry":{"type":"Polygon","coordinates":[[[-80.404,35.182],[-80.461,35.194],[-80.482,35.176],[-80.485,35.139],[-80.46,35.08],[-80.394,35.013],[-80.205,34.891],[-80.16,34.881],[-80.139,34.894],[-80.119,34.941],[-80.148,35.002],[-80.404,35.182]]]}},{"type":"Feature","properties":{"density":1},"geometry":{"type":"Polygon","coordinates":[[[-80.251,35.4],[-80.322,35.41],[-80.337,35.394],[-80.334,35.332],[-80.268,35.281],[-80.17,35.241],[-80.112,35.178],[-80.034,35.149],[-79.989,35.152],[-79.921,35.188],[-79.92,35.251],[-79.948,35.293],[-80.251,35.4]]]}},{"type":"Feature","properties":{"density":1},"geometry":{"type":"Polygon","coordinates":[[[-87.451,37.327],[-87.52,37.33],[-87.561,37.294],[-87.592,37.168],[-87.691,36.916],[-87.687,36.848],[-87.57,36.855],[-87.453,36.891],[-87.316,37.003],[-87.307,37.093],[-87.32,37.147],[-87.451,37.327]]]}},{"type":"Feature","properties":{"density":1},"geometry":{"type":"Polygon","coordinates":[[[-98.185,46.473],[-98.235,46.469],[-98.293,46.422],[-98.293,46.208],[-98.309,46.1],[-98.289,46.044],[-98.205,46.082],[-98.091,46.221],[-98.082,46.368],[-98.127,46.446],[-98.185,46.473]]]}},{"type":"Feature","properties":{"density":1},"geometry":{"type":"Polygon","coordinates":[[[-96.042,38.17],[-96.08,38.168],[-96.123,38.096],[-96.168,37.758],[-96.156,37.704],[-96.116,37.727],[-96.102,37.754],[-96.01,38.01],[-96.001,38.109],[-96.042,38.17]]]}},{"type":"Feature","properties":{"density":1},"geometry":{"type":"Polygon","coordinates":[[[-98.524,35.16],[-98.548,35.161],[-98.551,35.137],[-98.516,35.038],[-98.497,35.016],[-98.468,35.019],[-98.459,35.065],[-98.524,35.16]]]}},{"type":"Feature","properties":{"density":1},"geometry":{"type":"Polygon","coordinates":[[[-103.642,35.683],[-103.734,35.659],[-103.803,35.593],[-103.809,35.566],[-103.752,35.546],[-103.548,35.605],[-103.558,35.647],[-103.642,35.683]]]}},{"type":"Feature","properties":{"density":1},"geometry":{"type":"Polygon","coordinates":[[[-104.383,46.976],[-104.457,46.994],[-104.59,46.987],[-104.653,46.976],[-104.779,46.915],[-104.892,46.807],[-105.117,46.683],[-105.189,46.618],[-105.267,46.526],[-105.265,46.442],[-105.202,46.418],[-104.97,46.413],[-104.678,46.37],[-104.403,46.433],[-104.255,46.501],[-104.172,46.595],[-104.158,46.629],[-104.163,46.71],[-104.208,46.807],[-104.383,46.976]]]}},{"type":"Feature","properties":{"density":1},"geometry":{"type":"Polygon","coordinates":[[[-109.184,62.237],[-109.357,62.219],[-109.443,62.192],[-109.474,62.162],[-109.501,62.122],[-109.503,62.077],[-109.438,61.982],[-109.429,61.913],[-109.33,61.883],[-109.274,61.906],[-109.195,62.036],[-109.092,62.126],[-109.085,62.151],[-109.107,62.203],[-109.184,62.237]]]}},{"type":"Feature","properties":{"density":1},"geometry":{"type":"Polygon","coordinates":[[[-121.27,36.108],[-121.347,36.142],[-121.455,36.148],[-121.533,36.121],[-121.587,36.074],[-121.624,35.929],[-121.617,35.703],[-121.56,35.534],[-121.204,34.984],[-121.057,34.67],[-120.966,34.538],[-120.804,34.366],[-120.697,34.214],[-120.566,34.159],[-120.206,34.133],[-120.07,34.073],[-119.801,34.032],[-119.558,33.956],[-119.396,33.865],[-119.002,33.802],[-118.864,33.741],[-118.712,33.633],[-118.543,33.545],[-118.317,33.518],[-118.172,33.535],[-118.162,33.609],[-118.199,33.704],[-118.383,33.989],[-118.501,34.104],[-118.646,34.188],[-119.173,34.391],[-119.574,34.63],[-119.76,34.694],[-120.06,34.829],[-120.314,34.975],[-120.506,35.113],[-120.638,35.248],[-121.049,35.842],[-121.27,36.108]]]}},{"type":"Feature","properties":{"density":1},"geometry":{"type":"Polygon","coordinates":[[[-120.603,48.362],[-120.698,48.416],[-120.779,48.429],[-120.817,48.418],[-120.864,48.375],[-120.869,48.326],[-120.819,48.215],[-120.705,48.103],[-120.619,47.855],[-120.567,47.84],[-120.522,47.88],[-120.484,47.889],[-120.365,47.867],[-120.275,47.896],[-120.252,47.925],[-120.282,48.047],[-120.504,48.238],[-120.603,48.362]]]}},{"type":"Feature","properties":{"density":1},"geometry":{"type":"Polygon","coordinates":[[[-98.655,23.776],[-98.712,23.773],[-98.737,23.711],[-98.71,23.558],[-98.716,23.381],[-98.679,23.299],[-98.641,23.308],[-98.608,23.348],[-98.596,23.473],[-98.572,23.545],[-98.572,23.606],[-98.596,23.689],[-98.655,23.776]]]}},{"type":"Feature","properties":{"density":1},"geometry":{"type":"Polygon","coordinates":[[[-98.151,23.642],[-98.172,23.644],[-98.202,23.618],[-98.25,23.468],[-98.322,23.338],[-98.347,23.248],[-98.335,23.2],[-98.28,23.191],[-98.25,23.207],[-98.1,23.482],[-98.094,23.578],[-98.151,23.642]]]}},{"type":"Feature","properties":{"density":1},"geometry":{"type":"Polygon","coordinates":[[[-92.9,18.008],[-92.988,18.063],[-93.017,18.065],[-93.033,18.039],[-93.018,17.99],[-92.939,17.901],[-92.862,17.888],[-92.85,17.934],[-92.9,18.008]]]}},{"type":"Feature","properties":{"density":1},"geometry":{"type":"Polygon","coordinates":[[[-92.562,17.936],[-92.64,17.935],[-92.861,17.863],[-92.872,17.841],[-92.845,17.814],[-92.784,17.817],[-92.659,17.865],[-92.553,17.881],[-92.534,17.905],[-92.562,17.936]]]}},{"type":"Feature","properties":{"density":1},"geometry":{"type":"Polygon","coordinates":[[[-92.671,18.142],[-92.786,18.146],[-92.819,18.135],[-92.841,18.106],[-92.807,18.09],[-92.66,18.094],[-92.646,18.109],[-92.671,18.142]]]}},{"type":"Feature","properties":{"density":1},"geometry":{"type":"Polygon","coordinates":[[[-92.426,18.157],[-92.586,18.169],[-92.693,18.131],[-92.699,18.117],[-92.626,18.093],[-92.512,18.115],[-92.421,18.107],[-92.397,18.13],[-92.426,18.157]]]}},{"type":"Feature","properties":{"density":1},"geometry":{"type":"Polygon","coordinates":[[[-92.662,18.29],[-92.707,18.287],[-92.731,18.264],[-92.731,18.238],[-92.707,18.211],[-92.618,18.192],[-92.454,18.22],[-92.487,18.254],[-92.662,18.29]]]}},{"type":"Feature","properties":{"density":1},"geometry":{"type":"Polygon","coordinates":[[[-92.278,18.402],[-92.316,18.412],[-92.382,18.392],[-92.401,18.31],[-92.372,18.263],[-92.312,18.22],[-92.178,18.179],[-92.103,18.135],[-92.005,18.123],[-91.997,18.146],[-92.031,18.199],[-92.278,18.402]]]}},{"type":"Feature","properties":{"density":1},"geometry":{"type":"Polygon","coordinates":[[[-92.227,18.133],[-92.328,18.177],[-92.539,18.205],[-92.604,18.199],[-92.562,18.147],[-92.409,18.089],[-92.222,18.07],[-92.2,18.103],[-92.227,18.133]]]}},{"type":"Feature","properties":{"density":1},"geometry":{"type":"Polygon","coordinates":[[[-86.245,31.677],[-86.506,31.754],[-86.839,31.817],[-87.051,31.805],[-87.152,31.772],[-87.186,31.729],[-87.177,31.697],[-87.132,31.659],[-87.067,31.639],[-86.743,31.567],[-86.455,31.544],[-86.313,31.542],[-86.218,31.562],[-86.203,31.576],[-86.205,31.607],[-86.245,31.677]]]}},{"type":"Feature","properties":{"density":1},"geometry":{"type":"Polygon","coordinates":[[[-85.973,33.329],[-86.05,33.383],[-86.173,33.41],[-86.335,33.531],[-86.421,33.563],[-86.529,33.56],[-86.628,33.509],[-86.671,33.416],[-86.655,33.353],[-86.608,33.302],[-86.479,33.252],[-86.216,33.259],[-85.973,33.227],[-85.946,33.252],[-85.973,33.329]]]}},{"type":"Feature","properties":{"density":1},"geometry":{"type":"Polygon","coordinates":[[[-88.732,35.085],[-88.801,35.112],[-88.88,35.106],[-88.941,35.022],[-88.963,34.928],[-88.941,34.795],[-88.79,34.579],[-88.759,34.442],[-88.709,34.388],[-88.558,34.329],[-88.43,34.314],[-88.3,34.325],[-88.27,34.374],[-88.27,34.413],[-88.311,34.516],[-88.32,34.615],[-88.266,34.759],[-88.279,34.827],[-88.327,34.892],[-88.396,34.941],[-88.732,35.085]]]}},{"type":"Feature","properties":{"density":1},"geometry":{"type":"Polygon","coordinates":[[[-90.328,34.988],[-90.357,34.988],[-90.387,34.95],[-90.378,34.781],[-90.342,34.719],[-90.285,34.679],[-90.241,34.679],[-90.22,34.769],[-90.238,34.925],[-90.295,34.982],[-90.328,34.988]]]}},{"type":"Feature","properties":{"density":1},"geometry":{"type":"Polygon","coordinates":[[[-89.086,33.372],[-89.149,33.363],[-89.173,33.323],[-89.137,33.269],[-89.095,33.251],[-88.489,33.125],[-88.147,32.994],[-88.053,32.974],[-88.008,32.988],[-88.017,33.035],[-88.12,33.098],[-88.588,33.273],[-88.894,33.35],[-89.086,33.372]]]}},{"type":"Feature","properties":{"density":1},"geometry":{"type":"Polygon","coordinates":[[[-80.587,35.686],[-80.643,35.704],[-80.704,35.698],[-80.747,35.639],[-80.745,35.576],[-80.679,35.41],[-80.72,35.153],[-80.686,35.045],[-80.603,34.984],[-80.425,34.946],[-80.288,34.892],[-80.178,34.89],[-80.155,34.919],[-80.166,34.987],[-80.211,35.065],[-80.297,35.162],[-80.349,35.261],[-80.434,35.495],[-80.587,35.686]]]}},{"type":"Feature","properties":{"density":1},"geometry":{"type":"Polygon","coordinates":[[[-79.692,35.74],[-79.903,35.844],[-80.133,35.896],[-80.254,35.887],[-80.43,35.801],[-80.544,35.675],[-80.553,35.59],[-80.506,35.412],[-80.425,35.194],[-80.389,35.142],[-80.324,35.099],[-80.191,35.061],[-80.025,34.948],[-79.975,34.937],[-79.809,34.944],[-79.692,35.009],[-79.48,35.295],[-79.48,35.349],[-79.503,35.405],[-79.595,35.554],[-79.651,35.691],[-79.692,35.74]]]}},{"type":"Feature","properties":{"density":1},"geometry":{"type":"Polygon","coordinates":[[[-86.284,38.408],[-86.495,38.393],[-86.741,38.326],[-86.905,38.25],[-87.046,38.13],[-87.151,37.995],[-87.277,37.787],[-87.558,37.536],[-87.696,37.345],[-87.736,37.263],[-87.775,37.123],[-87.777,36.997],[-87.742,36.871],[-87.704,36.853],[-87.655,36.856],[-87.458,37.055],[-87.262,37.187],[-87.218,37.243],[-87.104,37.474],[-87.008,37.615],[-86.671,37.919],[-86.557,37.995],[-86.217,38.136],[-86.167,38.215],[-86.161,38.288],[-86.24,38.39],[-86.284,38.408]]]}},{"type":"Feature","properties":{"density":1},"geometry":{"type":"Polygon","coordinates":[[[-85.309,38.207],[-85.42,38.221],[-85.533,38.193],[-85.709,38.078],[-85.958,37.984],[-85.996,37.936],[-85.984,37.902],[-85.896,37.893],[-85.785,37.916],[-85.465,38.078],[-85.271,38.111],[-85.258,38.154],[-85.309,38.207]]]}},{"type":"Feature","properties":{"density":1},"geometry":{"type":"Polygon","coordinates":[[[-91.752,30.826],[-91.774,30.807],[-91.77,30.719],[-91.74,30.758],[-91.733,30.81],[-91.752,30.826]]]}},{"type":"Feature","properties":{"density":1},"geometry":{"type":"Polygon","coordinates":[[[-91.896,33.739],[-91.99,33.841],[-92.016,33.835],[-92.028,33.812],[-92.019,33.762],[-91.823,33.557],[-91.794,33.498],[-91.764,33.27],[-91.741,33.244],[-91.715,33.247],[-91.682,33.296],[-91.691,33.387],[-91.811,33.636],[-91.896,33.739]]]}},{"type":"Feature","properties":{"density":1},"geometry":{"type":"Polygon","coordinates":[[[-92.227,33.49],[-92.315,33.545],[-92.379,33.545],[-92.411,33.522],[-92.432,33.469],[-92.423,33.399],[-92.382,33.334],[-92.28,33.217],[-92.007,32.983],[-91.843,32.787],[-91.805,32.764],[-91.726,32.761],[-91.694,32.81],[-91.691,32.846],[-91.712,32.942],[-91.747,33.001],[-91.849,33.124],[-92.227,33.49]]]}},{"type":"Feature","properties":{"density":1},"geometry":{"type":"Polygon","coordinates":[[[-91.571,33.159],[-91.653,33.197],[-91.682,33.176],[-91.685,33.15],[-91.665,33.097],[-91.6,33.018],[-91.568,32.951],[-91.554,32.951],[-91.527,33.027],[-91.527,33.086],[-91.571,33.159]]]}},{"type":"Feature","properties":{"density":1},"geometry":{"type":"Polygon","coordinates":[[[-91.811,34.07],[-91.846,34.086],[-91.864,34.07],[-91.862,34.006],[-91.766,33.863],[-91.723,33.651],[-91.708,33.627],[-91.686,33.629],[-91.661,33.678],[-91.669,33.776],[-91.749,33.992],[-91.811,34.07]]]}},{"type":"Feature","properties":{"density":1},"geometry":{"type":"Polygon","coordinates":[[[-91.764,35.275],[-91.758,35.36],[-91.77,35.401],[-91.823,35.411],[-91.846,35.394],[-91.858,35.28],[-91.911,35.142],[-91.926,35.011],[-91.846,34.744],[-91.825,34.566],[-91.79,34.509],[-91.758,34.494],[-91.712,34.507],[-91.696,34.533],[-91.653,34.876],[-91.665,34.952],[-91.743,35.146],[-91.764,35.275]]]}},{"type":"Feature","properties":{"density":1},"geometry":{"type":"Polygon","coordinates":[[[-92.113,35.296],[-92.143,35.325],[-92.189,35.34],[-92.248,35.305],[-92.301,35.179],[-92.295,35.076],[-92.23,34.912],[-92.228,34.643],[-92.204,34.588],[-92.151,34.558],[-92.072,34.59],[-92.04,34.631],[-92.02,34.743],[-92.034,35.073],[-92.113,35.296]]]}},{"type":"Feature","properties":{"density":1},"geometry":{"type":"Polygon","coordinates":[[[-90.855,35.628],[-90.916,35.704],[-90.965,35.692],[-90.994,35.587],[-90.988,35.388],[-91.111,35.314],[-91.136,35.222],[-91.131,35.179],[-91.014,34.923],[-90.949,34.865],[-90.902,34.847],[-90.865,34.865],[-90.846,34.952],[-90.844,35.253],[-90.818,35.548],[-90.82,35.591],[-90.855,35.628]]]}},{"type":"Feature","properties":{"density":1},"geometry":{"type":"Polygon","coordinates":[[[-90.877,35.626],[-90.914,35.641],[-90.947,35.579],[-90.947,35.433],[-90.984,35.251],[-90.98,35.198],[-90.963,35.187],[-90.93,35.196],[-90.883,35.304],[-90.861,35.561],[-90.877,35.626]]]}},{"type":"Feature","properties":{"density":1},"geometry":{"type":"Polygon","coordinates":[[[-91.109,34.899],[-91.179,34.912],[-91.207,34.793],[-91.158,34.669],[-91.125,34.507],[-91.066,34.403],[-91.031,34.296],[-90.996,34.255],[-90.963,34.253],[-90.898,34.284],[-90.859,34.348],[-90.84,34.508],[-90.875,34.604],[-90.928,34.688],[-91.109,34.899]]]}},{"type":"Feature","properties":{"density":1},"geometry":{"type":"Polygon","coordinates":[[[-90.385,35.508],[-90.412,35.529],[-90.432,35.525],[-90.446,35.478],[-90.403,35.365],[-90.399,35.137],[-90.366,35.106],[-90.332,35.129],[-90.323,35.16],[-90.319,35.289],[-90.385,35.508]]]}},{"type":"Feature","properties":{"density":1},"geometry":{"type":"Polygon","coordinates":[[[-90.397,35.674],[-90.436,35.722],[-90.492,35.875],[-90.522,35.873],[-90.531,35.802],[-90.52,35.758],[-90.459,35.631],[-90.422,35.59],[-90.383,35.603],[-90.381,35.648],[-90.397,35.674]]]}},{"type":"Feature","properties":{"density":1},"geometry":{"type":"Polygon","coordinates":[[[-90.352,35.51],[-90.319,35.437],[-90.272,35.434],[-90.252,35.463],[-90.241,35.584],[-90.215,35.611],[-90.223,35.672],[-90.295,35.818],[-90.34,35.869],[-90.368,35.859],[-90.383,35.812],[-90.352,35.51]]]}},{"type":"Feature","properties":{"density":1},"geometry":{"type":"Polygon","coordinates":[[[-89.446,37.393],[-89.548,37.375],[-89.616,37.34],[-89.686,37.27],[-89.838,37.035],[-90.008,36.877],[-90.064,36.772],[-90.14,36.567],[-90.268,36.412],[-90.374,36.353],[-90.47,36.35],[-90.59,36.438],[-90.646,36.432],[-90.667,36.374],[-90.646,36.058],[-90.552,35.976],[-90.435,35.932],[-90.336,35.862],[-90.283,35.788],[-90.207,35.589],[-90.128,35.537],[-89.993,35.537],[-89.882,35.595],[-89.709,35.835],[-89.636,35.976],[-89.572,36.169],[-89.446,36.725],[-89.399,36.822],[-89.215,37.094],[-89.215,37.202],[-89.305,37.296],[-89.446,37.393]]]}},{"type":"Feature","properties":{"density":1},"geometry":{"type":"Polygon","coordinates":[[[-89.646,38.075],[-90.023,38.08],[-90.326,38.036],[-90.506,37.978],[-90.577,37.939],[-90.634,37.864],[-90.678,37.658],[-90.647,37.39],[-90.66,37.271],[-90.735,36.982],[-90.735,36.81],[-90.568,36.362],[-90.484,36.275],[-90.423,36.261],[-90.309,36.301],[-90.194,36.393],[-90.146,36.442],[-89.931,36.832],[-89.646,37.184],[-89.571,37.258],[-89.316,37.403],[-89.224,37.513],[-89.189,37.588],[-89.167,37.75],[-89.193,37.816],[-89.25,37.882],[-89.404,37.965],[-89.571,38.027],[-89.646,38.075]]]}},{"type":"Feature","properties":{"density":1},"geometry":{"type":"Polygon","coordinates":[[[-91.817,37.947],[-91.864,37.945],[-91.895,37.916],[-91.922,37.756],[-91.965,37.627],[-91.971,37.512],[-91.93,37.448],[-91.911,37.477],[-91.905,37.608],[-91.786,37.842],[-91.79,37.912],[-91.817,37.947]]]}},{"type":"Feature","properties":{"density":1},"geometry":{"type":"Polygon","coordinates":[[[-98.746,46.893],[-98.98,46.938],[-99.146,46.909],[-99.267,46.837],[-99.519,46.63],[-99.648,46.47],[-99.653,46.421],[-99.622,46.394],[-99.54,46.421],[-99.06,46.692],[-98.822,46.79],[-98.722,46.803],[-98.701,46.841],[-98.746,46.893]]]}},{"type":"Feature","properties":{"density":1},"geometry":{"type":"Polygon","coordinates":[[[-98.254,46.133],[-98.347,46.115],[-98.383,46.084],[-98.445,45.959],[-98.445,45.916],[-98.419,45.911],[-98.323,45.961],[-98.233,46.046],[-98.212,46.111],[-98.254,46.133]]]}},{"type":"Feature","properties":{"density":1},"geometry":{"type":"Polygon","coordinates":[[[-99.827,41.622],[-99.846,41.643],[-99.885,41.647],[-99.9,41.587],[-99.843,41.506],[-99.806,41.397],[-99.765,41.373],[-99.714,41.377],[-99.65,41.448],[-99.654,41.473],[-99.827,41.622]]]}},{"type":"Feature","properties":{"density":1},"geometry":{"type":"Polygon","coordinates":[[[-96.012,39.16],[-96.107,39.183],[-96.174,39.156],[-96.252,39.018],[-96.296,38.829],[-96.292,38.734],[-96.204,38.397],[-96.211,37.826],[-96.154,37.715],[-96.113,37.739],[-96.029,37.837],[-95.958,37.985],[-95.901,38.285],[-95.843,38.461],[-95.772,38.609],[-95.735,38.778],[-95.749,38.883],[-95.813,38.991],[-95.88,39.065],[-96.012,39.16]]]}},{"type":"Feature","properties":{"density":1},"geometry":{"type":"Polygon","coordinates":[[[-96.181,37.735],[-96.184,38.012],[-96.157,38.12],[-96.134,38.36],[-96.15,38.447],[-96.235,38.67],[-96.258,38.714],[-96.306,38.728],[-96.333,38.694],[-96.336,38.589],[-96.312,38.15],[-96.265,37.948],[-96.285,37.732],[-96.275,37.695],[-96.242,37.681],[-96.211,37.695],[-96.181,37.735]]]}},{"type":"Feature","properties":{"density":1},"geometry":{"type":"Polygon","coordinates":[[[-99.032,35.638],[-99.082,35.655],[-99.102,35.644],[-99.113,35.624],[-99.102,35.57],[-98.897,35.324],[-98.61,35.061],[-98.529,35.02],[-98.468,35.013],[-98.458,35.057],[-98.502,35.115],[-99.032,35.638]]]}},{"type":"Feature","properties":{"density":1},"geometry":{"type":"Polygon","coordinates":[[[-99.314,26.647],[-99.375,26.643],[-99.382,26.586],[-99.284,26.468],[-98.953,26.343],[-98.683,26.181],[-98.622,26.164],[-98.568,26.171],[-98.578,26.208],[-98.737,26.319],[-98.923,26.4],[-99.314,26.647]]]}},{"type":"Feature","properties":{"density":1},"geometry":{"type":"Polygon","coordinates":[[[-103.832,35.609],[-103.834,35.573],[-103.816,35.544],[-103.78,35.537],[-103.724,35.56],[-103.566,35.654],[-103.217,35.904],[-103.073,35.933],[-103.006,35.967],[-102.99,35.996],[-102.99,36.07],[-103.051,36.219],[-103.121,36.271],[-103.181,36.28],[-103.334,36.205],[-103.508,36.059],[-103.598,35.96],[-103.78,35.733],[-103.825,35.656],[-103.832,35.609]]]}},{"type":"Feature","properties":{"density":1},"geometry":{"type":"Polygon","coordinates":[[[-103.67,35.33],[-103.679,35.254],[-103.649,35.22],[-103.604,35.22],[-103.287,35.375],[-103.258,35.4],[-103.256,35.436],[-103.296,35.492],[-103.352,35.497],[-103.496,35.452],[-103.593,35.402],[-103.67,35.33]]]}},{"type":"Feature","properties":{"density":1},"geometry":{"type":"Polygon","coordinates":[[[-105.248,46.632],[-105.275,46.605],[-105.295,46.544],[-105.285,46.486],[-105.255,46.453],[-105.106,46.375],[-104.705,46.291],[-104.415,46.291],[-104.131,46.351],[-104.003,46.362],[-103.554,46.314],[-103.416,46.318],[-103.152,46.378],[-102.822,46.534],[-102.764,46.571],[-102.589,46.746],[-102.234,46.966],[-101.958,47.107],[-101.927,47.195],[-101.934,47.222],[-102.012,47.293],[-102.194,47.35],[-102.282,47.408],[-102.437,47.546],[-102.595,47.631],[-102.764,47.664],[-102.923,47.647],[-103.115,47.577],[-103.365,47.55],[-103.898,47.404],[-104.253,47.337],[-104.472,47.266],[-104.664,47.165],[-104.958,46.949],[-105.171,46.753],[-105.248,46.632]]]}},{"type":"Feature","properties":{"density":1},"geometry":{"type":"Polygon","coordinates":[[[-107.191,43.948],[-107.216,43.952],[-107.228,43.931],[-107.21,43.831],[-107.187,43.824],[-107.16,43.872],[-107.191,43.948]]]}},{"type":"Feature","properties":{"density":1},"geometry":{"type":"Polygon","coordinates":[[[-98.96,25.383],[-99.097,25.395],[-99.155,25.346],[-99.159,25.314],[-99.112,25.26],[-99.063,25.236],[-98.757,25.192],[-98.609,25.147],[-98.421,25.012],[-98.316,24.887],[-98.224,24.821],[-98.146,24.793],[-98.013,24.782],[-98.011,24.803],[-98.054,24.854],[-98.48,25.17],[-98.657,25.272],[-98.96,25.383]]]}},{"type":"Feature","properties":{"density":1},"geometry":{"type":"Polygon","coordinates":[[[-99.254,24.115],[-99.291,24.133],[-99.301,24.119],[-99.265,24.041],[-99.16,23.934],[-99.111,23.926],[-99.111,23.955],[-99.148,24.012],[-99.254,24.115]]]}},{"type":"Feature","properties":{"density":1},"geometry":{"type":"Polygon","coordinates":[[[-98.692,24.008],[-98.742,24.019],[-98.781,23.939],[-98.768,23.758],[-98.779,23.516],[-98.735,23.356],[-98.717,23.329],[-98.66,23.311],[-98.613,23.334],[-98.574,23.395],[-98.551,23.483],[-98.547,23.612],[-98.635,23.883],[-98.692,24.008]]]}},{"type":"Feature","properties":{"density":1},"geometry":{"type":"Polygon","coordinates":[[[-98.08,23.797],[-98.119,23.815],[-98.216,23.802],[-98.299,23.732],[-98.387,23.455],[-98.413,23.284],[-98.413,23.227],[-98.391,23.174],[-98.348,23.152],[-98.286,23.161],[-98.159,23.253],[-98.097,23.367],[-98.036,23.56],[-98.036,23.696],[-98.08,23.797]]]}},{"type":"Feature","properties":{"density":1},"geometry":{"type":"Polygon","coordinates":[[[-95.671,18.721],[-95.782,18.696],[-95.829,18.669],[-95.873,18.618],[-95.878,18.578],[-95.649,18.69],[-95.647,18.708],[-95.671,18.721]]]}},{"type":"Feature","properties":{"density":1},"geometry":{"type":"Polygon","coordinates":[[[-95.699,18.575],[-95.808,18.518],[-95.911,18.44],[-95.952,18.385],[-95.951,18.335],[-95.925,18.327],[-95.882,18.35],[-95.636,18.564],[-95.649,18.577],[-95.699,18.575]]]}},{"type":"Feature","properties":{"density":1},"geometry":{"type":"Polygon","coordinates":[[[-94.909,18.015],[-94.979,17.988],[-95.022,17.901],[-94.924,17.916],[-94.878,17.981],[-94.909,18.015]]]}},{"type":"Feature","properties":{"density":1},"geometry":{"type":"Polygon","coordinates":[[[-121.045,36.569],[-121.227,36.574],[-121.445,36.483],[-121.541,36.422],[-121.652,36.235],[-121.693,36.083],[-121.703,35.982],[-121.703,35.683],[-121.556,34.651],[-121.399,34.134],[-121.308,33.906],[-121.252,33.82],[-121.121,33.689],[-120.619,33.395],[-120.316,33.187],[-120.042,32.929],[-119.668,32.767],[-119.511,32.757],[-119.339,32.772],[-119.217,32.803],[-119.025,32.798],[-118.6,32.696],[-118.372,32.666],[-118.179,32.681],[-118.058,32.757],[-118.017,32.803],[-117.997,32.944],[-118.007,33.112],[-117.931,33.38],[-117.931,33.446],[-118.22,33.841],[-118.534,34.073],[-119.141,34.332],[-119.546,34.549],[-120.128,34.828],[-120.437,35.071],[-120.473,35.111],[-120.544,35.253],[-120.65,35.567],[-120.685,35.982],[-120.736,36.124],[-121.045,36.569]]]}},{"type":"Feature","properties":{"density":1},"geometry":{"type":"Polygon","coordinates":[[[-108.86,62.46],[-109.073,62.383],[-109.342,62.194],[-109.412,62.061],[-109.415,61.988],[-109.398,61.929],[-109.349,61.89],[-109.3,61.887],[-109.213,61.936],[-109.09,62.082],[-108.863,62.187],[-108.741,62.264],[-108.689,62.341],[-108.692,62.397],[-108.79,62.46],[-108.86,62.46]]]}},{"type":"Feature","properties":{"density":1},"geometry":{"type":"Polygon","coordinates":[[[-69.091,72.3],[-66.185,72.141],[-64.792,72.021],[-62.364,71.862],[-60.096,71.623],[-54.444,70.748],[-53.529,70.509],[-53.011,70.27],[-51.976,69.434],[-51.857,69.116],[-51.777,68.559],[-51.737,68.121],[-51.737,67.325],[-51.976,66.728],[-52.573,65.972],[-55.439,65.136],[-57.469,64.817],[-58.703,64.579],[-59.937,64.26],[-61.17,63.902],[-61.927,63.584],[-62.563,63.186],[-63.16,62.628],[-63.479,62.23],[-62.882,60.24],[-62.723,59.882],[-62.364,59.365],[-62.006,58.807],[-61.648,58.409],[-61.21,58.051],[-60.733,57.773],[-59.976,57.494],[-59.3,57.215],[-57.349,56.857],[-56.593,56.857],[-55.718,56.817],[-54.563,56.698],[-53.369,56.539],[-52.056,56.3],[-50.703,56.021],[-47.917,55.424],[-47.001,54.907],[-46.723,54.509],[-46.484,54.111],[-46.404,53.673],[-46.364,52.678],[-46.563,51.484],[-46.842,50.807],[-47.16,50.489],[-48.991,49.613],[-49.946,49.534],[-50.384,49.534],[-51.101,49.653],[-51.937,49.733],[-52.653,49.892],[-53.489,50.051],[-54.524,50.33],[-55.439,50.608],[-56.235,50.887],[-63.598,53.992],[-67.379,54.31],[-69.051,54.589],[-71.439,54.788],[-72.315,54.748],[-73.509,54.628],[-74.543,54.549],[-75.976,54.191],[-76.733,53.952],[-77.767,53.713],[-78.723,53.434],[-79.718,53.235],[-81.668,52.798],[-82.432,52.301],[-82.822,51.894],[-83.105,51.717],[-83.405,51.629],[-83.741,51.611],[-84.095,51.646],[-84.52,51.717],[-84.927,51.805],[-85.21,51.894],[-85.475,52.018],[-85.811,52.142],[-86.554,52.354],[-87.209,52.425],[-87.545,52.389],[-88.111,52.124],[-88.288,51.929],[-88.341,51.682],[-88.075,51.045],[-87.916,50.886],[-87.845,50.709],[-87.828,50.426],[-87.916,50.125],[-88.305,49.895],[-88.871,49.895],[-89.331,50.036],[-90.605,50.514],[-93.44,53.566],[-93.758,54.043],[-94.05,54.6],[-94.368,56.166],[-94.448,56.431],[-94.66,56.803],[-95.324,57.493],[-96.571,58.342],[-97.632,58.899],[-98.72,59.562],[-99.251,59.96],[-99.595,60.332],[-101.535,61.316],[-101.8,61.422],[-102.145,61.634],[-103.074,61.873],[-103.445,61.899],[-104.427,61.899],[-105.249,61.846],[-105.674,61.767],[-106.576,61.687],[-107.24,61.661],[-108.168,61.661],[-108.885,61.74],[-109.15,61.82],[-109.548,62.006],[-109.787,62.244],[-109.76,64.022],[-109.521,64.394],[-109.07,64.792],[-108.46,65.137],[-107.558,65.508],[-106.47,65.826],[-105.807,66.065],[-105.117,66.331],[-103.498,66.994],[-101.773,67.657],[-100.686,68.108],[-99.412,68.586],[-98.563,68.984],[-97.926,69.223],[-97.21,69.568],[-96.44,69.913],[-95.618,70.337],[-94.822,70.709],[-93.972,71.001],[-91.823,71.637],[-90.841,71.85],[-89.196,72.248],[-88.56,72.327],[-87.631,72.354],[-86.914,72.407],[-82.987,72.486],[-81.555,72.486],[-79.803,72.46],[-76.805,72.327],[-69.091,72.3]]]}},{"type":"Feature","properties":{"density":1},"geometry":{"type":"Polygon","coordinates":[[[-98.779,47.788],[-99.151,47.682],[-99.522,47.496],[-99.761,47.257],[-99.92,46.965],[-100.0,46.567],[-99.973,46.143],[-99.841,45.665],[-99.363,44.339],[-99.257,43.914],[-99.151,43.33],[-98.965,42.747],[-98.938,42.561],[-98.938,41.632],[-99.708,40.703],[-99.841,40.597],[-100.451,40.252],[-102.149,39.562],[-102.627,39.403],[-103.953,38.846],[-104.245,38.66],[-104.457,38.475],[-104.776,38.156],[-105.015,37.864],[-105.2,37.599],[-105.413,37.227],[-105.545,36.962],[-105.678,36.644],[-106.023,35.662],[-106.103,35.211],[-106.156,34.203],[-107.031,32.611],[-107.111,32.319],[-107.191,31.921],[-107.244,31.47],[-107.244,30.435],[-107.217,29.904],[-107.164,29.559],[-107.005,29.135],[-106.819,28.71],[-106.554,28.179],[-106.288,27.808],[-105.572,26.985],[-105.2,26.64],[-104.457,26.004],[-103.582,25.34],[-103.131,24.916],[-102.138,23.816],[-101.82,23.391],[-101.661,23.126],[-101.59,22.985],[-101.218,21.852],[-101.13,21.64],[-100.988,21.41],[-100.812,21.216],[-100.617,21.074],[-100.228,20.88],[-99.273,20.561],[-98.848,20.402],[-98.6,20.278],[-98.176,19.96],[-97.804,19.535],[-97.592,19.234],[-97.415,19.022],[-96.672,18.315],[-96.548,18.155],[-96.46,17.943],[-96.442,17.766],[-96.513,17.501],[-96.69,17.324],[-96.955,17.112],[-97.344,16.988],[-97.681,16.935],[-98.53,16.935],[-99.414,16.864],[-99.786,16.705],[-99.945,16.581],[-100.069,16.44],[-100.175,16.28],[-100.387,15.785],[-100.405,15.467],[-100.369,15.077],[-100.316,14.706],[-100.069,13.928],[-99.892,13.627],[-99.697,13.485],[-99.432,13.397],[-99.219,13.362],[-98.724,13.326],[-98.3,13.485],[-97.928,13.556],[-97.344,13.892],[-97.097,14.087],[-96.637,14.352],[-96.177,14.582],[-95.894,14.688],[-95.664,14.794],[-95.522,14.883],[-95.098,15.007],[-94.656,15.307],[-94.62,15.378],[-94.585,15.449],[-94.585,15.661],[-94.603,15.767],[-94.603,15.962],[-94.585,16.103],[-94.461,16.298],[-94.16,16.51],[-94.001,16.563],[-93.577,16.652],[-93.276,16.74],[-92.798,16.917],[-92.515,17.076],[-91.772,17.642],[-91.631,17.766],[-91.507,17.908],[-90.799,19.04],[-90.658,19.447],[-90.64,19.641],[-90.658,20.26],[-90.622,20.526],[-90.534,20.844],[-90.339,21.18],[-90.145,21.428],[-89.05,22.213],[-89.032,22.39],[-89.05,22.531],[-89.156,22.743],[-89.298,22.938],[-89.652,23.186],[-90.076,23.362],[-90.324,23.38],[-90.607,23.362],[-90.943,23.309],[-91.509,23.274],[-91.987,23.292],[-92.323,23.38],[-92.641,23.486],[-93.242,23.734],[-93.773,24.07],[-94.021,24.265],[-94.162,24.441],[-94.304,24.725],[-94.41,25.008],[-94.463,25.255],[-94.498,25.538],[-94.516,25.821],[-94.498,26.14],[-94.322,26.723],[-93.472,28.996],[-93.525,29.315],[-93.658,29.633],[-93.897,29.899],[-94.481,30.376],[-94.64,30.562],[-94.852,30.854],[-94.985,31.225],[-94.64,32.287],[-94.534,32.393],[-94.401,32.579],[-94.348,32.764],[-94.322,33.003],[-94.348,33.348],[-94.481,33.693],[-94.72,33.932],[-95.409,34.091],[-95.728,34.144],[-96.099,34.303],[-96.391,34.462],[-96.657,34.648],[-97.081,35.126],[-97.24,35.789],[-97.187,36.108],[-96.816,36.453],[-96.418,36.771],[-95.993,37.249],[-95.622,37.753],[-95.462,38.071],[-94.348,39.769],[-94.162,39.928],[-93.685,40.141],[-93.499,40.194],[-93.127,40.194],[-92.756,40.167],[-92.517,40.035],[-92.331,39.822],[-92.146,39.477],[-92.093,39.159],[-92.066,38.814],[-92.066,38.124],[-92.146,37.806],[-92.57,36.877],[-92.942,36.214],[-93.101,35.789],[-93.287,35.046],[-93.34,34.542],[-93.34,34.277],[-93.207,33.879],[-93.074,33.613],[-92.915,33.322],[-92.703,33.056],[-92.544,32.685],[-92.438,32.234],[-92.438,31.517],[-92.411,31.199],[-92.222,30.388],[-92.14,30.305],[-91.987,30.235],[-91.869,30.211],[-91.527,30.282],[-91.432,30.317],[-91.326,30.388],[-91.031,30.541],[-90.866,30.589],[-90.725,30.624],[-90.536,30.647],[-90.159,30.659],[-90.029,30.695],[-89.817,30.801],[-89.463,31.013],[-89.18,31.072],[-88.968,31.096],[-88.637,31.084],[-88.248,30.954],[-87.965,30.883],[-87.364,30.801],[-86.709,30.777],[-86.143,30.777],[-85.447,30.801],[-84.775,30.895],[-84.421,30.966],[-83.749,31.155],[-83.513,31.237],[-83.277,31.343],[-82.877,31.567],[-81.426,32.222],[-81.125,32.293],[-80.807,32.328],[-80.435,32.346],[-79.675,32.346],[-79.427,32.257],[-78.826,32.08],[-78.383,31.992],[-77.747,31.956],[-77.11,32.08],[-76.455,32.31],[-76.048,32.399],[-75.0,32.792],[-74.655,32.819],[-74.125,32.819],[-73.541,32.686],[-73.063,32.554],[-72.241,32.182],[-71.259,31.625],[-70.622,31.306],[-69.932,30.988],[-68.606,30.484],[-68.048,30.325],[-66.907,30.219],[-66.005,30.219],[-65.315,30.245],[-64.042,30.484],[-63.14,30.723],[-62.795,30.882],[-61.813,31.386],[-61.415,31.678],[-61.229,31.864],[-60.805,32.156],[-60.433,32.315],[-60.062,32.421],[-58.443,32.607],[-58.045,32.713],[-57.727,32.819],[-57.541,32.978],[-57.408,33.243],[-57.355,33.482],[-57.329,33.827],[-57.355,34.146],[-57.674,34.756],[-57.859,35.021],[-58.151,35.287],[-58.549,35.552],[-59.319,35.844],[-60.168,35.976],[-60.539,36.083],[-61.043,36.374],[-61.495,36.587],[-61.946,36.825],[-62.291,37.038],[-63.219,37.568],[-63.856,37.807],[-64.174,37.887],[-64.652,37.966],[-65.581,38.073],[-65.926,38.073],[-66.695,38.179],[-67.067,38.258],[-67.491,38.418],[-67.81,38.577],[-68.022,38.789],[-68.208,39.028],[-68.446,39.505],[-68.579,40.01],[-68.579,40.195],[-68.712,40.514],[-68.898,40.832],[-69.455,41.442],[-70.33,42.106],[-70.781,42.106],[-71.286,41.973],[-71.657,41.814],[-71.896,41.681],[-72.294,41.31],[-72.559,41.124],[-73.223,40.593],[-73.912,40.195],[-74.257,40.089],[-74.655,40.01],[-75.106,39.983],[-75.478,39.983],[-75.849,40.036],[-76.778,40.355],[-77.415,40.514],[-77.813,40.54],[-78.689,40.408],[-78.901,40.328],[-79.83,40.169],[-80.519,40.116],[-81.289,40.116],[-81.793,40.142],[-82.244,40.248],[-82.748,40.487],[-83.067,40.62],[-83.942,41.071],[-84.101,41.177],[-84.393,41.336],[-85.747,42.026],[-86.065,42.185],[-86.49,42.345],[-86.861,42.451],[-87.577,42.583],[-88.506,42.583],[-88.825,42.557],[-89.09,42.557],[-89.859,42.61],[-90.098,42.769],[-90.231,42.902],[-90.682,43.167],[-91.319,43.804],[-91.987,44.351],[-92.093,44.493],[-92.146,44.687],[-92.164,44.935],[-92.111,45.13],[-91.757,45.537],[-91.545,45.696],[-91.386,45.855],[-91.156,46.173],[-91.067,46.386],[-91.049,46.598],[-91.067,46.899],[-91.226,47.075],[-91.439,47.182],[-91.651,47.252],[-92.606,47.252],[-93.491,47.199],[-93.986,47.27],[-94.499,47.429],[-94.782,47.553],[-95.826,47.889],[-96.126,47.978],[-96.48,48.013],[-97.488,48.013],[-98.108,47.978],[-98.779,47.788]]]}},{"type":"Feature","properties":{"density":2},"geometry":{"type":"Polygon","coordinates":[[[-119.563,48.299],[-119.885,48.297],[-119.949,48.258],[-120.056,48.054],[-120.081,48.038],[-120.161,48.051],[-120.552,48.308],[-120.726,48.382],[-120.789,48.385],[-120.842,48.366],[-120.861,48.291],[-120.833,48.22],[-120.784,48.156],[-120.538,48.035],[-120.409,47.831],[-120.233,47.762],[-120.128,47.751],[-120.001,47.765],[-119.841,47.894],[-119.695,47.861],[-119.596,47.878],[-119.519,47.911],[-119.447,47.977],[-119.398,48.071],[-119.409,48.189],[-119.455,48.258],[-119.527,48.297],[-119.563,48.299]]]}},{"type":"Feature","properties":{"density":2},"geometry":{"type":"Polygon","coordinates":[[[-121.17,35.641],[-121.326,35.803],[-121.374,35.928],[-121.404,36.071],[-121.453,36.062],[-121.43,35.962],[-121.502,36.034],[-121.555,36.051],[-121.583,36.031],[-121.577,35.985],[-121.528,35.913],[-121.44,35.632],[-121.377,35.514],[-121.342,35.478],[-121.291,35.45],[-121.221,35.441],[-121.201,35.465],[-121.199,35.503],[-121.252,35.578],[-121.236,35.596],[-121.14,35.531],[-121.12,35.548],[-121.124,35.584],[-121.17,35.641]]]}},{"type":"Feature","properties":{"density":2},"geometry":{"type":"Polygon","coordinates":[[[-97.911,22.996],[-97.944,22.702],[-97.922,22.539],[-97.845,22.291],[-97.814,22.25],[-97.795,22.252],[-97.787,22.272],[-97.87,22.646],[-97.872,22.85],[-97.848,23.051],[-97.85,23.112],[-97.886,23.153],[-97.914,23.087],[-97.911,22.996]]]}},{"type":"Feature","properties":{"density":2},"geometry":{"type":"Polygon","coordinates":[[[-98.018,22.569],[-98.2,22.695],[-98.479,23.002],[-98.59,23.336],[-98.465,23.699],[-98.297,23.894],[-98.004,23.95],[-97.823,24.02],[-97.684,24.285],[-97.711,24.578],[-97.865,24.676],[-98.088,24.745],[-98.493,24.564],[-98.716,24.536],[-98.995,24.676],[-99.107,24.927],[-99.134,25.276],[-99.121,25.624],[-98.678,26.775],[-98.824,27.591],[-99.012,28.219],[-99.263,28.7],[-99.64,29.161],[-100.08,29.433],[-100.561,29.663],[-101.063,29.977],[-101.419,30.333],[-101.586,30.668],[-102.151,30.981],[-102.967,30.877],[-103.365,30.521],[-103.658,29.768],[-103.637,29.328],[-103.365,28.952],[-102.905,28.659],[-102.298,28.47],[-101.712,27.905],[-101.544,27.57],[-101.314,26.985],[-100.624,25.917],[-99.975,24.85],[-99.619,24.348],[-99.41,23.867],[-99.368,23.49],[-99.473,23.03],[-99.431,22.339],[-99.263,21.816],[-98.95,21.0],[-98.238,20.225],[-97.652,19.912],[-97.296,19.807],[-97.024,19.807],[-96.669,19.514],[-96.271,19.054],[-94.89,18.237],[-94.409,17.819],[-93.823,17.484],[-93.258,17.338],[-92.776,17.38],[-92.442,17.505],[-92.149,17.819],[-91.918,18.217],[-91.479,18.761],[-91.04,19.388],[-90.914,19.891],[-90.579,20.56],[-90.328,20.853],[-90.2,21.355],[-90.358,21.727],[-91.144,21.92],[-92.065,21.795],[-92.714,21.376],[-93.028,20.895],[-93.195,20.435],[-93.383,19.995],[-93.572,19.472],[-94.178,19.2],[-94.764,19.388],[-95.434,19.849],[-96.125,20.895],[-96.878,21.335],[-97.338,21.439],[-97.736,21.439],[-97.966,21.418],[-98.071,21.607],[-98.071,21.837],[-97.882,21.983],[-97.82,22.234],[-98.018,22.569]]]}},{"type":"Feature","properties":{"density":2},"geometry":{"type":"Polygon","coordinates":[[[-80.761,40.51],[-81.703,41.013],[-82.738,41.452],[-83.837,41.891],[-85.406,42.08],[-86.442,41.954],[-87.227,41.672],[-87.823,41.389],[-88.231,41.013],[-89.267,39.098],[-90.115,38.125],[-90.931,37.434],[-91.778,36.43],[-92.092,35.582],[-92.029,34.358],[-91.527,33.479],[-91.339,32.569],[-91.182,31.659],[-90.429,30.748],[-89.424,30.309],[-88.074,30.372],[-87.29,30.529],[-86.285,31.031],[-84.873,31.627],[-83.806,31.972],[-82.581,32.161],[-81.797,32.6],[-80.698,33.008],[-78.626,33.511],[-77.716,33.762],[-76.398,33.981],[-75.142,34.389],[-74.358,34.389],[-71.407,33.856],[-69.272,33.856],[-68.833,34.013],[-68.205,34.295],[-67.923,34.735],[-67.64,35.457],[-67.64,36.116],[-67.797,37.12],[-68.582,37.842],[-69.869,38.407],[-71.281,38.627],[-72.474,38.564],[-73.51,38.376],[-74.703,38.25],[-75.864,38.219],[-76.712,38.407],[-77.371,38.596],[-78.626,39.223],[-79.286,39.788],[-80.07,40.134],[-80.761,40.51]],[[-80.562,37.137],[-81.771,36.644],[-82.404,36.346],[-82.915,36.086],[-83.306,35.844],[-84.226,35.342],[-84.45,35.137],[-84.44,34.877],[-84.273,34.672],[-83.985,34.691],[-83.166,34.988],[-82.776,35.174],[-82.329,35.472],[-81.957,35.751],[-81.241,36.216],[-80.906,36.383],[-80.404,36.588],[-80.162,36.718],[-80.004,36.885],[-79.976,37.118],[-80.106,37.295],[-80.32,37.285],[-80.562,37.137]]]}},{"type":"Feature","properties":{"density":2},"geometry":{"type":"Polygon","coordinates":[[[-73.229,59.587],[-75.018,59.116],[-77.137,58.975],[-79.82,58.881],[-81.986,59.163],[-83.587,59.54],[-84.764,59.634],[-86.318,59.493],[-88.013,59.305],[-91.638,58.551],[-93.38,57.986],[-94.605,57.327],[-95.075,56.762],[-95.499,55.679],[-95.452,54.502],[-94.746,52.572],[-93.522,51.112],[-91.497,50.029],[-90.132,50.029],[-89.331,50.736],[-89.472,51.818],[-90.414,52.431],[-91.215,53.184],[-91.215,54.691],[-90.273,56.103],[-89.096,57.139],[-88.154,57.468],[-87.328,57.479],[-86.977,56.856],[-87.307,56.338],[-87.777,56.056],[-88.437,55.397],[-88.672,53.89],[-88.018,53.043],[-86.695,52.854],[-85.517,53.372],[-84.717,54.031],[-83.587,54.267],[-82.08,54.314],[-79.208,55.067],[-76.289,55.067],[-71.298,54.926],[-69.98,55.067],[-69.368,55.444],[-68.897,56.15],[-68.803,57.374],[-69.321,58.457],[-70.121,59.163],[-71.11,59.493],[-71.863,59.54],[-73.229,59.587]]]}},{"type":"Feature","properties":{"density":2},"geometry":{"type":"Polygon","coordinates":[[[-87.469,62.25],[-88.505,60.838],[-89.478,60.084],[-90.388,59.708],[-91.675,59.519],[-93.213,59.456],[-94.469,59.77],[-95.128,60.21],[-95.755,62.187],[-96.446,62.909],[-97.545,63.694],[-98.455,64.196],[-99.867,64.573],[-101.217,64.353],[-102.598,63.819],[-104.387,63.098],[-106.051,62.501],[-108.217,62.124],[-109.441,61.968],[-110.32,61.811],[-111.23,61.999],[-111.607,62.627],[-111.23,63.192],[-110.728,63.537],[-109.221,64.133],[-107.558,64.667],[-105.769,65.169],[-103.979,65.42],[-101.28,66.236],[-99.428,66.613],[-97.702,66.55],[-96.289,66.08],[-95.096,64.918],[-94.155,64.322],[-93.056,64.039],[-91.612,63.945],[-89.321,64.039],[-87.689,63.945],[-86.747,63.694],[-86.621,63.411],[-86.715,63.066],[-87.469,62.25]]]}},{"type":"Feature","properties":{"density":2},"geometry":{"type":"Polygon","coordinates":[[[-80.165,34.955],[-80.205,34.971],[-80.204,34.898],[-80.16,34.923],[-80.165,34.955]]]}},{"type":"Feature","properties":{"density":2},"geometry":{"type":"Polygon","coordinates":[[[-79.958,35.238],[-80.003,35.262],[-80.033,35.256],[-80.016,35.23],[-79.949,35.21],[-79.958,35.238]]]}},{"type":"Feature","properties":{"density":2},"geometry":{"type":"Polygon","coordinates":[[[-89.786,36.299],[-89.968,36.063],[-89.906,36.065],[-89.835,36.139],[-89.754,36.261],[-89.749,36.302],[-89.786,36.299]]]}},{"type":"Feature","properties":{"density":2},"geometry":{"type":"Polygon","coordinates":[[[-89.867,36.489],[-89.874,36.469],[-89.86,36.461],[-89.748,36.578],[-89.743,36.605],[-89.77,36.594],[-89.867,36.489]]]}},{"type":"Feature","properties":{"density":2},"geometry":{"type":"Polygon","coordinates":[[[-90.233,36.754],[-90.334,36.639],[-90.475,36.417],[-90.458,36.39],[-90.406,36.42],[-90.353,36.488],[-90.182,36.747],[-90.233,36.754]]]}},{"type":"Feature","properties":{"density":2},"geometry":{"type":"Polygon","coordinates":[[[-105.187,46.533],[-105.228,46.504],[-105.227,46.478],[-105.185,46.476],[-105.149,46.508],[-105.187,46.533]]]}},{"type":"Feature","properties":{"density":2},"geometry":{"type":"Polygon","coordinates":[[[-92.916,17.778],[-93.036,17.826],[-93.297,17.831],[-93.331,17.799],[-93.331,17.783],[-93.295,17.756],[-93.142,17.745],[-93.059,17.716],[-92.919,17.72],[-92.916,17.778]]]}},{"type":"Feature","properties":{"density":2},"geometry":{"type":"Polygon","coordinates":[[[-121.373,35.977],[-121.47,36.03],[-121.502,36.028],[-121.52,36.01],[-121.53,35.838],[-121.502,35.743],[-121.445,35.667],[-121.401,35.539],[-121.226,35.277],[-121.148,35.205],[-121.029,35.161],[-120.986,35.161],[-120.954,35.217],[-120.974,35.281],[-121.152,35.415],[-121.262,35.559],[-121.341,35.826],[-121.347,35.943],[-121.373,35.977]]]}},{"type":"Feature","properties":{"density":2},"geometry":{"type":"Polygon","coordinates":[[[-120.701,48.382],[-120.755,48.4],[-120.766,48.35],[-120.708,48.263],[-120.564,48.112],[-120.44,48.029],[-120.431,48.006],[-120.433,47.988],[-120.463,47.986],[-120.535,48.029],[-120.577,48.035],[-120.708,47.99],[-120.746,47.995],[-120.78,48.038],[-120.836,48.049],[-120.854,48.029],[-120.856,47.977],[-120.726,47.878],[-120.708,47.777],[-120.67,47.729],[-120.607,47.745],[-120.577,47.833],[-120.539,47.862],[-120.397,47.855],[-120.359,47.871],[-120.157,47.846],[-120.1,47.851],[-120.058,47.878],[-120.055,47.925],[-120.073,47.954],[-120.49,48.206],[-120.701,48.382]]]}},{"type":"Feature","properties":{"density":2},"geometry":{"type":"Polygon","coordinates":[[[-80.344,35.078],[-80.383,35.086],[-80.392,35.059],[-80.306,35.018],[-80.209,34.944],[-80.163,34.941],[-80.17,34.964],[-80.248,35.024],[-80.344,35.078]]]}},{"type":"Feature","properties":{"density":2},"geometry":{"type":"Polygon","coordinates":[[[-105.2,46.557],[-105.237,46.494],[-105.2,46.47],[-105.152,46.47],[-104.909,46.538],[-104.625,46.533],[-104.531,46.575],[-104.513,46.658],[-104.468,46.715],[-104.465,46.758],[-104.492,46.812],[-104.564,46.877],[-104.636,46.89],[-104.727,46.859],[-104.906,46.763],[-105.047,46.631],[-105.2,46.557]]]}},{"type":"Feature","properties":{"density":2},"geometry":{"type":"Polygon","coordinates":[[[-121.304,36.096],[-121.368,36.12],[-121.422,36.12],[-121.532,36.059],[-121.568,35.985],[-121.53,35.814],[-121.362,35.64],[-121.334,35.628],[-121.295,35.657],[-121.293,35.694],[-121.355,35.82],[-121.265,35.933],[-121.248,35.976],[-121.269,36.047],[-121.304,36.096]]]}},{"type":"Feature","properties":{"density":2},"geometry":{"type":"Polygon","coordinates":[[[-98.65,23.557],[-98.679,23.572],[-98.686,23.543],[-98.658,23.324],[-98.623,23.395],[-98.626,23.491],[-98.65,23.557]]]}},{"type":"Feature","properties":{"density":2},"geometry":{"type":"Polygon","coordinates":[[[-98.137,21.631],[-98.235,21.678],[-98.296,21.651],[-98.316,21.563],[-98.292,21.445],[-98.221,21.34],[-98.022,21.155],[-97.989,21.074],[-97.968,20.935],[-97.914,20.875],[-97.692,20.719],[-97.567,20.702],[-97.533,20.719],[-97.503,20.817],[-97.503,20.895],[-97.53,20.959],[-97.638,21.077],[-97.786,21.124],[-97.864,21.182],[-98.137,21.631]]]}},{"type":"Feature","properties":{"density":2},"geometry":{"type":"Polygon","coordinates":[[[-92.932,17.796],[-93.021,17.812],[-93.192,17.784],[-93.369,17.794],[-93.667,17.874],[-93.727,17.872],[-93.957,17.82],[-94.174,17.829],[-94.338,17.809],[-94.392,17.788],[-94.426,17.685],[-94.356,17.551],[-94.275,17.502],[-94.102,17.454],[-93.964,17.323],[-93.81,17.295],[-93.678,17.319],[-93.349,17.428],[-93.067,17.481],[-93.006,17.502],[-92.887,17.59],[-92.76,17.638],[-92.749,17.67],[-92.775,17.7],[-92.932,17.796]]]}},{"type":"Feature","properties":{"density":2},"geometry":{"type":"Polygon","coordinates":[[[-80.079,35.305],[-80.117,35.261],[-80.103,35.217],[-79.945,35.219],[-79.951,35.251],[-80.02,35.31],[-80.05,35.318],[-80.079,35.305]]]}},{"type":"Feature","properties":{"density":2},"geometry":{"type":"Polygon","coordinates":[[[-92.115,35.139],[-92.144,35.122],[-92.129,34.928],[-92.176,34.826],[-92.185,34.764],[-92.176,34.681],[-92.138,34.602],[-92.088,34.628],[-92.064,34.692],[-92.069,34.994],[-92.085,35.079],[-92.115,35.139]]]}},{"type":"Feature","properties":{"density":2},"geometry":{"type":"Polygon","coordinates":[[[-90.057,35.912],[-90.184,36.003],[-90.332,36.156],[-90.377,36.177],[-90.405,36.169],[-90.41,36.13],[-90.321,36.009],[-90.17,35.902],[-90.155,35.877],[-90.2,35.701],[-90.178,35.64],[-90.153,35.617],[-90.096,35.623],[-89.975,35.775],[-89.979,35.838],[-90.014,35.886],[-90.057,35.912]]]}},{"type":"Feature","properties":{"density":2},"geometry":{"type":"Polygon","coordinates":[[[-89.996,35.923],[-90.013,35.884],[-90.002,35.861],[-89.939,35.843],[-89.904,35.81],[-89.845,35.808],[-89.728,36.037],[-89.695,36.205],[-89.705,36.269],[-89.799,36.409],[-89.881,36.644],[-89.941,36.716],[-89.963,36.714],[-89.994,36.679],[-90.013,36.609],[-90.002,36.542],[-89.927,36.359],[-89.966,36.021],[-89.996,35.923]]]}},{"type":"Feature","properties":{"density":2},"geometry":{"type":"Polygon","coordinates":[[[-90.417,36.49],[-90.421,36.447],[-90.392,36.416],[-90.304,36.44],[-90.265,36.551],[-90.281,36.687],[-90.267,36.719],[-90.156,36.783],[-90.16,36.898],[-90.072,37.008],[-90.052,37.097],[-90.013,37.138],[-89.949,37.255],[-89.846,37.328],[-89.801,37.382],[-89.76,37.454],[-89.758,37.488],[-89.781,37.513],[-89.912,37.495],[-90.068,37.525],[-90.136,37.515],[-90.164,37.48],[-90.187,37.38],[-90.277,37.302],[-90.298,37.25],[-90.318,37.103],[-90.318,36.931],[-90.404,36.65],[-90.417,36.49]]]}},{"type":"Feature","properties":{"density":2},"geometry":{"type":"Polygon","coordinates":[[[-98.853,46.875],[-98.946,46.867],[-99.031,46.82],[-98.934,46.816],[-98.765,46.845],[-98.767,46.857],[-98.853,46.875]]]}},{"type":"Feature","properties":{"density":2},"geometry":{"type":"Polygon","coordinates":[[[-98.267,46.122],[-98.398,46.012],[-98.422,45.956],[-98.395,45.964],[-98.255,46.085],[-98.24,46.113],[-98.267,46.122]]]}},{"type":"Feature","properties":{"density":2},"geometry":{"type":"Polygon","coordinates":[[[-103.636,35.776],[-103.681,35.749],[-103.78,35.636],[-103.798,35.602],[-103.793,35.569],[-103.766,35.571],[-103.627,35.706],[-103.602,35.767],[-103.636,35.776]]]}},{"type":"Feature","properties":{"density":2},"geometry":{"type":"Polygon","coordinates":[[[-103.364,35.454],[-103.496,35.425],[-103.593,35.371],[-103.631,35.319],[-103.631,35.267],[-103.602,35.269],[-103.539,35.332],[-103.334,35.393],[-103.332,35.425],[-103.364,35.454]]]}},{"type":"Feature","properties":{"density":2},"geometry":{"type":"Polygon","coordinates":[[[-104.708,46.654],[-104.749,46.628],[-104.747,46.609],[-104.378,46.562],[-104.303,46.564],[-104.276,46.585],[-104.315,46.621],[-104.429,46.648],[-104.564,46.661],[-104.708,46.654]]]}},{"type":"Feature","properties":{"density":2},"geometry":{"type":"Polygon","coordinates":[[[-105.198,46.587],[-105.239,46.529],[-105.234,46.479],[-105.212,46.459],[-105.142,46.448],[-104.942,46.49],[-104.726,46.495],[-104.611,46.515],[-104.325,46.596],[-104.017,46.58],[-103.911,46.598],[-103.697,46.603],[-103.423,46.711],[-102.944,46.988],[-102.77,47.033],[-102.503,47.062],[-102.467,47.078],[-102.444,47.125],[-102.503,47.183],[-102.687,47.21],[-102.822,47.321],[-102.892,47.359],[-103.07,47.413],[-103.124,47.413],[-103.436,47.307],[-103.702,47.3],[-103.832,47.276],[-104.316,47.123],[-104.548,47.03],[-105.119,46.673],[-105.198,46.587]]]}},{"type":"Feature","properties":{"density":2},"geometry":{"type":"Polygon","coordinates":[[[-121.154,36.504],[-121.188,36.504],[-121.262,36.468],[-121.487,36.277],[-121.498,36.182],[-121.557,36.142],[-121.595,36.076],[-121.617,35.982],[-121.615,35.91],[-121.599,35.847],[-121.534,35.773],[-121.433,35.607],[-121.379,35.415],[-121.308,35.256],[-121.257,34.784],[-121.19,34.595],[-121.129,34.507],[-121.045,34.453],[-121.031,34.51],[-121.045,34.548],[-121.159,34.75],[-121.197,34.858],[-121.21,35.118],[-121.2,35.317],[-121.159,35.368],[-121.156,35.415],[-121.21,35.621],[-121.271,35.715],[-121.281,35.779],[-121.244,35.847],[-121.136,35.948],[-121.126,35.999],[-121.156,36.053],[-121.105,36.147],[-121.011,36.4],[-121.011,36.434],[-121.048,36.478],[-121.154,36.504]]]}},{"type":"Feature","properties":{"density":2},"geometry":{"type":"Polygon","coordinates":[[[-98.666,23.559],[-98.717,23.555],[-98.74,23.498],[-98.703,23.358],[-98.672,23.331],[-98.653,23.338],[-98.627,23.385],[-98.635,23.487],[-98.666,23.559]]]}},{"type":"Feature","properties":{"density":2},"geometry":{"type":"Polygon","coordinates":[[[-98.247,23.485],[-98.274,23.491],[-98.299,23.467],[-98.344,23.373],[-98.36,23.239],[-98.342,23.211],[-98.301,23.211],[-98.266,23.233],[-98.211,23.334],[-98.204,23.414],[-98.247,23.485]]]}},{"type":"Feature","properties":{"density":2},"geometry":{"type":"Polygon","coordinates":[[[-97.788,21.408],[-97.826,21.408],[-97.975,21.349],[-98.107,21.358],[-98.215,21.417],[-98.306,21.493],[-98.4,21.537],[-98.511,21.563],[-98.657,21.554],[-98.71,21.513],[-98.727,21.449],[-98.719,21.379],[-98.645,21.273],[-98.604,21.235],[-98.373,21.106],[-98.323,21.013],[-98.3,20.869],[-98.244,20.811],[-98.183,20.796],[-98.083,20.802],[-97.817,21.004],[-97.589,21.138],[-97.574,21.162],[-97.577,21.235],[-97.606,21.294],[-97.706,21.376],[-97.788,21.408]]]}},{"type":"Feature","properties":{"density":2},"geometry":{"type":"Polygon","coordinates":[[[-92.164,18.217],[-92.296,18.299],[-92.427,18.346],[-92.607,18.361],[-92.636,18.334],[-92.605,18.268],[-92.552,18.235],[-92.357,18.178],[-92.158,18.088],[-92.052,18.09],[-92.048,18.133],[-92.164,18.217]]]}},{"type":"Feature","properties":{"density":2},"geometry":{"type":"Polygon","coordinates":[[[-92.05,18.196],[-92.214,18.313],[-92.311,18.357],[-92.557,18.433],[-92.765,18.535],[-92.832,18.538],[-92.867,18.523],[-92.894,18.471],[-92.867,18.359],[-92.882,18.254],[-92.92,18.187],[-92.958,18.155],[-93.11,18.152],[-93.529,18.234],[-93.737,18.254],[-93.778,18.236],[-93.854,18.119],[-93.871,18.061],[-93.904,18.026],[-94.006,17.979],[-94.211,17.95],[-94.518,17.955],[-94.647,17.912],[-94.735,17.824],[-94.753,17.774],[-94.776,17.516],[-94.758,17.387],[-94.679,17.267],[-94.454,17.185],[-94.199,17.124],[-93.687,17.054],[-93.4,17.054],[-93.204,17.074],[-93.022,17.153],[-92.938,17.215],[-92.897,17.338],[-92.897,17.566],[-92.806,17.751],[-92.7,17.891],[-92.569,17.982],[-92.411,18.034],[-92.302,18.037],[-92.147,17.999],[-92.068,18.008],[-92.001,18.061],[-92.007,18.125],[-92.05,18.196]]]}},{"type":"Feature","properties":{"density":2},"geometry":{"type":"Polygon","coordinates":[[[-94.677,65.072],[-94.341,64.594],[-94.111,64.329],[-93.934,64.028],[-93.793,63.745],[-93.757,63.391],[-94.058,62.878],[-94.235,62.737],[-94.836,62.383],[-95.066,62.224],[-95.226,62.011],[-95.332,61.746],[-95.367,61.41],[-95.349,61.127],[-95.208,60.879],[-95.013,60.685],[-94.872,60.437],[-94.713,59.906],[-94.536,59.623],[-94.288,59.482],[-93.917,59.376],[-93.474,59.323],[-93.032,59.163],[-92.731,58.987],[-92.555,58.757],[-92.484,58.208],[-92.378,57.908],[-92.148,57.66],[-91.67,57.324],[-91.175,57.271],[-90.609,57.271],[-89.99,57.341],[-88.875,57.359],[-88.539,57.218],[-88.344,56.952],[-88.274,56.652],[-88.504,56.315],[-88.84,56.086],[-89.335,55.856],[-89.671,55.661],[-90.043,55.307],[-90.326,54.953],[-90.697,54.334],[-90.821,54.051],[-90.839,53.839],[-90.839,53.521],[-90.786,53.238],[-90.573,52.495],[-90.184,52.088],[-89.883,51.982],[-89.512,51.929],[-89.317,51.929],[-89.14,52.017],[-89.07,52.176],[-89.052,52.388],[-89.211,53.255],[-89.194,53.644],[-88.928,54.087],[-88.734,54.299],[-88.486,54.423],[-88.168,54.493],[-87.708,54.547],[-87.442,54.653],[-87.195,54.812],[-86.894,55.113],[-86.735,55.219],[-86.522,55.307],[-86.363,55.343],[-86.222,55.343],[-86.098,55.254],[-86.009,55.113],[-86.009,55.006],[-86.098,54.83],[-86.186,54.706],[-86.31,54.617],[-86.434,54.476],[-86.487,54.352],[-86.487,54.193],[-86.363,54.069],[-85.443,53.892],[-84.789,53.839],[-83.958,53.574],[-83.763,53.556],[-83.515,53.556],[-83.073,53.662],[-82.843,53.751],[-82.613,53.804],[-82.401,53.821],[-82.189,53.821],[-81.552,53.733],[-81.039,53.857],[-80.791,53.857],[-80.172,53.804],[-79.783,53.945],[-79.553,54.051],[-79.146,54.299],[-78.739,54.582],[-78.12,54.918],[-77.554,55.183],[-77.289,55.289],[-76.882,55.413],[-76.086,55.537],[-75.449,55.573],[-74.794,55.555],[-74.405,55.519],[-72.442,55.219],[-71.663,55.077],[-70.832,55.006],[-70.584,55.06],[-70.213,55.219],[-70.124,55.343],[-70.089,55.484],[-70.124,55.626],[-70.231,55.732],[-70.478,55.838],[-71.823,56.05],[-72.194,56.086],[-72.619,56.086],[-73.362,56.139],[-74.264,56.315],[-74.529,56.386],[-74.989,56.563],[-75.396,56.793],[-75.909,57.129],[-76.369,57.341],[-77.023,57.536],[-77.289,57.571],[-77.695,57.589],[-78.067,57.589],[-78.527,57.536],[-79.04,57.536],[-79.27,57.589],[-79.712,57.731],[-80.03,57.89],[-80.207,58.014],[-80.738,58.456],[-81.693,59.11],[-82.1,59.305],[-82.348,59.376],[-82.613,59.429],[-82.914,59.464],[-83.568,59.606],[-83.993,59.747],[-84.258,59.853],[-84.718,60.083],[-84.86,60.189],[-84.983,60.313],[-85.603,61.198],[-86.363,62.153],[-86.416,62.33],[-86.416,63.144],[-86.505,63.533],[-86.576,63.71],[-86.664,63.869],[-86.77,64.01],[-87.513,64.7],[-87.725,64.877],[-88.451,65.337],[-89.158,65.691],[-91.157,66.894],[-91.741,67.177],[-92.979,67.601],[-94.111,67.849],[-94.748,67.955],[-96.128,68.008],[-96.853,68.008],[-97.313,67.937],[-97.578,67.849],[-97.826,67.743],[-97.967,67.442],[-97.985,67.247],[-97.932,67.053],[-97.631,66.628],[-97.242,66.416],[-97.048,66.328],[-96.145,66.027],[-95.774,65.85],[-95.349,65.602],[-95.066,65.372],[-94.925,65.213],[-94.677,65.072]]]}},{"type":"Feature","properties":{"density":2},"geometry":{"type":"Polygon","coordinates":[[[-93.325,21.234],[-93.435,21.292],[-93.493,21.292],[-93.556,21.286],[-93.776,21.213],[-94.133,21.192],[-94.29,21.145],[-94.4,21.009],[-94.442,20.836],[-94.416,20.553],[-94.358,20.385],[-94.3,20.123],[-94.243,20.018],[-94.101,19.824],[-94.064,19.714],[-94.075,19.656],[-94.159,19.567],[-94.358,19.562],[-94.589,19.63],[-94.845,19.745],[-95.134,19.955],[-95.301,20.138],[-95.406,20.359],[-95.532,20.778],[-95.569,20.846],[-95.626,20.904],[-95.668,20.914],[-95.705,20.857],[-95.726,20.636],[-95.715,20.521],[-95.616,20.249],[-95.155,19.567],[-95.029,19.347],[-94.961,19.158],[-94.908,19.085],[-94.84,19.027],[-94.536,18.875],[-94.353,18.844],[-93.86,18.844],[-93.656,18.917],[-93.535,19.012],[-93.451,19.221],[-93.404,19.494],[-93.451,19.599],[-93.467,19.709],[-93.42,19.793],[-93.399,19.798],[-93.367,19.782],[-93.341,19.73],[-93.304,19.478],[-93.226,19.342],[-93.158,19.268],[-92.859,19.2],[-92.586,19.174],[-92.356,19.174],[-92.214,19.232],[-92.099,19.316],[-92.062,19.379],[-92.062,19.447],[-92.125,19.531],[-92.267,19.651],[-92.539,19.751],[-92.712,19.861],[-92.843,20.013],[-92.964,20.191],[-93.09,20.411],[-93.163,20.6],[-93.158,20.762],[-93.132,20.82],[-93.142,20.946],[-93.252,21.15],[-93.325,21.234]]]}},{"type":"Feature","properties":{"density":2},"geometry":{"type":"Polygon","coordinates":[[[-71.95,37.253],[-72.609,37.482],[-73.067,37.568],[-73.897,37.682],[-74.699,37.74],[-75.443,37.654],[-76.244,37.539],[-76.96,37.31],[-77.733,37.11],[-78.563,36.852],[-80.71,35.822],[-82.027,35.22],[-82.457,35.106],[-83.287,34.934],[-84.117,34.934],[-84.775,34.991],[-85.319,35.192],[-85.634,35.478],[-85.806,35.764],[-86.121,36.222],[-86.464,36.623],[-87.094,37.053],[-87.781,37.425],[-88.383,37.625],[-88.926,37.74],[-89.499,37.711],[-90.157,37.482],[-90.472,37.196],[-90.787,36.852],[-90.988,36.451],[-91.102,36.079],[-91.131,35.678],[-90.988,35.278],[-90.759,34.906],[-90.501,34.619],[-89.9,34.218],[-89.385,34.018],[-88.325,33.789],[-88.068,33.589],[-87.781,33.446],[-87.323,33.274],[-86.865,33.159],[-86.293,33.073],[-85.777,33.016],[-84.976,33.016],[-84.174,32.987],[-83.287,33.073],[-82.571,33.217],[-81.712,33.503],[-81.082,33.789],[-79.966,34.161],[-79.479,34.304],[-77.332,35.335],[-76.731,35.507],[-76.159,35.564],[-74.956,35.564],[-74.355,35.478],[-72.952,35.163],[-72.065,34.934],[-71.32,34.762],[-70.318,34.619],[-69.631,34.591],[-69.03,34.734],[-68.687,34.991],[-68.687,35.278],[-68.744,35.507],[-68.916,35.736],[-69.173,35.908],[-69.488,36.079],[-70.376,36.451],[-70.805,36.652],[-71.95,37.253]]]}},{"type":"Feature","properties":{"density":3},"geometry":{"type":"Polygon","coordinates":[[[-121.358,35.669],[-121.367,35.854],[-121.408,35.906],[-121.446,35.92],[-121.485,35.904],[-121.492,35.841],[-121.446,35.746],[-121.439,35.674],[-121.389,35.575],[-121.356,35.548],[-121.336,35.573],[-121.358,35.669]]]}},{"type":"Feature","properties":{"density":3},"geometry":{"type":"Polygon","coordinates":[[[-89.95,36.085],[-89.956,36.061],[-89.93,36.067],[-89.854,36.135],[-89.846,36.161],[-89.874,36.164],[-89.95,36.085]]]}},{"type":"Feature","properties":{"density":3},"geometry":{"type":"Polygon","coordinates":[[[-90.447,36.431],[-90.451,36.406],[-90.421,36.419],[-90.371,36.48],[-90.239,36.696],[-90.26,36.694],[-90.292,36.657],[-90.447,36.431]]]}},{"type":"Feature","properties":{"density":3},"geometry":{"type":"Polygon","coordinates":[[[-121.382,35.953],[-121.46,35.964],[-121.484,35.908],[-121.46,35.839],[-121.389,35.743],[-121.37,35.643],[-121.353,35.626],[-121.313,35.65],[-121.302,35.709],[-121.364,35.827],[-121.353,35.881],[-121.382,35.953]]]}},{"type":"Feature","properties":{"density":3},"geometry":{"type":"Polygon","coordinates":[[[-105.18,46.539],[-105.201,46.514],[-105.2,46.484],[-104.96,46.581],[-104.894,46.629],[-104.796,46.659],[-104.682,46.755],[-104.669,46.785],[-104.708,46.8],[-104.793,46.766],[-104.985,46.667],[-105.071,46.58],[-105.18,46.539]]]}},{"type":"Feature","properties":{"density":3},"geometry":{"type":"Polygon","coordinates":[[[-121.311,36.046],[-121.387,36.049],[-121.458,36.026],[-121.511,35.945],[-121.5,35.888],[-121.429,35.864],[-121.343,35.906],[-121.313,35.955],[-121.265,35.987],[-121.311,36.046]]]}},{"type":"Feature","properties":{"density":3},"geometry":{"type":"Polygon","coordinates":[[[-80.038,35.289],[-80.078,35.268],[-79.955,35.226],[-79.988,35.269],[-80.038,35.289]]]}},{"type":"Feature","properties":{"density":3},"geometry":{"type":"Polygon","coordinates":[[[-92.099,34.852],[-92.119,34.854],[-92.128,34.824],[-92.145,34.679],[-92.145,34.631],[-92.128,34.612],[-92.094,34.643],[-92.077,34.713],[-92.081,34.803],[-92.099,34.852]]]}},{"type":"Feature","properties":{"density":3},"geometry":{"type":"Polygon","coordinates":[[[-90.293,36.67],[-90.312,36.713],[-90.345,36.689],[-90.351,36.633],[-90.326,36.533],[-90.369,36.463],[-90.355,36.449],[-90.312,36.467],[-90.283,36.523],[-90.293,36.67]]]}},{"type":"Feature","properties":{"density":3},"geometry":{"type":"Polygon","coordinates":[[[-104.59,46.646],[-104.693,46.646],[-104.725,46.639],[-104.737,46.619],[-104.582,46.6],[-104.515,46.618],[-104.59,46.646]]]}},{"type":"Feature","properties":{"density":3},"geometry":{"type":"Polygon","coordinates":[[[-105.164,46.583],[-105.218,46.526],[-105.203,46.477],[-105.18,46.468],[-104.933,46.515],[-104.588,46.713],[-104.492,46.74],[-104.399,46.74],[-104.321,46.763],[-104.118,46.754],[-103.943,46.79],[-103.819,46.772],[-103.706,46.781],[-103.535,46.855],[-103.432,46.864],[-103.371,46.886],[-103.146,47.073],[-102.896,47.087],[-102.858,47.12],[-102.842,47.181],[-102.896,47.271],[-103.043,47.343],[-103.128,47.318],[-103.193,47.219],[-103.243,47.195],[-103.306,47.197],[-103.477,47.26],[-103.628,47.215],[-103.718,47.231],[-103.873,47.215],[-104.091,47.114],[-104.341,47.046],[-104.66,46.826],[-104.921,46.747],[-105.083,46.657],[-105.164,46.583]]]}},{"type":"Feature","properties":{"density":3},"geometry":{"type":"Polygon","coordinates":[[[-121.563,36.007],[-121.577,35.89],[-121.561,35.838],[-121.482,35.784],[-121.41,35.77],[-121.386,35.779],[-121.363,35.833],[-121.323,35.858],[-121.21,36.002],[-121.244,36.061],[-121.248,36.108],[-121.14,36.196],[-121.1,36.265],[-121.086,36.319],[-121.127,36.45],[-121.181,36.468],[-121.237,36.441],[-121.487,36.234],[-121.455,36.112],[-121.503,36.081],[-121.563,36.007]]]}},{"type":"Feature","properties":{"density":3},"geometry":{"type":"Polygon","coordinates":[[[-98.647,23.455],[-98.678,23.485],[-98.707,23.473],[-98.682,23.334],[-98.666,23.329],[-98.641,23.389],[-98.647,23.455]]]}},{"type":"Feature","properties":{"density":3},"geometry":{"type":"Polygon","coordinates":[[[-98.249,23.354],[-98.27,23.356],[-98.299,23.323],[-98.317,23.245],[-98.307,23.231],[-98.235,23.319],[-98.233,23.342],[-98.249,23.354]]]}},{"type":"Feature","properties":{"density":3},"geometry":{"type":"Polygon","coordinates":[[[-93.338,20.932],[-93.324,21.016],[-93.334,21.064],[-93.39,21.127],[-93.453,21.159],[-93.568,21.124],[-93.575,20.932],[-93.533,20.774],[-93.53,20.642],[-93.575,20.401],[-93.579,20.296],[-93.53,20.152],[-93.477,20.083],[-93.373,19.992],[-93.31,19.894],[-93.219,19.59],[-93.177,19.499],[-93.125,19.436],[-92.761,19.258],[-92.632,19.286],[-92.45,19.387],[-92.279,19.45],[-92.254,19.492],[-92.289,19.569],[-92.317,19.593],[-92.642,19.684],[-92.754,19.733],[-92.967,19.911],[-93.142,20.177],[-93.306,20.495],[-93.338,20.68],[-93.338,20.932]]]}}]}