{"type":"FeatureCollection","features":[{"type":"Feature","properties":{"density":1},"geometry":{"type":"Polygon","coordinates":[[[-78.097,24.807],[-78.077,25.03],[-78.023,25.183],[-77.895,25.228],[-77.818,25.2],[-77.794,25.146],[-77.791,25.086],[-77.847,24.927],[-77.927,24.817],[-77.967,24.797],[-78.092,24.802],[-78.097,24.807]]]}},{"type":"Feature","properties":{"density":1},"geometry":{"type":"Polygon","coordinates":[[[-100.448,19.871],[-100.724,20.005],[-101.66,20.023],[-102.088,19.996],[-102.588,19.934],[-103.043,19.978],[-104.014,20.183],[-104.683,20.388],[-105.058,20.388],[-105.477,20.237],[-105.869,20.023],[-106.234,19.684],[-106.431,19.399],[-106.511,19.104],[-106.547,18.676],[-106.547,18.418],[-106.404,18.141],[-106.181,17.829],[-105.842,17.562],[-105.432,17.303],[-104.986,16.866],[-104.514,16.331],[-104.121,15.805],[-103.649,15.386],[-103.185,15.119],[-102.606,15.137],[-101.937,15.431],[-101.545,15.52],[-101.117,15.52],[-100.573,15.36],[-100.056,15.119],[-99.574,14.798],[-99.093,14.628],[-98.37,14.611],[-98.058,14.62],[-97.835,14.575],[-97.568,14.334],[-97.497,14.218],[-97.238,13.505],[-96.944,12.988],[-96.409,12.622],[-95.856,12.489],[-95.357,12.596],[-94.759,12.81],[-94.421,13.024],[-94.189,13.309],[-93.788,13.862],[-93.663,14.245],[-93.627,14.584],[-93.654,14.994],[-93.6,15.805],[-93.672,16.073],[-93.716,16.831],[-93.627,17.294],[-92.887,18.346],[-92.441,18.783],[-92.2,19.104],[-91.978,19.621],[-91.79,20.148],[-91.674,20.683],[-91.487,21.191],[-91.211,21.619],[-90.89,22.011],[-90.244,22.608],[-89.812,22.943],[-89.227,23.305],[-88.879,23.709],[-88.6,24.573],[-88.558,25.06],[-88.6,25.729],[-88.781,26.105],[-88.962,26.328],[-89.352,26.509],[-89.742,26.523],[-90.439,26.439],[-91.163,26.328],[-91.693,26.161],[-92.779,25.882],[-93.337,25.659],[-93.95,25.534],[-94.73,25.311],[-95.719,25.088],[-96.513,24.684],[-96.903,24.308],[-97.516,23.375],[-97.767,22.636],[-97.739,22.093],[-97.544,21.508],[-97.098,20.519],[-96.722,20.017],[-96.68,19.557],[-96.736,19.125],[-96.736,18.721],[-96.067,17.802],[-95.58,17.3],[-95.454,17.078],[-95.245,16.437],[-95.273,16.242],[-95.317,16.129],[-95.443,16.049],[-95.665,15.935],[-95.922,15.867],[-96.384,15.832],[-96.641,15.901],[-97.195,16.215],[-97.372,16.426],[-97.503,16.62],[-97.623,16.837],[-97.765,17.019],[-98.022,17.191],[-98.176,17.253],[-98.587,17.139],[-99.066,17.219],[-99.443,17.402],[-99.574,17.556],[-99.466,17.756],[-99.203,17.756],[-98.918,17.619],[-98.427,17.482],[-98.113,17.493],[-97.925,17.573],[-97.782,17.733],[-97.811,18.086],[-98.024,18.361],[-98.269,18.628],[-98.637,18.84],[-99.45,19.163],[-99.695,19.319],[-100.253,19.743],[-100.448,19.871]]]}},{"type":"Feature","properties":{"density":1},"geometry":{"type":"Polygon","coordinates":[[[-80.618,26.885],[-80.567,26.878],[-80.516,26.788],[-80.446,26.733],[-80.446,26.67],[-80.567,26.682],[-80.637,26.728],[-80.657,26.8],[-80.642,26.866],[-80.618,26.885]]]}},{"type":"Feature","properties":{"density":1},"geometry":{"type":"Polygon","coordinates":[[[-79.712,34.934],[-79.598,34.975],[-79.523,34.961],[-79.458,34.917],[-79.409,34.857],[-79.392,34.745],[-79.422,34.709],[-79.506,34.714],[-79.741,34.835],[-79.758,34.861],[-79.758,34.905],[-79.736,34.919],[-79.712,34.934]]]}},{"type":"Feature","properties":{"density":1},"geometry":{"type":"Polygon","coordinates":[[[-96.496,28.971],[-96.592,28.956],[-96.666,28.977],[-96.708,29.007],[-96.733,29.072],[-96.697,29.093],[-96.615,29.084],[-96.513,29.041],[-96.482,28.982],[-96.496,28.971]]]}},{"type":"Feature","properties":{"density":1},"geometry":{"type":"Polygon","coordinates":[[[-98.971,23.049],[-98.959,23.067],[-98.935,23.067],[-98.92,23.007],[-98.974,22.904],[-99.022,22.916],[-99.031,22.944],[-99.001,23.004],[-98.971,23.049]]]}},{"type":"Feature","properties":{"density":1},"geometry":{"type":"Polygon","coordinates":[[[-98.955,22.804],[-98.829,22.789],[-98.753,22.72],[-98.714,22.62],[-98.714,22.56],[-98.738,22.517],[-98.841,22.496],[-98.947,22.526],[-99.016,22.59],[-99.038,22.705],[-99.028,22.75],[-98.995,22.789],[-98.955,22.804]]]}},{"type":"Feature","properties":{"density":1},"geometry":{"type":"Polygon","coordinates":[[[-81.159,26.851],[-81.154,26.883],[-81.115,26.925],[-80.983,26.947],[-80.854,26.878],[-80.766,26.866],[-80.693,26.876],[-80.641,26.908],[-80.585,26.912],[-80.522,26.89],[-80.483,26.864],[-80.278,26.473],[-80.283,26.334],[-80.324,26.265],[-80.407,26.209],[-80.512,26.182],[-80.663,26.175],[-80.827,26.219],[-81.0,26.356],[-81.096,26.512],[-81.154,26.776],[-81.159,26.851]]]}},{"type":"Feature","properties":{"density":1},"geometry":{"type":"Polygon","coordinates":[[[-80.612,27.23],[-80.409,27.23],[-80.358,27.166],[-80.366,27.135],[-80.405,27.091],[-80.495,27.037],[-80.615,27.025],[-80.634,27.032],[-80.649,27.071],[-80.629,27.203],[-80.612,27.23]]]}},{"type":"Feature","properties":{"density":1},"geometry":{"type":"Polygon","coordinates":[[[-84.155,32.125],[-84.189,32.152],[-84.245,32.139],[-84.321,32.037],[-84.326,32.01],[-84.304,31.995],[-84.245,32.003],[-84.181,32.042],[-84.145,32.096],[-84.155,32.125]]]}},{"type":"Feature","properties":{"density":1},"geometry":{"type":"Polygon","coordinates":[[[-82.944,32.044],[-82.973,32.03],[-82.997,32.042],[-83.019,32.071],[-83.012,32.098],[-82.963,32.127],[-82.927,32.127],[-82.907,32.105],[-82.919,32.056],[-82.944,32.044]]]}},{"type":"Feature","properties":{"density":1},"geometry":{"type":"Polygon","coordinates":[[[-91.942,32.961],[-91.983,32.969],[-91.993,33.006],[-91.957,33.019],[-91.907,33.01],[-91.903,32.967],[-91.918,32.955],[-91.942,32.961]]]}},{"type":"Feature","properties":{"density":1},"geometry":{"type":"Polygon","coordinates":[[[-98.057,25.237],[-98.15,25.246],[-98.234,25.287],[-98.287,25.355],[-98.279,25.404],[-98.234,25.421],[-98.158,25.408],[-98.058,25.314],[-98.039,25.255],[-98.057,25.237]]]}},{"type":"Feature","properties":{"density":1},"geometry":{"type":"Polygon","coordinates":[[[-97.902,24.621],[-97.97,24.611],[-98.069,24.649],[-98.124,24.711],[-98.128,24.742],[-98.064,24.81],[-97.924,24.838],[-97.878,24.802],[-97.869,24.772],[-97.881,24.631],[-97.902,24.621]]]}},{"type":"Feature","properties":{"density":1},"geometry":{"type":"Polygon","coordinates":[[[-93.863,31.621],[-93.968,31.609],[-94.295,31.504],[-94.539,31.404],[-94.571,31.406],[-94.617,31.445],[-94.615,31.497],[-94.586,31.553],[-94.515,31.633],[-94.258,31.853],[-94.036,32.014],[-93.968,32.022],[-93.899,31.99],[-93.843,31.756],[-93.846,31.636],[-93.863,31.621]]]}},{"type":"Feature","properties":{"density":1},"geometry":{"type":"Polygon","coordinates":[[[-93.488,31.211],[-93.531,31.221],[-93.648,31.192],[-93.683,31.123],[-93.638,31.072],[-93.572,31.063],[-93.517,31.1],[-93.48,31.19],[-93.488,31.211]]]}},{"type":"Feature","properties":{"density":1},"geometry":{"type":"Polygon","coordinates":[[[-100.509,44.02],[-100.491,44.062],[-100.47,44.071],[-100.341,44.02],[-99.798,43.714],[-99.777,43.678],[-99.817,43.644],[-99.868,43.641],[-99.954,43.666],[-100.11,43.736],[-100.479,43.977],[-100.509,44.02]]]}},{"type":"Feature","properties":{"density":1},"geometry":{"type":"Polygon","coordinates":[[[-81.134,26.898],[-81.106,26.904],[-80.981,26.868],[-80.786,26.776],[-80.74,26.782],[-80.697,26.862],[-80.645,26.907],[-80.658,27.02],[-80.719,27.127],[-80.752,27.24],[-80.755,27.344],[-80.743,27.371],[-80.694,27.389],[-80.618,27.38],[-80.563,27.347],[-80.462,27.261],[-80.365,27.109],[-80.325,26.944],[-80.266,26.561],[-80.087,26.282],[-79.837,26.089],[-79.748,26.044],[-79.525,25.882],[-79.437,25.766],[-79.388,25.65],[-79.385,25.577],[-79.412,25.519],[-79.477,25.461],[-79.623,25.433],[-79.791,25.479],[-80.847,26.273],[-81.06,26.508],[-81.164,26.688],[-81.179,26.779],[-81.164,26.877],[-81.134,26.898]]]}},{"type":"Feature","properties":{"density":1},"geometry":{"type":"Polygon","coordinates":[[[-85.2,30.387],[-85.307,30.406],[-85.452,30.383],[-85.497,30.369],[-85.522,30.34],[-85.463,30.306],[-85.249,30.324],[-85.187,30.345],[-85.186,30.377],[-85.2,30.387]]]}},{"type":"Feature","properties":{"density":1},"geometry":{"type":"Polygon","coordinates":[[[-82.99,32.04],[-82.938,32.046],[-82.916,32.083],[-82.934,32.122],[-83.133,32.239],[-83.205,32.204],[-83.211,32.182],[-83.19,32.137],[-83.076,32.069],[-82.99,32.04]]]}},{"type":"Feature","properties":{"density":1},"geometry":{"type":"Polygon","coordinates":[[[-84.792,31.683],[-84.764,31.652],[-84.778,31.638],[-84.895,31.547],[-84.932,31.556],[-84.936,31.592],[-84.85,31.666],[-84.792,31.683]]]}},{"type":"Feature","properties":{"density":1},"geometry":{"type":"Polygon","coordinates":[[[-80.709,34.64],[-80.728,34.671],[-80.728,34.732],[-80.664,34.824],[-80.559,34.876],[-80.519,34.873],[-80.428,34.761],[-80.387,34.679],[-80.379,34.593],[-80.4,34.55],[-80.457,34.542],[-80.496,34.55],[-80.609,34.632],[-80.684,34.63],[-80.709,34.64]]]}},{"type":"Feature","properties":{"density":1},"geometry":{"type":"Polygon","coordinates":[[[-88.289,32.226],[-88.285,32.306],[-88.213,32.415],[-88.168,32.462],[-88.129,32.478],[-88.109,32.449],[-88.115,32.427],[-88.182,32.312],[-88.275,32.214],[-88.289,32.226]]]}},{"type":"Feature","properties":{"density":1},"geometry":{"type":"Polygon","coordinates":[[[-89.279,31.393],[-89.441,31.45],[-89.464,31.518],[-89.441,31.538],[-89.355,31.526],[-89.284,31.458],[-89.259,31.409],[-89.267,31.393],[-89.279,31.393]]]}},{"type":"Feature","properties":{"density":1},"geometry":{"type":"Polygon","coordinates":[[[-90.015,31.499],[-90.068,31.511],[-90.167,31.575],[-90.199,31.634],[-90.199,31.669],[-90.183,31.677],[-90.144,31.661],[-89.997,31.552],[-89.999,31.503],[-90.015,31.499]]]}},{"type":"Feature","properties":{"density":1},"geometry":{"type":"Polygon","coordinates":[[[-89.833,31.766],[-89.88,31.77],[-89.988,31.815],[-90.054,31.868],[-90.046,31.899],[-89.966,31.893],[-89.839,31.827],[-89.808,31.794],[-89.818,31.766],[-89.833,31.766]]]}},{"type":"Feature","properties":{"density":1},"geometry":{"type":"Polygon","coordinates":[[[-77.676,38.05],[-77.659,38.068],[-77.631,38.066],[-77.506,37.992],[-77.428,37.875],[-77.426,37.81],[-77.504,37.787],[-77.543,37.806],[-77.647,37.892],[-77.684,37.947],[-77.69,38.021],[-77.676,38.05]]]}},{"type":"Feature","properties":{"density":1},"geometry":{"type":"Polygon","coordinates":[[[-94.386,37.997],[-94.435,38.044],[-94.452,38.276],[-94.398,38.539],[-94.315,38.691],[-94.261,38.752],[-94.174,38.801],[-94.135,38.798],[-94.12,38.786],[-94.115,38.722],[-94.225,38.537],[-94.298,38.364],[-94.357,38.083],[-94.362,37.99],[-94.376,37.99],[-94.386,37.997]]]}},{"type":"Feature","properties":{"density":1},"geometry":{"type":"Polygon","coordinates":[[[-94.061,31.606],[-93.983,31.626],[-93.858,31.629],[-93.833,31.665],[-93.844,31.704],[-93.942,31.817],[-94.024,31.883],[-94.114,31.93],[-94.29,31.936],[-94.337,31.917],[-94.428,31.827],[-94.464,31.721],[-94.46,31.663],[-94.423,31.622],[-94.335,31.587],[-94.176,31.583],[-94.1,31.596],[-94.061,31.606]]]}},{"type":"Feature","properties":{"density":1},"geometry":{"type":"Polygon","coordinates":[[[-93.491,31.159],[-93.641,31.17],[-93.735,31.227],[-93.766,31.249],[-93.764,31.325],[-93.688,31.329],[-93.508,31.243],[-93.473,31.212],[-93.475,31.165],[-93.491,31.159]]]}},{"type":"Feature","properties":{"density":1},"geometry":{"type":"Polygon","coordinates":[[[-92.411,31.131],[-92.467,31.155],[-92.604,31.174],[-92.645,31.145],[-92.651,31.087],[-92.635,31.057],[-92.594,31.032],[-92.561,31.034],[-92.516,31.045],[-92.407,31.122],[-92.411,31.131]]]}},{"type":"Feature","properties":{"density":1},"geometry":{"type":"Polygon","coordinates":[[[-93.04,30.686],[-93.059,30.704],[-93.135,30.715],[-93.229,30.698],[-93.317,30.653],[-93.327,30.626],[-93.313,30.612],[-93.235,30.608],[-93.049,30.635],[-93.036,30.667],[-93.04,30.686]]]}},{"type":"Feature","properties":{"density":1},"geometry":{"type":"Polygon","coordinates":[[[-93.448,30.27],[-93.592,30.27],[-93.659,30.239],[-93.676,30.192],[-93.62,30.135],[-93.505,30.108],[-93.446,30.139],[-93.424,30.176],[-93.434,30.258],[-93.448,30.27]]]}},{"type":"Feature","properties":{"density":1},"geometry":{"type":"Polygon","coordinates":[[[-93.858,30.856],[-93.934,30.866],[-93.995,30.907],[-94.014,30.954],[-94.007,30.989],[-93.95,30.997],[-93.87,30.944],[-93.831,30.881],[-93.848,30.86],[-93.858,30.856]]]}},{"type":"Feature","properties":{"density":1},"geometry":{"type":"Polygon","coordinates":[[[-94.369,30.08],[-94.428,30.153],[-94.411,30.18],[-94.376,30.192],[-94.18,30.126],[-94.149,30.081],[-94.155,30.045],[-94.173,30.04],[-94.278,30.036],[-94.344,30.063],[-94.369,30.08]]]}},{"type":"Feature","properties":{"density":1},"geometry":{"type":"Polygon","coordinates":[[[-94.595,29.89],[-94.566,29.894],[-94.488,29.867],[-94.458,29.822],[-94.365,29.513],[-94.3,29.435],[-94.287,29.367],[-94.312,29.322],[-94.365,29.31],[-94.503,29.361],[-94.546,29.429],[-94.585,29.556],[-94.609,29.851],[-94.595,29.89]]]}},{"type":"Feature","properties":{"density":1},"geometry":{"type":"Polygon","coordinates":[[[-100.505,44.028],[-100.435,44.091],[-100.381,44.099],[-100.295,44.089],[-100.168,44.033],[-100.015,43.872],[-99.927,43.713],[-99.907,43.637],[-99.915,43.62],[-99.949,43.598],[-100.051,43.645],[-100.322,43.901],[-100.398,43.962],[-100.481,43.999],[-100.505,44.028]]]}},{"type":"Feature","properties":{"density":1},"geometry":{"type":"Polygon","coordinates":[[[-114.721,33.207],[-114.742,33.265],[-114.742,33.347],[-114.669,33.536],[-114.349,34.061],[-114.227,34.202],[-114.062,34.29],[-113.979,34.287],[-113.928,34.247],[-113.912,34.15],[-113.925,34.037],[-114.001,33.805],[-114.257,33.384],[-114.462,33.219],[-114.617,33.167],[-114.657,33.164],[-114.678,33.179],[-114.721,33.207]]]}},{"type":"Feature","properties":{"density":1},"geometry":{"type":"Polygon","coordinates":[[[-114.864,32.188],[-114.83,32.18],[-114.693,32.201],[-114.565,32.262],[-114.421,32.421],[-114.232,32.757],[-114.223,32.9],[-114.247,32.952],[-114.296,32.979],[-114.431,32.973],[-114.582,32.81],[-114.789,32.515],[-114.865,32.308],[-114.888,32.229],[-114.879,32.207],[-114.864,32.188]]]}},{"type":"Feature","properties":{"density":1},"geometry":{"type":"Polygon","coordinates":[[[-101.351,23.22],[-101.378,23.293],[-101.363,23.411],[-101.286,23.602],[-101.107,23.796],[-100.874,23.903],[-100.806,23.895],[-100.779,23.869],[-100.775,23.727],[-100.829,23.628],[-100.92,23.51],[-101.103,23.319],[-101.222,23.216],[-101.305,23.193],[-101.351,23.22]]]}},{"type":"Feature","properties":{"density":1},"geometry":{"type":"Polygon","coordinates":[[[-99.37,21.932],[-99.521,22.293],[-99.556,22.643],[-99.498,22.992],[-99.393,23.388],[-99.416,23.853],[-99.544,24.47],[-99.603,24.854],[-99.603,25.402],[-99.428,25.832],[-98.974,26.356],[-97.775,26.682],[-96.669,26.88],[-94.993,26.985],[-93.27,26.903],[-91.733,26.717],[-89.021,26.286],[-87.973,25.704],[-87.74,25.355],[-87.67,24.785],[-87.88,24.214],[-88.892,23.027],[-89.475,22.491],[-90.289,21.828],[-91.489,20.396],[-91.826,19.802],[-91.954,19.499],[-91.954,19.104],[-91.826,18.836],[-91.605,18.615],[-91.477,18.358],[-91.547,17.974],[-91.71,17.776],[-92.047,17.474],[-92.303,17.171],[-92.571,17.031],[-92.641,16.845],[-92.408,16.507],[-92.362,16.263],[-92.362,15.902],[-92.245,15.541],[-91.989,15.297],[-91.663,15.076],[-90.872,14.633],[-90.301,14.4],[-89.87,14.109],[-89.661,13.702],[-89.638,13.131],[-89.824,12.561],[-90.324,12.06],[-90.86,11.467],[-91.78,10.931],[-92.816,10.547],[-94.911,10.093],[-98.345,10.023],[-101.139,10.198],[-101.535,10.384],[-102.012,10.745],[-102.28,11.269],[-102.327,11.769],[-102.047,12.701],[-101.978,13.201],[-102.082,13.772],[-102.56,14.505],[-103.968,15.483],[-104.609,15.658],[-105.808,16.065],[-106.215,16.403],[-106.623,17.008],[-106.925,17.788],[-107.17,19.243],[-107.181,20.151],[-107.018,20.908],[-106.739,21.455],[-106.355,22.026],[-105.947,22.375],[-105.726,22.456],[-105.458,22.491],[-105.167,22.456],[-104.806,22.165],[-104.469,21.735],[-104.283,21.432],[-104.12,21.413],[-103.985,21.316],[-103.65,21.219],[-103.457,21.227],[-103.285,21.339],[-103.158,21.532],[-103.054,21.793],[-103.047,22.091],[-103.129,22.456],[-103.166,22.769],[-103.166,23.104],[-103.129,23.365],[-103.062,23.507],[-102.928,23.611],[-102.629,23.693],[-102.376,23.686],[-102.048,23.499],[-101.773,22.456],[-101.698,22.084],[-101.586,21.771],[-101.475,21.391],[-101.348,21.152],[-101.132,21.018],[-100.864,20.899],[-100.761,20.895],[-100.566,20.933],[-100.249,20.905],[-99.802,20.802],[-99.234,20.513],[-98.675,20.104],[-98.526,19.955],[-98.358,19.722],[-98.042,19.331],[-97.939,19.163],[-97.939,19.033],[-97.977,18.921],[-98.126,18.781],[-98.256,18.492],[-98.303,18.278],[-98.303,18.027],[-98.256,17.794],[-98.181,17.626],[-98.079,17.477],[-97.707,17.282],[-97.53,17.095],[-97.427,16.881],[-97.269,16.658],[-97.101,16.462],[-96.654,16.295],[-96.375,16.257],[-96.188,16.304],[-96.077,16.471],[-96.03,16.742],[-96.049,17.068],[-96.235,17.421],[-96.719,17.906],[-96.878,18.12],[-97.166,18.614],[-97.259,18.884],[-97.259,19.21],[-97.287,19.442],[-97.558,19.824],[-98.275,20.448],[-98.712,20.923],[-99.122,21.435],[-99.318,21.752],[-99.37,21.932]]]}},{"type":"Feature","properties":{"density":2},"geometry":{"type":"Polygon","coordinates":[[[-97.909,24.63],[-97.949,24.642],[-97.953,24.674],[-97.92,24.685],[-97.897,24.639],[-97.909,24.63]]]}},{"type":"Feature","properties":{"density":2},"geometry":{"type":"Polygon","coordinates":[[[-93.496,31.199],[-93.556,31.193],[-93.56,31.175],[-93.539,31.156],[-93.491,31.191],[-93.496,31.199]]]}},{"type":"Feature","properties":{"density":2},"geometry":{"type":"Polygon","coordinates":[[[-93.499,31.176],[-93.54,31.17],[-93.612,31.188],[-93.704,31.243],[-93.719,31.27],[-93.692,31.278],[-93.62,31.247],[-93.497,31.223],[-93.493,31.19],[-93.499,31.176]]]}},{"type":"Feature","properties":{"density":2},"geometry":{"type":"Polygon","coordinates":[[[-94.272,30.079],[-94.36,30.104],[-94.366,30.147],[-94.341,30.153],[-94.241,30.112],[-94.231,30.088],[-94.249,30.075],[-94.272,30.079]]]}},{"type":"Feature","properties":{"density":2},"geometry":{"type":"Polygon","coordinates":[[[-94.501,29.837],[-94.525,29.802],[-94.525,29.748],[-94.507,29.714],[-94.49,29.712],[-94.478,29.74],[-94.49,29.826],[-94.501,29.837]]]}},{"type":"Feature","properties":{"density":2},"geometry":{"type":"Polygon","coordinates":[[[-114.688,33.211],[-114.706,33.226],[-114.719,33.304],[-114.593,33.61],[-114.358,33.942],[-114.306,33.967],[-114.269,33.967],[-114.227,33.918],[-114.224,33.829],[-114.343,33.506],[-114.498,33.323],[-114.623,33.216],[-114.669,33.21],[-114.688,33.211]]]}},{"type":"Feature","properties":{"density":3},"geometry":{"type":"Polygon","coordinates":[[[-114.7,33.224],[-114.68,33.338],[-114.483,33.714],[-114.4,33.766],[-114.361,33.766],[-114.358,33.692],[-114.468,33.478],[-114.605,33.275],[-114.646,33.229],[-114.688,33.214],[-114.7,33.224]]]}}]}