{"type":"FeatureCollection","features":[{"type":"Feature","properties":{"density":1},"geometry":{"type":"Polygon","coordinates":[[[-80.781,26.129],[-80.864,26.149],[-81.1,26.302],[-81.184,26.383],[-81.197,26.428],[-81.186,26.46],[-81.134,26.473],[-81.058,26.437],[-80.745,26.172],[-80.74,26.14],[-80.763,26.129],[-80.781,26.129]]]}},{"type":"Feature","properties":{"density":1},"geometry":{"type":"Polygon","coordinates":[[[-84.604,30.049],[-84.577,30.086],[-84.537,30.086],[-84.466,30.036],[-84.267,29.675],[-84.003,29.449],[-83.811,29.334],[-83.754,29.276],[-83.73,29.212],[-83.737,29.145],[-83.77,29.104],[-83.956,29.077],[-84.098,29.114],[-84.273,29.219],[-84.526,29.557],[-84.624,29.881],[-84.611,30.026],[-84.604,30.049]]]}},{"type":"Feature","properties":{"density":1},"geometry":{"type":"Polygon","coordinates":[[[-99.125,30.388],[-99.251,30.408],[-99.26,30.471],[-99.161,30.478],[-99.111,30.46],[-99.082,30.41],[-99.084,30.392],[-99.109,30.383],[-99.125,30.388]]]}},{"type":"Feature","properties":{"density":1},"geometry":{"type":"Polygon","coordinates":[[[-98.956,30.41],[-98.945,30.431],[-98.886,30.444],[-98.87,30.435],[-98.861,30.383],[-98.936,30.363],[-98.963,30.39],[-98.956,30.41]]]}},{"type":"Feature","properties":{"density":1},"geometry":{"type":"Polygon","coordinates":[[[-105.616,33.569],[-105.757,33.685],[-105.813,33.761],[-105.843,33.842],[-105.854,33.989],[-105.803,34.085],[-105.59,34.237],[-105.449,34.252],[-104.922,34.556],[-104.79,34.617],[-104.618,34.668],[-104.249,34.698],[-104.137,34.678],[-103.945,34.551],[-103.874,34.43],[-103.859,34.293],[-103.798,34.131],[-103.783,33.994],[-103.834,33.685],[-103.869,33.569],[-103.935,33.488],[-104.284,33.235],[-104.304,32.683],[-104.507,32.425],[-104.659,32.394],[-104.851,32.405],[-105.074,32.486],[-105.271,32.607],[-105.312,32.729],[-105.317,32.865],[-105.251,33.179],[-105.261,33.346],[-105.347,33.453],[-105.499,33.488],[-105.616,33.569]]]}},{"type":"Feature","properties":{"density":1},"geometry":{"type":"Polygon","coordinates":[[[-115.957,44.036],[-116.001,44.076],[-116.004,44.137],[-115.981,44.215],[-115.961,44.238],[-115.923,44.245],[-115.896,44.235],[-115.863,44.144],[-115.795,44.11],[-115.761,44.07],[-115.761,44.039],[-115.799,44.002],[-115.842,43.995],[-115.893,44.009],[-115.957,44.036]]]}},{"type":"Feature","properties":{"density":1},"geometry":{"type":"Polygon","coordinates":[[[-114.421,32.764],[-114.597,32.69],[-114.627,32.656],[-114.735,32.639],[-114.837,32.683],[-114.904,32.781],[-114.938,32.94],[-114.83,33.105],[-114.789,33.21],[-114.782,33.358],[-114.803,33.456],[-114.796,33.5],[-114.759,33.544],[-114.718,33.557],[-114.644,33.55],[-114.55,33.493],[-114.499,33.446],[-114.415,33.318],[-114.388,32.926],[-114.354,32.855],[-114.344,32.788],[-114.377,32.771],[-114.421,32.764]]]}},{"type":"Feature","properties":{"density":1},"geometry":{"type":"Polygon","coordinates":[[[-123.149,39.674],[-123.189,39.685],[-123.207,39.71],[-123.201,39.746],[-123.158,39.746],[-123.12,39.687],[-123.138,39.667],[-123.149,39.674]]]}},{"type":"Feature","properties":{"density":1},"geometry":{"type":"Polygon","coordinates":[[[-122.156,56.529],[-122.195,56.875],[-121.695,57.029],[-121.003,56.991],[-120.08,56.722],[-118.62,56.491],[-117.505,56.414],[-115.314,56.606],[-114.276,57.106],[-112.93,57.606],[-113.007,58.259],[-113.545,58.798],[-114.083,59.105],[-114.622,59.336],[-115.044,59.605],[-115.083,59.874],[-114.968,60.105],[-114.237,60.258],[-113.391,60.182],[-111.777,59.451],[-110.931,58.99],[-109.97,58.259],[-109.701,57.913],[-109.509,57.49],[-109.778,56.914],[-110.431,56.26],[-111.123,55.645],[-112.892,54.992],[-117.389,54.453],[-120.004,54.338],[-121.772,54.723],[-122.349,55.03],[-122.618,55.453],[-122.502,55.914],[-122.156,56.529]]]}},{"type":"Feature","properties":{"density":1},"geometry":{"type":"Polygon","coordinates":[[[-99.653,24.085],[-100.166,25.444],[-100.269,26.315],[-100.192,26.725],[-99.91,27.161],[-99.551,27.468],[-98.808,27.699],[-98.167,27.673],[-97.706,27.571],[-97.065,26.93],[-97.193,25.264],[-97.296,24.495],[-97.347,23.931],[-97.424,22.676],[-97.296,22.086],[-97.142,21.574],[-96.988,21.138],[-96.757,20.702],[-96.501,20.369],[-96.27,20.138],[-95.758,19.985],[-94.118,20.01],[-93.708,20.036],[-93.4,19.933],[-92.939,19.677],[-92.657,19.267],[-92.58,18.934],[-92.529,18.549],[-92.58,18.165],[-92.708,17.857],[-92.99,17.601],[-93.349,17.191],[-93.81,17.012],[-94.528,16.909],[-95.297,16.96],[-95.732,17.14],[-96.347,17.447],[-96.732,17.832],[-97.167,18.857],[-97.654,19.369],[-98.398,20.087],[-98.654,20.42],[-99.09,21.061],[-99.269,21.702],[-99.269,22.701],[-99.525,23.47],[-99.653,24.085]]]}},{"type":"Feature","properties":{"density":1},"geometry":{"type":"Polygon","coordinates":[[[-98.526,18.934],[-98.244,18.242],[-97.962,17.704],[-97.501,17.191],[-97.014,16.73],[-96.27,16.371],[-95.476,15.756],[-93.938,14.526],[-93.554,13.705],[-93.631,12.937],[-94.271,12.219],[-96.065,10.835],[-99.32,10.322],[-101.371,10.117],[-103.062,10.553],[-103.78,11.014],[-104.19,11.963],[-104.19,13.09],[-104.267,13.885],[-104.882,14.731],[-105.933,15.243],[-107.035,15.551],[-108.085,15.781],[-110.033,16.371],[-110.828,16.678],[-110.956,17.114],[-110.93,17.499],[-110.674,18.114],[-110.264,18.626],[-109.341,19.267],[-108.316,19.395],[-107.317,19.626],[-106.701,19.908],[-106.214,20.343],[-106.009,20.805],[-105.856,21.548],[-105.958,22.419],[-105.933,22.752],[-105.676,23.214],[-105.369,23.393],[-104.651,23.368],[-103.626,23.265],[-102.934,23.009],[-102.242,22.471],[-101.781,21.881],[-101.396,21.317],[-100.935,20.882],[-100.32,20.6],[-99.884,20.446],[-99.423,20.19],[-98.987,19.856],[-98.833,19.549],[-98.526,18.934]]]}},{"type":"Feature","properties":{"density":1},"geometry":{"type":"Polygon","coordinates":[[[-78.177,21.95],[-78.234,21.981],[-78.336,22.005],[-78.353,22.052],[-78.325,22.066],[-78.21,22.022],[-78.154,21.986],[-78.154,21.961],[-78.177,21.95]]]}},{"type":"Feature","properties":{"density":1},"geometry":{"type":"Polygon","coordinates":[[[-80.811,26.099],[-80.935,26.215],[-80.982,26.284],[-80.99,26.339],[-80.957,26.375],[-80.908,26.353],[-80.789,26.215],[-80.764,26.143],[-80.786,26.099],[-80.811,26.099]]]}},{"type":"Feature","properties":{"density":1},"geometry":{"type":"Polygon","coordinates":[[[-84.625,30.004],[-84.559,29.913],[-84.325,29.384],[-84.231,29.216],[-84.132,29.141],[-83.914,29.073],[-83.534,29.073],[-83.247,29.141],[-83.159,29.208],[-83.222,29.395],[-83.418,29.646],[-83.804,29.974],[-83.991,30.07],[-84.352,30.156],[-84.446,30.156],[-84.509,30.136],[-84.573,30.106],[-84.62,30.04],[-84.625,30.004]]]}},{"type":"Feature","properties":{"density":1},"geometry":{"type":"Polygon","coordinates":[[[-69.474,45.992],[-69.461,46.335],[-69.42,46.401],[-69.399,46.401],[-69.375,46.347],[-69.379,46.016],[-69.412,45.963],[-69.47,45.971],[-69.474,45.992]]]}},{"type":"Feature","properties":{"density":1},"geometry":{"type":"Polygon","coordinates":[[[-99.169,30.375],[-99.381,30.57],[-99.398,30.636],[-99.387,30.672],[-99.318,30.661],[-99.241,30.598],[-99.117,30.441],[-99.111,30.408],[-99.155,30.366],[-99.169,30.375]]]}},{"type":"Feature","properties":{"density":1},"geometry":{"type":"Polygon","coordinates":[[[-98.441,37.03],[-98.139,37.22],[-98.011,37.328],[-97.957,37.398],[-97.92,37.485],[-97.908,37.613],[-97.966,37.683],[-98.023,37.721],[-98.147,37.737],[-98.201,37.692],[-98.321,37.543],[-98.42,37.365],[-98.49,37.163],[-98.515,37.08],[-98.515,37.051],[-98.49,37.03],[-98.441,37.03]]]}},{"type":"Feature","properties":{"density":1},"geometry":{"type":"Polygon","coordinates":[[[-96.477,37.646],[-96.523,37.675],[-96.589,37.774],[-96.614,37.903],[-96.482,37.741],[-96.44,37.655],[-96.477,37.646]]]}},{"type":"Feature","properties":{"density":1},"geometry":{"type":"Polygon","coordinates":[[[-105.54,33.651],[-105.397,33.794],[-105.261,33.967],[-105.199,34.011],[-105.081,34.06],[-104.932,34.073],[-104.827,34.042],[-104.684,33.918],[-104.647,33.843],[-104.579,33.775],[-104.455,33.583],[-104.442,33.502],[-104.461,33.403],[-104.498,33.36],[-104.597,33.36],[-104.802,33.384],[-105.075,33.546],[-105.23,33.515],[-105.409,33.515],[-105.515,33.602],[-105.54,33.651]]]}},{"type":"Feature","properties":{"density":1},"geometry":{"type":"Polygon","coordinates":[[[-114.604,33.346],[-114.689,33.125],[-114.709,32.888],[-114.758,32.847],[-114.855,32.861],[-114.948,32.993],[-114.973,33.067],[-115.072,33.244],[-115.086,33.379],[-115.072,33.492],[-115.037,33.566],[-114.973,33.632],[-114.893,33.668],[-114.811,33.665],[-114.692,33.616],[-114.648,33.583],[-114.571,33.481],[-114.557,33.414],[-114.585,33.351],[-114.604,33.346]]]}},{"type":"Feature","properties":{"density":1},"geometry":{"type":"Polygon","coordinates":[[[-116.601,37.544],[-116.545,37.569],[-116.39,37.712],[-116.378,37.817],[-116.508,37.935],[-116.607,37.922],[-116.663,37.873],[-116.738,37.736],[-116.762,37.674],[-116.762,37.625],[-116.744,37.581],[-116.682,37.532],[-116.601,37.544]]]}},{"type":"Feature","properties":{"density":1},"geometry":{"type":"Polygon","coordinates":[[[-123.158,39.74],[-123.089,39.701],[-123.073,39.654],[-123.095,39.632],[-123.164,39.635],[-123.202,39.676],[-123.183,39.715],[-123.158,39.74]]]}},{"type":"Feature","properties":{"density":1},"geometry":{"type":"Polygon","coordinates":[[[-107.637,62.064],[-107.052,62.092],[-106.647,62.148],[-106.298,62.162],[-105.057,62.469],[-101.932,63.11],[-101.443,63.096],[-100.704,62.929],[-100.313,62.859],[-99.867,62.831],[-97.007,62.831],[-95.612,62.929],[-94.608,63.347],[-93.757,63.892],[-93.171,64.226],[-92.599,64.603],[-92.222,64.966],[-91.566,65.524],[-91.385,65.831],[-91.315,66.068],[-91.259,66.417],[-91.455,66.612],[-91.873,66.793],[-92.445,66.863],[-92.85,66.835],[-93.715,66.584],[-94.161,66.305],[-94.761,65.886],[-95.054,65.566],[-95.849,65.342],[-96.031,65.621],[-96.045,65.9],[-96.003,66.277],[-96.017,66.612],[-96.365,66.626],[-96.951,66.486],[-98.318,65.998],[-98.835,65.859],[-99.393,65.649],[-100.188,65.468],[-100.648,65.384],[-102.559,65.105],[-104.247,65.245],[-104.568,65.468],[-104.652,65.747],[-104.652,65.984],[-105.168,66.458],[-106.354,66.835],[-106.926,66.863],[-108.07,66.877],[-108.461,66.807],[-108.781,66.612],[-108.977,66.347],[-109.102,66.082],[-109.228,65.859],[-109.981,65.593],[-110.511,65.593],[-111.293,65.649],[-112.436,65.761],[-113.273,65.719],[-113.566,65.677],[-113.845,65.58],[-114.138,65.426],[-114.585,65.147],[-114.752,64.938],[-114.808,64.784],[-114.836,64.617],[-114.878,64.254],[-114.878,64.073],[-114.431,62.859],[-114.236,62.524],[-114.027,62.12],[-114.027,61.687],[-114.055,61.478],[-114.055,61.297],[-113.999,61.046],[-113.887,60.794],[-113.748,60.599],[-113.594,60.502],[-113.357,60.25],[-113.092,60.167],[-112.841,60.125],[-112.381,60.111],[-112.088,60.167],[-111.153,60.404],[-110.888,60.502],[-110.344,60.753],[-110.009,60.808],[-109.632,61.032],[-109.325,61.269],[-108.879,61.534],[-108.307,61.827],[-107.93,61.966],[-107.637,62.064]]]}},{"type":"Feature","properties":{"density":1},"geometry":{"type":"Polygon","coordinates":[[[-103.834,20.205],[-103.8,20.226],[-103.776,20.288],[-103.734,20.333],[-103.61,20.308],[-103.561,20.267],[-103.627,20.189],[-103.714,20.139],[-103.805,20.135],[-103.838,20.156],[-103.834,20.205]]]}},{"type":"Feature","properties":{"density":1},"geometry":{"type":"Polygon","coordinates":[[[-103.829,20.891],[-103.908,20.9],[-103.974,20.862],[-103.982,20.763],[-103.896,20.709],[-103.809,20.747],[-103.784,20.8],[-103.792,20.842],[-103.829,20.891]]]}},{"type":"Feature","properties":{"density":1},"geometry":{"type":"Polygon","coordinates":[[[-104.772,20.143],[-104.859,20.151],[-104.966,20.189],[-105.165,20.296],[-105.268,20.333],[-105.338,20.308],[-105.367,20.201],[-105.359,20.135],[-105.322,20.102],[-105.16,20.048],[-104.85,20.011],[-104.755,20.06],[-104.739,20.106],[-104.772,20.143]]]}},{"type":"Feature","properties":{"density":1},"geometry":{"type":"Polygon","coordinates":[[[-104.835,19.557],[-104.918,19.652],[-104.942,19.704],[-104.923,19.761],[-104.841,19.792],[-104.694,19.733],[-104.653,19.648],[-104.663,19.597],[-104.69,19.568],[-104.753,19.547],[-104.8,19.551],[-104.835,19.557]]]}},{"type":"Feature","properties":{"density":1},"geometry":{"type":"Polygon","coordinates":[[[-104.451,19.503],[-104.539,19.566],[-104.525,19.612],[-104.486,19.647],[-104.473,19.645],[-104.435,19.558],[-104.433,19.507],[-104.451,19.503]]]}},{"type":"Feature","properties":{"density":1},"geometry":{"type":"Polygon","coordinates":[[[-104.223,19.342],[-104.258,19.393],[-104.258,19.437],[-104.196,19.527],[-104.161,19.533],[-104.159,19.36],[-104.214,19.336],[-104.223,19.342]]]}},{"type":"Feature","properties":{"density":1},"geometry":{"type":"Polygon","coordinates":[[[-103.325,19.481],[-103.391,19.503],[-103.529,19.417],[-103.579,19.331],[-103.564,19.257],[-103.461,19.189],[-103.343,19.16],[-103.217,19.147],[-103.167,19.162],[-103.158,19.208],[-103.18,19.244],[-103.329,19.331],[-103.343,19.395],[-103.31,19.457],[-103.325,19.481]]]}},{"type":"Feature","properties":{"density":1},"geometry":{"type":"Polygon","coordinates":[[[-102.847,18.401],[-102.915,18.404],[-102.936,18.344],[-102.928,18.322],[-102.864,18.305],[-102.825,18.345],[-102.836,18.39],[-102.847,18.401]]]}},{"type":"Feature","properties":{"density":1},"geometry":{"type":"Polygon","coordinates":[[[-101.147,17.574],[-101.166,17.574],[-101.202,17.612],[-101.2,17.662],[-101.059,17.75],[-100.965,17.759],[-100.965,17.692],[-101.023,17.601],[-101.073,17.571],[-101.122,17.571],[-101.147,17.574]]]}},{"type":"Feature","properties":{"density":1},"geometry":{"type":"Polygon","coordinates":[[[-98.719,16.753],[-98.779,16.788],[-98.813,16.788],[-98.861,16.718],[-98.94,16.685],[-99.006,16.669],[-99.211,16.668],[-99.242,16.7],[-99.35,16.929],[-99.311,17.045],[-99.251,17.114],[-99.088,17.149],[-98.92,17.133],[-98.798,17.072],[-98.731,17.065],[-98.635,16.96],[-98.606,16.878],[-98.64,16.773],[-98.698,16.75],[-98.719,16.753]]]}},{"type":"Feature","properties":{"density":1},"geometry":{"type":"Polygon","coordinates":[[[-99.46,17.654],[-99.554,17.621],[-99.62,17.635],[-99.666,17.673],[-99.666,17.759],[-99.587,17.806],[-99.523,17.797],[-99.443,17.77],[-99.427,17.748],[-99.438,17.695],[-99.46,17.654]]]}},{"type":"Feature","properties":{"density":1},"geometry":{"type":"Polygon","coordinates":[[[-95.532,18.343],[-95.582,18.296],[-95.576,18.268],[-95.521,18.21],[-95.408,18.152],[-95.331,18.163],[-95.292,18.205],[-95.292,18.29],[-95.364,18.332],[-95.474,18.362],[-95.532,18.343]]]}},{"type":"Feature","properties":{"density":1},"geometry":{"type":"Polygon","coordinates":[[[-62.838,17.405],[-62.917,17.405],[-63.054,17.356],[-63.277,17.363],[-63.342,17.336],[-63.313,17.322],[-63.076,17.313],[-62.86,17.345],[-62.82,17.369],[-62.838,17.405]]]}},{"type":"Feature","properties":{"density":1},"geometry":{"type":"Polygon","coordinates":[[[-78.172,21.963],[-78.912,21.983],[-79.002,21.997],[-79.049,22.039],[-78.898,22.066],[-78.505,22.06],[-78.19,22.03],[-78.167,22.021],[-78.16,21.981],[-78.172,21.963]]]}},{"type":"Feature","properties":{"density":1},"geometry":{"type":"Polygon","coordinates":[[[-78.156,21.873],[-78.284,21.868],[-78.354,21.846],[-78.289,21.826],[-78.149,21.823],[-78.104,21.844],[-78.109,21.866],[-78.131,21.873],[-78.156,21.873]]]}},{"type":"Feature","properties":{"density":1},"geometry":{"type":"Polygon","coordinates":[[[-81.251,27.637],[-81.371,27.745],[-81.69,28.157],[-81.704,28.213],[-81.668,28.252],[-81.643,28.249],[-81.544,28.121],[-81.364,27.943],[-81.224,27.691],[-81.233,27.64],[-81.251,27.637]]]}},{"type":"Feature","properties":{"density":1},"geometry":{"type":"Polygon","coordinates":[[[-84.649,30.07],[-84.632,30.229],[-84.531,30.441],[-84.48,30.485],[-84.419,30.489],[-84.406,30.408],[-84.436,30.161],[-84.416,30.09],[-84.369,30.023],[-84.261,29.979],[-83.866,29.898],[-83.569,29.763],[-83.549,29.712],[-83.606,29.692],[-83.896,29.773],[-84.146,29.871],[-84.554,29.986],[-84.642,30.05],[-84.649,30.07]]]}},{"type":"Feature","properties":{"density":1},"geometry":{"type":"Polygon","coordinates":[[[-94.814,45.36],[-94.719,45.505],[-94.702,45.559],[-94.746,45.566],[-94.844,45.441],[-94.854,45.39],[-94.824,45.356],[-94.814,45.36]]]}},{"type":"Feature","properties":{"density":1},"geometry":{"type":"Polygon","coordinates":[[[-97.389,46.346],[-97.429,46.471],[-97.386,46.545],[-97.332,46.555],[-97.305,46.518],[-97.325,46.474],[-97.311,46.38],[-97.369,46.339],[-97.389,46.346]]]}},{"type":"Feature","properties":{"density":1},"geometry":{"type":"Polygon","coordinates":[[[-112.436,46.51],[-112.416,46.548],[-112.334,46.603],[-112.146,46.606],[-112.029,46.674],[-111.996,46.678],[-111.851,46.68],[-111.774,46.665],[-111.741,46.569],[-111.767,46.518],[-111.836,46.494],[-112.061,46.503],[-112.346,46.447],[-112.392,46.453],[-112.436,46.492],[-112.436,46.51]]]}},{"type":"Feature","properties":{"density":1},"geometry":{"type":"Polygon","coordinates":[[[-105.674,33.591],[-105.785,33.818],[-105.795,33.96],[-105.745,34.036],[-105.618,34.147],[-105.492,34.168],[-105.183,34.107],[-105.061,34.193],[-104.98,34.228],[-104.788,34.223],[-104.732,34.198],[-104.626,34.087],[-104.555,33.97],[-104.56,33.859],[-104.59,33.742],[-104.58,33.575],[-104.682,33.499],[-104.722,33.494],[-104.778,33.52],[-104.849,33.591],[-104.96,33.646],[-105.082,33.621],[-105.142,33.525],[-105.213,33.484],[-105.416,33.469],[-105.471,33.479],[-105.593,33.545],[-105.674,33.591]]]}},{"type":"Feature","properties":{"density":1},"geometry":{"type":"Polygon","coordinates":[[[-105.222,20.356],[-105.266,20.332],[-105.29,20.285],[-105.33,20.272],[-105.388,20.218],[-105.519,19.948],[-105.536,19.819],[-105.496,19.667],[-105.431,19.559],[-105.283,19.424],[-105.236,19.408],[-105.185,19.414],[-105.091,19.543],[-105.03,19.681],[-105.006,19.688],[-104.908,19.647],[-104.861,19.583],[-104.807,19.559],[-104.537,19.478],[-104.422,19.495],[-104.352,19.583],[-104.355,19.651],[-104.372,19.684],[-104.628,19.86],[-104.675,19.914],[-104.679,19.988],[-104.608,20.177],[-104.608,20.221],[-104.642,20.265],[-104.716,20.336],[-104.875,20.322],[-105.05,20.417],[-105.124,20.41],[-105.148,20.39],[-105.222,20.356]]]}},{"type":"Feature","properties":{"density":1},"geometry":{"type":"Polygon","coordinates":[[[-98.81,16.809],[-98.897,16.809],[-99.012,16.694],[-99.174,16.586],[-99.198,16.542],[-99.232,16.519],[-99.289,16.502],[-99.458,16.498],[-99.545,16.542],[-99.603,16.61],[-99.65,16.731],[-99.677,16.903],[-99.667,16.984],[-99.626,17.096],[-99.505,17.224],[-99.441,17.251],[-99.316,17.271],[-99.08,17.258],[-98.914,17.194],[-98.762,17.072],[-98.722,16.957],[-98.719,16.866],[-98.732,16.832],[-98.779,16.792],[-98.81,16.809]]]}},{"type":"Feature","properties":{"density":1},"geometry":{"type":"Polygon","coordinates":[[[-93.917,17.595],[-93.797,17.674],[-93.665,17.696],[-93.584,17.764],[-93.503,17.793],[-93.433,17.798],[-93.282,17.723],[-93.282,17.674],[-93.35,17.552],[-93.426,17.361],[-93.692,16.97],[-93.757,16.918],[-93.905,16.866],[-94.025,16.891],[-94.151,16.884],[-94.484,16.772],[-94.544,16.758],[-94.587,16.774],[-94.61,16.796],[-94.596,16.846],[-94.272,17.129],[-93.944,17.568],[-93.917,17.595]]]}},{"type":"Feature","properties":{"density":1},"geometry":{"type":"Polygon","coordinates":[[[-88.67,19.419],[-88.839,19.527],[-89.139,19.814],[-89.173,19.875],[-89.109,19.885],[-89.058,19.855],[-88.768,19.608],[-88.643,19.52],[-88.62,19.45],[-88.636,19.416],[-88.67,19.419]]]}},{"type":"Feature","properties":{"density":1},"geometry":{"type":"Polygon","coordinates":[[[-88.874,18.155],[-88.948,18.206],[-89.126,18.24],[-89.144,18.283],[-89.016,18.269],[-88.89,18.233],[-88.842,18.206],[-88.84,18.177],[-88.86,18.161],[-88.874,18.155]]]}},{"type":"Feature","properties":{"density":1},"geometry":{"type":"Polygon","coordinates":[[[-87.288,15.337],[-87.36,15.375],[-87.414,15.378],[-87.576,15.283],[-87.713,15.312],[-87.763,15.366],[-87.758,15.402],[-87.648,15.357],[-87.608,15.355],[-87.54,15.369],[-87.529,15.411],[-87.754,15.506],[-87.783,15.553],[-87.689,15.589],[-87.542,15.542],[-87.326,15.434],[-87.236,15.344],[-87.263,15.324],[-87.288,15.337]]]}},{"type":"Feature","properties":{"density":1},"geometry":{"type":"Polygon","coordinates":[[[-84.568,15.517],[-84.795,15.51],[-84.813,15.517],[-84.809,15.576],[-84.764,15.612],[-84.635,15.598],[-84.559,15.578],[-84.543,15.537],[-84.552,15.522],[-84.568,15.517]]]}},{"type":"Feature","properties":{"density":1},"geometry":{"type":"Polygon","coordinates":[[[-83.533,14.865],[-83.69,14.833],[-84.154,14.822],[-84.653,14.777],[-84.797,14.82],[-84.811,14.847],[-84.8,14.869],[-84.748,14.894],[-84.458,14.934],[-84.012,14.925],[-83.758,14.894],[-83.524,14.896],[-83.533,14.865]]]}},{"type":"Feature","properties":{"density":1},"geometry":{"type":"Polygon","coordinates":[[[-85.33,15.837],[-85.672,16.12],[-85.708,16.174],[-85.707,16.231],[-85.644,16.233],[-85.314,16.069],[-85.009,15.826],[-85.0,15.787],[-85.026,15.754],[-85.272,15.919],[-85.302,15.91],[-85.281,15.84],[-85.309,15.828],[-85.33,15.837]]]}},{"type":"Feature","properties":{"density":1},"geometry":{"type":"Polygon","coordinates":[[[-101.688,57.922],[-101.614,57.933],[-101.598,57.913],[-101.661,57.874],[-101.695,57.899],[-101.688,57.922]]]}},{"type":"Feature","properties":{"density":1},"geometry":{"type":"Polygon","coordinates":[[[-113.175,60.227],[-113.551,60.796],[-113.665,61.024],[-113.858,61.309],[-114.063,61.571],[-114.302,61.833],[-114.542,62.015],[-114.94,62.209],[-116.319,62.972],[-116.694,63.2],[-117.105,63.416],[-117.503,63.689],[-117.993,63.986],[-118.187,64.179],[-118.221,64.384],[-118.152,64.566],[-118.164,64.897],[-117.72,65.227],[-117.355,65.466],[-117.059,65.637],[-116.831,65.728],[-116.763,65.774],[-116.558,65.842],[-115.715,66.184],[-115.43,66.332],[-114.302,66.742],[-113.733,66.902],[-113.004,67.015],[-111.819,67.084],[-111.466,67.118],[-111.033,67.22],[-110.282,67.437],[-108.721,67.71],[-107.582,67.71],[-103.778,67.448],[-103.214,67.294],[-102.171,66.867],[-101.949,66.765],[-101.744,66.594],[-101.488,66.457],[-101.095,66.372],[-100.702,66.321],[-100.241,66.286],[-99.54,66.286],[-99.147,66.303],[-98.771,66.389],[-98.395,66.44],[-97.422,66.731],[-97.08,66.85],[-96.533,66.97],[-96.14,67.038],[-95.269,67.329],[-94.842,67.38],[-94.551,67.38],[-93.646,66.987],[-93.355,66.953],[-92.791,66.919],[-92.672,66.85],[-92.296,66.184],[-92.262,65.808],[-92.484,65.415],[-92.757,64.988],[-93.184,64.475],[-93.697,64.082],[-94.124,63.911],[-94.722,63.741],[-96.106,63.023],[-96.687,62.869],[-97.592,62.493],[-98.498,62.169],[-99.198,62.032],[-100.907,62.22],[-103.214,62.596],[-103.692,62.715],[-104.17,62.75],[-104.939,62.852],[-106.494,62.852],[-107.126,62.801],[-108.613,62.476],[-110.014,61.964],[-110.27,61.844],[-110.646,61.724],[-110.851,61.622],[-111.073,61.485],[-111.295,61.314],[-111.449,61.144],[-111.569,60.921],[-111.722,60.751],[-112.064,60.46],[-112.543,60.153],[-112.936,60.05],[-113.175,60.084],[-113.175,60.227]]]}},{"type":"Feature","properties":{"density":1},"geometry":{"type":"Polygon","coordinates":[[[-62.875,17.416],[-63.03,17.382],[-63.523,17.359],[-63.806,17.268],[-63.864,17.23],[-63.874,17.203],[-63.837,17.176],[-63.752,17.176],[-63.317,17.227],[-62.848,17.352],[-62.824,17.369],[-62.845,17.409],[-62.875,17.416]]]}},{"type":"Feature","properties":{"density":1},"geometry":{"type":"Polygon","coordinates":[[[-76.126,20.676],[-76.338,20.643],[-76.295,20.67],[-76.151,20.697],[-76.124,20.69],[-76.126,20.676]]]}},{"type":"Feature","properties":{"density":1},"geometry":{"type":"Polygon","coordinates":[[[-78.232,21.736],[-78.304,21.741],[-78.367,21.711],[-78.48,21.702],[-78.505,21.727],[-78.388,21.77],[-78.271,21.783],[-78.237,21.781],[-78.217,21.736],[-78.232,21.736]]]}},{"type":"Feature","properties":{"density":1},"geometry":{"type":"Polygon","coordinates":[[[-78.196,21.959],[-78.502,21.961],[-78.743,21.916],[-78.788,21.925],[-78.82,21.972],[-78.669,22.013],[-78.293,22.047],[-78.176,22.031],[-78.158,21.997],[-78.178,21.968],[-78.196,21.959]]]}},{"type":"Feature","properties":{"density":1},"geometry":{"type":"Polygon","coordinates":[[[-78.122,21.835],[-78.282,21.831],[-78.329,21.849],[-78.133,21.882],[-78.109,21.864],[-78.111,21.846],[-78.122,21.835]]]}},{"type":"Feature","properties":{"density":1},"geometry":{"type":"Polygon","coordinates":[[[-81.27,27.655],[-81.547,27.864],[-81.682,28.082],[-81.687,28.163],[-81.662,28.184],[-81.567,28.199],[-81.374,28.148],[-81.165,28.069],[-81.104,28.006],[-81.059,27.909],[-81.057,27.873],[-81.174,27.673],[-81.203,27.641],[-81.248,27.641],[-81.27,27.655]]]}},{"type":"Feature","properties":{"density":1},"geometry":{"type":"Polygon","coordinates":[[[-97.41,46.325],[-97.427,46.537],[-97.339,46.784],[-97.275,46.848],[-97.154,46.851],[-97.123,46.814],[-97.117,46.635],[-97.12,46.541],[-97.144,46.483],[-97.285,46.358],[-97.306,46.277],[-97.366,46.274],[-97.404,46.298],[-97.41,46.325]]]}},{"type":"Feature","properties":{"density":1},"geometry":{"type":"Polygon","coordinates":[[[-94.82,45.332],[-94.722,45.487],[-94.425,45.764],[-94.381,45.838],[-94.374,45.899],[-94.422,45.909],[-94.469,45.872],[-94.628,45.662],[-94.813,45.48],[-94.881,45.359],[-94.881,45.338],[-94.854,45.338],[-94.82,45.332]]]}},{"type":"Feature","properties":{"density":1},"geometry":{"type":"Polygon","coordinates":[[[-95.819,43.541],[-95.772,43.588],[-95.714,43.71],[-95.724,43.771],[-95.765,43.784],[-95.856,43.626],[-95.863,43.545],[-95.839,43.545],[-95.819,43.541]]]}},{"type":"Feature","properties":{"density":1},"geometry":{"type":"Polygon","coordinates":[[[-112.158,46.43],[-112.244,46.441],[-112.338,46.416],[-112.39,46.43],[-112.439,46.477],[-112.442,46.556],[-112.37,46.621],[-112.019,46.727],[-111.571,46.823],[-111.38,46.828],[-111.321,46.805],[-111.24,46.724],[-111.238,46.666],[-111.359,46.621],[-111.53,46.583],[-111.791,46.454],[-112.115,46.43],[-112.158,46.43]]]}},{"type":"Feature","properties":{"density":1},"geometry":{"type":"Polygon","coordinates":[[[-115.55,49.019],[-115.577,49.048],[-115.586,49.089],[-115.559,49.102],[-115.145,49.255],[-115.059,49.257],[-115.03,49.23],[-115.037,49.206],[-115.116,49.145],[-115.35,49.109],[-115.485,49.053],[-115.521,49.023],[-115.55,49.019]]]}},{"type":"Feature","properties":{"density":1},"geometry":{"type":"Polygon","coordinates":[[[-115.92,44.056],[-115.93,44.107],[-115.866,44.121],[-115.849,44.083],[-115.866,44.056],[-115.896,44.05],[-115.92,44.056]]]}},{"type":"Feature","properties":{"density":1},"geometry":{"type":"Polygon","coordinates":[[[-115.572,43.003],[-115.65,42.96],[-115.458,42.72],[-115.09,42.561],[-115.012,42.551],[-114.968,42.575],[-114.945,42.609],[-114.951,42.646],[-114.992,42.696],[-115.407,42.919],[-115.539,43.007],[-115.572,43.003]]]}},{"type":"Feature","properties":{"density":1},"geometry":{"type":"Polygon","coordinates":[[[-112.206,52.469],[-112.257,52.525],[-112.242,52.596],[-112.206,52.606],[-111.746,52.641],[-111.452,52.641],[-111.381,52.616],[-111.361,52.57],[-111.963,52.495],[-112.151,52.439],[-112.206,52.469]]]}},{"type":"Feature","properties":{"density":1},"geometry":{"type":"Polygon","coordinates":[[[-104.677,34.486],[-104.259,34.486],[-104.099,34.433],[-104.031,34.388],[-103.978,34.304],[-103.948,34.076],[-104.092,33.864],[-104.38,33.765],[-104.585,33.636],[-104.631,33.575],[-104.684,33.537],[-104.919,33.446],[-105.155,33.431],[-105.497,33.362],[-105.709,33.378],[-105.8,33.446],[-105.937,33.651],[-105.952,33.841],[-105.891,33.955],[-105.595,34.122],[-105.504,34.243],[-105.33,34.388],[-105.117,34.463],[-104.912,34.501],[-104.677,34.486]]]}},{"type":"Feature","properties":{"density":1},"geometry":{"type":"Polygon","coordinates":[[[-98.131,46.099],[-97.577,46.064],[-97.244,46.244],[-96.629,46.654],[-96.091,46.808],[-95.629,46.808],[-95.194,46.859],[-94.22,47.141],[-94.092,47.32],[-94.015,47.551],[-94.143,47.781],[-94.374,47.935],[-94.553,48.089],[-94.861,48.115],[-95.732,48.268],[-95.911,48.397],[-96.065,48.576],[-96.116,48.807],[-96.014,49.037],[-95.86,49.242],[-95.681,49.55],[-95.45,50.139],[-95.348,50.601],[-95.322,51.088],[-95.348,51.37],[-95.629,52.01],[-95.937,52.446],[-96.27,52.83],[-96.527,53.215],[-96.86,53.522],[-97.244,53.907],[-97.398,54.086],[-97.27,54.727],[-97.142,54.881],[-97.013,54.983],[-96.86,55.06],[-96.424,55.188],[-95.937,55.188],[-95.476,55.214],[-95.322,55.291],[-95.219,55.445],[-95.245,55.675],[-95.348,55.829],[-95.783,56.188],[-96.091,56.342],[-96.373,56.521],[-98.551,57.341],[-98.884,57.52],[-99.294,58.161],[-99.346,58.725],[-99.218,59.366],[-98.833,59.981],[-98.372,60.365],[-97.68,60.852],[-96.885,61.262],[-96.347,61.442],[-95.117,61.903],[-93.81,62.544],[-92.708,63.056],[-92.118,63.261],[-91.708,63.492],[-90.837,64.543],[-90.683,65.004],[-90.683,65.389],[-90.888,65.875],[-91.273,66.209],[-93.143,66.824],[-97.449,66.824],[-98.961,66.952],[-101.14,67.259],[-102.857,67.388],[-104.241,67.388],[-106.317,67.336],[-107.316,67.336],[-114.595,67.823],[-116.107,67.798],[-117.26,67.721],[-118.183,67.695],[-119.234,67.464],[-119.746,67.183],[-120.182,66.644],[-120.336,66.26],[-120.156,65.517],[-119.644,64.978],[-118.798,64.466],[-117.235,64.081],[-115.953,63.902],[-114.569,63.825],[-111.391,63.338],[-110.443,63.108],[-109.546,62.851],[-108.521,62.595],[-106.65,62.082],[-104.471,61.288],[-102.319,60.237],[-101.652,59.571],[-101.14,58.725],[-100.422,57.726],[-99.704,56.957],[-98.961,55.931],[-98.756,55.137],[-98.577,53.881],[-98.679,53.266],[-99.166,52.42],[-99.704,51.805],[-99.986,51.549],[-100.115,50.857],[-99.525,49.114],[-99.243,48.499],[-98.705,46.936],[-98.449,46.321],[-98.131,46.099]]]}},{"type":"Feature","properties":{"density":1},"geometry":{"type":"Polygon","coordinates":[[[-107.069,26.988],[-107.039,27.064],[-106.938,27.185],[-106.872,27.21],[-106.826,27.2],[-106.857,27.054],[-106.927,26.942],[-106.943,26.927],[-107.064,26.932],[-107.069,26.988]]]}},{"type":"Feature","properties":{"density":1},"geometry":{"type":"Polygon","coordinates":[[[-103.936,20.852],[-103.966,20.786],[-103.946,20.71],[-103.905,20.695],[-103.45,20.634],[-103.141,20.563],[-102.969,20.548],[-102.913,20.563],[-102.888,20.599],[-102.888,20.649],[-102.928,20.705],[-102.989,20.746],[-103.146,20.806],[-103.232,20.877],[-103.323,20.892],[-103.844,20.887],[-103.936,20.852]]]}},{"type":"Feature","properties":{"density":1},"geometry":{"type":"Polygon","coordinates":[[[-105.254,20.374],[-105.315,20.232],[-105.437,19.812],[-105.533,19.731],[-105.599,19.634],[-105.447,19.432],[-105.386,19.407],[-105.047,19.371],[-104.758,19.467],[-104.687,19.508],[-104.606,19.513],[-104.546,19.422],[-104.541,19.366],[-104.51,19.31],[-104.348,19.28],[-104.303,19.341],[-104.277,19.432],[-104.206,19.559],[-103.933,19.553],[-103.877,19.574],[-103.837,19.695],[-103.867,19.786],[-103.948,19.842],[-104.11,19.847],[-104.186,19.786],[-104.328,19.761],[-104.49,19.883],[-104.53,20.014],[-104.586,20.09],[-104.778,20.262],[-104.905,20.348],[-105.032,20.404],[-105.183,20.414],[-105.254,20.374]]]}},{"type":"Feature","properties":{"density":1},"geometry":{"type":"Polygon","coordinates":[[[-98.698,16.774],[-98.845,16.713],[-98.931,16.643],[-99.093,16.46],[-99.235,16.364],[-99.316,16.354],[-99.382,16.379],[-99.483,16.45],[-99.579,16.627],[-99.615,16.845],[-99.559,16.911],[-99.478,16.951],[-99.23,16.987],[-98.8,16.992],[-98.734,16.972],[-98.683,16.911],[-98.668,16.835],[-98.698,16.774]]]}},{"type":"Feature","properties":{"density":1},"geometry":{"type":"Polygon","coordinates":[[[-93.835,17.541],[-93.97,17.453],[-94.189,17.372],[-94.227,17.339],[-94.243,17.295],[-94.25,17.19],[-94.21,17.153],[-94.071,17.136],[-93.96,17.146],[-93.815,17.214],[-93.771,17.274],[-93.714,17.433],[-93.714,17.487],[-93.734,17.514],[-93.764,17.538],[-93.805,17.544],[-93.835,17.541]]]}},{"type":"Feature","properties":{"density":1},"geometry":{"type":"Polygon","coordinates":[[[-86.594,15.454],[-86.817,15.474],[-87.074,15.451],[-87.124,15.441],[-87.246,15.326],[-87.29,15.319],[-87.597,15.343],[-87.836,15.339],[-87.934,15.39],[-87.965,15.427],[-87.954,15.468],[-87.924,15.484],[-87.722,15.542],[-87.306,15.565],[-87.04,15.603],[-86.908,15.603],[-86.631,15.532],[-86.591,15.495],[-86.594,15.454]]]}},{"type":"Feature","properties":{"density":1},"geometry":{"type":"Polygon","coordinates":[[[-83.537,14.857],[-84.002,14.755],[-84.093,14.722],[-84.222,14.57],[-84.188,14.431],[-84.242,14.367],[-84.306,14.327],[-84.39,14.31],[-84.482,14.32],[-84.579,14.364],[-84.819,14.587],[-84.954,14.847],[-84.978,14.988],[-84.954,15.052],[-84.897,15.069],[-84.816,15.066],[-84.505,14.978],[-84.147,14.901],[-83.793,14.88],[-83.624,14.88],[-83.53,14.907],[-83.516,14.894],[-83.537,14.857]]]}},{"type":"Feature","properties":{"density":1},"geometry":{"type":"Polygon","coordinates":[[[-83.375,15.127],[-83.56,15.106],[-83.773,15.106],[-84.12,15.127],[-84.252,15.15],[-84.279,15.177],[-84.272,15.198],[-84.006,15.194],[-83.881,15.177],[-83.395,15.167],[-83.375,15.147],[-83.375,15.127]]]}},{"type":"Feature","properties":{"density":1},"geometry":{"type":"Polygon","coordinates":[[[-83.771,14.707],[-83.94,14.684],[-84.095,14.643],[-84.379,14.613],[-84.379,14.64],[-84.331,14.68],[-84.25,14.717],[-84.142,14.741],[-83.835,14.778],[-83.764,14.765],[-83.758,14.731],[-83.771,14.707]]]}},{"type":"Feature","properties":{"density":1},"geometry":{"type":"Polygon","coordinates":[[[-88.647,19.402],[-88.711,19.418],[-88.782,19.459],[-89.062,19.648],[-89.214,19.807],[-89.251,19.915],[-89.231,19.928],[-89.187,19.908],[-89.035,19.746],[-88.86,19.607],[-88.657,19.476],[-88.63,19.432],[-88.647,19.402]]]}},{"type":"Feature","properties":{"density":1},"geometry":{"type":"Polygon","coordinates":[[[-97.36,20.912],[-97.565,20.786],[-97.857,20.645],[-97.9,20.649],[-98.026,20.717],[-98.098,20.899],[-98.123,21.002],[-98.127,21.104],[-98.105,21.158],[-98.058,21.212],[-98.028,21.223],[-97.911,21.205],[-97.621,21.126],[-97.38,21.036],[-97.344,20.991],[-97.349,20.928],[-97.36,20.912]]]}},{"type":"Feature","properties":{"density":1},"geometry":{"type":"Polygon","coordinates":[[[-98.789,21.23],[-98.863,21.257],[-98.907,21.25],[-98.981,21.193],[-99.012,21.139],[-99.008,21.102],[-98.934,21.068],[-98.883,21.068],[-98.775,21.129],[-98.762,21.183],[-98.789,21.23]]]}},{"type":"Feature","properties":{"density":1},"geometry":{"type":"Polygon","coordinates":[[[-83.342,13.679],[-84.208,13.451],[-87.477,12.118],[-89.903,11.275],[-93.172,10.364],[-93.753,10.182],[-94.459,10.045],[-95.427,9.772],[-96.077,9.624],[-97.136,9.453],[-98.036,9.384],[-99.482,9.692],[-99.927,9.999],[-100.291,10.17],[-100.838,10.603],[-101.294,10.922],[-101.476,11.287],[-101.635,11.674],[-101.704,12.05],[-101.647,12.3],[-101.134,12.802],[-101.009,13.303],[-101.225,13.747],[-101.863,14.157],[-102.592,14.237],[-103.082,14.191],[-104.153,14.123],[-104.665,14.043],[-105.508,14.032],[-106.419,14.248],[-106.909,14.499],[-107.706,15.102],[-109.233,15.883],[-109.404,16.111],[-109.483,16.543],[-109.495,16.908],[-109.404,17.455],[-109.164,17.956],[-109.005,18.127],[-108.584,19.14],[-108.481,19.562],[-108.595,20.131],[-108.743,20.541],[-108.743,21.02],[-108.117,21.84],[-108.014,22.193],[-107.991,22.58],[-107.889,23.207],[-107.661,23.446],[-107.342,23.526],[-107.034,23.537],[-106.613,23.469],[-105.85,23.252],[-105.463,23.059],[-104.597,22.535],[-104.073,22.17],[-103.07,21.373],[-102.74,21.202],[-102.25,21.031],[-101.635,20.94],[-101.009,21.031],[-100.69,21.225],[-100.872,21.635],[-101.282,22.011],[-101.396,22.353],[-101.294,22.728],[-101.214,22.842],[-100.929,23.002],[-100.53,23.184],[-100.223,23.366],[-99.63,24.335],[-99.38,24.528],[-98.845,24.836],[-98.412,25.303],[-98.036,25.519],[-97.66,25.565],[-97.079,25.565],[-95.655,25.348],[-95.382,25.212],[-94.676,24.631],[-94.391,24.198],[-94.004,23.776],[-93.65,23.56],[-93.229,23.469],[-92.751,23.48],[-91.93,23.549],[-91.486,23.549],[-90.461,23.651],[-89.903,23.731],[-89.14,23.947],[-87.853,24.221],[-86.565,24.335],[-85.802,24.118],[-85.324,23.845],[-84.948,23.594],[-84.8,23.435],[-84.697,23.195],[-84.72,22.854],[-84.891,22.364],[-85.21,22.068],[-85.609,21.908],[-87.758,21.191],[-88.608,20.773],[-88.844,20.538],[-89.299,19.961],[-89.713,19.535],[-89.816,19.239],[-89.975,18.624],[-89.975,18.248],[-89.85,17.827],[-89.2,17.257],[-88.733,17.018],[-87.834,16.676],[-87.412,16.562],[-85.761,16.357],[-84.815,16.164],[-84.394,16.05],[-83.596,15.617],[-83.312,15.378],[-83.129,15.104],[-83.004,14.626],[-82.97,14.296],[-83.004,14.079],[-83.141,13.886],[-83.232,13.726],[-83.342,13.679]]]}},{"type":"Feature","properties":{"density":2},"geometry":{"type":"Polygon","coordinates":[[[-105.467,33.586],[-105.485,33.658],[-105.408,33.741],[-105.341,33.761],[-105.185,33.759],[-105.138,33.737],[-105.12,33.705],[-105.107,33.667],[-105.118,33.622],[-105.203,33.557],[-105.345,33.534],[-105.453,33.566],[-105.467,33.586]]]}},{"type":"Feature","properties":{"density":2},"geometry":{"type":"Polygon","coordinates":[[[-114.45,32.802],[-114.51,32.814],[-114.54,32.845],[-114.533,32.861],[-114.463,32.845],[-114.434,32.814],[-114.441,32.802],[-114.45,32.802]]]}},{"type":"Feature","properties":{"density":2},"geometry":{"type":"Polygon","coordinates":[[[-105.465,33.645],[-105.416,33.713],[-105.341,33.763],[-105.236,33.788],[-105.199,33.788],[-105.18,33.769],[-105.192,33.676],[-105.304,33.577],[-105.416,33.583],[-105.459,33.633],[-105.465,33.645]]]}},{"type":"Feature","properties":{"density":2},"geometry":{"type":"Polygon","coordinates":[[[-103.78,20.201],[-103.722,20.263],[-103.701,20.259],[-103.71,20.209],[-103.747,20.18],[-103.78,20.201]]]}},{"type":"Feature","properties":{"density":2},"geometry":{"type":"Polygon","coordinates":[[[-103.916,20.755],[-103.933,20.771],[-103.916,20.825],[-103.875,20.825],[-103.867,20.767],[-103.883,20.759],[-103.916,20.755]]]}},{"type":"Feature","properties":{"density":2},"geometry":{"type":"Polygon","coordinates":[[[-104.904,20.122],[-104.966,20.122],[-104.97,20.11],[-104.929,20.081],[-104.892,20.098],[-104.904,20.122]]]}},{"type":"Feature","properties":{"density":2},"geometry":{"type":"Polygon","coordinates":[[[-105.16,20.244],[-105.263,20.266],[-105.294,20.235],[-105.296,20.209],[-105.237,20.161],[-105.199,20.16],[-105.171,20.178],[-105.151,20.222],[-105.16,20.244]]]}},{"type":"Feature","properties":{"density":2},"geometry":{"type":"Polygon","coordinates":[[[-104.817,19.597],[-104.817,19.648],[-104.866,19.694],[-104.839,19.711],[-104.727,19.654],[-104.71,19.625],[-104.712,19.597],[-104.751,19.608],[-104.802,19.586],[-104.817,19.597]]]}},{"type":"Feature","properties":{"density":2},"geometry":{"type":"Polygon","coordinates":[[[-103.366,19.437],[-103.336,19.467],[-103.334,19.443],[-103.362,19.432],[-103.366,19.437]]]}},{"type":"Feature","properties":{"density":2},"geometry":{"type":"Polygon","coordinates":[[[-103.257,19.163],[-103.384,19.206],[-103.397,19.242],[-103.34,19.281],[-103.213,19.209],[-103.213,19.189],[-103.235,19.18],[-103.257,19.163]]]}},{"type":"Feature","properties":{"density":2},"geometry":{"type":"Polygon","coordinates":[[[-101.155,17.629],[-101.122,17.637],[-101.125,17.612],[-101.144,17.61],[-101.155,17.629]]]}},{"type":"Feature","properties":{"density":2},"geometry":{"type":"Polygon","coordinates":[[[-98.795,16.851],[-98.839,16.871],[-98.957,16.783],[-99.005,16.777],[-99.091,16.791],[-99.127,16.869],[-99.107,16.924],[-99.057,16.978],[-99.023,16.996],[-98.957,17.0],[-98.887,16.984],[-98.813,16.926],[-98.779,16.878],[-98.783,16.85],[-98.795,16.851]]]}},{"type":"Feature","properties":{"density":2},"geometry":{"type":"Polygon","coordinates":[[[-112.382,46.505],[-112.342,46.543],[-112.267,46.57],[-112.009,46.585],[-111.986,46.567],[-111.995,46.541],[-112.081,46.518],[-112.299,46.479],[-112.359,46.475],[-112.381,46.491],[-112.382,46.505]]]}},{"type":"Feature","properties":{"density":2},"geometry":{"type":"Polygon","coordinates":[[[-105.466,33.611],[-105.542,33.687],[-105.562,33.732],[-105.547,33.798],[-105.502,33.869],[-105.441,33.894],[-105.385,33.894],[-105.294,33.859],[-105.228,33.854],[-105.178,33.788],[-105.152,33.697],[-105.289,33.58],[-105.421,33.586],[-105.466,33.611]]]}},{"type":"Feature","properties":{"density":2},"geometry":{"type":"Polygon","coordinates":[[[-105.182,20.326],[-105.219,20.245],[-105.293,20.153],[-105.303,20.126],[-105.286,20.11],[-105.243,20.116],[-105.175,20.184],[-105.141,20.261],[-105.135,20.309],[-105.151,20.319],[-105.182,20.326]]]}},{"type":"Feature","properties":{"density":2},"geometry":{"type":"Polygon","coordinates":[[[-104.827,19.627],[-104.817,19.657],[-104.865,19.725],[-104.784,19.742],[-104.726,19.708],[-104.699,19.708],[-104.635,19.752],[-104.594,19.748],[-104.567,19.725],[-104.564,19.688],[-104.638,19.647],[-104.726,19.607],[-104.824,19.6],[-104.827,19.627]]]}},{"type":"Feature","properties":{"density":2},"geometry":{"type":"Polygon","coordinates":[[[-98.817,16.856],[-98.939,16.852],[-98.972,16.837],[-99.047,16.759],[-99.092,16.754],[-99.185,16.813],[-99.239,16.874],[-99.273,16.987],[-99.261,17.044],[-99.225,17.087],[-99.158,17.114],[-99.003,17.089],[-98.777,16.939],[-98.762,16.883],[-98.802,16.856],[-98.817,16.856]]]}},{"type":"Feature","properties":{"density":2},"geometry":{"type":"Polygon","coordinates":[[[-93.876,17.507],[-93.838,17.555],[-93.687,17.548],[-93.53,17.611],[-93.41,17.548],[-93.473,17.422],[-93.64,17.177],[-93.716,17.102],[-93.788,16.999],[-93.858,16.94],[-93.908,16.918],[-94.022,17.003],[-94.054,17.017],[-94.126,17.015],[-94.389,16.875],[-94.461,16.873],[-94.25,17.019],[-93.944,17.273],[-93.858,17.417],[-93.881,17.48],[-93.876,17.507]]]}},{"type":"Feature","properties":{"density":2},"geometry":{"type":"Polygon","coordinates":[[[-112.432,46.488],[-112.428,46.529],[-112.367,46.579],[-112.266,46.61],[-112.121,46.606],[-111.962,46.684],[-111.814,46.731],[-111.686,46.745],[-111.652,46.734],[-111.635,46.701],[-111.638,46.677],[-111.871,46.579],[-112.06,46.464],[-112.189,46.451],[-112.415,46.468],[-112.432,46.488]]]}},{"type":"Feature","properties":{"density":2},"geometry":{"type":"Polygon","coordinates":[[[-107.014,26.998],[-106.988,27.018],[-106.958,27.084],[-106.897,27.124],[-106.907,27.059],[-106.983,26.978],[-107.014,26.998]]]}},{"type":"Feature","properties":{"density":2},"geometry":{"type":"Polygon","coordinates":[[[-105.133,20.298],[-105.173,20.237],[-105.163,20.161],[-105.133,20.115],[-105.077,20.115],[-105.072,20.267],[-105.133,20.298]]]}},{"type":"Feature","properties":{"density":2},"geometry":{"type":"Polygon","coordinates":[[[-104.824,19.645],[-104.794,19.68],[-104.667,19.756],[-104.465,19.832],[-104.353,19.842],[-104.292,19.796],[-104.308,19.71],[-104.343,19.68],[-104.794,19.614],[-104.824,19.645]]]}},{"type":"Feature","properties":{"density":2},"geometry":{"type":"Polygon","coordinates":[[[-98.835,16.931],[-99.129,16.799],[-99.139,16.779],[-99.053,16.774],[-98.85,16.83],[-98.79,16.87],[-98.779,16.906],[-98.835,16.931]]]}},{"type":"Feature","properties":{"density":2},"geometry":{"type":"Polygon","coordinates":[[[-93.832,17.51],[-93.937,17.467],[-94.095,17.339],[-94.086,17.321],[-94.034,17.28],[-93.899,17.285],[-93.854,17.345],[-93.807,17.498],[-93.832,17.51]]]}},{"type":"Feature","properties":{"density":2},"geometry":{"type":"Polygon","coordinates":[[[-86.793,15.488],[-87.087,15.488],[-87.097,15.508],[-87.02,15.525],[-86.78,15.505],[-86.793,15.488]]]}},{"type":"Feature","properties":{"density":2},"geometry":{"type":"Polygon","coordinates":[[[-95.179,14.52],[-95.64,14.725],[-95.794,14.827],[-96.033,14.913],[-96.426,14.964],[-96.665,14.964],[-96.819,14.947],[-96.939,14.896],[-97.383,14.793],[-97.588,14.81],[-97.81,14.896],[-97.947,14.93],[-98.596,15.203],[-99.245,15.966],[-99.143,16.16],[-98.949,16.365],[-98.789,16.479],[-98.687,16.524],[-98.516,16.536],[-98.026,16.524],[-97.502,16.342],[-96.694,16.194],[-96.466,16.171],[-96.215,16.194],[-95.999,16.262],[-95.839,16.331],[-95.873,16.422],[-95.942,16.502],[-95.965,16.786],[-95.919,16.889],[-95.873,16.957],[-95.703,17.003],[-95.543,17.094],[-95.509,17.185],[-95.532,17.299],[-95.612,17.379],[-95.771,17.618],[-96.185,18.077],[-96.322,18.328],[-96.754,18.772],[-96.937,18.932],[-97.267,19.262],[-97.472,19.581],[-97.563,19.752],[-97.757,20.629],[-97.711,20.811],[-97.54,20.925],[-96.868,20.914],[-96.663,20.982],[-96.527,21.084],[-96.549,21.608],[-96.606,21.722],[-96.72,21.848],[-96.937,22.007],[-97.164,22.11],[-97.426,22.315],[-97.461,22.451],[-97.392,22.554],[-97.267,22.554],[-97.051,22.52],[-96.823,22.451],[-96.458,22.303],[-96.025,21.848],[-95.82,21.597],[-95.718,21.392],[-95.649,21.153],[-95.467,20.196],[-95.41,20.036],[-95.274,19.866],[-95.126,19.763],[-94.818,19.706],[-94.613,19.843],[-93.747,20.595],[-93.519,21.016],[-93.28,21.608],[-93.064,21.813],[-92.745,21.973],[-92.46,22.087],[-91.845,22.394],[-91.344,22.406],[-90.854,22.189],[-90.717,22.075],[-90.341,21.073],[-90.341,20.765],[-90.421,20.344],[-90.455,19.934],[-90.546,19.535],[-90.82,19.034],[-91.105,18.601],[-92.388,17.352],[-92.677,17.238],[-93.238,16.957],[-93.459,16.821],[-93.595,16.676],[-93.74,16.266],[-93.732,15.856],[-93.793,15.644],[-93.929,15.431],[-94.195,15.203],[-94.841,14.527],[-95.0,14.459],[-95.107,14.466],[-95.179,14.52]]]}},{"type":"Feature","properties":{"density":2},"geometry":{"type":"Polygon","coordinates":[[[-91.558,12.838],[-91.68,13.134],[-91.756,13.202],[-91.976,13.255],[-92.105,13.225],[-92.196,13.225],[-92.265,13.346],[-92.272,13.498],[-92.151,13.665],[-92.044,13.779],[-91.642,14.136],[-91.179,14.455],[-90.662,14.994],[-90.556,15.298],[-90.548,15.48],[-90.67,15.594],[-91.232,15.678],[-91.368,15.769],[-91.414,15.883],[-91.414,16.004],[-91.338,16.171],[-91.05,16.278],[-90.412,16.217],[-90.131,16.141],[-89.698,15.89],[-89.508,15.746],[-89.333,15.549],[-89.113,15.025],[-88.954,14.554],[-88.946,14.25],[-89.06,13.984],[-89.136,13.878],[-89.295,13.81],[-89.531,13.741],[-89.569,13.635],[-89.364,13.475],[-89.128,13.468],[-88.916,13.544],[-88.809,13.62],[-88.718,13.81],[-88.635,13.931],[-88.323,14.129],[-88.24,14.129],[-88.164,14.075],[-88.209,13.855],[-88.308,13.703],[-88.506,13.483],[-89.06,12.914],[-89.432,12.724],[-89.789,12.648],[-90.26,12.769],[-90.389,12.845],[-90.579,12.929],[-90.731,12.959],[-91.072,12.982],[-91.308,12.906],[-91.437,12.807],[-91.52,12.792],[-91.558,12.838]]]}},{"type":"Feature","properties":{"density":3},"geometry":{"type":"Polygon","coordinates":[[[-105.458,33.638],[-105.424,33.692],[-105.329,33.719],[-105.246,33.689],[-105.233,33.658],[-105.237,33.595],[-105.264,33.57],[-105.354,33.568],[-105.451,33.613],[-105.458,33.638]]]}},{"type":"Feature","properties":{"density":3},"geometry":{"type":"Polygon","coordinates":[[[-98.82,16.886],[-98.862,16.886],[-98.876,16.913],[-98.82,16.913],[-98.811,16.891],[-98.82,16.886]]]}},{"type":"Feature","properties":{"density":3},"geometry":{"type":"Polygon","coordinates":[[[-112.36,46.498],[-112.249,46.533],[-112.365,46.49],[-112.36,46.498]]]}},{"type":"Feature","properties":{"density":3},"geometry":{"type":"Polygon","coordinates":[[[-98.835,16.895],[-98.882,16.922],[-98.921,16.921],[-98.888,16.895],[-98.84,16.885],[-98.835,16.895]]]}},{"type":"Feature","properties":{"density":3},"geometry":{"type":"Polygon","coordinates":[[[-93.818,17.521],[-93.782,17.449],[-93.777,17.429],[-93.791,17.417],[-93.829,17.458],[-93.831,17.512],[-93.818,17.521]]]}},{"type":"Feature","properties":{"density":3},"geometry":{"type":"Polygon","coordinates":[[[-112.408,46.518],[-112.378,46.549],[-112.286,46.589],[-112.229,46.583],[-112.253,46.529],[-112.324,46.481],[-112.405,46.488],[-112.408,46.518]]]}},{"type":"Feature","properties":{"density":3},"geometry":{"type":"Polygon","coordinates":[[[-93.851,17.492],[-93.898,17.446],[-93.841,17.47],[-93.823,17.497],[-93.839,17.498],[-93.851,17.492]]]}}]}