{"type":"FeatureCollection","features":[{"type":"Feature","properties":{"density":1},"geometry":{"type":"Polygon","coordinates":[[[-80.805,26.253],[-80.761,26.352],[-80.759,26.413],[-80.783,26.432],[-80.855,26.264],[-80.839,26.231],[-80.805,26.253]]]}},{"type":"Feature","properties":{"density":1},"geometry":{"type":"Polygon","coordinates":[[[-87.087,30.717],[-86.996,30.862],[-86.988,30.899],[-87.017,30.919],[-87.054,30.907],[-87.232,30.651],[-87.289,30.531],[-87.277,30.506],[-87.24,30.523],[-87.087,30.717]]]}},{"type":"Feature","properties":{"density":1},"geometry":{"type":"Polygon","coordinates":[[[-95.575,34.579],[-95.529,34.522],[-95.491,34.511],[-95.483,34.522],[-95.474,34.541],[-95.57,34.702],[-95.612,34.906],[-95.627,34.934],[-95.658,34.945],[-95.689,34.93],[-95.698,34.893],[-95.685,34.811],[-95.63,34.66],[-95.575,34.579]]]}},{"type":"Feature","properties":{"density":1},"geometry":{"type":"Polygon","coordinates":[[[-119.648,33.252],[-119.84,33.432],[-119.976,33.655],[-120.069,33.897],[-120.193,34.523],[-120.299,34.765],[-120.448,35.026],[-120.553,35.323],[-120.727,35.615],[-120.776,35.782],[-120.727,36.266],[-120.665,36.458],[-120.497,36.799],[-120.404,37.034],[-120.392,37.233],[-120.497,37.394],[-120.658,37.499],[-120.801,37.487],[-120.894,37.431],[-120.981,37.289],[-121.049,37.121],[-121.154,36.768],[-121.44,36.421],[-121.545,36.253],[-121.663,36.185],[-121.719,36.123],[-121.75,36.042],[-121.706,35.894],[-121.353,35.441],[-121.241,34.933],[-121.21,34.455],[-121.092,33.916],[-120.987,33.618],[-120.875,33.358],[-120.677,33.066],[-119.964,32.353],[-119.561,32.139],[-119.217,32.028],[-119.022,32.009],[-118.612,32.056],[-118.398,32.167],[-118.287,32.344],[-118.259,32.474],[-118.305,32.669],[-118.445,32.809],[-118.65,32.949],[-118.882,33.06],[-119.235,33.153],[-119.468,33.19],[-119.648,33.252]]]}},{"type":"Feature","properties":{"density":1},"geometry":{"type":"Polygon","coordinates":[[[-92.542,18.216],[-92.49,18.183],[-92.451,18.183],[-92.432,18.211],[-92.435,18.241],[-92.507,18.335],[-92.581,18.365],[-92.768,18.541],[-92.804,18.561],[-92.843,18.55],[-92.848,18.514],[-92.609,18.266],[-92.542,18.216]]]}},{"type":"Feature","properties":{"density":1},"geometry":{"type":"Polygon","coordinates":[[[-92.474,17.919],[-92.559,17.971],[-92.812,18.233],[-92.837,18.244],[-92.857,18.227],[-92.799,18.114],[-92.589,17.905],[-92.496,17.858],[-92.465,17.861],[-92.454,17.902],[-92.474,17.919]]]}},{"type":"Feature","properties":{"density":1},"geometry":{"type":"Polygon","coordinates":[[[-92.868,18.087],[-92.901,18.153],[-93.094,18.244],[-93.127,18.241],[-93.135,18.205],[-93.052,18.131],[-92.909,18.048],[-92.876,18.051],[-92.868,18.087]]]}},{"type":"Feature","properties":{"density":1},"geometry":{"type":"Polygon","coordinates":[[[-92.895,17.778],[-93.022,17.806],[-93.176,17.803],[-93.308,17.877],[-93.333,17.877],[-93.35,17.855],[-93.331,17.825],[-93.245,17.778],[-93.107,17.74],[-93.003,17.723],[-92.857,17.734],[-92.848,17.775],[-92.895,17.778]]]}},{"type":"Feature","properties":{"density":1},"geometry":{"type":"Polygon","coordinates":[[[-86.98,20.939],[-86.947,20.988],[-86.943,21.026],[-86.988,21.05],[-87.013,21.042],[-87.042,20.988],[-87.067,20.881],[-87.157,20.716],[-87.153,20.691],[-87.095,20.695],[-86.98,20.939]]]}},{"type":"Feature","properties":{"density":1},"geometry":{"type":"Polygon","coordinates":[[[-101.314,58.379],[-102.633,57.908],[-105.363,57.06],[-107.388,56.401],[-109.366,55.883],[-109.883,55.318],[-109.978,54.989],[-109.601,54.235],[-109.083,53.812],[-108.236,53.482],[-107.153,52.587],[-106.164,51.269],[-105.175,49.904],[-104.751,48.68],[-105.222,47.644],[-106.399,47.173],[-108.094,47.455],[-109.507,48.538],[-110.919,49.857],[-111.767,51.269],[-112.285,52.399],[-112.803,53.294],[-113.273,54.706],[-114.451,56.448],[-114.921,58.473],[-115.016,59.98],[-114.262,61.251],[-112.567,62.616],[-110.684,63.699],[-108.848,64.264],[-105.128,64.876],[-101.597,65.347],[-98.772,65.63],[-94.676,65.959],[-89.591,66.1],[-85.0,65.465],[-78.926,64.052],[-76.172,63.134],[-73.559,62.357],[-71.934,61.369],[-69.604,60.168],[-68.05,58.897],[-66.355,57.625],[-65.366,56.849],[-64.236,55.719],[-63.671,54.942],[-63.389,54.165],[-63.53,53.035],[-64.024,51.764],[-65.649,50.21],[-67.626,49.645],[-70.381,49.998],[-71.652,50.634],[-73.488,52.329],[-74.971,53.67],[-76.737,54.306],[-78.856,54.447],[-81.539,54.659],[-84.364,55.083],[-85.565,55.295],[-87.684,56.213],[-89.591,57.131],[-91.356,57.696],[-93.616,58.049],[-95.664,58.473],[-97.783,58.755],[-98.701,58.755],[-101.314,58.379]]]}},{"type":"Feature","properties":{"density":1},"geometry":{"type":"Polygon","coordinates":[[[-81.037,43.387],[-82.544,43.606],[-84.553,44.328],[-87.503,46.117],[-88.79,47.091],[-90.799,47.969],[-92.62,48.283],[-94.283,48.315],[-95.633,48.221],[-96.794,47.907],[-97.642,47.247],[-98.866,46.023],[-99.588,45.05],[-100.09,44.266],[-100.53,43.481],[-101.754,42.414],[-103.794,41.566],[-104.893,40.844],[-105.112,39.997],[-104.798,39.369],[-104.39,38.898],[-104.485,37.894],[-104.987,36.826],[-105.552,35.539],[-106.117,33.593],[-106.18,32.306],[-106.054,30.549],[-105.834,28.289],[-105.458,26.939],[-104.704,25.621],[-103.857,24.491],[-103.009,23.737],[-101.691,22.733],[-100.875,21.791],[-100.121,20.567],[-99.4,19.814],[-97.124,18.793],[-96.182,18.181],[-95.052,17.522],[-93.687,16.863],[-92.463,16.581],[-91.427,17.004],[-90.909,17.475],[-90.721,18.087],[-91.097,18.935],[-92.227,19.641],[-93.216,20.112],[-94.487,20.818],[-94.911,21.477],[-95.288,22.513],[-95.476,23.926],[-96.041,25.432],[-96.7,26.609],[-97.03,28.398],[-96.7,30.188],[-96.135,31.412],[-95.476,32.071],[-94.864,32.306],[-94.063,32.165],[-93.357,31.836],[-92.651,31.176],[-91.615,30.706],[-89.826,30.282],[-88.461,30.423],[-87.142,30.47],[-85.118,30.706],[-83.234,31.412],[-82.057,32.024],[-80.692,32.118],[-79.326,32.259],[-77.726,32.495],[-75.983,32.918],[-74.618,33.342],[-73.347,33.625],[-71.981,33.625],[-70.946,33.436],[-70.333,33.342],[-68.356,33.578],[-67.367,34.237],[-66.284,35.508],[-66.237,36.12],[-66.614,37.533],[-68.356,38.851],[-70.239,39.698],[-71.84,40.169],[-73.017,40.405],[-74.665,40.405],[-75.748,40.216],[-76.643,40.263],[-78.196,40.876],[-79.703,42.1],[-80.315,42.994],[-81.037,43.387]]]}},{"type":"Feature","properties":{"density":1},"geometry":{"type":"Polygon","coordinates":[[[-117.741,45.037],[-117.971,44.556],[-118.432,44.472],[-118.871,44.556],[-119.436,44.849],[-120.085,45.225],[-120.503,45.602],[-120.922,46.355],[-121.215,46.962],[-121.738,47.758],[-121.989,48.385],[-121.884,49.076],[-121.843,49.62],[-122.094,50.331],[-122.701,51.838],[-122.931,53.826],[-122.91,54.81],[-122.617,55.333],[-122.177,55.793],[-121.633,55.835],[-121.131,55.395],[-120.859,54.893],[-120.754,54.328],[-120.817,53.805],[-120.943,53.261],[-120.964,52.884],[-120.922,52.487],[-120.65,52.026],[-120.252,51.566],[-119.855,50.98],[-119.624,50.352],[-119.52,49.076],[-119.352,48.406],[-119.101,47.904],[-118.704,47.276],[-118.013,46.104],[-117.804,45.623],[-117.741,45.33],[-117.741,45.037]]]}},{"type":"Feature","properties":{"density":1},"geometry":{"type":"Polygon","coordinates":[[[-79.987,35.06],[-80.073,34.935],[-80.079,34.876],[-80.059,34.858],[-79.988,34.853],[-79.948,34.875],[-79.91,34.903],[-79.872,34.967],[-79.863,35.022],[-79.884,35.07],[-79.909,35.081],[-79.987,35.06]]]}},{"type":"Feature","properties":{"density":1},"geometry":{"type":"Polygon","coordinates":[[[-89.929,36.466],[-89.868,36.479],[-89.77,36.561],[-89.738,36.605],[-89.732,36.643],[-89.754,36.686],[-89.778,36.696],[-89.854,36.684],[-89.917,36.627],[-89.96,36.519],[-89.952,36.479],[-89.929,36.466]]]}},{"type":"Feature","properties":{"density":1},"geometry":{"type":"Polygon","coordinates":[[[-90.262,36.538],[-90.196,36.549],[-90.121,36.608],[-90.098,36.636],[-90.11,36.689],[-90.185,36.682],[-90.256,36.63],[-90.287,36.575],[-90.287,36.543],[-90.262,36.538]]]}},{"type":"Feature","properties":{"density":1},"geometry":{"type":"Polygon","coordinates":[[[-115.616,43.78],[-115.77,43.817],[-115.993,43.815],[-116.022,43.845],[-116.022,43.944],[-115.993,43.982],[-115.923,44.014],[-115.875,44.03],[-115.802,44.021],[-115.649,43.938],[-115.579,43.879],[-115.555,43.83],[-115.559,43.806],[-115.57,43.784],[-115.616,43.78]]]}},{"type":"Feature","properties":{"density":1},"geometry":{"type":"Polygon","coordinates":[[[-118.412,44.9],[-118.419,45.04],[-118.581,45.28],[-118.676,45.506],[-118.709,45.674],[-118.691,45.769],[-118.621,45.901],[-118.498,45.946],[-118.402,45.923],[-118.338,45.868],[-118.145,45.426],[-118.052,45.077],[-118.053,44.893],[-118.031,44.753],[-118.052,44.676],[-118.085,44.654],[-118.158,44.643],[-118.298,44.705],[-118.377,44.759],[-118.412,44.9]]]}},{"type":"Feature","properties":{"density":1},"geometry":{"type":"Polygon","coordinates":[[[-120.917,48.449],[-120.952,48.406],[-120.963,48.348],[-120.95,48.309],[-120.92,48.263],[-120.742,48.118],[-120.623,47.993],[-120.492,47.918],[-120.395,47.929],[-120.338,47.976],[-120.312,48.021],[-120.334,48.14],[-120.406,48.278],[-120.509,48.384],[-120.689,48.46],[-120.854,48.467],[-120.917,48.449]]]}},{"type":"Feature","properties":{"density":1},"geometry":{"type":"Polygon","coordinates":[[[-121.365,47.539],[-121.376,47.484],[-121.358,47.414],[-121.308,47.33],[-121.154,47.163],[-120.963,47.067],[-120.843,47.032],[-120.654,47.058],[-120.606,47.102],[-120.577,47.177],[-120.575,47.247],[-120.601,47.313],[-120.713,47.46],[-120.785,47.51],[-120.985,47.596],[-121.099,47.609],[-121.273,47.589],[-121.332,47.57],[-121.365,47.539]]]}},{"type":"Feature","properties":{"density":1},"geometry":{"type":"Polygon","coordinates":[[[-79.992,35.087],[-80.109,34.997],[-80.134,34.941],[-80.139,34.853],[-80.136,34.759],[-80.109,34.678],[-80.069,34.651],[-79.999,34.642],[-79.878,34.673],[-79.826,34.702],[-79.812,34.725],[-79.801,34.86],[-79.837,34.995],[-79.916,35.06],[-79.992,35.087]]]}},{"type":"Feature","properties":{"density":1},"geometry":{"type":"Polygon","coordinates":[[[-79.887,35.193],[-79.846,35.193],[-79.812,35.159],[-79.81,35.125],[-79.826,35.105],[-79.916,35.094],[-79.99,35.123],[-79.99,35.157],[-79.963,35.177],[-79.887,35.193]]]}},{"type":"Feature","properties":{"density":1},"geometry":{"type":"Polygon","coordinates":[[[-88.546,33.822],[-88.721,33.826],[-88.89,33.941],[-88.924,33.991],[-88.957,34.096],[-88.955,34.141],[-88.901,34.222],[-88.854,34.243],[-88.744,34.222],[-88.676,34.189],[-88.618,34.13],[-88.541,34.0],[-88.53,33.835],[-88.546,33.822]]]}},{"type":"Feature","properties":{"density":1},"geometry":{"type":"Polygon","coordinates":[[[-88.721,34.549],[-88.881,34.828],[-88.901,34.945],[-88.872,35.053],[-88.822,35.095],[-88.741,35.116],[-88.665,35.073],[-88.64,35.008],[-88.622,34.821],[-88.631,34.684],[-88.674,34.549],[-88.701,34.522],[-88.721,34.549]]]}},{"type":"Feature","properties":{"density":1},"geometry":{"type":"Polygon","coordinates":[[[-90.922,35.559],[-90.956,35.664],[-90.937,35.817],[-90.904,35.886],[-90.865,35.92],[-90.799,35.929],[-90.776,35.917],[-90.755,35.865],[-90.749,35.803],[-90.781,35.656],[-90.893,35.529],[-90.919,35.539],[-90.922,35.559]]]}},{"type":"Feature","properties":{"density":1},"geometry":{"type":"Polygon","coordinates":[[[-90.332,35.925],[-90.35,35.983],[-90.335,36.204],[-90.281,36.274],[-90.188,36.28],[-90.143,36.24],[-90.146,36.154],[-90.284,35.928],[-90.314,35.911],[-90.332,35.925]]]}},{"type":"Feature","properties":{"density":1},"geometry":{"type":"Polygon","coordinates":[[[-94.885,46.76],[-94.945,46.713],[-94.952,46.647],[-94.907,46.62],[-94.81,46.616],[-94.516,46.681],[-94.311,46.695],[-94.273,46.717],[-94.266,46.742],[-94.284,46.776],[-94.318,46.796],[-94.727,46.814],[-94.833,46.789],[-94.885,46.76]]]}},{"type":"Feature","properties":{"density":1},"geometry":{"type":"Polygon","coordinates":[[[-115.642,43.807],[-115.68,43.842],[-115.692,43.896],[-115.682,43.97],[-115.631,44.03],[-115.575,44.054],[-115.504,44.058],[-115.484,44.046],[-115.476,44.006],[-115.557,43.866],[-115.607,43.8],[-115.642,43.807]]]}},{"type":"Feature","properties":{"density":1},"geometry":{"type":"Polygon","coordinates":[[[-120.571,47.781],[-120.837,47.966],[-120.905,48.034],[-120.969,48.152],[-121.019,48.29],[-121.03,48.425],[-121.03,48.537],[-120.982,48.641],[-120.861,48.635],[-120.719,48.554],[-120.311,48.179],[-120.182,48.027],[-120.169,47.946],[-120.226,47.862],[-120.29,47.815],[-120.486,47.767],[-120.571,47.781]]]}},{"type":"Feature","properties":{"density":1},"geometry":{"type":"Polygon","coordinates":[[[-92.465,18.135],[-92.854,18.195],[-92.88,18.227],[-92.878,18.291],[-92.828,18.353],[-92.793,18.365],[-92.72,18.374],[-92.607,18.347],[-92.468,18.263],[-92.444,18.21],[-92.465,18.135]]]}},{"type":"Feature","properties":{"density":1},"geometry":{"type":"Polygon","coordinates":[[[-79.837,35.188],[-79.837,35.046],[-79.786,34.824],[-79.789,34.655],[-79.806,34.625],[-79.877,34.577],[-79.985,34.547],[-80.1,34.554],[-80.194,34.611],[-80.296,34.706],[-80.356,34.78],[-80.464,34.965],[-80.647,35.161],[-80.684,35.252],[-80.684,35.34],[-80.63,35.428],[-80.495,35.475],[-80.151,35.354],[-79.972,35.232],[-79.87,35.219],[-79.84,35.205],[-79.837,35.188]]]}},{"type":"Feature","properties":{"density":1},"geometry":{"type":"Polygon","coordinates":[[[-85.978,37.906],[-85.798,37.946],[-85.672,38.021],[-85.535,38.126],[-85.513,38.162],[-85.508,38.259],[-85.555,38.279],[-85.621,38.243],[-85.983,37.951],[-86.005,37.908],[-85.978,37.906]]]}},{"type":"Feature","properties":{"density":1},"geometry":{"type":"Polygon","coordinates":[[[-86.232,32.743],[-86.739,32.708],[-87.113,32.824],[-87.204,32.915],[-87.265,33.022],[-87.265,33.123],[-87.245,33.184],[-87.184,33.224],[-87.103,33.244],[-86.921,33.254],[-86.288,32.941],[-86.232,32.89],[-86.192,32.824],[-86.192,32.753],[-86.232,32.743]]]}},{"type":"Feature","properties":{"density":1},"geometry":{"type":"Polygon","coordinates":[[[-86.871,32.093],[-86.968,32.111],[-87.04,32.1],[-87.148,32.109],[-87.168,32.147],[-87.159,32.172],[-87.121,32.194],[-86.934,32.196],[-86.86,32.147],[-86.844,32.102],[-86.871,32.093]]]}},{"type":"Feature","properties":{"density":1},"geometry":{"type":"Polygon","coordinates":[[[-91.413,34.448],[-91.707,34.526],[-91.825,34.637],[-91.869,34.701],[-91.899,34.769],[-91.892,34.87],[-91.852,34.954],[-91.784,35.025],[-91.707,35.035],[-91.636,35.005],[-91.413,34.856],[-91.305,34.718],[-91.285,34.546],[-91.305,34.482],[-91.376,34.438],[-91.413,34.448]]]}},{"type":"Feature","properties":{"density":1},"geometry":{"type":"Polygon","coordinates":[[[-90.951,35.553],[-91.017,35.979],[-90.997,36.171],[-90.946,36.252],[-90.87,36.292],[-90.794,36.303],[-90.708,36.196],[-90.708,36.06],[-90.794,35.695],[-90.86,35.528],[-90.941,35.513],[-90.951,35.553]]]}},{"type":"Feature","properties":{"density":1},"geometry":{"type":"Polygon","coordinates":[[[-90.319,35.432],[-90.435,35.498],[-90.521,35.604],[-90.592,35.756],[-90.612,36.019],[-90.541,36.672],[-90.511,36.743],[-90.339,36.839],[-90.172,36.854],[-89.822,36.824],[-89.706,36.728],[-89.665,36.627],[-89.681,36.465],[-89.741,36.262],[-89.797,36.12],[-90.076,35.655],[-90.278,35.412],[-90.319,35.432]]]}},{"type":"Feature","properties":{"density":1},"geometry":{"type":"Polygon","coordinates":[[[-94.629,46.704],[-94.963,46.556],[-95.085,46.542],[-95.226,46.556],[-95.307,46.603],[-95.348,46.644],[-95.365,46.735],[-95.348,46.809],[-95.28,46.87],[-94.936,46.914],[-94.805,46.914],[-94.639,46.85],[-94.605,46.789],[-94.629,46.704]]]}},{"type":"Feature","properties":{"density":1},"geometry":{"type":"Polygon","coordinates":[[[-99.202,47.631],[-99.523,47.658],[-100.073,47.79],[-100.191,47.871],[-100.235,47.952],[-100.205,48.073],[-100.117,48.127],[-100.022,48.151],[-99.692,48.036],[-99.513,47.932],[-99.131,47.665],[-99.138,47.635],[-99.202,47.631]]]}},{"type":"Feature","properties":{"density":1},"geometry":{"type":"Polygon","coordinates":[[[-98.672,47.193],[-99.01,47.199],[-99.152,47.25],[-99.212,47.341],[-99.172,47.388],[-99.064,47.402],[-98.814,47.331],[-98.645,47.263],[-98.628,47.223],[-98.642,47.196],[-98.672,47.193]]]}},{"type":"Feature","properties":{"density":1},"geometry":{"type":"Polygon","coordinates":[[[-121.639,36.028],[-121.533,36.236],[-121.31,36.514],[-121.077,36.711],[-120.783,36.863],[-120.459,36.954],[-119.913,36.949],[-119.73,36.884],[-119.563,36.742],[-119.482,36.57],[-119.31,35.977],[-119.305,35.805],[-119.366,35.608],[-119.604,35.37],[-120.161,34.859],[-120.196,34.61],[-120.105,34.14],[-120.059,33.998],[-119.948,33.856],[-119.558,33.512],[-119.315,33.259],[-119.113,33.036],[-118.905,32.773],[-118.703,32.717],[-118.364,32.515],[-118.11,32.322],[-117.791,31.998],[-117.635,31.715],[-117.559,31.462],[-117.584,31.224],[-117.68,31.057],[-117.959,30.92],[-118.262,30.879],[-118.51,30.996],[-118.865,31.198],[-119.234,31.441],[-119.513,31.669],[-119.685,31.902],[-119.822,32.13],[-120.454,33.557],[-120.768,34.074],[-120.895,34.383],[-121.118,35.208],[-121.29,35.582],[-121.487,35.851],[-121.614,35.982],[-121.639,36.028]]]}},{"type":"Feature","properties":{"density":1},"geometry":{"type":"Polygon","coordinates":[[[-121.874,49.592],[-123.892,51.668],[-125.161,54.205],[-125.334,57.435],[-124.7,59.338],[-122.566,62.106],[-118.933,65.219],[-112.186,67.641],[-107.458,68.795],[-100.711,69.89],[-96.559,70.525],[-93.503,70.179],[-89.755,69.198],[-87.909,67.065],[-86.295,64.816],[-82.374,62.97],[-79.375,61.99],[-75.511,60.664],[-72.167,59.222],[-69.284,57.204],[-66.804,53.975],[-65.478,50.573],[-64.959,46.363],[-66.977,41.115],[-68.419,38.982],[-74.473,34.945],[-76.953,33.215],[-80.067,31.197],[-82.547,29.871],[-87.563,26.815],[-90.447,24.796],[-91.715,22.547],[-92.234,20.471],[-92.58,17.934],[-93.33,15.8],[-95.752,13.667],[-99.5,13.379],[-100.365,14.936],[-100.653,16.723],[-100.019,18.799],[-99.039,20.933],[-98.231,23.412],[-97.77,26.18],[-97.77,27.852],[-97.943,30.563],[-98.462,33.734],[-99.385,36.791],[-101.922,40.25],[-103.594,41.577],[-106.708,43.018],[-113.282,44.46],[-115.646,44.864],[-119.106,46.478],[-120.951,48.093],[-121.874,49.592]]]}},{"type":"Feature","properties":{"density":2},"geometry":{"type":"Polygon","coordinates":[[[-118.408,44.92],[-118.33,44.825],[-118.288,44.813],[-118.263,44.83],[-118.251,44.883],[-118.371,45.065],[-118.429,45.214],[-118.462,45.47],[-118.462,45.611],[-118.491,45.739],[-118.532,45.793],[-118.569,45.809],[-118.673,45.834],[-118.747,45.817],[-118.768,45.751],[-118.726,45.557],[-118.573,45.156],[-118.511,45.036],[-118.408,44.92]]]}},{"type":"Feature","properties":{"density":2},"geometry":{"type":"Polygon","coordinates":[[[-120.267,34.119],[-120.432,34.48],[-120.509,34.712],[-120.641,34.924],[-120.719,35.092],[-120.84,35.505],[-121.049,35.767],[-121.046,35.99],[-121.077,36.079],[-121.201,36.172],[-121.281,36.156],[-121.372,36.114],[-121.487,36.018],[-121.584,36.015],[-121.614,35.99],[-121.611,35.938],[-121.518,35.822],[-121.325,35.64],[-121.261,35.558],[-121.217,35.453],[-121.146,35.219],[-121.077,34.847],[-121.019,34.699],[-120.975,34.377],[-120.913,34.179],[-120.61,33.633],[-120.455,33.391],[-120.417,33.341],[-120.389,33.342],[-120.368,33.366],[-120.362,33.416],[-120.405,33.614],[-120.808,34.451],[-120.96,34.905],[-120.993,35.067],[-120.973,35.181],[-120.944,35.18],[-120.922,35.146],[-120.837,34.765],[-120.661,34.422],[-120.398,33.966],[-120.307,33.697],[-120.208,33.528],[-120.109,33.396],[-120.039,33.334],[-119.996,33.314],[-119.968,33.321],[-119.968,33.387],[-119.997,33.462],[-120.204,33.776],[-120.245,33.863],[-120.267,34.119]]]}},{"type":"Feature","properties":{"density":2},"geometry":{"type":"Polygon","coordinates":[[[-92.537,18.238],[-92.49,18.204],[-92.463,18.202],[-92.45,18.217],[-92.45,18.235],[-92.551,18.342],[-92.59,18.358],[-92.61,18.347],[-92.603,18.309],[-92.537,18.238]]]}},{"type":"Feature","properties":{"density":2},"geometry":{"type":"Polygon","coordinates":[[[-87.757,32.104],[-86.313,31.58],[-85.685,31.413],[-84.827,31.455],[-84.262,31.56],[-83.676,31.706],[-82.965,32.104],[-82.567,32.522],[-82.232,32.773],[-81.333,33.024],[-78.466,33.129],[-77.273,33.359],[-76.31,33.631],[-74.49,34.489],[-73.674,34.636],[-72.983,34.573],[-72.209,34.405],[-71.539,34.217],[-71.225,34.154],[-70.639,34.133],[-70.158,34.092],[-69.698,34.113],[-68.986,34.385],[-68.4,34.929],[-68.066,35.661],[-67.961,36.289],[-67.961,36.77],[-68.191,37.377],[-68.61,37.921],[-69.593,38.591],[-70.619,39.072],[-71.33,39.26],[-71.874,39.323],[-72.355,39.344],[-73.213,39.302],[-74.469,39.281],[-75.766,39.302],[-77.001,39.511],[-77.901,39.909],[-78.466,40.265],[-79.052,40.662],[-80.182,41.594],[-81.218,42.096],[-82.379,42.284],[-83.415,42.284],[-85.455,41.813],[-86.805,41.656],[-88.123,41.75],[-89.222,41.97],[-90.32,42.221],[-91.419,42.598],[-92.204,42.786],[-93.836,42.943],[-95.594,42.598],[-97.791,41.876],[-99.423,41.029],[-100.993,39.742],[-102.311,38.455],[-103.661,36.791],[-104.414,35.379],[-104.539,34.97],[-104.634,34.405],[-104.539,32.93],[-104.194,31.549],[-103.598,29.98],[-103.001,28.693],[-102.374,27.657],[-101.746,26.904],[-101.495,26.182],[-101.055,24.706],[-100.773,23.67],[-100.428,22.729],[-99.831,21.85],[-98.984,21.002],[-97.979,20.72],[-97.446,20.751],[-96.724,21.097],[-96.096,22.384],[-96.096,23.482],[-96.441,24.204],[-97.163,24.204],[-97.603,23.953],[-98.45,24.267],[-98.827,24.957],[-98.858,25.617],[-98.576,26.244],[-98.199,26.904],[-97.728,28.504],[-97.477,29.697],[-97.446,31.455],[-97.351,32.773],[-97.163,34.343],[-96.881,35.253],[-96.378,35.567],[-95.437,35.63],[-94.558,35.222],[-93.836,34.657],[-93.271,34.154],[-92.926,33.684],[-92.392,32.899],[-92.047,32.585],[-91.325,32.145],[-90.603,32.051],[-89.661,31.957],[-89.002,32.02],[-88.531,32.083],[-88.217,32.145],[-87.757,32.104]]]}},{"type":"Feature","properties":{"density":2},"geometry":{"type":"Polygon","coordinates":[[[-71.487,56.448],[-72.931,56.731],[-74.469,57.516],[-75.599,58.3],[-76.227,58.771],[-77.137,59.273],[-78.173,59.462],[-79.648,59.524],[-80.401,59.399],[-81.312,59.116],[-81.845,58.802],[-82.253,58.489],[-82.442,58.175],[-82.473,57.672],[-82.065,57.076],[-81.594,56.668],[-81.5,55.821],[-80.998,55.412],[-80.244,55.13],[-79.177,55.067],[-78.11,55.099],[-76.98,54.691],[-76.07,54.251],[-75.254,54.22],[-73.747,53.843],[-72.899,53.404],[-72.397,52.933],[-71.989,52.462],[-71.424,52.054],[-70.985,51.771],[-70.483,51.52],[-69.886,51.52],[-69.541,51.614],[-69.007,51.991],[-68.631,52.713],[-68.536,53.717],[-68.913,54.659],[-69.572,55.475],[-70.326,55.946],[-70.953,56.291],[-71.487,56.448]]]}},{"type":"Feature","properties":{"density":2},"geometry":{"type":"Polygon","coordinates":[[[-79.972,35.045],[-80.013,34.955],[-79.999,34.939],[-79.975,34.942],[-79.937,34.999],[-79.945,35.055],[-79.972,35.045]]]}},{"type":"Feature","properties":{"density":2},"geometry":{"type":"Polygon","coordinates":[[[-118.37,44.907],[-118.348,44.948],[-118.285,44.949],[-118.184,44.842],[-118.178,44.798],[-118.202,44.791],[-118.281,44.85],[-118.353,44.87],[-118.372,44.884],[-118.37,44.907]]]}},{"type":"Feature","properties":{"density":2},"geometry":{"type":"Polygon","coordinates":[[[-120.864,48.349],[-120.788,48.316],[-120.731,48.267],[-120.636,48.138],[-120.593,48.111],[-120.551,48.118],[-120.542,48.182],[-120.577,48.239],[-120.718,48.364],[-120.838,48.392],[-120.869,48.375],[-120.864,48.349]]]}},{"type":"Feature","properties":{"density":2},"geometry":{"type":"Polygon","coordinates":[[[-121.281,47.497],[-121.264,47.449],[-121.225,47.42],[-121.11,47.37],[-121.036,47.357],[-121.012,47.368],[-120.99,47.407],[-121.018,47.48],[-121.088,47.528],[-121.146,47.547],[-121.214,47.554],[-121.271,47.526],[-121.281,47.497]]]}},{"type":"Feature","properties":{"density":2},"geometry":{"type":"Polygon","coordinates":[[[-121.445,35.952],[-121.266,35.982],[-121.206,36.023],[-121.175,36.09],[-121.135,36.333],[-121.081,36.398],[-120.959,36.408],[-120.888,36.36],[-120.797,36.252],[-120.689,35.834],[-120.689,35.672],[-120.716,35.625],[-120.794,35.55],[-120.861,35.51],[-121.013,35.51],[-121.196,35.672],[-121.439,35.834],[-121.462,35.895],[-121.462,35.942],[-121.445,35.952]]]}},{"type":"Feature","properties":{"density":2},"geometry":{"type":"Polygon","coordinates":[[[-98.449,41.731],[-97.168,42.525],[-95.784,43.012],[-94.067,43.345],[-92.35,43.473],[-90.248,43.038],[-89.043,42.653],[-86.968,42.269],[-84.507,42.423],[-80.945,42.858],[-78.715,42.628],[-78.1,42.423],[-77.28,41.987],[-76.357,40.91],[-76.203,39.86],[-76.332,38.348],[-77.177,37.22],[-79.099,36.477],[-80.278,36.502],[-81.38,37.066],[-83.277,37.476],[-85.763,38.066],[-88.941,38.168],[-92.17,38.014],[-93.887,37.784],[-96.04,37.399],[-97.911,37.553],[-99.064,37.861],[-99.526,38.527],[-99.731,39.065],[-99.705,39.86],[-99.474,40.654],[-98.988,41.32],[-98.449,41.731]]]}},{"type":"Feature","properties":{"density":2},"geometry":{"type":"Polygon","coordinates":[[[-92.398,56.829],[-91.052,58.559],[-88.707,59.905],[-84.824,60.981],[-81.134,61.135],[-78.289,61.019],[-75.252,60.52],[-72.945,59.866],[-70.754,58.636],[-69.178,58.021],[-68.025,57.175],[-67.64,56.714],[-67.525,54.907],[-68.025,53.485],[-68.563,52.677],[-69.87,52.254],[-71.138,52.447],[-72.599,53.177],[-74.56,53.907],[-76.559,54.33],[-78.789,54.945],[-82.979,54.792],[-85.055,54.215],[-87.169,53.561],[-88.63,53.215],[-90.86,53.1],[-91.821,53.715],[-92.513,54.561],[-92.821,55.561],[-92.667,56.06],[-92.398,56.829]]]}},{"type":"Feature","properties":{"density":3},"geometry":{"type":"Polygon","coordinates":[[[-121.156,35.743],[-121.188,35.778],[-121.191,35.814],[-121.145,35.956],[-121.145,36.002],[-121.166,36.062],[-121.208,36.108],[-121.25,36.125],[-121.309,36.088],[-121.414,35.954],[-121.403,35.86],[-121.353,35.789],[-121.19,35.645],[-121.114,35.543],[-121.066,35.346],[-120.964,35.307],[-120.897,35.234],[-120.827,34.87],[-120.752,34.675],[-120.468,34.225],[-120.424,34.192],[-120.424,34.231],[-120.507,34.435],[-120.714,34.826],[-120.752,34.925],[-120.829,35.3],[-120.871,35.397],[-120.987,35.609],[-121.156,35.743]]]}}]}