{"type":"FeatureCollection","features":[{"type":"Feature","properties":{"density":1},"geometry":{"type":"Polygon","coordinates":[[[-81.134,26.827],[-80.983,26.832],[-80.954,26.824],[-80.946,26.795],[-80.992,26.774],[-81.113,26.773],[-81.138,26.79],[-81.134,26.827]]]}},{"type":"Feature","properties":{"density":1},"geometry":{"type":"Polygon","coordinates":[[[-81.238,26.79],[-81.166,26.797],[-81.097,26.774],[-81.06,26.732],[-81.062,26.699],[-81.231,26.694],[-81.25,26.725],[-81.238,26.79]]]}},{"type":"Feature","properties":{"density":1},"geometry":{"type":"Polygon","coordinates":[[[-80.985,26.761],[-80.872,26.762],[-80.838,26.717],[-80.897,26.689],[-80.962,26.682],[-80.991,26.702],[-80.985,26.761]]]}},{"type":"Feature","properties":{"density":1},"geometry":{"type":"Polygon","coordinates":[[[-80.895,26.648],[-80.761,26.651],[-80.733,26.62],[-80.755,26.602],[-80.882,26.58],[-80.899,26.598],[-80.895,26.648]]]}},{"type":"Feature","properties":{"density":1},"geometry":{"type":"Polygon","coordinates":[[[-80.808,26.695],[-80.664,26.698],[-80.626,26.677],[-80.624,26.649],[-80.647,26.626],[-80.763,26.633],[-80.821,26.657],[-80.808,26.695]]]}},{"type":"Feature","properties":{"density":1},"geometry":{"type":"Polygon","coordinates":[[[-80.503,26.645],[-80.326,26.663],[-80.292,26.63],[-80.384,26.541],[-80.423,26.465],[-80.462,26.48],[-80.49,26.534],[-80.511,26.605],[-80.503,26.645]]]}},{"type":"Feature","properties":{"density":1},"geometry":{"type":"Polygon","coordinates":[[[-80.623,27.075],[-80.503,27.073],[-80.468,27.046],[-80.463,27.01],[-80.538,26.987],[-80.606,26.998],[-80.638,27.024],[-80.641,27.051],[-80.623,27.075]]]}},{"type":"Feature","properties":{"density":1},"geometry":{"type":"Polygon","coordinates":[[[-119.622,37.555],[-119.679,37.614],[-119.72,37.759],[-119.739,38.226],[-119.701,38.384],[-119.665,38.46],[-119.595,38.508],[-119.559,38.492],[-119.521,38.418],[-119.527,37.994],[-119.5,37.723],[-119.541,37.582],[-119.568,37.562],[-119.622,37.555]]]}},{"type":"Feature","properties":{"density":1},"geometry":{"type":"Polygon","coordinates":[[[-93.744,31.226],[-93.713,31.282],[-93.668,31.285],[-93.669,31.253],[-93.701,31.214],[-93.742,31.208],[-93.744,31.226]]]}},{"type":"Feature","properties":{"density":1},"geometry":{"type":"Polygon","coordinates":[[[-82.249,33.808],[-82.51,33.697],[-82.534,33.675],[-82.536,33.613],[-82.467,33.582],[-82.347,33.583],[-82.186,33.655],[-82.179,33.709],[-82.194,33.766],[-82.218,33.799],[-82.249,33.808]]]}},{"type":"Feature","properties":{"density":1},"geometry":{"type":"Polygon","coordinates":[[[-90.385,32.436],[-90.278,32.383],[-90.249,32.318],[-90.297,32.32],[-90.356,32.358],[-90.397,32.406],[-90.385,32.436]]]}},{"type":"Feature","properties":{"density":1},"geometry":{"type":"Polygon","coordinates":[[[-104.201,62.721],[-103.714,62.951],[-102.945,63.182],[-101.997,63.387],[-100.331,63.182],[-99.255,62.951],[-98.127,62.413],[-97.23,61.542],[-96.307,60.491],[-95.462,59.132],[-94.77,57.543],[-94.36,56.544],[-94.052,55.263],[-94.078,54.545],[-94.129,54.417],[-94.411,54.263],[-94.565,54.237],[-96.794,55.416],[-97.563,55.954],[-98.563,56.467],[-99.28,57.108],[-100.177,57.877],[-101.023,58.671],[-101.69,59.85],[-102.151,60.593],[-102.945,61.208],[-103.885,61.627],[-104.591,61.809],[-104.705,61.912],[-104.774,62.151],[-104.785,62.322],[-104.728,62.447],[-104.603,62.538],[-104.201,62.721]]]}},{"type":"Feature","properties":{"density":1},"geometry":{"type":"Polygon","coordinates":[[[-87.642,69.479],[-87.514,69.941],[-86.386,70.376],[-84.848,70.402],[-83.823,70.633],[-83.336,70.966],[-82.696,71.197],[-81.67,71.273],[-80.082,71.145],[-78.364,70.735],[-76.904,70.223],[-75.058,69.787],[-73.982,69.377],[-73.11,68.762],[-72.752,68.121],[-72.905,67.506],[-73.418,66.917],[-74.187,66.686],[-75.161,66.301],[-78.006,65.994],[-78.928,66.225],[-79.928,66.558],[-80.722,66.686],[-81.696,66.788],[-82.901,67.147],[-83.67,67.352],[-85.669,67.711],[-86.156,67.865],[-87.053,68.301],[-87.488,68.736],[-87.693,69.121],[-87.642,69.479]]]}},{"type":"Feature","properties":{"density":1},"geometry":{"type":"Polygon","coordinates":[[[-64.243,65.276],[-63.576,65.584],[-62.321,65.712],[-60.398,65.584],[-59.296,65.404],[-56.195,64.994],[-54.555,65.02],[-52.53,64.994],[-51.223,64.584],[-50.044,63.841],[-49.609,63.2],[-49.455,62.637],[-49.609,61.791],[-49.968,61.099],[-50.839,60.663],[-51.608,60.663],[-53.581,61.073],[-55.606,61.406],[-57.118,61.586],[-58.784,61.534],[-59.988,61.534],[-61.014,61.509],[-62.346,61.714],[-63.192,62.124],[-64.089,62.842],[-64.602,63.61],[-65.012,64.324],[-64.96,64.819],[-64.602,65.174],[-64.243,65.276]]]}},{"type":"Feature","properties":{"density":1},"geometry":{"type":"Polygon","coordinates":[[[-98.713,37.004],[-98.593,37.666],[-98.772,38.537],[-98.772,39.05],[-98.593,39.665],[-97.952,40.254],[-96.696,40.69],[-95.056,40.895],[-94.29,40.763],[-93.902,40.28],[-94.236,39.383],[-94.928,38.332],[-95.389,37.025],[-95.466,36.564],[-95.286,35.693],[-94.986,34.573],[-94.17,34.193],[-92.809,34.793],[-91.151,34.991],[-89.354,34.793],[-87.626,34.052],[-85.665,33.662],[-83.292,33.7],[-80.883,34.078],[-80.242,34.411],[-79.089,34.847],[-78.013,35.026],[-74.835,35.077],[-73.579,35.052],[-72.067,34.949],[-70.811,35.026],[-69.811,35.001],[-68.889,34.693],[-68.402,34.309],[-68.325,33.617],[-68.555,33.078],[-69.119,32.515],[-72.143,30.105],[-73.963,29.055],[-75.501,28.311],[-78.115,27.722],[-79.012,27.671],[-79.858,27.671],[-80.832,27.824],[-82.318,27.978],[-83.6,28.183],[-85.141,27.988],[-86.615,27.292],[-87.476,26.672],[-88.539,26.546],[-89.552,26.685],[-90.336,26.824],[-92.16,26.364],[-92.399,25.783],[-92.347,24.397],[-91.797,22.727],[-91.519,21.34],[-91.604,19.444],[-91.929,18.077],[-92.185,17.479],[-92.612,17.171],[-93.535,17.069],[-94.475,17.086],[-95.449,17.0],[-96.013,16.727],[-96.525,16.283],[-97.209,15.822],[-98.251,15.839],[-99.225,15.753],[-100.284,15.873],[-101.711,15.822],[-102.582,15.078],[-104.171,13.643],[-105.017,12.951],[-106.068,12.772],[-107.528,13.054],[-107.964,13.387],[-108.272,14.873],[-108.477,15.95],[-108.554,17.052],[-109.829,19.485],[-110.128,20.211],[-110.684,21.407],[-111.111,22.817],[-111.282,24.397],[-111.282,27.321],[-111.054,27.919],[-110.684,28.375],[-109.602,29.371],[-109.089,29.656],[-108.861,29.684],[-108.548,29.428],[-108.292,28.802],[-108.235,28.118],[-108.149,27.435],[-107.978,26.78],[-107.494,25.84],[-106.982,25.128],[-105.843,23.647],[-105.619,22.923],[-105.334,22.088],[-104.746,21.005],[-103.417,20.74],[-102.278,20.759],[-101.286,20.743],[-100.518,21.363],[-99.974,22.717],[-99.949,23.945],[-100.531,25.217],[-101.628,26.438],[-102.316,27.552],[-103.682,28.121],[-105.011,28.102],[-105.998,28.273],[-106.555,28.669],[-106.878,29.371],[-107.581,29.903],[-108.378,30.643],[-108.511,31.365],[-108.074,31.725],[-107.505,31.915],[-106.707,31.934],[-105.853,31.896],[-104.132,30.744],[-103.17,30.605],[-101.816,30.757],[-100.973,31.44],[-100.574,31.953],[-100.213,32.809],[-99.89,33.341],[-99.662,33.815],[-99.454,34.556],[-99.245,35.201],[-98.979,35.789],[-98.808,36.492],[-98.713,37.004]]]}},{"type":"Feature","properties":{"density":1},"geometry":{"type":"Polygon","coordinates":[[[-81.036,22.228],[-80.904,22.149],[-80.86,22.145],[-80.804,22.171],[-80.816,22.216],[-80.918,22.26],[-81.005,22.268],[-81.042,22.249],[-81.036,22.228]]]}},{"type":"Feature","properties":{"density":1},"geometry":{"type":"Polygon","coordinates":[[[-80.899,26.638],[-80.773,26.534],[-80.698,26.499],[-80.581,26.488],[-80.513,26.522],[-80.504,26.555],[-80.507,26.601],[-80.574,26.659],[-80.717,26.716],[-80.779,26.712],[-80.9,26.654],[-80.899,26.638]]]}},{"type":"Feature","properties":{"density":1},"geometry":{"type":"Polygon","coordinates":[[[-80.645,26.85],[-80.437,26.675],[-80.382,26.68],[-80.386,26.733],[-80.414,26.776],[-80.456,26.804],[-80.618,26.872],[-80.645,26.867],[-80.645,26.85]]]}},{"type":"Feature","properties":{"density":1},"geometry":{"type":"Polygon","coordinates":[[[-85.455,33.021],[-85.425,32.913],[-85.361,32.794],[-85.258,32.728],[-85.159,32.741],[-85.183,32.844],[-85.23,32.898],[-85.315,32.974],[-85.427,33.027],[-85.455,33.021]]]}},{"type":"Feature","properties":{"density":1},"geometry":{"type":"Polygon","coordinates":[[[-89.277,33.301],[-89.249,33.185],[-89.207,33.101],[-89.117,33.059],[-89.053,33.082],[-89.043,33.109],[-89.068,33.167],[-89.202,33.301],[-89.254,33.318],[-89.277,33.301]]]}},{"type":"Feature","properties":{"density":1},"geometry":{"type":"Polygon","coordinates":[[[-92.27,30.974],[-92.202,30.884],[-92.117,30.808],[-92.069,30.792],[-92.011,30.808],[-92.004,30.836],[-92.018,30.863],[-92.091,30.926],[-92.251,30.998],[-92.277,30.997],[-92.27,30.974]]]}},{"type":"Feature","properties":{"density":1},"geometry":{"type":"Polygon","coordinates":[[[-93.822,30.828],[-93.735,30.702],[-93.695,30.683],[-93.635,30.702],[-93.622,30.731],[-93.654,30.843],[-93.723,30.939],[-93.767,30.965],[-93.804,30.969],[-93.822,30.947],[-93.822,30.828]]]}},{"type":"Feature","properties":{"density":1},"geometry":{"type":"Polygon","coordinates":[[[-119.589,37.577],[-119.669,37.63],[-119.789,37.881],[-119.877,38.013],[-119.914,38.117],[-119.921,38.185],[-119.907,38.239],[-119.87,38.279],[-119.759,38.283],[-119.631,38.225],[-119.593,38.131],[-119.573,38.067],[-119.577,37.871],[-119.553,37.685],[-119.556,37.624],[-119.589,37.577]]]}},{"type":"Feature","properties":{"density":1},"geometry":{"type":"Polygon","coordinates":[[[-81.384,32.532],[-81.016,32.42],[-80.928,32.45],[-80.892,32.508],[-80.931,32.578],[-81.096,32.601],[-81.34,32.575],[-81.392,32.559],[-81.397,32.538],[-81.384,32.532]]]}},{"type":"Feature","properties":{"density":1},"geometry":{"type":"Polygon","coordinates":[[[-85.479,33.036],[-85.362,32.627],[-85.328,32.541],[-85.274,32.469],[-85.18,32.395],[-85.112,32.379],[-85.029,32.386],[-84.986,32.411],[-84.919,32.476],[-84.914,32.534],[-85.002,32.701],[-85.15,32.852],[-85.315,32.991],[-85.427,33.05],[-85.479,33.036]]]}},{"type":"Feature","properties":{"density":1},"geometry":{"type":"Polygon","coordinates":[[[-90.063,33.598],[-90.085,33.464],[-90.141,33.404],[-90.207,33.409],[-90.222,33.458],[-90.186,33.556],[-90.126,33.617],[-90.072,33.622],[-90.063,33.598]]]}},{"type":"Feature","properties":{"density":1},"geometry":{"type":"Polygon","coordinates":[[[-89.277,33.321],[-89.308,33.145],[-89.311,32.961],[-89.257,32.82],[-89.167,32.754],[-89.101,32.757],[-89.029,32.793],[-88.995,32.839],[-88.989,32.895],[-89.016,33.036],[-89.049,33.111],[-89.172,33.279],[-89.235,33.333],[-89.277,33.321]]]}},{"type":"Feature","properties":{"density":1},"geometry":{"type":"Polygon","coordinates":[[[-82.56,33.471],[-82.537,33.41],[-82.466,33.306],[-82.358,33.272],[-82.29,33.285],[-82.274,33.346],[-82.375,33.457],[-82.463,33.501],[-82.51,33.501],[-82.56,33.471]]]}},{"type":"Feature","properties":{"density":1},"geometry":{"type":"Polygon","coordinates":[[[-77.295,34.635],[-76.89,34.422],[-76.344,34.179],[-76.023,34.091],[-75.659,33.96],[-75.321,33.895],[-75.058,33.868],[-74.889,33.882],[-74.808,33.926],[-74.754,34.071],[-74.768,34.263],[-74.795,34.354],[-74.872,34.459],[-75.017,34.543],[-75.362,34.594],[-76.509,34.648],[-76.874,34.699],[-77.225,34.702],[-77.299,34.675],[-77.295,34.635]]]}},{"type":"Feature","properties":{"density":1},"geometry":{"type":"Polygon","coordinates":[[[-85.415,32.887],[-85.412,32.654],[-85.321,32.32],[-85.24,32.151],[-85.165,32.057],[-84.963,31.949],[-84.821,31.932],[-84.733,31.945],[-84.673,31.989],[-84.629,32.107],[-84.659,32.259],[-84.716,32.367],[-85.081,32.715],[-85.341,32.904],[-85.415,32.887]]]}},{"type":"Feature","properties":{"density":1},"geometry":{"type":"Polygon","coordinates":[[[-85.037,32.917],[-85.003,32.728],[-84.953,32.634],[-84.878,32.56],[-84.821,32.529],[-84.767,32.546],[-84.716,32.637],[-84.7,32.765],[-84.706,32.83],[-84.808,33.086],[-84.835,33.113],[-84.892,33.13],[-84.912,33.113],[-84.919,33.062],[-84.905,32.931],[-84.922,32.921],[-84.997,32.944],[-85.037,32.917]]]}},{"type":"Feature","properties":{"density":1},"geometry":{"type":"Polygon","coordinates":[[[-89.354,30.479],[-89.566,30.253],[-89.614,30.182],[-89.634,30.114],[-89.637,29.996],[-89.61,29.929],[-89.546,29.881],[-89.482,29.871],[-89.431,29.912],[-89.364,30.057],[-89.252,30.459],[-89.283,30.499],[-89.31,30.502],[-89.354,30.479]]]}},{"type":"Feature","properties":{"density":1},"geometry":{"type":"Polygon","coordinates":[[[-83.806,30.859],[-88.457,31.244],[-91.687,30.936],[-93.532,30.437],[-94.647,29.86],[-95.223,29.399],[-95.915,28.514],[-96.3,27.4],[-96.492,26.323],[-96.454,24.978],[-96.069,23.44],[-96.069,22.171],[-96.569,21.018],[-97.53,19.634],[-98.837,18.942],[-100.259,18.75],[-101.336,18.827],[-103.681,20.172],[-104.604,20.787],[-105.372,21.633],[-105.987,22.517],[-106.526,23.171],[-106.987,23.632],[-107.256,23.786],[-107.871,23.824],[-108.525,23.632],[-108.986,23.017],[-109.294,22.287],[-109.524,21.402],[-109.64,19.634],[-109.37,18.404],[-108.909,17.289],[-108.179,16.174],[-107.679,15.521],[-106.372,14.636],[-105.257,14.252],[-103.604,14.213],[-101.182,15.098],[-99.798,15.674],[-98.145,15.943],[-96.876,16.097],[-95.685,16.289],[-94.685,16.405],[-93.762,16.597],[-91.725,17.327],[-91.225,17.827],[-91.148,18.442],[-91.379,19.211],[-91.533,20.172],[-91.533,21.095],[-91.341,21.864],[-90.879,22.402],[-89.918,23.094],[-89.303,23.901],[-89.111,24.785],[-89.149,26.362],[-88.919,27.015],[-88.573,27.553],[-87.65,28.053],[-86.535,28.284],[-85.228,28.092],[-84.613,27.899],[-83.767,27.361],[-82.46,26.784],[-81.115,26.708],[-79.577,26.823],[-78.347,26.977],[-77.501,27.323],[-76.924,27.899],[-76.501,28.514],[-76.348,29.13],[-76.271,30.513],[-76.425,30.936],[-77.04,31.475],[-77.77,31.705],[-78.731,31.705],[-79.269,31.667],[-79.961,31.475],[-80.653,31.359],[-81.307,31.129],[-81.922,31.013],[-82.883,30.936],[-83.498,30.783],[-83.806,30.859]]]}},{"type":"Feature","properties":{"density":1},"geometry":{"type":"Polygon","coordinates":[[[-75.737,69.399],[-80.408,70.322],[-83.003,70.322],[-83.983,70.149],[-84.906,69.687],[-85.598,69.053],[-85.829,68.13],[-85.483,67.381],[-84.675,66.516],[-83.349,65.593],[-81.504,65.247],[-80.062,64.67],[-78.044,64.094],[-75.91,63.517],[-74.007,62.594],[-71.47,61.614],[-69.452,61.153],[-67.837,61.557],[-67.261,62.306],[-66.799,63.229],[-66.684,63.863],[-66.915,64.67],[-67.895,65.593],[-68.933,66.227],[-70.374,67.15],[-71.585,67.669],[-72.566,68.303],[-73.719,68.534],[-75.737,69.399]]]}},{"type":"Feature","properties":{"density":2},"geometry":{"type":"Polygon","coordinates":[[[-119.574,37.572],[-119.607,37.565],[-119.662,37.628],[-119.702,37.825],[-119.693,38.232],[-119.66,38.296],[-119.61,38.314],[-119.568,38.311],[-119.537,38.188],[-119.549,38.013],[-119.52,37.744],[-119.557,37.589],[-119.574,37.572]]]}},{"type":"Feature","properties":{"density":2},"geometry":{"type":"Polygon","coordinates":[[[-95.105,20.949],[-95.361,21.38],[-95.464,21.759],[-95.495,22.087],[-95.443,22.466],[-95.166,22.876],[-94.9,23.112],[-94.387,23.44],[-93.69,23.676],[-93.393,23.655],[-93.147,23.45],[-92.942,23.081],[-92.45,21.544],[-92.317,20.908],[-92.255,20.437],[-92.378,19.678],[-92.46,19.34],[-92.655,18.919],[-92.675,18.807],[-92.788,18.458],[-92.901,18.304],[-93.379,17.846],[-93.598,17.587],[-93.865,17.443],[-94.063,17.498],[-94.22,17.648],[-94.309,17.887],[-94.326,18.875],[-94.172,19.213],[-93.957,19.592],[-93.834,19.91],[-93.762,20.443],[-93.762,20.577],[-93.793,20.792],[-93.906,20.884],[-94.029,20.925],[-94.244,20.884],[-94.48,20.771],[-94.736,20.761],[-94.859,20.782],[-95.023,20.925],[-95.105,20.949]]]}},{"type":"Feature","properties":{"density":2},"geometry":{"type":"Polygon","coordinates":[[[-119.638,37.646],[-119.73,37.945],[-119.76,37.998],[-119.76,38.053],[-119.725,38.098],[-119.693,38.064],[-119.672,38.003],[-119.59,37.587],[-119.638,37.646]]]}},{"type":"Feature","properties":{"density":2},"geometry":{"type":"Polygon","coordinates":[[[-93.286,21.431],[-93.526,21.215],[-93.753,20.975],[-94.084,20.463],[-94.3,20.064],[-94.46,19.836],[-94.642,19.153],[-94.676,18.811],[-94.687,18.458],[-94.573,18.105],[-94.551,17.957],[-94.311,17.706],[-94.084,17.513],[-93.674,17.308],[-93.377,17.239],[-93.161,17.217],[-92.808,17.262],[-92.626,17.353],[-92.546,17.479],[-92.5,18.492],[-92.535,18.697],[-92.603,18.902],[-92.683,19.073],[-92.717,19.255],[-92.614,19.46],[-92.455,19.586],[-92.352,19.7],[-92.273,19.939],[-92.273,20.064],[-92.307,20.235],[-92.398,20.508],[-92.546,20.884],[-92.671,21.158],[-92.728,21.237],[-92.797,21.329],[-93.017,21.464],[-93.098,21.489],[-93.169,21.479],[-93.286,21.431]]]}},{"type":"Feature","properties":{"density":3},"geometry":{"type":"Polygon","coordinates":[[[-119.641,37.669],[-119.672,37.97],[-119.659,38.125],[-119.668,38.181],[-119.644,38.244],[-119.597,38.253],[-119.596,37.962],[-119.546,37.762],[-119.584,37.576],[-119.633,37.618],[-119.641,37.669]]]}}]}