{"type":"FeatureCollection","features":[{"type":"Feature","properties":{"density":1},"geometry":{"type":"Polygon","coordinates":[[[-104.506,49.941],[-102.225,49.711],[-100.277,49.788],[-97.919,50.377],[-97.022,50.813],[-95.972,51.274],[-95.331,51.71],[-94.716,52.325],[-93.614,52.889],[-92.46,53.017],[-91.307,52.889],[-90.41,52.479],[-89.949,51.992],[-89.539,51.223],[-88.872,50.351],[-88.104,49.557],[-87.027,48.634],[-86.335,48.071],[-85.976,47.148],[-86.438,45.687],[-87.181,44.764],[-88.719,43.662],[-90.897,43.124],[-92.332,42.483],[-95.228,40.997],[-97.074,39.997],[-98.278,39.229],[-99.303,38.844],[-100.431,38.639],[-101.507,38.665],[-102.199,38.895],[-102.43,39.562],[-102.251,40.1],[-101.456,40.715],[-100.687,41.176],[-100.047,41.817],[-98.996,42.688],[-97.099,43.867],[-96.535,44.201],[-95.357,45.046],[-94.972,45.713],[-94.946,46.277],[-94.972,46.738],[-95.228,46.917],[-95.741,47.225],[-96.382,47.353],[-97.048,47.379],[-98.381,47.225],[-100.047,47.148],[-101.123,47.148],[-101.969,47.225],[-102.994,47.379],[-103.917,47.558],[-104.685,47.84],[-105.301,48.276],[-105.531,48.557],[-105.659,49.044],[-105.711,49.48],[-105.685,49.608],[-105.301,49.813],[-104.89,49.916],[-104.506,49.941]]]}},{"type":"Feature","properties":{"density":1},"geometry":{"type":"Polygon","coordinates":[[[-94.69,31.284],[-91.64,32.437],[-89.103,33.641],[-86.899,34.641],[-85.31,35.41],[-83.695,35.897],[-82.337,36.051],[-80.953,36.153],[-79.928,36.691],[-78.723,37.409],[-77.878,37.409],[-76.699,37.153],[-75.674,36.794],[-75.443,36.23],[-75.469,35.692],[-75.981,35.205],[-77.237,34.385],[-80.235,33.257],[-81.543,32.873],[-83.695,32.514],[-85.669,32.104],[-87.54,31.771],[-89.564,31.104],[-91.0,30.54],[-92.358,30.156],[-93.998,29.797],[-95.075,29.695],[-95.459,29.772],[-95.92,30.105],[-95.92,30.412],[-95.51,30.822],[-95.075,31.104],[-94.69,31.284]]]}},{"type":"Feature","properties":{"density":1},"geometry":{"type":"Polygon","coordinates":[[[-89.203,34.612],[-89.256,34.632],[-89.244,34.639],[-89.203,34.612]]]}},{"type":"Feature","properties":{"density":1},"geometry":{"type":"Polygon","coordinates":[[[-95.575,31.556],[-95.663,31.516],[-95.699,31.527],[-95.673,31.553],[-95.575,31.556]]]}},{"type":"Feature","properties":{"density":1},"geometry":{"type":"Polygon","coordinates":[[[-97.641,32.308],[-97.758,32.362],[-97.755,32.389],[-97.725,32.395],[-97.656,32.357],[-97.618,32.324],[-97.641,32.308]]]}},{"type":"Feature","properties":{"density":1},"geometry":{"type":"Polygon","coordinates":[[[-115.201,40.946],[-115.287,40.891],[-115.413,40.906],[-115.66,40.994],[-115.671,41.045],[-115.647,41.075],[-115.453,41.061],[-115.224,41.131],[-115.14,41.138],[-115.109,41.093],[-115.201,40.946]]]}},{"type":"Feature","properties":{"density":1},"geometry":{"type":"Polygon","coordinates":[[[-117.235,45.696],[-117.07,45.699],[-117.033,45.724],[-117.034,45.741],[-117.088,45.768],[-117.217,45.748],[-117.261,45.711],[-117.235,45.696]]]}}]}