{"type":"FeatureCollection","features":[{"type":"Feature","properties":{"density":1},"geometry":{"type":"Polygon","coordinates":[[[-61.341,54.805],[-61.442,54.787],[-61.454,54.761],[-61.447,54.721],[-61.421,54.687],[-61.337,54.632],[-61.296,54.616],[-61.228,54.62],[-61.208,54.644],[-61.212,54.702],[-61.291,54.785],[-61.341,54.805]]]}},{"type":"Feature","properties":{"density":1},"geometry":{"type":"Polygon","coordinates":[[[-80.953,26.674],[-81.028,26.693],[-81.082,26.689],[-81.124,26.661],[-81.135,26.608],[-81.014,26.511],[-80.455,26.21],[-80.281,26.194],[-80.277,26.225],[-80.304,26.248],[-80.534,26.369],[-80.953,26.674]]]}},{"type":"Feature","properties":{"density":1},"geometry":{"type":"Polygon","coordinates":[[[-80.684,33.149],[-80.714,33.123],[-80.769,32.933],[-80.771,32.9],[-80.748,32.868],[-80.666,32.87],[-80.641,32.933],[-80.62,33.099],[-80.636,33.125],[-80.684,33.149]]]}},{"type":"Feature","properties":{"density":1},"geometry":{"type":"Polygon","coordinates":[[[-88.712,21.35],[-88.778,21.344],[-88.817,21.319],[-88.831,21.267],[-88.82,21.215],[-88.699,21.17],[-88.415,21.146],[-88.269,21.148],[-88.189,21.165],[-88.15,21.19],[-88.156,21.22],[-88.2,21.234],[-88.269,21.231],[-88.641,21.35],[-88.712,21.35]]]}},{"type":"Feature","properties":{"density":1},"geometry":{"type":"Polygon","coordinates":[[[-90.127,31.694],[-91.069,30.847],[-91.911,29.949],[-92.319,29.29],[-92.727,28.506],[-93.072,27.438],[-93.637,26.026],[-93.988,24.757],[-94.14,23.326],[-94.14,21.914],[-94.046,20.815],[-94.077,19.371],[-93.575,17.833],[-93.297,16.439],[-93.198,14.851],[-93.637,12.623],[-94.548,11.179],[-96.149,10.582],[-98.597,10.331],[-100.417,10.614],[-101.861,10.991],[-102.589,11.386],[-103.781,11.762],[-104.786,12.327],[-105.508,12.924],[-106.292,13.489],[-107.203,14.054],[-107.768,14.713],[-108.584,15.184],[-109.337,15.937],[-110.467,16.816],[-111.754,17.695],[-112.79,19.17],[-114.04,21.129],[-114.229,22.196],[-114.166,23.483],[-113.82,24.645],[-112.942,26.214],[-112.099,29.026],[-111.906,30.138],[-112.126,33.12],[-112.282,34.344],[-112.408,34.877],[-112.659,35.756],[-112.816,36.729],[-112.816,37.671],[-112.785,38.456],[-112.659,39.084],[-111.592,41.344],[-110.561,42.335],[-109.745,43.245],[-107.517,45.537],[-106.857,46.949],[-105.979,48.362],[-106.01,49.554],[-106.512,50.653],[-107.611,51.061],[-109.117,51.5],[-110.75,51.626],[-112.406,51.412],[-114.387,51.538],[-115.364,52.003],[-116.645,52.738],[-117.484,53.058],[-118.223,53.477],[-119.521,54.44],[-120.497,55.36],[-121.585,56.602],[-122.452,58.137],[-123.425,59.047],[-124.524,60.24],[-125.748,61.37],[-126.753,62.845],[-127.632,64.508],[-127.694,66.58],[-127.569,67.428],[-127.129,69.625],[-126.878,70.755],[-126.005,71.84],[-124.655,72.437],[-123.708,72.607],[-119.816,73.078],[-117.906,72.97],[-115.986,72.983],[-114.385,72.827],[-112.094,72.513],[-110.462,72.324],[-109.395,72.324],[-108.076,72.199],[-103.216,70.867],[-102.207,70.661],[-100.041,70.158],[-98.539,69.706],[-97.216,69.75],[-95.27,69.405],[-93.606,69.217],[-91.916,69.204],[-90.499,69.091],[-87.035,69.518],[-83.834,70.318],[-80.208,70.883],[-76.018,71.495],[-71.545,71.542],[-68.72,71.071],[-66.743,69.376],[-66.413,65.986],[-67.825,64.291],[-70.085,62.785],[-73.287,61.937],[-75.265,61.372],[-76.677,60.054],[-76.818,58.688],[-75.877,57.323],[-73.334,56.899],[-71.592,56.993],[-68.72,57.229],[-66.554,57.229],[-64.2,57.37],[-61.422,57.135],[-59.115,57.135],[-53.23,56.664],[-50.593,56.146],[-48.333,55.675],[-45.508,54.733],[-44.943,53.274],[-44.896,51.108],[-46.685,47.954],[-50.31,44.375],[-52.665,42.821],[-56.149,40.844],[-58.503,39.714],[-61.328,39.149],[-63.305,38.866],[-64.435,38.772],[-66.272,38.49],[-68.626,38.16],[-70.792,37.736],[-72.392,37.501],[-73.805,36.701],[-75.641,36.041],[-77.76,35.524],[-78.89,35.429],[-84.352,34.394],[-86.988,33.499],[-89.201,32.322],[-90.127,31.694]]]}},{"type":"Feature","properties":{"density":1},"geometry":{"type":"Polygon","coordinates":[[[-80.291,26.228],[-80.425,26.315],[-80.512,26.333],[-80.582,26.326],[-80.651,26.291],[-80.677,26.245],[-80.668,26.166],[-80.631,26.127],[-80.519,26.085],[-80.42,26.103],[-80.328,26.151],[-80.284,26.199],[-80.291,26.228]]]}},{"type":"Feature","properties":{"density":1},"geometry":{"type":"Polygon","coordinates":[[[-127.561,69.571],[-126.949,70.607],[-125.466,71.551],[-123.347,72.163],[-120.31,72.584],[-117.203,72.82],[-113.507,72.869],[-110.258,72.446],[-107.527,72.163],[-105.126,71.76],[-101.689,71.064],[-98.84,69.924],[-98.205,69.641],[-95.874,69.147],[-91.213,68.935],[-86.552,68.865],[-83.02,69.783],[-79.065,70.56],[-75.958,70.771],[-73.839,70.701],[-70.379,70.065],[-68.048,69.053],[-65.011,67.523],[-63.81,66.322],[-63.669,65.286],[-64.093,64.274],[-65.011,63.356],[-66.847,62.438],[-69.602,61.731],[-72.921,61.096],[-74.593,60.672],[-75.487,60.013],[-75.746,59.401],[-75.746,58.412],[-75.605,57.706],[-75.11,57.07],[-72.215,56.435],[-69.531,56.081],[-67.295,55.681],[-64.093,55.305],[-59.714,55.21],[-56.465,55.352],[-52.934,55.446],[-48.626,56.011],[-44.742,57.0],[-42.27,57.565],[-38.385,58.412],[-32.735,59.542],[-30.122,59.825],[-28.145,59.189],[-27.509,57.776],[-27.439,55.658],[-28.286,54.033],[-30.899,52.338],[-35.419,50.314],[-38.809,49.372],[-42.105,48.289],[-45.683,47.395],[-50.674,45.841],[-55.006,43.958],[-59.008,42.592],[-61.88,41.368],[-65.223,39.72],[-67.012,39.343],[-69.084,39.061],[-70.944,38.708],[-73.51,38.355],[-76.664,37.436],[-79.442,36.66],[-81.373,36.0],[-83.585,35.176],[-84.245,35.153],[-86.41,34.47],[-88.6,33.481],[-90.012,32.634],[-92.272,30.868],[-94.038,29.597],[-95.097,28.467],[-95.733,26.843],[-95.945,25.289],[-95.733,24.018],[-94.885,22.393],[-93.897,21.687],[-93.12,20.91],[-91.99,18.933],[-91.99,17.238],[-92.131,15.613],[-92.979,14.06],[-93.72,12.953],[-94.815,12.223],[-96.015,11.87],[-98.134,12.223],[-100.889,12.859],[-103.29,13.989],[-106.75,15.755],[-108.426,17.444],[-109.838,19.422],[-110.539,20.929],[-110.979,23.586],[-111.272,26.746],[-111.694,29.456],[-112.259,31.363],[-112.824,33.623],[-113.389,36.518],[-112.895,38.778],[-112.047,40.332],[-109.929,42.663],[-109.364,44.499],[-109.717,46.476],[-110.423,47.818],[-111.2,48.525],[-114.237,49.301],[-115.508,49.301],[-116.991,49.443],[-118.474,50.078],[-120.593,51.491],[-123.912,55.093],[-125.113,56.364],[-126.525,58.977],[-127.797,62.508],[-128.644,64.98],[-128.503,67.358],[-128.126,68.676],[-127.561,69.571]]]}},{"type":"Feature","properties":{"density":1},"geometry":{"type":"Polygon","coordinates":[[[-81.184,27.582],[-81.228,27.539],[-81.255,27.475],[-81.266,27.291],[-81.239,27.207],[-81.206,27.175],[-81.118,27.159],[-81.074,27.224],[-81.069,27.382],[-81.108,27.557],[-81.123,27.578],[-81.184,27.582]]]}},{"type":"Feature","properties":{"density":1},"geometry":{"type":"Polygon","coordinates":[[[-80.286,26.234],[-80.309,26.253],[-80.404,26.272],[-80.601,26.271],[-80.679,26.23],[-80.695,26.133],[-80.647,26.072],[-80.607,26.056],[-80.502,26.041],[-80.451,26.05],[-80.297,26.13],[-80.273,26.19],[-80.286,26.234]]]}},{"type":"Feature","properties":{"density":1},"geometry":{"type":"Polygon","coordinates":[[[-124.361,57.791],[-125.585,59.235],[-126.566,60.898],[-127.201,63.088],[-128.12,66.054],[-128.543,69.02],[-127.837,71.28],[-126.935,72.685],[-125.224,73.682],[-122.752,74.529],[-118.515,74.529],[-113.924,74.247],[-107.073,73.682],[-102.836,73.187],[-96.691,72.34],[-92.96,71.696],[-88.016,71.932],[-84.673,71.838],[-80.2,71.79],[-76.293,70.99],[-73.938,69.86],[-71.961,68.683],[-70.831,66.235],[-70.69,64.116],[-71.631,62.468],[-75.445,60.726],[-76.104,59.313],[-75.115,57.336],[-73.091,56.394],[-69.795,57.242],[-67.017,58.654],[-64.522,59.643],[-62.026,59.596],[-59.472,58.497],[-56.93,57.579],[-52.551,56.873],[-50.15,56.732],[-45.347,56.732],[-43.414,57.048],[-40.615,57.72],[-36.801,59.345],[-32.07,60.757],[-28.75,61.393],[-26.137,61.252],[-24.513,60.122],[-23.383,58.921],[-22.959,58.003],[-23.03,55.884],[-23.524,54.26],[-25.996,52.212],[-28.489,51.257],[-31.081,50.728],[-33.291,50.221],[-35.53,49.81],[-38.85,49.104],[-42.451,47.903],[-45.7,46.35],[-48.243,44.584],[-51.491,42.183],[-53.328,40.488],[-56.079,38.686],[-58.198,37.744],[-59.966,37.522],[-63.427,37.027],[-66.746,36.392],[-69.216,35.955],[-72.82,35.685],[-75.76,35.201],[-78.117,34.838],[-80.73,34.626],[-83.202,34.202],[-85.674,33.637],[-88.781,32.507],[-90.265,31.377],[-91.748,30.388],[-93.231,29.117],[-94.212,27.904],[-94.63,26.815],[-94.855,26.08],[-94.785,24.456],[-94.295,23.174],[-93.521,22.337],[-92.684,21.396],[-92.14,20.287],[-91.784,19.073],[-91.763,17.713],[-91.952,16.436],[-92.454,15.275],[-93.16,14.215],[-93.919,13.444],[-95.067,13.085],[-96.55,12.732],[-97.821,12.803],[-99.505,12.858],[-101.435,13.14],[-104.025,14.082],[-106.567,15.683],[-109.204,18.696],[-110.251,21.419],[-110.887,23.679],[-111.311,25.939],[-111.452,27.422],[-111.664,28.835],[-111.664,30.247],[-112.009,31.942],[-112.543,33.637],[-113.39,34.673],[-114.065,36.038],[-114.56,36.674],[-115.125,38.722],[-115.195,40.347],[-115.619,42.465],[-116.043,43.313],[-117.047,44.137],[-118.585,44.765],[-119.856,45.361],[-121.057,46.35],[-121.787,47.935],[-122.116,49.387],[-121.975,51.152],[-121.755,52.486],[-121.85,53.993],[-122.069,54.966],[-122.446,56.002],[-122.98,56.755],[-124.361,57.791]]]}},{"type":"Feature","properties":{"density":1},"geometry":{"type":"Polygon","coordinates":[[[-81.17,27.593],[-81.246,27.53],[-81.268,27.4],[-81.275,27.135],[-81.429,26.954],[-81.484,26.821],[-81.483,26.755],[-81.466,26.724],[-81.418,26.696],[-81.332,26.7],[-81.233,26.737],[-81.176,26.786],[-81.112,26.891],[-80.928,27.034],[-80.882,27.11],[-80.882,27.236],[-80.99,27.44],[-81.093,27.587],[-81.17,27.593]]]}},{"type":"Feature","properties":{"density":1},"geometry":{"type":"Polygon","coordinates":[[[-80.281,26.251],[-80.406,26.267],[-80.618,26.24],[-80.697,26.205],[-80.728,26.161],[-80.73,26.125],[-80.717,26.093],[-80.647,26.037],[-80.501,26.028],[-80.357,26.081],[-80.271,26.147],[-80.246,26.189],[-80.258,26.235],[-80.281,26.251]]]}},{"type":"Feature","properties":{"density":1},"geometry":{"type":"Polygon","coordinates":[[[-84.928,30.448],[-84.996,30.378],[-85.11,30.209],[-85.255,29.961],[-85.276,29.869],[-85.259,29.786],[-85.215,29.737],[-85.143,29.7],[-85.064,29.702],[-84.849,29.786],[-84.794,29.849],[-84.743,29.948],[-84.723,30.119],[-84.754,30.244],[-84.816,30.378],[-84.866,30.442],[-84.928,30.448]]]}},{"type":"Feature","properties":{"density":1},"geometry":{"type":"Polygon","coordinates":[[[-78.227,22.101],[-78.615,21.997],[-78.698,21.927],[-78.694,21.877],[-78.669,21.853],[-78.545,21.877],[-78.289,21.977],[-78.21,22.018],[-78.177,22.063],[-78.177,22.076],[-78.227,22.101]]]}},{"type":"Feature","properties":{"density":1},"geometry":{"type":"Polygon","coordinates":[[[-77.636,21.679],[-77.938,21.559],[-77.991,21.501],[-78.004,21.464],[-77.991,21.439],[-77.904,21.41],[-77.71,21.534],[-77.59,21.629],[-77.636,21.679]]]}},{"type":"Feature","properties":{"density":1},"geometry":{"type":"Polygon","coordinates":[[[-79.705,22.666],[-79.97,22.624],[-80.03,22.583],[-80.03,22.555],[-80.011,22.531],[-79.945,22.528],[-79.788,22.566],[-79.672,22.627],[-79.675,22.652],[-79.705,22.666]]]}},{"type":"Feature","properties":{"density":2},"geometry":{"type":"Polygon","coordinates":[[[-62.551,54.32],[-62.664,54.375],[-62.783,54.406],[-62.846,54.397],[-62.868,54.345],[-62.843,54.287],[-62.761,54.227],[-62.7,54.095],[-62.511,53.936],[-62.316,53.685],[-61.928,53.466],[-61.84,53.43],[-61.799,53.441],[-61.79,53.496],[-61.818,53.551],[-61.873,53.601],[-61.948,53.637],[-62.019,53.708],[-62.074,53.8],[-62.13,53.857],[-62.281,54.146],[-62.448,54.271],[-62.551,54.32]]]}},{"type":"Feature","properties":{"density":2},"geometry":{"type":"Polygon","coordinates":[[[-61.554,55.447],[-61.677,55.462],[-61.712,55.449],[-61.711,55.407],[-61.471,55.207],[-61.297,54.967],[-61.182,54.88],[-61.079,54.745],[-60.978,54.679],[-60.924,54.661],[-60.867,54.663],[-60.788,54.718],[-60.708,54.739],[-60.215,54.682],[-60.151,54.685],[-60.109,54.704],[-60.114,54.745],[-60.157,54.77],[-60.456,54.863],[-60.842,55.029],[-60.987,55.152],[-61.148,55.189],[-61.295,55.313],[-61.444,55.403],[-61.554,55.447]]]}},{"type":"Feature","properties":{"density":2},"geometry":{"type":"Polygon","coordinates":[[[-60.064,51.787],[-60.124,51.795],[-60.136,51.756],[-60.122,51.727],[-60.002,51.582],[-59.934,51.575],[-59.902,51.618],[-59.908,51.655],[-60.064,51.787]]]}},{"type":"Feature","properties":{"density":2},"geometry":{"type":"Polygon","coordinates":[[[-66.083,54.362],[-66.117,54.377],[-66.219,54.381],[-66.356,54.444],[-66.419,54.422],[-66.46,54.374],[-66.457,54.325],[-66.435,54.292],[-66.28,54.233],[-66.17,54.161],[-66.11,54.15],[-66.011,54.175],[-65.978,54.26],[-65.997,54.307],[-66.083,54.362]]]}},{"type":"Feature","properties":{"density":2},"geometry":{"type":"Polygon","coordinates":[[[-88.728,55.099],[-88.721,54.938],[-88.699,54.856],[-88.581,54.746],[-88.508,54.728],[-88.484,54.751],[-88.484,54.792],[-88.526,54.937],[-88.516,54.988],[-88.466,55.075],[-88.45,55.209],[-88.472,55.282],[-88.539,55.361],[-88.613,55.382],[-88.667,55.361],[-88.7,55.298],[-88.728,55.099]]]}},{"type":"Feature","properties":{"density":2},"geometry":{"type":"Polygon","coordinates":[[[-87.81,55.293],[-87.844,55.215],[-87.816,55.133],[-87.766,55.108],[-87.721,55.134],[-87.691,55.191],[-87.687,55.271],[-87.74,55.32],[-87.777,55.319],[-87.81,55.293]]]}},{"type":"Feature","properties":{"density":2},"geometry":{"type":"Polygon","coordinates":[[[-89.912,51.785],[-89.969,51.811],[-90.007,51.808],[-90.036,51.782],[-90.035,51.72],[-89.996,51.646],[-89.833,51.496],[-89.761,51.381],[-89.729,51.359],[-89.716,51.384],[-89.732,51.454],[-89.844,51.703],[-89.912,51.785]]]}},{"type":"Feature","properties":{"density":2},"geometry":{"type":"Polygon","coordinates":[[[-97.967,57.248],[-98.062,57.224],[-98.068,57.184],[-98.031,57.161],[-97.752,57.17],[-97.539,57.158],[-97.387,57.195],[-97.292,57.23],[-97.276,57.251],[-97.282,57.268],[-97.315,57.277],[-97.471,57.283],[-97.798,57.248],[-97.967,57.248]]]}},{"type":"Feature","properties":{"density":2},"geometry":{"type":"Polygon","coordinates":[[[-98.286,57.335],[-98.32,57.326],[-98.316,57.303],[-98.193,57.293],[-97.965,57.306],[-97.931,57.31],[-97.918,57.33],[-97.968,57.348],[-98.096,57.355],[-98.286,57.335]]]}},{"type":"Feature","properties":{"density":2},"geometry":{"type":"Polygon","coordinates":[[[-98.829,57.567],[-98.88,57.538],[-98.89,57.497],[-98.863,57.452],[-98.737,57.425],[-98.438,57.49],[-97.913,57.544],[-97.888,57.584],[-97.902,57.6],[-97.967,57.605],[-98.829,57.567]]]}},{"type":"Feature","properties":{"density":2},"geometry":{"type":"Polygon","coordinates":[[[-98.436,58.095],[-98.475,58.089],[-98.51,58.055],[-98.48,58.024],[-98.169,57.998],[-97.832,58.02],[-97.78,58.028],[-97.769,58.046],[-97.789,58.088],[-97.854,58.098],[-98.436,58.095]]]}},{"type":"Feature","properties":{"density":2},"geometry":{"type":"Polygon","coordinates":[[[-97.873,57.904],[-97.903,57.9],[-97.915,57.876],[-97.902,57.851],[-97.744,57.842],[-97.076,57.858],[-97.023,57.883],[-97.014,57.908],[-97.02,57.929],[-97.053,57.94],[-97.113,57.94],[-97.489,57.903],[-97.873,57.904]]]}},{"type":"Feature","properties":{"density":2},"geometry":{"type":"Polygon","coordinates":[[[-98.106,59.175],[-98.146,59.168],[-98.142,59.146],[-97.861,59.121],[-97.66,59.08],[-97.594,59.079],[-97.545,59.103],[-97.55,59.127],[-97.594,59.164],[-97.667,59.188],[-97.843,59.197],[-98.106,59.175]]]}},{"type":"Feature","properties":{"density":2},"geometry":{"type":"Polygon","coordinates":[[[-99.128,59.272],[-99.178,59.261],[-99.178,59.246],[-98.969,59.217],[-98.92,59.217],[-98.87,59.245],[-98.928,59.271],[-99.128,59.272]]]}},{"type":"Feature","properties":{"density":2},"geometry":{"type":"Polygon","coordinates":[[[-100.965,59.431],[-100.991,59.42],[-101.013,59.379],[-101.013,59.335],[-100.991,59.291],[-100.947,59.264],[-100.837,59.251],[-100.486,59.269],[-100.058,59.341],[-99.999,59.365],[-99.951,59.407],[-99.953,59.429],[-99.984,59.449],[-100.161,59.473],[-100.763,59.477],[-100.903,59.464],[-100.965,59.431]]]}},{"type":"Feature","properties":{"density":2},"geometry":{"type":"Polygon","coordinates":[[[-99.868,59.739],[-99.907,59.734],[-99.925,59.708],[-99.913,59.69],[-99.872,59.668],[-99.775,59.659],[-99.587,59.664],[-99.251,59.71],[-99.211,59.727],[-99.194,59.754],[-99.27,59.771],[-99.652,59.785],[-99.839,59.762],[-99.868,59.739]]]}},{"type":"Feature","properties":{"density":2},"geometry":{"type":"Polygon","coordinates":[[[-100.987,59.78],[-101.04,59.756],[-101.064,59.714],[-101.074,59.653],[-101.053,59.604],[-100.989,59.55],[-100.916,59.526],[-100.811,59.53],[-100.629,59.567],[-100.162,59.727],[-100.102,59.751],[-100.072,59.785],[-100.067,59.818],[-100.216,59.85],[-100.313,59.848],[-100.837,59.822],[-100.987,59.78]]]}},{"type":"Feature","properties":{"density":2},"geometry":{"type":"Polygon","coordinates":[[[-99.696,59.992],[-99.721,59.962],[-99.712,59.94],[-99.619,59.927],[-99.594,59.954],[-99.609,59.991],[-99.696,59.992]]]}},{"type":"Feature","properties":{"density":2},"geometry":{"type":"Polygon","coordinates":[[[-103.953,61.591],[-104.011,61.644],[-104.264,61.712],[-104.38,61.671],[-104.449,61.597],[-104.485,61.514],[-104.468,61.44],[-104.383,61.313],[-104.239,61.26],[-103.98,61.225],[-103.848,61.225],[-103.774,61.258],[-103.743,61.351],[-103.768,61.459],[-103.953,61.591]]]}},{"type":"Feature","properties":{"density":2},"geometry":{"type":"Polygon","coordinates":[[[-108.668,60.543],[-108.767,60.554],[-108.826,60.541],[-108.856,60.493],[-108.838,60.46],[-108.635,60.41],[-108.553,60.412],[-108.495,60.446],[-108.496,60.499],[-108.523,60.52],[-108.573,60.541],[-108.668,60.543]]]}},{"type":"Feature","properties":{"density":2},"geometry":{"type":"Polygon","coordinates":[[[-110.561,60.585],[-110.689,60.588],[-110.752,60.51],[-110.746,60.456],[-110.701,60.416],[-110.611,60.405],[-110.342,60.394],[-110.182,60.368],[-110.153,60.386],[-110.153,60.43],[-110.267,60.488],[-110.433,60.554],[-110.561,60.585]]]}},{"type":"Feature","properties":{"density":2},"geometry":{"type":"Polygon","coordinates":[[[-117.704,66.04],[-117.75,66.023],[-117.87,65.894],[-118.004,65.682],[-118.041,65.527],[-117.994,65.485],[-117.935,65.484],[-117.818,65.653],[-117.643,65.798],[-117.602,65.853],[-117.575,65.914],[-117.57,65.973],[-117.616,66.033],[-117.704,66.04]]]}},{"type":"Feature","properties":{"density":2},"geometry":{"type":"Polygon","coordinates":[[[-105.835,36.931],[-105.884,36.892],[-106.113,36.804],[-106.201,36.73],[-106.174,36.699],[-105.906,36.763],[-105.755,36.823],[-105.708,36.867],[-105.719,36.931],[-105.766,36.95],[-105.835,36.931]]]}},{"type":"Feature","properties":{"density":2},"geometry":{"type":"Polygon","coordinates":[[[-104.305,38.452],[-104.41,38.433],[-104.556,38.375],[-104.848,38.209],[-105.107,38.025],[-105.107,37.981],[-105.071,37.961],[-104.674,38.03],[-104.404,38.149],[-104.3,38.234],[-104.245,38.306],[-104.234,38.361],[-104.305,38.452]]]}},{"type":"Feature","properties":{"density":2},"geometry":{"type":"Polygon","coordinates":[[[-64.538,53.67],[-61.839,53.262],[-61.179,53.262],[-60.018,53.481],[-59.076,53.795],[-58.009,54.078],[-56.754,54.046],[-55.467,53.764],[-53.803,53.544],[-51.417,53.544],[-49.722,53.67],[-48.404,53.952],[-46.772,53.921],[-46.584,53.795],[-46.646,53.23],[-47.4,52.854],[-48.781,52.446],[-50.162,51.975],[-51.794,51.253],[-52.799,50.719],[-53.834,49.997],[-55.027,49.087],[-56.0,48.396],[-56.973,47.674],[-58.637,46.701],[-59.265,46.45],[-61.054,46.105],[-62.874,45.697],[-64.726,45.258],[-66.296,44.787],[-67.614,44.065],[-68.367,44.002],[-69.215,44.316],[-70.062,44.504],[-70.659,44.693],[-71.946,44.598],[-73.201,44.253],[-75.807,42.841],[-76.466,42.37],[-77.282,42.025],[-77.789,41.865],[-78.354,42.032],[-78.898,42.346],[-79.359,42.807],[-79.84,43.413],[-80.259,44.146],[-80.698,45.422],[-80.97,46.029],[-81.389,47.075],[-82.121,48.059],[-82.832,48.54],[-83.711,48.875],[-84.611,49.001],[-85.532,49.063],[-86.432,49.063],[-87.666,49.315],[-88.754,49.628],[-90.219,49.9],[-90.68,50.193],[-90.994,50.654],[-91.328,51.072],[-91.621,51.784],[-91.831,52.202],[-91.852,52.872],[-92.082,53.416],[-92.479,54.274],[-92.814,54.902],[-93.191,55.488],[-93.651,55.927],[-94.153,56.346],[-95.555,56.66],[-96.037,56.869],[-96.56,56.911],[-97.481,56.743],[-98.422,56.513],[-100.494,55.906],[-101.247,55.802],[-102.022,55.446],[-104.658,54.693],[-106.332,54.002],[-107.379,53.542],[-108.446,52.977],[-109.45,52.684],[-110.978,52.349],[-111.857,52.035],[-112.777,51.847],[-113.405,51.7],[-113.97,51.7],[-115.079,51.951],[-116.816,53.165],[-117.779,53.604],[-118.155,53.835],[-119.097,54.546],[-119.725,54.985],[-120.457,55.655],[-121.022,56.283],[-121.608,57.204],[-121.734,57.204],[-122.048,57.769],[-122.466,58.689],[-122.926,59.505],[-123.471,60.635],[-124.224,61.765],[-124.831,62.289],[-125.312,62.812],[-125.71,63.544],[-126.003,64.653],[-126.149,65.386],[-126.086,66.16],[-125.563,67.311],[-124.977,68.127],[-124.329,68.859],[-123.052,69.613],[-122.069,70.178],[-120.792,70.701],[-119.767,70.868],[-118.553,71.14],[-117.423,71.245],[-112.045,71.098],[-110.266,70.973],[-108.55,70.764],[-107.274,70.554],[-105.412,69.843],[-105.16,69.466],[-104.679,68.964],[-104.302,68.504],[-103.717,67.855],[-102.859,67.332],[-101.729,67.018],[-100.201,66.788],[-95.242,66.474],[-91.768,66.202],[-89.989,66.306],[-88.273,66.495],[-86.897,66.61],[-85.453,66.233],[-82.503,64.224],[-79.992,61.87],[-78.987,60.552],[-77.857,59.265],[-76.916,57.758],[-75.44,56.597],[-73.62,56.032],[-71.36,55.561],[-69.131,55.247],[-67.279,54.933],[-65.396,54.148],[-64.957,53.991],[-64.538,53.67]]]}},{"type":"Feature","properties":{"density":2},"geometry":{"type":"Polygon","coordinates":[[[-105.213,47.604],[-105.244,47.949],[-104.805,49.079],[-104.051,49.864],[-102.513,50.837],[-100.661,51.559],[-98.841,51.967],[-97.397,52.218],[-95.514,51.998],[-94.038,51.465],[-93.159,50.523],[-92.28,49.142],[-92.061,47.824],[-92.029,46.568],[-92.532,45.658],[-93.348,44.559],[-95.451,43.147],[-97.02,42.55],[-98.495,41.828],[-99.563,41.483],[-100.85,40.887],[-102.074,40.384],[-103.361,39.757],[-104.554,39.129],[-105.684,38.407],[-106.688,37.936],[-107.473,37.465],[-108.822,36.994],[-109.482,36.994],[-110.455,37.246],[-110.925,37.685],[-110.957,38.344],[-110.706,38.846],[-110.109,39.725],[-109.199,40.51],[-107.63,41.452],[-107.002,41.985],[-106.249,43.178],[-105.746,44.277],[-105.527,45.469],[-105.495,46.756],[-105.213,47.604]]]}},{"type":"Feature","properties":{"density":2},"geometry":{"type":"Polygon","coordinates":[[[-111.651,34.897],[-112.055,34.818],[-112.125,35.027],[-111.846,35.32],[-110.995,35.767],[-110.577,36.06],[-110.019,36.297],[-109.586,36.436],[-109.237,36.646],[-108.693,36.855],[-107.996,36.925],[-107.494,36.813],[-107.396,36.618],[-107.759,36.241],[-108.205,35.92],[-108.972,35.516],[-109.642,35.265],[-110.019,35.153],[-110.46,35.102],[-110.828,35.111],[-111.4,34.981],[-111.651,34.897]]]}},{"type":"Feature","properties":{"density":2},"geometry":{"type":"Polygon","coordinates":[[[-111.922,34.954],[-111.975,35.033],[-111.984,35.144],[-111.967,35.285],[-111.93,35.413],[-111.835,35.558],[-111.727,35.628],[-111.608,35.686],[-111.355,35.727],[-111.256,35.768],[-110.942,36.0],[-110.739,36.12],[-110.562,36.203],[-110.483,36.223],[-110.388,36.236],[-110.277,36.215],[-110.136,36.099],[-110.082,36.025],[-110.02,35.822],[-110.029,35.582],[-110.082,35.487],[-110.186,35.421],[-110.425,35.351],[-110.921,35.322],[-111.107,35.343],[-111.359,35.301],[-111.657,35.161],[-111.748,35.029],[-111.756,34.962],[-111.785,34.909],[-111.864,34.896],[-111.901,34.913],[-111.922,34.954]]]}},{"type":"Feature","properties":{"density":2},"geometry":{"type":"Polygon","coordinates":[[[-105.107,38.079],[-105.01,38.193],[-104.813,38.337],[-104.117,38.932],[-104.03,38.983],[-103.913,39.0],[-103.812,38.967],[-103.764,38.886],[-103.751,38.831],[-103.77,38.766],[-103.825,38.702],[-104.141,38.447],[-104.501,38.191],[-104.846,37.986],[-104.986,37.942],[-105.043,37.942],[-105.092,37.969],[-105.116,38.021],[-105.107,38.079]]]}},{"type":"Feature","properties":{"density":2},"geometry":{"type":"Polygon","coordinates":[[[-111.941,34.965],[-111.982,35.035],[-111.949,35.271],[-111.846,35.556],[-111.682,35.792],[-111.451,35.957],[-110.839,36.445],[-110.43,36.689],[-110.089,36.792],[-109.878,36.833],[-109.659,36.734],[-109.564,36.585],[-109.498,36.383],[-109.506,36.23],[-109.554,36.114],[-109.636,35.986],[-109.965,35.8],[-110.316,35.692],[-110.752,35.585],[-111.052,35.478],[-111.42,35.209],[-111.56,35.126],[-111.635,35.044],[-111.813,34.899],[-111.928,34.932],[-111.941,34.965]]]}},{"type":"Feature","properties":{"density":2},"geometry":{"type":"Polygon","coordinates":[[[-112.072,34.924],[-112.337,35.304],[-112.504,36.45],[-112.308,37.655],[-111.554,39.162],[-110.095,40.48],[-108.824,41.233],[-107.223,42.41],[-106.234,43.587],[-105.528,45.377],[-105.104,47.024],[-104.633,48.767],[-103.315,50.414],[-101.667,51.592],[-99.35,52.541],[-97.524,52.627],[-95.499,52.345],[-93.71,51.78],[-92.486,50.838],[-91.591,49.614],[-91.262,48.531],[-91.12,47.072],[-91.403,46.177],[-92.344,44.67],[-93.427,43.54],[-94.604,42.881],[-96.817,41.987],[-98.607,41.327],[-100.137,40.636],[-101.055,40.056],[-102.326,39.162],[-103.88,38.126],[-105.687,36.704],[-106.752,36.101],[-107.817,35.341],[-109.059,34.783],[-110.519,34.547],[-111.46,34.547],[-111.79,34.689],[-112.072,34.924]]]}},{"type":"Feature","properties":{"density":2},"geometry":{"type":"Polygon","coordinates":[[[-127.01,66.175],[-127.01,67.493],[-126.257,68.843],[-125.252,70.224],[-123.024,71.417],[-119.736,71.699],[-116.063,71.558],[-113.591,71.629],[-111.119,71.629],[-108.577,71.488],[-105.752,71.417],[-102.009,70.64],[-98.266,69.793],[-96.429,68.945],[-93.534,65.908],[-92.898,64.849],[-92.686,63.789],[-92.898,63.436],[-93.746,62.589],[-94.946,62.165],[-96.147,61.6],[-97.065,60.894],[-97.065,60.258],[-96.924,59.834],[-95.864,59.34],[-94.946,59.34],[-93.534,59.175],[-91.768,58.916],[-90.214,58.846],[-88.096,58.987],[-85.271,58.987],[-81.316,58.281],[-79.621,57.504],[-77.149,56.656],[-75.046,55.722],[-73.413,55.252],[-71.248,55.032],[-64.907,54.498],[-61.399,54.043],[-58.574,54.043],[-56.103,54.114],[-53.136,54.255],[-50.806,54.538],[-48.969,54.961],[-46.992,55.314],[-45.085,55.173],[-44.167,54.891],[-43.461,54.184],[-43.602,53.619],[-44.238,52.843],[-45.156,52.136],[-46.607,51.352],[-48.193,50.3],[-50.876,49.311],[-52.289,48.464],[-54.478,47.969],[-57.021,47.334],[-58.998,47.051],[-60.976,46.416],[-62.953,45.851],[-65.213,45.427],[-67.049,45.286],[-68.321,45.144],[-69.835,45.521],[-71.405,45.333],[-72.488,44.862],[-73.971,44.297],[-75.242,44.65],[-76.443,44.933],[-78.491,45.851],[-79.974,46.839],[-81.033,47.263],[-82.94,48.464],[-84.635,49.241],[-86.966,49.947],[-88.731,50.088],[-90.144,49.664],[-90.497,49.453],[-91.768,49.099],[-93.267,48.942],[-95.307,49.005],[-97.348,49.225],[-98.76,50.018],[-99.466,50.724],[-100.863,51.454],[-101.993,51.579],[-103.563,51.501],[-105.352,51.046],[-107.447,50.018],[-108.577,49.241],[-110.625,48.464],[-112.744,48.534],[-114.58,49.099],[-116.558,50.072],[-118.535,51.571],[-120.089,53.196],[-122.702,56.586],[-123.871,58.547],[-124.679,59.693],[-125.503,60.431],[-126.1,61.624],[-126.508,63.13],[-126.884,64.386],[-127.073,65.422],[-127.01,66.175]]]}},{"type":"Feature","properties":{"density":2},"geometry":{"type":"Polygon","coordinates":[[[-81.173,27.556],[-81.207,27.506],[-81.221,27.449],[-81.226,27.26],[-81.185,27.216],[-81.141,27.214],[-81.113,27.258],[-81.113,27.342],[-81.133,27.524],[-81.15,27.551],[-81.173,27.556]]]}},{"type":"Feature","properties":{"density":2},"geometry":{"type":"Polygon","coordinates":[[[-80.295,26.227],[-80.37,26.249],[-80.487,26.245],[-80.519,26.228],[-80.535,26.172],[-80.521,26.144],[-80.425,26.124],[-80.334,26.154],[-80.294,26.196],[-80.295,26.227]]]}},{"type":"Feature","properties":{"density":2},"geometry":{"type":"Polygon","coordinates":[[[-112.653,34.854],[-113.072,35.608],[-113.218,36.675],[-113.218,38.098],[-112.685,39.236],[-111.858,40.107],[-110.017,40.965],[-108.447,41.258],[-105.387,42.72],[-104.351,43.567],[-103.739,44.839],[-103.739,46.063],[-104.586,47.381],[-105.387,48.135],[-106.611,48.135],[-107.411,47.381],[-107.411,46.628],[-107.788,46.016],[-108.4,45.498],[-109.153,45.121],[-110.378,44.933],[-111.884,45.074],[-114.05,45.969],[-115.321,46.957],[-116.216,47.993],[-117.723,49.5],[-118.962,50.681],[-119.951,51.717],[-120.845,52.8],[-121.678,53.69],[-122.431,55.291],[-123.42,56.845],[-124.894,59.015],[-125.915,60.988],[-126.715,62.966],[-127.296,64.759],[-127.531,65.889],[-127.375,67.439],[-126.81,69.228],[-125.868,70.17],[-124.644,71.158],[-123.655,71.394],[-121.065,71.77],[-117.77,71.676],[-114.662,71.347],[-112.167,71.3],[-109.389,70.923],[-105.669,70.028],[-103.692,70.075],[-101.479,70.17],[-99.501,70.028],[-98.513,69.981],[-96.441,69.463],[-94.793,68.239],[-94.04,67.533],[-93.804,66.78],[-93.663,65.414],[-93.475,65.226],[-93.192,65.037],[-90.555,65.461],[-87.778,64.99],[-84.293,63.672],[-83.671,63.099],[-83.482,62.262],[-83.964,61.593],[-85.219,61.362],[-86.977,61.258],[-90.508,61.459],[-91.968,61.742],[-95.682,61.676],[-97.477,61.695],[-98.496,61.595],[-99.258,61.474],[-99.974,61.269],[-100.244,60.73],[-100.142,60.423],[-99.863,60.172],[-99.044,59.846],[-97.919,59.539],[-95.38,59.279],[-93.78,59.186],[-92.385,59.047],[-88.908,58.587],[-87.086,58.509],[-84.471,58.949],[-83.341,59.66],[-82.022,59.911],[-81.143,59.765],[-80.16,59.305],[-79.469,58.761],[-78.674,58.07],[-77.565,57.275],[-76.456,56.563],[-74.83,55.715],[-72.449,55.161],[-68.937,54.394],[-67.402,54.003],[-65.978,53.879],[-64.33,54.02],[-63.294,54.302],[-61.929,54.491],[-60.14,54.397],[-58.774,54.397],[-57.173,54.255],[-55.102,54.444],[-53.595,54.538],[-51.005,54.773],[-48.887,54.632],[-47.05,54.02],[-46.533,53.69],[-46.627,53.031],[-46.627,52.702],[-48.322,51.666],[-50.205,50.677],[-51.853,49.924],[-52.559,49.453],[-55.808,48.087],[-56.844,47.758],[-58.068,47.24],[-59.386,46.722],[-61.552,45.969],[-64.283,44.274],[-65.178,42.861],[-65.319,41.872],[-65.585,41.123],[-65.978,40.695],[-67.485,39.989],[-68.756,39.565],[-70.498,39.895],[-72.193,40.601],[-75.442,43.05],[-76.948,43.944],[-78.298,45.047],[-79.616,45.863],[-81.311,46.868],[-82.693,47.852],[-83.917,48.464],[-85.518,48.888],[-87.118,48.982],[-88.39,48.982],[-89.692,48.814],[-90.979,48.323],[-92.298,47.475],[-93.522,46.204],[-94.934,43.897],[-96.111,42.485],[-96.629,41.355],[-97.419,40.253],[-98.607,39.236],[-99.925,38.53],[-102.044,37.177],[-103.843,36.005],[-104.994,35.503],[-106.459,34.645],[-107.631,34.164],[-108.928,33.808],[-110.958,33.913],[-111.9,34.289],[-112.653,34.854]]]}},{"type":"Feature","properties":{"density":2},"geometry":{"type":"Polygon","coordinates":[[[-81.171,27.551],[-81.236,27.497],[-81.248,27.432],[-81.241,27.266],[-81.235,27.221],[-81.187,27.144],[-81.135,27.134],[-81.094,27.199],[-81.089,27.272],[-81.133,27.525],[-81.171,27.551]]]}},{"type":"Feature","properties":{"density":2},"geometry":{"type":"Polygon","coordinates":[[[-80.31,26.232],[-80.481,26.217],[-80.521,26.199],[-80.54,26.181],[-80.544,26.119],[-80.516,26.088],[-80.474,26.082],[-80.398,26.104],[-80.298,26.186],[-80.291,26.218],[-80.31,26.232]]]}},{"type":"Feature","properties":{"density":2},"geometry":{"type":"Polygon","coordinates":[[[-84.936,30.427],[-85.019,30.171],[-85.018,30.123],[-84.974,30.092],[-84.896,30.085],[-84.836,30.117],[-84.805,30.171],[-84.797,30.255],[-84.881,30.403],[-84.906,30.429],[-84.936,30.427]]]}},{"type":"Feature","properties":{"density":2},"geometry":{"type":"Polygon","coordinates":[[[-118.936,46.059],[-118.883,46.183],[-118.701,46.395],[-118.561,46.621],[-118.316,46.855],[-117.745,47.233],[-117.61,47.271],[-117.508,47.263],[-117.423,47.222],[-117.381,47.125],[-117.39,47.046],[-117.461,46.941],[-117.657,46.806],[-117.861,46.635],[-118.101,46.475],[-118.591,46.018],[-118.726,45.938],[-118.859,45.935],[-118.947,46.009],[-118.936,46.059]]]}},{"type":"Feature","properties":{"density":3},"geometry":{"type":"Polygon","coordinates":[[[-62.671,54.274],[-62.728,54.299],[-62.786,54.299],[-62.785,54.267],[-62.742,54.22],[-62.706,54.122],[-62.533,53.992],[-62.438,53.878],[-62.266,53.816],[-62.215,53.833],[-62.215,53.876],[-62.253,53.951],[-62.259,54.055],[-62.292,54.131],[-62.464,54.267],[-62.671,54.274]]]}},{"type":"Feature","properties":{"density":3},"geometry":{"type":"Polygon","coordinates":[[[-61.473,55.377],[-61.574,55.404],[-61.591,55.371],[-61.422,55.179],[-61.347,55.13],[-61.281,55.061],[-61.24,55.045],[-61.226,55.067],[-61.254,55.236],[-61.367,55.33],[-61.473,55.377]]]}},{"type":"Feature","properties":{"density":3},"geometry":{"type":"Polygon","coordinates":[[[-60.984,55.115],[-61.023,55.144],[-61.045,55.141],[-61.034,55.099],[-60.955,55.008],[-60.852,54.835],[-60.791,54.803],[-60.644,54.797],[-60.582,54.83],[-60.583,54.87],[-60.627,54.91],[-60.862,55.001],[-60.984,55.115]]]}},{"type":"Feature","properties":{"density":3},"geometry":{"type":"Polygon","coordinates":[[[-65.702,53.55],[-65.758,53.563],[-65.792,53.529],[-65.75,53.449],[-65.685,53.395],[-65.592,53.39],[-65.587,53.446],[-65.619,53.504],[-65.702,53.55]]]}},{"type":"Feature","properties":{"density":3},"geometry":{"type":"Polygon","coordinates":[[[-65.533,53.509],[-65.57,53.53],[-65.598,53.497],[-65.564,53.407],[-65.445,53.301],[-65.412,53.295],[-65.382,53.311],[-65.36,53.339],[-65.363,53.418],[-65.533,53.509]]]}},{"type":"Feature","properties":{"density":3},"geometry":{"type":"Polygon","coordinates":[[[-66.087,52.478],[-66.138,52.459],[-66.143,52.443],[-66.101,52.426],[-66.053,52.436],[-66.023,52.464],[-66.042,52.481],[-66.087,52.478]]]}},{"type":"Feature","properties":{"density":3},"geometry":{"type":"Polygon","coordinates":[[[-66.028,52.406],[-66.115,52.395],[-66.112,52.339],[-65.922,52.265],[-65.875,52.265],[-65.85,52.286],[-65.849,52.317],[-65.869,52.341],[-65.98,52.399],[-66.028,52.406]]]}},{"type":"Feature","properties":{"density":3},"geometry":{"type":"Polygon","coordinates":[[[-68.985,52.08],[-69.034,52.056],[-69.051,52.03],[-69.054,51.974],[-69.024,51.938],[-68.934,51.893],[-68.797,51.899],[-68.758,51.996],[-68.808,52.063],[-68.858,52.07],[-68.909,52.031],[-68.933,52.074],[-68.985,52.08]]]}},{"type":"Feature","properties":{"density":3},"geometry":{"type":"Polygon","coordinates":[[[-69.665,52.383],[-69.754,52.369],[-69.8,52.33],[-69.789,52.238],[-69.71,52.005],[-69.634,51.906],[-69.57,51.869],[-69.432,51.854],[-69.384,51.893],[-69.359,51.972],[-69.355,52.055],[-69.434,52.196],[-69.57,52.343],[-69.665,52.383]]]}},{"type":"Feature","properties":{"density":3},"geometry":{"type":"Polygon","coordinates":[[[-74.149,51.868],[-74.189,51.86],[-74.198,51.813],[-74.133,51.815],[-73.833,51.897],[-73.796,51.909],[-73.779,51.939],[-73.798,51.953],[-73.865,51.949],[-74.004,51.922],[-74.149,51.868]]]}},{"type":"Feature","properties":{"density":3},"geometry":{"type":"Polygon","coordinates":[[[-87.075,55.483],[-87.119,55.468],[-87.126,55.445],[-87.113,55.262],[-87.092,55.207],[-87.055,55.235],[-87.043,55.333],[-86.963,55.466],[-86.983,55.506],[-87.075,55.483]]]}},{"type":"Feature","properties":{"density":3},"geometry":{"type":"Polygon","coordinates":[[[-88.925,52.093],[-89.01,52.081],[-89.034,52.024],[-88.849,51.722],[-88.813,51.695],[-88.776,51.694],[-88.756,51.716],[-88.754,51.759],[-88.818,51.884],[-88.843,52.005],[-88.879,52.065],[-88.925,52.093]]]}},{"type":"Feature","properties":{"density":3},"geometry":{"type":"Polygon","coordinates":[[[-97.741,59.181],[-97.82,59.162],[-97.813,59.15],[-97.649,59.136],[-97.597,59.149],[-97.617,59.178],[-97.741,59.181]]]}},{"type":"Feature","properties":{"density":3},"geometry":{"type":"Polygon","coordinates":[[[-100.504,59.423],[-100.548,59.401],[-100.551,59.352],[-100.434,59.328],[-100.02,59.36],[-99.99,59.373],[-99.978,59.401],[-99.986,59.422],[-100.015,59.432],[-100.133,59.447],[-100.361,59.443],[-100.504,59.423]]]}},{"type":"Feature","properties":{"density":3},"geometry":{"type":"Polygon","coordinates":[[[-104.179,61.411],[-104.179,61.38],[-104.146,61.33],[-104.09,61.288],[-103.921,61.235],[-103.837,61.233],[-103.771,61.29],[-103.762,61.33],[-103.78,61.385],[-103.859,61.422],[-103.978,61.508],[-104.028,61.514],[-104.111,61.492],[-104.179,61.411]]]}},{"type":"Feature","properties":{"density":3},"geometry":{"type":"Polygon","coordinates":[[[-110.344,60.455],[-110.382,60.451],[-110.387,60.435],[-110.365,60.41],[-110.262,60.373],[-110.172,60.375],[-110.172,60.401],[-110.224,60.44],[-110.344,60.455]]]}},{"type":"Feature","properties":{"density":3},"geometry":{"type":"Polygon","coordinates":[[[-113.821,59.063],[-113.864,59.126],[-113.919,59.155],[-113.963,59.14],[-114.242,58.833],[-114.431,58.687],[-114.433,58.641],[-114.406,58.596],[-114.205,58.589],[-114.016,58.631],[-113.849,58.699],[-113.728,58.771],[-113.636,58.857],[-113.583,58.98],[-113.594,59.019],[-113.821,59.063]]]}},{"type":"Feature","properties":{"density":3},"geometry":{"type":"Polygon","coordinates":[[[-114.382,60.696],[-114.406,60.764],[-114.448,60.808],[-114.518,60.827],[-114.551,60.792],[-114.554,60.706],[-114.509,60.551],[-114.369,60.417],[-114.301,60.32],[-114.2,60.083],[-114.128,60.033],[-114.036,60.009],[-113.917,60.02],[-113.832,60.055],[-113.753,60.112],[-113.739,60.18],[-113.781,60.274],[-114.141,60.483],[-114.382,60.696]]]}},{"type":"Feature","properties":{"density":3},"geometry":{"type":"Polygon","coordinates":[[[-113.085,60.412],[-113.083,60.294],[-113.057,60.221],[-112.984,60.116],[-112.892,60.096],[-112.859,60.119],[-112.851,60.156],[-112.872,60.198],[-112.94,60.27],[-113.002,60.408],[-113.054,60.467],[-113.085,60.467],[-113.085,60.412]]]}},{"type":"Feature","properties":{"density":3},"geometry":{"type":"Polygon","coordinates":[[[-113.555,60.615],[-113.607,60.639],[-113.641,60.592],[-113.638,60.485],[-113.474,60.261],[-113.452,60.208],[-113.401,60.158],[-113.335,60.165],[-113.302,60.2],[-113.287,60.265],[-113.305,60.334],[-113.555,60.615]]]}},{"type":"Feature","properties":{"density":3},"geometry":{"type":"Polygon","coordinates":[[[-111.127,35.622],[-111.43,35.487],[-111.532,35.423],[-111.689,35.286],[-111.88,35.093],[-111.929,34.999],[-111.902,34.944],[-111.863,34.925],[-111.791,34.955],[-111.684,35.076],[-111.439,35.195],[-111.257,35.228],[-111.05,35.228],[-110.496,35.291],[-110.356,35.31],[-110.257,35.352],[-110.287,35.418],[-110.364,35.479],[-110.488,35.528],[-110.868,35.603],[-111.127,35.622]]]}},{"type":"Feature","properties":{"density":3},"geometry":{"type":"Polygon","coordinates":[[[-109.385,38.229],[-109.534,38.158],[-109.793,37.984],[-109.884,37.888],[-109.92,37.819],[-109.917,37.742],[-109.851,37.709],[-109.78,37.706],[-109.697,37.731],[-109.592,37.783],[-109.493,37.874],[-109.339,37.943],[-109.256,38.001],[-109.217,38.083],[-109.228,38.149],[-109.272,38.191],[-109.385,38.229]]]}},{"type":"Feature","properties":{"density":3},"geometry":{"type":"Polygon","coordinates":[[[-108.487,37.907],[-108.647,37.841],[-108.724,37.725],[-108.727,37.681],[-108.641,37.653],[-108.504,37.742],[-108.454,37.857],[-108.487,37.907]]]}},{"type":"Feature","properties":{"density":3},"geometry":{"type":"Polygon","coordinates":[[[-107.531,38.205],[-107.696,38.125],[-107.718,38.075],[-107.694,38.028],[-107.649,38.02],[-107.597,38.036],[-107.509,38.094],[-107.501,38.169],[-107.531,38.205]]]}},{"type":"Feature","properties":{"density":3},"geometry":{"type":"Polygon","coordinates":[[[-104.877,38.129],[-104.964,38.103],[-105.043,38.053],[-105.087,38.009],[-105.079,37.988],[-105.053,37.979],[-104.995,37.993],[-104.831,38.071],[-104.826,38.098],[-104.845,38.125],[-104.877,38.129]]]}},{"type":"Feature","properties":{"density":3},"geometry":{"type":"Polygon","coordinates":[[[-106.054,59.168],[-106.514,59.294],[-107.03,59.503],[-107.435,59.587],[-107.867,59.643],[-108.286,59.587],[-108.495,59.433],[-108.746,58.931],[-108.955,57.843],[-109.109,57.411],[-109.457,56.727],[-110.336,56.03],[-111.285,55.569],[-111.466,55.346],[-111.81,55.146],[-112.248,55.025],[-113.099,54.9],[-113.712,54.732],[-113.908,54.565],[-114.508,54.365],[-115.233,54.369],[-115.986,54.328],[-116.098,54.202],[-116.21,53.797],[-115.847,52.905],[-115.373,52.444],[-115.191,52.235],[-114.647,51.97],[-114.173,52.026],[-113.657,52.235],[-113.224,52.64],[-112.275,52.835],[-111.843,53.03],[-111.076,53.072],[-110.657,53.421],[-110.225,53.616],[-109.82,53.63],[-109.067,53.505],[-108.537,53.616],[-107.797,53.909],[-107.239,54.411],[-106.319,54.886],[-105.719,55.039],[-105.356,55.22],[-104.477,55.499],[-103.501,55.709],[-102.733,55.834],[-102.273,56.085],[-101.408,56.35],[-100.641,56.476],[-100.208,56.685],[-99.985,56.964],[-99.887,57.341],[-99.957,57.927],[-100.25,58.29],[-100.71,58.485],[-102.454,58.875],[-103.236,58.931],[-103.808,58.903],[-104.617,58.834],[-105.244,58.945],[-105.537,58.959],[-106.054,59.168]]]}},{"type":"Feature","properties":{"density":3},"geometry":{"type":"Polygon","coordinates":[[[-72.755,54.851],[-73.362,54.537],[-74.094,54.097],[-74.408,53.742],[-74.429,53.26],[-73.927,52.654],[-73.236,52.235],[-72.462,51.586],[-71.646,51.21],[-71.081,51.189],[-69.176,51.272],[-68.067,51.461],[-67.147,51.67],[-66.644,51.921],[-66.414,52.654],[-66.582,53.344],[-67.042,53.867],[-67.649,54.244],[-68.339,54.516],[-69.658,54.767],[-70.097,54.704],[-70.704,54.683],[-71.269,54.788],[-71.771,54.997],[-72.211,55.039],[-72.504,54.976],[-72.755,54.851]]]}},{"type":"Feature","properties":{"density":3},"geometry":{"type":"Polygon","coordinates":[[[-111.882,34.963],[-111.935,35.027],[-111.932,35.065],[-111.881,35.238],[-111.814,35.385],[-111.687,35.481],[-111.422,35.594],[-111.298,35.605],[-111.232,35.589],[-111.205,35.537],[-111.199,35.484],[-111.21,35.473],[-111.618,35.239],[-111.766,35.105],[-111.794,34.963],[-111.863,34.947],[-111.882,34.963]]]}},{"type":"Feature","properties":{"density":3},"geometry":{"type":"Polygon","coordinates":[[[-109.898,37.838],[-109.829,37.926],[-109.614,38.125],[-109.077,38.513],[-108.934,38.574],[-108.873,38.554],[-108.826,38.508],[-108.81,38.458],[-108.832,38.389],[-108.895,38.334],[-109.375,38.031],[-109.722,37.733],[-109.771,37.703],[-109.862,37.722],[-109.895,37.747],[-109.912,37.827],[-109.898,37.838]]]}},{"type":"Feature","properties":{"density":3},"geometry":{"type":"Polygon","coordinates":[[[-108.738,37.692],[-108.719,37.783],[-108.463,38.158],[-108.17,38.419],[-108.019,38.474],[-107.961,38.439],[-107.958,38.339],[-108.327,38.031],[-108.457,37.901],[-108.589,37.678],[-108.691,37.634],[-108.722,37.642],[-108.738,37.692]]]}},{"type":"Feature","properties":{"density":3},"geometry":{"type":"Polygon","coordinates":[[[-107.688,38.034],[-107.718,38.1],[-107.702,38.169],[-107.639,38.254],[-107.322,38.392],[-107.143,38.439],[-107.118,38.375],[-107.176,38.331],[-107.537,38.185],[-107.636,38.009],[-107.688,38.034]]]}},{"type":"Feature","properties":{"density":3},"geometry":{"type":"Polygon","coordinates":[[[-105.086,38.024],[-105.053,38.136],[-105.005,38.177],[-104.555,38.421],[-104.075,38.772],[-104.007,38.792],[-103.98,38.777],[-103.967,38.689],[-104.02,38.627],[-104.222,38.5],[-104.581,38.228],[-104.838,38.094],[-104.935,38.066],[-104.99,37.998],[-105.022,37.984],[-105.071,37.984],[-105.086,38.024]]]}},{"type":"Feature","properties":{"density":3},"geometry":{"type":"Polygon","coordinates":[[[-109.231,59.624],[-109.544,59.498],[-109.775,59.31],[-109.837,58.703],[-109.837,58.263],[-109.607,57.385],[-109.607,56.945],[-109.67,56.631],[-109.712,56.631],[-109.817,56.589],[-109.9,56.673],[-110.068,57.112],[-110.151,57.594],[-110.361,57.97],[-110.695,58.347],[-111.456,59.093],[-111.846,59.191],[-112.237,58.968],[-112.432,58.452],[-112.432,58.242],[-112.244,57.74],[-111.951,57.426],[-111.658,57.217],[-111.428,56.924],[-111.323,56.652],[-111.281,56.38],[-111.281,56.171],[-111.386,55.962],[-111.763,55.627],[-112.139,55.417],[-112.474,55.271],[-113.374,54.978],[-114.399,54.79],[-115.139,54.713],[-116.018,54.434],[-116.45,54.071],[-116.659,53.639],[-116.534,53.074],[-116.297,52.676],[-115.641,52.202],[-114.762,51.895],[-113.855,51.909],[-112.056,52.341],[-111.302,52.634],[-110.716,52.997],[-110.228,53.43],[-109.851,53.96],[-109.482,54.434],[-109.0,54.811],[-108.394,55.104],[-107.724,55.355],[-106.726,55.62],[-106.182,55.69],[-105.694,55.773],[-105.192,55.829],[-103.881,56.08],[-103.392,56.248],[-102.681,56.415],[-101.9,56.638],[-101.551,56.708],[-101.035,56.889],[-100.644,57.168],[-100.449,57.698],[-100.504,58.145],[-100.937,58.605],[-101.369,58.954],[-102.158,59.331],[-102.639,59.372],[-102.89,59.372],[-103.706,59.184],[-104.167,59.163],[-104.752,59.268],[-105.359,59.352],[-105.966,59.477],[-106.489,59.47],[-107.243,59.519],[-108.456,59.665],[-109.0,59.624],[-109.231,59.624]]]}},{"type":"Feature","properties":{"density":3},"geometry":{"type":"Polygon","coordinates":[[[-113.982,60.046],[-114.144,60.06],[-114.183,60.096],[-114.657,60.179],[-114.905,60.3],[-115.015,60.44],[-115.054,60.548],[-115.024,60.727],[-114.999,60.744],[-114.927,60.752],[-114.842,60.683],[-114.784,60.611],[-114.602,60.534],[-114.566,60.545],[-114.555,60.777],[-114.519,60.846],[-114.31,60.942],[-114.092,60.947],[-113.586,60.89],[-113.425,60.821],[-113.343,60.752],[-113.13,60.462],[-113.086,60.352],[-113.009,60.239],[-112.918,60.184],[-112.893,60.124],[-112.899,60.107],[-112.949,60.096],[-113.158,60.176],[-113.26,60.168],[-113.315,60.135],[-113.398,60.124],[-113.546,60.253],[-113.648,60.294],[-113.717,60.3],[-113.852,60.253],[-113.883,60.203],[-113.883,60.088],[-113.902,60.052],[-113.982,60.046]]]}},{"type":"Feature","properties":{"density":3},"geometry":{"type":"Polygon","coordinates":[[[-115.594,64.668],[-115.879,64.81],[-116.114,64.86],[-116.28,64.831],[-116.4,64.742],[-116.567,64.562],[-116.877,64.482],[-117.1,64.506],[-117.516,64.742],[-117.714,64.922],[-118.005,65.052],[-118.154,65.102],[-118.291,65.126],[-118.464,65.064],[-118.663,64.94],[-118.948,64.909],[-119.159,64.928],[-119.345,65.021],[-119.593,65.182],[-119.735,65.356],[-119.835,65.548],[-119.841,65.895],[-119.791,66.05],[-119.686,66.23],[-119.215,66.422],[-118.929,66.453],[-118.601,66.385],[-118.353,66.367],[-118.179,66.416],[-117.95,66.509],[-117.578,66.708],[-117.379,66.763],[-117.069,66.794],[-116.741,66.801],[-116.542,66.745],[-115.953,66.497],[-115.761,66.391],[-115.457,66.143],[-115.315,65.995],[-115.191,65.722],[-115.147,65.53],[-115.122,65.281],[-115.166,65.021],[-115.222,64.798],[-115.327,64.668],[-115.401,64.637],[-115.482,64.637],[-115.594,64.668]]]}},{"type":"Feature","properties":{"density":3},"geometry":{"type":"Polygon","coordinates":[[[-113.701,59.041],[-113.852,59.03],[-114.003,58.962],[-114.612,58.553],[-114.664,58.512],[-114.688,58.452],[-114.666,58.419],[-114.601,58.385],[-114.522,58.393],[-114.271,58.499],[-113.642,58.893],[-113.609,58.961],[-113.611,58.995],[-113.648,59.028],[-113.701,59.041]]]}},{"type":"Feature","properties":{"density":3},"geometry":{"type":"Polygon","coordinates":[[[-103.877,61.275],[-104.309,61.275],[-104.531,61.304],[-104.64,61.33],[-104.72,61.379],[-104.768,61.431],[-104.774,61.469],[-104.753,61.545],[-104.651,61.559],[-104.292,61.468],[-103.875,61.423],[-103.794,61.385],[-103.78,61.328],[-103.787,61.299],[-103.809,61.284],[-103.877,61.275]]]}},{"type":"Feature","properties":{"density":3},"geometry":{"type":"Polygon","coordinates":[[[-99.964,59.404],[-100.025,59.434],[-100.333,59.478],[-100.697,59.486],[-100.829,59.467],[-100.846,59.426],[-100.835,59.404],[-100.78,59.376],[-100.625,59.368],[-99.964,59.357],[-99.945,59.379],[-99.964,59.404]]]}},{"type":"Feature","properties":{"density":3},"geometry":{"type":"Polygon","coordinates":[[[-100.121,59.798],[-100.251,59.822],[-100.413,59.828],[-100.686,59.809],[-100.716,59.773],[-100.719,59.737],[-100.7,59.718],[-100.573,59.701],[-100.328,59.715],[-100.113,59.748],[-100.121,59.798]]]}},{"type":"Feature","properties":{"density":3},"geometry":{"type":"Polygon","coordinates":[[[-97.655,59.186],[-97.768,59.202],[-98.068,59.189],[-98.14,59.161],[-98.151,59.122],[-98.046,59.095],[-97.605,59.136],[-97.613,59.178],[-97.655,59.186]]]}},{"type":"Feature","properties":{"density":3},"geometry":{"type":"Polygon","coordinates":[[[-77.306,55.219],[-76.878,55.256],[-75.978,54.88],[-74.367,53.854],[-73.865,53.603],[-73.425,53.603],[-73.3,53.771],[-72.972,54.289],[-72.73,54.559],[-72.316,54.775],[-71.81,54.866],[-71.103,54.859],[-70.412,54.712],[-68.843,54.001],[-67.587,53.52],[-66.992,53.22],[-66.394,52.892],[-65.515,52.18],[-64.992,51.783],[-64.465,51.497],[-63.737,51.071],[-63.067,50.862],[-62.46,50.778],[-62.125,50.632],[-61.707,50.318],[-61.707,49.983],[-61.77,49.837],[-61.812,49.69],[-62.119,49.332],[-62.546,49.072],[-62.956,48.709],[-63.281,48.458],[-63.681,48.104],[-64.053,47.872],[-64.741,47.305],[-65.097,46.991],[-65.495,46.907],[-66.039,46.677],[-66.541,46.593],[-67.964,46.865],[-68.654,47.074],[-69.994,47.786],[-70.58,48.435],[-71.207,48.979],[-71.94,49.795],[-72.463,50.443],[-73.019,50.662],[-73.456,50.792],[-73.99,50.883],[-75.56,51.092],[-76.397,51.343],[-77.241,51.648],[-77.925,51.992],[-78.459,52.29],[-78.915,52.857],[-79.055,53.457],[-78.929,53.959],[-78.448,54.545],[-77.687,55.098],[-77.306,55.219]]]}},{"type":"Feature","properties":{"density":3},"geometry":{"type":"Polygon","coordinates":[[[-56.429,51.978],[-55.927,52.271],[-54.567,52.794],[-53.541,52.92],[-52.411,53.15],[-51.407,53.108],[-50.988,52.962],[-50.925,52.794],[-50.967,52.543],[-51.846,52.083],[-53.039,51.685],[-54.19,51.518],[-54.901,51.308],[-55.571,51.225],[-56.136,51.204],[-56.617,51.288],[-56.743,51.58],[-56.638,51.769],[-56.513,51.936],[-56.429,51.978]]]}},{"type":"Feature","properties":{"density":3},"geometry":{"type":"Polygon","coordinates":[[[-105.113,38.045],[-104.973,38.203],[-104.787,38.351],[-103.712,39.099],[-103.27,39.451],[-103.034,39.546],[-102.831,39.554],[-102.761,39.509],[-102.724,39.414],[-102.736,39.335],[-102.803,39.257],[-103.133,39.104],[-103.733,38.645],[-104.303,38.182],[-104.415,38.12],[-104.687,38.058],[-104.973,37.967],[-105.101,37.95],[-105.117,37.971],[-105.113,38.045]]]}},{"type":"Feature","properties":{"density":3},"geometry":{"type":"Polygon","coordinates":[[[-107.72,38.095],[-107.72,38.152],[-107.681,38.227],[-107.568,38.31],[-106.763,38.755],[-106.697,38.768],[-106.653,38.751],[-106.629,38.693],[-106.629,38.65],[-106.653,38.625],[-106.748,38.568],[-107.0,38.459],[-107.555,38.163],[-107.593,38.122],[-107.637,38.031],[-107.672,38.018],[-107.694,38.028],[-107.72,38.095]]]}},{"type":"Feature","properties":{"density":3},"geometry":{"type":"Polygon","coordinates":[[[-108.664,37.639],[-108.716,37.658],[-108.734,37.702],[-108.73,37.783],[-108.688,37.887],[-108.64,37.974],[-108.438,38.179],[-108.31,38.275],[-108.076,38.416],[-107.878,38.512],[-107.79,38.512],[-107.744,38.484],[-107.729,38.448],[-107.735,38.402],[-108.172,38.128],[-108.525,37.808],[-108.563,37.709],[-108.622,37.645],[-108.664,37.639]]]}},{"type":"Feature","properties":{"density":3},"geometry":{"type":"Polygon","coordinates":[[[-109.873,37.765],[-109.887,37.79],[-109.887,37.864],[-109.809,38.104],[-109.738,38.201],[-109.589,38.325],[-108.983,38.713],[-108.564,38.928],[-108.492,38.942],[-108.418,38.925],[-108.371,38.867],[-108.36,38.81],[-108.379,38.749],[-108.845,38.44],[-108.9,38.382],[-108.958,38.278],[-109.09,38.134],[-109.228,38.071],[-109.291,38.019],[-109.338,37.95],[-109.404,37.917],[-109.548,37.889],[-109.666,37.754],[-109.719,37.724],[-109.848,37.718],[-109.895,37.779],[-109.873,37.765]]]}},{"type":"Feature","properties":{"density":3},"geometry":{"type":"Polygon","coordinates":[[[-111.872,34.954],[-111.908,34.987],[-111.919,35.152],[-111.869,35.285],[-111.616,35.72],[-111.489,35.833],[-111.104,36.111],[-110.971,36.166],[-110.897,36.15],[-110.867,36.1],[-110.858,36.028],[-110.98,35.747],[-111.203,35.488],[-111.277,35.422],[-111.365,35.375],[-111.733,35.116],[-111.765,35.039],[-111.773,34.973],[-111.823,34.937],[-111.872,34.954]]]}},{"type":"Feature","properties":{"density":3},"geometry":{"type":"Polygon","coordinates":[[[-97.676,59.227],[-98.387,59.708],[-99.12,59.96],[-99.601,60.148],[-100.229,60.357],[-100.961,60.525],[-102.091,60.692],[-102.447,60.797],[-103.368,60.713],[-103.828,60.483],[-104.707,60.19],[-105.691,60.022],[-106.444,59.918],[-106.988,59.98],[-108.557,60.504],[-109.164,60.859],[-109.897,61.152],[-110.504,61.299],[-111.445,61.341],[-112.219,61.11],[-112.764,60.901],[-113.287,60.88],[-113.81,61.173],[-114.563,61.655],[-115.233,62.157],[-115.944,62.345],[-116.551,62.282],[-117.158,62.115],[-117.995,61.759],[-118.707,61.173],[-119.209,59.918],[-119.251,59.018],[-119.251,57.951],[-118.811,56.507],[-118.225,55.419],[-117.723,54.77],[-117.2,53.933],[-116.656,53.284],[-116.07,52.51],[-115.672,51.924],[-115.463,51.317],[-115.296,50.982],[-114.898,50.606],[-114.521,50.313],[-113.81,50.187],[-113.203,50.145],[-112.533,50.396],[-112.282,50.752],[-112.157,51.171],[-112.01,51.798],[-111.759,52.489],[-111.508,53.075],[-111.006,53.535],[-110.169,54.017],[-109.164,54.372],[-108.578,54.603],[-107.762,54.707],[-106.841,54.728],[-104.435,55.0],[-101.924,55.649],[-100.145,55.921],[-98.952,56.172],[-98.032,56.59],[-97.467,56.967],[-97.048,57.386],[-96.776,57.867],[-96.734,58.181],[-96.797,58.432],[-97.069,58.767],[-97.299,58.976],[-97.676,59.227]]]}},{"type":"Feature","properties":{"density":3},"geometry":{"type":"Polygon","coordinates":[[[-109.665,63.107],[-109.72,63.192],[-110.338,63.852],[-110.491,63.914],[-110.574,63.889],[-110.66,63.835],[-110.706,63.715],[-110.718,63.633],[-110.706,63.509],[-110.652,63.389],[-110.545,63.302],[-110.412,63.228],[-109.896,63.137],[-109.737,63.05],[-109.672,63.07],[-109.665,63.107]]]}},{"type":"Feature","properties":{"density":3},"geometry":{"type":"Polygon","coordinates":[[[-115.66,64.731],[-115.921,64.88],[-116.283,65.038],[-116.609,65.075],[-116.823,65.075],[-117.009,65.01],[-117.223,64.982],[-117.465,64.982],[-117.827,65.029],[-118.069,65.187],[-118.227,65.401],[-118.339,65.457],[-118.515,65.503],[-118.683,65.401],[-118.783,65.279],[-118.85,65.131],[-118.901,65.08],[-119.006,65.037],[-119.192,65.049],[-119.455,65.122],[-119.799,65.336],[-119.929,65.447],[-120.031,65.568],[-120.134,65.736],[-120.217,65.94],[-120.292,66.228],[-120.315,66.494],[-120.259,66.736],[-120.059,67.038],[-119.687,67.317],[-119.385,67.492],[-119.129,67.698],[-118.907,67.753],[-118.61,67.784],[-118.171,67.679],[-117.71,67.604],[-117.186,67.54],[-116.944,67.558],[-116.693,67.549],[-116.237,67.456],[-115.912,67.368],[-115.67,67.233],[-115.539,67.01],[-115.521,66.852],[-115.584,66.401],[-115.642,66.228],[-115.67,66.005],[-115.67,65.829],[-115.652,65.696],[-115.54,65.436],[-115.441,65.304],[-115.334,65.023],[-115.325,64.759],[-115.409,64.638],[-115.539,64.647],[-115.66,64.731]]]}},{"type":"Feature","properties":{"density":3},"geometry":{"type":"Polygon","coordinates":[[[-76.343,55.118],[-75.882,55.076],[-73.853,54.637],[-72.827,54.448],[-72.116,54.281],[-70.274,53.967],[-69.249,53.82],[-68.454,53.82],[-67.366,53.59],[-66.466,53.297],[-65.608,52.921],[-64.499,52.272],[-63.662,51.853],[-62.783,51.163],[-61.988,50.765],[-60.837,50.535],[-59.77,50.64],[-58.64,50.975],[-58.095,51.1],[-57.07,51.435],[-55.919,52.042],[-55.229,52.46],[-54.601,52.732],[-53.45,52.858],[-52.341,53.046],[-51.295,53.151],[-50.018,53.214],[-48.783,53.297],[-48.365,53.172],[-48.302,53.046],[-48.344,52.921],[-48.762,52.753],[-49.62,52.251],[-50.499,51.833],[-51.043,51.644],[-51.608,51.477],[-52.215,51.33],[-52.655,51.184],[-53.136,51.058],[-53.596,50.828],[-53.973,50.43],[-54.329,50.179],[-54.789,50.158],[-55.166,50.493],[-55.375,50.891],[-55.773,51.079],[-56.254,51.121],[-56.861,50.849],[-57.489,50.514],[-58.095,50.033],[-58.598,49.468],[-58.995,48.505],[-59.33,47.961],[-59.707,47.731],[-60.23,47.626],[-61.13,47.396],[-62.595,47.292],[-63.222,47.313],[-63.829,47.271],[-64.31,47.208],[-64.729,47.082],[-65.106,46.727],[-65.461,46.496],[-65.985,46.224],[-66.78,46.266],[-67.554,46.475],[-68.433,47.124],[-69.27,47.919],[-70.17,48.568],[-71.383,49.028],[-72.032,49.384],[-73.078,49.803],[-74.292,50.033],[-75.129,50.054],[-75.862,49.907],[-76.406,49.761],[-77.368,49.614],[-78.394,49.426],[-78.98,49.51],[-79.272,49.824],[-79.482,50.347],[-79.503,51.247],[-79.335,52.125],[-79.21,52.607],[-79.021,53.276],[-78.791,53.779],[-78.415,54.406],[-78.017,54.783],[-77.619,55.034],[-77.326,55.181],[-76.95,55.223],[-76.531,55.139],[-76.343,55.118]]]}},{"type":"Feature","properties":{"density":3},"geometry":{"type":"Polygon","coordinates":[[[-62.79,54.39],[-62.588,54.348],[-62.162,54.204],[-61.261,53.807],[-61.161,53.749],[-61.112,53.666],[-61.079,53.571],[-61.133,53.447],[-61.211,53.369],[-61.319,53.336],[-61.529,53.365],[-61.757,53.431],[-62.058,53.596],[-62.844,54.204],[-62.906,54.332],[-62.885,54.377],[-62.79,54.39]]]}},{"type":"Feature","properties":{"density":3},"geometry":{"type":"Polygon","coordinates":[[[-61.61,55.497],[-61.43,55.473],[-61.188,55.342],[-60.953,55.181],[-60.345,54.685],[-60.091,54.505],[-59.688,54.183],[-59.179,53.879],[-59.161,53.768],[-59.279,53.656],[-59.427,53.594],[-59.756,53.538],[-59.962,53.556],[-60.234,53.675],[-60.444,53.83],[-60.674,54.04],[-60.953,54.251],[-61.155,54.471],[-61.381,54.679],[-61.567,54.89],[-61.777,55.231],[-61.802,55.324],[-61.775,55.43],[-61.728,55.485],[-61.61,55.497]]]}},{"type":"Feature","properties":{"density":3},"geometry":{"type":"Polygon","coordinates":[[[-111.905,35.006],[-111.892,35.13],[-111.851,35.23],[-111.719,35.366],[-111.523,35.75],[-111.506,35.803],[-111.49,36.029],[-111.359,36.209],[-111.201,36.34],[-110.706,36.664],[-110.276,36.904],[-109.991,36.991],[-109.763,37.024],[-109.606,36.982],[-109.544,36.883],[-109.548,36.821],[-109.577,36.759],[-109.887,36.672],[-110.032,36.664],[-110.288,36.606],[-110.355,36.57],[-110.429,36.496],[-110.528,36.364],[-110.578,36.24],[-110.582,36.193],[-110.549,36.118],[-110.545,36.044],[-110.594,35.841],[-110.743,35.705],[-110.913,35.585],[-111.487,35.312],[-111.557,35.246],[-111.677,35.192],[-111.743,35.135],[-111.781,35.077],[-111.764,35.019],[-111.785,34.965],[-111.834,34.949],[-111.905,35.006]]]}},{"type":"Feature","properties":{"density":3},"geometry":{"type":"Polygon","coordinates":[[[-105.128,38.065],[-105.028,38.182],[-104.656,38.399],[-104.229,38.747],[-103.534,39.497],[-102.728,40.278],[-102.449,40.538],[-102.263,40.687],[-102.028,40.96],[-101.935,41.022],[-101.687,41.035],[-101.581,41.084],[-101.451,41.227],[-101.29,41.456],[-101.073,41.679],[-100.986,41.648],[-100.887,41.487],[-100.763,41.5],[-100.496,41.735],[-100.36,41.952],[-100.242,42.064],[-100.149,42.126],[-99.926,42.206],[-99.777,42.175],[-99.702,42.095],[-99.622,41.94],[-99.578,41.81],[-99.56,41.624],[-99.56,41.32],[-99.597,41.196],[-99.783,40.904],[-99.95,40.755],[-100.248,40.582],[-100.893,40.247],[-101.24,40.018],[-101.6,39.695],[-102.009,39.491],[-102.617,39.131],[-102.741,39.038],[-102.858,38.895],[-103.075,38.728],[-103.23,38.641],[-103.702,38.325],[-103.943,38.127],[-104.222,38.046],[-104.694,38.052],[-104.83,38.021],[-104.898,37.953],[-105.004,37.941],[-105.072,37.953],[-105.115,37.99],[-105.128,38.065]]]}},{"type":"Feature","properties":{"density":3},"geometry":{"type":"Polygon","coordinates":[[[-109.946,37.909],[-109.896,38.316],[-109.855,38.436],[-109.743,38.589],[-109.52,38.792],[-109.293,39.089],[-109.227,39.126],[-108.966,39.354],[-108.884,39.412],[-108.553,39.544],[-108.4,39.565],[-108.032,39.664],[-107.858,39.68],[-107.581,39.676],[-107.466,39.631],[-107.404,39.56],[-107.333,39.416],[-107.317,39.329],[-107.267,39.292],[-106.883,39.3],[-106.862,39.271],[-106.858,39.238],[-106.89,39.206],[-107.143,39.131],[-107.205,39.073],[-107.238,39.015],[-107.197,38.916],[-107.156,38.874],[-107.085,38.837],[-106.966,38.82],[-106.817,38.87],[-106.651,38.969],[-106.379,39.069],[-106.263,39.085],[-106.019,39.193],[-105.891,39.288],[-105.73,39.354],[-104.788,39.638],[-104.66,39.716],[-104.487,39.857],[-104.225,40.036],[-104.064,40.197],[-103.973,40.251],[-103.932,40.3],[-103.865,40.333],[-103.799,40.333],[-103.758,40.284],[-103.746,40.247],[-103.779,40.085],[-103.853,39.974],[-103.952,39.833],[-104.213,39.556],[-104.284,39.501],[-104.507,39.369],[-104.822,39.237],[-104.908,39.216],[-105.223,39.067],[-105.341,39.035],[-105.478,39.035],[-105.593,39.015],[-105.754,38.949],[-105.862,38.862],[-105.916,38.758],[-105.924,38.676],[-105.837,38.506],[-105.837,38.345],[-105.969,38.205],[-106.16,38.118],[-106.312,38.114],[-106.734,38.188],[-106.92,38.205],[-107.201,38.196],[-107.362,38.167],[-107.553,38.11],[-107.606,38.043],[-107.685,38.027],[-107.726,38.06],[-107.734,38.122],[-107.71,38.18],[-107.561,38.324],[-107.573,38.349],[-107.635,38.362],[-107.677,38.349],[-107.792,38.25],[-108.334,37.952],[-108.528,37.779],[-108.611,37.638],[-108.673,37.634],[-108.726,37.68],[-108.731,37.75],[-108.613,37.935],[-108.474,38.101],[-108.148,38.386],[-107.974,38.531],[-107.805,38.63],[-107.788,38.668],[-107.801,38.705],[-107.854,38.705],[-108.077,38.63],[-108.499,38.428],[-108.557,38.366],[-108.573,38.267],[-108.615,38.209],[-108.764,38.105],[-109.499,37.911],[-109.568,37.874],[-109.652,37.8],[-109.669,37.766],[-109.718,37.738],[-109.776,37.721],[-109.889,37.735],[-109.925,37.755],[-109.961,37.85],[-109.946,37.909]]]}},{"type":"Feature","properties":{"density":3},"geometry":{"type":"Polygon","coordinates":[[[-106.487,39.237],[-106.479,39.306],[-106.418,39.383],[-106.278,39.507],[-106.071,39.636],[-105.56,39.718],[-105.393,39.788],[-105.385,39.749],[-105.424,39.689],[-105.468,39.645],[-105.567,39.587],[-105.655,39.548],[-105.823,39.529],[-106.013,39.466],[-106.102,39.313],[-106.198,39.223],[-106.413,39.179],[-106.479,39.19],[-106.487,39.237]]]}},{"type":"Feature","properties":{"density":3},"geometry":{"type":"Polygon","coordinates":[[[-104.85,69.441],[-105.855,69.786],[-107.805,70.316],[-108.715,70.661],[-110.221,71.007],[-111.634,71.195],[-112.984,71.195],[-113.486,71.226],[-116.06,71.289],[-117.626,71.261],[-119.136,71.038],[-120.799,70.567],[-121.895,70.1],[-122.585,69.66],[-123.687,68.715],[-123.97,68.244],[-124.217,67.746],[-124.441,67.24],[-124.598,66.455],[-124.877,65.203],[-124.723,63.944],[-124.406,62.912],[-123.719,61.967],[-122.589,61.025],[-121.553,60.397],[-120.262,59.867],[-119.446,59.239],[-118.881,58.768],[-118.379,58.015],[-117.908,57.199],[-117.814,56.289],[-117.469,55.347],[-117.124,53.589],[-116.621,51.675],[-115.617,50.293],[-114.455,49.76],[-113.482,50.105],[-112.604,51.172],[-111.725,52.553],[-110.877,53.589],[-110.187,54.5],[-108.778,55.469],[-107.585,55.752],[-106.298,55.94],[-105.405,55.793],[-104.415,55.563],[-103.536,55.5],[-102.374,55.532],[-101.011,55.528],[-100.303,55.469],[-99.173,55.563],[-98.356,55.814],[-97.478,56.317],[-96.724,56.85],[-96.505,57.698],[-96.473,58.357],[-96.599,58.671],[-96.975,58.985],[-97.635,59.361],[-98.953,59.769],[-100.208,60.209],[-101.244,60.523],[-101.684,60.68],[-101.841,60.837],[-102.28,61.15],[-102.186,61.433],[-101.715,61.747],[-101.59,61.778],[-100.585,61.747],[-99.424,61.747],[-98.262,61.904],[-97.258,62.186],[-96.096,62.72],[-95.375,63.724],[-95.531,64.227],[-96.159,64.76],[-97.54,64.98],[-98.89,64.792],[-99.706,64.886],[-100.303,65.357],[-100.742,66.079],[-101.181,67.052],[-101.872,68.025],[-103.065,68.684],[-103.379,68.872],[-104.85,69.441]]]}},{"type":"Feature","properties":{"density":3},"geometry":{"type":"Polygon","coordinates":[[[-76.192,55.818],[-75.022,55.835],[-73.694,55.759],[-72.52,55.63],[-71.107,55.253],[-69.648,54.782],[-68.847,54.076],[-67.812,53.652],[-66.164,53.464],[-64.469,53.134],[-61.973,52.757],[-59.996,52.616],[-57.971,52.757],[-55.627,52.773],[-53.64,53.275],[-51.427,53.935],[-50.391,53.935],[-49.967,53.511],[-49.685,53.087],[-49.637,52.663],[-50.014,52.004],[-50.633,51.378],[-51.945,50.686],[-52.698,50.356],[-53.545,49.932],[-54.817,49.132],[-56.018,48.337],[-57.12,47.304],[-59.506,45.812],[-60.552,45.323],[-62.142,44.779],[-63.705,44.347],[-65.239,44.138],[-66.704,44.068],[-67.667,44.193],[-68.936,44.807],[-70.166,45.883],[-71.343,46.495],[-72.143,46.966],[-73.556,47.39],[-74.592,47.625],[-75.58,47.767],[-76.616,48.049],[-78.217,48.802],[-79.009,49.481],[-79.677,50.592],[-79.865,51.392],[-79.771,52.24],[-79.455,53.303],[-78.923,54.123],[-78.123,55.017],[-77.417,55.535],[-76.811,55.741],[-76.192,55.818]]]}},{"type":"Feature","properties":{"density":3},"geometry":{"type":"Polygon","coordinates":[[[-118.892,46.053],[-118.87,46.136],[-118.79,46.271],[-118.272,46.781],[-118.048,46.941],[-117.913,46.985],[-117.789,46.99],[-117.762,46.949],[-117.759,46.902],[-117.787,46.844],[-118.095,46.596],[-118.641,46.062],[-118.776,45.987],[-118.878,45.996],[-118.897,46.026],[-118.892,46.053]]]}}]}