{"type":"FeatureCollection","features":[{"type":"Feature","properties":{"density":1},"geometry":{"type":"Polygon","coordinates":[[[-81.891,28.723],[-81.907,28.697],[-81.89,28.68],[-81.813,28.675],[-81.792,28.688],[-81.802,28.715],[-81.891,28.723]]]}},{"type":"Feature","properties":{"density":1},"geometry":{"type":"Polygon","coordinates":[[[-81.808,28.68],[-81.828,28.649],[-81.802,28.629],[-81.678,28.659],[-81.655,28.697],[-81.699,28.711],[-81.808,28.68]]]}},{"type":"Feature","properties":{"density":1},"geometry":{"type":"Polygon","coordinates":[[[-81.046,28.88],[-81.059,28.87],[-81.051,28.856],[-80.979,28.846],[-80.926,28.864],[-80.896,28.9],[-80.925,28.907],[-81.046,28.88]]]}},{"type":"Feature","properties":{"density":1},"geometry":{"type":"Polygon","coordinates":[[[-83.215,31.464],[-83.243,31.461],[-83.24,31.433],[-83.14,31.356],[-83.131,31.381],[-83.148,31.41],[-83.215,31.464]]]}},{"type":"Feature","properties":{"density":1},"geometry":{"type":"Polygon","coordinates":[[[-94.237,35.918],[-94.515,35.688],[-94.841,35.254],[-95.118,34.815],[-95.199,34.594],[-95.203,34.518],[-95.183,34.474],[-95.154,34.47],[-95.13,34.486],[-94.977,34.679],[-94.555,35.282],[-94.483,35.354],[-94.253,35.495],[-94.097,35.644],[-94.04,35.761],[-94.024,35.845],[-94.036,35.922],[-94.052,35.95],[-94.076,35.958],[-94.237,35.918]]]}},{"type":"Feature","properties":{"density":1},"geometry":{"type":"Polygon","coordinates":[[[-94.145,30.794],[-94.188,30.794],[-94.21,30.748],[-94.199,30.691],[-94.21,30.601],[-94.176,30.551],[-94.128,30.603],[-94.12,30.65],[-94.115,30.71],[-94.145,30.794]]]}},{"type":"Feature","properties":{"density":1},"geometry":{"type":"Polygon","coordinates":[[[-105.771,36.002],[-105.888,36.075],[-105.956,36.035],[-105.976,35.986],[-105.988,35.858],[-105.968,35.729],[-105.964,35.528],[-106.009,35.166],[-105.988,34.908],[-105.944,34.767],[-105.856,34.611],[-105.771,34.502],[-105.638,34.405],[-105.538,34.357],[-105.268,34.373],[-104.737,34.365],[-104.641,34.381],[-104.532,34.454],[-104.452,34.554],[-104.424,34.647],[-104.424,34.743],[-104.472,34.872],[-104.617,35.069],[-104.737,35.146],[-105.059,35.258],[-105.329,35.463],[-105.514,35.676],[-105.667,35.898],[-105.771,36.002]]]}},{"type":"Feature","properties":{"density":1},"geometry":{"type":"Polygon","coordinates":[[[-102.483,18.246],[-102.561,18.276],[-102.599,18.271],[-102.709,18.193],[-102.813,18.185],[-102.902,18.126],[-102.95,18.029],[-102.982,17.906],[-103.063,17.745],[-103.103,17.705],[-103.183,17.681],[-103.181,17.646],[-103.148,17.6],[-102.993,17.533],[-102.928,17.522],[-102.711,17.552],[-102.642,17.514],[-102.564,17.498],[-102.497,17.522],[-102.475,17.56],[-102.446,17.691],[-102.443,17.758],[-102.467,17.882],[-102.414,18.104],[-102.454,18.22],[-102.483,18.246]]]}},{"type":"Feature","properties":{"density":1},"geometry":{"type":"Polygon","coordinates":[[[-93.005,17.831],[-93.182,17.913],[-93.325,17.952],[-93.818,17.963],[-93.927,18.022],[-94.01,18.129],[-94.106,18.179],[-94.196,18.165],[-94.296,18.108],[-94.296,18.043],[-94.246,17.974],[-94.151,17.902],[-94.013,17.845],[-93.831,17.834],[-93.563,17.847],[-93.362,17.833],[-92.89,17.736],[-92.894,17.774],[-93.005,17.831]]]}},{"type":"Feature","properties":{"density":1},"geometry":{"type":"Polygon","coordinates":[[[-150.673,75.343],[-152.872,74.725],[-155.14,73.969],[-157.477,72.8],[-159.47,70.532],[-159.882,68.951],[-159.882,66.958],[-159.126,64.965],[-158.095,63.453],[-156.79,62.216],[-155.415,61.46],[-153.491,60.567],[-151.635,59.811],[-149.985,59.329],[-148.748,59.055],[-145.93,58.711],[-144.35,58.299],[-142.631,57.543],[-141.257,56.512],[-139.126,53.969],[-138.095,52.938],[-136.927,52.25],[-135.759,51.494],[-133.216,50.051],[-130.879,48.608],[-129.642,47.714],[-128.68,46.683],[-127.786,45.309],[-127.168,44.003],[-126.618,42.766],[-126.068,41.254],[-125.312,40.498],[-124.35,40.292],[-123.594,40.223],[-122.631,40.36],[-121.532,40.704],[-120.363,41.185],[-119.333,41.735],[-118.164,42.147],[-116.194,42.354],[-115.675,42.445],[-114.667,42.506],[-113.72,42.384],[-111.581,42.476],[-111.032,42.567],[-110.176,42.598],[-109.016,42.506],[-107.947,42.384],[-106.969,42.17],[-106.022,41.895],[-104.831,41.468],[-104.006,41.01],[-103.517,40.399],[-103.273,39.635],[-103.242,38.932],[-103.548,38.23],[-103.945,37.68],[-104.464,37.283],[-105.747,36.733],[-106.328,36.336],[-106.664,35.878],[-106.938,35.328],[-107.03,34.748],[-107.061,34.076],[-106.816,33.312],[-106.511,32.732],[-106.053,32.334],[-104.984,31.693],[-104.373,31.296],[-104.006,30.96],[-103.731,30.441],[-103.548,29.891],[-103.609,29.188],[-103.731,28.516],[-103.853,27.417],[-103.884,26.958],[-103.823,26.378],[-103.67,25.859],[-103.365,25.309],[-103.029,24.79],[-102.815,24.301],[-102.815,23.751],[-102.968,23.293],[-103.304,23.14],[-103.945,23.262],[-104.495,23.568],[-105.106,24.118],[-105.717,24.515],[-106.297,24.79],[-107.254,26.001],[-107.641,25.961],[-108.048,25.838],[-108.415,25.655],[-108.863,25.35],[-109.311,24.922],[-109.698,24.474],[-110.044,23.904],[-110.329,23.252],[-110.472,22.56],[-110.533,22.01],[-110.553,21.399],[-110.349,20.259],[-110.207,19.627],[-109.901,18.65],[-109.698,18.222],[-109.433,17.774],[-109.046,17.245],[-108.68,16.776],[-108.333,16.451],[-107.885,16.186],[-107.397,16.023],[-106.949,15.819],[-106.277,15.616],[-103.976,15.045],[-102.774,14.699],[-101.98,14.414],[-101.349,14.007],[-99.943,12.826],[-99.597,12.581],[-99.109,12.317],[-97.948,11.909],[-96.746,11.522],[-96.237,11.482],[-95.708,11.502],[-94.608,11.909],[-93.692,12.48],[-93.223,12.704],[-92.857,12.928],[-92.511,13.172],[-92.124,13.518],[-91.839,13.905],[-91.615,14.333],[-91.431,14.862],[-91.268,15.514],[-91.187,16.043],[-91.167,16.715],[-91.248,17.265],[-91.431,17.774],[-91.513,18.181],[-91.533,18.67],[-91.452,19.159],[-91.248,19.607],[-90.983,20.096],[-90.678,20.523],[-90.433,20.971],[-90.148,21.542],[-89.476,22.488],[-89.246,22.76],[-88.865,23.032],[-88.472,23.208],[-88.146,23.289],[-87.015,23.457],[-86.648,23.525],[-85.48,23.823],[-84.245,24.394],[-83.621,24.76],[-83.268,24.923],[-82.535,25.195],[-82.059,25.412],[-81.53,25.629],[-80.96,25.968],[-77.362,28.606],[-77.057,28.881],[-76.171,29.339],[-75.407,29.583],[-74.338,30.102],[-73.849,30.499],[-73.208,30.958],[-72.353,31.355],[-71.528,31.477],[-70.703,31.538],[-69.054,31.355],[-68.229,31.202],[-67.465,31.171],[-66.793,31.294],[-66.121,31.385],[-65.388,31.507],[-64.716,31.691],[-63.25,32.21],[-58.561,34.562],[-57.599,35.249],[-56.728,35.845],[-56.041,36.532],[-55.17,36.99],[-54.117,37.265],[-52.879,37.357],[-51.78,37.22],[-50.68,36.807],[-49.626,36.303],[-48.664,35.799],[-47.931,35.524],[-46.923,35.478],[-45.457,35.57],[-44.128,35.616],[-42.845,35.799],[-41.471,36.212],[-40.417,36.853],[-39.592,37.953],[-39.042,39.19],[-38.813,40.335],[-38.813,41.481],[-39.271,42.809],[-39.821,43.818],[-40.921,44.596],[-42.55,45.574],[-43.313,45.818],[-44.016,45.94],[-44.871,45.971],[-45.665,45.94],[-47.193,45.666],[-48.14,45.543],[-48.964,45.482],[-49.82,45.574],[-50.889,45.727],[-51.836,45.818],[-53.409,46.633],[-53.73,47.595],[-53.775,48.511],[-53.409,49.336],[-52.905,50.253],[-52.538,51.398],[-52.493,52.589],[-52.676,53.735],[-53.271,55.293],[-53.867,56.53],[-54.783,57.538],[-55.883,58.317],[-57.029,58.821],[-58.22,59.05],[-59.274,58.958],[-60.557,58.592],[-63.123,57.813],[-63.718,57.354],[-64.222,56.85],[-64.635,56.301],[-64.909,55.659],[-65.047,54.972],[-65.276,54.147],[-65.551,53.322],[-65.917,52.406],[-67.934,50.94],[-68.438,50.757],[-69.171,50.298],[-69.675,49.703],[-70.179,49.015],[-70.774,48.374],[-71.92,47.458],[-72.515,47.091],[-73.203,46.862],[-74.073,46.77],[-74.898,46.77],[-75.814,46.954],[-76.868,47.32],[-77.968,47.824],[-80.396,48.557],[-81.404,49.061],[-82.137,49.519],[-82.596,50.023],[-85.07,50.527],[-85.482,50.94],[-85.665,51.398],[-85.436,51.81],[-84.978,52.039],[-84.153,52.085],[-83.329,51.994],[-82.596,52.039],[-81.862,52.177],[-81.267,52.269],[-79.342,52.773],[-78.884,53.093],[-78.564,53.506],[-78.243,53.872],[-78.197,54.514],[-78.655,54.972],[-79.342,55.247],[-80.442,55.522],[-81.496,55.613],[-84.52,55.476],[-86.032,55.384],[-86.628,55.384],[-87.177,55.476],[-87.59,55.705],[-87.773,55.888],[-87.773,56.346],[-87.636,56.759],[-87.269,56.988],[-86.673,57.034],[-85.895,56.942],[-84.887,57.125],[-84.108,57.446],[-83.42,57.584],[-82.733,57.584],[-81.358,57.354],[-79.404,56.744],[-78.945,56.744],[-78.166,56.789],[-77.342,56.973],[-76.425,57.385],[-75.417,58.026],[-74.363,58.76],[-73.447,59.539],[-72.622,60.363],[-71.798,61.325],[-71.339,62.288],[-71.156,63.525],[-71.019,64.67],[-70.973,65.907],[-71.202,66.824],[-71.752,68.336],[-72.485,69.985],[-73.126,70.947],[-77.113,74.647],[-78.762,75.575],[-81.339,76.606],[-83.607,77.328],[-86.597,77.946],[-90.515,78.565],[-94.741,78.977],[-98.556,79.183],[-102.68,79.493],[-107.216,79.699],[-111.339,79.699],[-115.154,79.802],[-122.68,79.596],[-132.473,79.08],[-135.463,78.771],[-139.484,77.946],[-147.216,76.606],[-150.673,75.343]]]}},{"type":"Feature","properties":{"density":1},"geometry":{"type":"Polygon","coordinates":[[[-81.373,27.019],[-81.251,27.03],[-81.233,27.053],[-81.238,27.08],[-81.285,27.116],[-81.319,27.118],[-81.481,27.075],[-81.542,27.044],[-81.546,27.024],[-81.53,26.994],[-81.497,26.976],[-81.373,27.019]]]}},{"type":"Feature","properties":{"density":1},"geometry":{"type":"Polygon","coordinates":[[[-92.774,30.99],[-92.857,30.869],[-92.913,30.747],[-92.9,30.696],[-92.868,30.702],[-92.792,30.864],[-92.713,30.97],[-92.717,31.038],[-92.756,31.022],[-92.774,30.99]]]}},{"type":"Feature","properties":{"density":1},"geometry":{"type":"Polygon","coordinates":[[[-92.721,31.414],[-92.82,31.18],[-92.794,31.139],[-92.766,31.153],[-92.715,31.24],[-92.691,31.328],[-92.658,31.372],[-92.653,31.399],[-92.671,31.432],[-92.696,31.436],[-92.721,31.414]]]}},{"type":"Feature","properties":{"density":1},"geometry":{"type":"Polygon","coordinates":[[[-91.258,33.772],[-91.441,33.629],[-91.451,33.572],[-91.436,33.548],[-91.392,33.55],[-91.28,33.633],[-91.185,33.757],[-91.193,33.79],[-91.212,33.801],[-91.23,33.802],[-91.258,33.772]]]}},{"type":"Feature","properties":{"density":1},"geometry":{"type":"Polygon","coordinates":[[[-123.09,42.032],[-123.056,41.87],[-123.08,41.799],[-123.205,41.654],[-123.296,41.495],[-123.299,41.438],[-123.276,41.374],[-123.184,41.269],[-123.171,41.219],[-123.184,41.155],[-123.228,41.111],[-123.296,41.084],[-123.384,41.02],[-123.505,40.885],[-123.596,40.881],[-123.701,40.905],[-123.853,40.955],[-123.94,41.02],[-123.998,41.074],[-124.153,41.286],[-124.244,41.455],[-124.275,41.573],[-124.251,41.816],[-124.224,41.914],[-124.129,41.975],[-124.035,41.958],[-123.934,41.85],[-123.856,41.799],[-123.822,41.796],[-123.65,41.843],[-123.546,41.917],[-123.421,42.042],[-123.306,42.106],[-123.228,42.103],[-123.13,42.073],[-123.09,42.032]]]}},{"type":"Feature","properties":{"density":1},"geometry":{"type":"Polygon","coordinates":[[[-121.543,42.456],[-121.473,42.382],[-121.469,42.33],[-121.491,42.283],[-121.548,42.281],[-121.669,42.321],[-121.748,42.377],[-121.919,42.647],[-122.067,42.737],[-122.101,42.773],[-122.119,42.814],[-122.101,42.85],[-122.052,42.879],[-121.705,42.733],[-121.622,42.632],[-121.572,42.494],[-121.543,42.456]]]}},{"type":"Feature","properties":{"density":1},"geometry":{"type":"Polygon","coordinates":[[[-117.292,46.39],[-117.384,46.285],[-117.481,46.214],[-117.697,46.133],[-117.809,46.11],[-118.069,46.099],[-118.146,46.069],[-118.744,45.711],[-119.051,45.492],[-119.307,45.394],[-119.483,45.36],[-119.938,45.347],[-120.283,45.384],[-120.64,45.462],[-121.373,45.674],[-121.609,45.718],[-121.818,45.728],[-122.122,45.607],[-122.338,45.499],[-122.493,45.364],[-122.628,45.208],[-122.848,44.743],[-122.905,44.523],[-122.848,44.402],[-122.757,44.321],[-122.571,44.28],[-122.311,44.294],[-122.088,44.274],[-121.866,44.216],[-121.677,44.135],[-121.538,44.054],[-121.407,43.966],[-121.312,43.872],[-121.299,43.761],[-121.332,43.683],[-121.69,43.413],[-121.774,43.288],[-121.731,43.163],[-121.639,43.065],[-121.369,43.011],[-121.167,43.059],[-120.914,43.173],[-120.539,43.278],[-120.212,43.325],[-119.83,43.464],[-119.392,43.818],[-119.307,44.037],[-119.294,44.206],[-119.23,44.382],[-119.118,44.52],[-118.926,44.638],[-118.815,44.834],[-118.642,44.949],[-117.859,45.165],[-117.579,45.276],[-117.313,45.512],[-117.06,45.651],[-116.769,45.694],[-116.408,45.816],[-116.125,45.883],[-115.932,45.948],[-115.679,46.083],[-115.629,46.248],[-115.585,46.494],[-115.568,46.707],[-115.679,47.065],[-115.733,47.298],[-115.804,47.77],[-115.868,47.858],[-115.963,47.925],[-116.179,47.976],[-116.412,47.895],[-116.567,47.723],[-116.628,47.473],[-116.668,47.217],[-116.739,47.028],[-117.252,46.477],[-117.292,46.39]]]}},{"type":"Feature","properties":{"density":1},"geometry":{"type":"Polygon","coordinates":[[[-118.637,47.003],[-118.432,47.026],[-117.878,46.851],[-117.635,46.927],[-117.506,47.064],[-117.566,47.329],[-117.711,47.55],[-117.87,47.747],[-117.916,48.051],[-117.862,48.317],[-117.346,49.129],[-117.133,49.357],[-116.921,49.706],[-116.754,50.412],[-116.89,50.853],[-117.095,51.149],[-117.399,51.301],[-117.946,51.415],[-117.976,51.415],[-118.121,51.301],[-118.227,51.081],[-118.303,50.397],[-118.235,50.169],[-118.804,49.22],[-118.971,49.061],[-119.108,49.015],[-119.222,49.137],[-119.305,49.387],[-119.457,49.676],[-119.677,49.889],[-120.027,50.002],[-120.315,50.124],[-120.467,50.367],[-120.528,50.618],[-120.513,50.807],[-120.422,50.921],[-119.822,51.073],[-119.617,51.179],[-119.48,51.316],[-119.419,51.574],[-119.525,51.764],[-120.08,51.749],[-120.406,51.627],[-120.74,51.605],[-121.257,51.681],[-121.659,51.772],[-122.502,52.0],[-122.806,52.098],[-123.953,52.379],[-124.477,52.524],[-124.788,52.531],[-125.039,52.493],[-125.19,52.341],[-125.259,52.151],[-125.236,51.795],[-125.175,51.476],[-125.168,51.05],[-125.403,50.625],[-125.426,50.086],[-124.758,48.624],[-124.496,48.214],[-124.279,48.032],[-123.972,47.622],[-123.789,47.337],[-123.596,46.471],[-123.425,46.073],[-123.243,45.811],[-122.981,45.697],[-122.559,45.617],[-122.069,45.663],[-121.659,45.799],[-121.17,45.856],[-121.021,45.993],[-120.828,46.244],[-120.258,46.87],[-119.837,47.007],[-119.051,46.973],[-118.637,47.003]]]}},{"type":"Feature","properties":{"density":1},"geometry":{"type":"Polygon","coordinates":[[[-102.738,17.487],[-102.708,17.521],[-102.695,17.579],[-102.72,17.701],[-102.681,17.849],[-102.594,17.955],[-102.486,18.034],[-102.441,18.13],[-102.432,18.259],[-102.49,18.301],[-102.677,18.283],[-102.828,18.216],[-102.886,18.173],[-102.929,18.115],[-103.028,17.937],[-103.05,17.858],[-103.048,17.687],[-103.03,17.602],[-102.96,17.498],[-102.857,17.424],[-102.81,17.419],[-102.765,17.442],[-102.738,17.487]]]}},{"type":"Feature","properties":{"density":1},"geometry":{"type":"Polygon","coordinates":[[[-93.885,17.765],[-93.853,17.709],[-93.804,17.677],[-93.763,17.693],[-93.763,17.738],[-93.842,17.823],[-93.891,17.862],[-94.002,17.904],[-94.175,17.902],[-94.503,17.864],[-94.681,17.81],[-94.782,17.742],[-94.854,17.648],[-94.854,17.565],[-94.832,17.511],[-94.762,17.463],[-94.607,17.459],[-94.317,17.718],[-94.137,17.76],[-93.959,17.781],[-93.898,17.781],[-93.885,17.765]]]}},{"type":"Feature","properties":{"density":1},"geometry":{"type":"Polygon","coordinates":[[[-88.165,33.178],[-88.269,33.165],[-88.287,33.147],[-88.266,33.113],[-88.194,33.1],[-88.089,33.041],[-88.023,33.032],[-87.938,33.095],[-87.911,33.21],[-87.96,33.235],[-88.165,33.178]]]}},{"type":"Feature","properties":{"density":1},"geometry":{"type":"Polygon","coordinates":[[[-92.715,31.902],[-92.772,31.77],[-92.829,31.534],[-92.826,31.233],[-92.856,31.054],[-92.907,30.886],[-92.9,30.734],[-92.863,30.683],[-92.839,30.683],[-92.816,30.71],[-92.812,30.899],[-92.745,31.179],[-92.738,31.486],[-92.6,31.814],[-92.607,31.918],[-92.64,31.949],[-92.671,31.952],[-92.715,31.902]]]}},{"type":"Feature","properties":{"density":1},"geometry":{"type":"Polygon","coordinates":[[[-91.135,32.663],[-91.233,32.639],[-91.395,32.545],[-91.446,32.504],[-91.452,32.464],[-91.425,32.43],[-91.392,32.426],[-91.273,32.541],[-91.091,32.551],[-91.068,32.565],[-91.061,32.632],[-91.095,32.669],[-91.135,32.663]]]}},{"type":"Feature","properties":{"density":1},"geometry":{"type":"Polygon","coordinates":[[[-91.702,32.855],[-91.803,32.703],[-91.797,32.656],[-91.759,32.659],[-91.591,32.818],[-91.56,32.875],[-91.584,32.933],[-91.618,32.923],[-91.702,32.855]]]}},{"type":"Feature","properties":{"density":1},"geometry":{"type":"Polygon","coordinates":[[[-90.679,33.449],[-90.845,33.301],[-90.936,33.196],[-90.976,33.105],[-90.98,33.078],[-90.96,33.051],[-90.906,33.074],[-90.534,33.422],[-90.504,33.469],[-90.517,33.49],[-90.558,33.493],[-90.679,33.449]]]}},{"type":"Feature","properties":{"density":1},"geometry":{"type":"Polygon","coordinates":[[[-90.551,33.598],[-90.791,33.523],[-90.862,33.486],[-90.916,33.442],[-90.909,33.409],[-90.865,33.392],[-90.801,33.398],[-90.568,33.473],[-90.477,33.476],[-90.433,33.51],[-90.409,33.577],[-90.45,33.618],[-90.551,33.598]]]}},{"type":"Feature","properties":{"density":1},"geometry":{"type":"Polygon","coordinates":[[[-91.123,33.989],[-91.312,33.834],[-91.424,33.716],[-91.461,33.655],[-91.464,33.581],[-91.43,33.557],[-91.349,33.598],[-91.144,33.658],[-91.056,33.702],[-90.988,33.766],[-90.958,33.82],[-90.951,33.891],[-90.978,33.952],[-91.022,33.986],[-91.076,33.999],[-91.123,33.989]]]}},{"type":"Feature","properties":{"density":1},"geometry":{"type":"Polygon","coordinates":[[[-99.033,33.731],[-99.161,33.468],[-99.161,33.397],[-99.101,33.171],[-99.057,33.083],[-99.033,33.046],[-98.942,33.043],[-98.888,33.181],[-98.881,33.276],[-98.905,33.482],[-98.905,33.65],[-98.918,33.721],[-98.949,33.762],[-98.989,33.775],[-99.033,33.731]]]}},{"type":"Feature","properties":{"density":1},"geometry":{"type":"Polygon","coordinates":[[[-123.103,41.692],[-123.098,41.895],[-123.143,42.006],[-123.28,42.112],[-123.437,42.097],[-123.994,41.925],[-124.196,41.697],[-124.267,41.474],[-124.232,41.287],[-123.842,40.877],[-123.654,40.786],[-123.492,40.816],[-123.432,40.857],[-123.194,41.15],[-123.168,41.272],[-123.219,41.368],[-123.214,41.439],[-123.133,41.581],[-123.103,41.692]]]}},{"type":"Feature","properties":{"density":1},"geometry":{"type":"Polygon","coordinates":[[[-116.708,47.862],[-118.161,48.307],[-118.451,48.477],[-118.639,48.785],[-118.878,49.297],[-119.049,49.503],[-119.254,49.673],[-119.493,49.827],[-119.886,50.049],[-120.211,50.186],[-120.313,50.306],[-120.467,50.613],[-120.501,50.972],[-120.723,51.297],[-121.151,51.638],[-122.022,52.031],[-122.569,52.151],[-123.047,52.014],[-123.338,51.792],[-123.508,51.433],[-123.714,50.938],[-123.987,50.442],[-124.534,49.793],[-124.653,49.075],[-124.431,48.272],[-124.004,47.726],[-123.765,46.837],[-123.543,45.778],[-123.543,44.906],[-123.167,44.325],[-122.723,44.172],[-122.381,44.172],[-121.937,43.779],[-121.919,43.693],[-121.988,43.471],[-122.142,43.335],[-122.449,43.164],[-122.808,42.993],[-122.859,42.583],[-122.637,42.207],[-122.364,41.968],[-122.022,41.848],[-121.475,41.916],[-121.065,42.07],[-120.792,42.361],[-120.536,42.48],[-120.04,42.412],[-119.51,42.258],[-119.083,42.395],[-118.912,42.805],[-118.964,43.3],[-118.981,43.693],[-118.844,43.984],[-118.434,44.325],[-117.99,44.548],[-117.306,44.736],[-116.469,45.026],[-115.581,45.658],[-115.307,45.812],[-115.017,46.102],[-114.658,46.769],[-114.709,47.298],[-114.897,47.521],[-115.444,47.709],[-116.486,47.811],[-116.708,47.862]]]}},{"type":"Feature","properties":{"density":1},"geometry":{"type":"Polygon","coordinates":[[[-102.535,17.915],[-102.539,18.029],[-102.517,18.074],[-102.445,18.149],[-102.436,18.216],[-102.467,18.272],[-102.546,18.308],[-102.69,18.284],[-102.881,18.119],[-102.958,18.029],[-103.122,17.935],[-103.192,17.852],[-103.199,17.737],[-103.178,17.69],[-103.131,17.651],[-103.086,17.638],[-103.021,17.647],[-102.944,17.804],[-102.888,17.798],[-102.708,17.64],[-102.629,17.613],[-102.578,17.62],[-102.528,17.649],[-102.494,17.71],[-102.49,17.771],[-102.535,17.915]]]}},{"type":"Feature","properties":{"density":1},"geometry":{"type":"Polygon","coordinates":[[[-93.483,17.461],[-93.624,17.617],[-93.675,17.698],[-93.69,18.048],[-93.751,18.169],[-93.827,18.245],[-93.933,18.301],[-94.141,18.357],[-94.323,18.357],[-94.47,18.306],[-94.475,18.245],[-94.434,18.129],[-94.45,18.012],[-94.531,17.926],[-94.703,17.82],[-94.88,17.663],[-95.006,17.435],[-95.012,17.314],[-94.961,17.157],[-94.809,17.005],[-94.607,16.949],[-94.364,16.975],[-94.121,17.137],[-93.979,17.157],[-93.69,17.101],[-93.569,17.106],[-93.417,17.202],[-93.386,17.304],[-93.397,17.39],[-93.483,17.461]]]}},{"type":"Feature","properties":{"density":1},"geometry":{"type":"Polygon","coordinates":[[[-88.108,33.203],[-88.311,33.172],[-88.326,33.127],[-88.301,33.096],[-88.26,33.086],[-88.21,33.106],[-87.815,33.101],[-87.703,33.142],[-87.688,33.172],[-87.703,33.228],[-87.754,33.263],[-87.86,33.273],[-88.108,33.203]]]}},{"type":"Feature","properties":{"density":1},"geometry":{"type":"Polygon","coordinates":[[[-92.751,32.38],[-92.806,32.056],[-92.928,30.871],[-92.918,30.709],[-92.902,30.669],[-92.872,30.659],[-92.806,30.709],[-92.665,31.251],[-92.553,31.408],[-92.523,31.585],[-92.518,32.35],[-92.523,32.415],[-92.563,32.512],[-92.599,32.532],[-92.665,32.507],[-92.715,32.461],[-92.751,32.38]]]}},{"type":"Feature","properties":{"density":1},"geometry":{"type":"Polygon","coordinates":[[[-91.495,33.028],[-91.758,32.8],[-91.809,32.704],[-91.814,32.648],[-91.784,32.613],[-91.743,32.618],[-91.525,32.846],[-91.379,32.962],[-91.358,33.023],[-91.402,33.078],[-91.46,33.068],[-91.495,33.028]]]}},{"type":"Feature","properties":{"density":1},"geometry":{"type":"Polygon","coordinates":[[[-92.596,35.504],[-92.682,35.225],[-92.783,35.008],[-92.788,34.937],[-92.751,34.908],[-92.717,34.917],[-92.545,35.215],[-92.489,35.433],[-92.501,35.556],[-92.535,35.59],[-92.565,35.58],[-92.582,35.566],[-92.596,35.504]]]}},{"type":"Feature","properties":{"density":1},"geometry":{"type":"Polygon","coordinates":[[[-98.311,35.991],[-98.351,35.126],[-98.336,35.07],[-98.301,35.034],[-98.255,35.05],[-98.23,35.156],[-98.255,35.262],[-98.255,35.586],[-98.21,35.763],[-98.118,36.022],[-98.134,36.179],[-98.184,36.229],[-98.235,36.209],[-98.28,36.118],[-98.311,35.991]]]}},{"type":"Feature","properties":{"density":1},"geometry":{"type":"Polygon","coordinates":[[[-95.997,35.941],[-96.053,34.721],[-96.038,34.437],[-96.007,34.391],[-95.962,34.371],[-95.931,34.407],[-95.916,34.462],[-95.921,34.64],[-95.876,35.126],[-95.881,35.981],[-95.921,36.077],[-95.977,36.082],[-95.997,35.941]]]}},{"type":"Feature","properties":{"density":1},"geometry":{"type":"Polygon","coordinates":[[[-99.192,34.877],[-99.33,34.682],[-99.377,34.53],[-99.394,34.256],[-99.371,34.051],[-99.229,33.659],[-99.178,33.369],[-99.117,33.156],[-99.047,33.028],[-98.955,33.014],[-98.915,33.021],[-98.868,33.072],[-98.787,33.649],[-98.787,33.77],[-98.908,34.051],[-98.989,34.408],[-99.087,34.658],[-99.067,34.834],[-99.117,34.888],[-99.192,34.877]]]}},{"type":"Feature","properties":{"density":1},"geometry":{"type":"Polygon","coordinates":[[[-99.479,30.648],[-99.396,30.496],[-99.328,30.488],[-99.282,30.541],[-99.282,30.61],[-99.525,31.149],[-99.662,31.589],[-99.745,31.703],[-99.821,31.734],[-99.897,31.718],[-99.927,31.627],[-99.912,31.506],[-99.851,31.339],[-99.593,30.883],[-99.479,30.648]]]}},{"type":"Feature","properties":{"density":1},"geometry":{"type":"Polygon","coordinates":[[[-121.461,36.285],[-121.664,36.346],[-121.695,36.375],[-121.72,36.533],[-121.682,36.675],[-121.702,36.726],[-121.745,36.756],[-121.815,36.742],[-121.95,36.63],[-122.008,36.553],[-122.024,36.486],[-122.051,36.447],[-122.145,36.391],[-122.193,36.339],[-122.199,36.308],[-122.195,36.249],[-122.161,36.186],[-122.078,36.119],[-122.026,36.087],[-121.785,36.033],[-121.691,36.049],[-121.601,36.105],[-121.486,36.121],[-121.443,36.168],[-121.437,36.207],[-121.461,36.285]]]}},{"type":"Feature","properties":{"density":1},"geometry":{"type":"Polygon","coordinates":[[[-122.412,39.381],[-122.277,39.259],[-122.115,39.187],[-122.083,39.187],[-122.072,39.205],[-122.068,39.253],[-122.097,39.298],[-122.23,39.376],[-122.385,39.516],[-122.437,39.507],[-122.459,39.478],[-122.412,39.381]]]}},{"type":"Feature","properties":{"density":1},"geometry":{"type":"Polygon","coordinates":[[[-116.852,34.016],[-116.989,33.895],[-117.009,33.805],[-116.996,33.733],[-116.969,33.694],[-116.883,33.6],[-116.834,33.584],[-116.798,33.616],[-116.798,33.647],[-116.89,33.791],[-116.901,33.854],[-116.775,33.955],[-116.764,33.998],[-116.768,34.039],[-116.791,34.052],[-116.852,34.016]]]}},{"type":"Feature","properties":{"density":1},"geometry":{"type":"Polygon","coordinates":[[[-102.735,17.885],[-102.685,17.96],[-102.455,18.074],[-102.341,18.172],[-102.334,18.311],[-102.398,18.402],[-102.472,18.449],[-102.624,18.476],[-102.769,18.439],[-102.881,18.365],[-103.14,18.051],[-103.198,17.96],[-103.218,17.841],[-103.205,17.737],[-103.157,17.632],[-103.097,17.528],[-102.989,17.436],[-102.843,17.366],[-102.719,17.342],[-102.59,17.339],[-102.519,17.399],[-102.513,17.521],[-102.594,17.629],[-102.712,17.723],[-102.746,17.821],[-102.735,17.885]]]}},{"type":"Feature","properties":{"density":1},"geometry":{"type":"Polygon","coordinates":[[[-55.81,64.954],[-58.405,63.57],[-60.654,62.071],[-63.422,61.206],[-65.959,61.264],[-68.035,61.494],[-69.708,61.725],[-71.957,62.936],[-73.168,64.032],[-74.494,65.473],[-75.301,67.492],[-75.763,69.222],[-76.166,71.355],[-77.204,73.258],[-79.626,74.642],[-82.855,75.046],[-86.027,75.276],[-89.775,75.392],[-94.907,75.161],[-98.886,74.642],[-104.364,73.892],[-109.669,73.835],[-114.456,74.008],[-121.837,74.008],[-125.7,73.489],[-129.276,73.143],[-132.159,72.566],[-135.1,71.355],[-136.426,69.683],[-137.118,67.319],[-137.06,65.762],[-135.965,64.032],[-128.287,60.403],[-123.913,58.558],[-123.417,58.096],[-123.127,57.601],[-123.058,57.003],[-123.434,56.234],[-124.477,55.619],[-126.202,55.192],[-128.492,54.543],[-129.38,53.688],[-129.705,53.33],[-130.183,53.039],[-130.61,52.68],[-131.02,52.082],[-131.089,51.433],[-130.952,50.784],[-130.457,50.066],[-129.876,49.451],[-129.175,48.768],[-128.543,48.238],[-127.894,47.503],[-127.022,46.7],[-126.322,45.76],[-124.955,43.796],[-124.75,43.368],[-124.716,42.343],[-124.647,41.181],[-124.323,40.378],[-123.981,39.985],[-123.622,39.9],[-123.246,39.968],[-122.683,40.208],[-122.119,40.481],[-121.452,41.113],[-120.769,41.626],[-120.171,42.19],[-119.795,42.463],[-119.043,42.668],[-118.035,42.685],[-117.164,42.463],[-116.446,42.412],[-115.865,42.412],[-115.273,42.554],[-115.159,42.736],[-115.136,43.067],[-115.193,43.454],[-115.41,43.796],[-115.694,44.058],[-115.82,44.365],[-115.683,45.003],[-115.478,45.208],[-115.159,45.356],[-114.943,45.664],[-114.271,45.971],[-114.009,46.279],[-113.724,46.791],[-113.667,47.418],[-113.792,48.101],[-114.066,48.91],[-114.419,49.582],[-114.658,50.22],[-114.726,51.086],[-114.373,51.621],[-113.542,51.678],[-112.865,51.743],[-112.216,51.812],[-111.105,51.965],[-110.149,51.76],[-109.516,51.316],[-108.679,51.333],[-108.423,51.282],[-107.927,51.402],[-107.569,51.983],[-107.398,52.974],[-107.176,53.691],[-106.543,54.272],[-105.074,54.904],[-103.485,55.126],[-101.828,54.956],[-100.837,54.716],[-98.244,54.362],[-95.438,53.747],[-94.054,53.17],[-92.67,52.478],[-91.862,51.44],[-91.632,50.594],[-92.593,48.941],[-93.323,48.326],[-94.092,47.596],[-94.015,46.673],[-93.439,45.674],[-90.594,43.713],[-89.594,42.252],[-88.783,40.099],[-88.817,39.689],[-88.954,39.006],[-89.176,38.527],[-89.671,37.947],[-90.782,36.802],[-91.448,36.272],[-92.183,35.657],[-93.464,34.29],[-93.908,33.504],[-94.182,32.65],[-94.284,32.137],[-94.353,31.539],[-94.19,30.224],[-93.627,29.352],[-92.499,28.712],[-91.064,28.302],[-89.91,28.43],[-88.655,28.865],[-87.809,29.532],[-87.373,30.377],[-87.014,31.351],[-86.655,32.043],[-86.22,32.761],[-85.887,33.299],[-85.605,33.53],[-85.246,33.709],[-85.015,33.709],[-84.246,33.581],[-82.939,32.992],[-81.863,32.402],[-80.402,31.71],[-78.634,31.249],[-76.635,30.967],[-71.022,31.582],[-66.511,31.813],[-63.974,32.223],[-62.077,32.607],[-59.668,33.12],[-57.977,33.735],[-56.747,34.427],[-55.798,35.196],[-54.824,36.195],[-54.03,37.451],[-53.492,38.963],[-53.517,40.116],[-53.953,41.295],[-54.953,42.321],[-57.08,43.141],[-58.412,43.166],[-64.794,42.577],[-67.793,42.654],[-68.446,42.705],[-69.292,42.936],[-70.522,43.435],[-71.137,44.012],[-71.253,44.896],[-70.753,45.627],[-69.138,46.511],[-66.293,47.087],[-64.294,47.433],[-62.141,48.164],[-59.181,49.971],[-56.26,51.278],[-53.107,52.931],[-50.839,54.43],[-49.301,55.699],[-47.533,58.351],[-47.033,60.004],[-47.033,61.734],[-48.148,63.926],[-49.532,65.233],[-51.108,66.078],[-54.568,65.425],[-55.81,64.954]]]}},{"type":"Feature","properties":{"density":1},"geometry":{"type":"Polygon","coordinates":[[[-91.688,21.257],[-91.419,22.756],[-91.573,24.178],[-91.842,25.562],[-92.688,26.485],[-93.572,27.1],[-95.456,27.446],[-96.532,27.523],[-97.724,27.792],[-98.531,28.061],[-99.415,28.292],[-100.415,28.061],[-100.799,27.6],[-101.261,26.754],[-102.491,25.524],[-104.951,25.063],[-107.335,25.14],[-109.026,25.101],[-110.141,24.678],[-110.872,24.255],[-111.487,23.64],[-112.063,22.449],[-113.332,20.949],[-113.563,19.335],[-113.14,17.874],[-111.602,16.182],[-109.834,15.413],[-108.45,15.029],[-106.835,14.683],[-104.605,13.876],[-103.49,13.453],[-102.414,12.991],[-100.876,12.299],[-98.954,11.608],[-97.224,11.377],[-95.725,11.531],[-94.802,11.838],[-93.726,12.338],[-92.765,13.107],[-92.188,13.799],[-91.496,14.875],[-91.227,15.375],[-91.15,16.336],[-91.265,17.528],[-91.496,18.412],[-91.727,19.219],[-91.727,20.488],[-91.688,21.257]]]}},{"type":"Feature","properties":{"density":2},"geometry":{"type":"Polygon","coordinates":[[[-122.942,41.922],[-123.212,41.938],[-123.393,41.91],[-123.481,41.833],[-123.578,41.668],[-123.61,41.64],[-123.755,41.592],[-123.807,41.548],[-123.843,41.495],[-123.864,41.375],[-123.855,41.218],[-123.811,41.037],[-123.775,40.968],[-123.731,40.928],[-123.678,40.916],[-123.626,40.952],[-123.53,41.101],[-123.425,41.182],[-123.312,41.218],[-123.216,41.27],[-123.176,41.318],[-123.071,41.544],[-123.027,41.604],[-122.798,41.773],[-122.773,41.809],[-122.781,41.849],[-122.942,41.922]]]}},{"type":"Feature","properties":{"density":2},"geometry":{"type":"Polygon","coordinates":[[[-123.182,42.516],[-123.282,42.484],[-123.284,42.43],[-123.255,42.403],[-123.094,42.39],[-122.936,42.435],[-122.727,42.422],[-122.641,42.451],[-122.622,42.505],[-122.633,42.527],[-122.67,42.543],[-122.879,42.591],[-122.954,42.559],[-123.102,42.548],[-123.182,42.516]]]}},{"type":"Feature","properties":{"density":2},"geometry":{"type":"Polygon","coordinates":[[[-121.626,42.659],[-121.72,42.692],[-121.75,42.689],[-121.803,42.646],[-121.793,42.566],[-121.814,42.474],[-121.795,42.426],[-121.763,42.399],[-121.672,42.383],[-121.584,42.515],[-121.578,42.587],[-121.626,42.659]]]}},{"type":"Feature","properties":{"density":2},"geometry":{"type":"Polygon","coordinates":[[[-121.551,42.397],[-121.587,42.444],[-121.648,42.474],[-121.593,42.355],[-121.542,42.326],[-121.532,42.358],[-121.551,42.397]]]}},{"type":"Feature","properties":{"density":2},"geometry":{"type":"Polygon","coordinates":[[[-121.274,45.347],[-121.325,45.363],[-121.397,45.339],[-121.504,45.207],[-121.582,45.194],[-121.716,45.207],[-121.751,45.151],[-121.756,45.095],[-121.737,45.022],[-121.695,44.958],[-121.636,44.918],[-121.582,44.915],[-121.459,44.977],[-121.314,45.159],[-121.217,45.248],[-121.209,45.296],[-121.223,45.328],[-121.274,45.347]]]}},{"type":"Feature","properties":{"density":2},"geometry":{"type":"Polygon","coordinates":[[[-121.551,45.305],[-121.754,45.389],[-121.806,45.389],[-121.797,45.366],[-121.638,45.264],[-121.527,45.232],[-121.513,45.267],[-121.551,45.305]]]}},{"type":"Feature","properties":{"density":2},"geometry":{"type":"Polygon","coordinates":[[[-121.493,45.403],[-121.645,45.503],[-121.756,45.546],[-121.763,45.518],[-121.685,45.437],[-121.522,45.367],[-121.479,45.375],[-121.493,45.403]]]}},{"type":"Feature","properties":{"density":2},"geometry":{"type":"Polygon","coordinates":[[[-121.93,45.053],[-122.014,45.089],[-122.091,45.049],[-122.103,45.026],[-122.082,45.001],[-121.976,44.978],[-121.935,44.908],[-121.905,44.895],[-121.853,44.96],[-121.853,44.988],[-121.93,45.053]]]}},{"type":"Feature","properties":{"density":2},"geometry":{"type":"Polygon","coordinates":[[[-120.036,44.887],[-120.081,44.895],[-120.112,44.877],[-120.117,44.836],[-120.163,44.766],[-120.153,44.727],[-120.094,44.746],[-119.988,44.748],[-119.981,44.793],[-120.036,44.887]]]}},{"type":"Feature","properties":{"density":2},"geometry":{"type":"Polygon","coordinates":[[[-117.978,46.022],[-118.042,46.053],[-118.114,46.006],[-118.09,45.979],[-117.981,45.961],[-117.958,45.983],[-117.978,46.022]]]}},{"type":"Feature","properties":{"density":2},"geometry":{"type":"Polygon","coordinates":[[[-118.067,45.815],[-118.126,45.809],[-118.177,45.748],[-118.29,45.724],[-118.327,45.678],[-118.325,45.651],[-118.18,45.557],[-118.142,45.547],[-118.115,45.56],[-118.091,45.616],[-118.105,45.683],[-118.035,45.742],[-118.019,45.788],[-118.067,45.815]]]}},{"type":"Feature","properties":{"density":2},"geometry":{"type":"Polygon","coordinates":[[[-122.977,62.024],[-123.082,62.008],[-123.122,61.968],[-123.134,61.916],[-123.118,61.859],[-123.053,61.763],[-123.021,61.622],[-122.961,61.578],[-122.888,61.578],[-122.812,61.622],[-122.78,61.666],[-122.76,61.787],[-122.8,61.888],[-122.977,62.024]]]}},{"type":"Feature","properties":{"density":2},"geometry":{"type":"Polygon","coordinates":[[[-122.281,61.819],[-122.502,61.888],[-122.603,61.888],[-122.699,61.827],[-122.768,61.65],[-122.772,61.582],[-122.728,61.517],[-122.619,61.449],[-122.458,61.224],[-122.398,61.2],[-122.329,61.204],[-122.253,61.24],[-122.116,61.336],[-122.02,61.461],[-121.979,61.57],[-121.995,61.674],[-122.084,61.763],[-122.152,61.795],[-122.281,61.819]]]}},{"type":"Feature","properties":{"density":2},"geometry":{"type":"Polygon","coordinates":[[[-121.859,61.912],[-121.923,61.9],[-121.951,61.871],[-121.955,61.747],[-121.983,61.65],[-121.979,61.534],[-121.935,61.481],[-121.887,61.453],[-121.81,61.433],[-121.666,61.445],[-121.565,61.53],[-121.537,61.586],[-121.525,61.638],[-121.537,61.735],[-121.593,61.815],[-121.654,61.851],[-121.859,61.912]]]}},{"type":"Feature","properties":{"density":2},"geometry":{"type":"Polygon","coordinates":[[[-120.394,62.161],[-120.491,62.205],[-120.559,62.213],[-120.616,62.185],[-120.704,62.048],[-120.704,62.008],[-120.676,61.968],[-120.62,61.952],[-120.539,61.956],[-120.386,61.996],[-120.338,62.04],[-120.366,62.133],[-120.394,62.161]]]}},{"type":"Feature","properties":{"density":2},"geometry":{"type":"Polygon","coordinates":[[[-112.521,62.38],[-112.569,62.394],[-112.618,62.38],[-112.652,62.301],[-112.55,62.242],[-112.523,62.244],[-112.494,62.262],[-112.468,62.323],[-112.469,62.353],[-112.521,62.38]]]}},{"type":"Feature","properties":{"density":2},"geometry":{"type":"Polygon","coordinates":[[[-116.477,58.548],[-116.511,58.544],[-116.572,58.503],[-116.567,58.458],[-116.527,58.452],[-116.454,58.51],[-116.45,58.537],[-116.477,58.548]]]}},{"type":"Feature","properties":{"density":2},"geometry":{"type":"Polygon","coordinates":[[[-102.501,18.224],[-102.542,18.212],[-102.619,18.106],[-102.676,18.07],[-102.784,17.92],[-102.775,17.836],[-102.743,17.799],[-102.71,17.795],[-102.71,17.852],[-102.692,17.874],[-102.667,17.849],[-102.653,17.781],[-102.614,17.775],[-102.601,17.795],[-102.557,18.067],[-102.473,18.199],[-102.476,18.219],[-102.501,18.224]]]}},{"type":"Feature","properties":{"density":2},"geometry":{"type":"Polygon","coordinates":[[[-125.233,53.04],[-125.823,53.244],[-126.251,53.346],[-126.78,53.366],[-127.33,53.325],[-127.819,53.264],[-128.308,53.122],[-129.041,52.674],[-129.367,52.368],[-129.672,52.022],[-129.896,51.696],[-130.14,51.391],[-130.222,51.126],[-130.242,50.922],[-130.181,50.617],[-130.039,50.352],[-129.753,50.067],[-129.387,49.884],[-129.0,49.823],[-128.206,49.884],[-127.9,49.945],[-127.493,49.884],[-126.78,49.639],[-126.434,49.314],[-126.23,49.008],[-126.108,48.642],[-126.108,47.929],[-126.088,47.562],[-125.966,47.053],[-125.742,46.585],[-125.436,46.239],[-125.11,45.913],[-124.764,45.628],[-124.5,45.383],[-123.848,44.874],[-123.705,44.589],[-123.386,44.073],[-123.291,43.829],[-123.251,43.557],[-123.305,43.286],[-123.386,43.014],[-123.536,42.648],[-123.536,42.553],[-123.441,42.322],[-123.4,42.118],[-123.441,41.915],[-123.671,41.562],[-123.753,41.399],[-123.821,41.059],[-123.671,40.869],[-123.454,40.924],[-123.237,41.073],[-123.088,41.209],[-122.952,41.385],[-122.816,41.629],[-122.694,41.915],[-122.572,42.145],[-122.463,42.227],[-122.192,42.213],[-121.988,42.132],[-121.798,42.091],[-121.621,42.118],[-121.472,42.213],[-121.323,42.349],[-121.133,42.593],[-120.929,43.204],[-120.834,43.367],[-120.657,43.476],[-120.182,43.612],[-119.911,43.774],[-119.694,43.937],[-119.449,44.168],[-119.218,44.358],[-118.96,44.548],[-117.358,45.309],[-116.225,45.757],[-115.981,45.879],[-115.716,46.123],[-115.471,46.388],[-114.881,47.202],[-114.657,47.549],[-114.453,47.813],[-114.209,48.017],[-113.924,48.139],[-113.231,48.282],[-112.804,48.343],[-112.233,48.506],[-111.684,48.709],[-111.195,48.954],[-110.788,49.32],[-110.38,49.768],[-110.116,50.216],[-109.953,50.664],[-109.81,51.194],[-109.81,51.642],[-110.014,51.968],[-110.299,52.151],[-110.625,52.212],[-111.052,52.232],[-111.439,52.212],[-111.745,52.131],[-112.457,51.764],[-112.804,51.56],[-113.191,51.357],[-113.659,51.133],[-114.494,50.807],[-115.247,50.603],[-115.695,50.542],[-116.062,50.603],[-116.734,50.848],[-117.08,50.929],[-117.447,50.97],[-117.671,50.949],[-117.834,50.827],[-117.976,50.664],[-118.078,50.481],[-118.241,50.074],[-118.343,49.952],[-118.445,49.85],[-118.741,49.798],[-118.813,49.816],[-118.895,49.861],[-118.976,49.934],[-119.04,50.042],[-119.067,50.169],[-119.058,50.287],[-119.013,50.413],[-118.85,50.712],[-118.732,50.866],[-118.515,51.083],[-118.415,51.273],[-118.27,51.481],[-118.252,51.563],[-118.288,51.662],[-118.415,51.735],[-118.841,51.907],[-119.175,51.907],[-119.528,51.861],[-120.144,51.744],[-120.433,51.662],[-120.75,51.608],[-120.958,51.581],[-121.212,51.572],[-121.393,51.59],[-122.108,51.753],[-122.397,51.852],[-122.769,52.124],[-123.031,52.278],[-123.529,52.504],[-124.108,52.631],[-124.751,52.83],[-124.886,52.902],[-125.233,53.04]]]}},{"type":"Feature","properties":{"density":2},"geometry":{"type":"Polygon","coordinates":[[[-148.097,71.896],[-148.402,71.744],[-148.585,71.408],[-148.524,71.011],[-148.127,70.552],[-147.73,70.186],[-147.272,69.88],[-146.691,69.606],[-146.019,69.331],[-145.408,69.178],[-144.675,68.842],[-143.881,68.414],[-142.109,67.498],[-140.918,66.979],[-139.91,66.612],[-139.055,66.398],[-137.13,66.154],[-136.214,66.093],[-135.175,66.001],[-134.045,66.001],[-130.624,65.909],[-128.608,65.604],[-127.875,65.451],[-125.676,64.932],[-124.912,64.688],[-124.24,64.352],[-123.782,64.046],[-123.415,63.405],[-123.385,62.824],[-123.69,62.244],[-123.996,61.755],[-124.393,61.266],[-125.034,60.808],[-125.767,60.411],[-126.684,60.136],[-127.6,60.075],[-128.15,60.106],[-128.73,60.075],[-129.168,59.943],[-129.229,59.821],[-129.229,59.637],[-129.209,59.454],[-128.924,59.25],[-128.618,59.149],[-128.211,59.108],[-127.722,59.006],[-127.213,59.026],[-126.724,59.067],[-126.317,59.169],[-126.012,59.291],[-125.726,59.352],[-125.34,59.393],[-124.606,59.413],[-124.22,59.535],[-123.446,59.556],[-123.14,59.434],[-122.529,59.006],[-122.203,58.721],[-121.857,58.538],[-121.572,58.415],[-121.206,58.354],[-120.839,58.334],[-120.534,58.354],[-119.882,58.538],[-119.414,58.741],[-119.128,58.925],[-117.907,59.199],[-117.448,59.047],[-116.899,58.68],[-116.257,58.222],[-115.646,57.947],[-115.157,57.794],[-114.577,57.733],[-113.844,57.703],[-111.115,57.871],[-110.565,57.871],[-109.771,57.84],[-109.16,57.84],[-108.397,57.748],[-107.48,57.565],[-106.197,57.229],[-104.914,56.924],[-104.235,56.704],[-103.602,56.566],[-102.733,56.633],[-101.796,56.552],[-99.963,56.145],[-99.203,55.873],[-98.511,55.479],[-97.357,54.95],[-96.422,54.205],[-95.252,53.849],[-94.537,53.831],[-93.858,53.885],[-93.116,53.876],[-92.311,53.813],[-91.704,53.732],[-91.275,53.633],[-90.895,53.434],[-90.624,53.207],[-89.952,52.902],[-89.178,52.759],[-88.832,52.759],[-88.526,52.82],[-87.813,53.044],[-87.467,53.187],[-86.653,53.472],[-85.736,53.594],[-85.166,53.635],[-84.596,53.635],[-83.944,53.594],[-83.354,53.533],[-82.682,53.411],[-81.786,53.177],[-81.022,53.085],[-79.983,53.207],[-78.812,53.503],[-78.67,53.645],[-78.568,53.93],[-78.609,54.276],[-78.772,54.561],[-79.098,54.724],[-79.464,54.847],[-80.177,54.928],[-80.543,54.928],[-81.317,55.03],[-81.826,55.05],[-84.168,55.05],[-84.718,55.03],[-85.92,55.03],[-86.979,55.091],[-87.508,55.172],[-87.875,55.335],[-88.18,55.539],[-88.363,55.885],[-88.404,56.333],[-88.384,56.72],[-88.282,57.046],[-88.017,57.433],[-87.63,57.636],[-87.162,57.677],[-85.655,57.718],[-85.064,57.82],[-84.392,58.084],[-83.069,58.247],[-82.437,58.207],[-81.928,58.064],[-81.175,57.881],[-80.34,57.779],[-79.189,57.423],[-79.026,57.423],[-78.823,57.606],[-78.599,57.85],[-78.232,58.42],[-78.13,58.909],[-78.11,59.5],[-78.008,60.253],[-78.008,60.661],[-78.069,61.007],[-78.191,61.292],[-78.395,61.557],[-79.111,62.351],[-79.417,62.717],[-80.496,63.695],[-81.392,64.632],[-81.779,64.917],[-82.268,65.222],[-83.021,65.629],[-84.477,66.841],[-84.783,67.299],[-84.874,67.88],[-84.874,68.307],[-84.355,69.102],[-83.927,69.651],[-83.713,69.987],[-83.652,70.323],[-83.775,70.782],[-84.172,71.27],[-84.691,71.79],[-85.836,72.492],[-87.348,72.996],[-88.357,73.271],[-91.151,73.913],[-93.076,74.279],[-97.291,75.012],[-100.04,75.104],[-102.24,75.287],[-108.013,75.7],[-114.749,76.02],[-124.783,76.433],[-131.014,76.341],[-133.443,76.158],[-135.825,75.837],[-137.475,75.47],[-139.399,74.966],[-142.515,73.958],[-144.394,73.225],[-147.234,72.401],[-148.097,71.896]]]}},{"type":"Feature","properties":{"density":2},"geometry":{"type":"Polygon","coordinates":[[[-90.61,45.179],[-90.956,45.24],[-91.445,45.301],[-91.954,45.342],[-92.361,45.342],[-92.871,45.26],[-93.339,45.118],[-93.828,44.873],[-94.072,44.629],[-94.174,44.222],[-94.113,43.753],[-93.889,43.305],[-93.543,42.979],[-93.156,42.735],[-92.748,42.572],[-91.796,42.219],[-90.94,41.954],[-90.513,41.69],[-90.187,41.405],[-89.983,41.14],[-89.82,40.753],[-89.678,40.264],[-89.637,39.979],[-89.637,39.674],[-89.535,39.022],[-89.618,38.552],[-89.772,37.982],[-89.79,37.719],[-89.564,37.502],[-89.066,37.249],[-87.826,36.787],[-87.149,36.706],[-86.947,36.793],[-86.822,36.914],[-86.587,37.203],[-86.387,37.484],[-86.224,37.629],[-86.098,37.683],[-85.971,37.665],[-85.782,37.671],[-85.5,37.602],[-84.876,37.502],[-82.917,37.464],[-82.276,37.495],[-81.023,37.617],[-79.221,37.647],[-78.824,37.525],[-77.907,37.128],[-77.388,36.853],[-76.716,36.242],[-76.655,35.845],[-76.808,35.112],[-77.022,34.868],[-77.846,34.165],[-78.579,33.615],[-78.793,33.401],[-78.915,33.035],[-78.977,32.729],[-78.977,32.363],[-78.854,32.118],[-77.999,31.691],[-77.449,31.66],[-76.808,31.599],[-76.197,31.63],[-75.647,31.691],[-74.67,31.935],[-74.059,32.149],[-73.6,32.454],[-73.264,32.729],[-72.592,33.34],[-72.195,33.615],[-71.707,33.737],[-71.126,33.768],[-70.454,33.829],[-69.752,33.829],[-69.11,33.89],[-68.469,34.073],[-67.766,34.745],[-67.552,35.112],[-67.094,35.601],[-66.697,35.937],[-66.208,36.212],[-65.506,36.456],[-64.895,36.609],[-64.375,36.761],[-63.948,37.006],[-62.146,37.678],[-61.443,37.617],[-60.893,37.617],[-60.465,37.678],[-59.824,37.739],[-59.152,37.892],[-55.945,38.686],[-55.456,38.869],[-54.937,39.175],[-54.57,39.511],[-53.745,40.335],[-53.226,40.702],[-52.798,40.946],[-52.462,41.069],[-51.79,41.252],[-51.607,41.282],[-51.271,41.679],[-50.966,42.168],[-50.66,42.81],[-50.599,43.298],[-50.752,43.909],[-51.179,44.306],[-51.668,44.368],[-52.249,44.306],[-52.737,44.062],[-53.257,43.665],[-53.623,43.329],[-54.142,42.779],[-54.814,42.26],[-55.486,41.71],[-56.067,41.343],[-56.708,40.977],[-57.777,40.488],[-58.083,40.366],[-58.602,40.091],[-59.121,39.847],[-59.824,39.572],[-60.557,39.327],[-61.076,39.236],[-61.748,39.144],[-62.665,39.083],[-63.612,39.083],[-64.436,39.052],[-66.178,39.114],[-66.941,39.205],[-67.644,39.388],[-68.316,39.45],[-69.263,39.633],[-71.248,40.06],[-71.859,40.274],[-73.621,40.977],[-74.232,41.343],[-74.944,41.873],[-75.494,42.178],[-76.166,42.463],[-77.408,42.85],[-78.569,43.095],[-79.289,43.373],[-80.076,43.59],[-80.701,43.821],[-81.868,44.174],[-83.022,44.337],[-84.597,44.513],[-86.077,44.581],[-87.91,44.771],[-89.484,45.043],[-90.61,45.179]]]}},{"type":"Feature","properties":{"density":2},"geometry":{"type":"Polygon","coordinates":[[[-95.26,16.633],[-95.613,16.461],[-95.776,16.343],[-95.858,16.225],[-96.075,15.71],[-96.337,15.357],[-96.5,15.103],[-96.636,14.804],[-96.718,14.461],[-96.709,14.18],[-96.573,13.872],[-96.437,13.673],[-96.175,13.42],[-95.876,13.311],[-95.55,13.266],[-95.134,13.338],[-94.817,13.447],[-94.554,13.628],[-93.993,14.379],[-93.803,14.542],[-93.369,14.732],[-93.188,14.832],[-92.998,14.976],[-92.889,15.148],[-92.862,15.366],[-92.98,15.601],[-93.179,15.755],[-93.396,15.845],[-93.622,15.872],[-93.957,15.863],[-94.174,15.881],[-94.355,16.008],[-94.437,16.135],[-94.482,16.307],[-94.545,16.443],[-94.69,16.524],[-95.016,16.633],[-95.26,16.633]]]}},{"type":"Feature","properties":{"density":2},"geometry":{"type":"Polygon","coordinates":[[[-87.976,33.04],[-88.037,33.087],[-88.114,33.101],[-88.229,33.161],[-88.292,33.141],[-88.276,33.107],[-88.006,32.993],[-87.965,32.99],[-87.95,33.004],[-87.976,33.04]]]}},{"type":"Feature","properties":{"density":2},"geometry":{"type":"Polygon","coordinates":[[[-92.779,31.256],[-92.809,31.178],[-92.796,31.151],[-92.772,31.163],[-92.731,31.259],[-92.761,31.283],[-92.779,31.256]]]}},{"type":"Feature","properties":{"density":2},"geometry":{"type":"Polygon","coordinates":[[[-91.346,33.695],[-91.444,33.615],[-91.432,33.562],[-91.389,33.566],[-91.306,33.648],[-91.312,33.692],[-91.346,33.695]]]}},{"type":"Feature","properties":{"density":2},"geometry":{"type":"Polygon","coordinates":[[[-124.082,41.529],[-124.052,41.384],[-123.978,41.246],[-123.903,41.148],[-123.667,40.966],[-123.633,40.959],[-123.576,40.993],[-123.519,41.131],[-123.407,41.242],[-123.387,41.313],[-123.424,41.458],[-123.417,41.509],[-123.384,41.576],[-123.259,41.681],[-123.238,41.728],[-123.238,41.843],[-123.269,41.9],[-123.326,41.904],[-123.454,41.826],[-123.603,41.688],[-123.802,41.617],[-123.836,41.576],[-123.924,41.573],[-123.988,41.6],[-124.059,41.6],[-124.079,41.583],[-124.082,41.529]]]}},{"type":"Feature","properties":{"density":2},"geometry":{"type":"Polygon","coordinates":[[[-121.806,42.589],[-121.779,42.476],[-121.725,42.409],[-121.577,42.332],[-121.5,42.314],[-121.496,42.38],[-121.62,42.485],[-121.701,42.67],[-121.732,42.695],[-121.791,42.674],[-121.809,42.634],[-121.806,42.589]]]}},{"type":"Feature","properties":{"density":2},"geometry":{"type":"Polygon","coordinates":[[[-120.003,44.863],[-120.244,44.892],[-120.277,44.865],[-120.257,44.841],[-120.219,44.832],[-119.971,44.802],[-119.965,44.841],[-120.003,44.863]]]}},{"type":"Feature","properties":{"density":2},"geometry":{"type":"Polygon","coordinates":[[[-121.269,45.354],[-121.513,45.462],[-121.638,45.536],[-121.752,45.575],[-121.795,45.561],[-121.809,45.542],[-121.798,45.509],[-121.608,45.351],[-121.803,45.368],[-121.803,45.327],[-121.747,45.29],[-121.638,45.275],[-121.621,45.255],[-121.851,45.138],[-122.169,45.141],[-122.226,45.083],[-122.254,44.997],[-122.253,44.951],[-122.214,44.906],[-122.109,44.874],[-122.04,44.865],[-121.981,44.882],[-121.915,44.759],[-121.867,44.738],[-121.81,44.748],[-121.795,44.766],[-121.776,44.954],[-121.663,45.008],[-121.525,45.119],[-121.366,45.207],[-121.27,45.237],[-121.237,45.281],[-121.269,45.354]]]}},{"type":"Feature","properties":{"density":2},"geometry":{"type":"Polygon","coordinates":[[[-117.97,45.885],[-117.941,45.927],[-117.929,46.035],[-117.968,46.067],[-118.031,46.064],[-118.091,46.032],[-118.109,45.951],[-118.165,45.879],[-118.415,45.794],[-118.46,45.744],[-118.48,45.659],[-118.456,45.587],[-118.367,45.465],[-118.318,45.453],[-118.196,45.471],[-118.099,45.536],[-118.075,45.605],[-117.998,45.705],[-117.998,45.824],[-117.97,45.885]]]}},{"type":"Feature","properties":{"density":2},"geometry":{"type":"Polygon","coordinates":[[[-119.442,48.764],[-119.398,48.906],[-119.506,49.476],[-119.56,49.608],[-119.692,49.736],[-119.945,49.83],[-120.174,49.817],[-120.509,49.709],[-120.637,49.702],[-120.718,49.766],[-120.725,49.824],[-120.687,49.898],[-120.698,49.999],[-120.738,50.239],[-120.789,50.37],[-120.819,50.509],[-120.833,50.657],[-120.775,50.802],[-120.775,50.944],[-120.799,51.167],[-120.863,51.315],[-121.514,51.508],[-121.96,51.683],[-122.162,51.734],[-122.334,51.757],[-122.772,51.93],[-123.323,52.092],[-123.47,52.086],[-123.885,52.142],[-123.997,52.132],[-124.123,52.026],[-124.169,51.869],[-124.154,51.692],[-123.916,50.897],[-123.885,50.674],[-123.88,50.497],[-123.774,50.239],[-123.592,49.975],[-123.531,49.697],[-123.323,49.231],[-123.187,48.983],[-123.035,48.755],[-122.893,48.497],[-122.67,48.29],[-122.498,48.209],[-122.235,48.163],[-121.855,48.254],[-121.653,48.188],[-121.486,48.092],[-121.308,47.88],[-121.146,47.723],[-121.131,47.677],[-121.157,47.601],[-121.389,47.469],[-121.42,47.383],[-121.389,47.252],[-121.303,47.171],[-121.131,47.11],[-120.903,47.105],[-120.731,47.07],[-120.579,47.105],[-120.463,47.171],[-120.423,47.247],[-120.412,47.394],[-120.326,47.469],[-120.007,47.596],[-119.618,47.697],[-119.43,47.799],[-119.359,47.885],[-119.304,48.107],[-119.339,48.244],[-119.451,48.543],[-119.476,48.715],[-119.442,48.764]]]}},{"type":"Feature","properties":{"density":2},"geometry":{"type":"Polygon","coordinates":[[[-116.994,50.416],[-117.1,50.497],[-117.514,50.715],[-117.595,50.801],[-117.631,50.816],[-117.761,50.834],[-117.813,50.816],[-117.881,50.778],[-117.953,50.666],[-117.962,50.596],[-117.921,50.54],[-117.876,50.54],[-117.791,50.571],[-117.732,50.616],[-117.678,50.618],[-117.082,50.317],[-117.046,50.312],[-116.99,50.335],[-116.969,50.369],[-116.994,50.416]]]}},{"type":"Feature","properties":{"density":2},"geometry":{"type":"Polygon","coordinates":[[[-119.993,51.181],[-119.841,51.299],[-119.683,51.326],[-119.646,51.363],[-119.636,51.41],[-119.656,51.457],[-119.693,51.491],[-119.754,51.515],[-119.868,51.532],[-120.074,51.461],[-120.392,51.39],[-120.466,51.316],[-120.473,51.201],[-120.405,51.143],[-120.28,51.123],[-119.993,51.181]]]}},{"type":"Feature","properties":{"density":2},"geometry":{"type":"Polygon","coordinates":[[[-102.741,17.752],[-102.759,17.804],[-102.748,17.881],[-102.723,17.917],[-102.529,18.054],[-102.509,18.108],[-102.451,18.187],[-102.451,18.238],[-102.491,18.26],[-102.622,18.225],[-102.696,18.227],[-102.788,18.205],[-102.93,18.013],[-102.952,17.908],[-102.943,17.84],[-102.885,17.728],[-102.804,17.66],[-102.763,17.68],[-102.741,17.752]]]}},{"type":"Feature","properties":{"density":2},"geometry":{"type":"Polygon","coordinates":[[[-99.101,33.289],[-99.013,33.08],[-98.959,33.083],[-98.908,33.185],[-98.908,33.239],[-98.932,33.431],[-98.929,33.559],[-98.942,33.617],[-98.979,33.65],[-99.033,33.623],[-99.128,33.482],[-99.134,33.411],[-99.101,33.289]]]}},{"type":"Feature","properties":{"density":2},"geometry":{"type":"Polygon","coordinates":[[[-123.445,41.837],[-123.746,41.601],[-123.921,41.527],[-123.962,41.419],[-123.911,41.196],[-123.8,41.034],[-123.742,40.973],[-123.685,40.943],[-123.577,40.923],[-123.519,40.96],[-123.472,41.048],[-123.368,41.162],[-123.317,41.25],[-123.297,41.486],[-123.216,41.658],[-123.216,41.858],[-123.256,41.895],[-123.3,41.908],[-123.445,41.837]]]}},{"type":"Feature","properties":{"density":2},"geometry":{"type":"Polygon","coordinates":[[[-121.579,45.172],[-121.532,45.155],[-121.481,45.162],[-121.386,45.202],[-121.258,45.226],[-121.221,45.27],[-121.241,45.354],[-121.272,45.395],[-121.518,45.58],[-121.724,45.773],[-121.812,45.823],[-121.964,45.881],[-122.078,45.901],[-122.139,45.901],[-122.23,45.84],[-122.223,45.726],[-122.112,45.55],[-122.092,45.479],[-122.092,45.395],[-122.119,45.314],[-122.193,45.25],[-122.325,45.206],[-122.369,45.125],[-122.375,45.051],[-122.355,44.97],[-122.288,44.899],[-122.217,44.848],[-121.957,44.791],[-121.785,44.845],[-121.748,44.885],[-121.768,44.959],[-121.856,45.098],[-121.967,45.213],[-121.967,45.243],[-121.947,45.256],[-121.913,45.25],[-121.758,45.192],[-121.579,45.172]]]}},{"type":"Feature","properties":{"density":2},"geometry":{"type":"Polygon","coordinates":[[[-117.89,46.08],[-118.011,46.084],[-118.098,46.039],[-118.255,45.918],[-118.402,45.756],[-118.468,45.609],[-118.579,45.447],[-118.7,45.376],[-118.883,45.33],[-118.918,45.295],[-118.948,45.224],[-118.923,45.138],[-118.867,45.123],[-118.7,45.123],[-118.594,45.143],[-118.462,45.194],[-118.245,45.335],[-118.088,45.492],[-118.007,45.538],[-117.804,45.614],[-117.673,45.644],[-117.232,45.654],[-117.121,45.68],[-117.004,45.725],[-116.751,45.882],[-116.696,45.988],[-116.696,46.12],[-116.812,46.186],[-116.954,46.191],[-117.323,46.166],[-117.445,46.15],[-117.627,46.085],[-117.89,46.08]]]}},{"type":"Feature","properties":{"density":2},"geometry":{"type":"Polygon","coordinates":[[[-119.461,45.091],[-119.602,45.058],[-120.109,45.014],[-120.379,44.973],[-120.544,44.857],[-120.741,44.675],[-120.984,44.614],[-121.045,44.584],[-121.086,44.442],[-121.065,44.381],[-120.984,44.295],[-120.843,44.27],[-120.706,44.28],[-120.316,44.442],[-120.114,44.447],[-119.744,44.401],[-119.618,44.406],[-119.542,44.437],[-119.359,44.538],[-119.218,44.776],[-119.172,44.908],[-119.187,44.989],[-119.228,45.07],[-119.283,45.105],[-119.354,45.125],[-119.461,45.091]]]}},{"type":"Feature","properties":{"density":2},"geometry":{"type":"Polygon","coordinates":[[[-121.869,42.459],[-121.803,42.383],[-121.702,42.317],[-121.596,42.281],[-121.51,42.297],[-121.464,42.337],[-121.459,42.408],[-121.489,42.514],[-121.601,42.696],[-121.651,42.853],[-121.687,42.919],[-121.753,42.99],[-121.834,43.02],[-121.93,43.015],[-122.021,42.975],[-122.077,42.919],[-122.102,42.843],[-122.061,42.747],[-121.869,42.459]]]}},{"type":"Feature","properties":{"density":2},"geometry":{"type":"Polygon","coordinates":[[[-120.794,50.176],[-120.714,50.495],[-120.726,50.768],[-120.863,51.133],[-121.056,51.383],[-121.398,51.543],[-122.229,51.805],[-122.48,51.941],[-122.708,52.021],[-122.879,51.907],[-122.981,51.782],[-123.061,51.611],[-123.095,51.497],[-123.106,51.349],[-123.084,51.11],[-122.913,50.802],[-122.856,50.563],[-122.844,50.221],[-123.061,49.891],[-123.494,49.72],[-123.984,49.663],[-124.234,49.492],[-124.28,49.196],[-123.927,48.843],[-123.448,48.593],[-123.129,48.331],[-122.981,47.909],[-122.514,47.636],[-121.74,47.397],[-121.5,47.442],[-121.193,47.476],[-121.011,47.419],[-120.806,47.328],[-120.418,47.271],[-120.156,47.34],[-119.849,47.328],[-119.553,47.397],[-119.427,47.488],[-119.336,47.579],[-119.222,47.829],[-119.234,48.695],[-119.37,49.333],[-119.461,49.595],[-119.803,49.789],[-119.94,49.811],[-120.247,49.823],[-120.407,49.857],[-120.544,49.925],[-120.679,50.015],[-120.737,50.073],[-120.794,50.176]]]}},{"type":"Feature","properties":{"density":2},"geometry":{"type":"Polygon","coordinates":[[[-102.584,18.071],[-102.561,18.117],[-102.473,18.2],[-102.473,18.228],[-102.497,18.257],[-102.534,18.269],[-102.6,18.257],[-102.659,18.227],[-102.806,18.123],[-102.903,18.074],[-102.92,18.023],[-102.903,17.946],[-102.867,17.885],[-102.785,17.841],[-102.695,17.765],[-102.597,17.721],[-102.557,17.732],[-102.527,17.774],[-102.54,17.829],[-102.644,17.919],[-102.654,17.951],[-102.651,17.987],[-102.584,18.071]]]}},{"type":"Feature","properties":{"density":2},"geometry":{"type":"Polygon","coordinates":[[[-93.97,18.215],[-93.929,18.195],[-93.884,18.215],[-93.887,18.236],[-93.916,18.249],[-94.001,18.256],[-94.211,18.33],[-94.384,18.33],[-94.438,18.281],[-94.422,18.256],[-94.395,18.251],[-94.235,18.254],[-93.97,18.215]]]}},{"type":"Feature","properties":{"density":2},"geometry":{"type":"Polygon","coordinates":[[[-92.781,31.848],[-92.786,31.55],[-92.832,31.327],[-92.892,30.836],[-92.877,30.73],[-92.857,30.709],[-92.816,30.73],[-92.735,31.094],[-92.73,31.469],[-92.639,31.732],[-92.639,31.864],[-92.67,31.95],[-92.695,31.97],[-92.735,31.965],[-92.766,31.94],[-92.781,31.848]]]}},{"type":"Feature","properties":{"density":2},"geometry":{"type":"Polygon","coordinates":[[[-99.104,34.348],[-99.144,34.398],[-99.192,34.405],[-99.242,34.334],[-99.273,34.216],[-99.266,34.074],[-99.175,33.757],[-99.165,33.551],[-99.128,33.291],[-99.03,33.072],[-98.993,33.055],[-98.939,33.058],[-98.905,33.085],[-98.918,33.281],[-98.871,33.382],[-98.834,33.517],[-98.837,33.72],[-98.922,33.895],[-98.979,34.223],[-99.104,34.348]]]}},{"type":"Feature","properties":{"density":2},"geometry":{"type":"Polygon","coordinates":[[[-121.495,36.166],[-121.619,36.15],[-121.783,36.087],[-121.853,36.085],[-122.154,36.238],[-122.17,36.321],[-122.105,36.355],[-121.819,36.306],[-121.754,36.328],[-121.646,36.317],[-121.491,36.256],[-121.466,36.231],[-121.464,36.195],[-121.495,36.166]]]}},{"type":"Feature","properties":{"density":2},"geometry":{"type":"Polygon","coordinates":[[[-122.187,39.25],[-122.101,39.21],[-122.077,39.246],[-122.092,39.273],[-122.254,39.358],[-122.299,39.361],[-122.317,39.345],[-122.326,39.325],[-122.295,39.295],[-122.187,39.25]]]}},{"type":"Feature","properties":{"density":2},"geometry":{"type":"Polygon","coordinates":[[[-123.41,41.994],[-123.542,42.126],[-123.613,42.247],[-123.689,42.262],[-123.81,42.192],[-123.881,42.095],[-123.901,41.999],[-123.881,41.898],[-123.841,41.802],[-123.81,41.614],[-123.841,41.447],[-123.841,41.24],[-123.785,41.123],[-123.704,41.032],[-123.689,40.946],[-123.582,40.698],[-123.517,40.668],[-123.466,40.708],[-123.491,40.901],[-123.476,40.972],[-123.431,41.022],[-123.208,41.027],[-123.096,41.047],[-123.046,41.103],[-123.026,41.22],[-123.036,41.68],[-122.97,41.888],[-122.96,41.999],[-122.99,42.085],[-123.122,42.111],[-123.329,41.999],[-123.41,41.994]]]}},{"type":"Feature","properties":{"density":2},"geometry":{"type":"Polygon","coordinates":[[[-117.705,46.085],[-117.844,46.129],[-117.962,46.139],[-118.235,46.011],[-118.33,45.933],[-118.404,45.839],[-118.481,45.64],[-118.738,45.302],[-118.822,45.164],[-118.839,45.026],[-118.785,44.945],[-118.674,44.901],[-118.539,44.891],[-118.384,44.907],[-118.242,45.019],[-118.107,45.258],[-118.006,45.38],[-117.898,45.441],[-117.766,45.474],[-117.412,45.495],[-117.182,45.545],[-116.959,45.66],[-116.895,45.788],[-116.939,45.947],[-117.04,46.082],[-117.175,46.129],[-117.337,46.133],[-117.705,46.085]]]}},{"type":"Feature","properties":{"density":2},"geometry":{"type":"Polygon","coordinates":[[[-124.16,45.168],[-123.651,44.925],[-123.34,44.826],[-123.066,44.796],[-122.869,44.818],[-122.725,44.856],[-122.55,44.834],[-122.36,44.629],[-122.337,44.401],[-122.459,44.158],[-122.725,43.793],[-122.854,43.474],[-122.861,43.095],[-122.793,42.692],[-122.725,42.464],[-122.611,42.252],[-122.307,42.047],[-122.11,41.948],[-121.98,41.94],[-121.715,41.978],[-121.593,42.123],[-121.54,42.297],[-121.441,42.434],[-121.198,42.586],[-120.902,42.7],[-120.56,43.041],[-120.439,43.254],[-120.264,43.459],[-120.059,43.626],[-119.847,43.763],[-119.664,43.953],[-119.573,44.165],[-119.49,44.424],[-119.467,44.72],[-119.573,45.008],[-119.763,45.168],[-120.082,45.206],[-120.386,45.107],[-120.712,44.917],[-120.872,44.894],[-120.993,44.925],[-121.054,45.001],[-121.031,45.175],[-120.819,45.289],[-120.446,45.449],[-120.268,45.768],[-120.268,45.95],[-120.314,46.2],[-120.325,46.531],[-120.154,46.747],[-119.949,46.918],[-119.38,47.134],[-119.106,47.283],[-118.878,47.34],[-118.582,47.396],[-118.24,47.374],[-117.785,47.374],[-117.363,47.34],[-116.965,47.396],[-116.782,47.453],[-116.532,47.579],[-116.293,47.727],[-116.224,47.818],[-116.133,48.057],[-116.202,48.353],[-116.395,48.627],[-116.714,48.798],[-117.044,48.911],[-117.363,49.071],[-117.762,49.481],[-118.024,49.64],[-118.411,49.788],[-119.049,49.937],[-119.516,50.107],[-119.801,50.244],[-120.177,50.495],[-120.371,50.871],[-120.621,51.565],[-120.94,51.93],[-121.715,52.329],[-122.113,52.351],[-122.535,52.42],[-122.911,52.591],[-124.369,53.16],[-125.906,53.616],[-126.499,53.718],[-126.909,53.661],[-127.877,53.365],[-128.31,53.126],[-128.606,52.75],[-128.743,52.386],[-128.811,51.862],[-128.708,51.622],[-128.333,51.303],[-127.729,51.007],[-127.125,50.597],[-126.852,50.21],[-126.692,49.754],[-126.67,49.452],[-126.328,48.854],[-125.781,48.53],[-125.012,48.308],[-124.431,48.086],[-123.936,47.658],[-123.816,47.453],[-123.748,47.146],[-123.748,46.855],[-123.936,46.428],[-124.209,46.121],[-124.448,45.882],[-124.483,45.659],[-124.346,45.318],[-124.16,45.168]]]}},{"type":"Feature","properties":{"density":2},"geometry":{"type":"Polygon","coordinates":[[[-102.577,18.095],[-102.459,18.189],[-102.438,18.287],[-102.472,18.361],[-102.516,18.375],[-102.638,18.375],[-102.705,18.348],[-102.773,18.273],[-102.833,18.138],[-102.891,18.074],[-102.945,18.03],[-103.056,17.997],[-103.113,17.936],[-103.103,17.811],[-103.059,17.737],[-102.948,17.629],[-102.857,17.612],[-102.796,17.679],[-102.901,17.858],[-102.894,17.922],[-102.87,17.97],[-102.719,18.054],[-102.577,18.095]]]}},{"type":"Feature","properties":{"density":2},"geometry":{"type":"Polygon","coordinates":[[[-93.588,16.866],[-93.658,16.891],[-93.704,16.962],[-93.719,17.063],[-93.643,17.195],[-93.572,17.301],[-93.436,17.418],[-93.324,17.499],[-93.193,17.565],[-93.076,17.666],[-93.031,17.747],[-93.016,17.833],[-93.021,17.914],[-93.086,18.041],[-93.193,18.162],[-93.415,18.243],[-93.658,18.192],[-94.053,18.046],[-94.311,18.02],[-94.671,18.076],[-94.833,17.934],[-94.889,17.808],[-94.959,17.727],[-95.051,17.691],[-95.192,17.686],[-95.359,17.737],[-95.587,17.696],[-95.704,17.62],[-95.769,17.479],[-95.719,17.205],[-95.597,17.053],[-95.466,16.977],[-95.283,16.81],[-95.111,16.679],[-94.873,16.623],[-94.676,16.674],[-94.59,16.81],[-94.565,16.993],[-94.479,17.099],[-94.347,17.129],[-94.18,17.033],[-93.891,16.815],[-93.724,16.739],[-93.603,16.704],[-93.552,16.719],[-93.517,16.78],[-93.542,16.831],[-93.588,16.866]]]}},{"type":"Feature","properties":{"density":2},"geometry":{"type":"Polygon","coordinates":[[[-72.713,62.096],[-75.916,63.736],[-77.146,64.659],[-79.222,66.068],[-80.017,67.145],[-80.299,67.99],[-80.299,69.041],[-79.991,69.682],[-79.197,70.246],[-78.3,70.809],[-77.838,71.604],[-78.172,72.398],[-79.146,72.86],[-80.529,73.116],[-81.503,73.065],[-82.708,72.809],[-83.733,72.501],[-85.143,72.373],[-86.219,72.398],[-88.321,72.68],[-90.576,73.014],[-92.293,72.86],[-93.19,72.424],[-93.626,71.553],[-93.703,70.656],[-93.293,68.964],[-91.755,66.529],[-89.653,65.325],[-86.527,64.197],[-84.912,63.377],[-83.349,62.48],[-81.965,61.66],[-80.555,60.789],[-79.351,60.302],[-77.531,59.84],[-76.736,60.122],[-76.326,60.43],[-75.224,60.584],[-73.61,60.43],[-72.815,60.507],[-72.072,60.635],[-71.816,60.865],[-71.816,61.199],[-71.995,61.634],[-72.431,61.942],[-72.713,62.096]]]}},{"type":"Feature","properties":{"density":2},"geometry":{"type":"Polygon","coordinates":[[[-56.695,62.903],[-58.348,62.019],[-59.655,60.789],[-61.077,58.982],[-62.615,58.098],[-66.036,57.982],[-68.42,58.328],[-71.534,58.597],[-74.071,58.866],[-76.8,59.443],[-79.107,59.828],[-80.529,60.443],[-82.913,61.442],[-86.809,63.01],[-87.953,63.351],[-90.072,64.018],[-91.183,64.223],[-92.977,64.411],[-95.864,64.513],[-97.128,64.667],[-100.511,65.231],[-101.827,65.521],[-102.972,65.863],[-104.031,66.205],[-105.415,66.598],[-107.961,67.076],[-109.157,67.093],[-110.455,66.957],[-112.984,66.307],[-114.676,66.102],[-116.077,66.034],[-117.068,65.88],[-117.888,65.931],[-119.323,66.393],[-120.229,66.632],[-121.305,66.871],[-123.236,67.196],[-124.825,67.606],[-125.901,67.896],[-127.986,68.546],[-129.13,68.734],[-130.753,68.956],[-132.496,69.109],[-133.368,69.041],[-134.461,68.802],[-134.854,68.46],[-135.162,67.93],[-135.315,67.401],[-135.162,66.7],[-134.376,66.085],[-132.308,65.094],[-130.566,64.599],[-128.703,64.206],[-126.277,63.659],[-125.235,63.471],[-124.842,63.198],[-124.654,62.976],[-124.38,62.36],[-124.158,61.78],[-123.868,61.318],[-123.27,60.806],[-121.818,60.31],[-120.707,60.191],[-117.597,60.327],[-116.299,60.549],[-115.171,60.874],[-114.197,61.199],[-112.642,61.66],[-112.249,61.882],[-111.446,62.019],[-111.378,61.899],[-111.446,61.78],[-111.617,61.66],[-112.284,61.472],[-113.48,61.096],[-114.3,60.737],[-114.641,60.413],[-114.744,60.02],[-114.659,59.644],[-114.402,59.302],[-114.061,59.063],[-113.326,58.841],[-112.762,58.721],[-112.284,58.533],[-111.703,57.679],[-111.224,57.32],[-110.114,57.064],[-109.089,57.064],[-108.08,57.423],[-106.679,57.508],[-105.569,57.525],[-103.929,57.508],[-103.057,57.354],[-102.203,57.149],[-99.298,56.056],[-98.376,55.851],[-97.18,55.714],[-96.462,55.68],[-95.146,55.526],[-94.361,55.424],[-93.711,55.304],[-93.011,54.945],[-92.498,54.416],[-91.849,53.783],[-91.183,53.51],[-90.226,53.305],[-88.825,53.066],[-88.005,52.844],[-87.321,52.536],[-86.689,52.075],[-86.176,51.767],[-85.322,51.528],[-84.297,51.545],[-83.631,51.733],[-82.896,51.75],[-82.059,51.528],[-80.726,50.964],[-79.837,50.264],[-79.154,49.649],[-78.266,49.221],[-77.48,49.221],[-76.557,49.461],[-75.669,49.973],[-75.002,50.281],[-73.721,50.452],[-72.149,50.195],[-69.727,50.106],[-67.959,50.336],[-66.921,50.605],[-64.998,50.951],[-62.692,51.259],[-61.192,51.528],[-58.694,52.066],[-54.811,54.027],[-53.427,55.065],[-51.851,56.218],[-50.505,57.679],[-50.313,59.14],[-51.043,60.831],[-52.85,62.638],[-55.503,63.484],[-56.541,63.061],[-56.695,62.903]]]}},{"type":"Feature","properties":{"density":2},"geometry":{"type":"Polygon","coordinates":[[[-96.669,16.695],[-96.959,16.387],[-97.677,15.841],[-97.967,15.482],[-98.292,15.174],[-98.617,14.918],[-98.941,14.764],[-99.403,14.679],[-99.761,14.542],[-100.018,13.91],[-99.847,13.09],[-99.266,12.611],[-98.788,12.526],[-97.096,12.816],[-96.122,12.953],[-95.336,13.141],[-94.619,13.773],[-94.448,14.183],[-93.747,15.396],[-93.696,15.96],[-93.816,16.285],[-94.209,16.49],[-94.636,16.575],[-95.182,16.712],[-95.644,16.951],[-96.327,16.832],[-96.669,16.695]]]}},{"type":"Feature","properties":{"density":3},"geometry":{"type":"Polygon","coordinates":[[[-123.371,41.773],[-123.449,41.671],[-123.516,41.44],[-123.691,41.314],[-123.75,41.237],[-123.763,41.148],[-123.709,41.076],[-123.658,41.078],[-123.599,41.135],[-123.535,41.229],[-123.455,41.459],[-123.331,41.569],[-123.28,41.647],[-123.275,41.725],[-123.291,41.789],[-123.345,41.789],[-123.371,41.773]]]}},{"type":"Feature","properties":{"density":3},"geometry":{"type":"Polygon","coordinates":[[[-123.045,42.486],[-123.181,42.48],[-123.215,42.429],[-123.107,42.424],[-123.009,42.465],[-123.016,42.482],[-123.045,42.486]]]}},{"type":"Feature","properties":{"density":3},"geometry":{"type":"Polygon","coordinates":[[[-118.167,45.742],[-118.221,45.695],[-118.233,45.659],[-118.182,45.604],[-118.137,45.591],[-118.121,45.607],[-118.132,45.686],[-118.108,45.731],[-118.167,45.742]]]}},{"type":"Feature","properties":{"density":3},"geometry":{"type":"Polygon","coordinates":[[[-120.637,48.085],[-120.771,48.112],[-120.806,48.101],[-120.918,48.01],[-120.91,47.922],[-120.886,47.882],[-120.819,47.839],[-120.752,47.747],[-120.68,47.758],[-120.618,47.86],[-120.438,47.919],[-120.401,47.946],[-120.382,47.986],[-120.395,48.059],[-120.637,48.085]]]}},{"type":"Feature","properties":{"density":3},"geometry":{"type":"Polygon","coordinates":[[[-123.049,61.979],[-123.074,61.971],[-123.084,61.909],[-123.052,61.871],[-123.028,61.783],[-123.012,61.775],[-122.985,61.783],[-122.969,61.826],[-123.049,61.979]]]}},{"type":"Feature","properties":{"density":3},"geometry":{"type":"Polygon","coordinates":[[[-122.395,61.778],[-122.502,61.81],[-122.575,61.783],[-122.583,61.764],[-122.556,61.686],[-122.559,61.571],[-122.543,61.539],[-122.497,61.523],[-122.325,61.587],[-122.172,61.544],[-122.087,61.539],[-122.065,61.555],[-122.063,61.585],[-122.087,61.611],[-122.395,61.778]]]}},{"type":"Feature","properties":{"density":3},"geometry":{"type":"Polygon","coordinates":[[[-121.835,61.847],[-121.861,61.855],[-121.899,61.842],[-121.918,61.812],[-121.894,61.729],[-121.931,61.662],[-121.915,61.614],[-121.883,61.593],[-121.778,61.576],[-121.663,61.609],[-121.631,61.635],[-121.607,61.673],[-121.652,61.74],[-121.835,61.847]]]}},{"type":"Feature","properties":{"density":3},"geometry":{"type":"Polygon","coordinates":[[[-112.509,62.323],[-112.562,62.358],[-112.6,62.33],[-112.589,62.308],[-112.528,62.281],[-112.509,62.29],[-112.509,62.323]]]}},{"type":"Feature","properties":{"density":3},"geometry":{"type":"Polygon","coordinates":[[[-121.864,51.516],[-122.0,51.571],[-122.172,51.616],[-122.362,51.607],[-122.815,51.67],[-122.996,51.715],[-123.068,51.652],[-123.122,51.507],[-123.095,51.353],[-123.032,51.19],[-122.887,51.018],[-122.706,50.892],[-122.443,50.792],[-122.272,50.702],[-122.136,50.602],[-122.036,50.43],[-121.941,50.159],[-121.932,50.014],[-121.968,49.815],[-122.041,49.643],[-122.457,49.163],[-122.674,49.009],[-122.937,48.982],[-123.181,49.091],[-123.38,49.263],[-123.534,49.471],[-123.96,49.978],[-124.656,50.276],[-125.073,50.421],[-126.141,50.711],[-127.173,50.883],[-128.069,51.145],[-128.458,51.19],[-128.729,51.109],[-128.946,50.901],[-128.91,50.72],[-128.738,50.566],[-128.304,50.457],[-128.014,50.43],[-127.317,50.466],[-126.62,50.385],[-126.322,50.322],[-125.58,50.041],[-124.883,49.697],[-124.584,49.507],[-124.34,49.308],[-123.498,48.883],[-123.172,48.656],[-122.64,48.539],[-122.296,48.539],[-122.16,48.52],[-122.015,48.466],[-121.617,48.14],[-121.246,48.032],[-121.001,47.914],[-120.848,47.86],[-120.657,47.824],[-120.476,47.833],[-120.314,47.878],[-120.214,47.95],[-120.151,48.041],[-120.069,48.168],[-119.87,48.548],[-119.644,49.136],[-119.617,49.308],[-119.617,49.561],[-119.698,49.643],[-119.752,49.652],[-119.825,49.607],[-119.87,49.534],[-119.834,49.317],[-119.843,49.199],[-119.97,48.964],[-120.051,48.919],[-120.214,48.901],[-120.341,48.982],[-120.44,49.154],[-120.449,49.29],[-120.359,49.389],[-120.25,49.426],[-120.133,49.489],[-120.069,49.57],[-120.024,49.779],[-120.105,49.878],[-120.305,49.969],[-120.513,50.15],[-120.594,50.285],[-120.712,50.584],[-120.857,50.828],[-120.929,50.946],[-121.074,51.091],[-121.345,51.317],[-121.864,51.516]]]}},{"type":"Feature","properties":{"density":3},"geometry":{"type":"Polygon","coordinates":[[[-122.755,62.453],[-122.938,62.432],[-123.122,62.269],[-123.223,62.045],[-123.244,61.862],[-123.244,61.679],[-123.284,61.495],[-123.244,61.292],[-123.122,61.149],[-122.735,61.007],[-122.409,60.946],[-122.002,60.905],[-121.574,60.885],[-121.187,60.905],[-120.352,61.109],[-120.006,61.231],[-118.377,61.943],[-118.071,62.025],[-117.664,62.086],[-117.338,62.106],[-116.625,62.229],[-116.014,62.432],[-115.689,62.595],[-115.465,62.778],[-115.342,63.043],[-115.322,63.288],[-115.485,63.532],[-115.892,63.715],[-116.279,63.797],[-116.91,63.837],[-117.766,63.776],[-118.051,63.736],[-118.336,63.654],[-120.047,63.043],[-120.963,62.799],[-121.452,62.717],[-122.409,62.514],[-122.612,62.493],[-122.755,62.453]]]}},{"type":"Feature","properties":{"density":3},"geometry":{"type":"Polygon","coordinates":[[[-107.706,64.856],[-108.164,64.764],[-108.714,64.703],[-109.325,64.52],[-109.783,64.275],[-110.486,63.573],[-110.944,63.267],[-111.402,63.176],[-112.41,63.114],[-112.899,63.053],[-113.479,62.931],[-114.09,62.656],[-115.098,62.137],[-115.495,61.77],[-115.74,61.343],[-115.801,61.007],[-115.709,60.549],[-115.658,60.131],[-115.923,59.948],[-115.943,59.826],[-115.923,59.663],[-115.862,59.602],[-115.638,59.581],[-115.434,59.622],[-115.088,59.846],[-114.844,59.948],[-114.742,59.948],[-114.477,59.887],[-113.622,59.541],[-113.357,59.398],[-113.133,59.255],[-113.031,59.154],[-112.868,59.133],[-112.42,59.174],[-112.217,59.133],[-112.013,59.052],[-111.545,58.787],[-111.239,58.706],[-110.873,58.645],[-110.567,58.624],[-110.241,58.665],[-109.447,58.543],[-109.101,58.543],[-108.592,58.583],[-108.225,58.645],[-107.899,58.665],[-107.553,58.665],[-106.84,58.522],[-106.026,58.217],[-105.639,58.115],[-104.723,57.993],[-103.684,58.013],[-103.032,58.054],[-102.605,58.013],[-101.749,57.85],[-99.346,57.158],[-97.921,57.178],[-96.129,56.893],[-94.663,56.588],[-94.235,56.466],[-93.807,56.303],[-93.543,56.038],[-93.257,55.631],[-93.095,55.244],[-92.647,54.633],[-92.463,54.47],[-92.158,54.246],[-91.852,54.164],[-91.486,54.185],[-90.895,54.266],[-90.651,54.266],[-90.345,54.205],[-90.081,54.124],[-89.49,53.859],[-89.083,53.615],[-88.655,53.472],[-87.78,53.472],[-87.515,53.553],[-86.761,53.737],[-86.415,53.757],[-84.399,53.981],[-84.175,53.981],[-83.829,53.92],[-82.505,53.615],[-82.139,53.594],[-81.894,53.615],[-81.731,53.757],[-81.691,53.92],[-81.731,54.124],[-81.833,54.287],[-82.098,54.409],[-82.464,54.429],[-84.419,54.429],[-87.087,54.551],[-87.474,54.612],[-87.942,54.796],[-88.39,55.06],[-88.676,55.305],[-88.859,55.732],[-88.9,56.242],[-88.9,56.425],[-88.798,56.812],[-88.655,57.097],[-88.492,57.341],[-88.289,57.606],[-88.065,57.85],[-87.759,58.095],[-87.148,58.319],[-85.723,58.441],[-84.847,58.583],[-83.91,58.624],[-83.564,58.665],[-83.381,58.787],[-83.259,59.011],[-83.238,59.317],[-83.462,59.744],[-84.623,60.885],[-84.969,61.271],[-85.356,61.597],[-85.804,61.882],[-86.985,62.697],[-87.25,62.982],[-87.596,63.308],[-88.187,63.674],[-88.696,63.878],[-89.857,64.224],[-91.567,64.55],[-92.667,64.876],[-93.095,64.978],[-93.665,65.08],[-94.113,65.141],[-94.642,65.263],[-95.131,65.446],[-95.64,65.691],[-96.638,66.301],[-97.249,66.566],[-97.677,66.668],[-98.145,66.729],[-98.593,66.709],[-99.021,66.607],[-99.428,66.424],[-99.998,66.118],[-100.568,65.874],[-101.261,65.65],[-101.973,65.487],[-103.521,65.222],[-107.706,64.856]]]}},{"type":"Feature","properties":{"density":3},"geometry":{"type":"Polygon","coordinates":[[[-91.385,33.652],[-91.43,33.621],[-91.433,33.573],[-91.399,33.571],[-91.361,33.618],[-91.363,33.65],[-91.385,33.652]]]}},{"type":"Feature","properties":{"density":3},"geometry":{"type":"Polygon","coordinates":[[[-123.606,41.506],[-123.67,41.411],[-123.728,41.263],[-123.718,41.101],[-123.667,41.063],[-123.583,41.107],[-123.573,41.279],[-123.519,41.394],[-123.522,41.499],[-123.552,41.536],[-123.606,41.506]]]}},{"type":"Feature","properties":{"density":3},"geometry":{"type":"Polygon","coordinates":[[[-121.99,44.925],[-122.002,44.972],[-121.987,44.988],[-121.95,44.963],[-121.935,44.856],[-121.911,44.799],[-121.852,44.757],[-121.816,44.768],[-121.837,44.837],[-121.792,44.859],[-121.794,44.886],[-121.833,44.915],[-121.81,44.961],[-121.863,45.039],[-121.92,45.077],[-121.98,45.089],[-122.071,45.069],[-122.131,45.038],[-122.2,44.966],[-122.182,44.925],[-122.151,44.913],[-122.121,44.927],[-122.064,44.889],[-122.034,44.891],[-121.99,44.925]]]}},{"type":"Feature","properties":{"density":3},"geometry":{"type":"Polygon","coordinates":[[[-121.455,45.218],[-121.357,45.26],[-121.284,45.272],[-121.258,45.315],[-121.321,45.371],[-121.516,45.429],[-121.59,45.486],[-121.629,45.495],[-121.654,45.482],[-121.657,45.453],[-121.615,45.405],[-121.477,45.342],[-121.467,45.32],[-121.504,45.312],[-121.498,45.276],[-121.524,45.23],[-121.491,45.194],[-121.455,45.218]]]}},{"type":"Feature","properties":{"density":3},"geometry":{"type":"Polygon","coordinates":[[[-118.157,45.641],[-118.118,45.707],[-118.037,45.733],[-118.048,45.775],[-118.12,45.793],[-118.316,45.776],[-118.387,45.739],[-118.415,45.659],[-118.366,45.613],[-118.282,45.595],[-118.243,45.539],[-118.214,45.527],[-118.15,45.542],[-118.157,45.641]]]}},{"type":"Feature","properties":{"density":3},"geometry":{"type":"Polygon","coordinates":[[[-117.961,46.031],[-118.037,46.03],[-118.046,45.976],[-118.009,45.962],[-117.946,45.986],[-117.941,46.015],[-117.961,46.031]]]}},{"type":"Feature","properties":{"density":3},"geometry":{"type":"Polygon","coordinates":[[[-120.148,48.039],[-120.242,48.117],[-120.35,48.123],[-120.418,48.161],[-120.569,48.292],[-120.63,48.306],[-120.701,48.292],[-120.718,48.258],[-120.715,48.134],[-120.802,48.123],[-120.961,48.174],[-120.988,48.144],[-120.995,47.972],[-120.981,47.924],[-120.9,47.847],[-120.887,47.749],[-120.843,47.708],[-120.667,47.715],[-120.623,47.745],[-120.563,47.823],[-120.421,47.718],[-120.357,47.708],[-120.306,47.735],[-120.31,47.85],[-120.269,47.877],[-120.212,47.877],[-120.033,47.826],[-120.002,47.837],[-119.975,47.88],[-119.999,47.934],[-120.04,47.978],[-120.148,48.039]]]}},{"type":"Feature","properties":{"density":3},"geometry":{"type":"Polygon","coordinates":[[[-121.211,47.344],[-121.187,47.381],[-121.194,47.425],[-121.217,47.465],[-121.241,47.465],[-121.292,47.388],[-121.288,47.334],[-121.244,47.313],[-121.211,47.344]]]}},{"type":"Feature","properties":{"density":3},"geometry":{"type":"Polygon","coordinates":[[[-119.938,49.544],[-119.884,49.504],[-119.864,49.443],[-119.864,49.355],[-119.834,49.301],[-119.719,49.291],[-119.655,49.318],[-119.641,49.359],[-119.689,49.467],[-119.716,49.602],[-119.766,49.635],[-119.8,49.693],[-119.837,49.716],[-119.911,49.73],[-120.06,49.716],[-120.131,49.7],[-120.252,49.625],[-120.252,49.595],[-120.148,49.507],[-120.08,49.511],[-120.002,49.548],[-119.938,49.544]]]}},{"type":"Feature","properties":{"density":3},"geometry":{"type":"Polygon","coordinates":[[[-119.744,51.392],[-119.706,51.379],[-119.688,51.388],[-119.681,51.439],[-119.774,51.463],[-119.826,51.457],[-119.853,51.436],[-119.837,51.403],[-119.744,51.392]]]}},{"type":"Feature","properties":{"density":3},"geometry":{"type":"Polygon","coordinates":[[[-117.507,50.587],[-117.458,50.553],[-117.341,50.515],[-117.102,50.371],[-117.055,50.355],[-117.021,50.377],[-117.021,50.404],[-117.102,50.465],[-117.552,50.69],[-117.588,50.686],[-117.588,50.643],[-117.507,50.587]]]}},{"type":"Feature","properties":{"density":3},"geometry":{"type":"Polygon","coordinates":[[[-117.638,50.74],[-117.611,50.758],[-117.615,50.78],[-117.692,50.807],[-117.746,50.807],[-117.849,50.769],[-117.897,50.71],[-117.948,50.607],[-117.921,50.571],[-117.888,50.573],[-117.789,50.688],[-117.737,50.719],[-117.638,50.74]]]}},{"type":"Feature","properties":{"density":3},"geometry":{"type":"Polygon","coordinates":[[[-121.535,50.786],[-121.457,50.857],[-121.443,50.908],[-121.477,50.999],[-121.514,51.029],[-121.632,51.073],[-121.923,51.326],[-122.061,51.407],[-122.267,51.475],[-122.321,51.444],[-122.365,51.343],[-122.459,51.252],[-122.476,51.178],[-122.409,51.107],[-122.186,50.965],[-122.135,50.891],[-121.916,50.688],[-121.902,50.506],[-121.875,50.425],[-121.771,50.408],[-121.69,50.445],[-121.656,50.533],[-121.673,50.617],[-121.646,50.675],[-121.548,50.739],[-121.535,50.786]]]}},{"type":"Feature","properties":{"density":3},"geometry":{"type":"Polygon","coordinates":[[[-121.001,49.828],[-121.032,49.949],[-121.025,50.118],[-121.038,50.182],[-121.076,50.223],[-121.221,50.246],[-121.335,50.212],[-121.477,50.142],[-121.592,50.01],[-121.801,49.699],[-122.081,49.463],[-122.159,49.355],[-122.193,49.247],[-122.186,49.126],[-122.142,49.065],[-121.899,49.038],[-121.798,49.109],[-121.713,49.213],[-121.589,49.325],[-121.295,49.477],[-121.224,49.571],[-121.032,49.72],[-121.001,49.828]]]}},{"type":"Feature","properties":{"density":3},"geometry":{"type":"Polygon","coordinates":[[[-102.689,17.98],[-102.583,18.025],[-102.541,18.067],[-102.484,18.166],[-102.471,18.225],[-102.516,18.229],[-102.703,18.157],[-102.799,18.094],[-102.82,18.02],[-102.811,18.0],[-102.788,17.977],[-102.689,17.98]]]}},{"type":"Feature","properties":{"density":3},"geometry":{"type":"Polygon","coordinates":[[[-99.074,33.424],[-99.016,33.134],[-98.966,33.097],[-98.945,33.107],[-98.942,33.185],[-98.989,33.475],[-99.023,33.498],[-99.047,33.492],[-99.074,33.471],[-99.074,33.424]]]}},{"type":"Feature","properties":{"density":3},"geometry":{"type":"Polygon","coordinates":[[[-123.671,41.501],[-123.773,41.36],[-123.789,41.292],[-123.789,41.167],[-123.685,40.988],[-123.59,40.972],[-123.553,41.002],[-123.536,41.049],[-123.523,41.167],[-123.428,41.225],[-123.398,41.265],[-123.395,41.481],[-123.449,41.552],[-123.536,41.579],[-123.607,41.552],[-123.671,41.501]]]}},{"type":"Feature","properties":{"density":3},"geometry":{"type":"Polygon","coordinates":[[[-121.513,45.296],[-121.304,45.269],[-121.268,45.274],[-121.254,45.314],[-121.263,45.337],[-121.477,45.463],[-121.536,45.492],[-121.576,45.494],[-121.648,45.434],[-121.657,45.371],[-121.641,45.332],[-121.59,45.301],[-121.513,45.296]]]}},{"type":"Feature","properties":{"density":3},"geometry":{"type":"Polygon","coordinates":[[[-121.842,44.936],[-121.887,45.031],[-121.947,45.051],[-122.159,45.002],[-122.224,44.963],[-122.195,44.907],[-122.064,44.88],[-122.004,44.876],[-121.945,44.905],[-121.871,44.887],[-121.835,44.898],[-121.842,44.936]]]}},{"type":"Feature","properties":{"density":3},"geometry":{"type":"Polygon","coordinates":[[[-120.107,44.824],[-120.035,44.829],[-120.044,44.863],[-120.174,44.903],[-120.276,44.912],[-120.332,44.91],[-120.363,44.887],[-120.359,44.856],[-120.341,44.842],[-120.107,44.824]]]}},{"type":"Feature","properties":{"density":3},"geometry":{"type":"Polygon","coordinates":[[[-120.9,47.967],[-120.839,47.931],[-120.788,47.855],[-120.707,47.805],[-120.636,47.794],[-120.495,47.906],[-120.409,47.911],[-120.267,47.891],[-120.039,47.825],[-119.75,47.784],[-119.583,47.789],[-119.558,47.8],[-119.528,47.85],[-119.599,47.972],[-119.735,48.048],[-119.923,48.093],[-120.297,48.108],[-120.505,48.205],[-120.601,48.27],[-120.707,48.392],[-120.834,48.442],[-120.925,48.427],[-121.011,48.346],[-121.092,48.326],[-121.153,48.27],[-121.173,48.225],[-121.148,48.154],[-121.097,48.088],[-121.041,48.037],[-120.9,47.967]]]}},{"type":"Feature","properties":{"density":3},"geometry":{"type":"Polygon","coordinates":[[[-119.71,49.455],[-119.806,49.647],[-119.887,49.693],[-119.978,49.703],[-120.277,49.678],[-120.586,49.622],[-120.667,49.566],[-120.677,49.495],[-120.611,49.394],[-120.52,49.344],[-120.429,49.328],[-120.262,49.404],[-120.161,49.425],[-120.08,49.384],[-119.912,49.166],[-119.857,49.02],[-119.761,48.949],[-119.548,48.949],[-119.497,49.004],[-119.502,49.111],[-119.573,49.252],[-119.659,49.359],[-119.71,49.455]]]}},{"type":"Feature","properties":{"density":3},"geometry":{"type":"Polygon","coordinates":[[[-121.317,49.533],[-121.12,49.685],[-121.069,49.741],[-121.044,49.817],[-121.074,49.878],[-121.201,49.928],[-121.449,49.969],[-121.555,49.908],[-121.616,49.802],[-121.586,49.579],[-121.616,49.503],[-121.844,49.447],[-121.986,49.376],[-122.34,49.088],[-122.401,48.987],[-122.396,48.89],[-122.284,48.804],[-122.148,48.825],[-122.061,48.875],[-121.672,49.199],[-121.616,49.198],[-121.565,49.139],[-121.464,48.936],[-121.403,48.865],[-121.282,48.784],[-121.191,48.764],[-121.11,48.84],[-121.137,48.928],[-121.105,48.939],[-121.044,48.926],[-120.998,48.961],[-120.988,49.088],[-121.044,49.169],[-121.257,49.285],[-121.307,49.346],[-121.332,49.417],[-121.317,49.533]]]}},{"type":"Feature","properties":{"density":3},"geometry":{"type":"Polygon","coordinates":[[[-121.392,50.899],[-121.559,51.197],[-121.65,51.293],[-121.933,51.44],[-122.196,51.506],[-122.485,51.496],[-122.657,51.405],[-122.794,51.283],[-122.839,51.131],[-122.763,50.934],[-122.51,50.807],[-122.004,50.737],[-121.862,50.681],[-121.548,50.443],[-121.381,50.367],[-121.199,50.347],[-121.133,50.377],[-121.083,50.458],[-121.088,50.559],[-121.159,50.691],[-121.392,50.899]]]}},{"type":"Feature","properties":{"density":3},"geometry":{"type":"Polygon","coordinates":[[[-98.996,34.159],[-99.013,34.226],[-99.036,34.253],[-99.08,34.246],[-99.121,34.196],[-99.155,34.098],[-99.158,33.986],[-99.087,33.578],[-99.074,33.473],[-99.084,33.325],[-99.053,33.17],[-99.023,33.095],[-98.949,33.072],[-98.928,33.119],[-98.959,33.224],[-98.949,33.274],[-98.898,33.359],[-98.864,33.585],[-99.003,34.017],[-98.996,34.159]]]}},{"type":"Feature","properties":{"density":3},"geometry":{"type":"Polygon","coordinates":[[[-121.536,36.173],[-121.657,36.175],[-121.727,36.114],[-121.761,36.103],[-122.006,36.204],[-122.062,36.272],[-121.979,36.283],[-121.862,36.238],[-121.7,36.292],[-121.504,36.213],[-121.495,36.182],[-121.536,36.173]]]}},{"type":"Feature","properties":{"density":3},"geometry":{"type":"Polygon","coordinates":[[[-123.567,41.447],[-123.689,41.22],[-123.699,41.174],[-123.679,41.113],[-123.588,41.078],[-123.481,41.128],[-123.243,41.103],[-123.157,41.128],[-123.127,41.184],[-123.137,41.25],[-123.193,41.361],[-123.193,41.412],[-123.147,41.533],[-123.147,41.594],[-123.193,41.675],[-123.238,41.711],[-123.365,41.68],[-123.431,41.62],[-123.567,41.447]]]}},{"type":"Feature","properties":{"density":3},"geometry":{"type":"Polygon","coordinates":[[[-122.41,45.151],[-122.263,45.0],[-122.096,44.903],[-121.979,44.853],[-121.919,44.868],[-121.812,44.969],[-121.812,45.07],[-121.757,45.126],[-121.665,45.162],[-121.362,45.177],[-121.129,45.288],[-120.764,45.501],[-120.688,45.572],[-120.643,45.668],[-120.648,45.779],[-120.693,45.845],[-120.8,45.865],[-121.073,45.799],[-121.245,45.83],[-121.833,46.169],[-122.126,46.215],[-122.308,46.129],[-122.344,45.992],[-122.288,45.865],[-122.187,45.759],[-121.934,45.617],[-121.868,45.475],[-121.883,45.389],[-121.944,45.354],[-122.197,45.546],[-122.319,45.729],[-122.521,45.967],[-122.673,46.017],[-122.749,45.982],[-122.815,45.855],[-122.784,45.688],[-122.724,45.546],[-122.41,45.151]]]}},{"type":"Feature","properties":{"density":3},"geometry":{"type":"Polygon","coordinates":[[[-120.299,48.167],[-120.719,48.122],[-120.805,48.081],[-120.855,47.975],[-120.795,47.854],[-120.587,47.762],[-120.294,47.747],[-119.939,47.788],[-119.752,47.773],[-119.6,47.732],[-119.463,47.727],[-119.352,47.793],[-119.357,47.884],[-119.403,47.945],[-119.671,48.071],[-120.152,48.167],[-120.299,48.167]]]}},{"type":"Feature","properties":{"density":3},"geometry":{"type":"Polygon","coordinates":[[[-120.81,49.927],[-120.954,50.018],[-121.121,50.192],[-121.19,50.359],[-121.212,50.572],[-121.174,50.732],[-121.212,51.111],[-121.357,51.309],[-121.706,51.499],[-122.625,51.878],[-123.156,51.81],[-123.369,51.628],[-123.453,51.385],[-123.399,51.051],[-123.156,50.701],[-122.875,50.435],[-122.731,50.139],[-122.716,49.904],[-122.83,49.646],[-123.035,49.479],[-123.088,49.213],[-123.005,48.955],[-122.815,48.719],[-122.443,48.545],[-122.169,48.552],[-121.569,48.757],[-121.121,48.871],[-120.818,48.826],[-120.438,48.803],[-120.164,48.886],[-119.997,48.985],[-119.792,49.069],[-119.534,49.061],[-119.337,49.107],[-119.23,49.342],[-119.306,49.501],[-119.58,49.706],[-119.952,49.79],[-120.582,49.836],[-120.81,49.927]]]}},{"type":"Feature","properties":{"density":3},"geometry":{"type":"Polygon","coordinates":[[[-118.034,45.69],[-118.135,45.644],[-118.211,45.675],[-118.307,45.761],[-118.378,45.761],[-118.449,45.66],[-118.454,45.533],[-118.419,45.452],[-118.322,45.422],[-118.16,45.442],[-118.029,45.498],[-117.968,45.543],[-117.927,45.599],[-117.922,45.639],[-117.933,45.675],[-117.973,45.705],[-118.034,45.69]]]}},{"type":"Feature","properties":{"density":3},"geometry":{"type":"Polygon","coordinates":[[[-117.941,46.045],[-118.0,46.045],[-118.029,46.013],[-118.036,45.971],[-118.011,45.932],[-117.908,45.917],[-117.836,45.926],[-117.82,45.959],[-117.854,46.009],[-117.941,46.045]]]}},{"type":"Feature","properties":{"density":3},"geometry":{"type":"Polygon","coordinates":[[[-117.697,64.45],[-118.107,64.365],[-118.397,64.365],[-118.927,64.45],[-119.422,64.553],[-119.798,64.724],[-119.952,64.912],[-120.089,65.253],[-119.918,65.51],[-119.713,65.663],[-119.593,66.005],[-119.696,66.193],[-120.191,66.364],[-120.55,66.381],[-121.507,66.535],[-121.712,66.552],[-122.207,66.466],[-123.079,66.364],[-124.104,66.347],[-125.095,66.671],[-126.137,66.979],[-127.094,67.338],[-128.751,67.85],[-129.725,68.107],[-130.494,68.26],[-131.741,68.38],[-132.835,68.466],[-133.775,68.312],[-133.997,67.765],[-133.757,67.15],[-133.228,66.637],[-132.493,66.193],[-131.314,65.817],[-130.255,65.544],[-126.872,64.826],[-125.881,64.587],[-125.266,64.365],[-124.582,64.092],[-124.001,63.75],[-123.062,63.374],[-122.378,63.288],[-121.524,62.998],[-121.387,62.742],[-121.456,62.622],[-121.695,62.622],[-122.071,62.69],[-122.976,62.725],[-123.369,62.69],[-123.677,62.503],[-123.916,62.127],[-123.677,61.699],[-123.045,61.341],[-122.036,61.033],[-121.114,60.931],[-120.601,61.016],[-120.003,61.05],[-119.337,60.982],[-118.671,60.828],[-116.364,60.965],[-115.014,61.392],[-114.399,61.614],[-113.494,61.836],[-112.468,62.024],[-111.734,62.297],[-111.119,62.605],[-110.674,62.725],[-110.213,62.605],[-110.076,62.263],[-110.23,62.024],[-110.862,61.682],[-112.708,61.136],[-113.374,60.845],[-114.057,60.64],[-114.485,60.298],[-114.57,60.025],[-114.365,59.615],[-113.955,59.307],[-113.049,59.205],[-112.161,59.307],[-112.024,59.154],[-111.853,58.897],[-111.494,58.675],[-110.726,58.573],[-110.008,58.658],[-109.205,58.795],[-107.787,59.102],[-106.95,59.102],[-105.48,58.761],[-103.925,58.658],[-102.49,58.316],[-101.277,57.958],[-99.124,57.462],[-98.185,57.223],[-97.091,56.915],[-95.912,56.71],[-94.562,56.522],[-93.674,56.437],[-91.709,56.129],[-91.06,55.839],[-90.803,55.531],[-90.821,55.275],[-90.889,55.002],[-90.786,54.643],[-90.428,54.267],[-89.966,53.925],[-89.283,53.635],[-88.651,53.481],[-87.779,53.208],[-87.455,53.088],[-87.027,52.798],[-86.498,52.405],[-85.797,52.131],[-84.977,52.114],[-84.225,52.302],[-83.593,52.678],[-82.893,52.849],[-79.826,51.871],[-78.634,51.717],[-76.942,51.333],[-75.597,51.525],[-74.405,52.14],[-73.252,52.486],[-72.406,52.486],[-71.522,52.063],[-70.446,51.948],[-69.484,51.909],[-67.524,51.986],[-64.141,52.294],[-61.681,52.717],[-59.72,53.024],[-58.298,53.793],[-57.336,54.408],[-56.106,55.138],[-54.607,55.907],[-53.069,56.561],[-52.646,57.253],[-52.531,58.022],[-52.646,59.021],[-53.031,59.867],[-53.454,60.597],[-54.126,60.905],[-54.78,61.674],[-55.472,61.981],[-56.471,62.174],[-57.087,62.02],[-58.009,61.559],[-58.74,61.02],[-60.047,58.867],[-61.046,57.791],[-63.084,56.868],[-64.929,56.484],[-66.505,56.407],[-68.696,56.715],[-70.657,56.945],[-72.695,57.445],[-73.886,57.522],[-75.309,57.906],[-77.039,58.483],[-80.96,60.29],[-83.19,60.867],[-84.996,61.635],[-86.227,62.135],[-88.379,62.866],[-90.225,63.173],[-91.993,63.558],[-94.3,63.75],[-98.029,64.211],[-99.682,64.557],[-102.565,65.403],[-103.603,65.48],[-104.833,65.826],[-105.679,66.095],[-107.293,66.479],[-108.947,66.518],[-110.946,66.018],[-113.022,65.595],[-113.906,65.288],[-114.751,64.903],[-115.982,64.711],[-116.52,64.711],[-117.697,64.45]]]}},{"type":"Feature","properties":{"density":3},"geometry":{"type":"Polygon","coordinates":[[[-77.25,62.257],[-78.634,62.684],[-79.933,63.162],[-80.992,63.573],[-81.727,63.914],[-82.649,64.529],[-83.093,64.939],[-83.794,65.794],[-84.307,66.511],[-85.298,68.186],[-85.947,69.023],[-86.664,69.809],[-87.843,71.005],[-89.535,71.893],[-91.961,72.218],[-92.662,71.705],[-92.73,70.8],[-92.593,70.031],[-92.32,69.228],[-91.773,68.493],[-90.15,67.007],[-88.629,65.965],[-87.672,65.401],[-86.34,64.683],[-85.161,64.153],[-84.136,63.743],[-82.974,62.992],[-80.582,61.249],[-79.659,60.873],[-78.617,60.565],[-77.865,60.548],[-77.165,60.685],[-76.703,60.958],[-76.601,61.215],[-76.635,61.539],[-76.908,62.12],[-77.25,62.257]]]}},{"type":"Feature","properties":{"density":3},"geometry":{"type":"Polygon","coordinates":[[[-75.148,62.923],[-76.96,63.88],[-77.797,64.444],[-78.719,65.144],[-79.317,65.708],[-80.479,66.665],[-80.992,67.485],[-81.282,68.357],[-81.316,69.177],[-81.129,70.099],[-81.06,70.868],[-81.385,71.5],[-82.171,72.03],[-83.093,71.928],[-83.845,71.261],[-84.033,70.048],[-83.811,68.186],[-83.179,66.802],[-82.342,65.982],[-80.958,64.734],[-79.505,63.846],[-77.25,62.718],[-76.003,62.018],[-74.738,61.676],[-73.935,61.573],[-73.542,61.796],[-73.645,62.274],[-74.055,62.582],[-74.738,62.769],[-75.148,62.923]]]}},{"type":"Feature","properties":{"density":3},"geometry":{"type":"Polygon","coordinates":[[[-68.526,39.283],[-71.78,39.821],[-73.446,40.257],[-74.805,40.846],[-77.342,42.281],[-78.854,42.743],[-80.11,43.05],[-80.827,43.178],[-82.493,43.435],[-83.211,43.46],[-84.005,43.281],[-84.492,42.768],[-84.518,42.358],[-84.364,41.871],[-83.98,41.333],[-83.467,41.051],[-82.903,40.795],[-81.929,40.487],[-80.802,40.282],[-78.265,40.231],[-77.598,40.0],[-76.47,39.539],[-75.343,39.18],[-74.164,38.873],[-72.165,38.77],[-69.653,38.514],[-68.961,38.334],[-68.551,38.258],[-68.192,38.309],[-67.654,38.437],[-67.424,38.616],[-67.398,38.898],[-67.705,39.155],[-68.064,39.257],[-68.526,39.283]]]}}]}