{"type":"FeatureCollection","features":[{"type":"Feature","properties":{"density":1},"geometry":{"type":"Polygon","coordinates":[[[-110.819,42.785],[-110.977,42.894],[-111.048,42.98],[-111.107,43.149],[-111.112,43.223],[-111.079,43.302],[-111.035,43.3],[-111.011,43.272],[-110.947,43.065],[-110.795,42.852],[-110.774,42.798],[-110.819,42.785]]]}},{"type":"Feature","properties":{"density":1},"geometry":{"type":"Polygon","coordinates":[[[-115.121,48.939],[-115.075,48.955],[-115.003,48.942],[-115.003,48.884],[-115.075,48.853],[-115.121,48.867],[-115.144,48.895],[-115.121,48.939]]]}},{"type":"Feature","properties":{"density":1},"geometry":{"type":"Polygon","coordinates":[[[-114.736,47.785],[-114.643,47.76],[-114.655,47.717],[-114.694,47.708],[-114.729,47.723],[-114.753,47.752],[-114.736,47.785]]]}},{"type":"Feature","properties":{"density":1},"geometry":{"type":"Polygon","coordinates":[[[-116.05,48.249],[-116.085,48.29],[-116.112,48.291],[-116.127,48.269],[-116.109,48.231],[-116.055,48.231],[-116.05,48.249]]]}},{"type":"Feature","properties":{"density":1},"geometry":{"type":"Polygon","coordinates":[[[-120.919,46.821],[-120.959,46.851],[-120.98,46.84],[-120.981,46.818],[-120.956,46.796],[-120.923,46.794],[-120.919,46.821]]]}},{"type":"Feature","properties":{"density":1},"geometry":{"type":"Polygon","coordinates":[[[-120.915,46.877],[-120.884,46.906],[-120.857,46.908],[-120.831,46.878],[-120.86,46.853],[-120.903,46.855],[-120.915,46.877]]]}},{"type":"Feature","properties":{"density":1},"geometry":{"type":"Polygon","coordinates":[[[-120.986,47.25],[-121.008,47.263],[-121.006,47.241],[-120.986,47.25]]]}},{"type":"Feature","properties":{"density":1},"geometry":{"type":"Polygon","coordinates":[[[-119.604,37.603],[-119.632,37.669],[-119.626,37.699],[-119.6,37.719],[-119.567,37.712],[-119.549,37.682],[-119.556,37.607],[-119.582,37.59],[-119.604,37.603]]]}},{"type":"Feature","properties":{"density":1},"geometry":{"type":"Polygon","coordinates":[[[-122.606,40.1],[-122.561,40.084],[-122.447,39.954],[-122.401,39.877],[-122.384,39.809],[-122.388,39.765],[-122.457,39.641],[-122.534,39.564],[-122.577,39.539],[-122.612,39.538],[-122.675,39.582],[-122.711,39.653],[-122.722,39.814],[-122.675,40.067],[-122.643,40.099],[-122.606,40.1]]]}},{"type":"Feature","properties":{"density":1},"geometry":{"type":"Polygon","coordinates":[[[-114.649,26.903],[-115.172,27.112],[-115.8,27.175],[-116.407,27.154],[-116.993,26.986],[-117.495,26.693],[-117.641,26.149],[-117.432,25.501],[-116.637,24.475],[-115.612,23.22],[-114.795,22.006],[-114.084,20.688],[-113.665,19.809],[-113.31,18.804],[-112.849,17.591],[-112.556,16.921],[-111.845,16.44],[-110.861,16.335],[-110.045,16.607],[-109.522,17.298],[-109.292,17.695],[-108.999,18.114],[-108.769,18.574],[-108.308,19.307],[-108.015,20.018],[-107.764,20.771],[-107.66,21.755],[-107.471,22.948],[-107.597,23.931],[-107.869,24.601],[-108.267,25.04],[-109.418,25.563],[-110.778,26.003],[-111.636,26.107],[-112.703,26.4],[-113.665,26.589],[-114.042,26.756],[-114.649,26.903]]]}},{"type":"Feature","properties":{"density":1},"geometry":{"type":"Polygon","coordinates":[[[-97.551,32.114],[-97.184,32.573],[-95.928,33.766],[-94.265,34.802],[-90.686,36.56],[-89.18,37.125],[-87.736,37.376],[-86.511,37.658],[-85.57,37.784],[-83.938,37.847],[-83.184,37.815],[-81.991,37.627],[-81.583,37.282],[-81.489,36.811],[-81.458,36.308],[-81.646,35.618],[-82.619,34.896],[-84.22,34.362],[-85.727,33.986],[-87.641,33.358],[-89.211,32.605],[-90.592,31.443],[-91.314,30.658],[-92.071,29.598],[-92.72,28.991],[-93.794,28.273],[-95.708,27.425],[-96.807,27.268],[-97.529,27.363],[-98.22,27.865],[-98.785,28.587],[-98.753,29.78],[-98.502,30.596],[-98.202,31.24],[-97.867,31.63],[-97.551,32.114]]]}},{"type":"Feature","properties":{"density":2},"geometry":{"type":"Polygon","coordinates":[[[-122.584,40.066],[-122.493,39.911],[-122.453,39.795],[-122.469,39.719],[-122.504,39.682],[-122.555,39.665],[-122.612,39.671],[-122.637,39.692],[-122.672,39.8],[-122.634,40.047],[-122.615,40.071],[-122.584,40.066]]]}}]}