{"type":"FeatureCollection","features":[{"type":"Feature","properties":{"density":1},"geometry":{"type":"Polygon","coordinates":[[[-123.78,41.392],[-123.717,41.387],[-123.58,41.414],[-123.357,41.547],[-123.218,41.551],[-123.101,41.522],[-123.047,41.443],[-123.065,41.113],[-123.042,40.989],[-122.995,40.912],[-122.936,40.951],[-122.88,41.032],[-122.75,41.144],[-122.684,41.14],[-122.621,41.097],[-122.599,41.005],[-122.601,40.908],[-122.617,40.849],[-122.867,40.505],[-122.952,40.444],[-123.114,40.289],[-123.375,40.134],[-123.517,40.028],[-123.665,39.774],[-123.724,39.542],[-123.794,39.404],[-123.88,39.312],[-123.994,39.312],[-124.021,39.447],[-124.066,39.931],[-124.053,40.136],[-124.062,40.545],[-124.096,40.817],[-124.091,41.024],[-124.044,41.159],[-123.967,41.245],[-123.963,41.285],[-124.03,41.301],[-124.048,41.371],[-123.949,41.409],[-123.78,41.392]]]}},{"type":"Feature","properties":{"density":1},"geometry":{"type":"Polygon","coordinates":[[[-122.248,52.703],[-122.046,53.408],[-122.617,54.818],[-125.942,57.539],[-127.52,58.68],[-128.293,59.755],[-128.226,60.863],[-127.655,61.434],[-126.479,61.669],[-125.27,61.77],[-124.095,61.804],[-122.785,62.509],[-121.811,63.651],[-120.804,64.39],[-119.662,65.666],[-118.889,66.942],[-118.755,68.588],[-118.789,70.368],[-118.587,71.912],[-117.68,72.92],[-116.337,73.625],[-114.658,73.625],[-111.736,73.961],[-99.344,73.86],[-93.5,74.398],[-90.377,74.767],[-78.455,73.457],[-72.141,73.289],[-69.824,72.517],[-67.809,71.174],[-66.533,69.293],[-65.995,67.748],[-65.928,66.774],[-66.029,65.699],[-66.6,64.322],[-68.245,63.349],[-70.294,63.214],[-74.055,63.684],[-78.824,65.632],[-81.88,67.379],[-83.929,68.957],[-86.918,69.931],[-90.209,70.737],[-93.299,71.006],[-98.437,70.67],[-104.784,69.326],[-106.128,68.588],[-106.766,67.479],[-107.102,65.565],[-106.564,63.718],[-105.859,61.669],[-102.434,59.117],[-100.586,58.21],[-94.206,55.624],[-89.067,54.214],[-83.929,54.147],[-82.317,54.55],[-80.403,54.718],[-78.052,54.55],[-68.447,52.232],[-62.838,50.049],[-60.085,48.572],[-54.375,44.508],[-52.898,43.4],[-50.681,42.56],[-48.397,41.049],[-47.86,40.142],[-48.196,38.967],[-49.539,37.993],[-52.461,36.952],[-58.047,36.247],[-60.331,36.067],[-64.518,34.814],[-66.6,34.276],[-69.085,33.739],[-71.346,33.157],[-74.257,32.306],[-75.555,32.06],[-79.462,30.929],[-80.492,30.683],[-82.351,30.571],[-83.761,30.638],[-85.686,30.705],[-88.418,29.81],[-89.47,29.496],[-90.545,29.295],[-91.404,29.116],[-91.851,28.946],[-92.202,28.593],[-91.991,27.713],[-91.533,27.255],[-90.794,26.165],[-90.797,24.817],[-91.095,23.693],[-91.423,22.638],[-92.666,20.608],[-92.957,19.779],[-92.89,18.615],[-92.733,17.966],[-92.219,16.645],[-91.748,16.197],[-90.808,15.346],[-90.002,14.384],[-89.532,13.354],[-89.487,12.548],[-89.823,11.406],[-90.293,10.689],[-91.524,9.973],[-92.957,9.615],[-98.801,9.436],[-99.786,9.525],[-100.794,9.794],[-101.622,10.219],[-102.159,10.712],[-102.517,11.495],[-102.406,12.861],[-102.741,13.891],[-103.95,15.817],[-104.98,16.533],[-106.234,17.026],[-107.488,17.115],[-109.592,16.981],[-112.145,16.69],[-112.951,16.712],[-115.095,15.861],[-116.468,15.503],[-119.154,14.652],[-122.155,15.085],[-123.02,17.025],[-122.811,19.473],[-121.841,21.145],[-119.796,23.041],[-118.009,24.62],[-117.653,25.847],[-118.022,27.157],[-118.324,29.071],[-118.324,30.246],[-118.526,31.959],[-119.114,32.889],[-119.89,33.307],[-120.835,33.907],[-121.661,35.193],[-122.069,36.238],[-122.716,36.636],[-123.388,36.658],[-123.706,36.37],[-124.174,36.031],[-124.811,35.783],[-125.468,35.613],[-126.025,35.633],[-126.522,35.783],[-126.93,36.131],[-127.169,36.758],[-127.249,37.365],[-127.159,38.171],[-126.035,41.375],[-125.557,42.464],[-124.885,44.599],[-124.632,45.151],[-124.497,45.912],[-124.497,46.554],[-124.602,47.465],[-125.184,48.256],[-125.677,48.704],[-126.005,49.271],[-126.094,49.957],[-125.945,50.734],[-125.557,51.301],[-125.169,51.704],[-124.587,51.987],[-123.93,52.196],[-123.333,52.346],[-122.564,52.569],[-122.248,52.703]]]}},{"type":"Feature","properties":{"density":1},"geometry":{"type":"Polygon","coordinates":[[[-78.607,50.278],[-78.47,50.311],[-78.341,50.308],[-78.304,50.28],[-78.302,50.244],[-78.347,50.225],[-78.585,50.207],[-78.612,50.235],[-78.607,50.278]]]}},{"type":"Feature","properties":{"density":1},"geometry":{"type":"Polygon","coordinates":[[[-112.399,38.836],[-112.075,39.065],[-111.959,39.112],[-111.87,39.121],[-111.819,39.084],[-111.824,39.01],[-111.888,38.935],[-112.208,38.67],[-112.378,38.573],[-112.521,38.525],[-112.617,38.534],[-112.668,38.587],[-112.668,38.656],[-112.631,38.716],[-112.539,38.794],[-112.438,38.835],[-112.399,38.836]]]}},{"type":"Feature","properties":{"density":1},"geometry":{"type":"Polygon","coordinates":[[[-107.393,38.083],[-107.284,38.353],[-107.242,38.374],[-107.205,38.368],[-107.187,38.331],[-107.188,38.265],[-107.236,38.131],[-107.333,38.074],[-107.38,38.068],[-107.393,38.083]]]}},{"type":"Feature","properties":{"density":1},"geometry":{"type":"Polygon","coordinates":[[[-97.979,24.546],[-98.05,24.603],[-98.102,24.616],[-98.173,24.616],[-98.208,24.589],[-98.216,24.552],[-98.206,24.495],[-98.164,24.44],[-98.118,24.403],[-97.99,24.35],[-97.696,24.326],[-97.615,24.355],[-97.595,24.387],[-97.595,24.458],[-97.62,24.5],[-97.668,24.535],[-97.795,24.567],[-97.979,24.546]]]}},{"type":"Feature","properties":{"density":1},"geometry":{"type":"Polygon","coordinates":[[[-105.637,21.102],[-106.344,20.302],[-108.034,19.653],[-109.729,19.465],[-110.712,19.213],[-111.884,18.837],[-112.93,18.314],[-113.663,17.602],[-114.06,16.786],[-114.353,15.907],[-114.437,15.07],[-113.788,14.045],[-112.763,12.831],[-112.323,12.35],[-110.67,11.303],[-108.829,10.592],[-106.066,9.839],[-103.074,9.504],[-99.621,9.608],[-96.503,9.964],[-94.787,10.592],[-94.013,11.638],[-93.26,12.873],[-93.134,14.442],[-93.678,16.284],[-94.578,18.063],[-94.955,18.962],[-95.436,20.239],[-95.52,21.683],[-95.562,22.896],[-95.269,23.985],[-94.725,24.529],[-94.285,24.633],[-93.113,25.052],[-92.59,25.324],[-92.172,25.847],[-91.837,26.558],[-91.711,27.416],[-91.586,28.023],[-91.167,28.63],[-90.581,29.07],[-89.137,29.781],[-87.066,30.241],[-85.413,30.451],[-83.801,30.472],[-82.148,30.304],[-81.206,30.116],[-80.369,29.865],[-79.198,29.572],[-78.172,29.404],[-76.854,29.363],[-75.536,29.446],[-74.008,29.509],[-72.355,29.697],[-70.869,29.948],[-70.074,29.928],[-69.613,29.844],[-68.546,29.739],[-67.291,29.509],[-66.349,29.467],[-65.324,29.53],[-63.775,29.76],[-61.766,30.723],[-60.328,31.523],[-58.345,32.69],[-56.932,33.066],[-55.332,33.537],[-53.731,34.071],[-52.067,34.385],[-50.215,34.793],[-48.74,35.169],[-47.521,35.808],[-47.139,36.708],[-46.7,38.057],[-46.856,39.878],[-47.108,41.039],[-47.735,42.075],[-48.928,43.017],[-50.09,43.739],[-50.968,44.429],[-52.444,45.12],[-54.767,46.752],[-55.583,47.851],[-56.053,48.73],[-56.587,49.671],[-57.843,50.393],[-59.161,50.676],[-61.567,50.717],[-63.78,50.388],[-64.769,49.917],[-66.087,49.493],[-67.312,49.258],[-68.965,49.326],[-69.676,49.472],[-70.158,49.765],[-71.392,50.163],[-73.464,51.126],[-74.615,51.774],[-75.975,52.59],[-76.979,53.302],[-77.858,53.992],[-78.565,54.296],[-79.407,54.578],[-81.06,54.683],[-82.86,54.829],[-84.659,54.725],[-86.229,54.495],[-87.61,54.244],[-89.158,54.139],[-89.744,54.16],[-91.879,54.306],[-93.532,54.578],[-95.075,54.782],[-97.989,55.478],[-100.416,56.587],[-101.86,57.299],[-102.091,57.906],[-103.639,58.784],[-104.957,59.58],[-106.255,60.333],[-107.678,61.128],[-108.578,61.84],[-109.666,62.76],[-110.398,63.723],[-110.461,64.769],[-110.021,65.836],[-108.891,66.841],[-107.568,67.62],[-106.516,68.327],[-105.261,68.939],[-102.671,70.163],[-101.023,70.587],[-98.857,71.105],[-96.974,71.575],[-95.467,71.748],[-93.772,71.528],[-91.669,70.806],[-89.661,70.179],[-86.93,68.892],[-83.602,67.102],[-81.28,65.564],[-78.423,63.932],[-75.473,62.771],[-73.087,62.174],[-70.513,61.986],[-68.599,62.143],[-66.464,62.724],[-65.428,63.195],[-64.675,64.23],[-64.267,65.753],[-64.581,67.793],[-66.307,69.928],[-68.912,71.152],[-71.612,72.031],[-74.029,72.596],[-76.195,73.066],[-80.071,73.835],[-83.885,74.071],[-87.463,74.353],[-94.008,74.353],[-98.528,74.306],[-102.059,74.071],[-106.344,73.6],[-111.429,72.564],[-113.877,71.67],[-115.776,70.587],[-117.691,69.331],[-118.193,68.923],[-119.825,67.354],[-121.599,66.161],[-123.67,64.843],[-125.93,63.524],[-128.332,61.766],[-128.708,61.296],[-129.493,60.417],[-130.152,58.69],[-130.184,57.152],[-130.184,55.269],[-129.305,53.511],[-128.3,52.099],[-127.508,50.916],[-126.155,49.912],[-124.578,48.991],[-124.118,48.042],[-123.78,46.292],[-124.031,44.816],[-124.648,43.341],[-125.161,41.929],[-126.417,39.7],[-126.982,38.727],[-127.39,37.754],[-127.798,36.341],[-128.148,34.34],[-127.912,32.543],[-127.441,30.503],[-126.908,29.028],[-126.025,27.835],[-125.025,26.736],[-123.549,25.732],[-121.834,24.963],[-120.139,24.351],[-118.35,24.162],[-116.231,24.21],[-114.536,24.869],[-112.841,25.34],[-111.664,25.434],[-109.734,25.34],[-108.227,24.822],[-107.332,24.398],[-106.438,23.927],[-105.732,22.844],[-105.637,22.656],[-105.496,21.855],[-105.637,21.102]]]}},{"type":"Feature","properties":{"density":1},"geometry":{"type":"Polygon","coordinates":[[[-80.006,22.455],[-80.045,22.418],[-80.049,22.38],[-79.997,22.36],[-79.843,22.367],[-79.795,22.393],[-79.786,22.429],[-79.843,22.466],[-79.891,22.472],[-80.006,22.455]]]}},{"type":"Feature","properties":{"density":1},"geometry":{"type":"Polygon","coordinates":[[[-83.795,32.16],[-83.9,32.019],[-83.912,31.98],[-83.892,31.962],[-83.646,32.024],[-83.552,32.112],[-83.538,32.162],[-83.547,32.202],[-83.585,32.232],[-83.639,32.232],[-83.795,32.16]]]}},{"type":"Feature","properties":{"density":1},"geometry":{"type":"Polygon","coordinates":[[[-122.681,44.731],[-123.434,43.13],[-124.251,42.031],[-125.038,40.063],[-125.792,38.619],[-126.415,37.193],[-127.03,35.261],[-127.948,32.719],[-128.796,29.964],[-128.866,28.623],[-128.584,26.716],[-127.736,24.668],[-125.897,23.445],[-123.778,22.691],[-121.377,22.409],[-118.74,22.644],[-117.234,22.974],[-115.685,24.18],[-114.592,25.362],[-113.744,26.869],[-112.431,27.823],[-110.83,28.2],[-110.077,27.823],[-108.617,26.835],[-108.241,25.422],[-109.041,23.727],[-110.501,22.22],[-113.561,20.007],[-114.785,19.019],[-115.868,16.759],[-116.057,14.593],[-115.774,12.757],[-114.55,10.449],[-112.902,9.555],[-110.924,8.943],[-108.021,8.362],[-105.337,8.221],[-101.806,8.433],[-98.769,8.998],[-96.564,9.979],[-95.199,11.109],[-94.116,12.192],[-92.891,13.887],[-92.279,15.44],[-92.185,17.559],[-92.797,19.066],[-92.868,19.811],[-92.554,21.381],[-92.232,22.409],[-91.856,22.974],[-90.726,24.151],[-89.972,24.857],[-88.183,26.411],[-86.488,28.106],[-85.029,29.236],[-83.817,30.117],[-82.486,30.978],[-81.215,32.014],[-79.957,32.597],[-78.248,33.332],[-76.083,33.803],[-73.776,34.085],[-70.665,34.166],[-67.935,34.198],[-65.298,34.292],[-62.347,34.418],[-60.027,34.603],[-55.818,34.732],[-52.023,35.31],[-48.693,35.971],[-45.821,36.583],[-43.124,37.664],[-41.147,39.547],[-40.535,41.242],[-40.488,43.455],[-41.618,45.338],[-42.842,46.657],[-44.443,47.269],[-48.269,48.543],[-55.319,49.388],[-57.061,49.482],[-60.451,49.435],[-62.959,49.484],[-66.02,49.484],[-70.715,49.717],[-77.495,49.058],[-80.226,48.917],[-82.58,48.775],[-84.464,48.964],[-88.842,49.67],[-92.326,50.753],[-95.246,52.118],[-96.752,53.013],[-98.212,54.143],[-102.496,57.768],[-104.521,59.134],[-107.158,60.97],[-108.664,61.912],[-109.889,63.56],[-110.171,64.643],[-109.889,65.914],[-108.694,67.756],[-106.505,68.816],[-103.203,70.01],[-98.494,70.716],[-95.151,70.763],[-90.584,70.104],[-87.43,68.88],[-85.17,67.279],[-80.603,64.548],[-75.753,62.901],[-69.726,61.723],[-65.818,62.006],[-63.841,63.418],[-62.617,66.055],[-63.841,68.033],[-66.036,70.299],[-69.921,72.206],[-76.56,74.183],[-85.499,75.331],[-96.093,76.037],[-101.884,76.178],[-108.712,75.943],[-114.503,75.472],[-117.187,74.86],[-118.599,74.295],[-120.906,73.447],[-122.678,71.923],[-123.949,69.946],[-124.373,66.767],[-124.535,64.611],[-124.316,62.351],[-123.97,60.939],[-123.35,59.676],[-122.861,58.825],[-122.429,58.337],[-122.038,57.849],[-121.592,57.43],[-121.285,56.928],[-121.103,56.426],[-121.103,56.007],[-121.159,55.198],[-121.355,54.612],[-121.899,53.677],[-123.409,51.854],[-123.591,51.15],[-123.444,50.146],[-123.152,49.471],[-122.65,48.592],[-122.147,47.116],[-122.367,45.892],[-122.681,44.731]]]}},{"type":"Feature","properties":{"density":1},"geometry":{"type":"Polygon","coordinates":[[[-148.654,64.933],[-148.852,64.853],[-148.939,64.71],[-149.026,64.493],[-148.976,64.245],[-148.815,64.065],[-148.437,63.966],[-148.059,63.954],[-147.6,63.997],[-147.184,64.065],[-146.825,64.208],[-146.707,64.431],[-146.781,64.692],[-147.184,64.884],[-147.538,64.964],[-148.139,64.989],[-148.53,64.983],[-148.654,64.933]]]}},{"type":"Feature","properties":{"density":1},"geometry":{"type":"Polygon","coordinates":[[[-101.259,9.845],[-98.904,9.751],[-96.268,9.986],[-94.337,10.457],[-93.254,11.211],[-91.795,12.152],[-90.896,13.304],[-90.048,14.811],[-88.871,16.506],[-88.165,18.06],[-87.176,19.708],[-86.093,20.744],[-84.351,22.015],[-82.609,23.098],[-80.914,24.369],[-78.607,25.405],[-75.876,26.535],[-73.663,27.429],[-68.625,28.936],[-66.553,29.595],[-63.823,30.302],[-61.06,31.258],[-58.267,32.044],[-56.007,32.844],[-52.664,33.739],[-50.215,34.209],[-48.52,34.351],[-46.684,34.539],[-44.236,34.398],[-41.128,34.351],[-38.068,34.162],[-34.725,34.727],[-31.853,35.669],[-29.734,37.411],[-29.169,39.106],[-29.216,41.131],[-29.499,43.155],[-30.205,44.944],[-31.241,47.016],[-32.983,49.229],[-35.243,51.442],[-37.409,52.902],[-39.245,53.561],[-42.4,54.032],[-46.307,54.502],[-49.886,54.597],[-54.453,54.126],[-57.231,53.467],[-59.726,52.902],[-63.069,52.007],[-66.695,51.725],[-73.286,52.148],[-76.205,52.619],[-78.465,52.807],[-79.79,52.613],[-80.584,52.101],[-81.464,51.218],[-82.064,50.283],[-82.51,48.707],[-82.915,47.674],[-83.766,47.019],[-84.561,46.879],[-85.635,46.949],[-86.996,47.088],[-88.237,47.507],[-89.671,48.382],[-91.461,49.37],[-93.061,51.065],[-94.003,52.431],[-95.51,54.173],[-97.676,56.009],[-102.054,58.928],[-103.043,59.682],[-104.644,61.047],[-105.14,62.727],[-104.785,64.578],[-103.749,66.556],[-101.583,67.921],[-95.933,69.051],[-93.438,68.769],[-90.001,68.062],[-85.999,66.509],[-82.42,64.814],[-79.454,63.825],[-75.148,62.963],[-70.44,62.398],[-67.238,63.245],[-65.637,64.705],[-65.307,66.635],[-65.92,68.236],[-67.165,69.24],[-69.802,70.887],[-72.088,71.955],[-77.173,73.133],[-82.116,73.886],[-88.614,75.298],[-96.335,75.722],[-100.243,75.157],[-105.423,74.31],[-112.554,72.818],[-115.238,71.688],[-117.403,70.322],[-119.359,68.424],[-120.819,66.353],[-121.996,64.281],[-122.985,62.068],[-123.126,60.608],[-123.456,58.443],[-124.021,56.277],[-124.727,55.382],[-125.588,54.8],[-126.648,54.186],[-127.179,53.725],[-127.597,53.112],[-127.526,52.148],[-126.02,50.312],[-124.748,49.088],[-123.901,47.958],[-123.43,47.204],[-123.006,46.263],[-122.771,44.568],[-122.865,43.532],[-123.289,42.59],[-123.854,40.942],[-124.607,39.624],[-125.632,38.41],[-126.982,36.589],[-128.614,33.492],[-129.368,31.295],[-129.577,29.056],[-129.158,27.424],[-128.405,25.729],[-127.463,24.18],[-125.622,22.632],[-123.99,21.857],[-122.316,21.418],[-120.495,21.167],[-119.072,21.313],[-117.273,21.565],[-115.809,22.444],[-115.135,23.058],[-114.761,23.845],[-114.979,25.098],[-115.857,27.013],[-115.878,28.207],[-115.418,28.708],[-114.822,28.959],[-113.692,28.583],[-112.436,28.08],[-111.094,27.335],[-110.011,26.553],[-109.172,25.506],[-108.293,24.345],[-107.759,21.865],[-107.477,19.229],[-107.445,18.036],[-107.382,16.623],[-107.069,15.336],[-106.574,14.387],[-106.339,13.775],[-105.727,12.598],[-104.644,11.421],[-102.954,10.457],[-101.259,9.845]]]}},{"type":"Feature","properties":{"density":1},"geometry":{"type":"Polygon","coordinates":[[[-148.779,64.899],[-149.253,64.667],[-149.486,64.518],[-149.746,64.239],[-149.849,64.016],[-149.895,63.774],[-149.653,63.504],[-149.207,63.383],[-148.528,63.448],[-147.551,63.709],[-147.096,63.885],[-146.854,64.183],[-146.817,64.536],[-146.975,64.787],[-147.347,64.964],[-147.616,65.057],[-148.016,65.039],[-148.398,64.992],[-148.779,64.899]]]}},{"type":"Feature","properties":{"density":2},"geometry":{"type":"Polygon","coordinates":[[[-108.637,42.664],[-108.481,42.74],[-108.364,42.776],[-108.235,42.784],[-108.199,42.757],[-108.206,42.701],[-108.236,42.671],[-108.527,42.563],[-108.604,42.583],[-108.629,42.608],[-108.637,42.664]]]}},{"type":"Feature","properties":{"density":2},"geometry":{"type":"Polygon","coordinates":[[[-123.702,41.218],[-123.56,41.159],[-123.472,41.004],[-123.484,40.963],[-123.471,40.943],[-123.431,40.952],[-123.365,41.009],[-123.274,41.046],[-123.256,41.026],[-123.322,40.886],[-123.232,40.875],[-123.151,40.922],[-123.101,40.915],[-123.048,40.877],[-123.01,40.772],[-123.005,40.615],[-123.025,40.598],[-123.059,40.598],[-123.125,40.675],[-123.162,40.684],[-123.25,40.657],[-123.238,40.587],[-123.256,40.568],[-123.35,40.553],[-123.507,40.578],[-123.588,40.709],[-123.622,40.813],[-123.746,40.918],[-123.778,40.972],[-123.897,40.898],[-123.911,40.919],[-123.844,41.047],[-123.808,41.239],[-123.827,41.26],[-123.892,41.279],[-123.916,41.321],[-123.869,41.342],[-123.791,41.325],[-123.733,41.281],[-123.702,41.218]]]}},{"type":"Feature","properties":{"density":2},"geometry":{"type":"Polygon","coordinates":[[[-111.654,40.915],[-111.703,40.936],[-111.778,40.999],[-111.864,41.108],[-111.876,41.192],[-111.846,41.245],[-111.789,41.263],[-111.66,41.194],[-111.228,41.213],[-111.067,41.149],[-111.021,41.083],[-111.019,40.999],[-111.06,40.943],[-111.225,40.847],[-111.312,40.828],[-111.418,40.838],[-111.654,40.915]]]}},{"type":"Feature","properties":{"density":2},"geometry":{"type":"Polygon","coordinates":[[[-105.918,36.021],[-105.837,36.074],[-105.733,36.045],[-105.704,35.991],[-105.709,35.936],[-105.775,35.868],[-105.926,35.853],[-105.942,35.863],[-105.95,35.905],[-105.918,36.021]]]}},{"type":"Feature","properties":{"density":2},"geometry":{"type":"Polygon","coordinates":[[[-115.139,46.22],[-115.048,46.22],[-115.026,46.207],[-115.013,46.143],[-115.079,46.066],[-115.244,46.031],[-115.57,46.094],[-115.619,46.12],[-115.625,46.147],[-115.564,46.168],[-115.325,46.116],[-115.251,46.12],[-115.21,46.141],[-115.139,46.22]]]}},{"type":"Feature","properties":{"density":2},"geometry":{"type":"Polygon","coordinates":[[[-113.978,63.839],[-114.06,63.796],[-114.209,63.67],[-114.345,63.302],[-114.355,63.145],[-114.318,63.092],[-114.245,63.074],[-114.086,63.131],[-113.95,63.249],[-113.891,63.371],[-113.873,63.507],[-113.899,63.817],[-113.909,63.853],[-113.978,63.839]]]}},{"type":"Feature","properties":{"density":2},"geometry":{"type":"Polygon","coordinates":[[[-118.915,64.862],[-118.131,65.578],[-117.402,66.194],[-116.616,67.567],[-116.308,68.612],[-116.258,69.557],[-116.298,70.164],[-116.437,70.751],[-116.387,71.328],[-116.009,71.677],[-115.193,71.726],[-114.477,71.498],[-113.949,71.05],[-113.601,70.503],[-113.342,69.736],[-113.243,68.373],[-113.505,66.327],[-113.495,65.65],[-113.385,65.003],[-113.087,64.406],[-112.097,63.177],[-111.689,62.899],[-111.072,62.54],[-110.445,62.302],[-109.918,62.013],[-109.609,61.724],[-108.843,61.297],[-108.375,60.61],[-108.389,60.025],[-108.548,59.626],[-108.876,59.228],[-109.304,58.85],[-111.434,57.826],[-112.967,57.441],[-114.101,57.308],[-115.096,57.278],[-116.648,57.398],[-117.175,57.577],[-117.563,57.825],[-119.132,58.215],[-119.759,58.409],[-120.655,58.633],[-123.103,58.708],[-124.297,58.693],[-125.386,58.738],[-126.147,58.961],[-126.953,59.275],[-127.536,59.693],[-127.745,60.2],[-127.7,60.544],[-127.192,60.767],[-126.595,60.857],[-126.013,60.857],[-125.446,60.753],[-124.177,60.439],[-123.595,60.335],[-122.923,60.35],[-122.506,60.738],[-122.192,61.006],[-121.923,61.454],[-121.384,62.262],[-121.235,62.819],[-121.126,63.088],[-120.927,63.336],[-120.658,63.535],[-120.28,63.545],[-119.922,63.834],[-119.762,64.013],[-119.603,64.331],[-119.199,64.69],[-118.915,64.862]]]}},{"type":"Feature","properties":{"density":2},"geometry":{"type":"Polygon","coordinates":[[[-122.56,51.924],[-121.993,51.894],[-120.958,52.213],[-120.023,52.442],[-119.207,52.621],[-118.331,52.71],[-117.416,52.76],[-116.411,52.71],[-113.246,52.168],[-110.395,51.66],[-108.489,51.788],[-107.285,51.679],[-105.477,51.435],[-102.613,50.48],[-100.708,50.041],[-97.843,49.817],[-96.275,49.414],[-94.731,48.944],[-93.454,48.384],[-90.544,47.254],[-88.903,46.824],[-85.948,46.968],[-84.029,47.929],[-82.158,48.108],[-79.058,47.522],[-75.89,47.623],[-74.771,47.735],[-73.539,47.914],[-71.927,47.959],[-69.33,47.802],[-67.181,47.757],[-64.606,47.668],[-62.457,47.22],[-61.024,46.481],[-58.942,45.071],[-58.382,44.421],[-58.113,43.66],[-58.27,42.921],[-58.673,42.048],[-59.233,41.175],[-60.285,40.57],[-62.054,39.876],[-64.293,39.205],[-66.285,38.466],[-67.875,37.66],[-69.532,37.1],[-71.39,36.652],[-73.092,36.272],[-74.726,36.16],[-75.733,36.451],[-78.435,37.096],[-79.611,37.029],[-81.558,36.828],[-84.279,36.29],[-86.059,35.854],[-87.57,35.518],[-89.551,35.149],[-94.443,34.768],[-96.973,34.298],[-101.026,33.76],[-102.05,33.502],[-103.429,33.343],[-104.352,33.535],[-104.438,34.013],[-104.133,34.531],[-103.748,34.995],[-103.284,35.395],[-102.866,35.654],[-102.558,35.952],[-102.449,36.191],[-102.558,36.489],[-102.857,36.828],[-103.613,37.007],[-104.279,37.106],[-104.946,37.285],[-105.712,37.594],[-106.439,38.44],[-106.797,38.798],[-107.867,39.353],[-109.344,39.442],[-110.128,39.599],[-110.8,39.756],[-111.471,40.114],[-111.964,40.472],[-112.053,41.301],[-111.981,41.803],[-111.842,42.171],[-111.762,42.48],[-111.961,42.659],[-112.349,42.738],[-112.867,42.589],[-113.902,42.34],[-114.937,42.062],[-115.564,41.793],[-116.051,41.251],[-116.409,41.042],[-117.069,40.75],[-117.756,40.471],[-118.234,40.431],[-119.537,40.223],[-119.856,40.213],[-120.204,40.292],[-120.93,40.68],[-121.199,40.869],[-121.438,40.999],[-122.224,41.297],[-122.483,41.536],[-122.602,41.944],[-122.512,42.262],[-122.204,42.601],[-121.537,43.049],[-121.149,43.198],[-120.29,43.5],[-119.998,43.506],[-119.613,43.573],[-118.93,43.825],[-118.705,43.944],[-118.506,44.117],[-118.3,44.389],[-118.267,44.554],[-118.254,44.753],[-118.386,44.886],[-118.499,44.84],[-118.671,44.727],[-118.831,44.554],[-119.003,44.402],[-119.202,44.269],[-119.554,44.077],[-119.879,43.964],[-120.031,43.944],[-120.31,43.964],[-120.763,44.048],[-121.234,44.307],[-121.34,44.453],[-121.44,44.638],[-121.546,44.725],[-121.657,44.871],[-121.74,44.913],[-121.887,44.921],[-122.02,44.954],[-122.091,45.013],[-122.067,45.092],[-121.749,45.355],[-121.657,45.476],[-121.21,45.714],[-120.938,45.754],[-120.567,45.734],[-120.228,45.813],[-119.956,46.118],[-119.883,46.397],[-120.029,46.556],[-120.394,46.696],[-121.045,47.109],[-121.263,47.339],[-121.304,47.428],[-121.313,47.504],[-121.263,47.548],[-121.186,47.551],[-120.995,47.492],[-120.85,47.528],[-120.788,47.581],[-120.809,47.681],[-120.865,47.746],[-121.012,48.069],[-121.079,48.471],[-121.265,48.701],[-121.357,48.865],[-121.318,49.015],[-121.158,49.223],[-120.871,49.458],[-120.822,49.59],[-120.933,49.648],[-121.406,49.626],[-121.587,49.679],[-121.711,49.851],[-121.822,50.068],[-122.109,50.453],[-122.547,50.652],[-122.826,50.811],[-123.02,51.036],[-123.1,51.297],[-123.069,51.474],[-122.927,51.633],[-122.56,51.924]]]}},{"type":"Feature","properties":{"density":2},"geometry":{"type":"Polygon","coordinates":[[[-116.718,42.784],[-116.842,42.552],[-116.893,42.493],[-116.948,42.265],[-116.886,42.246],[-116.764,42.286],[-116.599,42.262],[-116.497,42.368],[-116.474,42.435],[-116.472,42.508],[-116.497,42.562],[-116.619,42.741],[-116.681,42.78],[-116.718,42.784]]]}},{"type":"Feature","properties":{"density":2},"geometry":{"type":"Polygon","coordinates":[[[-123.883,41.343],[-123.92,41.326],[-123.933,41.291],[-123.821,41.247],[-123.782,41.179],[-123.807,41.093],[-123.898,41.021],[-123.927,40.968],[-123.92,40.919],[-123.871,40.88],[-123.587,40.823],[-123.261,40.682],[-123.207,40.694],[-123.187,40.721],[-123.195,40.762],[-123.338,40.884],[-123.318,40.963],[-123.341,40.99],[-123.398,40.992],[-123.466,40.961],[-123.49,40.979],[-123.487,41.056],[-123.549,41.097],[-123.555,41.165],[-123.588,41.194],[-123.669,41.201],[-123.733,41.245],[-123.814,41.337],[-123.883,41.343]]]}},{"type":"Feature","properties":{"density":2},"geometry":{"type":"Polygon","coordinates":[[[-91.734,34.223],[-91.834,34.122],[-91.827,34.106],[-91.732,34.129],[-91.658,34.171],[-91.636,34.203],[-91.651,34.23],[-91.684,34.242],[-91.734,34.223]]]}},{"type":"Feature","properties":{"density":2},"geometry":{"type":"Polygon","coordinates":[[[-69.69,41.041],[-70.149,41.276],[-70.611,41.362],[-71.351,41.216],[-71.602,40.808],[-71.588,40.246],[-71.319,39.772],[-70.942,39.175],[-70.315,38.485],[-69.938,37.637],[-69.75,36.727],[-69.781,35.754],[-69.969,35.001],[-71.131,34.373],[-72.512,34.624],[-73.893,34.844],[-75.4,35.817],[-77.095,36.476],[-78.601,36.602],[-80.893,36.633],[-83.184,36.413],[-84.973,36.131],[-86.26,35.848],[-87.265,35.534],[-90.152,34.718],[-91.031,34.404],[-91.753,34.279],[-92.946,34.247],[-93.767,34.297],[-94.986,34.561],[-96.367,34.718],[-97.874,34.467],[-98.753,34.122],[-99.757,33.933],[-100.731,33.463],[-102.708,33.117],[-103.901,32.929],[-104.403,33.243],[-104.56,33.808],[-104.497,34.624],[-104.811,35.095],[-105.627,35.252],[-106.381,35.472],[-106.694,35.974],[-106.318,36.696],[-105.721,37.418],[-105.251,38.108],[-105.376,38.893],[-106.004,39.27],[-107.197,39.458],[-108.358,39.489],[-110.304,39.772],[-111.026,40.023],[-111.842,40.87],[-112.658,41.687],[-113.569,41.812],[-114.385,41.687],[-115.326,41.247],[-116.362,40.588],[-117.618,39.709],[-119.47,39.332],[-121.196,39.583],[-122.546,40.023],[-122.922,40.713],[-122.828,41.655],[-122.546,42.377],[-122.044,42.848],[-121.384,43.099],[-120.917,43.413],[-120.778,43.692],[-120.903,43.985],[-121.336,44.11],[-121.768,44.389],[-122.159,44.864],[-121.963,45.38],[-121.517,45.715],[-121.182,46.077],[-121.029,46.636],[-121.447,47.333],[-121.35,47.682],[-121.112,48.128],[-121.182,48.547],[-121.698,49.161],[-122.396,49.719],[-123.111,50.507],[-123.613,51.323],[-123.498,51.979],[-122.98,52.493],[-122.047,53.095],[-119.878,54.87],[-118.905,55.435],[-117.611,55.731],[-116.613,55.717],[-112.376,55.403],[-109.488,54.744],[-107.354,54.305],[-105.47,53.614],[-104.434,53.143],[-102.457,52.139],[-100.574,51.04],[-97.968,49.973],[-94.704,48.812],[-93.637,48.278],[-90.592,46.991],[-88.74,46.458],[-86.731,46.301],[-85.256,46.458],[-84.094,46.74],[-83.247,47.18],[-82.839,48.09],[-82.619,48.937],[-82.556,50.036],[-81.834,51.26],[-80.077,52.108],[-78.382,52.202],[-77.471,51.951],[-76.279,51.323],[-75.368,50.758],[-74.332,50.193],[-72.763,49.722],[-69.938,49.126],[-67.396,48.937],[-64.822,48.655],[-62.373,48.592],[-59.58,48.341],[-57.1,47.87],[-55.719,47.305],[-54.526,46.269],[-54.244,45.139],[-54.275,44.009],[-54.746,42.628],[-55.687,41.687],[-56.88,40.902],[-57.885,40.4],[-60.333,39.678],[-64.037,39.74],[-66.234,39.897],[-68.274,40.243],[-69.077,40.567],[-69.69,41.041]]]}},{"type":"Feature","properties":{"density":2},"geometry":{"type":"Polygon","coordinates":[[[-123.538,61.468],[-124.04,61.322],[-125.191,61.196],[-125.714,61.029],[-125.881,60.547],[-125.777,60.15],[-125.421,59.689],[-124.689,59.271],[-123.81,59.124],[-122.324,59.166],[-120.336,59.438],[-119.185,59.438],[-118.327,59.355],[-117.553,59.208],[-116.737,59.02],[-115.858,58.894],[-115.042,58.852],[-114.037,58.769],[-112.321,58.873],[-111.317,59.124],[-110.229,59.543],[-109.873,60.338],[-110.061,60.945],[-110.856,61.677],[-112.112,62.389],[-112.782,62.787],[-113.242,63.184],[-113.723,64.0],[-114.037,64.921],[-114.414,66.197],[-114.916,67.223],[-115.565,67.955],[-116.444,68.478],[-117.385,68.688],[-117.992,68.227],[-118.39,67.537],[-118.494,66.867],[-118.662,65.946],[-119.039,65.214],[-120.336,64.105],[-121.068,63.54],[-122.596,62.242],[-122.994,61.74],[-123.538,61.468]]]}},{"type":"Feature","properties":{"density":2},"geometry":{"type":"Polygon","coordinates":[[[-91.635,34.329],[-91.76,34.239],[-91.82,34.151],[-91.826,34.116],[-91.798,34.094],[-91.75,34.101],[-91.644,34.221],[-91.572,34.274],[-91.585,34.331],[-91.635,34.329]]]}},{"type":"Feature","properties":{"density":2},"geometry":{"type":"Polygon","coordinates":[[[-69.49,42.058],[-69.219,41.594],[-68.277,41.123],[-66.488,40.558],[-64.511,40.229],[-62.109,39.805],[-60.132,39.852],[-59.284,39.993],[-56.858,40.513],[-54.294,41.594],[-52.363,42.724],[-51.233,43.713],[-50.574,44.796],[-50.433,45.643],[-50.951,46.726],[-51.939,47.527],[-52.928,47.903],[-54.529,47.903],[-56.836,47.621],[-58.625,47.15],[-59.802,46.679],[-61.026,46.397],[-62.769,46.397],[-64.642,46.609],[-66.107,47.028],[-67.147,47.48],[-68.748,47.998],[-70.019,48.374],[-72.185,48.61],[-74.116,48.516],[-75.315,48.095],[-77.082,47.433],[-78.306,46.868],[-80.707,45.879],[-82.555,45.5],[-84.709,45.408],[-87.864,45.879],[-89.251,46.254],[-90.695,46.609],[-91.909,46.965],[-92.871,47.467],[-94.713,48.284],[-95.843,48.974],[-96.763,49.504],[-97.846,50.163],[-101.0,51.953],[-102.46,52.565],[-104.437,53.177],[-106.452,53.766],[-108.587,54.331],[-110.721,55.085],[-114.069,56.089],[-115.325,56.047],[-116.267,55.754],[-117.15,55.06],[-117.762,54.118],[-118.233,53.459],[-118.845,52.847],[-120.163,52.376],[-121.717,52.047],[-122.188,51.906],[-122.706,51.717],[-123.235,51.171],[-123.151,50.795],[-122.635,50.599],[-122.272,50.139],[-121.645,49.469],[-121.505,49.009],[-121.603,48.563],[-121.463,48.367],[-121.156,48.256],[-121.17,47.893],[-121.254,47.67],[-121.491,47.444],[-121.352,47.14],[-120.696,46.54],[-120.146,46.345],[-119.58,46.358],[-118.91,46.4],[-118.729,46.261],[-118.924,45.912],[-119.706,45.549],[-120.431,45.479],[-121.38,45.758],[-121.882,45.731],[-122.119,45.256],[-121.868,44.838],[-121.505,44.461],[-120.786,44.058],[-120.451,44.037],[-120.264,43.847],[-120.403,43.61],[-120.744,43.41],[-121.623,43.096],[-122.496,42.689],[-122.97,42.368],[-123.221,42.089],[-123.179,41.838],[-122.669,41.359],[-121.91,41.225],[-121.115,41.462],[-120.529,41.88],[-120.193,41.996],[-119.845,41.838],[-119.594,41.559],[-119.58,41.225],[-119.65,40.959],[-119.468,40.605],[-119.273,40.374],[-118.785,40.15],[-118.283,40.15],[-117.906,40.262],[-117.71,40.438],[-117.333,40.878],[-116.692,41.155],[-116.357,41.183],[-115.722,41.17],[-115.324,41.024],[-114.968,40.94],[-114.006,40.626],[-113.294,40.647],[-112.604,40.857],[-112.075,41.211],[-111.642,41.769],[-111.306,42.51],[-111.097,43.138],[-111.076,43.577],[-110.993,44.1],[-110.762,44.791],[-110.26,45.209],[-109.904,45.063],[-109.486,44.728],[-109.256,44.268],[-108.964,43.443],[-107.973,42.717],[-107.415,42.536],[-106.996,42.508],[-106.411,42.578],[-105.866,42.531],[-105.489,42.3],[-104.966,41.903],[-104.652,41.484],[-104.359,40.794],[-104.275,40.103],[-104.667,38.825],[-105.043,37.207],[-105.42,36.663],[-105.88,36.342],[-106.048,36.077],[-106.159,35.812],[-106.048,35.435],[-105.587,35.309],[-104.778,35.505],[-104.234,35.658],[-103.648,35.519],[-102.937,35.142],[-102.002,34.821],[-100.998,34.71],[-99.776,35.144],[-98.514,35.686],[-97.6,36.169],[-96.171,36.649],[-94.873,37.053],[-93.994,37.402],[-93.032,37.556],[-92.251,37.737],[-91.009,37.89],[-90.234,37.864],[-89.104,37.885],[-88.135,37.709],[-87.48,37.36],[-86.949,37.039],[-86.342,36.881],[-85.358,36.776],[-84.04,36.713],[-83.182,36.692],[-81.947,36.818],[-81.026,36.881],[-80.169,37.111],[-79.75,37.195],[-78.181,37.655],[-77.406,38.011],[-76.431,38.075],[-76.082,37.964],[-75.831,37.838],[-75.384,37.74],[-74.911,37.722],[-74.422,37.866],[-74.168,37.792],[-73.989,37.489],[-73.914,36.954],[-73.989,36.471],[-74.045,35.899],[-73.78,35.341],[-73.347,35.076],[-72.441,34.908],[-71.367,35.02],[-69.469,35.731],[-68.437,35.997],[-67.516,36.262],[-66.797,36.525],[-65.856,36.806],[-65.081,37.362],[-64.704,37.948],[-64.67,38.284],[-64.949,38.717],[-65.493,38.912],[-66.023,38.869],[-66.944,38.619],[-67.718,38.345],[-68.395,38.141],[-68.918,38.183],[-69.274,38.455],[-69.441,38.748],[-69.637,39.038],[-69.874,39.303],[-70.739,39.986],[-71.262,40.318],[-71.743,40.527],[-72.531,40.543],[-72.991,40.878],[-72.991,41.401],[-72.531,42.008],[-71.84,42.405],[-71.045,42.761],[-70.25,43.033],[-69.894,42.949],[-69.616,42.853],[-69.532,42.602],[-69.553,42.33],[-69.49,42.058]]]}},{"type":"Feature","properties":{"density":2},"geometry":{"type":"Polygon","coordinates":[[[-121.624,62.11],[-121.721,61.985],[-121.861,61.622],[-121.847,61.245],[-121.791,60.869],[-121.428,60.018],[-121.177,59.641],[-120.856,59.362],[-120.438,59.181],[-120.089,59.083],[-119.531,59.027],[-118.499,58.985],[-117.201,59.013],[-116.629,59.055],[-116.155,59.237],[-115.43,59.404],[-114.676,59.516],[-113.742,59.502],[-112.891,59.446],[-112.235,59.292],[-111.747,59.223],[-111.244,59.223],[-110.38,59.334],[-110.184,59.53],[-110.142,60.046],[-110.198,60.562],[-110.477,61.12],[-110.965,61.608],[-111.649,61.999],[-112.374,62.208],[-113.058,62.459],[-113.379,62.794],[-113.546,63.185],[-113.588,63.547],[-113.658,63.771],[-113.853,64.05],[-114.314,64.315],[-114.9,64.622],[-115.234,65.11],[-115.416,65.765],[-115.527,66.449],[-115.737,67.007],[-116.085,67.412],[-117.271,67.76],[-118.415,67.579],[-118.931,67.216],[-118.862,66.1],[-118.75,65.194],[-119.127,64.161],[-119.629,63.589],[-120.089,63.226],[-120.731,62.766],[-121.373,62.25],[-121.624,62.11]]]}},{"type":"Feature","properties":{"density":2},"geometry":{"type":"Polygon","coordinates":[[[-123.84,41.482],[-123.918,41.499],[-123.951,41.49],[-124.001,41.424],[-124.055,41.3],[-124.075,41.189],[-124.154,41.048],[-124.269,40.916],[-124.29,40.783],[-124.216,40.684],[-124.088,40.61],[-123.939,40.622],[-123.695,40.726],[-123.261,40.651],[-123.137,40.713],[-123.104,40.796],[-123.17,40.912],[-123.286,41.007],[-123.521,41.284],[-123.736,41.387],[-123.84,41.482]]]}},{"type":"Feature","properties":{"density":2},"geometry":{"type":"Polygon","coordinates":[[[-148.195,64.772],[-148.437,64.636],[-148.604,64.499],[-148.666,64.295],[-148.555,64.165],[-148.381,64.09],[-147.817,64.134],[-147.184,64.251],[-147.011,64.382],[-147.048,64.549],[-147.19,64.661],[-147.389,64.772],[-147.668,64.822],[-147.891,64.822],[-148.195,64.772]]]}},{"type":"Feature","properties":{"density":2},"geometry":{"type":"Polygon","coordinates":[[[-87.565,20.547],[-87.342,20.511],[-87.306,20.519],[-87.284,20.55],[-87.455,20.795],[-87.669,21.04],[-87.76,21.092],[-87.865,21.115],[-87.986,21.059],[-88.014,20.908],[-87.962,20.789],[-87.857,20.682],[-87.565,20.547]]]}},{"type":"Feature","properties":{"density":2},"geometry":{"type":"Polygon","coordinates":[[[-87.437,21.369],[-87.496,21.361],[-87.503,21.292],[-87.413,21.172],[-87.191,21.033],[-87.033,20.989],[-86.976,20.989],[-86.963,21.027],[-87.11,21.174],[-87.303,21.323],[-87.363,21.358],[-87.437,21.369]]]}},{"type":"Feature","properties":{"density":2},"geometry":{"type":"Polygon","coordinates":[[[-107.009,40.587],[-106.283,39.931],[-105.654,38.752],[-105.23,37.622],[-104.383,36.257],[-102.735,35.08],[-101.369,34.515],[-99.439,34.421],[-97.508,34.656],[-95.201,35.739],[-93.951,35.983],[-92.423,35.927],[-91.293,35.786],[-89.975,35.409],[-87.244,34.797],[-85.608,34.49],[-84.116,34.281],[-82.428,34.225],[-80.558,34.326],[-78.816,34.468],[-77.168,34.891],[-76.024,34.965],[-74.685,34.839],[-72.76,34.602],[-71.937,34.769],[-71.239,35.02],[-70.486,35.355],[-69.816,35.397],[-68.993,35.23],[-68.003,35.327],[-67.138,35.495],[-65.821,35.927],[-64.691,36.586],[-63.05,37.267],[-61.725,37.797],[-60.06,38.22],[-58.949,38.243],[-57.777,37.852],[-55.651,36.963],[-54.666,36.416],[-53.41,36.178],[-50.453,36.611],[-49.295,36.443],[-48.388,36.374],[-47.83,36.653],[-47.788,37.071],[-47.481,37.267],[-46.407,37.504],[-44.796,37.968],[-43.331,38.7],[-42.159,39.621],[-40.485,41.086],[-39.397,42.634],[-38.602,44.35],[-38.748,45.961],[-38.937,47.604],[-39.753,48.954],[-40.82,49.958],[-42.306,50.753],[-44.859,51.653],[-47.537,52.218],[-50.488,52.658],[-52.873,52.642],[-55.745,52.218],[-59.936,51.229],[-61.537,50.57],[-62.625,49.895],[-63.148,49.351],[-63.734,49.1],[-64.215,48.849],[-64.989,48.535],[-66.099,48.744],[-67.501,49.037],[-70.577,50.188],[-72.022,50.663],[-73.464,51.088],[-74.762,51.172],[-75.85,51.172],[-76.708,51.004],[-77.608,50.628],[-78.34,50.042],[-79.345,49.33],[-80.977,47.949],[-81.584,47.468],[-81.898,46.966],[-81.984,46.4],[-81.919,45.815],[-81.96,45.354],[-82.504,45.229],[-83.697,45.229],[-84.639,45.564],[-85.769,46.38],[-89.128,48.357],[-90.634,49.44],[-91.293,50.052],[-92.941,51.371],[-94.354,52.171],[-96.096,52.83],[-97.226,53.066],[-98.12,53.348],[-101.369,53.913],[-103.111,54.384],[-105.607,54.949],[-107.631,55.608],[-109.656,56.126],[-111.163,56.644],[-111.963,56.832],[-113.893,57.397],[-115.293,57.409],[-116.284,57.079],[-116.718,56.691],[-116.907,55.963],[-116.972,55.544],[-116.767,54.754],[-116.554,54.028],[-116.488,53.461],[-116.721,53.07],[-117.856,52.698],[-119.074,52.54],[-120.007,52.491],[-120.706,52.486],[-121.39,52.454],[-122.335,52.35],[-123.051,52.032],[-123.451,51.653],[-123.498,51.265],[-123.303,50.893],[-122.957,50.683],[-122.493,50.437],[-122.242,50.0],[-121.982,49.736],[-121.415,49.498],[-120.894,49.591],[-120.605,49.609],[-120.41,49.507],[-120.922,49.414],[-121.424,49.191],[-121.628,48.865],[-121.517,48.605],[-121.591,48.242],[-121.74,47.954],[-121.787,47.517],[-121.656,47.154],[-121.098,46.828],[-120.057,46.345],[-119.387,46.289],[-119.173,46.122],[-119.127,45.898],[-119.62,45.777],[-120.159,45.582],[-120.791,45.619],[-121.191,45.768],[-121.582,45.717],[-122.014,45.508],[-122.21,45.089],[-122.098,44.629],[-121.735,44.28],[-121.261,44.071],[-120.522,43.834],[-120.759,43.652],[-121.275,43.499],[-121.709,43.414],[-122.098,43.317],[-122.614,43.08],[-122.991,42.69],[-123.158,42.132],[-123.028,41.624],[-122.415,41.389],[-121.709,41.342],[-121.144,41.436],[-120.909,41.342],[-120.721,41.106],[-120.626,40.683],[-120.285,39.467],[-119.768,38.63],[-118.75,37.974],[-117.299,37.514],[-116.099,37.095],[-115.081,36.914],[-113.658,37.026],[-112.263,37.235],[-111.3,37.528],[-110.598,37.905],[-109.656,38.611],[-108.95,39.317],[-108.501,39.917],[-107.595,40.587],[-107.009,40.587]]]}},{"type":"Feature","properties":{"density":2},"geometry":{"type":"Polygon","coordinates":[[[-118.28,70.395],[-118.782,70.269],[-119.159,69.851],[-118.949,69.139],[-118.28,68.114],[-118.259,67.612],[-118.28,67.089],[-118.447,66.273],[-119.096,64.829],[-119.598,64.285],[-120.247,63.803],[-121.23,63.301],[-122.13,62.38],[-122.298,61.711],[-122.214,60.581],[-121.9,59.953],[-121.105,59.283],[-119.87,58.739],[-119.075,58.551],[-118.07,58.677],[-116.92,59.2],[-115.936,59.702],[-114.848,59.911],[-113.613,60.016],[-112.63,60.12],[-111.855,60.497],[-111.27,61.146],[-111.207,61.983],[-111.353,62.569],[-111.876,63.636],[-112.379,65.101],[-112.441,66.063],[-112.462,66.942],[-112.693,68.03],[-113.32,68.658],[-114.45,69.495],[-115.664,70.081],[-116.606,70.374],[-117.631,70.479],[-118.28,70.395]]]}},{"type":"Feature","properties":{"density":2},"geometry":{"type":"Polygon","coordinates":[[[-105.883,36.22],[-106.007,36.159],[-106.178,36.019],[-106.233,35.842],[-106.213,35.727],[-106.147,35.622],[-106.001,35.542],[-105.822,35.517],[-105.693,35.523],[-105.522,35.6],[-105.445,35.718],[-105.406,35.881],[-105.431,36.03],[-105.486,36.112],[-105.585,36.176],[-105.773,36.223],[-105.883,36.22]]]}},{"type":"Feature","properties":{"density":2},"geometry":{"type":"Polygon","coordinates":[[[-121.471,36.394],[-121.428,36.295],[-121.421,36.214],[-121.446,36.127],[-121.533,36.028],[-121.663,35.991],[-121.806,36.01],[-122.023,36.096],[-122.153,36.32],[-122.178,36.592],[-122.11,36.828],[-121.992,36.971],[-121.756,37.088],[-121.576,37.107],[-121.415,37.082],[-121.341,37.045],[-121.316,36.983],[-121.316,36.834],[-121.359,36.741],[-121.421,36.679],[-121.452,36.605],[-121.483,36.499],[-121.471,36.394]]]}},{"type":"Feature","properties":{"density":2},"geometry":{"type":"Polygon","coordinates":[[[-123.593,41.561],[-123.783,41.346],[-123.816,41.264],[-123.824,41.156],[-123.767,40.912],[-123.647,40.652],[-123.531,40.532],[-123.399,40.47],[-123.27,40.47],[-123.167,40.532],[-123.109,40.673],[-123.13,40.95],[-123.101,41.074],[-123.047,41.21],[-123.035,41.479],[-123.113,41.582],[-123.233,41.632],[-123.452,41.628],[-123.593,41.561]]]}},{"type":"Feature","properties":{"density":2},"geometry":{"type":"Polygon","coordinates":[[[-148.455,64.423],[-148.53,64.39],[-148.61,64.327],[-148.668,64.233],[-148.659,64.109],[-148.599,64.032],[-148.483,64.021],[-148.331,64.051],[-148.1,64.211],[-148.07,64.305],[-148.081,64.362],[-148.125,64.415],[-148.188,64.448],[-148.295,64.467],[-148.381,64.459],[-148.455,64.423]]]}},{"type":"Feature","properties":{"density":2},"geometry":{"type":"Polygon","coordinates":[[[-99.113,33.485],[-99.002,33.047],[-98.882,32.791],[-98.799,32.757],[-98.7,32.782],[-98.584,32.931],[-98.522,33.068],[-98.481,33.208],[-98.502,33.324],[-98.588,33.493],[-98.679,33.588],[-98.845,33.708],[-98.923,33.745],[-99.047,33.716],[-99.109,33.638],[-99.113,33.485]]]}},{"type":"Feature","properties":{"density":3},"geometry":{"type":"Polygon","coordinates":[[[-121.99,45.066],[-121.844,45.149],[-121.727,45.187],[-121.664,45.196],[-121.587,45.18],[-121.587,45.157],[-121.641,45.115],[-121.857,45.03],[-121.83,44.997],[-121.848,44.981],[-122.026,45.005],[-122.031,45.036],[-121.99,45.066]]]}},{"type":"Feature","properties":{"density":3},"geometry":{"type":"Polygon","coordinates":[[[-121.517,45.45],[-121.239,45.479],[-121.143,45.447],[-120.786,45.415],[-120.498,45.422],[-120.342,45.355],[-120.04,45.296],[-119.836,45.315],[-119.588,45.376],[-119.442,45.452],[-119.201,45.627],[-119.117,45.865],[-119.005,45.992],[-118.722,46.26],[-118.357,46.469],[-117.834,46.698],[-117.39,46.69],[-116.504,46.601],[-116.158,46.626],[-115.973,46.622],[-115.616,46.705],[-115.477,46.698],[-115.35,46.662],[-115.31,46.626],[-115.37,46.59],[-116.076,46.432],[-116.497,46.249],[-116.969,46.205],[-117.128,46.118],[-117.139,46.047],[-117.083,45.891],[-117.073,45.809],[-117.094,45.722],[-117.131,45.65],[-117.189,45.608],[-117.383,45.528],[-117.556,45.519],[-117.814,45.554],[-117.951,45.514],[-118.125,45.389],[-118.295,45.183],[-118.559,44.942],[-118.839,44.777],[-119.231,44.581],[-119.818,44.502],[-120.279,44.42],[-120.504,44.295],[-120.862,44.279],[-120.923,44.293],[-120.933,44.333],[-120.909,44.376],[-120.69,44.43],[-120.633,44.506],[-120.689,44.555],[-120.818,44.568],[-121.017,44.549],[-121.072,44.576],[-121.17,44.69],[-121.308,44.891],[-121.522,45.092],[-121.603,45.271],[-121.603,45.34],[-121.565,45.43],[-121.517,45.45]]]}},{"type":"Feature","properties":{"density":3},"geometry":{"type":"Polygon","coordinates":[[[-121.958,42.431],[-121.78,42.624],[-121.619,42.76],[-121.337,42.89],[-120.821,43.062],[-120.471,43.203],[-120.028,43.297],[-119.559,43.422],[-118.474,43.865],[-117.884,44.616],[-117.53,44.877],[-117.248,45.122],[-116.935,45.336],[-116.288,45.665],[-115.987,45.625],[-115.543,45.451],[-115.23,45.107],[-115.089,45.018],[-114.729,44.919],[-114.449,44.913],[-114.287,44.933],[-113.228,45.137],[-112.847,45.184],[-112.472,45.194],[-112.315,45.152],[-112.31,45.09],[-112.425,44.991],[-112.858,44.944],[-113.327,44.85],[-114.766,44.494],[-115.21,44.49],[-115.59,44.349],[-115.889,44.172],[-116.036,44.046],[-116.211,43.852],[-116.418,43.708],[-116.679,43.587],[-116.886,43.516],[-117.324,43.117],[-117.55,42.887],[-117.863,42.626],[-118.664,42.308],[-119.047,42.305],[-119.367,42.333],[-119.707,42.385],[-120.755,42.609],[-121.115,42.567],[-121.29,42.513],[-121.392,42.429],[-121.383,42.33],[-121.284,42.303],[-121.043,42.405],[-120.915,42.396],[-120.872,42.335],[-120.924,42.227],[-121.027,42.143],[-121.137,42.024],[-121.181,41.843],[-121.251,41.687],[-121.355,41.659],[-121.867,41.661],[-122.19,41.705],[-122.326,41.831],[-122.431,41.981],[-122.438,42.051],[-122.387,42.134],[-122.317,42.204],[-122.224,42.285],[-121.999,42.389],[-121.958,42.431]]]}},{"type":"Feature","properties":{"density":3},"geometry":{"type":"Polygon","coordinates":[[[-113.285,45.604],[-113.165,45.58],[-113.15,45.613],[-113.164,45.698],[-113.048,45.763],[-112.991,45.83],[-112.927,45.866],[-112.82,45.866],[-112.736,45.848],[-112.697,45.821],[-112.705,45.788],[-112.882,45.763],[-112.969,45.695],[-112.967,45.673],[-112.862,45.707],[-112.768,45.706],[-112.724,45.691],[-112.714,45.652],[-112.741,45.598],[-112.868,45.538],[-112.996,45.505],[-113.033,45.478],[-113.063,45.385],[-113.042,45.338],[-112.949,45.281],[-112.936,45.22],[-112.951,45.16],[-113.062,45.161],[-113.125,45.185],[-113.161,45.23],[-113.18,45.371],[-113.158,45.439],[-113.165,45.463],[-113.296,45.442],[-113.366,45.383],[-113.438,45.389],[-113.44,45.421],[-113.363,45.454],[-113.366,45.524],[-113.339,45.577],[-113.285,45.604]]]}},{"type":"Feature","properties":{"density":3},"geometry":{"type":"Polygon","coordinates":[[[-123.636,41.098],[-123.767,41.039],[-123.802,41.034],[-123.817,41.047],[-123.809,41.07],[-123.737,41.131],[-123.723,41.18],[-123.66,41.151],[-123.597,41.16],[-123.598,41.13],[-123.636,41.098]]]}},{"type":"Feature","properties":{"density":3},"geometry":{"type":"Polygon","coordinates":[[[-116.694,64.453],[-116.822,64.335],[-116.872,64.241],[-116.9,64.045],[-116.885,64.003],[-116.85,64.007],[-116.652,64.38],[-116.64,64.435],[-116.694,64.453]]]}},{"type":"Feature","properties":{"density":3},"geometry":{"type":"Polygon","coordinates":[[[-120.547,49.425],[-120.579,49.284],[-120.616,49.227],[-120.719,49.126],[-120.803,49.118],[-120.95,49.222],[-121.039,49.241],[-121.012,49.171],[-121.125,49.064],[-121.203,49.028],[-121.222,48.999],[-121.195,48.947],[-121.214,48.918],[-121.311,48.872],[-121.322,48.84],[-121.302,48.797],[-121.256,48.775],[-121.108,48.755],[-121.077,48.728],[-121.053,48.692],[-121.039,48.576],[-121.019,48.539],[-120.972,48.537],[-120.946,48.58],[-120.918,48.792],[-120.802,48.84],[-120.781,48.879],[-120.773,48.915],[-120.786,48.944],[-120.826,48.968],[-120.853,49.005],[-120.846,49.02],[-120.772,49.003],[-120.751,48.9],[-120.737,48.882],[-120.664,48.868],[-120.614,48.798],[-120.549,48.839],[-120.528,48.874],[-120.463,48.872],[-120.438,48.821],[-120.461,48.783],[-120.534,48.727],[-120.535,48.68],[-120.517,48.648],[-120.46,48.627],[-120.4,48.653],[-120.359,48.798],[-120.35,48.905],[-120.366,48.977],[-120.444,49.146],[-120.427,49.182],[-120.44,49.284],[-120.476,49.325],[-120.428,49.369],[-120.425,49.423],[-120.453,49.474],[-120.477,49.478],[-120.534,49.452],[-120.547,49.425]]]}},{"type":"Feature","properties":{"density":3},"geometry":{"type":"Polygon","coordinates":[[[-121.472,49.74],[-121.53,49.796],[-121.541,49.835],[-121.537,49.916],[-121.577,50.056],[-121.579,50.092],[-121.56,50.108],[-121.474,50.101],[-121.403,50.038],[-121.272,49.743],[-121.281,49.724],[-121.336,49.717],[-121.472,49.74]]]}},{"type":"Feature","properties":{"density":3},"geometry":{"type":"Polygon","coordinates":[[[-121.63,50.212],[-121.721,50.377],[-121.884,50.551],[-121.889,50.59],[-121.867,50.607],[-121.755,50.596],[-121.671,50.548],[-121.595,50.486],[-121.554,50.421],[-121.517,50.339],[-121.564,50.159],[-121.604,50.157],[-121.63,50.212]]]}},{"type":"Feature","properties":{"density":3},"geometry":{"type":"Polygon","coordinates":[[[-121.166,47.352],[-121.255,47.401],[-121.281,47.433],[-121.269,47.467],[-121.204,47.48],[-121.127,47.453],[-121.018,47.333],[-120.898,47.288],[-120.885,47.262],[-120.929,47.231],[-121.05,47.237],[-121.09,47.253],[-121.166,47.352]]]}},{"type":"Feature","properties":{"density":3},"geometry":{"type":"Polygon","coordinates":[[[-105.833,36.019],[-105.754,35.955],[-105.766,35.917],[-105.84,35.871],[-105.936,35.876],[-105.942,35.897],[-105.89,36.005],[-105.858,36.033],[-105.833,36.019]]]}},{"type":"Feature","properties":{"density":3},"geometry":{"type":"Polygon","coordinates":[[[-115.139,46.183],[-115.084,46.209],[-115.051,46.204],[-115.039,46.171],[-115.065,46.089],[-115.214,46.049],[-115.305,46.051],[-115.379,46.072],[-115.212,46.107],[-115.132,46.158],[-115.139,46.183]]]}},{"type":"Feature","properties":{"density":3},"geometry":{"type":"Polygon","coordinates":[[[-119.084,62.251],[-118.104,62.353],[-117.745,62.332],[-117.346,62.17],[-117.01,61.942],[-116.807,61.762],[-116.418,61.197],[-116.391,61.004],[-116.415,60.866],[-116.517,60.677],[-116.851,60.469],[-117.004,60.397],[-117.179,60.358],[-117.416,60.355],[-117.665,60.388],[-118.161,60.49],[-119.072,60.764],[-119.322,60.8],[-119.604,60.803],[-120.401,60.689],[-120.533,60.713],[-120.623,60.797],[-120.68,60.917],[-120.716,61.05],[-120.704,61.194],[-120.662,61.326],[-120.461,61.639],[-120.383,61.732],[-120.145,61.885],[-119.977,61.972],[-119.806,62.038],[-119.301,62.174],[-119.129,62.246],[-119.084,62.251]]]}},{"type":"Feature","properties":{"density":3},"geometry":{"type":"Polygon","coordinates":[[[-113.969,63.809],[-114.021,63.747],[-114.031,63.704],[-114.028,63.606],[-114.003,63.566],[-113.96,63.57],[-113.944,63.619],[-113.926,63.801],[-113.932,63.813],[-113.969,63.809]]]}},{"type":"Feature","properties":{"density":3},"geometry":{"type":"Polygon","coordinates":[[[-120.57,47.539],[-120.7,47.728],[-120.877,47.899],[-120.903,47.999],[-120.856,48.085],[-120.603,48.141],[-120.499,48.212],[-120.346,48.613],[-120.278,48.725],[-120.16,48.89],[-119.951,49.114],[-119.871,49.229],[-119.821,49.341],[-119.86,49.45],[-119.972,49.518],[-120.169,49.497],[-120.656,49.556],[-120.715,49.586],[-120.801,49.704],[-120.964,49.769],[-121.111,49.771],[-121.342,49.696],[-121.524,49.71],[-121.629,49.835],[-121.726,50.186],[-121.897,50.451],[-122.053,50.616],[-122.148,50.661],[-122.385,50.728],[-122.452,50.793],[-122.478,50.895],[-122.472,50.941],[-122.425,51.18],[-122.386,51.315],[-122.342,51.395],[-122.24,51.448],[-122.006,51.514],[-121.714,51.51],[-121.519,51.501],[-121.223,51.448],[-120.254,51.359],[-119.803,51.35],[-119.387,51.452],[-119.104,51.602],[-118.879,51.695],[-118.306,51.706],[-117.848,51.793],[-117.311,51.779],[-116.648,51.832],[-115.998,51.832],[-115.427,51.746],[-114.598,51.647],[-113.987,51.514],[-111.554,50.695],[-110.042,50.463],[-108.828,50.085],[-107.62,49.886],[-106.393,49.607],[-105.232,49.243],[-104.255,49.076],[-103.041,48.967],[-101.986,48.982],[-101.379,49.101],[-100.513,49.091],[-99.071,49.001],[-97.658,48.663],[-95.46,47.807],[-95.002,47.595],[-94.531,47.343],[-92.69,46.798],[-92.083,46.768],[-90.058,46.42],[-89.341,46.226],[-88.7,46.122],[-87.978,46.032],[-87.419,45.719],[-87.011,45.258],[-86.87,44.529],[-87.161,43.301],[-87.3,42.972],[-87.33,42.624],[-87.31,42.156],[-87.419,41.689],[-87.858,41.239],[-88.425,41.209],[-89.455,41.373],[-90.276,41.627],[-90.828,41.97],[-91.291,42.299],[-91.649,42.762],[-92.619,43.284],[-93.187,43.493],[-94.548,44.128],[-94.873,44.148],[-95.457,44.128],[-96.014,44.035],[-96.605,43.876],[-96.996,43.664],[-97.248,43.471],[-97.454,43.239],[-97.693,42.796],[-98.031,42.548],[-98.608,42.249],[-99.334,41.97],[-100.12,41.841],[-100.867,41.881],[-101.533,42.08],[-103.394,42.732],[-103.981,42.762],[-105.295,42.693],[-105.848,42.782],[-106.356,42.729],[-106.769,42.554],[-107.253,42.089],[-107.718,41.884],[-108.501,41.89],[-108.666,42.083],[-108.905,42.792],[-109.131,43.297],[-109.459,44.215],[-109.446,44.547],[-109.479,44.819],[-109.652,45.118],[-110.136,45.396],[-110.439,45.83],[-110.289,46.377],[-109.812,47.233],[-109.662,47.532],[-109.702,47.8],[-110.155,47.821],[-110.663,47.803],[-111.362,47.551],[-112.123,47.458],[-112.866,47.856],[-113.317,48.612],[-113.715,48.957],[-114.294,48.948],[-114.727,48.885],[-115.533,48.527],[-115.882,48.086],[-116.089,47.591],[-116.095,47.402],[-116.142,47.17],[-116.304,46.925],[-116.85,46.859],[-117.003,47.049],[-117.08,47.279],[-117.392,47.438],[-117.867,47.402],[-118.628,47.25],[-119.059,47.005],[-119.368,46.911],[-119.834,46.893],[-120.268,46.896],[-120.421,46.946],[-120.506,47.008],[-120.554,47.105],[-120.545,47.45],[-120.57,47.539]]]}},{"type":"Feature","properties":{"density":3},"geometry":{"type":"Polygon","coordinates":[[[-74.293,37.905],[-74.461,37.839],[-74.841,37.883],[-74.983,38.02],[-75.129,38.52],[-75.031,38.803],[-74.872,39.095],[-74.664,39.373],[-74.187,39.603],[-73.7,39.674],[-73.439,39.679],[-73.245,39.661],[-73.143,39.621],[-73.015,39.515],[-72.851,39.329],[-72.723,39.135],[-72.652,38.98],[-72.634,38.728],[-72.661,38.171],[-72.617,37.989],[-72.541,37.839],[-72.36,37.812],[-72.196,37.759],[-71.904,37.613],[-71.816,37.503],[-71.869,37.357],[-71.975,37.299],[-72.258,37.26],[-72.586,37.251],[-73.076,37.171],[-73.488,36.937],[-73.718,36.853],[-73.957,36.853],[-74.12,36.959],[-74.107,37.14],[-74.018,37.202],[-73.691,37.587],[-73.501,37.905],[-73.395,38.14],[-73.444,38.272],[-73.603,38.281],[-73.833,38.224],[-73.939,38.175],[-74.239,37.917],[-74.293,37.905]]]}},{"type":"Feature","properties":{"density":3},"geometry":{"type":"Polygon","coordinates":[[[-70.391,43.215],[-70.073,43.381],[-69.635,43.52],[-67.652,43.832],[-67.148,44.004],[-66.756,44.11],[-66.464,44.163],[-66.146,44.031],[-65.953,43.918],[-65.463,43.832],[-64.919,43.978],[-64.554,44.183],[-63.784,44.462],[-63.307,44.541],[-62.962,44.541],[-62.597,44.455],[-62.411,44.329],[-62.378,44.19],[-62.703,43.639],[-62.968,43.361],[-63.479,42.923],[-63.612,42.75],[-63.811,42.611],[-64.016,42.492],[-64.328,42.352],[-65.323,42.186],[-65.529,42.133],[-65.701,42.014],[-65.768,41.934],[-65.761,41.815],[-65.363,41.543],[-65.317,41.284],[-65.642,41.006],[-66.146,40.767],[-66.809,40.608],[-67.333,40.568],[-68.076,40.608],[-69.138,40.74],[-69.98,40.866],[-70.372,41.105],[-70.65,41.39],[-70.816,41.689],[-70.889,42.007],[-70.869,42.279],[-70.823,42.538],[-70.743,42.79],[-70.491,43.122],[-70.391,43.215]]]}},{"type":"Feature","properties":{"density":3},"geometry":{"type":"Polygon","coordinates":[[[-115.812,64.567],[-116.036,64.406],[-116.079,64.351],[-116.083,64.306],[-116.003,64.306],[-115.834,64.345],[-115.771,64.392],[-115.676,64.526],[-115.655,64.575],[-115.661,64.611],[-115.812,64.567]]]}},{"type":"Feature","properties":{"density":3},"geometry":{"type":"Polygon","coordinates":[[[-116.683,42.746],[-116.626,42.713],[-116.585,42.626],[-116.599,42.602],[-116.635,42.587],[-116.721,42.572],[-116.739,42.627],[-116.714,42.651],[-116.703,42.721],[-116.683,42.746]]]}},{"type":"Feature","properties":{"density":3},"geometry":{"type":"Polygon","coordinates":[[[-121.96,45.104],[-122.016,45.074],[-122.024,45.017],[-122.01,45.001],[-121.905,44.926],[-121.823,44.929],[-121.791,44.956],[-121.764,45.079],[-121.777,45.114],[-121.825,45.122],[-121.96,45.104]]]}},{"type":"Feature","properties":{"density":3},"geometry":{"type":"Polygon","coordinates":[[[-82.669,41.363],[-83.729,40.972],[-85.194,40.637],[-85.949,40.562],[-86.995,40.792],[-87.937,41.064],[-89.486,41.639],[-90.323,41.848],[-91.097,42.152],[-91.85,42.382],[-92.813,42.508],[-93.566,42.518],[-94.487,42.351],[-96.412,41.388],[-97.626,41.116],[-98.358,41.053],[-99.509,41.2],[-101.214,41.595],[-101.93,41.912],[-102.581,42.386],[-103.167,43.056],[-103.82,43.972],[-104.097,44.218],[-104.636,44.413],[-105.269,44.674],[-106.506,44.823],[-107.306,44.943],[-108.338,45.036],[-109.193,45.046],[-111.134,44.977],[-113.048,44.757],[-114.681,44.506],[-115.434,44.349],[-115.936,44.098],[-116.313,43.784],[-117.663,42.811],[-118.406,42.377],[-118.778,42.241],[-119.192,42.158],[-119.63,42.092],[-120.023,41.976],[-120.37,41.902],[-120.709,41.807],[-120.895,41.699],[-121.04,41.521],[-121.461,41.24],[-121.858,41.261],[-121.87,41.356],[-121.705,41.393],[-121.556,41.492],[-121.515,41.571],[-121.593,41.616],[-121.73,41.546],[-121.908,41.525],[-122.151,41.587],[-122.342,41.699],[-122.561,41.794],[-122.66,41.968],[-122.561,42.257],[-122.088,42.591],[-121.586,42.874],[-120.707,43.062],[-118.588,43.762],[-118.225,43.989],[-117.972,44.204],[-117.84,44.464],[-117.906,44.671],[-118.105,44.721],[-118.39,44.63],[-118.638,44.481],[-119.006,44.307],[-119.32,44.192],[-120.006,44.01],[-120.428,44.014],[-120.816,44.076],[-121.097,44.241],[-121.246,44.361],[-121.213,44.46],[-121.093,44.497],[-121.13,44.642],[-121.226,44.82],[-121.432,44.94],[-121.586,44.977],[-121.825,44.907],[-121.97,44.89],[-122.052,44.981],[-122.007,45.101],[-121.792,45.246],[-121.68,45.51],[-121.18,45.432],[-120.833,45.308],[-120.641,45.386],[-120.432,45.498],[-120.114,45.5],[-119.808,45.39],[-119.613,45.213],[-119.184,45.188],[-118.853,45.324],[-118.721,45.614],[-118.754,45.903],[-118.704,46.118],[-118.535,46.312],[-118.311,46.453],[-118.014,46.502],[-117.398,46.544],[-117.228,46.647],[-117.059,46.87],[-117.013,47.135],[-117.022,47.3],[-117.15,47.416],[-117.381,47.536],[-117.766,47.527],[-118.163,47.341],[-118.324,47.213],[-118.741,46.833],[-119.275,46.655],[-119.86,46.515],[-120.299,46.515],[-120.688,46.932],[-121.048,47.147],[-121.304,47.354],[-121.398,47.457],[-121.325,47.552],[-121.197,47.556],[-120.998,47.403],[-120.498,47.283],[-120.37,47.321],[-120.378,47.412],[-120.55,47.582],[-120.841,47.817],[-120.899,47.961],[-120.808,48.094],[-120.626,48.139],[-120.378,48.114],[-120.209,48.275],[-120.093,48.544],[-120.06,48.759],[-119.932,48.995],[-119.866,49.218],[-119.919,49.478],[-120.093,49.735],[-120.304,49.846],[-120.601,49.797],[-120.982,49.681],[-121.279,49.611],[-121.461,49.654],[-121.586,49.779],[-122.12,50.784],[-122.391,50.892],[-122.716,50.972],[-122.97,50.913],[-123.131,51.033],[-123.115,51.243],[-122.962,51.359],[-122.614,51.487],[-122.143,51.57],[-121.709,51.52],[-121.209,51.578],[-120.076,52.0],[-119.558,52.452],[-119.068,52.936],[-118.652,53.587],[-118.324,54.3],[-117.803,54.74],[-117.078,54.933],[-116.296,54.895],[-115.633,54.759],[-115.062,54.424],[-114.647,54.151],[-114.021,53.612],[-113.841,53.24],[-113.519,52.31],[-113.299,51.914],[-112.891,51.412],[-112.264,50.941],[-111.542,50.595],[-110.286,50.313],[-109.093,50.125],[-107.838,49.999],[-106.519,49.779],[-105.86,49.717],[-103.694,49.56],[-102.91,49.434],[-101.654,49.277],[-100.304,48.995],[-99.394,48.743],[-98.233,48.367],[-97.323,47.833],[-96.381,47.551],[-95.094,47.296],[-93.69,46.804],[-92.462,46.571],[-90.937,46.478],[-89.923,46.376],[-89.224,46.232],[-88.565,46.138],[-88.063,45.981],[-86.688,45.693],[-85.738,45.688],[-83.74,46.01],[-83.126,46.512],[-82.689,47.135],[-82.522,47.674],[-82.057,48.074],[-81.396,47.963],[-80.738,47.551],[-80.32,46.944],[-80.048,46.358],[-79.922,45.731],[-79.922,44.935],[-80.13,43.888],[-80.492,43.093],[-80.948,42.487],[-81.722,41.776],[-82.669,41.363]],[[-94.062,46.067],[-94.118,46.067],[-94.369,45.969],[-94.383,45.941],[-94.327,45.872],[-94.132,45.802],[-93.685,45.718],[-93.295,45.676],[-92.918,45.579],[-92.43,45.481],[-91.425,45.314],[-90.825,45.272],[-90.295,45.258],[-89.779,45.3],[-89.723,45.425],[-90.323,45.704],[-90.825,45.872],[-91.369,46.025],[-91.9,46.109],[-92.513,46.095],[-93.476,46.109],[-94.062,46.067]],[[-113.672,48.994],[-113.867,48.957],[-114.341,48.818],[-114.698,48.636],[-115.039,48.38],[-115.243,48.167],[-115.374,47.99],[-115.643,47.581],[-115.764,47.311],[-115.917,47.102],[-115.848,46.93],[-115.708,46.864],[-115.411,46.846],[-114.899,47.032],[-114.583,47.078],[-114.425,47.004],[-114.336,46.804],[-114.494,46.609],[-115.281,46.353],[-115.894,46.334],[-116.276,46.26],[-116.378,46.176],[-116.369,46.093],[-116.211,46.018],[-115.867,45.962],[-115.429,46.055],[-114.983,46.213],[-114.286,46.306],[-114.14,46.227],[-114.137,46.065],[-114.63,45.888],[-115.42,45.767],[-115.774,45.609],[-115.885,45.479],[-115.941,45.349],[-115.792,45.19],[-114.968,45.307],[-114.215,45.279],[-113.861,45.325],[-113.647,45.53],[-113.393,45.73],[-113.253,45.962],[-113.039,46.195],[-112.797,46.325],[-112.435,46.241],[-112.119,46.083],[-111.988,46.065],[-111.616,46.018],[-111.235,46.009],[-110.751,46.046],[-110.379,46.186],[-109.952,46.372],[-109.412,46.632],[-109.059,46.985],[-108.956,47.339],[-109.012,47.655],[-109.142,47.888],[-109.412,48.074],[-110.035,48.101],[-110.472,47.934],[-110.835,47.711],[-111.151,47.46],[-111.561,47.19],[-112.072,47.116],[-112.37,47.255],[-112.546,47.376],[-112.649,47.627],[-112.695,47.943],[-112.89,48.436],[-112.993,48.604],[-113.197,48.827],[-113.43,48.976],[-113.672,48.994]]]}},{"type":"Feature","properties":{"density":3},"geometry":{"type":"Polygon","coordinates":[[[-120.995,49.261],[-121.064,49.261],[-121.092,49.245],[-121.063,49.178],[-121.072,49.154],[-121.128,49.145],[-121.161,49.173],[-121.213,49.162],[-121.213,49.027],[-121.238,48.993],[-121.365,48.911],[-121.403,48.85],[-121.381,48.784],[-121.243,48.724],[-121.114,48.729],[-120.891,48.842],[-120.778,48.861],[-120.595,48.804],[-120.507,48.813],[-120.472,48.87],[-120.466,48.93],[-120.491,49.021],[-120.469,49.156],[-120.439,49.234],[-120.452,49.313],[-120.502,49.38],[-120.552,49.402],[-120.598,49.393],[-120.651,49.333],[-120.665,49.272],[-120.662,49.121],[-120.7,49.071],[-120.764,49.071],[-120.868,49.217],[-120.995,49.261]]]}},{"type":"Feature","properties":{"density":3},"geometry":{"type":"Polygon","coordinates":[[[-123.713,41.203],[-123.729,41.178],[-123.718,41.135],[-123.776,41.067],[-123.767,41.053],[-123.636,41.09],[-123.572,41.135],[-123.581,41.178],[-123.656,41.178],[-123.713,41.203]]]}},{"type":"Feature","properties":{"density":3},"geometry":{"type":"Polygon","coordinates":[[[-120.552,62.15],[-121.073,62.169],[-121.315,62.094],[-121.454,61.974],[-121.399,61.825],[-121.017,61.648],[-120.71,61.536],[-120.357,61.323],[-120.106,61.127],[-119.65,60.644],[-119.371,60.402],[-118.934,60.16],[-118.488,60.067],[-117.483,59.974],[-117.139,59.983],[-116.776,60.039],[-116.414,60.179],[-116.302,60.309],[-116.228,60.523],[-116.33,60.737],[-116.711,61.053],[-117.158,61.313],[-117.418,61.49],[-118.116,61.908],[-118.506,62.076],[-118.822,62.187],[-119.073,62.243],[-119.427,62.262],[-120.245,62.15],[-120.552,62.15]]]}},{"type":"Feature","properties":{"density":3},"geometry":{"type":"Polygon","coordinates":[[[-116.692,64.467],[-116.749,64.442],[-116.989,64.132],[-117.002,64.095],[-116.997,63.996],[-116.96,63.917],[-116.927,63.897],[-116.838,63.955],[-116.679,64.219],[-116.634,64.331],[-116.621,64.43],[-116.657,64.462],[-116.692,64.467]]]}},{"type":"Feature","properties":{"density":3},"geometry":{"type":"Polygon","coordinates":[[[-115.683,64.604],[-115.766,64.608],[-115.828,64.566],[-116.047,64.318],[-116.072,64.252],[-116.063,64.161],[-116.022,64.103],[-115.981,64.083],[-115.914,64.128],[-115.766,64.368],[-115.665,64.463],[-115.633,64.536],[-115.646,64.575],[-115.683,64.604]]]}},{"type":"Feature","properties":{"density":3},"geometry":{"type":"Polygon","coordinates":[[[-113.963,63.822],[-114.092,63.793],[-114.178,63.723],[-114.195,63.628],[-114.166,63.599],[-114.096,63.603],[-114.03,63.624],[-113.968,63.669],[-113.914,63.76],[-113.918,63.793],[-113.963,63.822]]]}},{"type":"Feature","properties":{"density":3},"geometry":{"type":"Polygon","coordinates":[[[-105.868,35.987],[-105.962,35.932],[-105.981,35.907],[-105.976,35.874],[-105.94,35.841],[-105.879,35.819],[-105.808,35.816],[-105.722,35.852],[-105.706,35.899],[-105.711,35.949],[-105.73,35.973],[-105.802,36.012],[-105.868,35.987]]]}},{"type":"Feature","properties":{"density":3},"geometry":{"type":"Polygon","coordinates":[[[-111.559,41.074],[-111.622,41.066],[-111.636,41.038],[-111.57,40.975],[-111.523,40.953],[-111.495,40.958],[-111.473,41.03],[-111.52,41.074],[-111.559,41.074]]]}},{"type":"Feature","properties":{"density":3},"geometry":{"type":"Polygon","coordinates":[[[-121.82,36.428],[-121.847,36.417],[-121.845,36.395],[-121.795,36.208],[-121.721,36.177],[-121.688,36.211],[-121.679,36.257],[-121.696,36.304],[-121.751,36.379],[-121.806,36.431],[-121.82,36.428]]]}},{"type":"Feature","properties":{"density":3},"geometry":{"type":"Polygon","coordinates":[[[-96.464,38.096],[-96.548,37.985],[-96.561,37.958],[-96.551,37.926],[-96.498,37.934],[-96.402,38.033],[-96.391,38.074],[-96.404,38.109],[-96.432,38.119],[-96.464,38.096]]]}},{"type":"Feature","properties":{"density":3},"geometry":{"type":"Polygon","coordinates":[[[-121.409,45.447],[-121.632,45.478],[-121.756,45.453],[-121.775,45.422],[-121.756,45.36],[-121.725,45.304],[-121.657,45.236],[-121.632,45.118],[-121.675,45.087],[-121.861,45.112],[-121.93,45.106],[-121.992,45.069],[-121.992,44.976],[-121.905,44.914],[-121.843,44.895],[-121.818,44.938],[-121.713,44.982],[-121.527,44.945],[-121.372,44.982],[-121.055,44.907],[-120.714,44.728],[-120.671,44.678],[-120.677,44.573],[-120.696,44.523],[-120.801,44.38],[-120.783,44.269],[-120.621,44.182],[-120.51,44.232],[-120.311,44.418],[-120.1,44.411],[-119.846,44.374],[-119.536,44.281],[-118.786,44.343],[-118.271,44.498],[-118.079,44.585],[-117.695,44.709],[-117.577,44.728],[-117.453,44.808],[-117.422,44.938],[-117.521,45.038],[-117.565,45.106],[-117.546,45.298],[-117.645,45.397],[-117.769,45.36],[-117.961,45.255],[-118.061,45.118],[-118.11,45.0],[-118.203,44.87],[-118.352,44.765],[-118.513,44.752],[-118.749,44.827],[-118.997,44.963],[-119.27,45.075],[-119.363,45.143],[-119.425,45.255],[-119.505,45.323],[-119.704,45.323],[-119.852,45.255],[-119.976,45.093],[-120.119,45.05],[-120.299,45.031],[-120.411,45.038],[-120.789,45.112],[-121.068,45.255],[-121.285,45.41],[-121.409,45.447]]]}},{"type":"Feature","properties":{"density":3},"geometry":{"type":"Polygon","coordinates":[[[-118.036,45.831],[-118.228,45.794],[-118.34,45.732],[-118.346,45.664],[-118.284,45.577],[-118.11,45.552],[-117.695,45.639],[-117.372,45.769],[-117.131,45.769],[-116.932,45.8],[-116.87,45.85],[-116.839,45.924],[-116.901,46.023],[-117.298,46.191],[-117.366,46.191],[-117.447,46.172],[-117.509,46.085],[-117.602,46.005],[-117.769,46.011],[-117.893,46.092],[-117.986,46.098],[-118.03,46.085],[-118.054,46.023],[-118.048,45.98],[-117.943,45.918],[-117.924,45.881],[-117.93,45.862],[-118.036,45.831]]]}},{"type":"Feature","properties":{"density":3},"geometry":{"type":"Polygon","coordinates":[[[-121.192,47.536],[-121.248,47.53],[-121.272,47.511],[-121.285,47.443],[-121.272,47.394],[-121.074,47.214],[-121.0,47.183],[-120.938,47.201],[-120.938,47.307],[-121.018,47.418],[-121.086,47.493],[-121.142,47.53],[-121.192,47.536]]]}},{"type":"Feature","properties":{"density":3},"geometry":{"type":"Polygon","coordinates":[[[-120.584,48.181],[-120.739,48.175],[-120.888,48.113],[-120.919,48.051],[-120.925,47.939],[-120.801,47.741],[-120.479,47.561],[-120.206,47.437],[-119.945,47.394],[-119.747,47.276],[-119.679,47.214],[-119.666,47.195],[-119.704,47.139],[-119.958,46.922],[-119.989,46.792],[-119.908,46.693],[-119.784,46.668],[-119.462,46.712],[-119.046,46.842],[-118.805,47.009],[-118.172,47.604],[-117.862,47.828],[-117.583,47.933],[-117.279,47.995],[-116.759,47.989],[-116.176,47.939],[-116.021,47.877],[-115.891,47.79],[-115.673,47.505],[-115.45,47.36],[-115.283,47.374],[-115.143,47.471],[-115.227,47.764],[-115.381,47.987],[-115.325,48.211],[-115.115,48.308],[-114.781,48.336],[-114.474,48.127],[-114.334,47.973],[-114.083,47.932],[-113.804,47.959],[-113.567,48.071],[-113.469,48.336],[-113.246,48.587],[-112.925,48.866],[-112.672,49.006],[-112.424,48.975],[-112.311,48.852],[-112.269,48.733],[-112.409,48.545],[-112.772,48.225],[-112.786,48.085],[-112.635,47.964],[-112.437,47.959],[-112.207,48.051],[-111.804,48.317],[-111.401,48.547],[-111.184,48.733],[-110.856,48.894],[-110.236,49.006],[-109.473,48.993],[-108.809,49.055],[-108.338,49.254],[-108.07,50.122],[-108.252,50.61],[-108.531,50.903],[-109.27,51.308],[-109.87,51.419],[-111.084,51.587],[-111.781,51.615],[-112.855,51.615],[-113.651,51.601],[-114.446,51.531],[-116.162,51.252],[-116.524,51.14],[-116.859,50.987],[-117.138,50.833],[-117.952,50.255],[-118.199,50.024],[-118.742,49.378],[-118.924,49.215],[-119.091,49.187],[-119.231,49.257],[-119.356,49.368],[-119.37,49.508],[-119.58,49.731],[-119.691,49.773],[-119.901,49.787],[-119.928,49.703],[-119.914,49.55],[-119.775,49.313],[-119.761,49.173],[-119.849,49.083],[-119.97,49.018],[-120.026,48.894],[-120.026,48.796],[-119.887,48.448],[-119.845,48.197],[-119.901,48.099],[-119.984,48.015],[-120.138,48.043],[-120.528,48.183],[-120.584,48.181]]]}},{"type":"Feature","properties":{"density":3},"geometry":{"type":"Polygon","coordinates":[[[-113.093,45.783],[-113.427,45.755],[-113.581,45.63],[-113.609,45.476],[-113.4,45.393],[-113.148,45.351],[-112.995,45.393],[-112.883,45.462],[-112.395,45.504],[-111.907,45.588],[-111.809,45.727],[-111.837,45.853],[-112.004,45.937],[-112.186,45.951],[-112.66,45.839],[-112.828,45.839],[-113.093,45.783]]]}},{"type":"Feature","properties":{"density":3},"geometry":{"type":"Polygon","coordinates":[[[-122.714,51.392],[-122.902,51.323],[-123.001,51.251],[-123.02,51.152],[-122.951,51.119],[-122.53,51.103],[-122.262,51.05],[-122.053,50.984],[-121.892,50.912],[-121.843,50.875],[-121.818,50.826],[-121.824,50.739],[-121.88,50.683],[-121.928,50.589],[-121.923,50.485],[-121.874,50.404],[-121.777,50.363],[-121.471,50.342],[-121.365,50.274],[-121.322,50.156],[-121.265,50.067],[-121.267,49.994],[-121.307,49.963],[-121.467,50.078],[-121.54,50.086],[-121.597,50.055],[-121.592,49.983],[-121.54,49.911],[-121.5,49.784],[-121.426,49.735],[-121.272,49.697],[-121.031,49.734],[-120.386,49.939],[-119.938,50.187],[-119.631,50.388],[-119.57,50.385],[-119.525,50.356],[-119.609,50.185],[-119.645,50.005],[-119.658,49.839],[-119.584,49.798],[-119.479,49.798],[-119.292,49.873],[-119.248,50.021],[-119.179,50.101],[-119.063,50.112],[-118.848,50.094],[-118.625,50.131],[-118.495,50.311],[-118.402,50.472],[-118.129,50.832],[-118.017,50.95],[-117.831,51.061],[-117.569,51.25],[-117.474,51.395],[-117.422,51.756],[-117.509,51.929],[-117.627,52.11],[-117.76,52.205],[-117.946,52.226],[-118.148,52.197],[-118.364,52.128],[-118.656,51.991],[-119.177,51.594],[-119.567,51.216],[-119.79,51.036],[-119.945,50.974],[-120.132,50.969],[-120.324,51.005],[-120.64,51.148],[-120.845,51.272],[-121.093,51.371],[-121.31,51.432],[-121.653,51.494],[-122.035,51.52],[-122.477,51.45],[-122.714,51.392]]]}},{"type":"Feature","properties":{"density":3},"geometry":{"type":"Polygon","coordinates":[[[-122.312,42.435],[-122.42,42.39],[-122.709,42.129],[-122.854,41.923],[-122.833,41.844],[-122.734,41.819],[-122.556,41.824],[-122.374,41.861],[-122.291,41.836],[-122.118,41.733],[-121.969,41.712],[-121.845,41.729],[-121.733,41.791],[-121.609,41.902],[-121.502,42.034],[-121.432,42.183],[-121.374,42.377],[-121.27,42.522],[-121.13,42.601],[-120.977,42.716],[-120.725,42.807],[-120.171,42.944],[-119.361,43.088],[-118.625,43.283],[-118.526,43.386],[-118.555,43.514],[-118.737,43.568],[-118.927,43.543],[-119.791,43.39],[-120.956,43.109],[-121.775,42.849],[-122.279,42.481],[-122.312,42.435]]]}},{"type":"Feature","properties":{"density":3},"geometry":{"type":"Polygon","coordinates":[[[-123.709,41.187],[-123.771,41.084],[-123.775,41.022],[-123.734,40.976],[-123.651,40.96],[-123.622,40.976],[-123.614,41.067],[-123.531,41.133],[-123.523,41.17],[-123.556,41.204],[-123.589,41.208],[-123.651,41.208],[-123.709,41.187]]]}},{"type":"Feature","properties":{"density":3},"geometry":{"type":"Polygon","coordinates":[[[-120.936,59.907],[-120.806,59.783],[-120.595,59.659],[-120.292,59.616],[-119.808,59.678],[-119.467,59.74],[-119.213,59.901],[-118.915,59.944],[-118.624,59.938],[-118.32,59.87],[-118.115,59.789],[-117.439,59.678],[-117.098,59.727],[-116.85,59.839],[-116.59,59.994],[-116.54,60.211],[-116.59,60.391],[-116.894,60.67],[-117.235,60.812],[-117.582,61.035],[-118.245,61.345],[-118.605,61.538],[-119.833,62.046],[-120.279,62.183],[-120.614,62.22],[-121.017,62.195],[-121.315,62.121],[-121.532,62.003],[-121.68,61.761],[-121.724,61.538],[-121.693,61.271],[-121.482,60.639],[-121.321,60.391],[-120.936,59.907]]]}},{"type":"Feature","properties":{"density":3},"geometry":{"type":"Polygon","coordinates":[[[-116.623,64.508],[-116.7,64.488],[-116.758,64.419],[-116.937,64.056],[-116.959,63.987],[-116.954,63.932],[-116.888,63.937],[-116.789,64.127],[-116.626,64.364],[-116.604,64.433],[-116.623,64.508]]]}},{"type":"Feature","properties":{"density":3},"geometry":{"type":"Polygon","coordinates":[[[-114.404,63.822],[-114.442,63.781],[-114.412,63.756],[-114.007,63.748],[-113.941,63.753],[-113.919,63.792],[-113.957,63.828],[-114.158,63.852],[-114.318,63.85],[-114.404,63.822]]]}},{"type":"Feature","properties":{"density":3},"geometry":{"type":"Polygon","coordinates":[[[-115.764,64.622],[-115.808,64.603],[-115.876,64.504],[-115.988,64.219],[-116.031,64.033],[-115.975,64.002],[-115.864,64.095],[-115.696,64.336],[-115.634,64.46],[-115.616,64.572],[-115.665,64.622],[-115.764,64.622]]]}},{"type":"Feature","properties":{"density":3},"geometry":{"type":"Polygon","coordinates":[[[-96.467,38.112],[-96.55,37.987],[-96.546,37.937],[-96.524,37.93],[-96.496,37.952],[-96.388,38.051],[-96.37,38.088],[-96.38,38.128],[-96.406,38.143],[-96.467,38.112]]]}},{"type":"Feature","properties":{"density":3},"geometry":{"type":"Polygon","coordinates":[[[-105.837,36.005],[-105.955,35.959],[-106.062,35.893],[-106.073,35.858],[-106.058,35.711],[-106.041,35.667],[-106.007,35.643],[-105.946,35.634],[-105.797,35.672],[-105.729,35.731],[-105.692,35.795],[-105.663,35.876],[-105.674,35.928],[-105.738,35.994],[-105.837,36.005]]]}},{"type":"Feature","properties":{"density":3},"geometry":{"type":"Polygon","coordinates":[[[-121.77,36.361],[-121.839,36.357],[-121.876,36.313],[-121.844,36.233],[-121.741,36.179],[-121.521,36.138],[-121.505,36.147],[-121.508,36.185],[-121.588,36.283],[-121.685,36.348],[-121.77,36.361]]]}},{"type":"Feature","properties":{"density":3},"geometry":{"type":"Polygon","coordinates":[[[-121.842,42.769],[-121.863,42.707],[-122.132,42.55],[-122.466,42.492],[-122.603,42.418],[-122.698,42.335],[-122.764,42.24],[-122.801,42.149],[-122.95,41.963],[-122.979,41.86],[-122.896,41.786],[-122.789,41.798],[-122.438,41.905],[-122.338,41.901],[-122.218,41.806],[-122.144,41.69],[-122.016,41.678],[-121.863,41.732],[-121.698,41.744],[-121.507,41.657],[-121.309,41.616],[-121.09,41.662],[-120.875,41.728],[-120.817,41.81],[-120.813,41.93],[-120.933,41.996],[-121.096,42.018],[-121.293,42.112],[-121.363,42.282],[-121.363,42.401],[-121.33,42.525],[-121.243,42.683],[-121.119,42.782],[-120.916,42.831],[-120.201,43.137],[-119.494,43.286],[-119.184,43.336],[-118.674,43.378],[-118.294,43.436],[-117.959,43.519],[-117.715,43.639],[-117.698,43.721],[-117.736,43.8],[-117.926,43.839],[-118.159,43.8],[-118.502,43.685],[-118.67,43.653],[-118.812,43.672],[-119.042,43.833],[-119.41,43.895],[-119.596,43.874],[-119.79,43.738],[-119.88,43.649],[-120.042,43.568],[-120.751,43.381],[-121.049,43.199],[-121.644,42.931],[-121.793,42.827],[-121.842,42.769]]]}},{"type":"Feature","properties":{"density":3},"geometry":{"type":"Polygon","coordinates":[[[-121.441,45.463],[-121.551,45.439],[-121.634,45.401],[-121.678,45.276],[-121.645,45.18],[-121.586,45.123],[-121.52,45.077],[-121.456,45.068],[-121.296,45.081],[-121.196,45.11],[-121.056,45.081],[-120.833,44.961],[-120.692,44.85],[-120.593,44.713],[-120.572,44.643],[-120.572,44.569],[-120.671,44.411],[-120.663,44.337],[-120.432,44.213],[-120.027,44.122],[-119.617,44.17],[-119.477,44.205],[-119.249,44.199],[-119.039,44.162],[-118.869,44.179],[-118.671,44.224],[-118.472,44.373],[-118.373,44.381],[-118.27,44.356],[-118.1,44.245],[-117.985,44.25],[-117.873,44.283],[-117.803,44.37],[-117.621,44.478],[-117.36,44.588],[-117.042,44.66],[-116.659,44.591],[-116.293,44.657],[-116.13,44.764],[-115.848,45.076],[-115.772,45.213],[-115.747,45.337],[-115.777,45.445],[-115.915,45.461],[-116.089,45.42],[-116.237,45.329],[-116.592,45.055],[-116.633,45.059],[-116.612,45.169],[-116.513,45.288],[-116.24,45.472],[-116.174,45.555],[-116.137,45.687],[-116.182,45.844],[-116.277,45.985],[-116.397,46.088],[-116.554,46.15],[-116.745,46.13],[-116.827,46.068],[-116.922,46.026],[-117.092,46.097],[-117.274,46.204],[-117.402,46.216],[-117.513,46.208],[-117.666,46.101],[-117.848,46.092],[-117.989,46.055],[-118.018,45.985],[-117.972,45.935],[-117.72,45.919],[-117.513,45.915],[-117.199,45.96],[-117.096,45.935],[-117.079,45.882],[-117.232,45.836],[-117.447,45.807],[-117.894,45.816],[-118.051,45.799],[-118.224,45.758],[-118.27,45.712],[-118.311,45.638],[-118.303,45.605],[-118.224,45.567],[-117.687,45.472],[-117.427,45.543],[-117.224,45.543],[-117.133,45.518],[-117.1,45.448],[-117.133,45.357],[-117.207,45.27],[-117.212,45.2],[-117.174,45.154],[-116.993,45.129],[-117.005,45.059],[-117.046,45.022],[-117.145,45.009],[-117.608,44.869],[-117.77,44.799],[-117.84,44.708],[-118.059,44.728],[-118.274,44.811],[-118.53,44.989],[-118.658,45.018],[-119.216,45.063],[-119.584,45.026],[-119.745,45.043],[-119.853,45.096],[-119.998,45.233],[-120.105,45.257],[-120.394,45.249],[-120.68,45.266],[-120.762,45.328],[-120.775,45.402],[-120.807,45.465],[-120.862,45.493],[-121.014,45.497],[-121.441,45.463]]]}},{"type":"Feature","properties":{"density":3},"geometry":{"type":"Polygon","coordinates":[[[-121.911,45.111],[-122.011,45.099],[-122.023,45.07],[-122.014,45.032],[-121.832,44.929],[-121.651,44.872],[-121.557,44.782],[-121.526,44.675],[-121.535,44.646],[-121.561,44.629],[-121.658,44.649],[-121.684,44.62],[-121.61,44.363],[-121.546,44.271],[-121.414,44.212],[-121.302,44.22],[-121.166,44.247],[-121.046,44.315],[-120.962,44.436],[-120.949,44.547],[-120.989,44.697],[-121.041,44.789],[-121.101,44.853],[-121.243,44.94],[-121.34,44.978],[-121.557,45.033],[-121.674,45.079],[-121.911,45.111]]]}},{"type":"Feature","properties":{"density":3},"geometry":{"type":"Polygon","coordinates":[[[-123.706,41.176],[-123.717,41.069],[-123.692,40.969],[-123.665,40.925],[-123.577,40.892],[-123.447,41.019],[-123.397,41.049],[-123.298,41.074],[-123.227,41.118],[-123.182,41.201],[-123.188,41.237],[-123.271,41.325],[-123.4,41.347],[-123.519,41.33],[-123.582,41.3],[-123.678,41.239],[-123.706,41.176]]]}},{"type":"Feature","properties":{"density":3},"geometry":{"type":"Polygon","coordinates":[[[-119.231,40.205],[-119.293,40.137],[-119.526,39.953],[-119.556,39.902],[-119.545,39.817],[-119.48,39.793],[-119.394,39.815],[-119.216,39.907],[-118.92,40.131],[-118.839,40.236],[-118.837,40.291],[-118.882,40.33],[-118.977,40.35],[-119.04,40.341],[-119.177,40.269],[-119.231,40.205]]]}},{"type":"Feature","properties":{"density":3},"geometry":{"type":"Polygon","coordinates":[[[-116.868,42.587],[-116.932,42.499],[-116.927,42.453],[-116.903,42.424],[-116.831,42.411],[-116.728,42.428],[-116.604,42.501],[-116.348,42.6],[-115.753,42.795],[-115.72,42.881],[-115.744,42.937],[-115.817,42.964],[-116.095,42.922],[-116.607,42.751],[-116.751,42.683],[-116.868,42.587]]]}},{"type":"Feature","properties":{"density":3},"geometry":{"type":"Polygon","coordinates":[[[-113.781,44.509],[-113.807,44.513],[-113.869,44.461],[-113.873,44.393],[-113.867,44.346],[-113.827,44.294],[-113.766,44.281],[-113.707,44.311],[-113.667,44.353],[-113.66,44.395],[-113.663,44.439],[-113.687,44.469],[-113.72,44.494],[-113.781,44.509]]]}},{"type":"Feature","properties":{"density":3},"geometry":{"type":"Polygon","coordinates":[[[-113.626,46.204],[-113.719,46.113],[-113.731,46.059],[-113.704,46.035],[-113.507,46.059],[-113.174,46.136],[-112.739,46.285],[-112.507,46.337],[-112.022,46.406],[-111.733,46.4],[-111.6,46.461],[-111.548,46.522],[-111.543,46.618],[-111.562,46.671],[-111.644,46.732],[-111.78,46.772],[-111.909,46.794],[-112.334,46.764],[-112.728,46.672],[-112.881,46.611],[-113.348,46.385],[-113.626,46.204]]]}},{"type":"Feature","properties":{"density":3},"geometry":{"type":"Polygon","coordinates":[[[-112.89,45.764],[-113.16,45.692],[-113.317,45.62],[-113.361,45.557],[-113.364,45.499],[-113.323,45.458],[-113.237,45.439],[-113.097,45.441],[-112.794,45.488],[-112.628,45.485],[-112.485,45.507],[-112.182,45.593],[-111.708,45.698],[-111.151,45.786],[-110.534,45.965],[-110.283,46.017],[-109.459,46.108],[-109.319,46.174],[-109.156,46.279],[-109.137,46.359],[-109.244,46.45],[-109.52,46.502],[-109.842,46.513],[-110.347,46.494],[-110.542,46.466],[-110.931,46.359],[-111.096,46.296],[-111.193,46.227],[-111.261,46.202],[-111.622,46.221],[-111.859,46.172],[-112.344,45.968],[-112.689,45.835],[-112.86,45.786],[-112.89,45.764]]]}},{"type":"Feature","properties":{"density":3},"geometry":{"type":"Polygon","coordinates":[[[-113.879,46.254],[-113.926,46.214],[-113.936,46.182],[-113.923,46.153],[-113.884,46.146],[-113.757,46.172],[-113.642,46.232],[-113.643,46.263],[-113.687,46.292],[-113.807,46.279],[-113.879,46.254]]]}},{"type":"Feature","properties":{"density":3},"geometry":{"type":"Polygon","coordinates":[[[-115.015,46.336],[-115.079,46.303],[-115.104,46.227],[-115.16,46.161],[-115.179,46.111],[-115.158,46.081],[-114.956,46.049],[-114.912,46.001],[-114.89,45.897],[-114.869,45.883],[-114.77,45.895],[-114.574,46.053],[-114.509,46.167],[-114.457,46.339],[-114.454,46.459],[-114.473,46.514],[-114.539,46.537],[-114.597,46.524],[-114.76,46.378],[-114.869,46.338],[-115.015,46.336]]]}},{"type":"Feature","properties":{"density":3},"geometry":{"type":"Polygon","coordinates":[[[-115.383,46.556],[-115.433,46.514],[-115.431,46.481],[-115.327,46.453],[-115.189,46.466],[-115.14,46.502],[-115.133,46.537],[-115.169,46.563],[-115.225,46.574],[-115.383,46.556]]]}},{"type":"Feature","properties":{"density":3},"geometry":{"type":"Polygon","coordinates":[[[-115.145,46.966],[-115.242,46.904],[-115.288,46.84],[-115.284,46.781],[-115.211,46.762],[-114.775,46.913],[-114.314,46.968],[-114.296,47.01],[-114.335,47.045],[-114.404,47.069],[-114.669,47.095],[-114.785,47.091],[-115.052,47.015],[-115.145,46.966]]]}},{"type":"Feature","properties":{"density":3},"geometry":{"type":"Polygon","coordinates":[[[-118.955,51.936],[-119.451,51.85],[-119.866,51.701],[-120.282,51.583],[-120.641,51.533],[-121.28,51.509],[-121.59,51.521],[-122.024,51.564],[-122.284,51.552],[-122.7,51.391],[-122.861,51.304],[-123.01,51.13],[-123.022,51.044],[-122.848,50.982],[-122.675,51.0],[-122.532,51.044],[-122.402,51.062],[-122.092,51.075],[-121.838,51.037],[-121.788,50.988],[-121.794,50.882],[-121.993,50.696],[-122.018,50.61],[-122.018,50.498],[-121.974,50.43],[-121.881,50.405],[-121.757,50.467],[-121.615,50.616],[-121.422,50.634],[-121.218,50.585],[-121.112,50.523],[-121.088,50.436],[-121.143,50.324],[-121.224,50.219],[-121.255,50.138],[-121.193,50.076],[-121.119,50.076],[-121.112,50.045],[-121.174,49.971],[-121.466,49.971],[-121.608,49.897],[-121.515,49.717],[-121.354,49.661],[-120.809,49.711],[-119.742,50.033],[-119.265,50.039],[-119.215,49.983],[-119.482,49.897],[-119.841,49.859],[-120.021,49.76],[-120.027,49.649],[-119.965,49.543],[-119.953,49.438],[-120.058,49.357],[-120.3,49.357],[-120.499,49.376],[-120.753,49.345],[-121.044,49.202],[-121.255,49.004],[-121.205,49.001],[-121.28,48.846],[-121.236,48.734],[-121.119,48.691],[-120.889,48.777],[-120.685,48.808],[-120.486,48.79],[-120.375,48.746],[-120.226,48.722],[-120.126,48.734],[-120.052,48.703],[-120.002,48.629],[-120.021,48.511],[-120.157,48.467],[-120.306,48.356],[-120.337,48.213],[-120.722,48.139],[-120.889,48.077],[-120.92,48.021],[-120.908,47.878],[-120.852,47.823],[-120.771,47.792],[-120.616,47.767],[-120.43,47.754],[-120.189,47.779],[-119.922,47.754],[-119.841,47.668],[-119.854,47.513],[-119.971,47.407],[-120.157,47.389],[-120.747,47.42],[-120.957,47.444],[-121.15,47.494],[-121.212,47.469],[-121.255,47.426],[-121.212,47.314],[-120.988,47.134],[-120.616,46.924],[-120.319,46.824],[-120.12,46.824],[-119.302,47.048],[-119.079,47.066],[-118.955,46.986],[-118.936,46.899],[-119.035,46.781],[-119.184,46.725],[-119.184,46.669],[-119.159,46.607],[-119.11,46.551],[-118.942,46.539],[-118.738,46.638],[-118.545,46.942],[-118.409,47.097],[-118.012,47.413],[-117.677,47.593],[-117.339,47.812],[-116.915,48.036],[-116.719,48.12],[-116.31,48.241],[-115.808,48.288],[-115.492,48.334],[-113.05,48.464],[-112.548,48.422],[-111.961,48.292],[-111.042,48.15],[-110.351,48.004],[-109.639,47.899],[-100.83,45.06],[-94.207,41.01],[-93.754,40.906],[-93.377,41.059],[-93.126,41.45],[-92.794,41.701],[-92.372,41.687],[-91.912,41.631],[-91.089,41.757],[-90.503,42.106],[-89.792,42.315],[-89.08,42.371],[-87.253,42.12],[-85.998,41.817],[-84.923,40.864],[-84.086,39.748],[-83.597,39.148],[-82.898,38.854],[-82.119,38.702],[-81.24,38.911],[-80.919,39.315],[-80.166,40.083],[-79.775,40.724],[-79.496,41.673],[-79.343,42.454],[-79.649,43.598],[-80.044,43.971],[-80.793,44.356],[-81.575,44.626],[-82.259,44.78],[-83.723,44.993],[-84.837,45.11],[-86.216,45.072],[-86.829,45.147],[-87.192,45.258],[-87.732,45.603],[-88.671,45.807],[-90.029,46.188],[-91.461,46.365],[-93.171,46.626],[-95.25,47.002],[-97.426,47.574],[-98.849,48.188],[-100.314,48.9],[-102.239,50.197],[-103.118,50.755],[-104.848,51.187],[-106.494,51.439],[-108.182,51.536],[-109.465,51.536],[-111.977,51.704],[-113.197,51.75],[-114.243,51.854],[-115.101,52.001],[-116.42,52.189],[-117.382,52.168],[-117.795,52.118],[-118.955,51.936]]]}},{"type":"Feature","properties":{"density":3},"geometry":{"type":"Polygon","coordinates":[[[-120.399,62.375],[-120.892,62.459],[-121.217,62.403],[-121.459,62.282],[-121.543,62.003],[-121.469,61.64],[-121.469,61.305],[-121.738,60.971],[-121.906,60.654],[-121.813,60.236],[-121.366,59.929],[-120.743,59.864],[-120.036,59.883],[-119.32,59.771],[-119.041,59.622],[-118.939,59.436],[-119.199,58.99],[-119.209,58.832],[-119.069,58.701],[-118.595,58.683],[-117.423,58.859],[-116.809,59.064],[-116.335,59.352],[-116.279,59.78],[-116.502,60.208],[-116.837,60.589],[-117.627,61.305],[-118.213,61.733],[-119.06,62.096],[-119.711,62.273],[-120.018,62.338],[-120.399,62.375]]]}},{"type":"Feature","properties":{"density":3},"geometry":{"type":"Polygon","coordinates":[[[-111.615,41.122],[-111.652,41.095],[-111.672,41.056],[-111.66,40.972],[-111.621,40.926],[-111.522,40.887],[-111.434,40.9],[-111.32,40.95],[-111.079,40.972],[-111.013,41.005],[-110.969,41.056],[-110.978,41.107],[-111.039,41.142],[-111.16,41.17],[-111.424,41.175],[-111.506,41.164],[-111.615,41.122]]]}},{"type":"Feature","properties":{"density":3},"geometry":{"type":"Polygon","coordinates":[[[-116.544,42.263],[-116.609,42.182],[-116.631,42.091],[-116.607,42.05],[-116.565,42.019],[-116.469,42.002],[-116.19,42.1],[-116.072,42.111],[-115.96,42.103],[-115.758,42.052],[-115.628,42.057],[-115.516,42.092],[-115.451,42.155],[-115.446,42.243],[-115.552,42.372],[-115.852,42.465],[-116.056,42.474],[-116.166,42.462],[-116.383,42.379],[-116.544,42.263]]]}},{"type":"Feature","properties":{"density":3},"geometry":{"type":"Polygon","coordinates":[[[-103.464,44.405],[-103.418,44.422],[-103.409,44.452],[-103.477,44.596],[-103.579,44.716],[-103.65,44.774],[-103.749,44.785],[-103.832,44.763],[-103.876,44.681],[-103.868,44.62],[-103.805,44.534],[-103.634,44.435],[-103.551,44.408],[-103.464,44.405]]]}},{"type":"Feature","properties":{"density":3},"geometry":{"type":"Polygon","coordinates":[[[-87.531,20.626],[-87.524,20.575],[-87.49,20.558],[-87.372,20.522],[-87.326,20.536],[-87.351,20.586],[-87.458,20.662],[-87.531,20.626]]]}},{"type":"Feature","properties":{"density":3},"geometry":{"type":"Polygon","coordinates":[[[-62.871,48.572],[-63.226,47.944],[-63.687,47.609],[-64.587,47.337],[-65.424,46.856],[-66.072,46.333],[-66.658,45.747],[-67.098,45.14],[-67.495,44.47],[-67.725,43.801],[-67.725,42.901],[-67.349,42.148],[-66.156,41.331],[-65.068,40.745],[-64.105,40.306],[-62.389,39.825],[-60.548,39.636],[-59.02,39.804],[-57.409,40.118],[-55.505,40.641],[-54.458,41.143],[-53.6,41.896],[-52.973,42.692],[-52.638,43.738],[-52.638,44.721],[-53.056,45.454],[-53.684,46.312],[-55.044,47.525],[-56.384,48.342],[-57.786,49.053],[-59.062,49.618],[-60.276,49.785],[-61.134,49.702],[-61.678,49.472],[-62.285,49.137],[-62.661,48.907],[-62.871,48.572]]]}},{"type":"Feature","properties":{"density":3},"geometry":{"type":"Polygon","coordinates":[[[-98.857,33.171],[-98.911,33.13],[-98.931,32.977],[-98.907,32.873],[-98.857,32.795],[-98.799,32.786],[-98.741,32.828],[-98.7,32.906],[-98.667,32.993],[-98.663,33.076],[-98.692,33.15],[-98.77,33.171],[-98.857,33.171]]]}}]}