{"type":"FeatureCollection","features":[{"type":"Feature","properties":{"density":1},"geometry":{"type":"Polygon","coordinates":[[[-108.557,27.775],[-108.608,27.865],[-108.639,27.968],[-108.664,28.136],[-108.606,28.31],[-108.557,28.365],[-108.474,28.384],[-108.407,28.375],[-108.336,28.301],[-108.308,28.224],[-108.31,28.099],[-108.333,27.988],[-108.382,27.875],[-108.447,27.796],[-108.52,27.755],[-108.541,27.761],[-108.557,27.775]]]}},{"type":"Feature","properties":{"density":1},"geometry":{"type":"Polygon","coordinates":[[[-108.243,27.583],[-108.227,27.671],[-108.197,27.699],[-108.155,27.695],[-108.132,27.669],[-108.132,27.62],[-108.165,27.579],[-108.208,27.556],[-108.236,27.569],[-108.243,27.583]]]}},{"type":"Feature","properties":{"density":1},"geometry":{"type":"Polygon","coordinates":[[[-107.509,28.096],[-107.411,28.134],[-107.403,28.18],[-107.469,28.185],[-107.504,28.161],[-107.536,28.115],[-107.523,28.089],[-107.509,28.096]]]}},{"type":"Feature","properties":{"density":1},"geometry":{"type":"Polygon","coordinates":[[[-104.529,21.262],[-104.543,21.065],[-104.508,21.003],[-104.449,20.97],[-104.331,20.938],[-104.264,20.952],[-104.224,20.998],[-104.148,21.148],[-104.141,21.267],[-104.16,21.301],[-104.205,21.34],[-104.331,21.368],[-104.407,21.343],[-104.516,21.269],[-104.529,21.262]]]}},{"type":"Feature","properties":{"density":1},"geometry":{"type":"Polygon","coordinates":[[[-103.91,20.76],[-103.879,20.684],[-103.815,20.608],[-103.761,20.573],[-103.692,20.557],[-103.623,20.594],[-103.623,20.672],[-103.65,20.721],[-103.812,20.792],[-103.891,20.795],[-103.905,20.776],[-103.91,20.76]]]}},{"type":"Feature","properties":{"density":1},"geometry":{"type":"Polygon","coordinates":[[[-93.886,17.604],[-93.471,17.845],[-93.187,17.946],[-92.863,18.03],[-92.701,18.044],[-92.553,18.03],[-92.313,17.959],[-92.182,17.872],[-92.104,17.76],[-92.101,17.629],[-92.158,17.49],[-92.323,17.396],[-92.809,17.311],[-93.127,17.281],[-93.413,17.325],[-93.734,17.406],[-93.832,17.44],[-93.886,17.494],[-93.903,17.588],[-93.886,17.604]]]}},{"type":"Feature","properties":{"density":1},"geometry":{"type":"Polygon","coordinates":[[[-93.11,16.06],[-93.215,16.102],[-93.397,16.067],[-93.485,15.994],[-93.503,15.928],[-93.457,15.881],[-93.404,15.863],[-93.353,15.868],[-93.217,15.91],[-93.133,15.956],[-93.101,16.001],[-93.098,16.043],[-93.11,16.06]]]}},{"type":"Feature","properties":{"density":1},"geometry":{"type":"Polygon","coordinates":[[[-110.865,66.064],[-105.964,66.006],[-103.427,65.026],[-100.774,63.296],[-98.064,61.796],[-95.815,60.412],[-93.566,58.855],[-88.895,55.511],[-87.915,53.377],[-87.799,51.59],[-87.742,49.917],[-87.05,48.303],[-85.666,46.976],[-83.705,45.708],[-82.033,44.151],[-79.323,42.075],[-77.477,40.864],[-75.113,40.403],[-73.383,40.46],[-71.423,40.691],[-70.5,40.576],[-69.577,39.768],[-68.77,38.788],[-69.289,37.462],[-69.75,36.885],[-71.077,36.424],[-72.807,36.366],[-75.574,36.885],[-77.189,37.058],[-79.784,37.692],[-83.186,38.788],[-84.859,39.768],[-87.107,41.441],[-88.491,42.536],[-90.106,44.093],[-90.798,45.016],[-91.259,46.63],[-91.951,48.245],[-92.701,49.86],[-93.047,51.071],[-93.162,52.166],[-93.451,53.147],[-94.373,55.107],[-95.411,56.03],[-97.891,56.895],[-100.37,57.587],[-102.216,57.529],[-103.83,56.549],[-104.753,55.626],[-105.791,54.704],[-106.541,54.358],[-107.694,55.28],[-107.925,56.376],[-108.271,57.298],[-108.674,58.452],[-109.827,60.182],[-110.577,61.162],[-112.134,61.854],[-112.884,62.142],[-113.864,62.719],[-114.441,63.238],[-114.844,63.815],[-114.96,64.449],[-114.902,65.083],[-114.556,65.718],[-113.749,66.237],[-112.653,66.294],[-111.615,66.064],[-110.865,66.064]]]}},{"type":"Feature","properties":{"density":1},"geometry":{"type":"Polygon","coordinates":[[[-104.205,25.221],[-104.897,25.336],[-105.858,24.644],[-106.819,23.798],[-107.742,22.453],[-108.357,21.223],[-108.665,19.723],[-108.588,18.224],[-107.588,16.725],[-106.819,15.687],[-105.358,15.033],[-103.283,14.802],[-100.822,14.61],[-97.708,14.264],[-95.133,13.765],[-93.902,13.034],[-92.711,12.611],[-91.596,12.265],[-90.212,12.188],[-89.251,12.919],[-89.135,13.803],[-89.328,15.264],[-89.827,16.494],[-89.866,17.494],[-89.481,18.57],[-88.982,19.531],[-88.52,20.377],[-88.366,21.107],[-88.366,21.761],[-88.482,22.261],[-88.712,22.952],[-89.02,23.491],[-89.597,23.798],[-90.327,23.798],[-91.596,23.491],[-92.826,23.491],[-93.71,23.683],[-94.095,24.106],[-94.325,24.759],[-94.248,25.374],[-93.71,26.143],[-92.787,26.797],[-91.442,27.566],[-90.366,28.104],[-89.789,28.719],[-89.443,29.68],[-89.481,30.603],[-89.366,30.949],[-89.481,31.794],[-89.866,32.794],[-91.865,34.37],[-92.518,35.062],[-93.749,35.562],[-95.671,35.677],[-96.324,35.485],[-97.208,35.177],[-97.593,34.678],[-97.9,33.986],[-98.054,33.294],[-97.977,32.294],[-97.554,31.295],[-97.439,29.911],[-97.939,28.219],[-98.362,26.989],[-98.9,26.259],[-99.4,25.836],[-100.745,25.298],[-103.475,25.067],[-104.205,25.221]]]}},{"type":"Feature","properties":{"density":1},"geometry":{"type":"Polygon","coordinates":[[[-77.474,36.289],[-77.38,36.428],[-77.369,36.399],[-77.398,36.304],[-77.423,36.277],[-77.452,36.273],[-77.474,36.289]]]}},{"type":"Feature","properties":{"density":1},"geometry":{"type":"Polygon","coordinates":[[[-95.424,34.149],[-95.445,34.239],[-95.391,34.281],[-95.368,34.207],[-95.409,34.151],[-95.424,34.149]]]}},{"type":"Feature","properties":{"density":1},"geometry":{"type":"Polygon","coordinates":[[[-101.135,50.778],[-101.206,50.839],[-101.344,50.92],[-101.371,50.97],[-101.364,50.994],[-101.334,50.997],[-101.236,50.957],[-101.088,50.835],[-101.067,50.791],[-101.115,50.761],[-101.135,50.778]]]}},{"type":"Feature","properties":{"density":1},"geometry":{"type":"Polygon","coordinates":[[[-106.194,52.938],[-106.721,53.176],[-107.217,53.475],[-107.358,53.601],[-107.399,53.682],[-107.399,53.834],[-107.323,54.057],[-107.217,54.193],[-107.12,54.254],[-106.974,54.29],[-106.852,54.274],[-106.741,54.214],[-106.599,54.102],[-106.503,53.976],[-106.391,53.768],[-106.371,53.566],[-106.326,53.454],[-106.285,53.373],[-106.113,53.146],[-106.093,53.095],[-106.108,52.984],[-106.154,52.948],[-106.194,52.938]]]}},{"type":"Feature","properties":{"density":1},"geometry":{"type":"Polygon","coordinates":[[[-102.888,53.153],[-103.015,53.234],[-103.354,53.568],[-103.455,53.644],[-103.673,53.963],[-103.896,54.469],[-103.886,54.601],[-103.794,54.758],[-103.729,54.834],[-103.653,54.859],[-103.506,54.839],[-103.389,54.763],[-103.268,54.621],[-103.101,54.191],[-102.797,53.568],[-102.721,53.34],[-102.726,53.224],[-102.797,53.153],[-102.838,53.143],[-102.888,53.153]]]}},{"type":"Feature","properties":{"density":1},"geometry":{"type":"Polygon","coordinates":[[[-109.048,28.765],[-109.07,28.81],[-109.064,28.84],[-109.046,28.849],[-109.03,28.851],[-109.003,28.801],[-109.028,28.77],[-109.048,28.765]]]}},{"type":"Feature","properties":{"density":1},"geometry":{"type":"Polygon","coordinates":[[[-108.498,26.849],[-108.436,26.867],[-108.429,26.899],[-108.484,26.908],[-108.514,26.881],[-108.508,26.864],[-108.498,26.849]]]}},{"type":"Feature","properties":{"density":1},"geometry":{"type":"Polygon","coordinates":[[[-104.871,22.251],[-104.898,22.249],[-104.934,22.21],[-104.92,22.134],[-104.871,22.118],[-104.83,22.125],[-104.808,22.156],[-104.808,22.192],[-104.85,22.233],[-104.871,22.251]]]}},{"type":"Feature","properties":{"density":1},"geometry":{"type":"Polygon","coordinates":[[[-105.024,21.223],[-105.1,21.214],[-105.118,21.16],[-105.037,21.117],[-104.916,21.081],[-104.871,21.085],[-104.846,21.106],[-104.868,21.162],[-104.988,21.214],[-105.024,21.223]]]}},{"type":"Feature","properties":{"density":1},"geometry":{"type":"Polygon","coordinates":[[[-104.983,21.056],[-105.026,21.052],[-105.024,21.0],[-104.956,21.002],[-104.952,21.045],[-104.983,21.056]]]}},{"type":"Feature","properties":{"density":1},"geometry":{"type":"Polygon","coordinates":[[[-103.878,20.802],[-103.851,20.8],[-103.788,20.746],[-103.692,20.728],[-103.647,20.671],[-103.647,20.642],[-103.692,20.595],[-103.784,20.554],[-103.881,20.568],[-103.932,20.604],[-103.966,20.676],[-103.953,20.734],[-103.905,20.791],[-103.878,20.802]]]}},{"type":"Feature","properties":{"density":1},"geometry":{"type":"Polygon","coordinates":[[[-104.524,21.286],[-104.479,21.283],[-104.43,21.25],[-104.421,21.187],[-104.391,21.155],[-104.328,20.973],[-104.331,20.921],[-104.389,20.872],[-104.452,20.869],[-104.585,20.964],[-104.621,21.016],[-104.639,21.112],[-104.556,21.268],[-104.524,21.286]]]}},{"type":"Feature","properties":{"density":1},"geometry":{"type":"Polygon","coordinates":[[[-102.478,19.581],[-102.541,19.59],[-102.572,19.57],[-102.512,19.545],[-102.467,19.554],[-102.478,19.581]]]}},{"type":"Feature","properties":{"density":1},"geometry":{"type":"Polygon","coordinates":[[[-104.928,20.337],[-104.955,20.346],[-104.991,20.326],[-105.018,20.283],[-105.056,20.27],[-105.158,20.292],[-105.218,20.281],[-105.236,20.223],[-105.203,20.148],[-105.108,20.101],[-104.982,20.094],[-104.957,20.112],[-104.908,20.2],[-104.897,20.27],[-104.91,20.317],[-104.928,20.337]]]}},{"type":"Feature","properties":{"density":1},"geometry":{"type":"Polygon","coordinates":[[[-104.694,20.146],[-104.735,20.22],[-104.782,20.247],[-104.82,20.247],[-104.863,20.2],[-104.892,20.094],[-104.933,20.056],[-104.966,19.966],[-104.917,19.865],[-104.858,19.824],[-104.766,19.847],[-104.705,19.95],[-104.687,20.106],[-104.694,20.146]]]}},{"type":"Feature","properties":{"density":1},"geometry":{"type":"Polygon","coordinates":[[[-102.543,18.673],[-102.576,18.691],[-102.629,18.685],[-102.663,18.613],[-102.732,18.571],[-102.726,18.514],[-102.795,18.342],[-102.798,18.309],[-102.77,18.264],[-102.668,18.235],[-102.618,18.259],[-102.596,18.358],[-102.546,18.403],[-102.513,18.493],[-102.507,18.613],[-102.522,18.652],[-102.543,18.673]]]}},{"type":"Feature","properties":{"density":1},"geometry":{"type":"Polygon","coordinates":[[[-95.866,16.923],[-95.751,16.977],[-95.697,17.044],[-95.633,17.189],[-95.623,17.307],[-95.65,17.334],[-95.697,17.334],[-95.744,17.297],[-95.798,17.186],[-95.852,17.122],[-95.984,17.068],[-96.048,17.024],[-96.068,16.987],[-96.051,16.929],[-95.953,16.892],[-95.896,16.892],[-95.866,16.923]]]}},{"type":"Feature","properties":{"density":1},"geometry":{"type":"Polygon","coordinates":[[[-97.413,20.955],[-97.323,20.985],[-97.247,21.05],[-97.215,21.131],[-97.222,21.178],[-97.267,21.196],[-97.319,21.189],[-97.339,21.216],[-97.389,21.228],[-97.463,21.167],[-97.488,21.165],[-97.499,21.147],[-97.476,21.039],[-97.434,20.973],[-97.413,20.955]]]}},{"type":"Feature","properties":{"density":1},"geometry":{"type":"Polygon","coordinates":[[[-98.223,21.925],[-98.445,22.051],[-98.466,22.067],[-98.466,22.098],[-98.436,22.105],[-98.333,22.074],[-98.196,21.979],[-98.211,21.943],[-98.223,21.925]]]}},{"type":"Feature","properties":{"density":1},"geometry":{"type":"Polygon","coordinates":[[[-97.856,22.22],[-97.651,22.321],[-97.606,22.395],[-97.611,22.51],[-97.678,22.582],[-97.725,22.686],[-97.725,22.746],[-97.68,22.839],[-97.687,22.897],[-97.723,22.938],[-97.795,22.962],[-97.842,22.947],[-97.86,22.924],[-97.962,22.722],[-97.964,22.661],[-97.944,22.591],[-97.878,22.456],[-97.896,22.296],[-97.878,22.215],[-97.856,22.22]]]}},{"type":"Feature","properties":{"density":1},"geometry":{"type":"Polygon","coordinates":[[[-93.111,16.0],[-93.192,15.956],[-93.267,15.953],[-93.311,15.977],[-93.338,16.074],[-93.297,16.132],[-93.219,16.135],[-93.132,16.074],[-93.111,16.051],[-93.111,16.024],[-93.111,16.0]]]}},{"type":"Feature","properties":{"density":1},"geometry":{"type":"Polygon","coordinates":[[[-93.833,17.492],[-93.692,17.421],[-93.591,17.396],[-93.513,17.407],[-93.34,17.478],[-93.027,17.377],[-92.268,17.354],[-91.994,17.394],[-91.883,17.433],[-91.805,17.543],[-91.8,17.586],[-91.845,17.743],[-92.005,17.867],[-92.23,17.946],[-92.777,18.009],[-92.954,17.986],[-93.328,17.813],[-93.74,17.667],[-93.845,17.599],[-93.861,17.554],[-93.85,17.527],[-93.833,17.492]]]}},{"type":"Feature","properties":{"density":1},"geometry":{"type":"Polygon","coordinates":[[[-71.299,18.019],[-71.314,18.002],[-71.356,17.999],[-71.338,17.929],[-71.299,17.912],[-71.266,17.929],[-71.257,17.983],[-71.295,18.026],[-71.299,18.019]]]}},{"type":"Feature","properties":{"density":1},"geometry":{"type":"Polygon","coordinates":[[[-78.659,21.887],[-78.704,21.968],[-78.697,22.047],[-78.659,22.121],[-78.614,22.15],[-78.558,22.157],[-78.47,22.13],[-78.394,22.045],[-78.389,21.975],[-78.421,21.939],[-78.533,21.869],[-78.641,21.883],[-78.659,21.887]]]}},{"type":"Feature","properties":{"density":1},"geometry":{"type":"Polygon","coordinates":[[[-76.747,35.671],[-76.786,35.667],[-76.806,35.516],[-76.786,35.466],[-76.729,35.455],[-76.696,35.478],[-76.673,35.525],[-76.669,35.581],[-76.734,35.664],[-76.747,35.671]]]}},{"type":"Feature","properties":{"density":1},"geometry":{"type":"Polygon","coordinates":[[[-98.331,36.451],[-98.255,36.603],[-98.26,36.735],[-98.291,36.73],[-98.326,36.684],[-98.361,36.593],[-98.372,36.477],[-98.356,36.451],[-98.331,36.451]]]}},{"type":"Feature","properties":{"density":1},"geometry":{"type":"Polygon","coordinates":[[[-94.111,30.759],[-94.154,30.898],[-94.148,30.996],[-94.117,31.029],[-94.084,31.012],[-94.04,30.901],[-94.03,30.776],[-94.067,30.746],[-94.09,30.746],[-94.111,30.759]]]}},{"type":"Feature","properties":{"density":1},"geometry":{"type":"Polygon","coordinates":[[[-105.398,33.613],[-105.206,33.768],[-105.044,33.809],[-104.953,33.812],[-104.905,33.785],[-104.905,33.741],[-104.949,33.697],[-105.199,33.583],[-105.358,33.552],[-105.405,33.566],[-105.422,33.589],[-105.398,33.613]]]}},{"type":"Feature","properties":{"density":1},"geometry":{"type":"Polygon","coordinates":[[[-115.525,33.045],[-115.542,33.083],[-115.537,33.143],[-115.5,33.192],[-115.465,33.197],[-115.437,33.144],[-115.444,33.084],[-115.483,33.047],[-115.513,33.042],[-115.525,33.045]]]}},{"type":"Feature","properties":{"density":1},"geometry":{"type":"Polygon","coordinates":[[[-106.229,52.913],[-106.3,52.927],[-106.455,53.045],[-106.82,53.2],[-106.931,53.268],[-107.68,53.494],[-107.832,53.575],[-107.907,53.656],[-108.038,53.734],[-108.089,53.801],[-108.136,53.98],[-108.136,54.061],[-108.089,54.142],[-108.048,54.196],[-107.971,54.257],[-107.795,54.338],[-107.556,54.348],[-107.218,54.311],[-107.029,54.263],[-106.756,54.176],[-106.567,54.078],[-106.33,53.892],[-106.195,53.72],[-106.03,53.46],[-105.969,53.305],[-105.969,53.129],[-105.993,53.055],[-106.064,52.951],[-106.185,52.91],[-106.229,52.913]]]}},{"type":"Feature","properties":{"density":1},"geometry":{"type":"Polygon","coordinates":[[[-102.985,53.189],[-103.147,53.376],[-103.299,53.635],[-103.497,54.04],[-103.831,54.612],[-103.871,54.723],[-103.988,55.108],[-104.003,55.331],[-103.983,55.422],[-103.922,55.528],[-103.816,55.604],[-103.704,55.619],[-103.567,55.604],[-103.471,55.553],[-103.243,55.487],[-103.193,55.457],[-103.031,55.3],[-102.904,55.138],[-102.808,54.996],[-102.778,54.915],[-102.692,54.667],[-102.676,54.576],[-102.702,53.903],[-102.692,53.7],[-102.656,53.457],[-102.671,53.316],[-102.712,53.24],[-102.773,53.184],[-102.838,53.154],[-102.93,53.189],[-102.985,53.189]]]}},{"type":"Feature","properties":{"density":1},"geometry":{"type":"Polygon","coordinates":[[[-113.543,60.592],[-113.118,60.582],[-112.404,60.496],[-112.146,60.435],[-112.004,60.349],[-111.984,60.253],[-112.186,60.217],[-112.804,60.222],[-113.057,60.273],[-113.3,60.344],[-113.517,60.435],[-113.548,60.465],[-113.563,60.531],[-113.543,60.592]]]}},{"type":"Feature","properties":{"density":1},"geometry":{"type":"Polygon","coordinates":[[[-111.608,25.176],[-111.439,25.021],[-111.422,24.983],[-111.439,24.906],[-111.493,24.879],[-111.541,24.889],[-111.574,24.926],[-111.645,25.095],[-111.642,25.156],[-111.628,25.162],[-111.608,25.176]]]}},{"type":"Feature","properties":{"density":1},"geometry":{"type":"Polygon","coordinates":[[[-109.018,28.706],[-109.062,28.72],[-109.089,28.753],[-109.099,28.777],[-109.089,28.855],[-109.041,28.922],[-108.957,28.956],[-108.913,28.956],[-108.835,28.909],[-108.822,28.834],[-108.886,28.763],[-108.974,28.72],[-109.018,28.706]]]}},{"type":"Feature","properties":{"density":1},"geometry":{"type":"Polygon","coordinates":[[[-108.508,27.754],[-108.616,27.754],[-108.64,27.781],[-108.626,27.866],[-108.464,28.028],[-108.366,28.048],[-108.322,28.018],[-108.319,27.974],[-108.468,27.795],[-108.508,27.754]]]}},{"type":"Feature","properties":{"density":1},"geometry":{"type":"Polygon","coordinates":[[[-108.464,26.801],[-108.552,26.855],[-108.535,26.953],[-108.427,27.03],[-108.343,27.051],[-108.306,27.04],[-108.282,27.003],[-108.289,26.973],[-108.333,26.909],[-108.424,26.831],[-108.464,26.801]]]}},{"type":"Feature","properties":{"density":1},"geometry":{"type":"Polygon","coordinates":[[[-97.776,23.002],[-97.746,23.009],[-97.685,22.985],[-97.634,22.908],[-97.628,22.83],[-97.665,22.644],[-97.594,22.496],[-97.574,22.385],[-97.597,22.341],[-97.648,22.307],[-97.834,22.216],[-97.935,22.25],[-98.08,22.337],[-98.09,22.364],[-98.09,22.435],[-97.996,22.698],[-97.992,22.739],[-98.033,22.823],[-98.029,22.908],[-97.965,22.958],[-97.871,22.985],[-97.776,23.002]]]}},{"type":"Feature","properties":{"density":1},"geometry":{"type":"Polygon","coordinates":[[[-98.195,22.084],[-98.684,22.179],[-98.735,22.148],[-98.728,22.128],[-98.694,22.111],[-98.522,22.057],[-98.225,22.02],[-98.178,22.027],[-98.164,22.047],[-98.174,22.061],[-98.195,22.084]]]}},{"type":"Feature","properties":{"density":1},"geometry":{"type":"Polygon","coordinates":[[[-97.827,21.946],[-97.813,21.986],[-97.834,22.017],[-97.881,22.05],[-98.002,22.071],[-98.019,22.05],[-98.016,22.02],[-97.881,21.946],[-97.827,21.946]]]}},{"type":"Feature","properties":{"density":1},"geometry":{"type":"Polygon","coordinates":[[[-96.487,19.58],[-96.517,19.539],[-96.531,19.475],[-96.527,19.428],[-96.504,19.398],[-96.477,19.398],[-96.463,19.435],[-96.457,19.556],[-96.487,19.58]]]}},{"type":"Feature","properties":{"density":1},"geometry":{"type":"Polygon","coordinates":[[[-95.92,17.606],[-96.018,17.599],[-96.041,17.582],[-96.045,17.555],[-95.927,17.541],[-95.9,17.555],[-95.893,17.589],[-95.92,17.606]]]}},{"type":"Feature","properties":{"density":1},"geometry":{"type":"Polygon","coordinates":[[[-95.377,17.636],[-95.788,17.4],[-95.842,17.352],[-95.836,17.329],[-95.741,17.339],[-95.501,17.46],[-95.407,17.541],[-95.353,17.616],[-95.377,17.636]]]}},{"type":"Feature","properties":{"density":1},"geometry":{"type":"Polygon","coordinates":[[[-95.036,16.934],[-95.019,17.039],[-95.059,17.072],[-95.096,17.066],[-95.123,17.042],[-95.144,16.964],[-95.127,16.937],[-95.063,16.92],[-95.036,16.934]]]}},{"type":"Feature","properties":{"density":1},"geometry":{"type":"Polygon","coordinates":[[[-95.896,17.055],[-96.038,17.035],[-96.099,17.005],[-96.153,16.947],[-96.166,16.877],[-96.116,16.802],[-96.008,16.782],[-95.923,16.812],[-95.849,16.863],[-95.819,16.917],[-95.819,16.978],[-95.856,17.049],[-95.896,17.055]]]}},{"type":"Feature","properties":{"density":1},"geometry":{"type":"Polygon","coordinates":[[[-101.586,17.852],[-101.576,17.781],[-101.619,17.737],[-101.653,17.727],[-101.724,17.754],[-101.852,17.858],[-101.852,17.98],[-101.947,18.142],[-101.964,18.213],[-101.947,18.334],[-101.893,18.365],[-101.852,18.368],[-101.721,18.287],[-101.694,18.213],[-101.694,18.084],[-101.68,18.041],[-101.623,18.024],[-101.525,18.078],[-101.393,18.064],[-101.319,18.101],[-101.245,18.115],[-101.13,18.064],[-101.083,18.014],[-101.096,17.946],[-101.15,17.899],[-101.272,17.882],[-101.549,17.929],[-101.582,17.906],[-101.586,17.882],[-101.586,17.852]]]}},{"type":"Feature","properties":{"density":1},"geometry":{"type":"Polygon","coordinates":[[[-102.571,18.719],[-102.703,18.678],[-102.74,18.641],[-102.764,18.51],[-102.764,18.435],[-102.743,18.385],[-102.629,18.351],[-102.571,18.378],[-102.527,18.462],[-102.51,18.554],[-102.507,18.624],[-102.534,18.692],[-102.571,18.719]]]}},{"type":"Feature","properties":{"density":1},"geometry":{"type":"Polygon","coordinates":[[[-103.274,20.57],[-103.326,20.529],[-103.335,20.502],[-103.317,20.475],[-103.117,20.331],[-103.072,20.313],[-103.018,20.327],[-103.002,20.378],[-103.036,20.419],[-103.243,20.561],[-103.274,20.57]]]}},{"type":"Feature","properties":{"density":1},"geometry":{"type":"Polygon","coordinates":[[[-105.036,21.216],[-105.066,21.162],[-104.884,21.121],[-104.914,21.162],[-105.009,21.202],[-105.036,21.216]]]}},{"type":"Feature","properties":{"density":1},"geometry":{"type":"Polygon","coordinates":[[[-104.523,21.304],[-104.563,21.29],[-104.59,21.26],[-104.6,21.206],[-104.573,21.094],[-104.539,21.037],[-104.266,20.821],[-104.158,20.828],[-104.118,20.858],[-104.091,20.929],[-104.091,21.0],[-104.141,21.067],[-104.307,21.209],[-104.482,21.297],[-104.523,21.304]]]}},{"type":"Feature","properties":{"density":1},"geometry":{"type":"Polygon","coordinates":[[[-104.901,20.342],[-104.982,20.352],[-105.093,20.318],[-105.147,20.281],[-105.154,20.234],[-105.066,20.112],[-104.975,20.024],[-104.928,19.91],[-104.89,19.883],[-104.803,19.869],[-104.715,19.879],[-104.647,19.937],[-104.62,20.031],[-104.627,20.105],[-104.782,20.267],[-104.843,20.308],[-104.901,20.342]]]}},{"type":"Feature","properties":{"density":1},"geometry":{"type":"Polygon","coordinates":[[[-104.886,22.093],[-105.099,22.259],[-105.068,22.336],[-104.901,22.484],[-104.852,22.48],[-104.899,22.39],[-104.895,22.318],[-104.8,22.212],[-104.802,22.169],[-104.843,22.106],[-104.886,22.093]]]}},{"type":"Feature","properties":{"density":1},"geometry":{"type":"Polygon","coordinates":[[[-95.035,16.603],[-95.062,16.63],[-95.11,16.769],[-95.116,16.843],[-95.106,16.893],[-95.089,16.9],[-95.008,16.806],[-94.958,16.677],[-94.968,16.62],[-95.005,16.6],[-95.035,16.603]]]}},{"type":"Feature","properties":{"density":1},"geometry":{"type":"Polygon","coordinates":[[[-94.539,17.673],[-94.269,17.676],[-94.161,17.646],[-94.175,17.616],[-94.229,17.599],[-94.472,17.592],[-94.543,17.619],[-94.546,17.653],[-94.539,17.673]]]}},{"type":"Feature","properties":{"density":1},"geometry":{"type":"Polygon","coordinates":[[[-93.177,16.153],[-93.271,16.13],[-93.315,16.083],[-93.322,16.005],[-93.254,15.927],[-93.116,15.873],[-92.822,15.853],[-92.775,15.877],[-92.761,15.941],[-92.788,15.988],[-92.883,16.039],[-93.109,16.123],[-93.177,16.153]]]}},{"type":"Feature","properties":{"density":1},"geometry":{"type":"Polygon","coordinates":[[[-89.961,17.16],[-90.019,17.17],[-90.042,17.193],[-90.042,17.217],[-90.002,17.224],[-89.968,17.21],[-89.931,17.19],[-89.941,17.166],[-89.961,17.16]]]}},{"type":"Feature","properties":{"density":1},"geometry":{"type":"Polygon","coordinates":[[[-93.804,17.372],[-93.649,17.284],[-93.551,17.267],[-93.514,17.287],[-93.46,17.372],[-93.362,17.419],[-93.105,17.49],[-92.896,17.507],[-92.471,17.493],[-92.42,17.446],[-92.393,17.388],[-92.292,17.26],[-92.228,17.23],[-92.113,17.186],[-91.954,17.166],[-91.769,17.179],[-91.661,17.226],[-91.573,17.301],[-91.529,17.399],[-91.526,17.574],[-91.58,17.706],[-91.762,17.952],[-91.829,17.999],[-91.934,18.033],[-92.025,18.016],[-92.13,17.955],[-92.376,17.928],[-92.579,17.999],[-92.886,18.006],[-93.102,17.959],[-93.443,17.773],[-93.814,17.652],[-93.871,17.618],[-93.925,17.55],[-93.925,17.48],[-93.865,17.415],[-93.804,17.372]]]}},{"type":"Feature","properties":{"density":1},"geometry":{"type":"Polygon","coordinates":[[[-71.368,18.034],[-71.358,17.99],[-71.463,17.885],[-71.486,17.784],[-71.473,17.757],[-71.429,17.747],[-71.392,17.764],[-71.334,17.814],[-71.274,17.919],[-71.267,18.01],[-71.284,18.027],[-71.358,18.04],[-71.368,18.034]]]}},{"type":"Feature","properties":{"density":1},"geometry":{"type":"Polygon","coordinates":[[[-70.371,19.488],[-70.395,19.503],[-70.422,19.575],[-70.419,19.65],[-70.395,19.643],[-70.383,19.619],[-70.357,19.497],[-70.371,19.488]]]}},{"type":"Feature","properties":{"density":1},"geometry":{"type":"Polygon","coordinates":[[[-94.137,30.771],[-94.151,30.957],[-94.117,31.2],[-94.083,31.294],[-94.039,31.311],[-93.992,31.308],[-93.969,31.24],[-94.012,30.903],[-94.046,30.778],[-94.063,30.747],[-94.093,30.744],[-94.137,30.771]]]}},{"type":"Feature","properties":{"density":1},"geometry":{"type":"Polygon","coordinates":[[[-104.382,32.6],[-104.072,32.634],[-103.798,32.752],[-103.771,32.796],[-103.768,32.853],[-103.798,32.924],[-103.849,32.965],[-103.913,32.968],[-103.987,32.951],[-104.318,32.81],[-104.416,32.695],[-104.406,32.604],[-104.382,32.6]]]}},{"type":"Feature","properties":{"density":1},"geometry":{"type":"Polygon","coordinates":[[[-105.416,33.545],[-105.214,33.522],[-105.082,33.525],[-105.038,33.535],[-104.984,33.576],[-104.981,33.687],[-104.964,33.728],[-104.806,33.971],[-104.789,34.133],[-104.812,34.176],[-104.856,34.193],[-104.937,34.173],[-105.109,34.058],[-105.261,33.92],[-105.42,33.744],[-105.454,33.647],[-105.454,33.603],[-105.433,33.566],[-105.416,33.545]]]}},{"type":"Feature","properties":{"density":1},"geometry":{"type":"Polygon","coordinates":[[[-114.106,32.849],[-114.133,32.795],[-114.123,32.748],[-114.025,32.691],[-113.87,32.718],[-113.785,32.782],[-113.772,32.903],[-113.789,32.934],[-113.853,32.971],[-113.924,32.971],[-114.035,32.91],[-114.106,32.849]]]}},{"type":"Feature","properties":{"density":1},"geometry":{"type":"Polygon","coordinates":[[[-121.275,36.051],[-121.215,36.011],[-121.211,35.94],[-121.235,35.866],[-121.269,35.825],[-121.394,35.818],[-121.461,35.889],[-121.458,35.977],[-121.397,36.031],[-121.319,36.048],[-121.275,36.051]]]}},{"type":"Feature","properties":{"density":1},"geometry":{"type":"Polygon","coordinates":[[[-106.23,52.948],[-106.402,53.06],[-107.081,53.338],[-107.435,53.535],[-108.397,53.991],[-108.589,54.108],[-108.913,54.492],[-108.974,54.68],[-108.999,54.847],[-108.999,54.978],[-108.959,55.1],[-108.888,55.201],[-108.766,55.272],[-108.392,55.267],[-107.88,55.414],[-107.698,55.406],[-107.577,55.376],[-107.448,55.262],[-107.425,55.14],[-107.508,54.859],[-107.493,54.745],[-107.364,54.563],[-107.189,54.381],[-107.015,54.221],[-106.453,53.773],[-106.179,53.439],[-106.05,53.204],[-106.02,53.098],[-106.012,53.006],[-106.096,52.9],[-106.23,52.948]]]}},{"type":"Feature","properties":{"density":1},"geometry":{"type":"Polygon","coordinates":[[[-112.86,60.117],[-112.439,60.047],[-111.569,59.945],[-111.366,59.945],[-110.971,59.991],[-110.84,60.031],[-110.779,60.128],[-110.946,60.249],[-111.285,60.32],[-112.49,60.674],[-112.728,60.715],[-113.067,60.73],[-113.341,60.72],[-113.513,60.629],[-113.563,60.583],[-113.573,60.482],[-113.523,60.396],[-113.194,60.269],[-112.946,60.138],[-112.86,60.117]]]}},{"type":"Feature","properties":{"density":1},"geometry":{"type":"Polygon","coordinates":[[[-102.998,53.187],[-103.302,53.748],[-103.613,54.462],[-103.696,54.895],[-103.772,55.723],[-103.75,55.837],[-103.598,56.08],[-103.522,56.148],[-103.157,56.315],[-102.967,56.3],[-102.8,56.224],[-102.732,56.118],[-102.671,55.981],[-102.55,55.685],[-102.573,55.29],[-102.535,55.138],[-102.406,54.842],[-102.254,54.333],[-102.223,54.098],[-102.238,53.908],[-102.322,53.771],[-102.466,53.635],[-102.747,53.194],[-102.793,53.164],[-102.884,53.156],[-102.998,53.187]]]}},{"type":"Feature","properties":{"density":1},"geometry":{"type":"Polygon","coordinates":[[[-84.356,43.538],[-84.835,44.17],[-84.989,44.597],[-85.074,45.025],[-85.945,47.835],[-86.15,48.707],[-86.484,49.527],[-87.252,50.654],[-88.021,52.192],[-88.149,52.807],[-88.124,53.192],[-87.996,54.012],[-87.996,54.576],[-88.175,55.575],[-88.355,56.216],[-89.226,58.292],[-89.508,58.599],[-90.149,59.009],[-91.558,59.548],[-92.122,59.727],[-92.942,60.496],[-93.429,61.111],[-93.378,62.136],[-93.07,62.649],[-92.814,63.008],[-92.609,63.52],[-92.558,64.007],[-92.558,64.52],[-95.197,66.801],[-96.812,67.467],[-98.58,67.877],[-100.118,68.031],[-101.861,68.338],[-103.066,68.646],[-105.423,68.492],[-106.756,68.287],[-107.986,67.928],[-109.191,67.39],[-109.883,67.006],[-110.267,66.596],[-110.267,65.827],[-110.216,65.263],[-109.729,64.443],[-108.986,63.674],[-107.781,62.649],[-107.448,61.982],[-107.217,61.393],[-107.192,60.829],[-107.576,59.599],[-108.524,57.664],[-108.729,57.049],[-108.883,55.819],[-108.806,55.178],[-108.601,54.717],[-108.243,54.358],[-107.704,54.076],[-107.448,54.127],[-107.064,54.46],[-106.782,54.794],[-106.423,55.178],[-106.064,55.614],[-105.193,56.331],[-103.963,57.408],[-103.014,57.869],[-102.245,58.202],[-101.656,58.33],[-100.861,58.407],[-99.811,58.407],[-97.709,57.869],[-96.556,56.818],[-96.274,56.382],[-96.043,55.87],[-95.889,55.409],[-95.864,54.896],[-95.864,54.588],[-95.889,54.153],[-95.864,52.564],[-95.3,51.436],[-95.069,51.026],[-94.634,50.001],[-93.916,49.104],[-93.429,48.771],[-92.686,48.54],[-91.763,47.566],[-90.994,46.977],[-90.149,46.464],[-89.123,45.618],[-87.893,44.465],[-85.869,42.902],[-85.535,42.697],[-85.048,42.594],[-84.792,42.697],[-84.485,42.927],[-84.305,43.184],[-84.356,43.538]]]}},{"type":"Feature","properties":{"density":1},"geometry":{"type":"Polygon","coordinates":[[[-69.276,38.417],[-68.849,38.673],[-67.909,38.707],[-67.157,38.4],[-66.867,38.058],[-67.431,37.562],[-69.293,36.742],[-70.301,36.418],[-71.412,36.127],[-74.077,35.802],[-74.914,35.82],[-75.751,36.042],[-76.862,36.486],[-77.733,36.793],[-78.314,37.443],[-78.451,37.921],[-78.263,38.246],[-78.126,38.365],[-77.272,38.4],[-76.623,38.177],[-75.888,37.989],[-75.376,37.819],[-74.06,37.562],[-72.761,37.511],[-71.36,37.716],[-70.592,37.921],[-69.891,38.297],[-69.276,38.417]]]}},{"type":"Feature","properties":{"density":1},"geometry":{"type":"Polygon","coordinates":[[[-111.612,25.215],[-111.177,25.012],[-111.018,24.904],[-111.005,24.85],[-111.048,24.833],[-111.386,24.931],[-111.585,25.063],[-111.642,25.154],[-111.632,25.191],[-111.612,25.215]]]}},{"type":"Feature","properties":{"density":1},"geometry":{"type":"Polygon","coordinates":[[[-108.541,27.751],[-108.487,27.785],[-108.271,28.031],[-108.271,28.075],[-108.308,28.122],[-108.372,28.132],[-108.419,28.119],[-108.477,28.068],[-108.588,27.822],[-108.591,27.788],[-108.571,27.761],[-108.541,27.751]]]}},{"type":"Feature","properties":{"density":1},"geometry":{"type":"Polygon","coordinates":[[[-109.116,28.811],[-109.099,28.764],[-109.066,28.74],[-109.015,28.726],[-108.948,28.737],[-108.826,28.831],[-108.556,28.929],[-108.539,28.963],[-108.543,29.02],[-108.462,29.111],[-108.441,29.185],[-108.451,29.243],[-108.502,29.28],[-108.573,29.273],[-108.664,29.233],[-108.897,29.071],[-109.049,28.926],[-109.083,28.858],[-109.116,28.811]]]}},{"type":"Feature","properties":{"density":1},"geometry":{"type":"Polygon","coordinates":[[[-105.412,23.389],[-105.442,23.328],[-105.427,23.272],[-105.326,23.237],[-105.199,23.232],[-105.169,23.277],[-105.214,23.318],[-105.361,23.373],[-105.412,23.389]]]}},{"type":"Feature","properties":{"density":1},"geometry":{"type":"Polygon","coordinates":[[[-104.749,22.28],[-104.718,22.244],[-104.607,22.204],[-104.485,22.239],[-104.404,22.33],[-104.374,22.427],[-104.379,22.503],[-104.404,22.563],[-104.455,22.614],[-104.506,22.629],[-104.582,22.614],[-104.632,22.553],[-104.647,22.477],[-104.804,22.361],[-104.941,22.371],[-105.189,22.265],[-105.235,22.199],[-105.23,22.072],[-105.154,22.001],[-105.047,21.976],[-104.966,21.976],[-104.89,22.022],[-104.9,22.108],[-104.951,22.179],[-104.941,22.239],[-104.88,22.295],[-104.804,22.32],[-104.774,22.305],[-104.749,22.28]]]}},{"type":"Feature","properties":{"density":1},"geometry":{"type":"Polygon","coordinates":[[[-104.612,21.237],[-104.582,21.293],[-104.455,21.404],[-104.323,21.434],[-104.273,21.429],[-104.065,21.323],[-103.873,21.328],[-103.792,21.262],[-103.827,21.105],[-103.792,21.045],[-103.65,20.888],[-103.64,20.776],[-103.706,20.675],[-103.792,20.65],[-103.863,20.665],[-103.964,20.721],[-104.08,20.877],[-104.177,20.903],[-104.42,20.903],[-104.48,20.923],[-104.546,20.974],[-104.612,21.06],[-104.642,21.126],[-104.637,21.151],[-104.612,21.237]]]}},{"type":"Feature","properties":{"density":1},"geometry":{"type":"Polygon","coordinates":[[[-104.111,21.768],[-104.227,21.758],[-104.247,21.718],[-104.242,21.693],[-104.156,21.657],[-103.964,21.652],[-103.949,21.713],[-103.989,21.738],[-104.055,21.748],[-104.111,21.768]]]}},{"type":"Feature","properties":{"density":1},"geometry":{"type":"Polygon","coordinates":[[[-104.854,20.47],[-104.982,20.406],[-105.094,20.315],[-105.374,20.019],[-105.455,19.873],[-105.485,19.731],[-105.48,19.609],[-105.435,19.544],[-105.232,19.397],[-105.136,19.382],[-105.065,19.392],[-104.893,19.478],[-104.326,20.024],[-104.209,20.156],[-104.215,20.237],[-104.265,20.298],[-104.787,20.47],[-104.854,20.47]]]}},{"type":"Feature","properties":{"density":1},"geometry":{"type":"Polygon","coordinates":[[[-103.229,20.6],[-103.283,20.583],[-103.317,20.553],[-103.334,20.519],[-103.33,20.468],[-103.293,20.411],[-103.158,20.316],[-102.777,20.242],[-102.73,20.249],[-102.622,20.303],[-102.584,20.35],[-102.581,20.414],[-102.672,20.489],[-102.979,20.583],[-103.175,20.6],[-103.229,20.6]]]}},{"type":"Feature","properties":{"density":1},"geometry":{"type":"Polygon","coordinates":[[[-101.644,17.805],[-101.796,17.927],[-101.931,18.143],[-101.965,18.315],[-101.952,18.345],[-101.867,18.399],[-101.806,18.399],[-101.742,18.372],[-101.658,18.308],[-101.547,18.2],[-101.455,18.038],[-101.462,17.951],[-101.506,17.846],[-101.536,17.812],[-101.574,17.799],[-101.644,17.805]]]}},{"type":"Feature","properties":{"density":1},"geometry":{"type":"Polygon","coordinates":[[[-97.974,16.27],[-97.937,16.354],[-97.927,16.513],[-97.978,16.705],[-98.005,16.671],[-98.035,16.489],[-98.035,16.307],[-98.008,16.266],[-97.974,16.27]]]}},{"type":"Feature","properties":{"density":1},"geometry":{"type":"Polygon","coordinates":[[[-97.351,20.964],[-97.766,20.961],[-98.016,20.984],[-98.262,21.096],[-98.303,21.129],[-98.35,21.244],[-98.34,21.281],[-98.239,21.308],[-97.942,21.322],[-97.81,21.349],[-97.753,21.332],[-97.732,21.308],[-97.709,21.207],[-97.655,21.16],[-97.523,21.085],[-97.354,21.052],[-97.338,20.974],[-97.351,20.964]]]}},{"type":"Feature","properties":{"density":1},"geometry":{"type":"Polygon","coordinates":[[[-98.164,21.946],[-98.559,21.96],[-98.634,22.0],[-98.559,22.024],[-98.232,22.007],[-98.181,22.0],[-98.154,21.976],[-98.164,21.949],[-98.164,21.946]]]}},{"type":"Feature","properties":{"density":1},"geometry":{"type":"Polygon","coordinates":[[[-98.839,21.727],[-98.974,21.771],[-99.001,21.794],[-98.985,21.811],[-98.89,21.801],[-98.823,21.777],[-98.802,21.75],[-98.839,21.727]]]}},{"type":"Feature","properties":{"density":1},"geometry":{"type":"Polygon","coordinates":[[[-97.837,22.25],[-98.161,22.297],[-98.306,22.348],[-98.418,22.442],[-98.499,22.577],[-98.478,22.79],[-98.515,22.861],[-98.802,23.121],[-98.873,23.148],[-98.947,23.239],[-98.964,23.296],[-98.951,23.337],[-98.873,23.394],[-98.789,23.424],[-98.627,23.418],[-98.546,23.38],[-98.478,23.286],[-98.428,23.137],[-98.279,22.992],[-98.148,22.921],[-97.797,22.824],[-97.763,22.783],[-97.783,22.729],[-97.77,22.692],[-97.709,22.618],[-97.712,22.57],[-97.776,22.489],[-97.79,22.439],[-97.746,22.314],[-97.743,22.277],[-97.766,22.25],[-97.837,22.25]]]}},{"type":"Feature","properties":{"density":1},"geometry":{"type":"Polygon","coordinates":[[[-95.612,18.441],[-95.538,18.409],[-95.178,18.391],[-95.151,18.364],[-95.142,18.288],[-95.184,18.22],[-95.299,18.139],[-95.346,18.076],[-95.495,17.793],[-95.574,17.739],[-95.673,17.725],[-95.772,17.754],[-95.808,17.804],[-95.81,17.849],[-95.774,18.0],[-95.697,18.211],[-95.655,18.418],[-95.612,18.441]]]}},{"type":"Feature","properties":{"density":1},"geometry":{"type":"Polygon","coordinates":[[[-95.859,18.216],[-95.97,18.033],[-96.015,17.878],[-95.931,17.948],[-95.871,18.038],[-95.828,18.162],[-95.839,18.216],[-95.859,18.216]]]}},{"type":"Feature","properties":{"density":1},"geometry":{"type":"Polygon","coordinates":[[[-95.351,17.595],[-95.351,17.64],[-95.378,17.658],[-95.434,17.633],[-95.461,17.572],[-95.538,17.473],[-95.533,17.392],[-95.493,17.39],[-95.373,17.545],[-95.351,17.595]]]}},{"type":"Feature","properties":{"density":1},"geometry":{"type":"Polygon","coordinates":[[[-95.625,17.66],[-95.722,17.653],[-95.877,17.691],[-95.972,17.649],[-96.062,17.561],[-96.129,17.446],[-96.127,17.338],[-96.098,17.286],[-96.01,17.237],[-95.952,17.223],[-95.805,17.239],[-95.745,17.28],[-95.704,17.327],[-95.625,17.489],[-95.601,17.631],[-95.625,17.66]]]}},{"type":"Feature","properties":{"density":1},"geometry":{"type":"Polygon","coordinates":[[[-93.52,17.028],[-93.682,17.062],[-93.756,17.116],[-93.813,17.183],[-93.935,17.477],[-93.928,17.521],[-93.901,17.558],[-93.783,17.666],[-93.425,17.787],[-93.324,17.791],[-93.165,17.737],[-93.098,17.737],[-92.963,17.791],[-92.835,17.784],[-92.798,17.767],[-92.75,17.686],[-92.74,17.636],[-92.75,17.565],[-92.818,17.379],[-92.909,17.268],[-93.044,17.163],[-93.162,17.106],[-93.419,17.042],[-93.52,17.028]]]}},{"type":"Feature","properties":{"density":1},"geometry":{"type":"Polygon","coordinates":[[[-93.254,16.119],[-93.068,16.089],[-92.957,16.038],[-92.896,16.001],[-92.782,15.863],[-92.852,15.849],[-93.041,15.934],[-93.257,16.055],[-93.274,16.082],[-93.254,16.119]]]}},{"type":"Feature","properties":{"density":1},"geometry":{"type":"Polygon","coordinates":[[[-89.979,17.211],[-90.144,17.187],[-90.174,17.167],[-90.178,17.14],[-89.969,17.137],[-89.942,17.15],[-89.935,17.187],[-89.979,17.211]]]}},{"type":"Feature","properties":{"density":1},"geometry":{"type":"Polygon","coordinates":[[[-90.66,18.082],[-90.694,18.213],[-90.657,18.328],[-90.64,18.328],[-90.606,18.197],[-90.603,18.109],[-90.627,18.089],[-90.66,18.082]]]}},{"type":"Feature","properties":{"density":1},"geometry":{"type":"Polygon","coordinates":[[[-88.521,17.395],[-88.629,17.409],[-88.616,17.382],[-88.498,17.351],[-88.521,17.395]]]}},{"type":"Feature","properties":{"density":1},"geometry":{"type":"Polygon","coordinates":[[[-88.496,16.477],[-88.583,16.414],[-88.592,16.383],[-88.577,16.359],[-88.523,16.379],[-88.476,16.423],[-88.473,16.467],[-88.496,16.477]]]}},{"type":"Feature","properties":{"density":1},"geometry":{"type":"Polygon","coordinates":[[[-92.534,13.059],[-93.201,12.803],[-94.072,12.718],[-94.619,12.854],[-94.824,13.281],[-94.995,13.743],[-95.388,14.119],[-95.934,14.426],[-96.584,14.495],[-97.147,14.324],[-97.677,13.982],[-97.95,13.743],[-98.463,13.435],[-99.044,13.111],[-99.488,12.786],[-100.086,12.718],[-100.616,12.752],[-101.094,13.008],[-101.282,13.196],[-101.573,13.76],[-101.573,14.204],[-102.068,14.324],[-102.41,14.29],[-102.598,14.307],[-102.615,14.495],[-102.478,14.7],[-101.88,15.076],[-101.778,15.383],[-101.829,15.537],[-101.949,15.656],[-102.341,15.964],[-102.974,15.964],[-103.52,15.725],[-103.93,15.383],[-104.426,15.041],[-104.87,14.888],[-105.229,14.87],[-105.571,14.973],[-105.844,15.144],[-106.117,15.674],[-105.947,15.947],[-105.725,16.203],[-105.571,16.425],[-105.468,16.613],[-105.417,16.887],[-105.4,17.143],[-105.81,18.117],[-106.271,18.271],[-106.681,18.288],[-107.16,18.185],[-107.57,18.117],[-107.912,18.134],[-108.099,18.288],[-108.304,18.544],[-108.39,18.869],[-108.39,19.244],[-108.322,19.586],[-107.792,20.765],[-107.484,20.936],[-106.852,21.449],[-106.681,21.654],[-106.51,21.995],[-106.203,22.474],[-105.759,22.935],[-105.28,23.294],[-104.682,23.67],[-104.238,23.841],[-103.64,23.858],[-103.162,23.789],[-102.7,23.55],[-102.444,23.226],[-102.273,22.815],[-101.966,21.859],[-101.795,21.5],[-101.726,21.449],[-101.282,20.816],[-100.923,20.03],[-100.718,19.74],[-100.445,19.45],[-100.103,19.21],[-99.744,19.159],[-99.369,19.227],[-99.078,19.244],[-98.719,19.142],[-98.412,18.988],[-98.241,18.8],[-98.104,18.595],[-97.899,18.373],[-97.575,18.322],[-97.455,18.424],[-97.472,18.561],[-97.575,18.903],[-97.438,19.279],[-97.557,19.603],[-97.899,19.911],[-98.412,20.184],[-98.771,20.423],[-98.993,20.628],[-99.198,20.885],[-99.471,21.278],[-99.608,21.705],[-99.676,22.166],[-99.813,23.567],[-99.83,23.977],[-99.949,24.216],[-100.172,24.575],[-100.24,24.866],[-100.206,25.361],[-99.898,25.857],[-99.386,25.891],[-98.924,25.857],[-98.326,25.669],[-98.087,25.481],[-97.523,24.849],[-97.421,24.712],[-97.164,24.866],[-97.011,25.071],[-96.669,25.293],[-96.532,25.207],[-96.396,24.404],[-96.344,23.977],[-96.105,23.636],[-95.712,23.67],[-95.268,23.977],[-94.995,24.319],[-94.567,24.985],[-93.465,25.831],[-92.62,26.318],[-92.004,26.6],[-90.672,27.292],[-90.39,27.651],[-90.262,28.086],[-91.005,29.137],[-91.825,29.496],[-92.517,29.701],[-93.286,29.752],[-93.978,29.752],[-94.644,29.496],[-95.336,29.137],[-96.131,28.983],[-96.413,29.214],[-96.336,29.599],[-96.003,30.034],[-95.644,30.419],[-95.157,30.88],[-94.26,31.777],[-93.747,32.161],[-93.26,32.418],[-92.953,32.495],[-92.21,32.469],[-91.876,32.341],[-91.518,32.085],[-90.005,31.341],[-89.365,30.983],[-88.442,30.675],[-87.571,30.598],[-86.674,30.47],[-85.982,30.342],[-85.162,30.111],[-84.752,29.855],[-84.29,29.47],[-83.855,28.881],[-83.701,28.343],[-83.778,27.805],[-83.906,27.394],[-84.265,26.651],[-84.572,26.087],[-84.982,25.524],[-86.417,23.909],[-86.853,23.396],[-87.186,23.089],[-87.878,22.628],[-88.211,22.32],[-88.391,22.192],[-89.057,21.474],[-89.664,20.107],[-89.835,19.595],[-89.852,18.843],[-89.8,18.142],[-89.647,17.647],[-89.544,17.22],[-89.356,16.582],[-89.219,16.263],[-89.151,16.012],[-88.958,15.454],[-88.946,15.283],[-88.992,15.113],[-89.504,14.668],[-89.573,14.52],[-89.595,14.349],[-89.561,14.065],[-89.504,13.803],[-89.425,13.655],[-89.413,13.518],[-89.47,13.404],[-89.857,13.131],[-90.154,13.074],[-90.518,13.153],[-90.746,13.256],[-91.076,13.313],[-91.657,13.313],[-92.022,13.21],[-92.534,13.059]]]}},{"type":"Feature","properties":{"density":2},"geometry":{"type":"Polygon","coordinates":[[[-93.817,17.605],[-93.507,17.724],[-93.369,17.757],[-93.316,17.755],[-93.259,17.727],[-93.22,17.695],[-93.207,17.662],[-93.225,17.604],[-93.268,17.553],[-93.366,17.518],[-93.75,17.49],[-93.82,17.499],[-93.849,17.548],[-93.829,17.589],[-93.817,17.605]]]}},{"type":"Feature","properties":{"density":2},"geometry":{"type":"Polygon","coordinates":[[[-93.125,16.048],[-93.179,16.075],[-93.227,16.076],[-93.337,16.018],[-93.346,15.973],[-93.301,15.967],[-93.119,16.039],[-93.125,16.048]]]}},{"type":"Feature","properties":{"density":2},"geometry":{"type":"Polygon","coordinates":[[[-92.151,19.728],[-92.612,19.676],[-93.022,19.471],[-93.381,18.942],[-93.62,18.429],[-93.877,17.985],[-94.372,17.592],[-95.141,17.626],[-95.38,17.797],[-95.585,18.053],[-96.047,18.805],[-96.457,19.095],[-96.867,18.959],[-97.021,18.566],[-96.918,18.104],[-96.542,17.523],[-96.064,16.174],[-95.5,15.644],[-94.953,15.593],[-94.56,15.61],[-93.979,15.507],[-92.647,14.995],[-92.083,15.063],[-91.741,15.422],[-91.28,15.849],[-90.852,16.191],[-90.579,16.498],[-90.494,16.789],[-90.442,17.318],[-90.425,17.711],[-90.613,18.258],[-90.972,18.822],[-91.297,19.112],[-91.792,19.505],[-91.997,19.642],[-92.151,19.728]]]}},{"type":"Feature","properties":{"density":2},"geometry":{"type":"Polygon","coordinates":[[[-106.184,53.059],[-106.366,53.206],[-106.472,53.247],[-106.483,53.237],[-106.189,53.029],[-106.184,53.059]]]}},{"type":"Feature","properties":{"density":2},"geometry":{"type":"Polygon","coordinates":[[[-102.929,53.295],[-103.101,53.462],[-103.364,53.857],[-103.526,54.267],[-103.541,54.393],[-103.496,54.419],[-103.42,54.429],[-103.369,54.414],[-103.324,54.378],[-103.248,54.216],[-103.202,54.044],[-102.868,53.523],[-102.833,53.452],[-102.833,53.351],[-102.848,53.3],[-102.893,53.28],[-102.929,53.295]]]}},{"type":"Feature","properties":{"density":2},"geometry":{"type":"Polygon","coordinates":[[[-103.876,20.775],[-103.842,20.746],[-103.822,20.687],[-103.872,20.696],[-103.89,20.743],[-103.878,20.768],[-103.876,20.775]]]}},{"type":"Feature","properties":{"density":2},"geometry":{"type":"Polygon","coordinates":[[[-104.511,21.252],[-104.533,21.238],[-104.526,21.207],[-104.56,21.169],[-104.513,21.151],[-104.488,21.099],[-104.443,21.076],[-104.434,21.11],[-104.502,21.241],[-104.511,21.252]]]}},{"type":"Feature","properties":{"density":2},"geometry":{"type":"Polygon","coordinates":[[[-104.728,20.142],[-104.759,20.182],[-104.786,20.184],[-104.802,20.166],[-104.829,20.047],[-104.807,20.004],[-104.741,20.04],[-104.717,20.126],[-104.728,20.142]]]}},{"type":"Feature","properties":{"density":2},"geometry":{"type":"Polygon","coordinates":[[[-102.582,18.646],[-102.654,18.591],[-102.6,18.529],[-102.605,18.49],[-102.66,18.445],[-102.662,18.426],[-102.621,18.408],[-102.594,18.441],[-102.567,18.537],[-102.56,18.61],[-102.573,18.642],[-102.582,18.646]]]}},{"type":"Feature","properties":{"density":2},"geometry":{"type":"Polygon","coordinates":[[[-95.815,17.064],[-95.855,17.024],[-95.947,16.997],[-95.96,16.983],[-95.95,16.966],[-95.893,16.963],[-95.825,16.99],[-95.785,17.051],[-95.815,17.064]]]}},{"type":"Feature","properties":{"density":2},"geometry":{"type":"Polygon","coordinates":[[[-97.896,22.8],[-97.82,22.859],[-97.786,22.877],[-97.77,22.87],[-97.779,22.839],[-97.867,22.778],[-97.892,22.787],[-97.896,22.8]]]}},{"type":"Feature","properties":{"density":2},"geometry":{"type":"Polygon","coordinates":[[[-93.836,17.514],[-93.729,17.44],[-93.673,17.436],[-93.59,17.527],[-93.194,17.729],[-92.893,17.825],[-92.866,17.849],[-92.864,17.903],[-92.896,17.905],[-93.052,17.834],[-93.347,17.759],[-93.605,17.635],[-93.794,17.566],[-93.836,17.53],[-93.836,17.514]]]}},{"type":"Feature","properties":{"density":2},"geometry":{"type":"Polygon","coordinates":[[[-78.61,21.939],[-78.569,21.95],[-78.56,21.977],[-78.58,22.011],[-78.612,22.013],[-78.643,21.982],[-78.643,21.955],[-78.623,21.937],[-78.61,21.939]]]}},{"type":"Feature","properties":{"density":2},"geometry":{"type":"Polygon","coordinates":[[[-106.168,53.102],[-106.138,53.032],[-106.138,52.994],[-106.168,52.957],[-106.263,52.981],[-106.371,53.035],[-106.519,53.14],[-106.573,53.197],[-106.8,53.291],[-107.275,53.551],[-107.356,53.653],[-107.373,53.744],[-107.272,53.808],[-107.215,53.815],[-107.049,53.774],[-106.793,53.761],[-106.604,53.71],[-106.469,53.629],[-106.324,53.413],[-106.199,53.271],[-106.155,53.17],[-106.168,53.102]]]}},{"type":"Feature","properties":{"density":2},"geometry":{"type":"Polygon","coordinates":[[[-102.886,53.186],[-103.058,53.344],[-103.24,53.624],[-103.422,54.04],[-103.571,54.468],[-103.632,54.708],[-103.588,54.86],[-103.554,54.897],[-103.493,54.924],[-103.422,54.887],[-103.324,54.721],[-103.27,54.465],[-103.186,54.296],[-103.132,54.11],[-103.081,53.83],[-102.987,53.591],[-102.869,53.415],[-102.815,53.297],[-102.818,53.213],[-102.849,53.189],[-102.886,53.186]]]}},{"type":"Feature","properties":{"density":2},"geometry":{"type":"Polygon","coordinates":[[[-113.472,60.526],[-113.269,60.526],[-112.854,60.445],[-112.611,60.415],[-112.611,60.359],[-113.178,60.409],[-113.401,60.45],[-113.482,60.49],[-113.472,60.526]]]}},{"type":"Feature","properties":{"density":2},"geometry":{"type":"Polygon","coordinates":[[[-97.877,22.8],[-97.766,22.86],[-97.729,22.854],[-97.709,22.83],[-97.729,22.81],[-97.871,22.776],[-97.877,22.8]]]}},{"type":"Feature","properties":{"density":2},"geometry":{"type":"Polygon","coordinates":[[[-95.92,17.592],[-95.967,17.595],[-95.977,17.582],[-95.92,17.568],[-95.92,17.592]]]}},{"type":"Feature","properties":{"density":2},"geometry":{"type":"Polygon","coordinates":[[[-95.89,16.991],[-96.004,16.995],[-96.055,16.978],[-96.041,16.954],[-95.886,16.968],[-95.89,16.991]]]}},{"type":"Feature","properties":{"density":2},"geometry":{"type":"Polygon","coordinates":[[[-101.613,17.821],[-101.717,17.902],[-101.771,17.987],[-101.812,17.99],[-101.825,17.976],[-101.829,17.953],[-101.768,17.862],[-101.657,17.781],[-101.609,17.784],[-101.613,17.821]]]}},{"type":"Feature","properties":{"density":2},"geometry":{"type":"Polygon","coordinates":[[[-102.575,18.662],[-102.659,18.614],[-102.689,18.574],[-102.652,18.53],[-102.659,18.442],[-102.639,18.422],[-102.605,18.419],[-102.581,18.442],[-102.554,18.648],[-102.575,18.662]]]}},{"type":"Feature","properties":{"density":2},"geometry":{"type":"Polygon","coordinates":[[[-104.516,21.246],[-104.526,21.219],[-104.452,21.094],[-104.415,21.104],[-104.425,21.189],[-104.492,21.239],[-104.516,21.246]]]}},{"type":"Feature","properties":{"density":2},"geometry":{"type":"Polygon","coordinates":[[[-104.931,20.305],[-104.988,20.22],[-104.992,20.193],[-104.971,20.173],[-104.904,20.207],[-104.87,20.247],[-104.877,20.271],[-104.917,20.294],[-104.931,20.305]]]}},{"type":"Feature","properties":{"density":2},"geometry":{"type":"Polygon","coordinates":[[[-93.183,16.069],[-93.069,16.042],[-93.035,16.015],[-93.021,15.985],[-93.031,15.964],[-93.116,15.971],[-93.204,16.045],[-93.183,16.069]]]}},{"type":"Feature","properties":{"density":2},"geometry":{"type":"Polygon","coordinates":[[[-93.868,17.536],[-93.816,17.563],[-93.688,17.567],[-93.544,17.619],[-93.416,17.689],[-93.346,17.705],[-93.249,17.707],[-93.2,17.68],[-93.15,17.624],[-93.184,17.603],[-93.323,17.597],[-93.463,17.554],[-93.49,17.529],[-93.483,17.482],[-93.555,17.34],[-93.632,17.302],[-93.659,17.302],[-93.706,17.336],[-93.861,17.491],[-93.868,17.536]]]}},{"type":"Feature","properties":{"density":2},"geometry":{"type":"Polygon","coordinates":[[[-105.329,33.572],[-105.221,33.626],[-105.133,33.704],[-105.072,33.825],[-105.069,33.866],[-105.096,33.863],[-105.211,33.751],[-105.359,33.65],[-105.383,33.589],[-105.359,33.576],[-105.329,33.572]]]}},{"type":"Feature","properties":{"density":2},"geometry":{"type":"Polygon","coordinates":[[[-121.299,35.991],[-121.319,35.994],[-121.343,35.974],[-121.336,35.916],[-121.319,35.903],[-121.275,35.923],[-121.265,35.953],[-121.275,35.98],[-121.299,35.991]]]}},{"type":"Feature","properties":{"density":2},"geometry":{"type":"Polygon","coordinates":[[[-106.26,53.024],[-106.711,53.287],[-107.308,53.525],[-107.526,53.692],[-107.592,53.773],[-107.663,53.824],[-107.744,53.976],[-107.754,54.067],[-107.739,54.138],[-107.693,54.209],[-107.637,54.239],[-107.521,54.219],[-107.192,53.88],[-106.969,53.743],[-106.564,53.409],[-106.245,53.186],[-106.2,53.146],[-106.149,53.029],[-106.215,52.994],[-106.26,53.024]]]}},{"type":"Feature","properties":{"density":2},"geometry":{"type":"Polygon","coordinates":[[[-113.427,60.431],[-113.108,60.371],[-112.961,60.305],[-112.657,60.224],[-112.47,60.153],[-112.09,60.168],[-111.538,60.128],[-111.462,60.168],[-111.452,60.203],[-111.548,60.259],[-111.766,60.264],[-111.979,60.315],[-112.237,60.426],[-112.384,60.457],[-112.718,60.492],[-112.905,60.553],[-113.346,60.629],[-113.437,60.608],[-113.528,60.553],[-113.558,60.512],[-113.543,60.457],[-113.503,60.436],[-113.427,60.431]]]}},{"type":"Feature","properties":{"density":2},"geometry":{"type":"Polygon","coordinates":[[[-102.93,53.187],[-103.043,53.399],[-103.089,53.65],[-103.142,53.817],[-103.355,54.265],[-103.34,54.409],[-103.302,54.523],[-103.248,54.614],[-103.21,54.796],[-103.21,55.07],[-103.165,55.161],[-103.074,55.252],[-103.013,55.252],[-102.93,55.176],[-102.876,54.857],[-102.884,53.908],[-102.846,53.543],[-102.808,53.338],[-102.846,53.225],[-102.93,53.187]]]}},{"type":"Feature","properties":{"density":2},"geometry":{"type":"Polygon","coordinates":[[[-91.073,50.387],[-90.727,50.464],[-89.958,50.849],[-89.651,51.464],[-89.497,52.194],[-89.958,52.733],[-90.766,53.002],[-91.342,53.463],[-91.804,54.001],[-91.919,54.962],[-91.612,55.616],[-91.266,56.154],[-91.227,56.538],[-91.458,57.038],[-93.572,57.615],[-94.264,57.23],[-95.071,56.423],[-95.264,55.846],[-95.302,55.385],[-95.302,54.808],[-95.379,53.578],[-95.187,52.809],[-94.649,52.348],[-93.995,51.656],[-93.341,51.118],[-92.957,50.964],[-91.496,50.195],[-91.073,50.387]]]}},{"type":"Feature","properties":{"density":2},"geometry":{"type":"Polygon","coordinates":[[[-108.544,27.788],[-108.473,27.889],[-108.487,27.896],[-108.527,27.856],[-108.554,27.792],[-108.544,27.788]]]}},{"type":"Feature","properties":{"density":2},"geometry":{"type":"Polygon","coordinates":[[[-109.008,28.841],[-109.039,28.818],[-109.052,28.75],[-108.84,28.882],[-108.782,28.939],[-108.85,28.953],[-108.937,28.899],[-108.961,28.865],[-109.008,28.841]]]}},{"type":"Feature","properties":{"density":2},"geometry":{"type":"Polygon","coordinates":[[[-104.551,21.232],[-104.506,21.191],[-104.46,21.1],[-104.369,21.019],[-104.141,20.984],[-104.101,21.009],[-104.091,21.065],[-104.146,21.08],[-104.273,21.08],[-104.328,21.1],[-104.415,21.161],[-104.43,21.201],[-104.404,21.237],[-104.364,21.257],[-104.207,21.171],[-104.156,21.201],[-104.161,21.247],[-104.293,21.303],[-104.465,21.313],[-104.516,21.282],[-104.551,21.232]]]}},{"type":"Feature","properties":{"density":2},"geometry":{"type":"Polygon","coordinates":[[[-104.922,20.31],[-104.992,20.235],[-105.053,20.134],[-105.03,20.127],[-104.908,20.185],[-104.881,20.262],[-104.888,20.293],[-104.922,20.31]]]}},{"type":"Feature","properties":{"density":2},"geometry":{"type":"Polygon","coordinates":[[[-104.736,20.134],[-104.763,20.117],[-104.766,20.094],[-104.746,20.07],[-104.658,20.05],[-104.638,20.067],[-104.635,20.097],[-104.652,20.114],[-104.733,20.141],[-104.736,20.134]]]}},{"type":"Feature","properties":{"density":2},"geometry":{"type":"Polygon","coordinates":[[[-103.28,20.529],[-103.145,20.532],[-103.118,20.519],[-103.199,20.502],[-103.246,20.502],[-103.259,20.516],[-103.28,20.529]]]}},{"type":"Feature","properties":{"density":2},"geometry":{"type":"Polygon","coordinates":[[[-97.903,22.792],[-98.078,22.823],[-98.355,22.92],[-98.418,23.012],[-98.506,23.084],[-98.537,23.066],[-98.515,22.99],[-98.465,22.936],[-98.409,22.904],[-98.155,22.816],[-97.869,22.76],[-97.862,22.78],[-97.885,22.798],[-97.903,22.792]]]}},{"type":"Feature","properties":{"density":2},"geometry":{"type":"Polygon","coordinates":[[[-95.571,18.362],[-95.25,18.357],[-95.229,18.344],[-95.229,18.319],[-95.263,18.274],[-95.344,18.24],[-95.4,18.186],[-95.472,18.092],[-95.526,17.946],[-95.542,17.925],[-95.598,17.905],[-95.616,17.928],[-95.616,18.024],[-95.576,18.204],[-95.616,18.315],[-95.603,18.353],[-95.571,18.362]]]}},{"type":"Feature","properties":{"density":2},"geometry":{"type":"Polygon","coordinates":[[[-95.389,17.619],[-95.425,17.498],[-95.371,17.626],[-95.389,17.619]]]}},{"type":"Feature","properties":{"density":2},"geometry":{"type":"Polygon","coordinates":[[[-95.979,17.563],[-96.019,17.502],[-96.017,17.464],[-95.988,17.484],[-95.97,17.554],[-95.979,17.563]]]}},{"type":"Feature","properties":{"density":2},"geometry":{"type":"Polygon","coordinates":[[[-93.836,17.54],[-93.775,17.565],[-93.685,17.574],[-93.597,17.574],[-93.561,17.54],[-93.496,17.551],[-93.444,17.571],[-93.354,17.731],[-93.291,17.713],[-93.282,17.693],[-93.33,17.34],[-93.363,17.292],[-93.532,17.227],[-93.588,17.216],[-93.633,17.229],[-93.726,17.304],[-93.84,17.45],[-93.849,17.511],[-93.836,17.54]]]}},{"type":"Feature","properties":{"density":2},"geometry":{"type":"Polygon","coordinates":[[[-93.16,16.065],[-92.974,15.978],[-92.981,15.951],[-93.025,15.954],[-93.176,16.045],[-93.16,16.065]]]}},{"type":"Feature","properties":{"density":2},"geometry":{"type":"Polygon","coordinates":[[[-88.493,16.455],[-88.568,16.395],[-88.484,16.452],[-88.493,16.455]]]}},{"type":"Feature","properties":{"density":2},"geometry":{"type":"Polygon","coordinates":[[[-92.808,19.162],[-92.877,19.504],[-93.036,19.652],[-93.264,19.663],[-93.515,19.481],[-94.289,19.674],[-94.597,19.925],[-94.927,20.665],[-94.973,21.178],[-94.973,21.508],[-94.916,21.748],[-94.79,22.101],[-94.722,22.192],[-94.597,22.26],[-94.38,22.283],[-94.107,22.169],[-94.005,22.01],[-93.902,21.736],[-93.743,21.474],[-93.446,21.451],[-93.196,21.554],[-92.854,21.953],[-92.603,22.112],[-92.421,22.169],[-92.193,22.18],[-92.011,22.067],[-91.795,21.725],[-91.658,21.372],[-91.51,20.882],[-91.476,20.267],[-91.442,19.982],[-91.476,19.64],[-91.373,19.424],[-90.997,18.809],[-90.895,18.547],[-90.861,18.068],[-90.918,17.909],[-91.191,17.328],[-91.271,17.226],[-91.567,17.248],[-91.772,17.453],[-92.011,17.624],[-92.376,17.715],[-92.592,17.875],[-92.695,18.103],[-92.66,18.296],[-92.547,18.467],[-92.501,18.661],[-92.524,18.809],[-92.638,18.934],[-92.808,19.162]]]}},{"type":"Feature","properties":{"density":2},"geometry":{"type":"Polygon","coordinates":[[[-104.921,20.436],[-104.716,20.398],[-104.451,20.254],[-104.405,20.147],[-104.473,20.048],[-104.511,19.935],[-104.519,19.828],[-104.443,19.707],[-104.284,19.578],[-103.729,19.525],[-103.532,19.555],[-103.418,19.525],[-103.342,19.335],[-103.274,19.312],[-103.0,19.388],[-102.856,19.403],[-102.78,19.403],[-102.712,19.342],[-102.734,19.266],[-102.886,19.16],[-102.985,19.069],[-103.038,18.932],[-103.053,18.773],[-102.947,18.598],[-102.734,18.583],[-102.583,18.674],[-102.431,18.826],[-102.248,18.909],[-102.127,18.871],[-102.066,18.773],[-102.036,18.666],[-102.286,18.272],[-102.461,18.067],[-102.598,17.968],[-102.803,17.945],[-103.053,17.96],[-103.395,18.044],[-103.79,18.279],[-103.957,18.469],[-104.018,18.613],[-104.162,18.78],[-104.504,18.955],[-104.99,19.16],[-105.301,19.395],[-105.377,19.532],[-105.43,19.707],[-105.423,19.98],[-105.294,20.185],[-105.035,20.375],[-104.921,20.436]]]}},{"type":"Feature","properties":{"density":3},"geometry":{"type":"Polygon","coordinates":[[[-93.769,17.599],[-93.688,17.605],[-93.526,17.659],[-93.484,17.65],[-93.462,17.625],[-93.471,17.59],[-93.508,17.553],[-93.574,17.524],[-93.672,17.508],[-93.748,17.505],[-93.796,17.524],[-93.804,17.583],[-93.781,17.596],[-93.769,17.599]]]}},{"type":"Feature","properties":{"density":3},"geometry":{"type":"Polygon","coordinates":[[[-102.883,53.305],[-102.995,53.538],[-103.238,53.826],[-103.273,53.923],[-103.298,54.08],[-103.319,54.11],[-103.349,54.12],[-103.349,53.958],[-103.258,53.766],[-103.146,53.649],[-103.05,53.497],[-102.883,53.295],[-102.883,53.305]]]}},{"type":"Feature","properties":{"density":3},"geometry":{"type":"Polygon","coordinates":[[[-93.824,17.515],[-93.73,17.457],[-93.724,17.469],[-93.784,17.511],[-93.784,17.529],[-93.667,17.559],[-93.502,17.635],[-93.49,17.655],[-93.826,17.524],[-93.824,17.515]]]}},{"type":"Feature","properties":{"density":3},"geometry":{"type":"Polygon","coordinates":[[[-106.293,53.143],[-106.573,53.433],[-106.584,53.396],[-106.492,53.312],[-106.415,53.21],[-106.3,53.116],[-106.293,53.143]]]}},{"type":"Feature","properties":{"density":3},"geometry":{"type":"Polygon","coordinates":[[[-102.909,53.277],[-103.189,53.797],[-103.193,53.911],[-103.142,53.891],[-103.021,53.587],[-102.882,53.348],[-102.865,53.253],[-102.909,53.277]]]}},{"type":"Feature","properties":{"density":3},"geometry":{"type":"Polygon","coordinates":[[[-93.825,17.529],[-93.782,17.529],[-93.719,17.473],[-93.618,17.428],[-93.616,17.381],[-93.661,17.383],[-93.724,17.444],[-93.83,17.509],[-93.825,17.529]]]}},{"type":"Feature","properties":{"density":3},"geometry":{"type":"Polygon","coordinates":[[[-113.386,60.467],[-113.12,60.414],[-112.9,60.338],[-112.528,60.254],[-112.46,60.247],[-112.391,60.262],[-112.353,60.284],[-112.323,60.338],[-112.346,60.391],[-112.407,60.421],[-112.695,60.444],[-112.968,60.527],[-113.416,60.573],[-113.462,60.55],[-113.462,60.49],[-113.386,60.467]]]}},{"type":"Feature","properties":{"density":3},"geometry":{"type":"Polygon","coordinates":[[[-95.553,18.342],[-95.576,18.258],[-95.517,18.236],[-95.504,18.249],[-95.535,18.285],[-95.542,18.337],[-95.553,18.342]]]}},{"type":"Feature","properties":{"density":3},"geometry":{"type":"Polygon","coordinates":[[[-93.809,17.524],[-93.714,17.517],[-93.696,17.506],[-93.699,17.475],[-93.744,17.443],[-93.786,17.443],[-93.827,17.506],[-93.809,17.524]]]}}]}