{"type":"FeatureCollection","features":[{"type":"Feature","properties":{"density":1},"geometry":{"type":"Polygon","coordinates":[[[-95.346,34.457],[-95.526,34.583],[-95.724,35.087],[-95.753,35.463],[-95.74,35.645],[-95.704,35.724],[-95.627,35.762],[-95.483,35.659],[-95.447,35.591],[-95.423,35.483],[-95.373,34.934],[-95.254,34.644],[-95.231,34.507],[-95.231,34.473],[-95.263,34.439],[-95.303,34.435],[-95.346,34.457]]]}},{"type":"Feature","properties":{"density":1},"geometry":{"type":"Polygon","coordinates":[[[-118.165,44.889],[-118.017,44.818],[-117.702,44.746],[-117.651,44.71],[-117.643,44.677],[-117.654,44.667],[-117.803,44.627],[-117.8,44.613],[-117.696,44.574],[-117.607,44.484],[-117.592,44.347],[-117.644,44.274],[-117.724,44.242],[-117.782,44.247],[-117.908,44.317],[-118.075,44.577],[-118.219,44.67],[-118.337,44.787],[-118.345,44.831],[-118.326,44.873],[-118.165,44.889]]]}},{"type":"Feature","properties":{"density":1},"geometry":{"type":"Polygon","coordinates":[[[-122.04,45.184],[-121.932,45.173],[-121.78,45.19],[-121.676,45.157],[-121.649,45.13],[-121.548,45.116],[-121.497,45.167],[-121.443,45.369],[-121.416,45.413],[-121.348,45.447],[-121.294,45.454],[-121.048,45.41],[-120.916,45.403],[-120.754,45.42],[-120.522,45.386],[-120.235,45.373],[-120.147,45.315],[-120.032,45.143],[-119.917,45.069],[-119.88,45.025],[-119.806,44.822],[-119.82,44.603],[-119.782,44.478],[-119.688,44.343],[-119.664,44.269],[-119.698,44.127],[-119.745,44.036],[-119.84,43.969],[-120.417,43.823],[-120.684,43.82],[-120.819,43.834],[-121.068,43.925],[-121.305,44.063],[-121.436,44.205],[-121.575,44.299],[-121.642,44.401],[-121.639,44.542],[-121.578,44.768],[-121.598,44.792],[-121.639,44.826],[-121.723,44.843],[-121.919,44.795],[-122.084,44.86],[-122.153,44.966],[-122.163,45.032],[-122.111,45.159],[-122.04,45.184]]]}},{"type":"Feature","properties":{"density":1},"geometry":{"type":"Polygon","coordinates":[[[-115.594,43.907],[-115.471,44.054],[-115.431,44.074],[-115.228,44.101],[-115.128,44.05],[-115.047,43.942],[-115.023,43.864],[-115.089,43.781],[-115.279,43.759],[-115.479,43.763],[-115.605,43.705],[-115.656,43.702],[-115.656,43.811],[-115.594,43.907]]]}},{"type":"Feature","properties":{"density":1},"geometry":{"type":"Polygon","coordinates":[[[-115.426,46.464],[-115.485,46.583],[-115.478,46.655],[-115.408,46.749],[-115.31,46.784],[-115.291,46.765],[-115.393,46.613],[-115.385,46.583],[-115.315,46.568],[-115.138,46.588],[-115.1,46.579],[-115.099,46.54],[-115.228,46.477],[-115.333,46.449],[-115.384,46.446],[-115.426,46.464]]]}},{"type":"Feature","properties":{"density":1},"geometry":{"type":"Polygon","coordinates":[[[-75.172,20.309],[-75.371,20.347],[-75.57,20.505],[-75.614,20.563],[-75.772,20.664],[-76.245,20.89],[-76.441,20.917],[-76.984,20.903],[-77.17,20.988],[-77.419,21.069],[-77.666,21.113],[-77.912,21.184],[-78.121,21.268],[-78.587,21.413],[-78.702,21.494],[-78.82,21.639],[-78.837,21.784],[-78.743,21.818],[-78.689,21.818],[-78.311,21.646],[-77.423,21.346],[-76.812,21.17],[-76.687,21.163],[-76.387,21.224],[-76.282,21.211],[-76.124,21.167],[-75.88,21.062],[-75.111,20.809],[-75.037,20.768],[-74.976,20.694],[-74.905,20.552],[-74.898,20.444],[-74.929,20.39],[-74.99,20.353],[-75.07,20.323],[-75.172,20.309]]]}},{"type":"Feature","properties":{"density":1},"geometry":{"type":"Polygon","coordinates":[[[-99.438,24.825],[-99.434,25.083],[-99.452,25.156],[-99.498,25.2],[-99.534,25.183],[-99.551,25.137],[-99.534,24.951],[-99.497,24.798],[-99.464,24.786],[-99.438,24.825]]]}},{"type":"Feature","properties":{"density":1},"geometry":{"type":"Polygon","coordinates":[[[-113.193,36.27],[-113.13,36.436],[-113.082,36.504],[-113.056,36.505],[-113.05,36.415],[-113.082,36.319],[-113.146,36.244],[-113.175,36.239],[-113.193,36.27]]]}},{"type":"Feature","properties":{"density":1},"geometry":{"type":"Polygon","coordinates":[[[-123.456,63.037],[-122.226,63.011],[-121.508,63.293],[-120.739,63.267],[-118.894,62.934],[-116.869,62.524],[-115.844,62.37],[-114.614,62.294],[-113.461,62.37],[-110.543,62.742],[-108.66,62.704],[-107.737,62.973],[-105.277,63.165],[-104.081,63.011],[-103.542,63.421],[-103.183,64.369],[-103.312,64.831],[-104.414,65.651],[-105.413,66.035],[-106.567,66.292],[-108.207,66.83],[-108.694,67.291],[-109.104,67.778],[-108.963,68.842],[-108.617,69.572],[-108.002,70.187],[-107.31,70.572],[-104.426,71.11],[-103.081,71.456],[-100.928,71.571],[-99.275,71.802],[-97.699,71.879],[-91.087,71.341],[-88.357,71.264],[-86.166,70.841],[-84.321,70.533],[-81.284,69.687],[-78.669,69.149],[-75.863,68.649],[-67.777,68.752],[-65.009,68.342],[-62.728,68.086],[-59.807,68.214],[-57.961,68.649],[-57.244,68.855],[-56.398,69.162],[-55.706,69.47],[-54.45,69.752],[-53.271,69.957],[-52.349,70.033],[-51.452,69.88],[-50.119,69.265],[-49.35,68.137],[-48.735,66.907],[-48.453,65.6],[-48.555,64.446],[-49.042,63.498],[-49.811,62.704],[-50.734,61.883],[-52.22,61.576],[-53.835,61.755],[-55.398,62.063],[-56.603,62.242],[-57.551,62.294],[-61.319,62.665],[-63.01,63.088],[-65.009,63.665],[-66.509,64.011],[-68.046,64.126],[-69.507,64.203],[-71.391,64.164],[-72.89,64.164],[-75.773,64.049],[-77.657,64.088],[-81.694,65.049],[-84.154,65.51],[-86.499,65.279],[-88.383,64.933],[-90.19,64.703],[-91.574,64.434],[-92.958,64.241],[-94.111,63.972],[-95.341,63.472],[-95.572,63.05],[-95.572,61.973],[-95.341,61.204],[-93.726,59.513],[-92.727,58.898],[-92.073,58.705],[-91.497,58.321],[-90.728,57.668],[-90.267,57.091],[-88.21,55.342],[-87.095,54.496],[-86.365,53.766],[-85.288,53.074],[-84.212,52.151],[-81.021,50.459],[-79.752,49.844],[-78.791,49.537],[-76.978,48.249],[-77.016,47.941],[-77.324,47.288],[-78.669,46.826],[-80.861,46.98],[-82.168,47.134],[-83.436,47.326],[-85.013,47.326],[-86.127,46.634],[-86.858,44.981],[-87.204,43.943],[-87.435,42.944],[-87.55,41.406],[-87.435,40.022],[-86.96,39.761],[-86.243,39.642],[-84.978,39.676],[-83.612,39.625],[-81.185,39.625],[-79.955,39.368],[-79.306,38.958],[-79.135,38.531],[-79.238,38.053],[-79.682,37.301],[-81.04,36.242],[-82.783,34.96],[-84.628,33.704],[-84.596,32.798],[-84.243,31.476],[-84.619,30.497],[-86.384,29.905],[-87.58,29.768],[-88.389,29.551],[-88.678,29.117],[-88.806,28.451],[-88.78,28.015],[-88.626,27.579],[-88.396,27.092],[-87.909,26.554],[-87.012,26.093],[-85.986,25.324],[-85.192,24.683],[-84.884,24.094],[-84.705,23.12],[-84.808,22.658],[-85.602,22.146],[-86.371,21.838],[-87.575,21.479],[-88.575,21.249],[-88.985,20.916],[-90.856,18.917],[-91.035,18.096],[-91.574,16.533],[-91.676,16.123],[-91.625,15.226],[-91.394,14.688],[-90.753,14.252],[-90.138,13.893],[-89.985,13.458],[-89.933,12.945],[-90.343,12.458],[-91.317,12.253],[-92.471,12.151],[-94.854,12.279],[-96.494,12.766],[-97.161,13.355],[-97.622,14.38],[-97.725,14.867],[-98.237,15.944],[-99.262,16.764],[-101.005,16.841],[-102.133,16.815],[-102.978,16.764],[-103.517,17.046],[-104.183,17.738],[-104.26,17.994],[-104.721,18.814],[-105.593,19.762],[-107.643,20.454],[-109.539,21.172],[-110.667,22.274],[-115.562,23.479],[-117.677,23.901],[-120.329,24.094],[-122.444,24.132],[-124.289,23.94],[-126.48,23.479],[-127.826,23.017],[-128.71,22.671],[-130.44,22.248],[-131.401,22.248],[-131.978,22.787],[-132.516,23.978],[-132.785,25.478],[-132.593,26.439],[-131.708,27.63],[-130.978,28.745],[-127.954,31.475],[-127.467,31.68],[-126.903,32.295],[-126.621,33.089],[-126.365,35.345],[-126.549,36.28],[-127.535,37.485],[-128.035,38.215],[-128.765,39.022],[-129.15,40.022],[-129.265,41.022],[-129.304,43.136],[-129.188,43.905],[-128.727,44.751],[-127.151,46.096],[-125.498,47.249],[-122.922,48.749],[-122.499,48.941],[-121.269,49.248],[-120.654,49.364],[-119.654,49.594],[-117.963,49.787],[-117.348,49.748],[-117.194,49.556],[-116.656,49.056],[-116.271,48.749],[-115.541,48.326],[-115.272,48.326],[-115.118,48.48],[-115.003,48.941],[-115.118,49.556],[-115.579,50.248],[-117.117,52.209],[-117.578,52.631],[-118.732,53.477],[-119.847,54.515],[-121.269,56.053],[-122.422,57.206],[-123.46,58.359],[-124.806,59.897],[-124.96,60.282],[-125.113,60.974],[-124.96,61.781],[-124.729,62.05],[-123.922,62.819],[-123.456,63.037]],[[-111.283,35.245],[-110.207,34.746],[-108.977,34.284],[-107.977,34.246],[-106.824,34.361],[-105.94,34.669],[-104.757,34.728],[-103.801,35.667],[-103.732,37.12],[-104.158,38.013],[-104.133,38.808],[-104.21,39.679],[-104.62,41.473],[-104.415,42.601],[-104.287,42.985],[-104.287,43.626],[-104.594,44.19],[-105.85,44.728],[-106.721,44.856],[-107.49,44.959],[-108.182,44.933],[-108.874,44.805],[-110.027,44.497],[-110.335,44.113],[-110.719,43.703],[-111.489,43.245],[-112.283,42.703],[-114.051,42.319],[-115.265,41.793],[-116.461,42.1],[-116.896,42.806],[-117.306,43.113],[-117.998,43.395],[-118.588,43.6],[-120.33,43.498],[-120.689,43.498],[-122.227,43.703],[-122.791,43.737],[-123.167,43.583],[-123.389,43.43],[-123.628,43.156],[-123.765,42.934],[-123.901,42.644],[-124.154,42.378],[-124.192,42.135],[-124.184,41.907],[-124.025,41.641],[-123.979,41.474],[-123.552,40.447],[-123.261,40.293],[-122.851,39.439],[-122.766,39.183],[-122.612,38.841],[-122.27,38.243],[-122.1,37.987],[-121.826,37.816],[-121.621,37.816],[-121.382,37.953],[-121.177,38.226],[-120.972,38.568],[-120.818,38.909],[-120.664,39.439],[-120.596,39.593],[-120.203,39.576],[-119.844,39.234],[-119.588,38.909],[-119.229,38.568],[-118.836,38.311],[-116.752,37.713],[-115.077,37.299],[-114.193,36.992],[-112.766,36.094],[-112.083,35.736],[-111.283,35.245]]]}},{"type":"Feature","properties":{"density":1},"geometry":{"type":"Polygon","coordinates":[[[-74.846,20.471],[-74.968,20.328],[-75.052,20.278],[-75.094,20.267],[-75.182,20.278],[-75.343,20.315],[-75.618,20.394],[-76.014,20.55],[-76.188,20.669],[-76.231,20.722],[-76.265,20.812],[-76.257,20.87],[-76.218,20.936],[-76.085,20.983],[-75.782,20.833],[-75.443,20.746],[-74.915,20.648],[-74.872,20.627],[-74.851,20.59],[-74.846,20.471]]]}},{"type":"Feature","properties":{"density":1},"geometry":{"type":"Polygon","coordinates":[[[-95.353,34.461],[-95.559,34.929],[-95.583,35.04],[-95.567,35.444],[-95.5,35.583],[-95.401,35.638],[-95.337,35.618],[-95.266,35.468],[-95.175,35.095],[-95.155,34.822],[-95.159,34.711],[-95.234,34.505],[-95.286,34.453],[-95.321,34.445],[-95.353,34.461]]]}},{"type":"Feature","properties":{"density":1},"geometry":{"type":"Polygon","coordinates":[[[-121.649,36.173],[-121.399,36.685],[-121.296,37.391],[-121.273,38.975],[-121.228,39.203],[-121.114,39.521],[-121.0,39.727],[-120.635,39.932],[-120.43,39.795],[-120.316,39.613],[-120.134,39.203],[-119.382,37.79],[-119.132,37.391],[-118.847,37.027],[-117.867,36.207],[-117.173,35.899],[-117.025,35.66],[-116.99,35.375],[-117.104,35.159],[-117.241,35.011],[-117.4,34.954],[-118.813,34.179],[-119.895,34.077],[-120.316,34.077],[-121.011,34.293],[-121.421,34.897],[-121.547,35.136],[-121.626,35.398],[-121.683,35.683],[-121.729,35.945],[-121.718,36.082],[-121.649,36.173]]]}},{"type":"Feature","properties":{"density":1},"geometry":{"type":"Polygon","coordinates":[[[-122.276,45.235],[-122.306,45.016],[-122.269,44.942],[-122.137,44.817],[-121.972,44.695],[-121.79,44.682],[-121.658,44.699],[-121.361,44.766],[-121.324,44.82],[-121.334,44.982],[-121.371,45.077],[-121.432,45.134],[-121.769,45.242],[-122.07,45.293],[-122.242,45.283],[-122.276,45.235]]]}},{"type":"Feature","properties":{"density":1},"geometry":{"type":"Polygon","coordinates":[[[-118.297,44.95],[-118.372,44.938],[-118.419,44.903],[-118.432,44.83],[-118.411,44.764],[-118.239,44.618],[-117.97,44.354],[-117.846,44.266],[-117.796,44.258],[-117.663,44.315],[-117.624,44.356],[-117.568,44.495],[-117.573,44.552],[-117.589,44.626],[-117.669,44.747],[-117.736,44.8],[-117.976,44.854],[-118.233,44.954],[-118.297,44.95]]]}},{"type":"Feature","properties":{"density":1},"geometry":{"type":"Polygon","coordinates":[[[-74.887,20.402],[-74.934,20.304],[-74.991,20.24],[-75.244,20.173],[-75.417,20.2],[-75.545,20.25],[-75.771,20.345],[-76.011,20.49],[-76.058,20.541],[-76.115,20.76],[-76.092,20.892],[-76.058,20.952],[-75.943,21.037],[-75.369,21.087],[-75.096,21.006],[-74.924,20.892],[-74.843,20.75],[-74.833,20.612],[-74.887,20.402]]]}},{"type":"Feature","properties":{"density":1},"geometry":{"type":"Polygon","coordinates":[[[-91.51,33.989],[-91.523,34.077],[-91.519,34.316],[-91.501,34.457],[-91.456,34.547],[-91.42,34.568],[-91.359,34.565],[-91.296,34.478],[-91.278,34.388],[-91.273,34.325],[-91.296,34.221],[-91.368,34.077],[-91.476,33.983],[-91.51,33.989]]]}},{"type":"Feature","properties":{"density":1},"geometry":{"type":"Polygon","coordinates":[[[-90.25,35.499],[-90.142,35.564],[-89.977,35.769],[-89.91,35.975],[-89.903,36.066],[-89.916,36.107],[-89.967,36.147],[-90.068,36.114],[-90.183,35.938],[-90.294,35.56],[-90.274,35.489],[-90.25,35.499]]]}},{"type":"Feature","properties":{"density":1},"geometry":{"type":"Polygon","coordinates":[[[-90.381,35.601],[-90.311,35.653],[-90.192,35.817],[-90.086,35.932],[-90.061,35.999],[-90.063,36.046],[-90.099,36.076],[-90.153,36.076],[-90.214,36.044],[-90.261,35.988],[-90.405,35.639],[-90.41,35.601],[-90.394,35.59],[-90.381,35.601]]]}},{"type":"Feature","properties":{"density":1},"geometry":{"type":"Polygon","coordinates":[[[-90.491,35.873],[-90.365,35.945],[-90.327,35.995],[-90.311,36.06],[-90.324,36.091],[-90.358,36.103],[-90.403,36.085],[-90.507,36.004],[-90.518,35.896],[-90.491,35.873]]]}},{"type":"Feature","properties":{"density":1},"geometry":{"type":"Polygon","coordinates":[[[-95.319,34.457],[-95.225,34.453],[-95.114,34.521],[-95.033,34.572],[-94.931,34.7],[-94.898,34.831],[-94.712,35.27],[-94.712,35.432],[-94.732,35.554],[-94.779,35.635],[-94.854,35.716],[-95.029,35.746],[-95.201,35.729],[-95.272,35.702],[-95.387,35.598],[-95.417,35.486],[-95.404,35.253],[-95.427,35.054],[-95.37,34.696],[-95.38,34.507],[-95.35,34.45],[-95.319,34.457]]]}},{"type":"Feature","properties":{"density":1},"geometry":{"type":"Polygon","coordinates":[[[-121.621,35.96],[-121.462,36.313],[-121.416,36.495],[-121.337,36.951],[-121.189,37.474],[-120.938,38.226],[-120.813,38.488],[-120.551,38.693],[-120.346,38.716],[-120.118,38.636],[-119.787,38.272],[-119.582,38.021],[-119.036,37.44],[-118.694,36.871],[-118.546,36.666],[-118.318,36.404],[-117.942,36.073],[-117.407,35.698],[-117.316,35.538],[-117.282,35.333],[-117.407,35.162],[-117.862,34.991],[-118.284,34.9],[-118.91,34.832],[-119.218,34.672],[-119.491,34.365],[-119.56,34.046],[-119.628,33.818],[-119.731,33.67],[-119.856,33.659],[-120.038,33.681],[-120.3,33.909],[-120.665,34.365],[-120.995,34.9],[-121.211,35.436],[-121.451,35.686],[-121.61,35.8],[-121.621,35.96]]]}},{"type":"Feature","properties":{"density":1},"geometry":{"type":"Polygon","coordinates":[[[-122.235,45.331],[-121.801,45.322],[-121.661,45.268],[-121.542,45.174],[-121.511,45.104],[-121.506,45.027],[-121.526,44.962],[-121.621,44.872],[-121.706,44.825],[-121.875,44.773],[-122.012,44.78],[-122.255,44.886],[-122.424,45.034],[-122.489,45.122],[-122.51,45.241],[-122.498,45.306],[-122.467,45.36],[-122.404,45.383],[-122.235,45.331]]]}},{"type":"Feature","properties":{"density":1},"geometry":{"type":"Polygon","coordinates":[[[-118.315,44.755],[-118.23,44.643],[-118.173,44.61],[-117.94,44.583],[-117.829,44.593],[-117.707,44.657],[-117.619,44.792],[-117.613,44.873],[-117.633,44.978],[-117.707,45.062],[-117.852,45.072],[-117.96,45.062],[-118.109,45.018],[-118.271,44.934],[-118.325,44.886],[-118.362,44.819],[-118.315,44.755]]]}},{"type":"Feature","properties":{"density":1},"geometry":{"type":"Polygon","coordinates":[[[-115.599,43.785],[-115.523,43.796],[-115.431,43.85],[-115.365,43.911],[-115.35,43.992],[-115.361,44.037],[-115.442,44.107],[-115.523,44.134],[-115.586,44.134],[-115.635,44.102],[-115.66,44.064],[-115.678,43.913],[-115.638,43.803],[-115.599,43.785]]]}},{"type":"Feature","properties":{"density":1},"geometry":{"type":"Polygon","coordinates":[[[-120.843,48.415],[-120.732,48.412],[-120.624,48.358],[-120.016,47.919],[-119.959,47.845],[-119.939,47.757],[-119.949,47.676],[-119.976,47.629],[-120.06,47.575],[-120.165,47.538],[-120.327,47.551],[-120.789,47.747],[-120.894,47.835],[-120.968,47.963],[-120.988,48.159],[-120.948,48.304],[-120.907,48.382],[-120.843,48.415]]]}},{"type":"Feature","properties":{"density":1},"geometry":{"type":"Polygon","coordinates":[[[-121.292,47.474],[-121.194,47.292],[-121.103,47.217],[-120.907,47.109],[-120.766,47.133],[-120.681,47.184],[-120.661,47.278],[-120.705,47.389],[-120.725,47.4],[-120.84,47.443],[-121.214,47.535],[-121.289,47.511],[-121.292,47.474]]]}},{"type":"Feature","properties":{"density":1},"geometry":{"type":"Polygon","coordinates":[[[-92.767,31.067],[-92.734,30.96],[-92.575,30.701],[-92.551,30.605],[-92.547,30.53],[-92.569,30.494],[-92.641,30.458],[-92.683,30.456],[-92.778,30.495],[-93.258,30.801],[-93.607,30.923],[-93.654,31.01],[-93.669,31.127],[-93.64,31.209],[-93.604,31.247],[-93.451,31.283],[-93.253,31.263],[-93.06,31.212],[-92.809,31.104],[-92.767,31.067]]]}},{"type":"Feature","properties":{"density":1},"geometry":{"type":"Polygon","coordinates":[[[-93.28,31.359],[-93.445,31.367],[-93.6,31.41],[-93.628,31.461],[-93.624,31.506],[-93.576,31.53],[-93.538,31.53],[-93.427,31.502],[-93.274,31.391],[-93.264,31.364],[-93.28,31.359]]]}},{"type":"Feature","properties":{"density":1},"geometry":{"type":"Polygon","coordinates":[[[-91.579,33.92],[-91.692,34.125],[-91.75,34.32],[-91.746,34.404],[-91.714,34.469],[-91.633,34.503],[-91.534,34.476],[-91.498,34.386],[-91.489,34.314],[-91.516,33.945],[-91.525,33.906],[-91.548,33.893],[-91.579,33.9],[-91.579,33.92]]]}},{"type":"Feature","properties":{"density":1},"geometry":{"type":"Polygon","coordinates":[[[-91.309,34.039],[-91.381,34.269],[-91.395,34.372],[-91.395,34.446],[-91.354,34.478],[-91.318,34.469],[-91.278,34.426],[-91.235,34.347],[-91.224,34.253],[-91.235,34.107],[-91.269,34.032],[-91.294,34.023],[-91.309,34.039]]]}},{"type":"Feature","properties":{"density":1},"geometry":{"type":"Polygon","coordinates":[[[-90.471,35.854],[-90.257,36.054],[-90.012,36.237],[-89.735,36.54],[-89.674,36.653],[-89.679,36.743],[-89.724,36.828],[-89.798,36.876],[-89.847,36.88],[-89.915,36.86],[-89.998,36.797],[-90.318,36.453],[-90.563,36.117],[-90.594,36.048],[-90.592,35.906],[-90.513,35.854],[-90.471,35.854]]]}},{"type":"Feature","properties":{"density":1},"geometry":{"type":"Polygon","coordinates":[[[-90.268,35.501],[-90.297,35.566],[-90.282,35.764],[-90.25,35.924],[-89.865,36.331],[-89.807,36.372],[-89.733,36.387],[-89.692,36.378],[-89.672,36.349],[-89.665,36.295],[-89.771,36.111],[-89.888,35.778],[-90.003,35.611],[-90.106,35.501],[-90.167,35.465],[-90.228,35.472],[-90.268,35.501]]]}},{"type":"Feature","properties":{"density":1},"geometry":{"type":"Polygon","coordinates":[[[-98.418,32.829],[-98.556,32.981],[-98.61,33.065],[-98.688,33.271],[-98.752,33.551],[-98.759,33.683],[-98.728,33.777],[-98.678,33.825],[-98.566,33.858],[-98.458,33.831],[-98.249,33.71],[-98.094,33.521],[-98.04,33.399],[-98.013,33.264],[-98.067,33.085],[-98.141,32.994],[-98.31,32.819],[-98.418,32.829]]]}},{"type":"Feature","properties":{"density":1},"geometry":{"type":"Polygon","coordinates":[[[-97.932,33.447],[-98.006,33.504],[-98.053,33.575],[-98.08,33.683],[-98.08,33.777],[-98.053,33.855],[-97.996,33.879],[-97.932,33.868],[-97.905,33.845],[-97.874,33.76],[-97.874,33.477],[-97.891,33.447],[-97.932,33.447]]]}},{"type":"Feature","properties":{"density":1},"geometry":{"type":"Polygon","coordinates":[[[-100.776,35.523],[-100.56,35.567],[-100.385,35.658],[-100.314,35.722],[-100.175,35.898],[-100.128,35.989],[-100.132,36.053],[-100.182,36.286],[-100.24,36.346],[-100.3,36.377],[-100.486,36.411],[-100.655,36.33],[-100.759,36.188],[-100.891,35.783],[-100.881,35.648],[-100.864,35.604],[-100.837,35.56],[-100.776,35.523]]]}},{"type":"Feature","properties":{"density":1},"geometry":{"type":"Polygon","coordinates":[[[-122.008,36.26],[-121.872,37.439],[-121.923,38.106],[-122.026,38.789],[-122.077,40.122],[-122.008,40.446],[-121.684,40.6],[-121.205,40.446],[-120.778,40.173],[-120.317,39.678],[-120.129,39.045],[-119.924,38.67],[-119.753,38.311],[-119.428,37.747],[-118.95,37.149],[-118.369,36.568],[-118.045,36.38],[-117.891,36.107],[-117.822,35.509],[-117.976,35.235],[-118.267,35.013],[-118.66,34.945],[-119.001,34.911],[-119.514,34.911],[-120.026,34.996],[-120.454,35.081],[-121.718,35.628],[-121.94,35.987],[-122.008,36.26]]]}},{"type":"Feature","properties":{"density":1},"geometry":{"type":"Polygon","coordinates":[[[-118.44,44.848],[-118.413,44.915],[-118.308,44.983],[-117.984,45.077],[-117.836,45.114],[-117.367,45.135],[-117.239,45.118],[-117.053,45.04],[-116.955,44.976],[-116.803,44.824],[-116.766,44.74],[-116.769,44.645],[-116.847,44.527],[-117.198,44.487],[-117.613,44.477],[-118.059,44.551],[-118.322,44.639],[-118.416,44.73],[-118.443,44.807],[-118.44,44.848]]]}},{"type":"Feature","properties":{"density":1},"geometry":{"type":"Polygon","coordinates":[[[-122.245,45.108],[-122.313,45.027],[-122.323,44.952],[-122.309,44.895],[-122.232,44.811],[-122.053,44.699],[-121.776,44.672],[-121.553,44.669],[-121.297,44.719],[-121.077,44.784],[-120.861,44.807],[-120.814,44.858],[-120.801,44.905],[-120.878,45.158],[-121.084,45.297],[-121.219,45.337],[-121.57,45.344],[-121.857,45.286],[-122.043,45.222],[-122.245,45.108]]]}},{"type":"Feature","properties":{"density":1},"geometry":{"type":"Polygon","coordinates":[[[-124.175,69.485],[-116.736,70.696],[-109.816,70.696],[-99.264,70.523],[-94.247,70.696],[-85.424,69.745],[-78.764,68.274],[-75.736,66.545],[-73.401,64.642],[-72.103,61.874],[-72.276,58.933],[-74.525,55.819],[-75.65,54.175],[-77.639,52.186],[-79.196,50.888],[-79.456,49.159],[-78.591,47.948],[-77.207,46.65],[-75.304,44.488],[-74.179,41.46],[-75.823,38.0],[-79.11,35.232],[-81.532,33.329],[-85.424,29.697],[-89.922,26.41],[-91.133,23.728],[-91.911,21.652],[-92.69,18.798],[-94.42,15.684],[-97.534,13.608],[-100.388,13.522],[-102.983,15.424],[-103.588,17.241],[-102.81,19.576],[-100.561,21.652],[-98.745,24.334],[-98.139,27.448],[-97.793,30.908],[-97.274,32.897],[-96.063,36.53],[-96.582,38.606],[-98.139,40.768],[-99.869,42.498],[-101.858,43.536],[-104.367,44.228],[-109.124,44.228],[-113.363,44.055],[-122.791,44.055],[-124.088,44.315],[-124.953,44.92],[-126.164,46.304],[-126.77,47.429],[-126.424,48.64],[-124.002,49.937],[-122.099,50.715],[-120.542,51.84],[-119.763,52.878],[-118.639,56.943],[-119.936,58.933],[-121.407,60.749],[-123.483,61.701],[-125.386,62.393],[-126.683,63.258],[-127.981,65.334],[-128.327,66.631],[-128.327,67.41],[-127.635,68.361],[-125.991,68.966],[-124.175,69.485]]]}},{"type":"Feature","properties":{"density":2},"geometry":{"type":"Polygon","coordinates":[[[-95.325,34.476],[-95.436,34.549],[-95.507,34.651],[-95.512,34.752],[-95.443,34.828],[-95.396,34.807],[-95.309,34.696],[-95.272,34.581],[-95.275,34.491],[-95.287,34.467],[-95.325,34.476]]]}},{"type":"Feature","properties":{"density":2},"geometry":{"type":"Polygon","coordinates":[[[-118.243,44.87],[-118.213,44.887],[-118.17,44.878],[-118.017,44.794],[-117.843,44.73],[-117.832,44.684],[-117.866,44.621],[-117.86,44.606],[-117.734,44.573],[-117.698,44.539],[-117.684,44.465],[-117.719,44.396],[-117.824,44.335],[-117.903,44.37],[-118.065,44.589],[-118.325,44.807],[-118.331,44.849],[-118.319,44.864],[-118.243,44.87]]]}},{"type":"Feature","properties":{"density":2},"geometry":{"type":"Polygon","coordinates":[[[-122.071,45.169],[-122.008,45.144],[-121.914,45.133],[-121.768,45.175],[-121.732,45.164],[-121.63,45.076],[-121.509,45.069],[-121.454,45.144],[-121.416,45.33],[-121.385,45.402],[-121.332,45.438],[-121.275,45.426],[-121.217,45.33],[-121.141,45.272],[-120.86,45.265],[-120.625,45.207],[-120.395,45.089],[-120.183,44.893],[-120.152,44.815],[-120.126,44.65],[-120.147,44.586],[-120.254,44.548],[-120.384,44.578],[-120.444,44.688],[-120.53,44.721],[-120.658,44.718],[-120.854,44.657],[-120.923,44.612],[-120.909,44.529],[-120.876,44.495],[-120.666,44.468],[-120.444,44.504],[-120.405,44.474],[-120.414,44.426],[-120.465,44.35],[-120.549,44.293],[-120.681,44.257],[-120.813,44.233],[-121.294,44.22],[-121.527,44.32],[-121.598,44.371],[-121.604,44.446],[-121.509,44.674],[-121.504,44.741],[-121.53,44.799],[-121.632,44.866],[-121.686,44.873],[-121.836,44.83],[-121.908,44.824],[-122.01,44.845],[-122.119,44.983],[-122.134,45.037],[-122.115,45.127],[-122.071,45.169]]]}},{"type":"Feature","properties":{"density":2},"geometry":{"type":"Polygon","coordinates":[[[-115.632,43.837],[-115.552,43.908],[-115.518,43.965],[-115.454,44.01],[-115.288,44.034],[-115.218,44.016],[-115.148,43.971],[-115.104,43.865],[-115.13,43.829],[-115.506,43.776],[-115.582,43.727],[-115.626,43.719],[-115.647,43.779],[-115.632,43.837]]]}},{"type":"Feature","properties":{"density":2},"geometry":{"type":"Polygon","coordinates":[[[-113.929,46.178],[-113.749,46.25],[-113.662,46.262],[-113.668,46.216],[-113.791,46.166],[-113.916,46.144],[-113.939,46.156],[-113.929,46.178]]]}},{"type":"Feature","properties":{"density":2},"geometry":{"type":"Polygon","coordinates":[[[-121.149,60.115],[-121.468,60.085],[-122.658,60.151],[-122.982,60.141],[-123.296,60.171],[-123.534,60.283],[-123.979,60.409],[-124.455,60.45],[-124.612,60.51],[-124.693,60.637],[-124.713,60.819],[-124.638,61.204],[-124.47,61.396],[-124.349,61.492],[-124.162,61.568],[-124.091,61.589],[-123.64,61.639],[-123.423,61.695],[-123.2,61.857],[-122.764,62.014],[-122.466,62.044],[-122.167,62.044],[-121.853,62.105],[-121.553,62.198],[-121.391,62.228],[-121.124,62.323],[-120.706,62.529],[-120.169,62.686],[-119.911,62.716],[-119.577,62.711],[-119.258,62.65],[-119.207,62.599],[-119.157,62.503],[-119.151,62.458],[-119.172,62.367],[-119.212,62.306],[-119.268,62.27],[-119.4,62.245],[-119.82,62.22],[-119.951,62.194],[-120.068,62.149],[-120.26,62.058],[-120.285,62.022],[-120.285,61.977],[-120.26,61.941],[-119.42,61.744],[-118.65,61.663],[-118.428,61.617],[-117.982,61.577],[-117.881,61.582],[-117.754,61.555],[-117.66,61.514],[-117.646,61.46],[-117.653,61.396],[-117.737,61.332],[-117.988,61.254],[-118.231,61.254],[-118.428,61.216],[-119.149,60.781],[-119.645,60.707],[-119.986,60.545],[-120.226,60.376],[-120.853,60.18],[-121.149,60.115]]]}},{"type":"Feature","properties":{"density":2},"geometry":{"type":"Polygon","coordinates":[[[-115.097,46.311],[-114.941,46.377],[-114.717,46.509],[-114.671,46.473],[-114.645,46.389],[-114.645,46.257],[-114.705,46.206],[-114.822,46.161],[-114.894,46.086],[-115.218,46.027],[-115.261,46.034],[-115.274,46.068],[-115.225,46.121],[-115.133,46.284],[-115.097,46.311]]]}},{"type":"Feature","properties":{"density":2},"geometry":{"type":"Polygon","coordinates":[[[-115.412,46.478],[-115.442,46.548],[-115.444,46.607],[-115.376,46.554],[-115.223,46.519],[-115.242,46.494],[-115.379,46.467],[-115.412,46.478]]]}},{"type":"Feature","properties":{"density":2},"geometry":{"type":"Polygon","coordinates":[[[-121.334,36.24],[-121.293,36.255],[-121.187,36.381],[-121.03,36.832],[-120.964,37.237],[-120.762,37.773],[-120.736,38.224],[-120.62,38.751],[-120.574,38.847],[-120.463,38.715],[-120.357,38.533],[-120.255,38.29],[-120.099,37.784],[-120.018,37.657],[-119.937,37.571],[-119.537,37.282],[-119.359,37.212],[-119.02,37.014],[-118.919,36.933],[-118.635,36.584],[-118.408,36.194],[-118.322,35.916],[-118.246,35.85],[-118.089,35.85],[-117.866,35.976],[-117.658,36.133],[-117.522,36.28],[-117.415,36.518],[-117.365,36.675],[-117.299,36.781],[-117.223,36.842],[-117.122,36.872],[-116.99,36.867],[-116.838,36.903],[-116.767,36.877],[-116.666,36.751],[-116.651,36.614],[-116.671,36.503],[-116.656,36.189],[-116.737,36.042],[-116.874,35.87],[-117.091,35.647],[-117.36,35.414],[-117.603,35.232],[-117.8,35.111],[-118.2,35.025],[-118.398,35.014],[-119.076,35.232],[-119.37,35.409],[-119.466,35.505],[-119.78,35.592],[-119.982,35.683],[-120.149,35.652],[-120.235,35.541],[-120.286,35.435],[-120.316,35.323],[-120.325,35.212],[-120.288,34.955],[-120.099,34.344],[-119.977,34.132],[-119.911,33.965],[-119.764,33.742],[-119.638,33.474],[-119.633,33.443],[-119.699,33.393],[-119.8,33.393],[-119.896,33.418],[-120.073,33.534],[-120.21,33.696],[-120.342,33.919],[-120.544,34.476],[-120.831,34.954],[-121.0,35.028],[-121.148,35.143],[-121.243,35.291],[-121.55,35.666],[-121.719,35.953],[-121.827,36.181],[-121.836,36.235],[-121.825,36.274],[-121.777,36.317],[-121.716,36.316],[-121.587,36.25],[-121.483,36.218],[-121.411,36.218],[-121.334,36.24]]]}},{"type":"Feature","properties":{"density":2},"geometry":{"type":"Polygon","coordinates":[[[-120.995,48.265],[-120.893,48.453],[-120.551,48.709],[-119.748,49.068],[-119.047,49.273],[-118.364,49.41],[-117.886,49.324],[-117.475,49.136],[-117.065,48.709],[-116.775,48.487],[-116.109,48.077],[-115.664,47.872],[-114.998,47.752],[-114.485,47.787],[-114.178,47.975],[-114.041,48.35],[-114.195,48.829],[-114.451,49.427],[-114.878,50.11],[-115.425,50.691],[-116.45,52.665],[-116.399,53.536],[-115.912,54.484],[-115.169,55.561],[-114.887,55.945],[-114.246,56.611],[-113.657,57.073],[-111.888,58.124],[-108.915,59.969],[-108.48,60.225],[-107.531,60.533],[-106.788,60.994],[-106.386,61.195],[-106.291,61.449],[-106.405,61.654],[-107.099,61.893],[-107.395,62.235],[-107.168,62.656],[-106.644,62.907],[-105.949,62.747],[-105.095,62.691],[-103.899,62.383],[-102.944,61.942],[-101.406,61.481],[-99.989,61.594],[-99.186,61.235],[-98.588,60.757],[-98.69,59.903],[-99.331,58.989],[-100.105,58.59],[-100.789,57.986],[-101.153,56.95],[-101.108,56.346],[-100.652,55.697],[-99.661,55.685],[-98.875,56.209],[-98.351,57.075],[-97.713,57.929],[-97.184,58.442],[-96.261,58.829],[-95.737,58.601],[-94.849,58.499],[-93.385,57.861],[-92.907,57.291],[-92.462,56.893],[-92.103,56.394],[-92.052,55.599],[-91.898,55.035],[-91.488,54.574],[-90.77,54.113],[-90.155,53.831],[-89.668,53.446],[-89.54,53.113],[-89.591,52.37],[-90.129,52.165],[-91.36,52.165],[-92.205,52.267],[-92.923,52.165],[-94.076,52.045],[-94.367,51.84],[-94.367,51.601],[-94.076,51.293],[-93.222,50.764],[-92.983,50.576],[-92.914,50.422],[-92.897,50.2],[-93.068,49.995],[-93.273,49.892],[-93.598,49.858],[-94.162,49.858],[-95.084,49.79],[-96.229,49.927],[-98.655,50.354],[-99.424,50.73],[-100.091,51.191],[-100.33,51.464],[-102.141,52.626],[-103.063,53.105],[-104.157,53.429],[-104.909,53.6],[-106.182,53.839],[-107.412,53.891],[-108.514,53.891],[-109.718,54.019],[-110.897,54.07],[-111.564,53.814],[-111.666,53.557],[-112.028,52.823],[-112.119,52.39],[-112.062,51.627],[-112.085,49.531],[-112.187,48.722],[-112.187,48.46],[-112.21,48.164],[-112.222,47.139],[-112.187,46.262],[-112.267,45.795],[-112.347,45.601],[-112.563,45.396],[-112.985,45.1],[-113.235,45.054],[-113.554,45.043],[-113.953,45.054],[-114.181,45.18],[-114.579,45.362],[-115.058,45.658],[-115.479,45.806],[-116.186,46.25],[-116.345,46.421],[-116.755,46.638],[-117.29,46.717],[-117.871,46.751],[-118.464,46.831],[-119.033,46.968],[-120.298,47.367],[-120.696,47.617],[-120.844,47.765],[-121.038,48.073],[-120.995,48.265]]]}},{"type":"Feature","properties":{"density":2},"geometry":{"type":"Polygon","coordinates":[[[-75.259,20.398],[-75.373,20.437],[-75.49,20.599],[-75.641,20.683],[-75.825,20.728],[-75.957,20.792],[-75.997,20.813],[-76.003,20.861],[-75.948,20.899],[-75.713,20.879],[-75.227,20.738],[-75.069,20.681],[-74.984,20.629],[-74.948,20.507],[-74.942,20.45],[-74.954,20.435],[-75.072,20.377],[-75.19,20.38],[-75.259,20.398]]]}},{"type":"Feature","properties":{"density":2},"geometry":{"type":"Polygon","coordinates":[[[-113.173,36.278],[-113.146,36.349],[-113.112,36.346],[-113.146,36.266],[-113.174,36.255],[-113.173,36.278]]]}},{"type":"Feature","properties":{"density":2},"geometry":{"type":"Polygon","coordinates":[[[-116.757,31.902],[-116.825,31.982],[-117.144,32.005],[-117.497,31.663],[-117.862,31.481],[-117.998,31.333],[-117.998,31.037],[-117.714,30.672],[-117.554,30.148],[-117.566,29.943],[-117.657,29.67],[-117.862,29.282],[-117.953,28.884],[-117.816,28.565],[-117.771,28.405],[-117.759,28.246],[-117.771,28.132],[-117.828,27.95],[-117.907,27.813],[-117.987,27.619],[-118.044,27.369],[-118.033,27.05],[-117.828,26.617],[-117.531,26.48],[-116.985,26.515],[-116.745,26.617],[-116.461,26.833],[-115.982,27.016],[-115.717,27.417],[-115.344,27.592],[-114.942,27.66],[-114.54,27.857],[-114.464,28.154],[-114.669,28.457],[-115.139,28.822],[-115.375,29.141],[-115.603,29.285],[-115.739,29.494],[-115.83,29.779],[-115.83,30.09],[-115.922,30.325],[-116.119,30.682],[-116.476,31.054],[-116.643,31.378],[-116.711,31.629],[-116.757,31.902]]]}},{"type":"Feature","properties":{"density":2},"geometry":{"type":"Polygon","coordinates":[[[-59.12,64.445],[-58.744,64.685],[-58.061,64.924],[-57.48,65.095],[-57.07,65.163],[-56.813,65.334],[-56.429,65.539],[-55.814,65.949],[-55.199,66.205],[-54.378,66.333],[-53.584,66.205],[-52.943,65.949],[-52.431,65.59],[-52.149,65.359],[-51.969,65.026],[-51.892,64.514],[-51.969,64.129],[-52.149,63.796],[-52.738,63.437],[-53.174,63.283],[-53.84,63.002],[-54.302,62.765],[-54.769,62.697],[-55.19,62.486],[-56.094,62.509],[-56.568,62.606],[-57.89,62.708],[-58.442,62.782],[-58.693,62.794],[-58.898,62.725],[-59.462,62.76],[-59.752,62.811],[-59.855,63.016],[-59.837,63.392],[-59.684,63.716],[-59.53,63.956],[-59.342,64.229],[-59.12,64.445]]]}},{"type":"Feature","properties":{"density":2},"geometry":{"type":"Polygon","coordinates":[[[-74.965,20.41],[-75.079,20.41],[-75.19,20.447],[-75.298,20.521],[-75.311,20.595],[-75.211,20.605],[-74.968,20.508],[-74.923,20.481],[-74.915,20.46],[-74.928,20.428],[-74.965,20.41]]]}},{"type":"Feature","properties":{"density":2},"geometry":{"type":"Polygon","coordinates":[[[-121.483,35.989],[-121.424,36.024],[-121.385,36.112],[-121.26,36.234],[-121.189,36.28],[-121.078,36.411],[-120.943,36.688],[-120.849,36.837],[-120.491,37.251],[-120.339,37.388],[-120.18,37.471],[-120.043,37.502],[-119.618,37.251],[-119.276,36.924],[-118.828,36.438],[-118.767,36.317],[-118.76,36.097],[-118.41,35.497],[-118.274,35.368],[-118.16,35.33],[-118.054,35.254],[-118.038,35.193],[-118.107,35.163],[-118.243,35.17],[-118.509,35.246],[-118.6,35.277],[-118.805,35.444],[-118.912,35.611],[-119.003,35.983],[-119.018,36.15],[-119.124,36.362],[-119.269,36.613],[-119.367,36.742],[-119.542,36.879],[-119.701,36.894],[-119.876,36.856],[-120.013,36.788],[-120.218,36.636],[-120.347,36.476],[-120.453,36.218],[-120.461,36.021],[-120.522,35.801],[-120.567,35.512],[-120.575,35.284],[-120.613,35.254],[-120.673,35.284],[-120.673,35.428],[-120.643,35.58],[-120.613,35.892],[-120.643,36.044],[-120.673,36.082],[-120.749,36.104],[-120.856,36.097],[-120.901,35.899],[-120.894,35.808],[-120.924,35.725],[-120.992,35.679],[-121.205,35.694],[-121.372,35.763],[-121.448,35.823],[-121.478,35.884],[-121.483,35.989]]]}},{"type":"Feature","properties":{"density":2},"geometry":{"type":"Polygon","coordinates":[[[-122.097,45.037],[-122.123,45.071],[-122.122,45.123],[-122.102,45.139],[-122.003,45.097],[-121.852,45.109],[-121.832,45.077],[-121.855,45.018],[-122.021,44.987],[-122.077,44.994],[-122.097,45.037]]]}},{"type":"Feature","properties":{"density":2},"geometry":{"type":"Polygon","coordinates":[[[-118.202,44.88],[-118.258,44.89],[-118.316,44.858],[-118.32,44.81],[-118.29,44.76],[-118.188,44.666],[-118.108,44.65],[-118.05,44.668],[-118.042,44.712],[-118.071,44.747],[-118.158,44.8],[-118.202,44.88]]]}},{"type":"Feature","properties":{"density":2},"geometry":{"type":"Polygon","coordinates":[[[-121.487,35.983],[-121.433,36.135],[-121.224,36.284],[-121.031,36.459],[-120.92,36.493],[-120.869,36.493],[-120.822,36.476],[-120.741,36.388],[-120.714,36.314],[-120.717,36.206],[-120.778,36.034],[-120.916,35.841],[-121.058,35.744],[-121.163,35.733],[-121.443,35.835],[-121.49,35.885],[-121.5,35.933],[-121.487,35.983]]]}},{"type":"Feature","properties":{"density":2},"geometry":{"type":"Polygon","coordinates":[[[-122.08,45.144],[-122.116,45.115],[-122.163,45.012],[-122.156,44.978],[-122.129,44.953],[-122.062,44.937],[-122.033,44.949],[-121.918,44.908],[-121.855,44.917],[-121.778,44.971],[-121.774,45.034],[-121.817,45.106],[-122.039,45.149],[-122.08,45.144]]]}},{"type":"Feature","properties":{"density":2},"geometry":{"type":"Polygon","coordinates":[[[-121.592,36.085],[-121.482,36.414],[-121.329,36.605],[-121.169,36.841],[-121.078,37.062],[-121.04,37.35],[-121.033,37.699],[-120.987,38.003],[-120.881,38.231],[-120.714,38.352],[-120.463,38.368],[-120.273,38.231],[-120.159,38.064],[-120.076,37.836],[-119.719,37.289],[-119.468,37.054],[-119.111,36.765],[-118.762,36.317],[-118.663,36.143],[-118.633,35.983],[-118.694,35.862],[-118.724,35.854],[-118.808,35.892],[-118.975,36.021],[-119.142,36.188],[-119.484,36.743],[-119.613,36.917],[-119.727,37.024],[-119.848,37.1],[-119.939,37.115],[-120.068,37.046],[-120.144,36.925],[-120.144,36.781],[-120.243,36.112],[-120.319,35.968],[-120.471,35.847],[-120.744,35.763],[-120.888,35.74],[-121.093,35.74],[-121.306,35.778],[-121.458,35.831],[-121.587,36.021],[-121.592,36.085]]]}},{"type":"Feature","properties":{"density":2},"geometry":{"type":"Polygon","coordinates":[[[-118.386,44.865],[-118.13,44.942],[-117.863,44.973],[-117.579,44.979],[-117.401,44.946],[-117.306,44.905],[-117.245,44.855],[-117.195,44.74],[-117.218,44.699],[-117.465,44.639],[-117.897,44.639],[-118.096,44.659],[-118.227,44.693],[-118.366,44.77],[-118.386,44.794],[-118.386,44.865]]]}},{"type":"Feature","properties":{"density":2},"geometry":{"type":"Polygon","coordinates":[[[-122.11,45.064],[-122.174,44.963],[-122.155,44.884],[-121.939,44.794],[-121.678,44.773],[-121.384,44.836],[-121.313,44.866],[-121.283,44.908],[-121.291,44.98],[-121.331,45.058],[-121.372,45.088],[-121.435,45.106],[-121.702,45.073],[-121.988,45.082],[-122.11,45.064]]]}},{"type":"Feature","properties":{"density":2},"geometry":{"type":"Polygon","coordinates":[[[-121.35,47.484],[-121.214,47.322],[-121.072,47.246],[-120.875,47.18],[-120.723,47.17],[-120.475,47.195],[-120.267,47.18],[-120.08,47.226],[-119.877,47.383],[-119.791,47.504],[-119.477,47.843],[-119.371,47.935],[-119.341,48.036],[-119.427,48.152],[-119.573,48.248],[-119.872,48.38],[-120.196,48.436],[-120.51,48.527],[-120.637,48.547],[-120.814,48.537],[-120.915,48.466],[-120.951,48.385],[-120.92,48.122],[-120.981,47.955],[-121.037,47.854],[-121.34,47.595],[-121.35,47.484]]]}},{"type":"Feature","properties":{"density":2},"geometry":{"type":"Polygon","coordinates":[[[-115.107,46.324],[-114.909,46.391],[-114.606,46.45],[-114.223,46.478],[-114.13,46.454],[-114.073,46.415],[-114.081,46.384],[-114.111,46.364],[-114.64,46.348],[-114.861,46.325],[-114.973,46.3],[-115.045,46.261],[-115.116,46.261],[-115.107,46.324]]]}},{"type":"Feature","properties":{"density":2},"geometry":{"type":"Polygon","coordinates":[[[-115.189,46.09],[-115.059,46.061],[-114.907,46.079],[-114.826,46.001],[-114.793,46.016],[-114.811,46.064],[-114.906,46.156],[-114.934,46.163],[-115.147,46.163],[-115.201,46.13],[-115.189,46.09]]]}},{"type":"Feature","properties":{"density":2},"geometry":{"type":"Polygon","coordinates":[[[-113.945,46.159],[-113.957,46.18],[-113.926,46.199],[-113.707,46.218],[-113.484,46.227],[-113.432,46.197],[-113.448,46.176],[-113.518,46.165],[-113.811,46.15],[-113.945,46.159]]]}},{"type":"Feature","properties":{"density":2},"geometry":{"type":"Polygon","coordinates":[[[-115.181,46.757],[-114.879,46.839],[-114.612,46.872],[-114.578,46.905],[-114.576,46.959],[-114.641,46.997],[-114.803,46.995],[-115.2,46.893],[-115.259,46.844],[-115.265,46.809],[-115.238,46.769],[-115.181,46.757]]]}},{"type":"Feature","properties":{"density":2},"geometry":{"type":"Polygon","coordinates":[[[-124.104,61.419],[-122.669,60.599],[-121.644,60.24],[-120.414,59.727],[-118.44,59.573],[-116.493,59.804],[-115.724,60.317],[-115.314,60.829],[-115.16,61.521],[-115.621,62.213],[-116.288,62.726],[-117.62,63.392],[-119.235,63.572],[-121.413,63.648],[-122.31,63.418],[-123.515,62.956],[-123.822,62.803],[-124.361,62.239],[-124.463,61.957],[-124.335,61.854],[-124.309,61.521],[-124.104,61.419]]]}},{"type":"Feature","properties":{"density":3},"geometry":{"type":"Polygon","coordinates":[[[-118.177,44.863],[-118.005,44.762],[-117.977,44.732],[-117.983,44.678],[-118.031,44.65],[-118.096,44.656],[-118.17,44.693],[-118.309,44.803],[-118.325,44.835],[-118.29,44.869],[-118.246,44.849],[-118.202,44.87],[-118.177,44.863]]]}},{"type":"Feature","properties":{"density":3},"geometry":{"type":"Polygon","coordinates":[[[-122.119,45.054],[-122.116,45.102],[-122.08,45.145],[-121.957,45.106],[-121.876,45.103],[-121.753,45.157],[-121.775,45.031],[-121.621,45.016],[-121.549,44.991],[-121.52,44.956],[-121.564,44.941],[-121.705,44.97],[-121.784,44.953],[-121.854,44.922],[-121.86,44.862],[-121.895,44.855],[-121.912,44.867],[-121.957,44.99],[-122.071,44.993],[-122.119,45.054]]]}},{"type":"Feature","properties":{"density":3},"geometry":{"type":"Polygon","coordinates":[[[-115.598,43.866],[-115.517,43.879],[-115.504,43.851],[-115.529,43.822],[-115.619,43.794],[-115.63,43.812],[-115.598,43.866]]]}},{"type":"Feature","properties":{"density":3},"geometry":{"type":"Polygon","coordinates":[[[-122.638,61.789],[-122.658,61.673],[-122.699,61.607],[-122.755,61.556],[-122.947,61.475],[-123.185,61.435],[-123.357,61.343],[-123.549,61.197],[-123.696,61.121],[-123.752,61.025],[-123.777,60.908],[-123.752,60.574],[-123.706,60.488],[-123.541,60.345],[-123.387,60.26],[-123.054,60.275],[-122.949,60.369],[-122.865,60.481],[-122.73,60.572],[-122.325,60.666],[-122.105,60.646],[-121.461,60.454],[-120.998,60.423],[-120.678,60.494],[-120.116,60.686],[-119.756,60.838],[-119.326,61.091],[-119.159,61.142],[-118.901,61.248],[-118.784,61.324],[-118.71,61.405],[-118.764,61.51],[-118.936,61.584],[-119.449,61.649],[-119.578,61.638],[-119.851,61.665],[-120.134,61.723],[-120.338,61.797],[-120.556,61.942],[-120.607,61.993],[-120.766,62.05],[-121.157,62.067],[-121.619,62.057],[-122.068,61.942],[-122.284,61.915],[-122.453,61.922],[-122.615,61.851],[-122.638,61.789]]]}},{"type":"Feature","properties":{"density":3},"geometry":{"type":"Polygon","coordinates":[[[-115.057,46.218],[-115.032,46.112],[-115.039,46.082],[-115.187,46.044],[-115.245,46.049],[-115.245,46.067],[-115.173,46.122],[-115.131,46.218],[-115.101,46.239],[-115.077,46.239],[-115.057,46.218]]]}},{"type":"Feature","properties":{"density":3},"geometry":{"type":"Polygon","coordinates":[[[-121.357,36.194],[-121.305,36.207],[-121.222,36.159],[-121.185,36.187],[-121.008,36.691],[-120.922,36.833],[-120.809,36.931],[-120.599,37.017],[-120.472,37.129],[-120.374,37.294],[-120.318,37.531],[-120.251,37.576],[-120.179,37.579],[-120.157,37.542],[-119.883,37.366],[-119.594,37.216],[-119.204,37.047],[-119.141,36.991],[-119.009,36.931],[-118.901,36.856],[-118.769,36.698],[-118.578,36.207],[-118.552,36.042],[-118.537,35.742],[-118.499,35.622],[-118.462,35.569],[-118.338,35.528],[-118.259,35.554],[-118.117,35.626],[-117.997,35.746],[-117.817,35.884],[-117.727,35.911],[-117.577,35.896],[-117.472,35.854],[-117.371,35.757],[-117.352,35.663],[-117.382,35.581],[-117.562,35.431],[-117.674,35.307],[-118.034,35.228],[-118.353,35.108],[-118.526,35.112],[-118.709,35.168],[-119.159,35.472],[-119.324,35.629],[-119.343,35.716],[-119.268,35.937],[-119.223,36.166],[-119.238,36.387],[-119.339,36.556],[-119.448,36.657],[-119.508,36.676],[-119.587,36.623],[-119.598,36.439],[-119.639,36.316],[-119.673,36.293],[-119.958,36.226],[-120.161,36.136],[-120.206,36.068],[-120.228,35.944],[-120.408,35.442],[-120.573,35.187],[-120.678,35.164],[-120.738,35.172],[-120.783,35.243],[-120.813,35.367],[-120.843,35.738],[-120.881,35.858],[-120.939,35.942],[-120.999,35.959],[-121.054,35.929],[-121.102,35.804],[-121.142,35.767],[-121.232,35.744],[-121.299,35.759],[-121.427,35.829],[-121.48,35.883],[-121.501,35.919],[-121.509,36.0],[-121.466,36.144],[-121.357,36.194]]]}},{"type":"Feature","properties":{"density":3},"geometry":{"type":"Polygon","coordinates":[[[-75.549,20.743],[-75.508,20.77],[-75.433,20.76],[-75.075,20.643],[-74.993,20.589],[-74.958,20.455],[-75.207,20.493],[-75.303,20.536],[-75.42,20.631],[-75.483,20.641],[-75.54,20.671],[-75.555,20.719],[-75.534,20.757],[-75.549,20.743]]]}},{"type":"Feature","properties":{"density":3},"geometry":{"type":"Polygon","coordinates":[[[-121.412,35.994],[-121.376,36.019],[-121.314,36.139],[-121.282,36.174],[-121.258,36.177],[-121.133,36.057],[-121.085,35.97],[-121.079,35.899],[-121.126,35.85],[-121.162,35.838],[-121.26,35.845],[-121.391,35.893],[-121.412,35.994]]]}},{"type":"Feature","properties":{"density":3},"geometry":{"type":"Polygon","coordinates":[[[-121.484,35.982],[-121.41,36.056],[-121.351,36.225],[-121.252,36.394],[-121.205,36.445],[-121.095,36.481],[-121.009,36.459],[-120.955,36.407],[-120.872,36.272],[-120.834,36.09],[-120.836,36.013],[-120.863,35.946],[-120.892,35.921],[-120.955,35.881],[-121.07,35.854],[-121.385,35.854],[-121.486,35.899],[-121.484,35.982]]]}},{"type":"Feature","properties":{"density":3},"geometry":{"type":"Polygon","coordinates":[[[-118.295,44.871],[-118.123,44.922],[-117.819,44.936],[-117.741,44.925],[-117.694,44.898],[-117.667,44.861],[-117.66,44.801],[-117.687,44.77],[-117.755,44.743],[-117.971,44.73],[-118.224,44.75],[-118.295,44.777],[-118.322,44.834],[-118.295,44.871]]]}},{"type":"Feature","properties":{"density":3},"geometry":{"type":"Polygon","coordinates":[[[-122.086,45.065],[-122.108,45.034],[-122.095,44.971],[-122.048,44.927],[-121.994,44.909],[-121.862,44.906],[-121.717,44.95],[-121.717,44.992],[-121.807,45.041],[-121.984,45.07],[-122.069,45.076],[-122.086,45.065]]]}},{"type":"Feature","properties":{"density":3},"geometry":{"type":"Polygon","coordinates":[[[-120.858,48.372],[-120.74,48.393],[-120.666,48.386],[-120.578,48.349],[-120.247,48.096],[-120.159,48.021],[-120.078,47.907],[-120.065,47.819],[-120.109,47.755],[-120.281,47.691],[-120.396,47.694],[-120.517,47.741],[-120.686,47.778],[-120.777,47.819],[-120.848,47.903],[-120.885,48.291],[-120.872,48.366],[-120.858,48.372]]]}}]}