{"type":"FeatureCollection","features":[{"type":"Feature","properties":{"density":1},"geometry":{"type":"Polygon","coordinates":[[[-79.947,22.811],[-80.056,22.903],[-80.149,23.04],[-80.104,23.165],[-80.052,23.202],[-79.942,23.199],[-79.894,23.155],[-79.838,23.049],[-79.828,22.974],[-79.852,22.891],[-79.896,22.825],[-79.947,22.811]]]}},{"type":"Feature","properties":{"density":1},"geometry":{"type":"Polygon","coordinates":[[[-76.072,20.498],[-76.252,20.518],[-76.482,20.619],[-76.544,20.729],[-76.533,20.829],[-76.506,20.867],[-76.471,20.893],[-76.285,20.886],[-76.173,20.829],[-76.109,20.777],[-76.065,20.717],[-76.039,20.581],[-76.037,20.52],[-76.054,20.494],[-76.072,20.498]]]}},{"type":"Feature","properties":{"density":1},"geometry":{"type":"Polygon","coordinates":[[[-88.528,21.502],[-88.533,21.647],[-88.57,21.754],[-88.612,21.985],[-88.77,22.448],[-88.859,22.647],[-88.919,22.68],[-88.971,22.67],[-89.006,22.645],[-89.05,22.448],[-88.945,21.961],[-88.824,21.712],[-88.675,21.508],[-88.629,21.46],[-88.567,21.445],[-88.528,21.471],[-88.528,21.502]]]}},{"type":"Feature","properties":{"density":1},"geometry":{"type":"Polygon","coordinates":[[[-122.294,49.504],[-123.277,50.551],[-124.03,52.057],[-124.093,53.041],[-124.01,54.359],[-123.424,55.719],[-121.184,58.628],[-118.904,61.495],[-116.372,65.01],[-114.509,66.664],[-113.002,67.542],[-111.287,68.066],[-107.562,68.547],[-102.812,68.379],[-98.229,67.438],[-94.065,66.433],[-91.93,65.45],[-88.98,63.901],[-87.054,62.52],[-83.434,59.549],[-79.5,56.661],[-77.763,55.112],[-76.466,53.459],[-75.796,51.576],[-75.231,50.048],[-74.771,48.144],[-74.729,46.742],[-74.352,45.005],[-72.699,43.457],[-70.837,42.201],[-69.351,40.841],[-68.619,39.816],[-67.802,37.66],[-67.279,35.714],[-67.237,33.538],[-67.51,32.178],[-68.556,30.566],[-72.469,28.997],[-75.42,28.432],[-80.693,27.93],[-83.769,27.867],[-85.631,27.867],[-87.347,27.846],[-88.959,27.741],[-91.03,27.972],[-92.181,28.118],[-94.085,27.972],[-95.278,26.988],[-96.136,25.984],[-96.764,24.226],[-96.91,23.2],[-96.701,22.029],[-95.822,20.627],[-95.027,20.187],[-93.73,19.371],[-92.914,18.911],[-92.642,18.471],[-92.809,17.529],[-93.437,16.483],[-94.253,15.353],[-95.174,14.537],[-96.136,14.16],[-97.455,14.139],[-98.689,14.244],[-100.07,14.893],[-100.531,15.73],[-100.635,16.504],[-100.405,17.153],[-99.631,17.341],[-98.543,17.027],[-97.664,16.797],[-96.931,16.692],[-96.345,16.755],[-96.136,17.174],[-96.136,17.655],[-96.325,18.157],[-96.91,18.952],[-98.061,19.936],[-98.815,20.731],[-99.505,22.175],[-99.652,23.389],[-99.882,24.77],[-101.41,27.511],[-102.205,28.034],[-102.665,28.683],[-102.979,29.959],[-103.795,31.257],[-104.025,32.345],[-104.067,33.789],[-104.444,35.568],[-104.59,36.677],[-104.946,37.807],[-105.051,39.564],[-105.323,40.402],[-105.93,41.406],[-107.164,42.243],[-108.022,42.578],[-108.901,42.787],[-110.408,42.85],[-111.684,42.599],[-112.689,42.264],[-113.086,41.887],[-113.463,41.615],[-114.237,40.694],[-114.718,40.15],[-115.493,39.418],[-117.209,38.895],[-118.527,38.916],[-119.678,39.502],[-120.431,40.067],[-120.766,40.548],[-121.31,41.239],[-121.749,42.201],[-122.545,44.294],[-122.67,45.089],[-122.503,45.863],[-122.419,46.428],[-122.147,47.223],[-122.022,47.914],[-122.001,48.395],[-122.105,48.897],[-122.294,49.504]]]}},{"type":"Feature","properties":{"density":1},"geometry":{"type":"Polygon","coordinates":[[[-76.4,20.817],[-76.395,20.683],[-76.341,20.604],[-76.102,20.498],[-76.071,20.487],[-76.044,20.498],[-76.051,20.549],[-76.172,20.645],[-76.325,20.812],[-76.367,20.828],[-76.4,20.817]]]}},{"type":"Feature","properties":{"density":1},"geometry":{"type":"Polygon","coordinates":[[[-79.82,23.283],[-79.952,23.25],[-79.993,23.181],[-80.008,23.12],[-80.019,23.055],[-80.007,22.863],[-79.985,22.816],[-79.938,22.798],[-79.892,22.806],[-79.826,22.85],[-79.762,22.935],[-79.74,23.007],[-79.718,23.199],[-79.767,23.267],[-79.82,23.283]]]}},{"type":"Feature","properties":{"density":1},"geometry":{"type":"Polygon","coordinates":[[[-97.836,15.779],[-97.396,14.9],[-96.549,14.115],[-95.56,14.003],[-94.336,14.332],[-93.63,15.559],[-93.065,17.252],[-92.829,18.382],[-92.547,21.018],[-91.966,22.449],[-91.401,23.367],[-90.483,24.003],[-89.267,24.442],[-87.744,24.738],[-86.175,24.991],[-83.562,25.274],[-82.377,25.444],[-79.928,26.056],[-78.94,26.386],[-76.923,26.828],[-74.592,27.746],[-72.05,28.664],[-70.425,29.37],[-68.398,30.11],[-66.263,30.957],[-64.443,32.15],[-63.638,33.731],[-63.073,35.237],[-63.496,37.215],[-64.532,38.533],[-66.18,39.993],[-68.158,40.511],[-70.841,40.982],[-73.321,41.306],[-75.581,41.871],[-76.998,42.854],[-77.689,44.203],[-77.03,46.055],[-76.527,47.405],[-75.272,48.692],[-73.855,49.833],[-72.113,50.634],[-70.093,51.517],[-68.676,52.941],[-68.016,54.636],[-68.063,55.719],[-68.628,56.566],[-69.904,57.293],[-71.453,57.508],[-74.55,57.826],[-77.433,57.932],[-81.011,58.449],[-82.554,58.768],[-84.312,59.302],[-85.724,59.961],[-87.368,60.898],[-88.957,62.095],[-91.04,63.158],[-93.488,64.335],[-94.76,64.994],[-96.125,65.842],[-98.526,67.019],[-101.022,67.678],[-103.8,68.054],[-107.043,68.0],[-109.22,67.581],[-111.898,66.89],[-113.849,66.066],[-115.497,64.756],[-116.439,63.584],[-117.067,61.973],[-116.816,60.508],[-116.167,59.232],[-115.559,58.234],[-115.371,57.167],[-116.093,56.477],[-117.914,55.347],[-120.331,54.295],[-122.989,52.912],[-124.475,52.242],[-125.165,51.133],[-124.747,50.15],[-123.407,49.041],[-122.905,48.015],[-122.57,46.885],[-122.57,45.944],[-122.528,43.997],[-122.131,42.93],[-121.838,41.968],[-121.252,41.11],[-120.499,40.189],[-119.641,39.226],[-118.678,39.059],[-117.757,39.059],[-116.941,39.268],[-115.665,39.645],[-114.388,40.168],[-113.468,41.078],[-112.714,41.926],[-111.647,43.276],[-110.768,44.06],[-109.261,44.468],[-108.1,44.657],[-106.844,44.594],[-105.997,44.625],[-104.616,44.06],[-103.988,42.867],[-103.549,41.581],[-103.329,39.917],[-103.015,38.065],[-102.889,36.747],[-102.732,35.554],[-102.419,34.173],[-101.885,32.478],[-101.006,29.904],[-100.316,26.734],[-99.889,24.688],[-99.091,21.084],[-98.406,19.109],[-98.053,17.908],[-97.836,15.779]]]}},{"type":"Feature","properties":{"density":1},"geometry":{"type":"Polygon","coordinates":[[[-116.186,37.206],[-116.062,37.256],[-115.987,37.349],[-115.888,37.529],[-115.863,37.802],[-115.876,37.864],[-115.993,37.969],[-116.105,37.969],[-116.192,37.926],[-116.322,37.808],[-116.365,37.659],[-116.384,37.554],[-116.365,37.38],[-116.322,37.281],[-116.186,37.206]]]}},{"type":"Feature","properties":{"density":1},"geometry":{"type":"Polygon","coordinates":[[[-116.222,38.44],[-116.251,37.961],[-116.349,37.527],[-116.335,37.42],[-116.258,37.244],[-116.167,37.224],[-116.09,37.257],[-115.95,37.377],[-115.842,37.534],[-115.765,37.679],[-115.67,37.977],[-115.643,38.17],[-115.642,38.298],[-115.663,38.426],[-115.704,38.525],[-115.773,38.594],[-115.859,38.635],[-115.991,38.627],[-116.115,38.588],[-116.222,38.44]]]}},{"type":"Feature","properties":{"density":1},"geometry":{"type":"Polygon","coordinates":[[[-76.459,20.723],[-76.484,20.703],[-76.478,20.63],[-76.427,20.581],[-76.379,20.582],[-76.369,20.636],[-76.382,20.662],[-76.41,20.702],[-76.459,20.723]]]}},{"type":"Feature","properties":{"density":1},"geometry":{"type":"Polygon","coordinates":[[[-76.334,20.773],[-76.359,20.73],[-76.352,20.687],[-76.304,20.63],[-76.076,20.494],[-76.034,20.508],[-76.023,20.534],[-76.045,20.581],[-76.158,20.725],[-76.245,20.777],[-76.334,20.773]]]}},{"type":"Feature","properties":{"density":1},"geometry":{"type":"Polygon","coordinates":[[[-79.779,23.355],[-79.822,23.146],[-79.864,23.052],[-79.972,22.885],[-79.987,22.831],[-79.941,22.784],[-79.873,22.776],[-79.8,22.815],[-79.682,22.944],[-79.585,23.096],[-79.52,23.269],[-79.526,23.388],[-79.561,23.438],[-79.607,23.447],[-79.721,23.43],[-79.779,23.355]]]}},{"type":"Feature","properties":{"density":1},"geometry":{"type":"Polygon","coordinates":[[[-89.161,22.221],[-89.252,22.188],[-89.28,22.149],[-89.274,22.089],[-89.258,21.992],[-89.202,21.896],[-89.095,21.766],[-88.976,21.645],[-88.8,21.532],[-88.632,21.466],[-88.527,21.444],[-88.472,21.469],[-88.469,21.543],[-88.511,21.64],[-88.704,21.91],[-88.803,22.012],[-89.051,22.191],[-89.161,22.221]]]}},{"type":"Feature","properties":{"density":1},"geometry":{"type":"Polygon","coordinates":[[[-95.568,26.574],[-96.243,26.462],[-97.094,26.015],[-97.872,25.306],[-98.939,23.705],[-99.299,21.398],[-99.061,19.152],[-98.699,17.757],[-97.966,16.423],[-97.108,15.441],[-96.365,14.854],[-95.518,14.226],[-94.528,13.795],[-93.83,13.795],[-93.342,14.394],[-93.54,16.517],[-93.446,17.584],[-92.693,19.185],[-91.939,20.409],[-90.684,21.351],[-89.114,21.916],[-87.294,22.481],[-85.597,22.891],[-83.867,23.152],[-82.425,23.496],[-81.57,24.017],[-80.64,24.553],[-79.949,25.369],[-79.227,26.781],[-78.788,27.378],[-77.909,27.88],[-76.622,28.194],[-75.366,28.445],[-72.416,29.167],[-70.626,29.701],[-69.026,30.642],[-68.241,31.301],[-66.811,32.987],[-66.797,34.187],[-67.801,35.414],[-69.21,36.0],[-71.066,36.056],[-73.549,35.247],[-75.446,34.131],[-77.595,33.043],[-79.339,32.555],[-80.734,32.708],[-81.613,33.154],[-82.394,34.159],[-83.008,35.68],[-83.552,36.503],[-84.891,38.079],[-86.858,39.934],[-88.42,41.86],[-88.978,43.729],[-88.42,44.873],[-86.844,45.543],[-84.612,45.598],[-83.067,45.881],[-82.157,46.54],[-81.738,48.347],[-82.073,49.672],[-83.005,50.087],[-84.5,50.505],[-85.202,50.683],[-85.924,51.311],[-86.611,52.607],[-87.933,54.419],[-89.052,56.036],[-90.401,57.385],[-91.28,58.107],[-92.599,58.986],[-93.791,59.614],[-95.863,60.556],[-97.684,60.901],[-100.226,61.309],[-101.67,61.78],[-101.858,62.376],[-101.482,62.753],[-98.971,63.6],[-97.464,64.071],[-94.451,65.233],[-93.478,66.143],[-93.258,66.834],[-93.164,67.932],[-93.383,69.502],[-94.199,70.757],[-95.832,71.95],[-98.249,72.703],[-101.45,72.954],[-104.966,72.452],[-106.692,71.856],[-108.105,71.165],[-109.36,70.412],[-110.522,69.407],[-112.185,67.775],[-113.315,66.928],[-113.974,66.394],[-114.477,65.955],[-115.293,65.139],[-115.732,64.417],[-116.486,63.412],[-117.647,62.47],[-119.154,61.309],[-120.723,60.462],[-122.983,59.3],[-123.925,58.767],[-124.552,58.359],[-125.369,58.076],[-126.279,57.574],[-126.969,57.26],[-127.503,56.255],[-127.754,55.534],[-127.786,54.56],[-127.346,53.839],[-126.718,52.991],[-125.557,52.144],[-124.364,51.17],[-123.705,50.668],[-123.14,50.04],[-123.109,48.879],[-123.674,47.341],[-123.862,46.619],[-124.333,45.834],[-125.149,44.642],[-125.337,44.014],[-125.494,43.355],[-125.588,42.727],[-125.651,41.785],[-125.494,41.314],[-124.919,40.329],[-123.925,39.462],[-123.14,38.897],[-122.198,38.489],[-120.629,38.081],[-119.624,37.956],[-117.929,37.893],[-116.988,37.893],[-115.921,38.069],[-114.665,38.301],[-113.253,38.301],[-111.443,38.341],[-109.999,38.006],[-108.513,37.359],[-107.257,36.857],[-106.033,36.072],[-105.186,35.037],[-104.652,34.221],[-103.867,32.934],[-103.396,31.961],[-102.988,31.27],[-102.612,30.682],[-102.068,30.012],[-101.168,29.449],[-98.751,28.539],[-97.513,28.429],[-95.699,28.457],[-94.807,28.373],[-94.011,28.178],[-93.244,27.94],[-93.146,27.522],[-93.356,26.992],[-93.746,26.81],[-94.231,26.656],[-94.874,26.653],[-95.568,26.574]]]}},{"type":"Feature","properties":{"density":1},"geometry":{"type":"Polygon","coordinates":[[[-92.634,18.972],[-92.753,18.983],[-92.836,18.958],[-92.883,18.917],[-92.907,18.843],[-92.91,18.741],[-92.844,18.625],[-92.748,18.553],[-92.615,18.487],[-92.141,18.338],[-91.898,18.3],[-91.876,18.338],[-91.928,18.424],[-92.165,18.661],[-92.391,18.843],[-92.554,18.947],[-92.634,18.972]]]}},{"type":"Feature","properties":{"density":1},"geometry":{"type":"Polygon","coordinates":[[[-89.264,22.274],[-89.353,22.265],[-89.388,22.229],[-89.394,22.114],[-89.339,21.921],[-89.231,21.728],[-89.146,21.634],[-88.983,21.518],[-88.735,21.433],[-88.606,21.414],[-88.515,21.428],[-88.482,21.466],[-88.496,21.576],[-88.752,21.932],[-88.992,22.155],[-89.204,22.262],[-89.264,22.274]]]}},{"type":"Feature","properties":{"density":1},"geometry":{"type":"Polygon","coordinates":[[[-79.943,22.907],[-80.011,22.841],[-79.995,22.794],[-79.945,22.764],[-79.835,22.742],[-79.615,22.772],[-79.469,22.838],[-79.369,22.967],[-79.245,23.284],[-79.27,23.48],[-79.339,23.587],[-79.46,23.645],[-79.562,23.665],[-79.645,23.621],[-79.744,23.323],[-79.791,23.114],[-79.874,22.984],[-79.943,22.907]]]}},{"type":"Feature","properties":{"density":1},"geometry":{"type":"Polygon","coordinates":[[[-78.142,21.778],[-78.171,21.688],[-78.302,21.517],[-78.31,21.477],[-78.297,21.461],[-78.158,21.479],[-78.095,21.51],[-77.991,21.59],[-77.958,21.647],[-77.941,21.812],[-77.975,21.892],[-78.032,21.929],[-78.112,21.935],[-78.138,21.917],[-78.147,21.882],[-78.142,21.778]]]}},{"type":"Feature","properties":{"density":1},"geometry":{"type":"Polygon","coordinates":[[[-76.473,20.851],[-76.513,20.797],[-76.513,20.733],[-76.418,20.617],[-76.097,20.489],[-76.017,20.488],[-75.998,20.506],[-75.995,20.567],[-76.02,20.62],[-76.172,20.741],[-76.371,20.838],[-76.473,20.851]]]}},{"type":"Feature","properties":{"density":1},"geometry":{"type":"Polygon","coordinates":[[[-76.044,20.332],[-76.072,20.221],[-76.059,20.145],[-75.996,20.052],[-75.914,20.039],[-75.892,20.088],[-75.941,20.205],[-75.961,20.303],[-75.994,20.338],[-76.017,20.346],[-76.044,20.332]]]}},{"type":"Feature","properties":{"density":1},"geometry":{"type":"Polygon","coordinates":[[[-74.456,19.563],[-74.497,19.552],[-74.531,19.494],[-74.536,19.433],[-74.519,19.356],[-74.462,19.238],[-74.219,18.904],[-74.183,18.811],[-74.139,18.461],[-74.098,18.381],[-74.051,18.337],[-73.996,18.328],[-73.908,18.372],[-73.861,18.433],[-73.822,18.56],[-73.811,18.929],[-73.842,19.036],[-73.886,19.138],[-73.974,19.276],[-74.09,19.408],[-74.249,19.524],[-74.349,19.568],[-74.456,19.563]]]}},{"type":"Feature","properties":{"density":1},"geometry":{"type":"Polygon","coordinates":[[[-78.518,26.718],[-78.535,26.656],[-78.504,26.62],[-78.067,26.759],[-77.696,26.84],[-77.631,26.878],[-77.599,26.939],[-77.604,27.021],[-77.627,27.075],[-77.676,27.132],[-77.767,27.166],[-77.856,27.173],[-77.969,27.152],[-78.226,27.008],[-78.385,26.889],[-78.518,26.718]]]}},{"type":"Feature","properties":{"density":1},"geometry":{"type":"Polygon","coordinates":[[[-96.961,15.653],[-96.208,14.805],[-94.607,14.052],[-93.1,14.381],[-92.582,15.511],[-92.206,17.206],[-91.594,19.325],[-90.699,20.69],[-89.334,21.444],[-87.45,22.103],[-85.049,22.621],[-82.883,23.327],[-81.518,23.845],[-79.635,24.316],[-78.175,24.41],[-76.904,24.316],[-75.585,24.269],[-73.843,24.316],[-71.678,24.41],[-70.265,24.74],[-68.523,25.116],[-66.263,26.199],[-64.191,27.235],[-61.602,28.742],[-58.494,31.52],[-55.669,34.863],[-54.539,36.793],[-54.068,39.524],[-53.88,41.69],[-53.864,42.929],[-54.505,44.825],[-55.559,45.974],[-56.846,46.696],[-57.223,48.203],[-56.815,49.396],[-56.564,50.212],[-56.878,50.934],[-57.851,51.31],[-59.232,51.091],[-60.958,50.745],[-62.088,50.557],[-63.972,49.929],[-68.743,48.203],[-73.388,46.288],[-76.998,45.503],[-78.41,45.409],[-79.493,45.55],[-80.451,46.1],[-80.859,47.104],[-80.67,48.375],[-79.478,49.741],[-77.626,50.839],[-76.056,51.624],[-74.55,52.425],[-71.756,54.324],[-70.343,55.893],[-70.03,57.933],[-70.595,60.258],[-71.85,61.168],[-74.298,62.455],[-76.025,63.146],[-77.798,63.677],[-79.635,64.478],[-81.706,65.137],[-83.919,65.89],[-86.838,66.832],[-89.553,67.886],[-92.002,68.607],[-94.262,69.016],[-96.365,69.329],[-98.939,69.832],[-101.795,70.114],[-105.53,70.428],[-108.073,70.034],[-109.485,69.657],[-111.557,68.527],[-112.828,67.397],[-113.958,66.032],[-114.57,64.902],[-114.947,63.489],[-115.088,61.229],[-115.983,58.592],[-116.516,57.559],[-117.615,56.46],[-118.839,55.55],[-119.938,54.891],[-122.041,54.137],[-125.996,52.568],[-128.79,51.483],[-131.238,50.447],[-132.368,49.364],[-133.357,47.669],[-133.639,46.21],[-133.168,44.609],[-131.614,43.338],[-129.213,42.396],[-127.707,41.643],[-126.012,40.748],[-123.752,39.241],[-121.633,37.546],[-120.315,36.275],[-119.373,35.522],[-118.902,35.192],[-117.537,34.91],[-113.864,34.91],[-110.615,35.098],[-108.402,34.957],[-106.001,34.58],[-103.741,33.544],[-102.093,32.461],[-100.775,30.766],[-100.304,29.024],[-99.975,27.047],[-99.362,23.092],[-98.986,21.114],[-98.468,18.854],[-98.185,18.148],[-97.997,17.159],[-96.961,15.653]]]}},{"type":"Feature","properties":{"density":2},"geometry":{"type":"Polygon","coordinates":[[[-115.501,41.084],[-115.705,40.731],[-115.966,40.526],[-116.207,40.414],[-116.561,40.405],[-117.082,40.433],[-117.556,40.396],[-118.021,40.256],[-118.188,40.033],[-118.328,39.81],[-118.3,39.549],[-118.198,39.345],[-118.077,39.298],[-117.937,39.298],[-117.826,39.335],[-117.705,39.494],[-117.63,39.698],[-117.528,39.773],[-117.398,39.642],[-117.379,39.503],[-117.426,39.382],[-117.612,39.196],[-117.816,39.131],[-118.114,39.131],[-118.356,39.261],[-118.626,39.438],[-118.83,39.828],[-119.072,40.182],[-119.398,40.545],[-119.76,40.833],[-120.03,41.121],[-120.179,41.4],[-120.318,41.735],[-120.495,42.507],[-120.662,42.805],[-121.034,43.27],[-121.369,43.604],[-121.685,44.107],[-121.751,44.367],[-121.89,44.748],[-121.937,44.99],[-121.927,45.232],[-121.853,45.446],[-121.806,45.641],[-121.592,45.939],[-121.276,46.106],[-120.997,46.162],[-120.7,46.246],[-120.244,46.432],[-120.011,46.571],[-119.909,46.701],[-119.863,46.99],[-119.872,47.111],[-120.011,47.232],[-120.43,47.287],[-120.644,47.352],[-120.96,47.715],[-121.016,47.864],[-121.016,47.948],[-120.895,48.115],[-120.793,48.162],[-120.644,48.189],[-120.328,48.106],[-120.235,48.106],[-120.151,48.189],[-120.114,48.301],[-120.058,48.654],[-119.965,48.887],[-119.965,49.045],[-120.067,49.11],[-120.132,49.129],[-120.346,49.026],[-120.486,48.887],[-120.579,48.868],[-120.727,48.868],[-120.969,48.915],[-121.137,48.989],[-121.174,49.064],[-121.118,49.259],[-120.979,49.417],[-120.569,49.557],[-120.29,49.557],[-119.872,49.594],[-119.546,49.696],[-119.286,49.854],[-118.942,50.217],[-118.002,51.445],[-117.919,51.733],[-117.9,51.938],[-118.002,52.105],[-118.142,52.133],[-118.347,52.114],[-118.57,52.031],[-118.942,51.724],[-119.314,51.51],[-120.132,50.905],[-120.383,50.747],[-120.541,50.626],[-120.793,50.301],[-121.016,50.077],[-121.155,49.91],[-121.285,49.724],[-121.341,49.678],[-121.406,49.668],[-121.537,49.733],[-121.704,49.975],[-121.844,50.217],[-122.067,50.459],[-122.355,50.682],[-122.522,50.877],[-122.783,51.11],[-122.792,51.324],[-122.755,51.472],[-122.671,51.649],[-122.625,51.826],[-122.476,52.003],[-122.206,52.263],[-121.323,52.858],[-120.588,53.277],[-119.212,53.956],[-118.542,54.179],[-117.928,54.439],[-116.449,55.155],[-115.789,55.258],[-113.92,55.416],[-112.45,55.258],[-111.678,55.202],[-110.869,55.183],[-110.385,55.155],[-108.944,54.728],[-108.451,54.411],[-108.107,54.049],[-107.884,53.751],[-107.865,53.481],[-107.958,53.165],[-108.172,52.951],[-108.702,52.682],[-109.465,52.477],[-110.516,52.393],[-112.766,52.133],[-113.538,51.956],[-114.589,51.64],[-115.733,51.082],[-116.087,50.84],[-116.375,50.533],[-116.486,50.161],[-116.505,49.519],[-116.273,49.24],[-115.64,48.999],[-114.729,48.961],[-113.845,49.203],[-112.85,49.622],[-111.529,50.105],[-109.93,50.663],[-109.26,50.989],[-108.535,51.5],[-108.098,51.984],[-107.372,52.644],[-106.498,53.481],[-106.219,53.993],[-106.005,54.3],[-105.679,54.625],[-105.205,54.997],[-104.182,55.602],[-103.643,55.751],[-103.057,55.853],[-102.359,55.872],[-101.848,55.769],[-101.401,55.565],[-100.992,55.248],[-100.611,54.895],[-100.053,54.095],[-99.699,53.779],[-99.262,53.193],[-98.918,52.7],[-98.406,51.845],[-97.495,51.314],[-95.382,50.749],[-94.691,50.645],[-93.645,50.352],[-93.038,50.038],[-92.117,49.264],[-91.427,48.468],[-90.799,47.631],[-90.129,46.69],[-89.627,45.874],[-88.706,43.823],[-87.744,42.923],[-86.488,41.94],[-85.693,41.291],[-85.232,40.517],[-83.81,39.01],[-83.161,38.361],[-81.947,37.42],[-80.754,36.708],[-80.001,36.227],[-79.206,35.348],[-78.766,34.574],[-78.662,33.946],[-78.641,33.381],[-78.976,32.669],[-79.562,32.104],[-80.21,31.853],[-80.88,31.979],[-81.529,32.251],[-82.491,32.711],[-83.37,33.486],[-84.647,34.302],[-85.756,35.076],[-86.739,35.725],[-88.141,36.415],[-89.941,37.21],[-91.113,37.775],[-92.347,38.78],[-94.084,40.245],[-95.214,41.04],[-96.532,41.94],[-98.227,42.421],[-99.127,42.526],[-100.006,42.693],[-100.76,42.986],[-101.576,43.614],[-102.643,44.346],[-103.417,44.827],[-104.233,45.204],[-105.824,45.497],[-106.577,45.497],[-108.146,45.204],[-109.862,44.723],[-110.783,44.409],[-112.352,43.656],[-113.713,42.735],[-113.859,42.609],[-114.717,42.002],[-115.157,41.563],[-115.501,41.084]]]}},{"type":"Feature","properties":{"density":2},"geometry":{"type":"Polygon","coordinates":[[[-116.04,37.73],[-116.07,37.728],[-116.142,37.681],[-116.208,37.496],[-116.208,37.309],[-116.194,37.278],[-116.156,37.262],[-116.104,37.267],[-116.062,37.488],[-115.996,37.595],[-115.985,37.686],[-116.007,37.722],[-116.04,37.73]]]}},{"type":"Feature","properties":{"density":2},"geometry":{"type":"Polygon","coordinates":[[[-93.289,32.021],[-93.318,31.986],[-93.253,31.956],[-93.087,31.945],[-93.047,31.977],[-93.063,32.016],[-93.123,32.034],[-93.289,32.021]]]}},{"type":"Feature","properties":{"density":2},"geometry":{"type":"Polygon","coordinates":[[[-115.262,48.272],[-115.638,48.429],[-115.67,49.214],[-115.262,50.124],[-114.854,50.563],[-114.069,51.097],[-113.127,51.411],[-111.558,51.411],[-109.392,51.16],[-108.576,51.223],[-107.791,51.725],[-107.357,52.499],[-107.294,53.336],[-107.671,54.006],[-108.654,54.738],[-110.182,55.303],[-111.558,55.617],[-112.751,55.68],[-115.513,55.648],[-117.49,55.115],[-118.777,54.518],[-119.625,54.016],[-120.692,53.451],[-122.073,52.604],[-122.638,52.101],[-122.795,51.725],[-122.795,51.223],[-122.356,50.595],[-121.54,50.218],[-120.692,50.249],[-119.97,50.72],[-119.562,51.191],[-118.783,51.746],[-117.867,52.478],[-116.831,53.012],[-115.638,53.483],[-114.54,53.702],[-113.755,53.796],[-113.818,53.514],[-113.975,53.42],[-115.105,53.074],[-116.643,52.353],[-117.522,51.913],[-118.369,51.191],[-119.499,49.998],[-120.472,49.119],[-120.723,48.931],[-121.194,48.241],[-121.54,46.954],[-121.634,46.075],[-121.696,45.353],[-121.602,43.909],[-121.179,42.486],[-120.19,41.304],[-119.185,40.676],[-117.867,40.174],[-116.925,40.079],[-115.701,40.331],[-115.089,40.707],[-114.446,41.178],[-113.347,42.183],[-112.468,43.093],[-111.903,43.878],[-111.432,44.38],[-110.663,44.872],[-109.831,45.102],[-108.644,45.259],[-107.242,45.28],[-106.007,45.342],[-104.835,45.28],[-103.915,45.091],[-103.099,44.526],[-102.314,43.794],[-101.351,43.145],[-100.263,42.266],[-99.008,41.22],[-97.71,40.069],[-96.831,38.939],[-95.743,37.725],[-94.697,36.784],[-93.839,36.344],[-93.127,35.947],[-91.411,35.403],[-90.135,35.11],[-89.089,34.775],[-87.98,34.649],[-86.541,34.429],[-85.411,34.335],[-83.904,34.555],[-83.083,34.691],[-81.869,35.005],[-81.158,35.298],[-80.446,35.842],[-79.714,36.533],[-79.17,37.453],[-78.913,38.604],[-78.756,39.609],[-79.081,40.217],[-79.981,40.468],[-82.75,40.622],[-84.173,40.887],[-86.084,41.431],[-87.423,41.919],[-88.358,42.979],[-88.944,43.984],[-88.944,44.919],[-88.581,45.532],[-87.507,45.993],[-85.317,46.514],[-84.72,46.954],[-84.375,47.519],[-84.281,47.989],[-84.281,48.492],[-84.909,49.339],[-85.505,49.779],[-86.033,50.134],[-86.792,50.312],[-88.079,50.344],[-89.172,49.925],[-90.151,49.308],[-90.972,49.276],[-91.997,49.486],[-93.734,50.406],[-95.304,50.658],[-96.198,50.68],[-96.993,50.931],[-97.731,51.913],[-98.343,53.326],[-99.159,54.769],[-99.782,55.701],[-100.41,56.893],[-101.765,58.065],[-102.581,58.128],[-103.554,57.971],[-104.281,57.877],[-104.762,57.375],[-105.118,56.642],[-105.28,55.617],[-105.657,54.11],[-105.876,52.635],[-106.065,51.756],[-107.006,50.783],[-108.199,50.249],[-109.675,49.81],[-110.459,49.559],[-112.06,49.151],[-113.786,48.523],[-114.289,48.398],[-115.262,48.272]]]}},{"type":"Feature","properties":{"density":2},"geometry":{"type":"Polygon","coordinates":[[[-79.827,23.185],[-79.859,23.179],[-79.893,23.121],[-79.962,22.811],[-79.929,22.806],[-79.895,22.834],[-79.853,22.989],[-79.793,23.078],[-79.785,23.158],[-79.827,23.185]]]}},{"type":"Feature","properties":{"density":2},"geometry":{"type":"Polygon","coordinates":[[[-115.949,38.373],[-116.053,38.204],[-116.276,37.644],[-116.32,37.409],[-116.314,37.343],[-116.277,37.273],[-116.171,37.262],[-116.136,37.302],[-115.982,37.574],[-115.877,37.798],[-115.794,37.916],[-115.747,38.127],[-115.759,38.283],[-115.792,38.351],[-115.849,38.39],[-115.91,38.396],[-115.949,38.373]]]}},{"type":"Feature","properties":{"density":2},"geometry":{"type":"Polygon","coordinates":[[[-121.744,45.435],[-121.755,45.419],[-121.746,45.375],[-121.667,45.367],[-121.636,45.384],[-121.32,45.61],[-121.289,45.659],[-121.289,45.696],[-121.325,45.703],[-121.445,45.645],[-121.663,45.518],[-121.744,45.435]]]}},{"type":"Feature","properties":{"density":2},"geometry":{"type":"Polygon","coordinates":[[[-76.137,20.613],[-76.16,20.587],[-76.14,20.545],[-76.091,20.502],[-76.056,20.495],[-76.04,20.511],[-76.058,20.57],[-76.137,20.613]]]}},{"type":"Feature","properties":{"density":2},"geometry":{"type":"Polygon","coordinates":[[[-79.733,23.278],[-79.787,23.201],[-79.958,22.844],[-79.952,22.819],[-79.915,22.82],[-79.893,22.839],[-79.781,23.01],[-79.619,23.21],[-79.618,23.269],[-79.632,23.287],[-79.671,23.294],[-79.733,23.278]]]}},{"type":"Feature","properties":{"density":2},"geometry":{"type":"Polygon","coordinates":[[[-88.897,21.899],[-88.935,21.874],[-88.932,21.786],[-88.833,21.659],[-88.629,21.527],[-88.563,21.496],[-88.513,21.496],[-88.511,21.543],[-88.739,21.838],[-88.817,21.893],[-88.924,21.904],[-88.897,21.899]]]}},{"type":"Feature","properties":{"density":2},"geometry":{"type":"Polygon","coordinates":[[[-105.445,55.76],[-105.494,55.734],[-105.509,55.716],[-105.501,55.694],[-105.318,55.675],[-105.233,55.686],[-105.217,55.708],[-105.222,55.741],[-105.283,55.771],[-105.445,55.76]]]}},{"type":"Feature","properties":{"density":2},"geometry":{"type":"Polygon","coordinates":[[[-122.568,52.705],[-122.84,52.517],[-123.07,52.245],[-123.258,51.805],[-123.112,51.178],[-122.84,50.78],[-122.526,50.592],[-122.086,50.278],[-121.772,49.755],[-121.521,49.504],[-121.145,49.566],[-120.747,49.901],[-120.663,50.382],[-120.308,50.738],[-119.701,51.157],[-118.926,51.617],[-117.357,52.622],[-116.206,53.166],[-115.474,53.542],[-114.365,54.003],[-113.276,54.254],[-111.393,54.547],[-110.451,54.735],[-109.949,54.902],[-109.552,55.174],[-109.552,55.614],[-109.907,55.886],[-110.828,56.032],[-111.561,56.032],[-112.565,55.907],[-114.825,55.216],[-115.808,54.819],[-116.583,54.463],[-117.796,54.149],[-120.37,53.333],[-121.417,53.061],[-122.149,52.852],[-122.568,52.705]]]}},{"type":"Feature","properties":{"density":2},"geometry":{"type":"Polygon","coordinates":[[[-117.826,51.343],[-118.049,51.147],[-118.428,50.745],[-118.846,50.201],[-119.328,49.699],[-119.974,49.445],[-120.741,49.459],[-121.188,49.39],[-121.411,49.194],[-121.495,48.664],[-121.271,47.897],[-120.923,47.59],[-119.89,47.423],[-118.511,47.439],[-117.895,47.227],[-117.644,46.879],[-117.742,46.516],[-118.135,46.058],[-118.858,45.721],[-120.392,45.818],[-121.188,45.93],[-121.774,45.804],[-122.15,45.497],[-122.206,44.856],[-122.006,44.342],[-121.42,43.819],[-121.085,43.463],[-120.688,42.668],[-120.583,41.81],[-120.374,41.077],[-119.83,40.178],[-119.369,39.78],[-118.616,39.571],[-117.853,39.429],[-117.24,39.485],[-116.319,40.001],[-113.473,41.759],[-112.343,42.596],[-111.743,43.321],[-111.478,43.879],[-110.976,44.521],[-110.446,44.856],[-109.567,45.093],[-108.174,45.2],[-106.27,45.263],[-105.244,45.43],[-104.156,45.765],[-103.191,45.651],[-102.396,45.177],[-101.685,44.326],[-99.494,41.996],[-98.616,41.159],[-97.541,40.67],[-96.958,40.345],[-96.351,39.78],[-95.514,38.985],[-94.97,38.211],[-93.775,36.946],[-93.086,36.139],[-92.501,35.679],[-91.664,35.072],[-90.701,34.632],[-89.592,34.193],[-88.776,33.774],[-87.834,33.251],[-87.123,32.833],[-86.632,32.426],[-86.244,32.163],[-85.404,31.435],[-84.484,31.003],[-83.926,30.849],[-83.419,30.656],[-82.586,30.483],[-80.502,29.534],[-79.637,29.292],[-78.689,29.283],[-77.619,29.743],[-76.643,30.52],[-75.88,31.078],[-74.569,31.989],[-74.373,32.436],[-74.29,32.994],[-74.485,33.366],[-75.182,33.449],[-76.419,33.003],[-77.452,32.51],[-78.586,32.231],[-79.396,32.305],[-79.944,32.557],[-80.223,32.947],[-80.768,33.797],[-82.126,35.09],[-82.498,35.341],[-82.948,35.672],[-83.614,36.03],[-84.535,36.616],[-85.028,36.839],[-86.925,37.527],[-87.688,37.759],[-89.222,38.41],[-89.641,38.671],[-89.938,38.913],[-90.328,39.271],[-90.83,39.676],[-91.095,39.941],[-91.347,40.304],[-92.17,41.619],[-92.463,42.219],[-92.561,42.707],[-92.449,43.558],[-92.282,44.298],[-91.486,45.828],[-91.403,46.307],[-91.403,47.018],[-91.529,47.827],[-91.807,49.19],[-91.974,49.846],[-92.156,50.474],[-92.588,51.45],[-93.188,51.715],[-94.011,51.576],[-94.653,51.297],[-95.281,50.544],[-95.504,50.223],[-96.048,50.139],[-96.285,50.348],[-96.522,51.046],[-96.704,51.915],[-96.801,52.734],[-96.941,53.473],[-96.927,54.143],[-96.759,55.175],[-96.69,55.835],[-96.872,56.923],[-97.695,57.732],[-98.769,58.262],[-100.22,58.444],[-101.643,58.332],[-102.591,58.007],[-103.358,57.212],[-103.749,56.054],[-103.93,55.133],[-104.084,53.617],[-104.6,52.427],[-104.893,51.953],[-105.437,51.594],[-106.763,51.05],[-107.558,50.757],[-108.534,50.436],[-109.316,50.129],[-110.348,49.864],[-112.036,49.348],[-111.883,49.362],[-112.775,49.097],[-113.403,48.929],[-114.533,48.762],[-115.328,48.776],[-116.04,49.027],[-116.403,49.766],[-116.5,50.129],[-116.626,50.924],[-116.709,51.189],[-116.905,51.398],[-117.337,51.44],[-117.826,51.343]]]}},{"type":"Feature","properties":{"density":2},"geometry":{"type":"Polygon","coordinates":[[[-111.42,49.763],[-111.999,49.84],[-112.529,49.7],[-113.17,49.184],[-113.756,48.905],[-114.37,48.933],[-114.872,48.916],[-115.469,48.696],[-115.877,48.612],[-116.17,48.501],[-116.519,48.319],[-116.993,47.873],[-117.132,47.44],[-117.077,47.078],[-116.616,46.687],[-116.435,46.478],[-116.547,46.282],[-117.914,46.324],[-118.89,46.404],[-119.699,46.366],[-120.522,46.199],[-121.248,45.864],[-121.684,45.62],[-121.931,45.055],[-121.834,44.329],[-121.346,43.646],[-120.815,43.339],[-120.55,43.116],[-120.257,42.599],[-119.978,41.804],[-119.811,41.274],[-119.267,40.549],[-118.357,39.75],[-117.823,39.405],[-117.146,39.447],[-116.644,39.795],[-116.123,40.235],[-115.784,40.583],[-115.395,40.934],[-114.66,41.422],[-114.139,41.732],[-113.701,42.027],[-113.254,42.781],[-112.989,43.391],[-112.529,43.981],[-112.047,44.396],[-110.827,44.887],[-109.753,45.125],[-108.79,45.027],[-107.883,44.887],[-107.088,44.584],[-106.098,44.176],[-105.079,44.176],[-103.007,44.427],[-101.564,44.218],[-100.406,43.897],[-99.541,43.325],[-98.732,42.878],[-97.546,42.362],[-95.882,41.382],[-95.286,40.88],[-94.595,40.189],[-93.811,39.311],[-93.497,38.683],[-92.524,37.145],[-92.053,36.517],[-91.268,35.858],[-90.682,35.247],[-89.831,34.452],[-88.004,33.001],[-87.156,32.405],[-85.932,31.746],[-85.336,31.338],[-83.986,30.71],[-82.898,30.239],[-80.219,29.392],[-79.152,29.203],[-78.053,28.984],[-76.766,28.764],[-75.887,28.701],[-74.485,28.747],[-72.749,28.889],[-71.336,29.046],[-69.547,29.298],[-68.417,29.706],[-67.507,30.271],[-66.659,31.024],[-65.749,32.311],[-65.561,33.158],[-65.372,34.383],[-65.372,35.638],[-65.466,36.548],[-65.812,37.804],[-66.126,38.714],[-66.785,39.844],[-67.412,40.754],[-68.072,41.382],[-68.762,41.665],[-69.516,41.916],[-70.959,41.853],[-71.65,41.476],[-72.372,40.911],[-72.835,40.506],[-73.076,39.893],[-73.408,39.342],[-73.973,38.777],[-74.475,38.369],[-74.538,38.338],[-74.757,38.118],[-75.228,37.804],[-75.668,37.741],[-76.452,37.773],[-77.3,37.773],[-78.022,37.678],[-78.43,37.364],[-78.807,36.956],[-79.246,36.58],[-79.748,36.109],[-80.47,35.952],[-81.224,36.078],[-82.259,36.799],[-83.138,37.49],[-84.725,38.665],[-85.534,39.126],[-86.26,39.391],[-87.055,39.656],[-87.627,40.102],[-88.255,40.409],[-88.603,40.772],[-89.022,41.4],[-89.273,42.083],[-89.22,42.683],[-88.927,43.185],[-88.32,43.561],[-87.336,44.022],[-86.353,44.252],[-83.821,44.796],[-82.858,45.131],[-82.084,45.508],[-81.916,46.052],[-82.063,46.951],[-82.23,47.809],[-82.544,48.605],[-82.816,49.211],[-84.237,50.328],[-84.771,50.862],[-85.084,51.081],[-85.712,51.615],[-86.478,52.162],[-87.253,53.041],[-87.608,53.815],[-87.838,54.569],[-88.403,55.489],[-89.471,56.452],[-91.249,57.77],[-92.965,58.628],[-94.409,59.068],[-95.393,59.256],[-98.636,59.465],[-101.085,59.361],[-102.152,58.9],[-103.198,57.938],[-103.638,56.033],[-103.533,55.385],[-103.261,54.778],[-102.801,54.004],[-102.466,53.041],[-102.717,52.288],[-103.679,51.555],[-104.977,51.241],[-105.888,51.054],[-107.799,50.788],[-108.511,50.719],[-109.069,50.482],[-109.753,49.924],[-110.046,49.631],[-110.659,49.491],[-111.42,49.763]]]}},{"type":"Feature","properties":{"density":2},"geometry":{"type":"Polygon","coordinates":[[[-117.135,53.041],[-117.344,52.811],[-117.365,52.518],[-117.198,52.162],[-116.674,51.555],[-115.963,50.948],[-115.712,50.614],[-115.482,50.195],[-115.44,49.818],[-115.503,49.588],[-115.733,49.295],[-116.005,49.107],[-116.235,49.107],[-116.674,49.191],[-116.758,49.191],[-116.905,48.981],[-117.072,48.542],[-117.323,48.207],[-117.7,47.956],[-118.307,47.705],[-119.039,47.6],[-119.709,47.433],[-120.336,47.433],[-120.881,47.475],[-121.132,47.768],[-121.194,48.249],[-121.194,48.856],[-121.383,49.421],[-121.655,49.776],[-122.136,50.007],[-122.722,50.362],[-123.245,50.886],[-123.454,51.304],[-123.58,52.099],[-123.517,52.539],[-123.203,52.874],[-122.764,53.041],[-122.22,53.313],[-121.634,53.397],[-120.671,53.501],[-119.834,53.501],[-119.248,53.543],[-118.704,53.669],[-118.181,53.983],[-117.616,54.255],[-116.988,54.506],[-116.319,54.61],[-115.691,54.631],[-115.042,54.736],[-113.598,55.113],[-112.782,55.28],[-111.38,55.468],[-109.873,55.594],[-108.827,55.74],[-107.76,55.824],[-106.839,55.971],[-105.856,56.054],[-104.684,55.866],[-103.889,55.468],[-103.135,54.234],[-103.052,53.187],[-103.617,52.392],[-104.6,51.89],[-105.96,51.409],[-107.048,51.283],[-108.011,51.451],[-108.66,51.702],[-108.764,52.099],[-109.036,52.664],[-109.392,52.853],[-110.438,52.769],[-111.338,52.643],[-111.945,52.581],[-113.18,52.601],[-114.163,52.79],[-114.812,52.978],[-115.879,53.146],[-116.591,53.187],[-117.135,53.041]]]}},{"type":"Feature","properties":{"density":2},"geometry":{"type":"Polygon","coordinates":[[[-85.644,53.133],[-85.689,53.018],[-85.681,52.873],[-85.623,52.823],[-85.54,52.823],[-85.301,52.985],[-85.086,53.051],[-85.007,53.117],[-84.986,53.187],[-85.024,53.278],[-85.131,53.336],[-85.309,53.34],[-85.416,53.315],[-85.515,53.262],[-85.644,53.133]]]}},{"type":"Feature","properties":{"density":2},"geometry":{"type":"Polygon","coordinates":[[[-85.028,52.918],[-85.148,52.832],[-85.189,52.766],[-85.263,52.538],[-85.251,52.493],[-85.205,52.48],[-84.986,52.584],[-84.871,52.613],[-84.784,52.654],[-84.689,52.724],[-84.668,52.782],[-84.763,52.902],[-84.887,52.952],[-85.028,52.918]]]}},{"type":"Feature","properties":{"density":2},"geometry":{"type":"Polygon","coordinates":[[[-115.66,39.13],[-115.889,39.024],[-115.995,38.844],[-116.063,38.342],[-116.336,37.623],[-116.348,37.499],[-116.268,37.239],[-116.075,37.201],[-115.97,37.27],[-115.908,37.344],[-115.809,37.4],[-115.617,37.418],[-115.152,37.735],[-115.04,37.865],[-114.773,38.367],[-114.736,38.572],[-114.724,38.751],[-114.798,38.894],[-114.91,38.999],[-115.009,39.08],[-115.121,39.13],[-115.449,39.167],[-115.66,39.13]]]}},{"type":"Feature","properties":{"density":2},"geometry":{"type":"Polygon","coordinates":[[[-122.303,43.671],[-122.462,43.564],[-122.578,43.402],[-122.617,43.323],[-122.665,43.151],[-122.641,43.079],[-122.571,43.059],[-122.477,43.077],[-121.72,43.268],[-121.537,43.362],[-121.481,43.445],[-121.485,43.502],[-121.555,43.568],[-121.799,43.601],[-122.056,43.595],[-122.235,43.671],[-122.303,43.671]]]}},{"type":"Feature","properties":{"density":2},"geometry":{"type":"Polygon","coordinates":[[[-92.265,18.562],[-92.369,18.559],[-92.395,18.526],[-92.373,18.471],[-92.289,18.418],[-92.004,18.314],[-91.954,18.3],[-91.918,18.314],[-91.918,18.341],[-92.052,18.443],[-92.265,18.562]]]}},{"type":"Feature","properties":{"density":2},"geometry":{"type":"Polygon","coordinates":[[[-76.16,20.632],[-76.176,20.594],[-76.149,20.544],[-76.063,20.496],[-76.031,20.496],[-76.023,20.557],[-76.045,20.586],[-76.1,20.628],[-76.16,20.632]]]}},{"type":"Feature","properties":{"density":2},"geometry":{"type":"Polygon","coordinates":[[[-74.217,19.228],[-74.254,19.201],[-74.263,19.135],[-74.241,19.069],[-74.1,18.863],[-74.074,18.791],[-74.061,18.688],[-74.07,18.576],[-74.111,18.431],[-74.094,18.396],[-74.036,18.389],[-73.984,18.438],[-73.885,18.793],[-73.879,19.001],[-73.918,19.098],[-73.988,19.181],[-74.131,19.247],[-74.217,19.228]]]}},{"type":"Feature","properties":{"density":3},"geometry":{"type":"Polygon","coordinates":[[[-118.026,40.879],[-117.778,40.823],[-117.437,40.792],[-117.176,40.842],[-116.891,40.978],[-116.792,41.065],[-116.717,41.201],[-116.525,41.4],[-116.364,41.536],[-116.104,41.71],[-115.347,42.435],[-115.143,42.683],[-114.895,43.037],[-114.417,44.041],[-114.07,44.599],[-113.332,45.368],[-112.929,45.709],[-111.974,46.149],[-111.168,46.453],[-110.74,46.651],[-110.089,46.837],[-109.699,46.999],[-109.035,47.433],[-108.88,47.836],[-108.831,48.418],[-108.843,48.797],[-108.961,49.082],[-109.37,49.386],[-110.083,49.59],[-111.075,49.59],[-111.832,49.417],[-113.326,48.97],[-114.69,48.232],[-115.589,47.774],[-116.203,47.439],[-116.798,47.271],[-117.058,47.253],[-117.282,47.29],[-117.424,47.364],[-117.53,47.681],[-117.431,47.966],[-117.214,48.139],[-117.028,48.387],[-117.021,48.598],[-117.046,48.697],[-117.114,48.809],[-117.387,48.871],[-117.877,48.685],[-117.945,48.685],[-117.945,48.728],[-117.834,48.883],[-117.418,49.28],[-117.3,49.503],[-117.245,49.714],[-117.232,49.894],[-117.319,49.975],[-117.449,49.95],[-117.672,49.77],[-118.137,49.1],[-118.354,48.883],[-118.522,48.679],[-118.683,48.555],[-118.819,48.518],[-118.931,48.536],[-119.067,48.679],[-119.018,48.89],[-118.733,49.243],[-118.385,49.621],[-118.156,50.297],[-117.846,50.644],[-117.728,50.886],[-117.703,51.072],[-117.753,51.258],[-117.79,51.283],[-117.958,51.215],[-118.261,50.824],[-118.764,50.086],[-119.074,49.584],[-119.359,49.045],[-119.867,48.716],[-119.948,48.58],[-119.88,48.158],[-119.663,47.891],[-119.452,47.836],[-119.16,47.991],[-118.931,48.09],[-118.683,48.121],[-118.429,48.065],[-118.373,47.904],[-118.435,47.767],[-119.098,47.389],[-119.315,47.073],[-119.508,46.602],[-119.718,46.248],[-119.923,46.044],[-120.611,45.746],[-121.045,45.61],[-121.411,45.554],[-121.647,45.492],[-121.721,45.424],[-121.758,45.287],[-121.721,45.188],[-121.659,45.151],[-121.647,45.107],[-121.634,44.878],[-121.572,44.562],[-121.337,44.239],[-120.977,43.96],[-120.679,43.489],[-120.58,43.266],[-120.462,42.857],[-120.276,42.491],[-120.121,42.1],[-119.873,41.747],[-119.408,41.313],[-119.21,41.207],[-118.894,41.059],[-118.571,40.966],[-118.361,40.922],[-118.026,40.879]]]}},{"type":"Feature","properties":{"density":3},"geometry":{"type":"Polygon","coordinates":[[[-120.879,48.013],[-120.716,47.798],[-120.603,47.594],[-120.535,47.536],[-120.452,47.506],[-120.391,47.511],[-120.339,47.564],[-120.325,47.644],[-120.339,47.77],[-120.372,47.864],[-120.609,48.079],[-120.766,48.074],[-120.835,48.052],[-120.879,48.013]]]}},{"type":"Feature","properties":{"density":3},"geometry":{"type":"Polygon","coordinates":[[[-121.95,50.521],[-122.353,50.775],[-122.539,50.986],[-122.595,51.197],[-122.521,51.488],[-122.446,51.581],[-122.186,51.687],[-121.931,51.736],[-121.807,51.736],[-121.634,51.693],[-121.473,51.587],[-121.367,51.426],[-121.28,51.246],[-121.256,51.048],[-121.28,50.868],[-121.373,50.682],[-121.491,50.527],[-121.671,50.471],[-121.826,50.453],[-121.95,50.521]]]}},{"type":"Feature","properties":{"density":3},"geometry":{"type":"Polygon","coordinates":[[[-120.858,48.144],[-120.905,48.095],[-120.894,47.973],[-120.72,47.783],[-120.643,47.759],[-120.61,47.773],[-120.605,47.819],[-120.632,47.891],[-120.629,47.932],[-120.601,47.94],[-120.505,47.909],[-120.477,47.917],[-120.467,47.96],[-120.5,48.023],[-120.693,48.133],[-120.768,48.155],[-120.858,48.144]]]}},{"type":"Feature","properties":{"density":3},"geometry":{"type":"Polygon","coordinates":[[[-119.327,48.374],[-119.414,48.321],[-119.384,48.268],[-119.106,48.25],[-119.055,48.276],[-119.056,48.381],[-119.077,48.425],[-119.119,48.445],[-119.172,48.447],[-119.271,48.384],[-119.327,48.374]]]}},{"type":"Feature","properties":{"density":3},"geometry":{"type":"Polygon","coordinates":[[[-118.408,48.246],[-118.304,48.125],[-118.215,48.125],[-118.113,48.172],[-118.097,48.208],[-118.144,48.285],[-118.213,48.533],[-118.262,48.541],[-118.301,48.522],[-118.315,48.365],[-118.334,48.315],[-118.411,48.288],[-118.408,48.246]]]}},{"type":"Feature","properties":{"density":3},"geometry":{"type":"Polygon","coordinates":[[[-119.883,48.82],[-119.905,48.811],[-119.929,48.77],[-119.93,48.711],[-119.963,48.64],[-119.96,48.585],[-119.894,48.505],[-119.842,48.488],[-119.783,48.482],[-119.671,48.526],[-119.621,48.602],[-119.635,48.786],[-119.658,48.799],[-119.811,48.797],[-119.861,48.825],[-119.883,48.82]]]}},{"type":"Feature","properties":{"density":3},"geometry":{"type":"Polygon","coordinates":[[[-121.661,51.615],[-121.778,51.561],[-121.878,51.476],[-121.947,51.468],[-122.058,51.463],[-122.272,51.548],[-122.352,51.537],[-122.583,51.454],[-122.6,51.33],[-122.553,51.256],[-122.489,51.211],[-122.327,51.187],[-122.279,51.161],[-122.285,51.14],[-122.346,51.137],[-122.343,51.096],[-122.269,51.076],[-121.997,51.073],[-121.963,51.049],[-121.922,50.977],[-121.85,50.922],[-121.74,50.88],[-121.513,50.838],[-121.379,50.771],[-121.317,50.785],[-121.291,50.848],[-121.299,50.999],[-121.271,51.043],[-121.131,51.096],[-121.087,51.148],[-121.084,51.217],[-121.114,51.278],[-121.156,51.313],[-121.328,51.362],[-121.481,51.594],[-121.544,51.622],[-121.661,51.615]]]}},{"type":"Feature","properties":{"density":3},"geometry":{"type":"Polygon","coordinates":[[[-122.097,50.863],[-122.149,50.871],[-122.19,50.845],[-122.214,50.776],[-122.178,50.718],[-122.051,50.619],[-121.894,50.529],[-121.836,50.545],[-121.795,50.583],[-121.806,50.659],[-121.908,50.79],[-122.029,50.856],[-122.097,50.863]]]}},{"type":"Feature","properties":{"density":3},"geometry":{"type":"Polygon","coordinates":[[[-121.247,50.181],[-121.269,50.181],[-121.294,50.156],[-121.302,50.12],[-121.288,50.065],[-121.175,50.004],[-121.084,49.999],[-121.068,50.068],[-121.095,50.106],[-121.186,50.173],[-121.247,50.181]]]}},{"type":"Feature","properties":{"density":3},"geometry":{"type":"Polygon","coordinates":[[[-116.12,37.51],[-116.167,37.491],[-116.181,37.449],[-116.186,37.276],[-116.153,37.256],[-116.068,37.477],[-116.095,37.513],[-116.12,37.51]]]}},{"type":"Feature","properties":{"density":3},"geometry":{"type":"Polygon","coordinates":[[[-118.318,50.066],[-118.338,50.052],[-118.338,50.008],[-118.307,49.947],[-118.283,49.931],[-118.148,49.923],[-118.145,49.978],[-118.197,50.033],[-118.277,50.077],[-118.318,50.066]]]}},{"type":"Feature","properties":{"density":3},"geometry":{"type":"Polygon","coordinates":[[[-120.592,49.244],[-120.634,49.196],[-120.633,49.079],[-120.699,48.948],[-120.696,48.92],[-120.659,48.892],[-120.572,48.902],[-120.524,48.964],[-120.521,49.016],[-120.548,49.114],[-120.545,49.207],[-120.562,49.236],[-120.592,49.244]]]}},{"type":"Feature","properties":{"density":3},"geometry":{"type":"Polygon","coordinates":[[[-121.673,45.468],[-121.688,45.422],[-121.664,45.392],[-121.634,45.381],[-121.562,45.399],[-121.546,45.38],[-121.552,45.343],[-121.515,45.225],[-121.473,45.2],[-121.429,45.196],[-121.334,45.221],[-121.192,45.33],[-121.132,45.336],[-121.092,45.364],[-121.082,45.427],[-121.126,45.536],[-121.117,45.617],[-121.093,45.67],[-121.111,45.727],[-121.175,45.738],[-121.282,45.707],[-121.482,45.56],[-121.673,45.468]]]}},{"type":"Feature","properties":{"density":3},"geometry":{"type":"Polygon","coordinates":[[[-121.559,44.892],[-121.618,44.805],[-121.624,44.77],[-121.59,44.683],[-121.454,44.592],[-121.412,44.594],[-121.342,44.64],[-121.339,44.682],[-121.424,44.771],[-121.47,44.91],[-121.517,44.93],[-121.559,44.892]]]}},{"type":"Feature","properties":{"density":3},"geometry":{"type":"Polygon","coordinates":[[[-120.781,44.778],[-120.794,44.74],[-120.777,44.681],[-120.79,44.606],[-120.878,44.47],[-120.86,44.393],[-120.823,44.336],[-120.672,44.231],[-120.623,44.17],[-120.516,44.091],[-120.246,44.062],[-120.189,44.095],[-120.178,44.132],[-120.211,44.183],[-120.279,44.218],[-120.366,44.237],[-120.412,44.275],[-120.419,44.321],[-120.327,44.444],[-120.323,44.554],[-120.299,44.619],[-120.307,44.665],[-120.347,44.69],[-120.441,44.622],[-120.498,44.617],[-120.61,44.657],[-120.759,44.791],[-120.781,44.778]]]}},{"type":"Feature","properties":{"density":3},"geometry":{"type":"Polygon","coordinates":[[[-119.932,44.547],[-119.941,44.523],[-119.921,44.411],[-119.86,44.35],[-119.794,44.325],[-119.726,44.325],[-119.642,44.363],[-119.616,44.398],[-119.607,44.49],[-119.616,44.521],[-119.651,44.543],[-119.75,44.525],[-119.873,44.567],[-119.908,44.567],[-119.932,44.547]]]}},{"type":"Feature","properties":{"density":3},"geometry":{"type":"Polygon","coordinates":[[[-119.381,43.755],[-119.418,43.724],[-119.333,43.638],[-119.271,43.621],[-119.206,43.641],[-119.199,43.684],[-119.278,43.75],[-119.381,43.755]]]}},{"type":"Feature","properties":{"density":3},"geometry":{"type":"Polygon","coordinates":[[[-118.177,45.768],[-118.253,45.744],[-118.275,45.719],[-118.294,45.629],[-118.146,45.587],[-118.103,45.531],[-118.115,45.423],[-118.099,45.372],[-118.0,45.313],[-117.933,45.231],[-117.855,44.975],[-117.745,44.86],[-117.617,44.772],[-117.423,44.542],[-117.352,44.498],[-117.186,44.44],[-117.098,44.457],[-116.927,44.702],[-116.729,44.868],[-116.71,44.989],[-116.738,45.094],[-116.821,45.117],[-117.047,45.055],[-117.2,45.048],[-117.313,45.064],[-117.479,45.143],[-117.539,45.215],[-117.581,45.292],[-117.57,45.383],[-117.421,45.41],[-117.291,45.369],[-117.22,45.325],[-117.163,45.334],[-117.12,45.394],[-117.123,45.485],[-117.164,45.603],[-117.233,45.7],[-117.297,45.76],[-117.429,45.796],[-117.567,45.799],[-117.886,45.769],[-118.024,45.782],[-118.177,45.768]]]}},{"type":"Feature","properties":{"density":3},"geometry":{"type":"Polygon","coordinates":[[[-118.068,43.82],[-118.082,43.798],[-118.077,43.745],[-117.784,43.514],[-117.669,43.448],[-117.556,43.404],[-117.462,43.406],[-117.404,43.459],[-117.407,43.536],[-117.476,43.688],[-117.465,43.765],[-117.412,43.894],[-117.423,43.947],[-117.456,43.982],[-117.536,43.974],[-117.658,43.933],[-117.751,43.88],[-117.977,43.858],[-118.068,43.82]]]}},{"type":"Feature","properties":{"density":3},"geometry":{"type":"Polygon","coordinates":[[[-115.967,38.087],[-116.064,38.004],[-116.123,37.92],[-116.173,37.804],[-116.224,37.539],[-116.233,37.411],[-116.23,37.359],[-116.156,37.297],[-116.121,37.295],[-116.105,37.359],[-116.011,37.545],[-115.897,37.718],[-115.848,37.883],[-115.842,37.967],[-115.862,38.034],[-115.906,38.081],[-115.967,38.087]]]}},{"type":"Feature","properties":{"density":3},"geometry":{"type":"Polygon","coordinates":[[[-118.33,45.703],[-118.374,45.668],[-118.372,45.633],[-118.328,45.576],[-118.186,45.523],[-118.15,45.488],[-118.137,45.38],[-118.069,45.271],[-117.962,45.214],[-117.916,45.157],[-117.856,45.126],[-117.766,45.1],[-117.69,45.106],[-117.67,45.178],[-117.712,45.262],[-117.858,45.403],[-117.94,45.523],[-117.984,45.626],[-118.085,45.753],[-118.196,45.767],[-118.269,45.71],[-118.33,45.703]]]}},{"type":"Feature","properties":{"density":3},"geometry":{"type":"Polygon","coordinates":[[[-119.397,43.727],[-119.392,43.777],[-119.357,43.843],[-119.262,43.957],[-119.211,43.992],[-119.108,44.0],[-119.047,43.947],[-119.028,43.896],[-119.018,43.745],[-119.038,43.657],[-119.091,43.607],[-119.135,43.599],[-119.174,43.613],[-119.204,43.659],[-119.25,43.68],[-119.373,43.676],[-119.397,43.727]]]}},{"type":"Feature","properties":{"density":3},"geometry":{"type":"Polygon","coordinates":[[[-119.907,44.631],[-119.948,44.605],[-119.968,44.57],[-119.973,44.484],[-119.929,44.406],[-119.87,44.377],[-119.74,44.379],[-119.556,44.463],[-119.509,44.506],[-119.448,44.612],[-119.45,44.649],[-119.483,44.691],[-119.562,44.702],[-119.76,44.631],[-119.907,44.631]]]}},{"type":"Feature","properties":{"density":3},"geometry":{"type":"Polygon","coordinates":[[[-120.839,44.592],[-120.892,44.544],[-120.908,44.495],[-120.908,44.436],[-120.864,44.344],[-120.73,44.252],[-120.631,44.236],[-120.466,44.289],[-120.418,44.346],[-120.389,44.473],[-120.335,44.596],[-120.232,44.761],[-120.216,44.827],[-120.243,44.897],[-120.275,44.943],[-120.355,44.954],[-120.513,44.893],[-120.587,44.829],[-120.717,44.671],[-120.839,44.592]]]}},{"type":"Feature","properties":{"density":3},"geometry":{"type":"Polygon","coordinates":[[[-121.849,44.807],[-121.889,44.778],[-121.888,44.748],[-121.84,44.693],[-121.614,44.618],[-121.555,44.575],[-121.436,44.55],[-121.381,44.557],[-121.336,44.59],[-121.267,44.71],[-121.212,44.737],[-121.191,44.79],[-121.199,44.855],[-121.239,44.917],[-121.37,44.941],[-121.482,44.936],[-121.849,44.807]]]}},{"type":"Feature","properties":{"density":3},"geometry":{"type":"Polygon","coordinates":[[[-121.517,45.268],[-121.438,45.239],[-121.291,45.231],[-121.226,45.246],[-121.14,45.299],[-121.112,45.36],[-121.094,45.485],[-121.048,45.599],[-121.055,45.647],[-121.129,45.692],[-121.175,45.692],[-121.291,45.562],[-121.493,45.43],[-121.537,45.349],[-121.517,45.268]]]}},{"type":"Feature","properties":{"density":3},"geometry":{"type":"Polygon","coordinates":[[[-120.935,48.207],[-120.981,48.151],[-121.014,48.06],[-120.992,48.005],[-120.928,47.942],[-120.722,47.853],[-120.669,47.853],[-120.653,47.881],[-120.661,47.911],[-120.636,47.953],[-120.531,47.994],[-120.482,48.032],[-120.449,48.085],[-120.446,48.123],[-120.471,48.148],[-120.507,48.148],[-120.598,48.099],[-120.644,48.132],[-120.603,48.264],[-120.636,48.286],[-120.705,48.264],[-120.746,48.192],[-120.782,48.192],[-120.823,48.234],[-120.868,48.234],[-120.935,48.207]]]}},{"type":"Feature","properties":{"density":3},"geometry":{"type":"Polygon","coordinates":[[[-120.055,48.889],[-120.074,48.843],[-120.0,48.727],[-120.005,48.586],[-119.911,48.531],[-119.674,48.52],[-119.597,48.551],[-119.575,48.664],[-119.492,48.76],[-119.462,48.832],[-119.465,48.912],[-119.515,49.005],[-119.658,49.055],[-119.716,49.06],[-119.779,49.044],[-119.914,48.945],[-120.013,48.917],[-120.055,48.889]]]}},{"type":"Feature","properties":{"density":3},"geometry":{"type":"Polygon","coordinates":[[[-119.415,48.322],[-119.418,48.256],[-119.393,48.223],[-119.338,48.206],[-119.076,48.217],[-119.013,48.242],[-118.991,48.291],[-118.994,48.358],[-119.024,48.399],[-119.192,48.49],[-119.286,48.509],[-119.316,48.506],[-119.357,48.471],[-119.407,48.382],[-119.415,48.322]]]}},{"type":"Feature","properties":{"density":3},"geometry":{"type":"Polygon","coordinates":[[[-118.12,48.484],[-118.197,48.476],[-118.228,48.333],[-118.269,48.275],[-118.363,48.198],[-118.368,48.151],[-118.33,48.121],[-118.241,48.123],[-118.123,48.154],[-117.996,48.269],[-117.966,48.322],[-117.8,48.377],[-117.732,48.429],[-117.759,48.498],[-117.831,48.526],[-118.12,48.484]]]}},{"type":"Feature","properties":{"density":3},"geometry":{"type":"Polygon","coordinates":[[[-118.765,48.303],[-118.793,48.314],[-118.812,48.28],[-118.804,48.256],[-118.782,48.236],[-118.732,48.231],[-118.726,48.264],[-118.768,48.316],[-118.765,48.303]]]}},{"type":"Feature","properties":{"density":3},"geometry":{"type":"Polygon","coordinates":[[[-121.251,49.176],[-121.325,49.118],[-121.317,49.074],[-121.215,49.013],[-121.151,48.906],[-121.102,48.859],[-121.041,48.837],[-120.978,48.856],[-120.95,48.903],[-120.947,48.978],[-120.898,49.052],[-120.843,49.077],[-120.823,49.113],[-120.818,49.173],[-120.917,49.25],[-120.989,49.264],[-121.083,49.253],[-121.251,49.176]]]}},{"type":"Feature","properties":{"density":3},"geometry":{"type":"Polygon","coordinates":[[[-120.705,49.052],[-120.774,48.975],[-120.785,48.92],[-120.755,48.878],[-120.589,48.87],[-120.534,48.881],[-120.493,48.917],[-120.498,49.044],[-120.54,49.093],[-120.589,49.113],[-120.625,49.11],[-120.705,49.052]]]}},{"type":"Feature","properties":{"density":3},"geometry":{"type":"Polygon","coordinates":[[[-118.335,50.199],[-118.371,50.147],[-118.378,50.066],[-118.3,49.956],[-118.208,49.942],[-118.171,50.0],[-118.198,50.153],[-118.243,50.205],[-118.292,50.22],[-118.335,50.199]]]}},{"type":"Feature","properties":{"density":3},"geometry":{"type":"Polygon","coordinates":[[[-121.733,50.772],[-121.771,50.753],[-121.763,50.662],[-121.677,50.472],[-121.595,50.389],[-121.308,50.287],[-121.19,50.169],[-121.187,50.067],[-121.206,50.045],[-121.259,50.036],[-121.315,50.059],[-121.369,50.113],[-121.399,50.177],[-121.428,50.199],[-121.454,50.188],[-121.454,50.149],[-121.413,50.1],[-121.263,49.989],[-121.243,49.947],[-121.276,49.852],[-121.361,49.785],[-121.438,49.784],[-121.498,49.824],[-121.708,50.251],[-121.771,50.43],[-122.11,50.665],[-122.119,50.717],[-122.025,50.849],[-122.027,50.929],[-122.085,51.064],[-122.16,51.133],[-122.336,51.191],[-122.507,51.218],[-122.774,51.329],[-122.847,51.373],[-122.89,51.45],[-122.887,51.513],[-122.804,51.579],[-122.576,51.618],[-122.482,51.681],[-122.443,51.761],[-122.377,51.814],[-122.268,51.801],[-122.207,51.731],[-122.195,51.613],[-122.147,51.564],[-121.862,51.566],[-121.68,51.492],[-121.533,51.452],[-121.423,51.277],[-121.327,51.218],[-121.278,51.167],[-121.267,51.105],[-121.305,50.926],[-121.283,50.868],[-121.296,50.803],[-121.364,50.783],[-121.43,50.798],[-121.48,50.789],[-121.523,50.753],[-121.575,50.739],[-121.666,50.769],[-121.733,50.772]]]}},{"type":"Feature","properties":{"density":3},"geometry":{"type":"Polygon","coordinates":[[[-117.283,40.13],[-117.456,40.025],[-117.522,39.901],[-117.544,39.722],[-117.528,39.642],[-117.459,39.588],[-117.393,39.584],[-117.332,39.62],[-117.236,39.852],[-117.084,40.017],[-117.037,40.158],[-117.062,40.218],[-117.112,40.243],[-117.186,40.238],[-117.283,40.13]]]}},{"type":"Feature","properties":{"density":3},"geometry":{"type":"Polygon","coordinates":[[[-103.337,55.636],[-103.38,55.605],[-103.38,55.559],[-103.318,55.522],[-102.789,55.506],[-102.421,55.402],[-102.206,55.32],[-101.975,55.316],[-101.814,55.34],[-101.684,55.419],[-101.479,55.481],[-101.173,55.535],[-100.987,55.597],[-100.921,55.667],[-100.912,55.745],[-101.028,55.824],[-101.206,55.841],[-101.673,55.841],[-102.624,55.708],[-103.337,55.636]]]}},{"type":"Feature","properties":{"density":3},"geometry":{"type":"Polygon","coordinates":[[[-122.855,51.826],[-122.943,51.766],[-122.982,51.656],[-122.94,51.534],[-122.866,51.438],[-122.825,51.22],[-122.75,51.146],[-122.676,51.135],[-122.488,51.168],[-122.326,51.157],[-122.097,51.22],[-121.946,51.193],[-121.866,50.931],[-121.778,50.906],[-121.4,50.947],[-121.21,50.994],[-121.028,51.085],[-120.962,51.168],[-120.813,51.281],[-120.719,51.322],[-120.631,51.41],[-120.615,51.493],[-120.623,51.589],[-120.744,51.658],[-121.265,51.81],[-121.439,51.876],[-121.695,51.945],[-121.885,51.978],[-122.351,51.978],[-122.524,51.956],[-122.67,51.915],[-122.855,51.826]]]}},{"type":"Feature","properties":{"density":3},"geometry":{"type":"Polygon","coordinates":[[[-121.41,50.472],[-121.47,50.337],[-121.41,50.202],[-121.421,50.147],[-121.567,50.037],[-121.578,49.965],[-121.539,49.827],[-121.484,49.767],[-121.393,49.747],[-121.324,49.769],[-121.195,49.877],[-121.087,49.929],[-121.032,49.984],[-120.991,50.067],[-120.977,50.166],[-120.9,50.279],[-120.875,50.365],[-120.919,50.431],[-120.969,50.45],[-121.027,50.447],[-121.145,50.395],[-121.186,50.409],[-121.219,50.442],[-121.236,50.544],[-121.275,50.577],[-121.349,50.579],[-121.393,50.535],[-121.41,50.472]]]}},{"type":"Feature","properties":{"density":3},"geometry":{"type":"Polygon","coordinates":[[[-121.875,50.863],[-121.919,50.847],[-121.964,50.792],[-121.999,50.728],[-122.005,50.646],[-122.005,50.577],[-121.884,50.48],[-121.787,50.497],[-121.729,50.541],[-121.674,50.618],[-121.655,50.734],[-121.677,50.811],[-121.702,50.836],[-121.793,50.866],[-121.875,50.863]]]}},{"type":"Feature","properties":{"density":3},"geometry":{"type":"Polygon","coordinates":[[[-120.96,50.577],[-120.941,50.527],[-120.886,50.472],[-120.792,50.45],[-120.58,50.563],[-120.299,50.629],[-120.197,50.706],[-120.181,50.8],[-120.222,50.874],[-120.296,50.927],[-120.398,50.965],[-120.602,50.979],[-120.69,50.949],[-120.872,50.794],[-120.944,50.712],[-120.96,50.577]]]}},{"type":"Feature","properties":{"density":3},"geometry":{"type":"Polygon","coordinates":[[[-120.698,49.334],[-120.757,49.237],[-120.781,49.083],[-120.759,48.998],[-120.699,48.926],[-120.597,48.882],[-120.506,48.896],[-120.345,48.984],[-120.296,49.056],[-120.227,49.246],[-120.252,49.315],[-120.296,49.361],[-120.398,49.411],[-120.47,49.411],[-120.586,49.392],[-120.698,49.334]]]}},{"type":"Feature","properties":{"density":3},"geometry":{"type":"Polygon","coordinates":[[[-120.106,49.188],[-120.125,49.127],[-120.119,49.028],[-120.048,48.791],[-119.993,48.675],[-119.91,48.582],[-119.745,48.557],[-119.621,48.609],[-119.532,48.692],[-119.295,48.94],[-119.218,49.069],[-119.215,49.16],[-119.244,49.284],[-119.306,49.348],[-119.417,49.372],[-119.527,49.386],[-119.621,49.361],[-119.722,49.279],[-119.795,49.251],[-119.966,49.268],[-120.015,49.257],[-120.106,49.188]]]}},{"type":"Feature","properties":{"density":3},"geometry":{"type":"Polygon","coordinates":[[[-121.004,48.345],[-121.045,48.259],[-121.037,48.121],[-120.91,47.934],[-120.74,47.84],[-120.681,47.821],[-120.629,47.824],[-120.585,47.851],[-120.469,47.997],[-120.409,48.017],[-120.268,48.028],[-120.199,48.077],[-120.196,48.19],[-120.298,48.312],[-120.444,48.436],[-120.646,48.485],[-120.732,48.488],[-120.94,48.397],[-121.004,48.345]]]}},{"type":"Feature","properties":{"density":3},"geometry":{"type":"Polygon","coordinates":[[[-119.207,48.794],[-119.262,48.75],[-119.315,48.62],[-119.337,48.549],[-119.337,48.452],[-119.318,48.375],[-119.233,48.278],[-119.158,48.221],[-119.072,48.193],[-118.987,48.229],[-118.857,48.369],[-118.767,48.598],[-118.772,48.659],[-118.817,48.766],[-118.921,48.821],[-119.045,48.843],[-119.152,48.838],[-119.207,48.794]]]}},{"type":"Feature","properties":{"density":3},"geometry":{"type":"Polygon","coordinates":[[[-118.315,48.981],[-118.429,48.909],[-118.484,48.841],[-118.59,48.648],[-118.627,48.518],[-118.602,48.4],[-118.534,48.221],[-118.447,48.149],[-118.261,48.041],[-118.131,48.066],[-118.013,48.214],[-117.893,48.303],[-117.541,48.419],[-117.188,48.51],[-117.034,48.579],[-116.984,48.686],[-117.089,48.797],[-117.323,48.824],[-117.802,48.802],[-117.979,48.86],[-118.039,48.921],[-118.136,48.981],[-118.21,49.003],[-118.298,48.995],[-118.315,48.981]]]}},{"type":"Feature","properties":{"density":3},"geometry":{"type":"Polygon","coordinates":[[[-116.281,49.829],[-116.372,49.775],[-116.459,49.663],[-116.455,49.589],[-116.418,49.539],[-116.352,49.519],[-115.839,49.651],[-115.612,49.671],[-115.347,49.717],[-115.021,49.833],[-114.934,49.936],[-114.942,50.043],[-115.058,50.126],[-115.252,50.172],[-115.554,50.163],[-115.703,50.139],[-115.851,50.093],[-116.281,49.829]]]}},{"type":"Feature","properties":{"density":3},"geometry":{"type":"Polygon","coordinates":[[[-114.901,48.708],[-114.954,48.609],[-114.988,48.493],[-114.942,48.427],[-114.781,48.411],[-114.57,48.526],[-114.272,48.622],[-113.818,48.733],[-113.661,48.741],[-113.516,48.783],[-113.437,48.899],[-113.516,48.981],[-113.69,49.014],[-114.124,49.002],[-114.388,48.961],[-114.533,48.911],[-114.806,48.791],[-114.901,48.708]]]}},{"type":"Feature","properties":{"density":3},"geometry":{"type":"Polygon","coordinates":[[[-113.239,47.964],[-113.293,47.906],[-113.309,47.824],[-113.272,47.782],[-113.202,47.766],[-113.099,47.811],[-112.958,47.911],[-112.735,48.03],[-112.598,48.047],[-112.334,48.15],[-112.313,48.241],[-112.35,48.32],[-112.499,48.353],[-112.669,48.32],[-113.239,47.964]]]}},{"type":"Feature","properties":{"density":3},"geometry":{"type":"Polygon","coordinates":[[[-118.195,45.812],[-118.359,45.766],[-118.41,45.724],[-118.434,45.618],[-118.401,45.507],[-118.241,45.353],[-118.184,45.261],[-118.197,45.123],[-118.232,45.026],[-118.144,44.863],[-117.986,44.734],[-117.848,44.649],[-117.628,44.581],[-117.407,44.547],[-117.2,44.548],[-117.017,44.605],[-116.889,44.729],[-116.828,44.831],[-116.835,44.944],[-116.896,44.997],[-116.998,45.006],[-117.212,44.973],[-117.422,45.019],[-117.584,45.139],[-117.712,45.3],[-117.79,45.519],[-117.931,45.776],[-118.01,45.834],[-118.081,45.851],[-118.195,45.812]]]}},{"type":"Feature","properties":{"density":3},"geometry":{"type":"Polygon","coordinates":[[[-121.479,45.451],[-121.548,45.395],[-121.572,45.314],[-121.566,45.203],[-121.535,45.122],[-121.436,45.097],[-121.269,45.085],[-121.213,45.01],[-121.293,44.899],[-121.399,44.862],[-121.672,44.831],[-121.727,44.781],[-121.709,44.707],[-121.591,44.607],[-121.535,44.502],[-121.579,44.409],[-121.448,44.217],[-121.287,44.217],[-121.101,44.322],[-120.866,44.849],[-120.655,45.172],[-120.5,45.327],[-119.675,45.643],[-119.594,45.699],[-119.539,45.779],[-119.545,45.897],[-119.613,45.947],[-119.731,45.947],[-120.729,45.816],[-120.89,45.761],[-121.312,45.519],[-121.479,45.451]]]}},{"type":"Feature","properties":{"density":3},"geometry":{"type":"Polygon","coordinates":[[[-120.618,44.793],[-120.779,44.607],[-120.804,44.539],[-120.828,44.415],[-120.76,44.335],[-120.233,44.211],[-120.029,44.099],[-119.774,44.056],[-119.619,44.08],[-119.446,44.173],[-119.346,44.291],[-119.303,44.403],[-119.216,44.521],[-119.086,44.657],[-119.049,44.8],[-119.074,44.917],[-119.16,45.085],[-119.309,45.531],[-119.396,45.581],[-119.582,45.606],[-119.849,45.568],[-120.01,45.525],[-120.27,45.302],[-120.438,45.103],[-120.618,44.793]]]}},{"type":"Feature","properties":{"density":3},"geometry":{"type":"Polygon","coordinates":[[[-119.353,43.87],[-119.483,43.739],[-119.514,43.659],[-119.477,43.566],[-119.353,43.51],[-119.173,43.553],[-119.043,43.609],[-118.633,43.882],[-118.547,43.963],[-118.503,44.043],[-118.528,44.149],[-118.578,44.248],[-118.726,44.279],[-118.888,44.248],[-119.067,44.142],[-119.353,43.87]]]}},{"type":"Feature","properties":{"density":3},"geometry":{"type":"Polygon","coordinates":[[[-118.092,43.766],[-118.038,43.622],[-117.873,43.543],[-117.654,43.502],[-117.526,43.56],[-117.356,43.75],[-117.286,43.907],[-117.133,44.06],[-116.868,44.283],[-116.645,44.51],[-116.567,44.618],[-116.567,44.692],[-116.666,44.738],[-116.831,44.667],[-117.294,44.341],[-117.604,44.217],[-117.757,44.138],[-117.898,44.047],[-118.051,43.861],[-118.092,43.766]]]}},{"type":"Feature","properties":{"density":3},"geometry":{"type":"Polygon","coordinates":[[[-116.309,41.296],[-116.59,41.167],[-117.131,40.804],[-117.408,40.589],[-117.545,40.337],[-117.615,40.039],[-117.632,39.89],[-117.611,39.708],[-117.561,39.584],[-117.45,39.543],[-117.325,39.579],[-117.053,39.832],[-116.098,40.837],[-115.602,41.279],[-115.643,41.391],[-115.8,41.407],[-116.02,41.378],[-116.309,41.296]]]}},{"type":"Feature","properties":{"density":3},"geometry":{"type":"Polygon","coordinates":[[[-116.875,42.988],[-116.933,42.968],[-116.995,42.881],[-116.999,42.815],[-117.032,42.711],[-117.173,42.525],[-117.177,42.401],[-117.14,42.352],[-117.036,42.286],[-116.921,42.327],[-116.793,42.496],[-116.714,42.604],[-116.627,42.827],[-116.656,42.922],[-116.693,42.959],[-116.817,42.997],[-116.875,42.988]]]}},{"type":"Feature","properties":{"density":3},"geometry":{"type":"Polygon","coordinates":[[[-116.146,37.795],[-116.278,37.41],[-116.224,37.332],[-116.141,37.344],[-116.137,37.319],[-116.051,37.373],[-115.807,37.427],[-115.567,37.534],[-115.315,37.687],[-115.187,37.836],[-115.116,37.993],[-115.125,38.142],[-115.278,38.315],[-115.41,38.348],[-115.662,38.307],[-115.761,38.253],[-115.881,38.154],[-116.017,37.989],[-116.146,37.795]]]}},{"type":"Feature","properties":{"density":3},"geometry":{"type":"Polygon","coordinates":[[[-122.391,43.566],[-122.457,43.489],[-122.505,43.347],[-122.628,43.167],[-122.619,43.099],[-122.578,43.079],[-122.244,43.147],[-122.036,43.248],[-122.011,43.287],[-122.029,43.368],[-122.15,43.489],[-122.24,43.542],[-122.31,43.564],[-122.391,43.566]]]}}]}