{"type":"FeatureCollection","features":[{"type":"Feature","properties":{"density":1},"geometry":{"type":"Polygon","coordinates":[[[-81.714,28.433],[-81.783,28.394],[-81.907,28.289],[-82.064,28.276],[-82.191,28.344],[-82.268,28.576],[-82.227,28.606],[-81.995,28.609],[-81.932,28.551],[-81.838,28.557],[-81.769,28.535],[-81.725,28.502],[-81.712,28.463],[-81.714,28.433]]]}},{"type":"Feature","properties":{"density":1},"geometry":{"type":"Polygon","coordinates":[[[-105.119,44.091],[-105.04,43.83],[-105.024,43.793],[-104.991,43.785],[-104.962,43.839],[-104.966,43.917],[-105.019,44.016],[-105.036,44.107],[-105.098,44.161],[-105.139,44.12],[-105.119,44.091]]]}},{"type":"Feature","properties":{"density":1},"geometry":{"type":"Polygon","coordinates":[[[-115.822,42.913],[-115.677,42.851],[-115.52,42.81],[-115.458,42.831],[-115.446,42.884],[-115.458,42.93],[-115.657,43.091],[-115.71,43.161],[-115.731,43.198],[-115.731,43.438],[-115.744,43.488],[-115.843,43.628],[-116.016,43.777],[-116.025,43.872],[-116.107,43.984],[-116.492,44.195],[-116.765,44.29],[-116.975,44.327],[-117.174,44.339],[-117.199,44.31],[-117.199,44.265],[-116.512,43.831],[-116.335,43.599],[-116.099,43.153],[-115.913,42.971],[-115.822,42.913]]]}},{"type":"Feature","properties":{"density":1},"geometry":{"type":"Polygon","coordinates":[[[-114.008,60.829],[-113.743,60.871],[-113.659,60.913],[-113.491,60.913],[-112.933,60.787],[-112.878,60.606],[-112.864,60.285],[-112.947,59.936],[-113.31,59.532],[-113.631,59.044],[-113.966,58.653],[-114.328,58.29],[-115.04,57.523],[-115.57,57.328],[-116.128,57.258],[-116.63,57.369],[-117.188,57.355],[-117.551,57.272],[-117.802,57.174],[-118.151,57.076],[-118.514,56.909],[-118.793,56.839],[-118.96,56.937],[-118.988,57.063],[-118.974,57.23],[-118.821,57.676],[-118.625,58.081],[-118.486,58.29],[-118.235,58.583],[-117.788,58.778],[-117.663,58.792],[-117.37,58.778],[-117.174,58.806],[-116.979,58.876],[-116.575,59.057],[-116.393,59.085],[-115.542,59.532],[-115.528,59.685],[-115.612,59.95],[-115.668,60.076],[-115.849,60.299],[-116.142,60.564],[-116.533,60.857],[-116.867,61.206],[-116.909,61.345],[-116.895,61.443],[-116.7,61.583],[-116.365,61.596],[-116.254,61.569],[-116.184,61.527],[-116.03,61.317],[-115.919,61.122],[-115.779,60.927],[-115.598,60.718],[-115.417,60.578],[-115.193,60.55],[-114.886,60.592],[-114.649,60.704],[-114.37,60.759],[-114.008,60.829]]]}},{"type":"Feature","properties":{"density":1},"geometry":{"type":"Polygon","coordinates":[[[-68.11,36.946],[-68.842,36.716],[-69.868,36.255],[-70.307,35.899],[-71.521,35.104],[-72.065,34.686],[-72.442,34.184],[-72.756,33.66],[-73.111,33.242],[-73.676,32.844],[-74.325,32.572],[-75.037,32.342],[-75.706,32.321],[-77.108,32.551],[-78.385,33.535],[-78.782,34.539],[-79.054,35.146],[-79.264,35.502],[-80.415,36.904],[-81.231,37.846],[-81.586,38.139],[-81.754,38.306],[-82.13,38.578],[-82.633,38.871],[-84.202,40.085],[-84.579,40.419],[-84.746,40.838],[-84.788,41.277],[-84.809,41.738],[-84.893,42.094],[-85.123,42.366],[-85.792,42.617],[-86.085,42.386],[-86.525,42.156],[-87.069,41.654],[-87.299,41.487],[-88.094,41.403],[-88.513,41.549],[-89.685,42.219],[-91.108,42.763],[-91.819,43.161],[-95.774,44.856],[-96.13,45.337],[-96.486,45.881],[-96.8,46.551],[-97.134,47.409],[-97.323,48.56],[-97.427,49.69],[-98.327,52.682],[-98.369,54.984],[-98.285,55.549],[-97.511,57.411],[-97.03,58.332],[-96.59,58.96],[-96.088,59.378],[-95.628,59.504],[-94.916,59.546],[-94.352,59.637],[-93.452,59.825],[-92.573,60.16],[-91.276,60.515],[-90.125,60.662],[-88.283,60.871],[-86.798,61.101],[-84.914,61.478],[-83.62,61.813],[-82.114,62.503],[-80.607,62.692],[-79.226,62.713],[-76.966,62.482],[-76.171,62.127],[-75.208,61.771],[-73.22,60.892],[-72.467,59.992],[-72.069,59.155],[-72.195,58.423],[-73.618,57.418],[-75.162,56.595],[-75.874,56.135],[-78.72,54.503],[-79.222,54.272],[-79.829,53.812],[-80.331,53.331],[-80.854,52.682],[-81.272,52.264],[-81.503,51.908],[-81.775,51.301],[-81.796,50.673],[-81.607,50.171],[-81.189,49.669],[-80.749,49.397],[-80.331,49.376],[-79.891,49.25],[-79.201,49.125],[-78.113,48.057],[-77.987,47.681],[-77.862,47.095],[-77.799,46.572],[-77.966,46.007],[-78.134,45.63],[-78.971,44.898],[-79.18,44.416],[-79.41,44.186],[-79.515,43.935],[-79.87,43.496],[-79.912,43.265],[-79.933,43.035],[-79.808,42.721],[-79.682,42.533],[-79.159,42.052],[-78.113,41.277],[-77.506,41.089],[-76.648,40.943],[-75.832,40.859],[-74.492,40.629],[-73.99,40.691],[-72.107,40.315],[-71.04,40.315],[-70.412,40.378],[-69.345,40.315],[-67.922,40.168],[-67.357,40.168],[-66.917,40.231],[-65.955,40.712],[-64.741,41.529],[-64.26,41.926],[-63.632,42.24],[-63.025,42.449],[-62.544,42.491],[-62.063,42.491],[-61.749,42.219],[-61.539,41.821],[-61.456,41.445],[-61.79,40.733],[-62.272,40.378],[-62.69,40.022],[-63.318,39.541],[-63.904,39.227],[-64.532,38.85],[-65.515,38.306],[-66.352,37.657],[-66.708,37.553],[-67.378,37.218],[-68.11,36.946]]]}},{"type":"Feature","properties":{"density":1},"geometry":{"type":"Polygon","coordinates":[[[-107.256,26.173],[-107.263,26.21],[-107.25,26.231],[-107.198,26.255],[-107.068,26.255],[-106.926,26.22],[-106.848,26.231],[-106.848,26.281],[-106.821,26.324],[-106.733,26.286],[-106.619,26.209],[-106.565,26.139],[-106.554,26.033],[-106.603,25.993],[-106.646,25.995],[-106.725,26.124],[-106.757,26.162],[-106.784,26.164],[-106.881,26.103],[-107.01,26.129],[-107.095,26.118],[-107.154,26.081],[-107.187,26.015],[-107.242,25.995],[-107.272,26.002],[-107.285,26.044],[-107.253,26.145],[-107.256,26.173]]]}},{"type":"Feature","properties":{"density":1},"geometry":{"type":"Polygon","coordinates":[[[-107.138,25.826],[-107.207,25.804],[-107.253,25.732],[-107.252,25.664],[-107.217,25.611],[-107.184,25.6],[-107.154,25.605],[-107.167,25.69],[-107.092,25.763],[-107.088,25.789],[-107.108,25.826],[-107.138,25.826]]]}},{"type":"Feature","properties":{"density":1},"geometry":{"type":"Polygon","coordinates":[[[-106.216,24.465],[-106.299,24.466],[-106.338,24.483],[-106.328,24.496],[-106.26,24.499],[-106.211,24.49],[-106.218,24.476],[-106.216,24.465]]]}},{"type":"Feature","properties":{"density":1},"geometry":{"type":"Polygon","coordinates":[[[-106.466,24.634],[-106.442,24.577],[-106.461,24.525],[-106.501,24.472],[-106.545,24.459],[-106.552,24.529],[-106.485,24.645],[-106.466,24.634]]]}},{"type":"Feature","properties":{"density":1},"geometry":{"type":"Polygon","coordinates":[[[-106.58,24.766],[-106.644,24.692],[-106.731,24.696],[-106.755,24.731],[-106.751,24.769],[-106.725,24.808],[-106.657,24.85],[-106.567,24.848],[-106.552,24.817],[-106.562,24.799],[-106.58,24.766]]]}},{"type":"Feature","properties":{"density":1},"geometry":{"type":"Polygon","coordinates":[[[-109.112,28.722],[-109.046,28.697],[-108.975,28.717],[-108.936,28.81],[-108.842,28.912],[-108.622,29.056],[-108.564,29.136],[-108.553,29.196],[-108.6,29.238],[-108.658,29.238],[-108.743,29.202],[-108.848,29.199],[-109.096,28.89],[-109.118,28.819],[-109.115,28.753],[-109.112,28.722]]]}},{"type":"Feature","properties":{"density":1},"geometry":{"type":"Polygon","coordinates":[[[-108.55,31.252],[-108.523,31.357],[-108.451,31.44],[-108.481,31.305],[-108.523,31.23],[-108.55,31.252]]]}},{"type":"Feature","properties":{"density":1},"geometry":{"type":"Polygon","coordinates":[[[-105.111,22.569],[-105.052,22.497],[-105.045,22.462],[-105.059,22.436],[-105.092,22.449],[-105.12,22.49],[-105.136,22.526],[-105.129,22.547],[-105.111,22.569]]]}},{"type":"Feature","properties":{"density":1},"geometry":{"type":"Polygon","coordinates":[[[-105.173,21.42],[-105.121,21.379],[-105.115,21.34],[-105.209,21.178],[-105.231,21.167],[-105.3,21.203],[-105.316,21.294],[-105.308,21.349],[-105.27,21.429],[-105.204,21.423],[-105.173,21.42]]]}},{"type":"Feature","properties":{"density":1},"geometry":{"type":"Polygon","coordinates":[[[-86.046,15.471],[-85.94,15.558],[-85.841,15.614],[-85.599,15.707],[-85.463,15.8],[-85.401,15.905],[-85.432,16.048],[-85.512,16.16],[-85.729,16.284],[-86.139,16.581],[-86.917,16.659],[-87.035,16.715],[-87.351,16.95],[-88.392,17.645],[-88.606,17.868],[-89.276,18.407],[-89.471,18.64],[-89.741,19.03],[-89.918,19.7],[-90.262,20.639],[-90.531,20.956],[-91.006,21.318],[-91.452,21.746],[-91.573,21.96],[-92.243,22.392],[-92.773,22.616],[-93.163,22.811],[-93.568,23.146],[-93.805,23.592],[-93.624,23.941],[-93.47,23.955],[-93.136,24.067],[-93.08,24.401],[-93.289,24.75],[-93.624,25.015],[-93.749,25.406],[-93.721,25.671],[-93.638,26.089],[-93.275,26.55],[-93.15,26.633],[-92.745,26.815],[-92.229,27.136],[-92.075,27.317],[-91.838,27.54],[-91.531,27.68],[-90.945,28.196],[-90.764,28.433],[-90.499,28.74],[-90.248,28.907],[-89.899,28.977],[-89.536,28.963],[-89.146,28.866],[-88.643,28.573],[-87.946,28.042],[-87.625,27.917],[-86.314,27.247],[-85.602,26.829],[-84.961,26.564],[-84.5,26.494],[-84.151,26.48],[-83.454,26.578],[-83.091,26.787],[-82.896,27.052],[-82.77,27.498],[-82.714,27.945],[-82.728,28.684],[-82.98,29.214],[-83.272,29.661],[-83.998,30.149],[-86.258,31.321],[-87.248,31.516],[-88.532,31.6],[-89.536,31.53],[-90.094,31.405],[-90.764,31.279],[-91.336,31.042],[-91.922,30.763],[-93.352,30.316],[-94.496,29.814],[-95.598,29.242],[-96.142,28.6],[-96.533,27.791],[-96.951,26.843],[-97.077,25.322],[-97.351,24.522],[-97.63,23.536],[-97.779,22.932],[-97.853,22.448],[-97.853,21.955],[-97.723,21.341],[-97.007,19.826],[-96.44,18.942],[-95.947,18.496],[-94.707,17.728],[-94.149,17.338],[-92.977,16.426],[-92.754,16.101],[-92.568,15.598],[-92.615,15.068],[-92.875,14.65],[-93.219,14.529],[-93.554,14.287],[-93.759,13.85],[-93.796,13.218],[-93.61,12.594],[-93.442,12.25],[-93.182,11.841],[-92.708,11.562],[-92.308,11.609],[-92.075,11.832],[-92.038,12.092],[-91.954,12.325],[-91.62,12.511],[-91.201,12.474],[-90.82,12.371],[-90.504,12.455],[-90.057,12.846],[-90.011,13.599],[-89.685,14.008],[-89.453,14.269],[-89.146,14.501],[-88.848,14.668],[-88.532,14.78],[-88.02,15.003],[-87.704,15.087],[-86.635,15.292],[-86.346,15.403],[-86.046,15.471]]]}},{"type":"Feature","properties":{"density":1},"geometry":{"type":"Polygon","coordinates":[[[-110.176,8.349],[-111.034,8.705],[-111.662,9.123],[-112.101,9.667],[-112.122,10.19],[-111.829,11.069],[-111.39,11.613],[-111.013,12.115],[-110.511,12.304],[-110.218,12.178],[-109.988,11.906],[-109.632,11.676],[-109.088,11.843],[-108.942,12.429],[-109.109,12.848],[-109.235,13.287],[-109.611,15.373],[-109.374,15.875],[-109.039,16.447],[-108.76,17.159],[-108.398,18.609],[-107.533,21.03],[-107.323,21.909],[-107.302,23.123],[-107.554,23.667],[-107.867,24.169],[-108.83,25.048],[-109.332,25.529],[-109.709,25.948],[-109.793,26.24],[-109.583,26.638],[-109.228,26.722],[-108.935,26.659],[-108.516,26.366],[-108.056,26.073],[-107.721,25.759],[-106.716,24.671],[-106.151,24.106],[-105.461,23.75],[-104.666,23.374],[-104.122,23.06],[-103.724,22.788],[-103.529,22.383],[-103.403,22.048],[-103.278,21.434],[-103.361,20.849],[-103.682,20.57],[-104.059,20.528],[-104.38,20.653],[-104.784,20.653],[-104.98,20.584],[-105.022,20.332],[-105.008,20.137],[-104.924,19.914],[-104.631,19.593],[-103.794,18.868],[-103.543,18.086],[-103.194,15.952],[-103.013,15.436],[-101.952,14.292],[-101.422,13.636],[-101.004,13.064],[-100.488,12.255],[-100.027,11.571],[-99.72,10.79],[-99.86,9.842],[-100.32,9.172],[-100.99,8.781],[-101.548,8.656],[-103.054,8.739],[-103.571,9.004],[-104.324,9.297],[-104.882,9.59],[-105.831,9.828],[-106.305,9.814],[-106.933,9.674],[-107.281,9.549],[-107.853,9.284],[-108.202,9.032],[-108.579,8.642],[-108.844,8.488],[-109.276,8.391],[-109.5,8.363],[-110.176,8.349]]]}},{"type":"Feature","properties":{"density":1},"geometry":{"type":"Polygon","coordinates":[[[-107.178,26.269],[-107.227,26.264],[-107.266,26.24],[-107.306,26.162],[-107.297,26.066],[-107.249,26.023],[-107.116,26.035],[-106.944,26.171],[-106.918,26.218],[-106.92,26.242],[-106.951,26.259],[-107.105,26.245],[-107.165,26.266],[-107.178,26.269]]]}},{"type":"Feature","properties":{"density":1},"geometry":{"type":"Polygon","coordinates":[[[-107.432,26.289],[-107.449,26.358],[-107.436,26.384],[-107.415,26.389],[-107.39,26.364],[-107.371,26.295],[-107.386,26.282],[-107.426,26.286],[-107.432,26.289]]]}},{"type":"Feature","properties":{"density":1},"geometry":{"type":"Polygon","coordinates":[[[-107.439,26.655],[-107.416,26.713],[-107.378,26.714],[-107.363,26.647],[-107.403,26.586],[-107.429,26.596],[-107.44,26.651],[-107.439,26.655]]]}},{"type":"Feature","properties":{"density":1},"geometry":{"type":"Polygon","coordinates":[[[-106.84,26.567],[-106.725,26.444],[-106.695,26.331],[-106.621,26.185],[-106.601,26.058],[-106.644,26.048],[-106.813,26.121],[-106.905,26.143],[-106.95,26.132],[-107.125,26.029],[-107.261,26.024],[-107.3,26.057],[-107.313,26.123],[-107.305,26.185],[-107.266,26.246],[-107.206,26.272],[-107.057,26.272],[-106.977,26.296],[-106.913,26.365],[-106.913,26.53],[-106.901,26.562],[-106.847,26.569],[-106.84,26.567]]]}},{"type":"Feature","properties":{"density":1},"geometry":{"type":"Polygon","coordinates":[[[-107.458,25.981],[-107.488,25.993],[-107.512,25.978],[-107.514,25.918],[-107.483,25.919],[-107.453,25.941],[-107.455,25.977],[-107.458,25.981]]]}},{"type":"Feature","properties":{"density":1},"geometry":{"type":"Polygon","coordinates":[[[-107.106,25.788],[-107.155,25.793],[-107.167,25.772],[-107.12,25.764],[-107.103,25.784],[-107.106,25.788]]]}},{"type":"Feature","properties":{"density":1},"geometry":{"type":"Polygon","coordinates":[[[-107.168,25.831],[-107.075,25.844],[-107.046,25.791],[-107.073,25.714],[-107.119,25.676],[-107.165,25.666],[-107.223,25.68],[-107.247,25.721],[-107.223,25.805],[-107.181,25.831],[-107.168,25.831]]]}},{"type":"Feature","properties":{"density":1},"geometry":{"type":"Polygon","coordinates":[[[-106.554,24.808],[-106.595,24.821],[-106.645,24.803],[-106.674,24.775],[-106.693,24.712],[-106.647,24.712],[-106.551,24.758],[-106.54,24.782],[-106.55,24.804],[-106.554,24.808]]]}},{"type":"Feature","properties":{"density":1},"geometry":{"type":"Polygon","coordinates":[[[-109.077,28.721],[-109.083,28.866],[-109.057,28.982],[-109.044,29.005],[-108.989,29.015],[-108.942,28.98],[-108.941,28.848],[-108.999,28.727],[-109.07,28.715],[-109.077,28.721]]]}},{"type":"Feature","properties":{"density":1},"geometry":{"type":"Polygon","coordinates":[[[-106.586,24.554],[-106.604,24.575],[-106.594,24.604],[-106.547,24.571],[-106.555,24.553],[-106.582,24.553],[-106.586,24.554]]]}},{"type":"Feature","properties":{"density":1},"geometry":{"type":"Polygon","coordinates":[[[-107.51,25.325],[-107.607,25.411],[-107.607,25.462],[-107.583,25.485],[-107.541,25.492],[-107.499,25.453],[-107.487,25.34],[-107.508,25.325],[-107.51,25.325]]]}},{"type":"Feature","properties":{"density":1},"geometry":{"type":"Polygon","coordinates":[[[-77.457,35.123],[-77.17,35.198],[-77.13,35.197],[-77.105,35.157],[-77.122,35.092],[-77.229,35.067],[-77.453,35.067],[-77.46,35.122],[-77.457,35.123]]]}},{"type":"Feature","properties":{"density":1},"geometry":{"type":"Polygon","coordinates":[[[-76.366,35.486],[-76.324,35.537],[-76.279,35.556],[-76.22,35.566],[-76.183,35.546],[-76.194,35.518],[-76.252,35.493],[-76.339,35.47],[-76.367,35.484],[-76.366,35.486]]]}},{"type":"Feature","properties":{"density":1},"geometry":{"type":"Polygon","coordinates":[[[-99.419,56.688],[-99.374,56.778],[-99.369,56.827],[-99.377,56.859],[-99.455,56.877],[-99.596,56.842],[-100.23,56.758],[-100.668,56.63],[-100.722,56.589],[-100.738,56.508],[-100.72,56.441],[-100.69,56.416],[-100.661,56.337],[-100.673,56.298],[-100.719,56.258],[-100.972,56.21],[-101.02,56.182],[-101.054,56.127],[-101.043,56.028],[-101.021,55.996],[-100.97,55.977],[-100.897,55.965],[-100.813,55.983],[-100.69,56.092],[-100.569,56.272],[-100.203,56.386],[-99.788,56.44],[-99.506,56.605],[-99.428,56.674],[-99.419,56.688]]]}},{"type":"Feature","properties":{"density":1},"geometry":{"type":"Polygon","coordinates":[[[-91.493,51.751],[-91.534,51.883],[-91.51,52.044],[-91.471,52.16],[-91.433,52.207],[-91.381,52.229],[-91.343,52.197],[-91.324,52.145],[-91.32,52.001],[-91.343,51.801],[-91.425,51.751],[-91.484,51.748],[-91.493,51.751]]]}},{"type":"Feature","properties":{"density":1},"geometry":{"type":"Polygon","coordinates":[[[-101.928,55.323],[-101.98,55.38],[-102.125,55.486],[-102.387,55.47],[-102.67,55.501],[-102.757,55.495],[-102.828,55.472],[-102.941,55.462],[-103.073,55.399],[-103.119,55.35],[-103.157,55.205],[-103.138,55.152],[-103.037,55.126],[-102.778,55.15],[-102.526,55.134],[-102.024,55.264],[-101.912,55.27],[-101.899,55.288],[-101.924,55.32],[-101.928,55.323]]]}},{"type":"Feature","properties":{"density":1},"geometry":{"type":"Polygon","coordinates":[[[-84.552,30.053],[-84.602,30.072],[-84.636,30.049],[-84.674,29.956],[-84.671,29.892],[-84.609,29.889],[-84.584,29.906],[-84.56,29.951],[-84.552,30.046],[-84.552,30.053]]]}},{"type":"Feature","properties":{"density":1},"geometry":{"type":"Polygon","coordinates":[[[-107.485,26.334],[-107.519,26.384],[-107.524,26.42],[-107.484,26.446],[-107.432,26.431],[-107.264,26.33],[-107.178,26.32],[-107.079,26.356],[-107.031,26.335],[-107.003,26.295],[-107.0,26.236],[-107.049,26.092],[-107.06,25.973],[-107.137,25.933],[-107.222,25.975],[-107.479,26.327],[-107.485,26.334]]]}},{"type":"Feature","properties":{"density":1},"geometry":{"type":"Polygon","coordinates":[[[-107.175,25.806],[-107.07,25.885],[-107.018,25.903],[-106.982,25.902],[-106.927,25.87],[-106.9,25.818],[-106.919,25.774],[-107.004,25.756],[-107.167,25.739],[-107.192,25.744],[-107.193,25.784],[-107.175,25.806]]]}},{"type":"Feature","properties":{"density":1},"geometry":{"type":"Polygon","coordinates":[[[-106.532,24.345],[-106.489,24.395],[-106.409,24.431],[-106.335,24.431],[-106.304,24.393],[-106.316,24.334],[-106.369,24.308],[-106.477,24.3],[-106.528,24.315],[-106.533,24.336],[-106.532,24.345]]]}},{"type":"Feature","properties":{"density":1},"geometry":{"type":"Polygon","coordinates":[[[-109.084,28.721],[-109.145,28.762],[-109.16,28.795],[-109.146,28.853],[-109.056,28.872],[-108.836,28.838],[-108.828,28.818],[-108.843,28.789],[-108.9,28.736],[-108.997,28.713],[-109.07,28.716],[-109.084,28.721]]]}},{"type":"Feature","properties":{"density":1},"geometry":{"type":"Polygon","coordinates":[[[-99.031,48.31],[-99.094,48.558],[-99.199,48.792],[-99.269,49.095],[-99.321,49.449],[-99.313,49.512],[-99.264,49.603],[-99.126,49.658],[-98.992,49.678],[-98.903,49.656],[-98.791,49.577],[-98.77,49.52],[-98.754,49.347],[-98.791,48.709],[-98.844,48.426],[-98.864,48.351],[-98.913,48.288],[-98.962,48.28],[-99.014,48.294],[-99.031,48.31]]]}},{"type":"Feature","properties":{"density":1},"geometry":{"type":"Polygon","coordinates":[[[-104.573,55.65],[-104.787,55.731],[-104.834,55.812],[-104.825,55.908],[-104.737,55.943],[-104.461,55.922],[-104.426,55.905],[-104.408,55.837],[-104.429,55.753],[-104.494,55.674],[-104.564,55.65],[-104.573,55.65]]]}},{"type":"Feature","properties":{"density":1},"geometry":{"type":"Polygon","coordinates":[[[-81.688,28.461],[-81.714,28.488],[-81.889,28.499],[-81.973,28.488],[-81.998,28.474],[-82.012,28.439],[-81.967,28.4],[-81.872,28.394],[-81.784,28.402],[-81.703,28.428],[-81.689,28.45],[-81.688,28.461]]]}},{"type":"Feature","properties":{"density":1},"geometry":{"type":"Polygon","coordinates":[[[-91.497,51.768],[-91.521,51.947],[-91.463,52.016],[-91.421,52.032],[-91.398,52.025],[-91.372,52.005],[-91.354,51.959],[-91.345,51.815],[-91.392,51.772],[-91.461,51.752],[-91.49,51.76],[-91.497,51.768]]]}},{"type":"Feature","properties":{"density":1},"geometry":{"type":"Polygon","coordinates":[[[-104.57,55.656],[-104.632,55.696],[-104.656,55.74],[-104.626,55.745],[-104.542,55.702],[-104.533,55.669],[-104.566,55.655],[-104.57,55.656]]]}},{"type":"Feature","properties":{"density":1},"geometry":{"type":"Polygon","coordinates":[[[-101.918,55.311],[-101.965,55.355],[-102.066,55.405],[-102.174,55.417],[-102.539,55.28],[-102.569,55.231],[-102.573,55.163],[-102.544,55.124],[-102.497,55.097],[-102.356,55.096],[-102.297,55.114],[-102.098,55.249],[-101.93,55.272],[-101.917,55.306],[-101.918,55.311]]]}},{"type":"Feature","properties":{"density":1},"geometry":{"type":"Polygon","coordinates":[[[-89.956,50.236],[-89.988,50.304],[-90.068,50.609],[-90.099,50.789],[-90.096,50.895],[-90.071,50.964],[-90.033,51.015],[-89.975,51.03],[-89.924,51.005],[-89.868,50.946],[-89.796,50.813],[-89.695,50.552],[-89.676,50.365],[-89.677,50.274],[-89.691,50.247],[-89.724,50.229],[-89.849,50.244],[-89.893,50.219],[-89.94,50.217],[-89.956,50.236]]]}},{"type":"Feature","properties":{"density":1},"geometry":{"type":"Polygon","coordinates":[[[-81.621,47.836],[-81.735,47.87],[-81.887,47.882],[-82.004,47.864],[-82.134,47.826],[-82.251,47.771],[-82.325,47.708],[-82.334,47.667],[-82.311,47.637],[-82.061,47.641],[-81.729,47.76],[-81.626,47.78],[-81.606,47.804],[-81.608,47.827],[-81.621,47.836]]]}},{"type":"Feature","properties":{"density":1},"geometry":{"type":"Polygon","coordinates":[[[-99.673,56.268],[-99.91,56.324],[-100.2,56.357],[-100.429,56.303],[-100.859,56.065],[-101.003,56.047],[-101.084,56.053],[-101.165,56.104],[-101.289,56.257],[-101.342,56.362],[-101.394,56.611],[-101.379,56.768],[-101.349,56.817],[-101.265,56.886],[-100.887,57.0],[-100.584,57.155],[-100.518,57.17],[-100.295,57.327],[-100.123,57.37],[-99.967,57.374],[-99.692,57.32],[-99.613,57.288],[-99.559,57.221],[-99.535,57.144],[-99.53,57.032],[-99.526,56.82],[-99.561,56.672],[-99.571,56.546],[-99.571,56.468],[-99.547,56.379],[-99.576,56.3],[-99.615,56.27],[-99.657,56.265],[-99.673,56.268]]]}},{"type":"Feature","properties":{"density":1},"geometry":{"type":"Polygon","coordinates":[[[-101.92,55.325],[-102.169,55.468],[-102.374,55.534],[-102.488,55.597],[-102.839,55.732],[-103.028,55.763],[-103.082,55.748],[-103.149,55.712],[-103.221,55.615],[-103.214,55.483],[-103.18,55.414],[-103.129,55.358],[-102.854,55.252],[-102.698,55.211],[-102.452,55.207],[-101.919,55.24],[-101.874,55.284],[-101.874,55.299],[-101.915,55.326],[-101.92,55.325]]]}},{"type":"Feature","properties":{"density":1},"geometry":{"type":"Polygon","coordinates":[[[-104.523,56.4],[-104.785,56.451],[-105.208,56.666],[-105.44,56.837],[-105.541,56.946],[-105.551,57.041],[-105.515,57.127],[-105.455,57.163],[-105.276,57.159],[-104.96,57.037],[-104.829,56.97],[-104.553,56.924],[-104.337,56.851],[-104.29,56.789],[-104.265,56.582],[-104.305,56.501],[-104.356,56.459],[-104.496,56.399],[-104.523,56.4]]]}},{"type":"Feature","properties":{"density":1},"geometry":{"type":"Polygon","coordinates":[[[-103.938,56.73],[-104.125,56.83],[-104.167,56.87],[-104.222,56.963],[-104.215,57.05],[-104.088,57.138],[-103.96,57.162],[-103.594,57.204],[-103.535,57.195],[-103.492,57.167],[-103.49,57.128],[-103.528,57.067],[-103.776,56.861],[-103.846,56.755],[-103.884,56.728],[-103.926,56.725],[-103.938,56.73]]]}},{"type":"Feature","properties":{"density":1},"geometry":{"type":"Polygon","coordinates":[[[-104.579,55.641],[-104.701,55.696],[-105.046,55.904],[-105.301,56.01],[-105.571,56.172],[-105.655,56.237],[-105.689,56.311],[-105.677,56.348],[-105.629,56.397],[-105.551,56.426],[-105.504,56.431],[-105.395,56.403],[-105.265,56.334],[-104.998,56.14],[-104.705,55.997],[-104.53,55.892],[-104.465,55.818],[-104.467,55.722],[-104.49,55.677],[-104.574,55.642],[-104.579,55.641]]]}},{"type":"Feature","properties":{"density":1},"geometry":{"type":"Polygon","coordinates":[[[-97.953,51.947],[-97.614,51.897],[-97.138,51.973],[-96.617,52.018],[-96.247,52.135],[-95.837,52.226],[-95.386,52.358],[-94.941,52.439],[-93.627,52.569],[-92.739,52.762],[-91.201,52.89],[-90.427,53.062],[-88.765,53.728],[-87.296,54.434],[-86.031,54.833],[-85.371,55.004],[-84.63,55.061],[-83.821,54.981],[-82.368,54.315],[-81.189,53.085],[-80.181,51.889],[-79.566,50.846],[-78.985,49.514],[-78.455,48.454],[-77.854,46.95],[-77.741,46.233],[-77.559,45.722],[-77.465,45.088],[-77.585,43.773],[-77.5,43.141],[-76.816,42.098],[-76.304,41.705],[-74.868,40.988],[-74.202,40.783],[-73.365,40.646],[-72.564,40.871],[-71.638,41.099],[-70.511,41.193],[-69.623,41.364],[-68.41,41.996],[-67.538,42.32],[-66.667,42.696],[-64.531,43.824],[-63.711,44.132],[-62.618,44.371],[-62.003,44.456],[-61.012,44.456],[-60.414,44.439],[-59.713,44.354],[-58.585,44.08],[-58.141,44.029],[-57.714,43.909],[-57.287,43.534],[-57.133,43.158],[-57.782,41.722],[-58.073,41.124],[-58.944,40.031],[-59.594,39.57],[-62.72,37.212],[-64.702,36.101],[-65.984,35.281],[-69.965,33.777],[-71.263,33.265],[-72.459,32.906],[-73.553,32.496],[-74.578,32.291],[-75.261,32.24],[-75.911,32.052],[-76.579,32.006],[-77.377,31.9],[-77.931,31.877],[-78.384,32.166],[-78.683,32.447],[-78.794,32.875],[-78.85,33.3],[-78.941,33.639],[-79.068,33.928],[-79.316,34.358],[-79.493,34.789],[-80.408,35.849],[-81.798,37.124],[-82.436,37.683],[-83.256,38.286],[-83.802,38.651],[-84.97,39.898],[-86.217,42.222],[-86.952,43.059],[-87.516,43.64],[-88.507,44.409],[-90.437,45.605],[-91.189,45.895],[-92.385,46.22],[-94.179,46.955],[-95.358,47.33],[-96.247,47.382],[-97.75,47.843],[-99.658,48.19],[-100.342,48.247],[-101.64,48.395],[-102.38,48.509],[-102.973,48.657],[-103.337,48.851],[-103.759,49.147],[-104.009,49.591],[-104.055,50.001],[-103.924,51.169],[-103.992,51.87],[-104.602,54.136],[-104.886,54.808],[-105.308,55.401],[-105.752,55.982],[-105.843,56.232],[-106.181,57.554],[-106.181,58.253],[-106.014,58.714],[-105.513,59.346],[-104.83,59.663],[-104.04,59.855],[-103.286,59.62],[-102.501,59.162],[-101.251,59.091],[-100.486,59.106],[-99.632,59.194],[-98.956,59.224],[-97.875,59.229],[-96.635,59.017],[-95.551,58.885],[-95.085,58.86],[-93.83,58.677],[-93.501,58.531],[-93.445,58.404],[-93.47,58.222],[-93.673,58.029],[-93.987,57.918],[-94.412,57.786],[-95.202,57.705],[-96.726,57.591],[-97.364,57.5],[-97.872,57.394],[-98.533,57.166],[-98.806,57.007],[-99.252,56.698],[-99.343,56.521],[-99.515,56.323],[-99.642,56.131],[-99.829,55.594],[-99.875,55.032],[-99.687,54.759],[-99.437,54.487],[-99.063,54.204],[-98.904,53.776],[-98.98,53.278],[-98.844,52.914],[-98.623,52.45],[-98.441,52.23],[-98.213,52.002],[-97.953,51.947]]]}},{"type":"Feature","properties":{"density":1},"geometry":{"type":"Polygon","coordinates":[[[-113.207,60.603],[-113.645,60.668],[-114.211,60.694],[-114.479,60.677],[-114.784,60.602],[-114.941,60.542],[-115.004,60.461],[-115.013,60.38],[-114.987,60.325],[-114.928,60.283],[-114.773,60.221],[-114.553,60.184],[-114.314,60.18],[-114.137,60.212],[-113.939,60.27],[-113.701,60.37],[-113.405,60.433],[-113.217,60.451],[-113.168,60.483],[-113.158,60.507],[-113.154,60.563],[-113.177,60.584],[-113.207,60.603]]]}},{"type":"Feature","properties":{"density":1},"geometry":{"type":"Polygon","coordinates":[[[-112.182,39.295],[-112.122,39.396],[-111.971,39.568],[-111.869,39.656],[-111.701,39.763],[-111.515,39.936],[-110.949,40.305],[-110.874,40.306],[-110.853,40.284],[-110.879,40.089],[-110.936,39.919],[-111.018,39.792],[-111.165,39.661],[-111.578,39.439],[-111.881,39.318],[-112.111,39.178],[-112.194,39.176],[-112.2,39.261],[-112.182,39.295]]]}},{"type":"Feature","properties":{"density":1},"geometry":{"type":"Polygon","coordinates":[[[-109.064,28.708],[-109.174,28.867],[-109.184,28.929],[-109.16,28.955],[-109.014,28.957],[-108.593,28.861],[-108.512,28.793],[-108.494,28.733],[-108.508,28.688],[-108.532,28.673],[-108.925,28.712],[-109.057,28.706],[-109.064,28.708]]]}},{"type":"Feature","properties":{"density":1},"geometry":{"type":"Polygon","coordinates":[[[-107.169,25.806],[-107.152,25.828],[-107.056,25.871],[-106.853,25.883],[-106.793,25.856],[-106.759,25.796],[-106.769,25.752],[-106.801,25.713],[-106.838,25.691],[-106.906,25.685],[-107.155,25.75],[-107.171,25.802],[-107.169,25.806]]]}},{"type":"Feature","properties":{"density":1},"geometry":{"type":"Polygon","coordinates":[[[-107.228,26.132],[-107.142,26.107],[-106.974,26.118],[-106.8,26.182],[-106.774,26.245],[-106.788,26.281],[-107.054,26.502],[-107.202,26.75],[-107.289,26.783],[-107.427,26.797],[-107.463,26.776],[-107.486,26.738],[-107.481,26.654],[-107.445,26.586],[-107.427,26.478],[-107.457,26.311],[-107.4,26.234],[-107.255,26.148],[-107.228,26.132]]]}},{"type":"Feature","properties":{"density":1},"geometry":{"type":"Polygon","coordinates":[[[-96.654,18.76],[-96.912,19.261],[-97.053,19.646],[-97.109,20.086],[-97.129,20.476],[-97.104,20.815],[-97.003,21.038],[-96.699,21.281],[-96.107,21.458],[-95.65,21.647],[-95.25,21.845],[-94.931,22.047],[-94.607,22.169],[-94.252,22.062],[-93.959,21.753],[-93.756,21.409],[-93.518,21.161],[-93.106,21.091],[-92.525,21.479],[-92.201,21.986],[-91.883,22.413],[-91.246,23.111],[-90.965,23.286],[-90.365,23.415],[-89.831,23.568],[-89.371,23.588],[-89.062,23.623],[-88.74,23.491],[-88.588,23.445],[-88.36,23.263],[-88.125,22.99],[-87.781,22.551],[-87.563,22.126],[-87.391,21.66],[-87.276,21.252],[-87.261,20.614],[-87.379,19.947],[-87.433,19.377],[-87.437,18.796],[-87.294,18.48],[-86.717,18.287],[-85.953,18.151],[-85.378,18.16],[-84.818,18.273],[-84.254,18.246],[-83.819,18.028],[-83.581,17.572],[-83.274,16.858],[-83.28,15.851],[-83.553,15.289],[-84.105,14.899],[-84.601,14.749],[-85.068,14.544],[-85.558,14.385],[-86.139,14.305],[-87.114,14.284],[-87.438,14.195],[-87.924,14.271],[-88.539,14.407],[-89.101,14.461],[-90.551,14.818],[-91.128,14.992],[-91.743,15.25],[-92.875,15.82],[-93.345,16.033],[-95.016,16.587],[-95.624,17.27],[-96.003,17.582],[-96.345,17.916],[-96.565,18.379],[-96.611,18.569],[-96.654,18.76]]]}},{"type":"Feature","properties":{"density":1},"geometry":{"type":"Polygon","coordinates":[[[-110.115,24.65],[-110.098,25.055],[-110.048,25.578],[-109.935,26.022],[-109.783,26.32],[-109.361,26.911],[-108.951,27.136],[-108.653,27.22],[-108.349,27.226],[-107.927,27.209],[-107.646,27.119],[-107.325,26.99],[-106.999,26.776],[-106.785,26.602],[-106.571,26.202],[-106.256,25.527],[-106.082,25.207],[-105.407,24.177],[-105.092,23.795],[-104.94,23.57],[-104.617,23.018],[-104.442,22.771],[-104.206,22.388],[-103.88,21.781],[-103.807,21.393],[-103.677,20.842],[-103.655,20.212],[-103.657,18.57],[-104.208,17.507],[-104.542,16.975],[-105.109,16.474],[-105.276,15.973],[-105.322,15.482],[-105.484,15.234],[-105.838,15.102],[-106.334,15.057],[-107.139,15.022],[-107.858,15.143],[-108.48,15.528],[-109.369,16.758],[-109.961,18.284],[-110.242,19.226],[-110.264,19.984],[-110.142,20.577],[-110.131,21.675],[-110.232,22.004],[-110.308,22.321],[-110.388,23.182],[-110.177,23.865],[-110.093,24.228],[-110.109,24.582],[-110.115,24.65]]]}},{"type":"Feature","properties":{"density":1},"geometry":{"type":"Polygon","coordinates":[[[-82.612,29.177],[-82.839,29.176],[-83.095,29.141],[-83.277,29.093],[-83.424,29.016],[-83.457,28.978],[-83.477,28.914],[-83.46,28.878],[-83.399,28.851],[-83.219,28.864],[-82.604,29.093],[-82.562,29.129],[-82.582,29.166],[-82.612,29.177]]]}},{"type":"Feature","properties":{"density":1},"geometry":{"type":"Polygon","coordinates":[[[-103.441,56.423],[-103.599,56.455],[-103.629,56.49],[-103.626,56.534],[-103.541,56.546],[-103.463,56.518],[-103.412,56.453],[-103.431,56.42],[-103.441,56.423]]]}},{"type":"Feature","properties":{"density":2},"geometry":{"type":"Polygon","coordinates":[[[-81.745,28.438],[-81.844,28.386],[-81.946,28.361],[-81.984,28.378],[-82.009,28.438],[-81.987,28.488],[-81.852,28.524],[-81.778,28.513],[-81.742,28.474],[-81.745,28.438]]]}},{"type":"Feature","properties":{"density":2},"geometry":{"type":"Polygon","coordinates":[[[-116.411,43.785],[-116.258,43.562],[-116.06,43.17],[-115.977,43.12],[-115.899,43.103],[-115.865,43.149],[-115.89,43.248],[-116.06,43.579],[-116.266,43.79],[-116.345,43.835],[-116.378,43.835],[-116.411,43.785]]]}},{"type":"Feature","properties":{"density":2},"geometry":{"type":"Polygon","coordinates":[[[-113.231,60.54],[-113.649,60.569],[-113.698,60.56],[-113.752,60.523],[-113.744,60.478],[-113.715,60.453],[-113.62,60.428],[-113.33,60.453],[-113.215,60.498],[-113.231,60.54]]]}},{"type":"Feature","properties":{"density":2},"geometry":{"type":"Polygon","coordinates":[[[-92.562,47.503],[-92.269,47.44],[-91.411,47.377],[-90.7,47.419],[-90.135,47.524],[-89.737,47.566],[-89.277,47.587],[-88.816,47.524],[-88.502,47.356],[-88.126,47.084],[-87.728,46.854],[-87.017,46.017],[-86.933,45.766],[-86.933,45.368],[-87.038,44.95],[-87.289,44.636],[-87.603,44.322],[-88.23,44.197],[-88.9,44.134],[-89.653,44.259],[-90.135,44.406],[-91.62,45.055],[-92.144,45.327],[-93.692,45.745],[-94.215,45.933],[-94.969,46.478],[-95.324,46.77],[-95.492,47.084],[-95.722,47.67],[-95.722,48.005],[-95.659,48.319],[-95.659,48.758],[-95.68,49.135],[-95.785,49.575],[-96.015,49.951],[-95.826,51.688],[-95.617,52.462],[-95.324,52.985],[-94.885,53.509],[-93.922,54.136],[-93.566,54.45],[-91.411,56.103],[-90.62,56.539],[-89.427,57.251],[-88.528,57.711],[-87.649,58.297],[-86.812,58.779],[-86.184,59.176],[-85.41,59.323],[-84.405,59.783],[-83.798,60.327],[-83.045,60.787],[-82.271,60.955],[-81.455,60.871],[-80.262,60.955],[-79.655,60.767],[-79.153,60.285],[-79.111,59.532],[-79.32,58.653],[-79.99,57.711],[-80.492,56.602],[-80.68,55.974],[-80.534,55.409],[-80.387,54.949],[-80.53,54.576],[-80.885,54.136],[-81.492,53.216],[-81.743,52.86],[-82.015,52.525],[-82.225,52.128],[-82.392,51.855],[-82.476,51.542],[-82.706,50.851],[-82.79,50.474],[-82.894,49.658],[-82.831,49.219],[-82.685,48.821],[-82.497,48.57],[-82.183,48.277],[-81.932,48.256],[-81.701,48.214],[-81.534,48.256],[-81.367,48.256],[-80.864,48.11],[-80.551,47.88],[-80.299,47.775],[-79.986,47.712],[-79.693,47.608],[-79.462,47.503],[-79.253,47.377],[-79.086,47.168],[-79.023,46.896],[-79.023,46.729],[-79.525,46.059],[-80.09,45.871],[-80.697,45.787],[-81.053,45.913],[-81.45,46.268],[-81.722,46.436],[-82.141,46.624],[-82.204,46.498],[-82.183,46.205],[-82.12,46.038],[-82.099,45.808],[-82.036,45.473],[-82.036,44.992],[-82.099,44.783],[-82.266,44.72],[-82.371,44.845],[-82.497,45.075],[-82.601,45.348],[-82.727,45.557],[-82.894,45.996],[-83.187,46.687],[-83.627,47.398],[-83.815,47.984],[-83.961,48.34],[-84.024,48.675],[-84.401,49.051],[-84.547,48.863],[-84.547,48.214],[-84.652,47.754],[-84.819,47.628],[-85.091,47.754],[-85.322,47.9],[-85.719,48.57],[-85.908,48.989],[-86.012,49.282],[-86.033,49.512],[-85.991,49.763],[-85.929,50.433],[-85.552,51.458],[-85.217,51.981],[-85.05,52.169],[-84.819,52.755],[-84.715,52.86],[-84.568,53.132],[-84.547,53.383],[-84.61,53.53],[-84.819,53.613],[-85.531,53.111],[-85.677,52.923],[-85.866,52.797],[-86.473,52.567],[-86.745,52.42],[-87.393,52.19],[-88.565,51.625],[-88.984,51.311],[-89.632,51.332],[-89.925,51.353],[-90.197,51.395],[-90.637,51.416],[-91.139,51.416],[-92.729,51.542],[-93.274,51.542],[-93.964,51.395],[-94.487,51.249],[-94.843,50.977],[-94.948,50.642],[-94.989,49.951],[-94.969,49.533],[-94.801,48.738],[-94.487,48.382],[-94.152,48.214],[-93.859,48.089],[-93.148,47.838],[-92.562,47.503]]]}},{"type":"Feature","properties":{"density":2},"geometry":{"type":"Polygon","coordinates":[[[-107.234,26.21],[-107.086,26.232],[-107.023,26.206],[-107.016,26.182],[-107.057,26.162],[-107.17,26.157],[-107.218,26.167],[-107.241,26.19],[-107.234,26.21]]]}},{"type":"Feature","properties":{"density":2},"geometry":{"type":"Polygon","coordinates":[[[-106.821,26.288],[-106.765,26.259],[-106.801,26.256],[-106.822,26.28],[-106.821,26.288]]]}},{"type":"Feature","properties":{"density":2},"geometry":{"type":"Polygon","coordinates":[[[-107.128,25.807],[-107.182,25.782],[-107.134,25.767],[-107.125,25.798],[-107.128,25.807]]]}},{"type":"Feature","properties":{"density":2},"geometry":{"type":"Polygon","coordinates":[[[-105.107,22.55],[-105.078,22.477],[-105.107,22.488],[-105.124,22.541],[-105.107,22.55]]]}},{"type":"Feature","properties":{"density":2},"geometry":{"type":"Polygon","coordinates":[[[-107.202,26.232],[-107.101,26.203],[-107.068,26.177],[-107.06,26.146],[-107.076,26.107],[-107.163,26.081],[-107.229,26.105],[-107.248,26.132],[-107.247,26.164],[-107.211,26.227],[-107.202,26.232]]]}},{"type":"Feature","properties":{"density":2},"geometry":{"type":"Polygon","coordinates":[[[-106.81,26.287],[-106.755,26.26],[-106.745,26.23],[-106.816,26.248],[-106.827,26.261],[-106.818,26.284],[-106.81,26.287]]]}},{"type":"Feature","properties":{"density":2},"geometry":{"type":"Polygon","coordinates":[[[-107.417,26.291],[-107.433,26.322],[-107.414,26.338],[-107.402,26.305],[-107.415,26.29],[-107.417,26.291]]]}},{"type":"Feature","properties":{"density":2},"geometry":{"type":"Polygon","coordinates":[[[-99.584,56.806],[-99.642,56.799],[-99.785,56.716],[-99.928,56.662],[-100.614,56.595],[-100.641,56.561],[-100.645,56.468],[-100.582,56.43],[-100.303,56.41],[-100.119,56.466],[-99.928,56.465],[-99.799,56.493],[-99.603,56.59],[-99.505,56.689],[-99.488,56.756],[-99.524,56.794],[-99.559,56.802],[-99.584,56.806]]]}},{"type":"Feature","properties":{"density":2},"geometry":{"type":"Polygon","coordinates":[[[-91.425,51.795],[-91.445,51.815],[-91.479,51.917],[-91.449,52.059],[-91.41,52.087],[-91.35,52.046],[-91.337,51.926],[-91.358,51.798],[-91.421,51.793],[-91.425,51.795]]]}},{"type":"Feature","properties":{"density":2},"geometry":{"type":"Polygon","coordinates":[[[-101.93,55.312],[-102.039,55.393],[-102.147,55.41],[-102.172,55.398],[-102.202,55.351],[-102.307,55.34],[-102.333,55.307],[-102.304,55.282],[-102.148,55.264],[-101.995,55.284],[-101.918,55.277],[-101.91,55.293],[-101.926,55.307],[-101.93,55.312]]]}},{"type":"Feature","properties":{"density":2},"geometry":{"type":"Polygon","coordinates":[[[-107.173,26.259],[-107.252,26.231],[-107.276,26.197],[-107.152,26.203],[-107.115,26.249],[-107.159,26.261],[-107.173,26.259]]]}},{"type":"Feature","properties":{"density":2},"geometry":{"type":"Polygon","coordinates":[[[-107.44,26.33],[-107.397,26.349],[-107.38,26.303],[-107.418,26.303],[-107.441,26.328],[-107.44,26.33]]]}},{"type":"Feature","properties":{"density":2},"geometry":{"type":"Polygon","coordinates":[[[-104.573,55.661],[-104.741,55.752],[-104.782,55.833],[-104.771,55.868],[-104.685,55.889],[-104.484,55.771],[-104.476,55.706],[-104.502,55.676],[-104.558,55.655],[-104.573,55.661]]]}},{"type":"Feature","properties":{"density":2},"geometry":{"type":"Polygon","coordinates":[[[-91.405,51.805],[-91.421,51.881],[-91.395,51.918],[-91.371,51.894],[-91.363,51.809],[-91.373,51.797],[-91.403,51.804],[-91.405,51.805]]]}},{"type":"Feature","properties":{"density":2},"geometry":{"type":"Polygon","coordinates":[[[-101.935,55.302],[-102.057,55.37],[-102.094,55.372],[-102.071,55.341],[-101.986,55.301],[-101.94,55.289],[-101.935,55.3],[-101.935,55.302]]]}},{"type":"Feature","properties":{"density":2},"geometry":{"type":"Polygon","coordinates":[[[-91.486,51.764],[-91.514,51.839],[-91.523,51.925],[-91.511,52.007],[-91.52,52.228],[-91.463,52.414],[-91.439,52.449],[-91.355,52.495],[-91.262,52.486],[-91.031,52.426],[-90.906,52.371],[-90.83,52.269],[-90.813,52.176],[-90.843,52.113],[-90.909,52.038],[-91.267,51.771],[-91.394,51.743],[-91.479,51.757],[-91.486,51.764]]]}},{"type":"Feature","properties":{"density":2},"geometry":{"type":"Polygon","coordinates":[[[-99.692,56.284],[-99.914,56.358],[-100.154,56.413],[-100.413,56.42],[-100.802,56.398],[-101.01,56.417],[-101.221,56.494],[-101.289,56.603],[-101.288,56.653],[-101.27,56.685],[-101.068,56.816],[-100.868,56.915],[-100.772,56.935],[-100.506,57.111],[-100.404,57.13],[-100.27,57.122],[-100.087,57.061],[-100.036,57.028],[-100.01,56.999],[-99.958,56.801],[-99.913,56.737],[-99.817,56.659],[-99.649,56.477],[-99.581,56.429],[-99.565,56.371],[-99.59,56.306],[-99.68,56.287],[-99.692,56.284]]]}},{"type":"Feature","properties":{"density":2},"geometry":{"type":"Polygon","coordinates":[[[-101.923,55.316],[-102.014,55.366],[-102.113,55.396],[-102.709,55.537],[-102.784,55.567],[-102.848,55.577],[-102.895,55.544],[-102.92,55.476],[-102.918,55.383],[-102.852,55.296],[-102.79,55.278],[-102.594,55.264],[-102.412,55.225],[-102.157,55.217],[-101.93,55.252],[-101.909,55.28],[-101.919,55.313],[-101.923,55.316]]]}},{"type":"Feature","properties":{"density":2},"geometry":{"type":"Polygon","coordinates":[[[-104.455,56.441],[-104.399,56.476],[-104.354,56.543],[-104.351,56.565],[-104.416,56.635],[-104.579,56.676],[-104.706,56.667],[-104.738,56.639],[-104.755,56.567],[-104.711,56.478],[-104.654,56.444],[-104.57,56.423],[-104.468,56.431],[-104.455,56.441]]]}},{"type":"Feature","properties":{"density":2},"geometry":{"type":"Polygon","coordinates":[[[-103.943,56.755],[-103.98,56.815],[-104.002,56.915],[-103.985,56.94],[-103.943,56.958],[-103.801,56.986],[-103.785,56.946],[-103.803,56.902],[-103.893,56.762],[-103.925,56.744],[-103.941,56.752],[-103.943,56.755]]]}},{"type":"Feature","properties":{"density":2},"geometry":{"type":"Polygon","coordinates":[[[-104.579,55.656],[-104.961,55.905],[-104.968,55.99],[-104.88,56.004],[-104.627,55.87],[-104.504,55.741],[-104.498,55.682],[-104.561,55.649],[-104.579,55.656]]]}},{"type":"Feature","properties":{"density":2},"geometry":{"type":"Polygon","coordinates":[[[-113.202,60.582],[-113.315,60.582],[-113.839,60.645],[-114.386,60.638],[-114.644,60.586],[-114.667,60.57],[-114.682,60.487],[-114.467,60.469],[-113.305,60.451],[-113.224,60.456],[-113.177,60.489],[-113.17,60.55],[-113.186,60.579],[-113.202,60.582]]]}},{"type":"Feature","properties":{"density":2},"geometry":{"type":"Polygon","coordinates":[[[-109.065,28.724],[-109.059,28.807],[-109.019,28.842],[-108.837,28.824],[-108.781,28.802],[-108.787,28.773],[-109.007,28.708],[-109.061,28.717],[-109.065,28.724]]]}},{"type":"Feature","properties":{"density":2},"geometry":{"type":"Polygon","coordinates":[[[-107.256,26.225],[-107.171,26.269],[-107.15,26.271],[-107.127,26.246],[-107.146,26.195],[-107.198,26.176],[-107.247,26.185],[-107.255,26.219],[-107.256,26.225]]]}},{"type":"Feature","properties":{"density":2},"geometry":{"type":"Polygon","coordinates":[[[-107.145,25.784],[-107.045,25.834],[-106.997,25.836],[-106.977,25.817],[-107.009,25.783],[-107.098,25.763],[-107.146,25.759],[-107.146,25.783],[-107.145,25.784]]]}},{"type":"Feature","properties":{"density":2},"geometry":{"type":"Polygon","coordinates":[[[-94.686,18.335],[-94.617,18.199],[-94.041,17.925],[-93.558,17.793],[-93.448,17.78],[-93.305,17.812],[-93.204,17.854],[-93.105,17.976],[-93.086,18.11],[-93.093,18.168],[-93.293,18.598],[-93.383,18.983],[-93.455,19.126],[-93.578,19.263],[-93.798,19.451],[-94.006,19.593],[-94.206,19.663],[-94.298,19.673],[-94.466,19.65],[-94.543,19.62],[-94.603,19.55],[-94.653,19.443],[-94.633,19.15],[-94.583,18.933],[-94.586,18.855],[-94.613,18.655],[-94.699,18.416],[-94.686,18.335]]]}},{"type":"Feature","properties":{"density":3},"geometry":{"type":"Polygon","coordinates":[[[-107.22,26.201],[-107.168,26.213],[-107.116,26.202],[-107.228,26.188],[-107.22,26.201]]]}},{"type":"Feature","properties":{"density":3},"geometry":{"type":"Polygon","coordinates":[[[-107.207,26.202],[-107.107,26.19],[-107.103,26.172],[-107.195,26.172],[-107.216,26.183],[-107.21,26.2],[-107.207,26.202]]]}},{"type":"Feature","properties":{"density":3},"geometry":{"type":"Polygon","coordinates":[[[-91.409,51.805],[-91.451,51.858],[-91.46,51.902],[-91.429,51.972],[-91.392,51.993],[-91.359,51.955],[-91.354,51.89],[-91.369,51.799],[-91.405,51.803],[-91.409,51.805]]]}},{"type":"Feature","properties":{"density":3},"geometry":{"type":"Polygon","coordinates":[[[-101.934,55.302],[-102.016,55.348],[-102.088,55.331],[-102.195,55.333],[-102.209,55.312],[-102.198,55.28],[-102.154,55.271],[-101.935,55.297],[-101.934,55.302]]]}},{"type":"Feature","properties":{"density":3},"geometry":{"type":"Polygon","coordinates":[[[-104.562,55.676],[-104.55,55.742],[-104.498,55.749],[-104.516,55.687],[-104.545,55.664],[-104.562,55.674],[-104.562,55.676]]]}},{"type":"Feature","properties":{"density":3},"geometry":{"type":"Polygon","coordinates":[[[-91.411,51.811],[-91.449,51.934],[-91.461,52.078],[-91.43,52.215],[-91.371,52.306],[-91.243,52.371],[-91.145,52.37],[-91.029,52.331],[-90.975,52.276],[-90.945,52.212],[-90.932,52.178],[-90.94,52.141],[-91.11,52.002],[-91.207,51.88],[-91.258,51.846],[-91.295,51.775],[-91.361,51.772],[-91.407,51.803],[-91.411,51.811]]]}},{"type":"Feature","properties":{"density":3},"geometry":{"type":"Polygon","coordinates":[[[-99.718,56.316],[-100.015,56.427],[-100.257,56.545],[-100.566,56.799],[-100.674,56.86],[-100.719,56.921],[-100.725,56.974],[-100.674,57.004],[-100.572,57.005],[-100.374,56.948],[-100.116,56.828],[-99.795,56.545],[-99.659,56.468],[-99.596,56.413],[-99.575,56.372],[-99.576,56.342],[-99.599,56.32],[-99.659,56.3],[-99.704,56.314],[-99.718,56.316]]]}},{"type":"Feature","properties":{"density":3},"geometry":{"type":"Polygon","coordinates":[[[-101.927,55.306],[-102.121,55.35],[-102.335,55.356],[-102.616,55.396],[-102.671,55.389],[-102.692,55.34],[-102.658,55.296],[-102.593,55.274],[-102.314,55.233],[-102.174,55.237],[-101.945,55.272],[-101.92,55.29],[-101.925,55.304],[-101.927,55.306]]]}}]}