{"type":"FeatureCollection","features":[{"type":"Feature","properties":{"density":1},"geometry":{"type":"Polygon","coordinates":[[[-90.686,14.363],[-90.597,13.875],[-90.73,13.386],[-90.863,13.076],[-90.863,12.232],[-91.263,11.388],[-91.84,10.9],[-93.039,10.189],[-94.638,9.523],[-97.169,8.679],[-98.324,8.368],[-99.523,8.191],[-100.367,8.501],[-100.855,9.079],[-100.989,9.567],[-100.944,10.1],[-100.633,10.766],[-99.878,11.743],[-99.035,12.054],[-98.013,12.276],[-97.391,12.365],[-96.77,12.809],[-96.237,13.253],[-95.837,13.964],[-95.526,15.118],[-95.304,15.829],[-95.171,16.539],[-95.349,17.028],[-95.704,17.25],[-96.326,17.916],[-96.859,18.804],[-96.77,19.47],[-96.459,19.826],[-97.258,20.225],[-98.635,21.158],[-98.768,22.002],[-98.857,23.023],[-98.546,24.089],[-98.058,25.11],[-97.525,25.91],[-97.214,25.954],[-96.77,25.732],[-96.281,24.711],[-96.326,23.823],[-96.414,22.979],[-96.281,22.135],[-95.659,21.602],[-94.905,21.247],[-94.46,21.158],[-93.528,20.847],[-92.906,20.669],[-92.418,20.27],[-92.24,20.092],[-91.974,19.692],[-91.663,19.604],[-91.13,19.692],[-90.73,19.559],[-90.597,19.071],[-89.842,18.183],[-89.309,17.428],[-87.799,16.495],[-86.511,16.362],[-85.534,16.495],[-84.913,16.362],[-84.113,16.095],[-83.536,15.74],[-83.314,15.163],[-83.314,14.719],[-83.936,14.719],[-84.113,14.763],[-84.735,15.651],[-85.534,15.74],[-86.289,15.607],[-87.133,15.518],[-87.755,15.163],[-88.376,15.074],[-88.865,14.941],[-89.531,14.985],[-90.197,15.474],[-90.73,15.74],[-90.997,15.962],[-91.263,16.14],[-91.663,16.539],[-92.018,16.806],[-92.373,16.984],[-92.995,17.428],[-93.128,17.383],[-93.128,16.984],[-92.773,16.806],[-92.329,16.717],[-91.796,16.406],[-91.752,15.962],[-91.885,15.562],[-92.284,15.474],[-92.862,15.873],[-93.173,16.184],[-93.528,16.317],[-93.439,16.007],[-92.773,15.518],[-91.885,15.074],[-91.352,14.63],[-91.041,14.497],[-90.908,14.497],[-90.775,14.452],[-90.686,14.363]]]}},{"type":"Feature","properties":{"density":1},"geometry":{"type":"Polygon","coordinates":[[[-83.936,26.124],[-83.538,26.181],[-82.686,26.152],[-81.975,25.896],[-81.293,25.726],[-80.611,25.299],[-80.014,24.873],[-79.758,24.475],[-78.991,23.85],[-78.536,23.282],[-78.138,22.912],[-78.223,22.571],[-78.564,22.258],[-79.048,22.173],[-79.275,22.315],[-79.9,22.088],[-80.099,21.917],[-80.412,21.235],[-80.44,20.809],[-80.27,20.127],[-80.355,19.217],[-80.639,18.421],[-81.094,17.711],[-81.89,17.171],[-82.742,17.0],[-84.306,17.029],[-86.608,17.995],[-87.318,18.933],[-88.029,20.155],[-89.649,21.69],[-90.757,23.111],[-92.861,24.873],[-93.77,26.379],[-94.424,28.54],[-94.964,29.932],[-94.765,30.7],[-94.225,31.24],[-93.713,31.268],[-92.775,30.7],[-92.491,30.472],[-91.354,30.103],[-90.558,30.16],[-90.246,30.7],[-90.047,31.097],[-89.706,31.609],[-89.279,31.979],[-88.938,32.32],[-88.427,32.433],[-88.313,32.49],[-88.029,32.49],[-87.716,32.234],[-87.858,31.836],[-88.086,31.524],[-88.54,31.012],[-88.512,30.643],[-88.256,30.557],[-87.375,30.557],[-85.869,30.415],[-85.698,30.359],[-85.243,30.131],[-84.817,29.648],[-84.647,29.307],[-84.476,28.653],[-84.306,28.198],[-84.22,27.63],[-84.135,27.204],[-84.192,26.522],[-84.192,26.237],[-83.936,26.124]]]}},{"type":"Feature","properties":{"density":1},"geometry":{"type":"Polygon","coordinates":[[[-96.374,15.16],[-96.316,14.724],[-96.418,14.462],[-96.724,13.836],[-96.913,13.676],[-97.335,13.53],[-98.019,13.501],[-98.543,13.603],[-99.328,13.807],[-100.056,14.404],[-100.143,14.957],[-100.434,15.553],[-100.653,15.786],[-101.031,16.062],[-101.831,16.528],[-102.239,16.863],[-102.719,17.212],[-103.461,17.489],[-103.694,17.823],[-103.592,18.143],[-103.359,18.347],[-102.923,18.42],[-102.282,18.274],[-101.191,17.823],[-99.518,16.674],[-98.805,16.31],[-97.902,15.946],[-97.422,15.888],[-96.971,15.801],[-96.665,15.67],[-96.476,15.568],[-96.374,15.16]]]}},{"type":"Feature","properties":{"density":1},"geometry":{"type":"Polygon","coordinates":[[[-96.41,19.424],[-96.454,19.331],[-96.486,19.299],[-96.518,19.299],[-96.564,19.372],[-96.552,19.441],[-96.435,19.448],[-96.41,19.424]]]}},{"type":"Feature","properties":{"density":1},"geometry":{"type":"Polygon","coordinates":[[[-96.152,18.506],[-96.103,18.423],[-96.061,18.42],[-96.025,18.442],[-96.017,18.467],[-96.039,18.498],[-96.137,18.518],[-96.152,18.506]]]}},{"type":"Feature","properties":{"density":1},"geometry":{"type":"Polygon","coordinates":[[[-92.18,18.508],[-92.18,18.633],[-92.204,18.669],[-92.328,18.718],[-92.56,18.713],[-92.809,18.674],[-92.971,18.63],[-93.637,18.279],[-93.735,18.191],[-93.805,18.103],[-93.793,18.015],[-93.727,17.978],[-93.442,17.978],[-93.076,18.064],[-92.785,18.271],[-92.577,18.379],[-92.194,18.493],[-92.18,18.508]]]}},{"type":"Feature","properties":{"density":1},"geometry":{"type":"Polygon","coordinates":[[[-92.919,17.746],[-93.239,17.668],[-93.674,17.524],[-93.852,17.405],[-93.901,17.405],[-93.93,17.422],[-93.918,17.461],[-93.803,17.551],[-93.498,17.712],[-93.263,17.771],[-92.909,17.768],[-92.919,17.746]]]}},{"type":"Feature","properties":{"density":1},"geometry":{"type":"Polygon","coordinates":[[[-93.19,17.903],[-93.688,17.871],[-93.92,17.834],[-94.064,17.776],[-94.113,17.61],[-94.113,17.505],[-94.086,17.424],[-94.05,17.4],[-93.986,17.402],[-93.784,17.483],[-93.542,17.663],[-93.376,17.744],[-93.132,17.815],[-93.102,17.839],[-93.295,17.815],[-93.305,17.827],[-93.185,17.878],[-93.19,17.903]]]}},{"type":"Feature","properties":{"density":1},"geometry":{"type":"Polygon","coordinates":[[[-92.619,18.882],[-92.814,18.869],[-93.012,18.811],[-93.29,18.674],[-93.354,18.606],[-93.312,18.53],[-93.193,18.481],[-93.09,18.491],[-92.9,18.547],[-92.812,18.616],[-92.607,18.867],[-92.619,18.882]]]}},{"type":"Feature","properties":{"density":1},"geometry":{"type":"Polygon","coordinates":[[[-94.4,16.432],[-94.363,16.422],[-94.347,16.352],[-94.357,16.235],[-94.423,16.182],[-94.49,16.164],[-94.523,16.174],[-94.529,16.211],[-94.493,16.307],[-94.408,16.432],[-94.4,16.432]]]}},{"type":"Feature","properties":{"density":1},"geometry":{"type":"Polygon","coordinates":[[[-94.324,16.26],[-94.423,16.203],[-94.501,16.088],[-94.499,15.908],[-94.462,15.899],[-94.372,15.957],[-94.312,16.082],[-94.298,16.176],[-94.306,16.258],[-94.324,16.26]]]}},{"type":"Feature","properties":{"density":1},"geometry":{"type":"Polygon","coordinates":[[[-94.226,16.36],[-94.224,16.317],[-94.242,16.282],[-94.259,16.283],[-94.261,16.326],[-94.234,16.373],[-94.226,16.36]]]}},{"type":"Feature","properties":{"density":1},"geometry":{"type":"Polygon","coordinates":[[[-99.028,22.797],[-99.105,22.895],[-99.111,22.952],[-99.069,22.916],[-99.027,22.8],[-99.028,22.797]]]}},{"type":"Feature","properties":{"density":1},"geometry":{"type":"Polygon","coordinates":[[[-98.424,25.953],[-98.481,26.001],[-98.59,26.146],[-98.609,26.291],[-98.604,26.351],[-98.574,26.38],[-98.527,26.357],[-98.422,26.029],[-98.412,25.955],[-98.424,25.953]]]}},{"type":"Feature","properties":{"density":1},"geometry":{"type":"Polygon","coordinates":[[[-90.415,29.641],[-90.626,29.672],[-90.757,29.725],[-90.764,29.752],[-90.753,29.774],[-90.663,29.772],[-90.542,29.734],[-90.407,29.647],[-90.415,29.641]]]}},{"type":"Feature","properties":{"density":1},"geometry":{"type":"Polygon","coordinates":[[[-88.884,30.639],[-88.887,30.674],[-88.946,30.707],[-88.977,30.697],[-88.997,30.65],[-88.956,30.52],[-89.001,30.377],[-88.975,30.342],[-88.94,30.342],[-88.911,30.375],[-88.86,30.473],[-88.856,30.537],[-88.885,30.625],[-88.884,30.639]]]}},{"type":"Feature","properties":{"density":1},"geometry":{"type":"Polygon","coordinates":[[[-88.848,31.52],[-88.815,31.572],[-88.817,31.609],[-88.839,31.656],[-88.868,31.664],[-88.895,31.594],[-88.868,31.524],[-88.848,31.52]]]}},{"type":"Feature","properties":{"density":1},"geometry":{"type":"Polygon","coordinates":[[[-88.553,31.15],[-88.667,31.195],[-88.688,31.236],[-88.688,31.295],[-88.641,31.309],[-88.592,31.256],[-88.563,31.168],[-88.553,31.15]]]}},{"type":"Feature","properties":{"density":1},"geometry":{"type":"Polygon","coordinates":[[[-88.403,31.483],[-88.274,31.539],[-88.27,31.58],[-88.305,31.586],[-88.344,31.565],[-88.405,31.498],[-88.403,31.483]]]}},{"type":"Feature","properties":{"density":1},"geometry":{"type":"Polygon","coordinates":[[[-87.786,31.367],[-87.842,31.486],[-87.893,31.52],[-87.915,31.512],[-87.926,31.399],[-87.905,31.332],[-87.854,31.279],[-87.737,31.258],[-87.729,31.303],[-87.766,31.348],[-87.786,31.367]]]}},{"type":"Feature","properties":{"density":1},"geometry":{"type":"Polygon","coordinates":[[[-86.596,31.147],[-86.735,31.125],[-86.919,31.149],[-87.036,31.178],[-87.069,31.225],[-87.059,31.254],[-87.024,31.266],[-86.889,31.281],[-86.663,31.234],[-86.61,31.199],[-86.592,31.164],[-86.596,31.147]]]}},{"type":"Feature","properties":{"density":1},"geometry":{"type":"Polygon","coordinates":[[[-85.176,31.902],[-85.249,31.897],[-85.29,31.91],[-85.303,31.934],[-85.241,31.951],[-85.171,31.914],[-85.176,31.902]]]}},{"type":"Feature","properties":{"density":1},"geometry":{"type":"Polygon","coordinates":[[[-84.983,32.352],[-85.012,32.377],[-85.108,32.381],[-85.13,32.367],[-85.135,32.342],[-85.118,32.324],[-85.01,32.293],[-84.94,32.301],[-84.971,32.34],[-84.983,32.352]]]}},{"type":"Feature","properties":{"density":1},"geometry":{"type":"Polygon","coordinates":[[[-84.028,30.871],[-84.04,30.84],[-84.126,30.77],[-84.29,30.664],[-84.325,30.65],[-84.354,30.67],[-84.354,30.717],[-84.3,30.848],[-84.219,30.893],[-84.134,30.906],[-84.032,30.889],[-84.028,30.871]]]}},{"type":"Feature","properties":{"density":1},"geometry":{"type":"Polygon","coordinates":[[[-83.911,31.188],[-84.034,31.209],[-84.057,31.238],[-84.042,31.258],[-83.913,31.223],[-83.911,31.188]]]}},{"type":"Feature","properties":{"density":1},"geometry":{"type":"Polygon","coordinates":[[[-83.512,30.715],[-83.731,30.363],[-83.766,30.379],[-83.792,30.443],[-83.731,30.631],[-83.649,30.703],[-83.55,30.731],[-83.514,30.725],[-83.512,30.715]]]}},{"type":"Feature","properties":{"density":1},"geometry":{"type":"Polygon","coordinates":[[[-83.604,30.67],[-83.669,30.68],[-83.735,30.662],[-83.792,30.639],[-83.821,30.594],[-83.807,30.563],[-83.719,30.557],[-83.602,30.649],[-83.604,30.67]]]}},{"type":"Feature","properties":{"density":1},"geometry":{"type":"Polygon","coordinates":[[[-82.967,31.522],[-83.063,31.5],[-83.141,31.502],[-83.21,31.525],[-83.272,31.602],[-83.274,31.678],[-83.219,31.721],[-83.04,31.608],[-82.981,31.541],[-82.967,31.522]]]}},{"type":"Feature","properties":{"density":1},"geometry":{"type":"Polygon","coordinates":[[[-82.247,31.768],[-82.313,31.695],[-82.342,31.68],[-82.368,31.69],[-82.376,31.707],[-82.362,31.729],[-82.259,31.779],[-82.247,31.768]]]}},{"type":"Feature","properties":{"density":1},"geometry":{"type":"Polygon","coordinates":[[[-81.94,29.627],[-81.977,29.621],[-82.042,29.578],[-82.089,29.516],[-82.102,29.471],[-82.089,29.445],[-82.007,29.434],[-81.926,29.455],[-81.844,29.522],[-81.837,29.58],[-81.923,29.623],[-81.94,29.627]]]}},{"type":"Feature","properties":{"density":1},"geometry":{"type":"Polygon","coordinates":[[[-82.518,32.611],[-82.746,32.621],[-82.879,32.648],[-82.893,32.693],[-82.811,32.724],[-82.615,32.701],[-82.525,32.672],[-82.512,32.619],[-82.518,32.611]]]}},{"type":"Feature","properties":{"density":1},"geometry":{"type":"Polygon","coordinates":[[[-83.229,32.593],[-83.369,32.64],[-83.393,32.662],[-83.4,32.722],[-83.342,32.715],[-83.225,32.597],[-83.229,32.593]]]}},{"type":"Feature","properties":{"density":1},"geometry":{"type":"Polygon","coordinates":[[[-84.014,32.205],[-84.086,32.228],[-84.164,32.281],[-84.121,32.312],[-84.024,32.254],[-84.012,32.211],[-84.014,32.205]]]}},{"type":"Feature","properties":{"density":1},"geometry":{"type":"Polygon","coordinates":[[[-84.404,31.824],[-84.465,31.816],[-84.533,31.836],[-84.524,31.861],[-84.502,31.865],[-84.406,31.836],[-84.404,31.824]]]}},{"type":"Feature","properties":{"density":1},"geometry":{"type":"Polygon","coordinates":[[[-84.904,32.73],[-84.986,32.726],[-85.053,32.773],[-85.041,32.799],[-85.008,32.806],[-84.906,32.744],[-84.904,32.73]]]}},{"type":"Feature","properties":{"density":1},"geometry":{"type":"Polygon","coordinates":[[[-84.369,32.679],[-84.512,32.722],[-84.553,32.744],[-84.553,32.767],[-84.498,32.783],[-84.469,32.775],[-84.367,32.72],[-84.361,32.689],[-84.369,32.679]]]}},{"type":"Feature","properties":{"density":1},"geometry":{"type":"Polygon","coordinates":[[[-85.029,33.197],[-85.102,33.156],[-85.121,33.181],[-85.108,33.217],[-85.076,33.226],[-85.024,33.213],[-85.029,33.197]]]}},{"type":"Feature","properties":{"density":1},"geometry":{"type":"Polygon","coordinates":[[[-87.34,33.045],[-87.34,33.069],[-87.424,33.212],[-87.584,33.355],[-87.871,33.707],[-88.002,33.772],[-88.115,33.862],[-88.204,34.023],[-88.33,34.357],[-88.467,34.649],[-88.598,34.756],[-88.729,34.81],[-88.943,34.839],[-89.122,34.839],[-89.343,34.798],[-89.575,34.732],[-89.706,34.643],[-89.73,34.231],[-89.683,34.106],[-89.593,34.047],[-89.45,34.041],[-89.295,33.999],[-89.051,33.898],[-88.783,33.719],[-88.544,33.462],[-87.722,32.98],[-87.459,32.896],[-87.388,32.938],[-87.352,33.009],[-87.34,33.045]]]}},{"type":"Feature","properties":{"density":1},"geometry":{"type":"Polygon","coordinates":[[[-93.023,31.088],[-92.947,31.306],[-92.928,31.393],[-92.943,31.454],[-92.974,31.454],[-93.027,31.325],[-93.05,31.214],[-93.054,31.126],[-93.039,31.103],[-93.023,31.088]]]}},{"type":"Feature","properties":{"density":1},"geometry":{"type":"Polygon","coordinates":[[[-93.195,31.485],[-93.119,31.504],[-93.004,31.603],[-93.001,31.683],[-93.069,31.676],[-93.146,31.626],[-93.21,31.508],[-93.195,31.485]]]}},{"type":"Feature","properties":{"density":1},"geometry":{"type":"Polygon","coordinates":[[[-92.856,32.084],[-92.879,32.099],[-92.875,32.141],[-92.833,32.236],[-92.753,32.332],[-92.722,32.343],[-92.703,32.324],[-92.718,32.278],[-92.817,32.16],[-92.837,32.095],[-92.856,32.084]]]}},{"type":"Feature","properties":{"density":1},"geometry":{"type":"Polygon","coordinates":[[[-95.213,31.287],[-95.24,31.283],[-95.263,31.302],[-95.267,31.535],[-95.293,31.63],[-95.293,31.691],[-95.27,31.779],[-95.228,31.809],[-95.099,31.821],[-95.038,31.763],[-95.015,31.687],[-95.068,31.451],[-95.133,31.34],[-95.179,31.283],[-95.198,31.283],[-95.213,31.287]]]}},{"type":"Feature","properties":{"density":1},"geometry":{"type":"Polygon","coordinates":[[[-95.061,31.344],[-95.019,31.447],[-95.049,31.561],[-95.076,31.554],[-95.095,31.454],[-95.068,31.344],[-95.061,31.344]]]}},{"type":"Feature","properties":{"density":1},"geometry":{"type":"Polygon","coordinates":[[[-85.562,33.813],[-85.596,33.838],[-85.65,33.832],[-85.696,33.804],[-85.711,33.704],[-85.69,33.682],[-85.647,33.691],[-85.562,33.795],[-85.562,33.813]]]}},{"type":"Feature","properties":{"density":1},"geometry":{"type":"Polygon","coordinates":[[[-85.806,33.523],[-85.879,33.453],[-85.943,33.432],[-85.974,33.426],[-86.023,33.462],[-85.998,33.496],[-85.797,33.557],[-85.806,33.523]]]}},{"type":"Feature","properties":{"density":1},"geometry":{"type":"Polygon","coordinates":[[[-87.146,32.086],[-87.259,32.117],[-87.289,32.15],[-87.268,32.165],[-87.192,32.156],[-87.152,32.132],[-87.134,32.101],[-87.146,32.086]]]}},{"type":"Feature","properties":{"density":1},"geometry":{"type":"Polygon","coordinates":[[[-94.798,31.77],[-94.739,31.797],[-94.634,31.887],[-94.615,31.921],[-94.624,31.982],[-94.663,31.973],[-94.749,31.897],[-94.781,31.863],[-94.803,31.794],[-94.798,31.77]]]}},{"type":"Feature","properties":{"density":1},"geometry":{"type":"Polygon","coordinates":[[[-94.932,31.829],[-94.822,31.907],[-94.803,31.946],[-94.808,31.982],[-94.876,31.995],[-94.905,31.975],[-94.932,31.843],[-94.932,31.829]]]}},{"type":"Feature","properties":{"density":1},"geometry":{"type":"Polygon","coordinates":[[[-80.511,26.969],[-80.55,27.038],[-80.633,27.111],[-80.733,27.147],[-80.868,27.13],[-80.919,27.082],[-80.956,26.95],[-80.909,26.869],[-80.858,26.845],[-80.753,26.83],[-80.653,26.847],[-80.577,26.884],[-80.521,26.92],[-80.509,26.95],[-80.511,26.969]]]}},{"type":"Feature","properties":{"density":1},"geometry":{"type":"Polygon","coordinates":[[[-80.404,26.786],[-80.448,26.894],[-80.541,26.95],[-80.577,26.947],[-80.599,26.92],[-80.57,26.847],[-80.516,26.791],[-80.577,26.674],[-80.55,26.654],[-80.509,26.664],[-80.46,26.703],[-80.411,26.779],[-80.404,26.786]]]}},{"type":"Feature","properties":{"density":1},"geometry":{"type":"Polygon","coordinates":[[[-80.438,26.466],[-80.479,26.366],[-80.536,26.283],[-80.648,26.244],[-80.699,26.249],[-80.694,26.295],[-80.816,26.361],[-80.833,26.4],[-80.816,26.466],[-80.777,26.51],[-80.707,26.532],[-80.621,26.525],[-80.528,26.488],[-80.45,26.508],[-80.421,26.481],[-80.431,26.474],[-80.438,26.466]]]}},{"type":"Feature","properties":{"density":1},"geometry":{"type":"Polygon","coordinates":[[[-81.1,26.989],[-81.126,27.013],[-81.2,27.028],[-81.263,26.972],[-81.263,26.937],[-81.241,26.911],[-81.144,26.923],[-81.107,26.947],[-81.1,26.989]]]}},{"type":"Feature","properties":{"density":1},"geometry":{"type":"Polygon","coordinates":[[[-81.139,26.886],[-81.371,26.972],[-81.52,26.989],[-81.571,26.959],[-81.571,26.911],[-81.537,26.867],[-81.424,26.806],[-81.253,26.664],[-81.195,26.635],[-81.122,26.615],[-81.046,26.62],[-80.887,26.669],[-80.919,26.757],[-80.97,26.771],[-80.992,26.803],[-81.124,26.879],[-81.139,26.886]]]}},{"type":"Feature","properties":{"density":1},"geometry":{"type":"Polygon","coordinates":[[[-80.501,26.723],[-80.575,26.742],[-80.689,26.725],[-80.968,26.737],[-81.009,26.701],[-81.012,26.652],[-80.992,26.601],[-80.865,26.527],[-80.721,26.508],[-80.621,26.525],[-80.448,26.61],[-80.44,26.666],[-80.477,26.71],[-80.501,26.723]]]}},{"type":"Feature","properties":{"density":1},"geometry":{"type":"Polygon","coordinates":[[[-80.899,26.498],[-81.026,26.527],[-81.063,26.491],[-81.051,26.435],[-80.995,26.417],[-80.921,26.43],[-80.88,26.481],[-80.899,26.498]]]}},{"type":"Feature","properties":{"density":1},"geometry":{"type":"Polygon","coordinates":[[[-81.273,26.72],[-81.224,26.696],[-81.119,26.598],[-81.095,26.554],[-81.104,26.513],[-81.197,26.479],[-81.239,26.515],[-81.297,26.618],[-81.288,26.706],[-81.273,26.72]]]}},{"type":"Feature","properties":{"density":1},"geometry":{"type":"Polygon","coordinates":[[[-80.63,26.772],[-80.72,26.909],[-80.813,26.913],[-80.867,26.865],[-80.865,26.821],[-80.833,26.779],[-80.779,26.747],[-80.716,26.73],[-80.63,26.747],[-80.63,26.772]]]}},{"type":"Feature","properties":{"density":1},"geometry":{"type":"Polygon","coordinates":[[[-84.607,30.181],[-84.683,30.062],[-84.726,30.047],[-84.82,30.041],[-84.897,30.059],[-84.924,30.102],[-84.891,30.157],[-84.833,30.178],[-84.634,30.19],[-84.607,30.181]]]}},{"type":"Feature","properties":{"density":1},"geometry":{"type":"Polygon","coordinates":[[[-77.855,20.866],[-78.121,20.778],[-78.202,20.724],[-78.34,20.603],[-78.359,20.559],[-78.348,20.493],[-78.311,20.464],[-78.238,20.446],[-78.161,20.457],[-77.888,20.618],[-77.76,20.745],[-77.741,20.829],[-77.763,20.851],[-77.822,20.862],[-77.855,20.866]]]}},{"type":"Feature","properties":{"density":1},"geometry":{"type":"Polygon","coordinates":[[[-78.6,21.585],[-78.804,21.414],[-78.819,21.359],[-78.79,21.337],[-78.713,21.355],[-78.622,21.428],[-78.516,21.56],[-78.527,21.607],[-78.574,21.607],[-78.6,21.585]]]}},{"type":"Feature","properties":{"density":1},"geometry":{"type":"Polygon","coordinates":[[[-80.641,22.473],[-80.798,22.433],[-80.86,22.4],[-80.915,22.36],[-80.952,22.257],[-80.897,22.221],[-80.795,22.235],[-80.703,22.279],[-80.63,22.371],[-80.619,22.411],[-80.63,22.455],[-80.641,22.473]]]}},{"type":"Feature","properties":{"density":1},"geometry":{"type":"Polygon","coordinates":[[[-80.846,22.601],[-81.079,22.557],[-81.152,22.513],[-81.178,22.455],[-81.156,22.4],[-81.09,22.389],[-80.915,22.455],[-80.853,22.498],[-80.835,22.586],[-80.846,22.601]]]}},{"type":"Feature","properties":{"density":1},"geometry":{"type":"Polygon","coordinates":[[[-80.751,22.929],[-80.893,22.933],[-80.981,22.911],[-81.01,22.878],[-81.014,22.823],[-80.981,22.791],[-80.922,22.78],[-80.82,22.802],[-80.74,22.867],[-80.751,22.911],[-80.751,22.929]]]}},{"type":"Feature","properties":{"density":1},"geometry":{"type":"Polygon","coordinates":[[[-81.441,22.634],[-81.656,22.55],[-81.733,22.502],[-81.781,22.44],[-81.733,22.396],[-81.645,22.374],[-81.536,22.414],[-81.412,22.513],[-81.39,22.601],[-81.393,22.623],[-81.412,22.63],[-81.441,22.634]]]}},{"type":"Feature","properties":{"density":1},"geometry":{"type":"Polygon","coordinates":[[[-82.895,21.78],[-83.021,21.673],[-83.106,21.539],[-83.082,21.462],[-83.031,21.437],[-82.991,21.446],[-82.916,21.511],[-82.862,21.591],[-82.839,21.724],[-82.846,21.759],[-82.884,21.79],[-82.895,21.78]]]}},{"type":"Feature","properties":{"density":1},"geometry":{"type":"Polygon","coordinates":[[[-80.541,26.416],[-80.983,26.416],[-81.292,26.448],[-81.371,26.474],[-81.485,26.553],[-81.549,26.65],[-81.547,26.746],[-81.465,26.837],[-81.377,26.904],[-81.281,26.954],[-81.146,26.983],[-81.099,26.98],[-80.986,26.845],[-80.918,26.79],[-80.837,26.778],[-80.749,26.796],[-80.556,26.889],[-80.463,26.866],[-80.428,26.84],[-80.401,26.778],[-80.413,26.685],[-80.439,26.533],[-80.471,26.471],[-80.521,26.428],[-80.541,26.416]]]}},{"type":"Feature","properties":{"density":1},"geometry":{"type":"Polygon","coordinates":[[[-84.018,32.197],[-84.132,32.241],[-84.205,32.317],[-84.208,32.372],[-84.17,32.393],[-84.091,32.381],[-84.018,32.325],[-83.992,32.255],[-84.001,32.206],[-84.018,32.197]]]}},{"type":"Feature","properties":{"density":1},"geometry":{"type":"Polygon","coordinates":[[[-82.546,32.583],[-82.674,32.632],[-82.733,32.688],[-82.744,32.761],[-82.686,32.793],[-82.514,32.723],[-82.487,32.688],[-82.484,32.629],[-82.508,32.577],[-82.546,32.583]]]}},{"type":"Feature","properties":{"density":1},"geometry":{"type":"Polygon","coordinates":[[[-83.232,32.571],[-83.37,32.632],[-83.405,32.664],[-83.434,32.705],[-83.416,32.77],[-83.294,32.749],[-83.224,32.708],[-83.2,32.632],[-83.203,32.577],[-83.232,32.571]]]}},{"type":"Feature","properties":{"density":1},"geometry":{"type":"Polygon","coordinates":[[[-84.819,32.384],[-84.865,32.434],[-84.871,32.501],[-84.848,32.536],[-84.693,32.577],[-84.608,32.559],[-84.553,32.501],[-84.57,32.428],[-84.629,32.384],[-84.728,32.363],[-84.795,32.378],[-84.819,32.384]]]}},{"type":"Feature","properties":{"density":1},"geometry":{"type":"Polygon","coordinates":[[[-84.988,32.775],[-84.947,32.84],[-84.903,32.863],[-84.83,32.86],[-84.79,32.825],[-84.778,32.781],[-84.807,32.752],[-84.892,32.737],[-84.953,32.746],[-84.988,32.775]]]}},{"type":"Feature","properties":{"density":1},"geometry":{"type":"Polygon","coordinates":[[[-85.201,32.238],[-85.245,32.425],[-85.199,32.466],[-85.041,32.442],[-84.997,32.39],[-84.994,32.343],[-85.012,32.308],[-85.096,32.238],[-85.181,32.217],[-85.201,32.238]]]}},{"type":"Feature","properties":{"density":1},"geometry":{"type":"Polygon","coordinates":[[[-85.023,33.161],[-85.076,33.196],[-85.079,33.24],[-85.038,33.275],[-84.956,33.266],[-84.93,33.22],[-84.936,33.196],[-84.965,33.167],[-85.0,33.158],[-85.023,33.161]]]}},{"type":"Feature","properties":{"density":1},"geometry":{"type":"Polygon","coordinates":[[[-84.906,33.056],[-84.939,33.097],[-84.886,33.176],[-84.81,33.182],[-84.775,33.17],[-84.754,33.123],[-84.763,33.094],[-84.81,33.062],[-84.892,33.053],[-84.906,33.056]]]}},{"type":"Feature","properties":{"density":1},"geometry":{"type":"Polygon","coordinates":[[[-81.443,31.984],[-81.538,32.053],[-81.56,32.127],[-81.556,32.181],[-81.414,32.313],[-81.33,32.331],[-81.239,32.316],[-81.144,32.229],[-81.136,32.156],[-81.162,32.086],[-81.22,32.017],[-81.37,31.955],[-81.443,31.984]]]}},{"type":"Feature","properties":{"density":1},"geometry":{"type":"Polygon","coordinates":[[[-82.196,32.662],[-82.292,32.714],[-82.33,32.761],[-82.322,32.796],[-82.237,32.816],[-82.19,32.802],[-82.132,32.714],[-82.143,32.673],[-82.164,32.659],[-82.196,32.662]]]}},{"type":"Feature","properties":{"density":1},"geometry":{"type":"Polygon","coordinates":[[[-81.793,32.851],[-81.878,32.895],[-81.875,32.954],[-81.848,32.968],[-81.799,32.957],[-81.769,32.922],[-81.764,32.854],[-81.793,32.851]]]}},{"type":"Feature","properties":{"density":1},"geometry":{"type":"Polygon","coordinates":[[[-87.471,32.877],[-87.311,32.921],[-87.241,32.983],[-87.227,33.085],[-87.281,33.191],[-87.329,33.249],[-87.752,33.622],[-87.972,33.797],[-88.337,34.045],[-88.384,34.093],[-88.443,34.122],[-88.541,34.14],[-88.611,34.118],[-88.687,34.071],[-88.764,33.972],[-88.815,33.867],[-88.819,33.768],[-88.779,33.625],[-88.702,33.505],[-88.607,33.399],[-88.53,33.337],[-88.381,33.264],[-88.278,33.18],[-88.154,33.121],[-87.796,32.899],[-87.687,32.873],[-87.493,32.862],[-87.471,32.877]]]}},{"type":"Feature","properties":{"density":1},"geometry":{"type":"Polygon","coordinates":[[[-92.806,31.903],[-92.649,31.862],[-92.561,31.862],[-92.451,31.917],[-92.429,31.95],[-92.426,32.019],[-92.455,32.071],[-92.535,32.103],[-92.634,32.103],[-92.78,32.034],[-92.838,31.987],[-92.857,31.935],[-92.824,31.906],[-92.806,31.903]]]}},{"type":"Feature","properties":{"density":1},"geometry":{"type":"Polygon","coordinates":[[[-94.415,16.431],[-94.518,16.17],[-94.67,15.985],[-94.688,15.889],[-94.667,15.863],[-94.562,15.889],[-94.455,15.976],[-94.291,16.242],[-94.279,16.3],[-94.314,16.408],[-94.347,16.443],[-94.401,16.455],[-94.415,16.431]]]}},{"type":"Feature","properties":{"density":1},"geometry":{"type":"Polygon","coordinates":[[[-77.817,20.883],[-78.039,20.81],[-78.313,20.675],[-78.678,20.427],[-78.803,20.317],[-78.868,20.204],[-78.909,20.087],[-78.898,19.956],[-78.854,19.912],[-78.726,19.901],[-78.594,19.927],[-78.43,19.985],[-78.149,20.149],[-77.999,20.266],[-77.828,20.46],[-77.791,20.544],[-77.758,20.789],[-77.787,20.88],[-77.817,20.883]]]}},{"type":"Feature","properties":{"density":1},"geometry":{"type":"Polygon","coordinates":[[[-78.565,21.625],[-78.624,21.548],[-79.014,21.256],[-79.04,21.219],[-79.047,21.143],[-79.004,21.121],[-78.93,21.117],[-78.489,21.409],[-78.456,21.537],[-78.481,21.585],[-78.532,21.625],[-78.565,21.625]]]}},{"type":"Feature","properties":{"density":1},"geometry":{"type":"Polygon","coordinates":[[[-80.761,22.931],[-81.035,22.905],[-81.145,22.875],[-81.313,22.765],[-81.341,22.659],[-81.322,22.62],[-81.285,22.596],[-81.182,22.582],[-81.072,22.62],[-80.834,22.765],[-80.747,22.853],[-80.745,22.924],[-80.761,22.931]]]}},{"type":"Feature","properties":{"density":1},"geometry":{"type":"Polygon","coordinates":[[[-81.455,22.606],[-81.696,22.512],[-81.764,22.465],[-81.813,22.372],[-81.769,22.286],[-81.734,22.262],[-81.661,22.262],[-81.504,22.328],[-81.448,22.372],[-81.411,22.419],[-81.383,22.529],[-81.388,22.582],[-81.423,22.596],[-81.455,22.606]]]}},{"type":"Feature","properties":{"density":1},"geometry":{"type":"Polygon","coordinates":[[[-81.507,22.281],[-81.703,22.129],[-81.752,22.056],[-81.745,21.968],[-81.67,21.958],[-81.61,21.977],[-81.57,22.012],[-81.437,22.201],[-81.427,22.257],[-81.439,22.29],[-81.483,22.304],[-81.507,22.281]]]}},{"type":"Feature","properties":{"density":1},"geometry":{"type":"Polygon","coordinates":[[[-83.094,22.622],[-83.19,22.472],[-83.288,22.229],[-83.295,22.141],[-83.278,22.08],[-83.255,22.033],[-83.22,22.017],[-83.15,22.045],[-83.103,22.113],[-83.063,22.302],[-83.042,22.529],[-83.047,22.617],[-83.075,22.636],[-83.094,22.622]]]}},{"type":"Feature","properties":{"density":1},"geometry":{"type":"Polygon","coordinates":[[[-83.582,22.269],[-83.697,22.028],[-83.716,21.937],[-83.716,21.748],[-83.676,21.668],[-83.62,21.673],[-83.585,21.701],[-83.54,21.809],[-83.501,22.206],[-83.517,22.271],[-83.571,22.302],[-83.582,22.269]]]}},{"type":"Feature","properties":{"density":1},"geometry":{"type":"Polygon","coordinates":[[[-82.907,21.785],[-83.173,21.617],[-83.328,21.549],[-83.486,21.456],[-83.552,21.362],[-83.561,21.297],[-83.543,21.231],[-83.496,21.18],[-83.374,21.129],[-83.307,21.138],[-83.122,21.222],[-83.059,21.287],[-82.855,21.608],[-82.851,21.734],[-82.881,21.774],[-82.907,21.785]]]}},{"type":"Feature","properties":{"density":1},"geometry":{"type":"Polygon","coordinates":[[[-81.415,31.954],[-81.583,32.129],[-81.602,32.283],[-81.554,32.4],[-81.51,32.447],[-81.368,32.52],[-81.145,32.506],[-80.995,32.447],[-80.78,32.301],[-80.663,32.181],[-80.645,32.133],[-80.634,32.031],[-80.663,31.961],[-80.729,31.903],[-80.86,31.877],[-81.112,31.866],[-81.394,31.943],[-81.415,31.954]]]}},{"type":"Feature","properties":{"density":1},"geometry":{"type":"Polygon","coordinates":[[[-82.694,32.484],[-82.705,32.612],[-82.694,32.699],[-82.657,32.805],[-82.61,32.882],[-82.562,32.933],[-82.5,32.958],[-82.358,32.907],[-82.314,32.758],[-82.336,32.677],[-82.398,32.56],[-82.445,32.506],[-82.507,32.469],[-82.58,32.447],[-82.672,32.458],[-82.694,32.484]]]}},{"type":"Feature","properties":{"density":1},"geometry":{"type":"Polygon","coordinates":[[[-84.249,30.8],[-84.253,30.873],[-84.224,30.946],[-84.191,30.979],[-84.122,31.001],[-84.078,30.994],[-84.041,30.95],[-84.034,30.913],[-84.049,30.829],[-84.133,30.767],[-84.18,30.76],[-84.22,30.775],[-84.249,30.8]]]}},{"type":"Feature","properties":{"density":1},"geometry":{"type":"Polygon","coordinates":[[[-84.867,32.407],[-84.812,32.498],[-84.724,32.586],[-84.662,32.59],[-84.534,32.633],[-84.355,32.644],[-84.293,32.612],[-84.249,32.52],[-84.257,32.447],[-84.304,32.396],[-84.37,32.36],[-84.494,32.338],[-84.622,32.338],[-84.739,32.356],[-84.826,32.396],[-84.867,32.407]]]}},{"type":"Feature","properties":{"density":1},"geometry":{"type":"Polygon","coordinates":[[[-84.958,32.725],[-84.669,32.75],[-84.633,32.823],[-84.633,32.874],[-84.71,32.933],[-84.867,32.885],[-84.918,32.864],[-84.991,32.798],[-85.002,32.761],[-84.987,32.732],[-84.958,32.725]]]}},{"type":"Feature","properties":{"density":1},"geometry":{"type":"Polygon","coordinates":[[[-85.973,32.345],[-85.864,32.338],[-85.754,32.374],[-85.732,32.414],[-85.743,32.491],[-85.816,32.509],[-85.893,32.484],[-85.944,32.458],[-85.995,32.385],[-85.973,32.345]]]}},{"type":"Feature","properties":{"density":1},"geometry":{"type":"Polygon","coordinates":[[[-84.762,32.957],[-84.542,32.987],[-84.519,33.02],[-84.531,33.057],[-84.575,33.074],[-84.624,33.071],[-84.783,33.034],[-84.802,33.02],[-84.811,32.978],[-84.774,32.961],[-84.762,32.957]]]}},{"type":"Feature","properties":{"density":1},"geometry":{"type":"Polygon","coordinates":[[[-84.879,33.05],[-84.743,33.076],[-84.545,33.088],[-84.47,33.109],[-84.43,33.186],[-84.437,33.256],[-84.521,33.284],[-84.68,33.263],[-84.907,33.134],[-84.912,33.102],[-84.895,33.062],[-84.879,33.05]]]}},{"type":"Feature","properties":{"density":1},"geometry":{"type":"Polygon","coordinates":[[[-85.952,33.37],[-85.826,33.352],[-85.529,33.249],[-85.279,33.186],[-85.227,33.202],[-85.187,33.235],[-85.187,33.314],[-85.201,33.359],[-85.239,33.405],[-85.316,33.445],[-85.435,33.476],[-85.561,33.497],[-85.826,33.48],[-85.942,33.443],[-85.991,33.396],[-85.975,33.373],[-85.952,33.37]]]}},{"type":"Feature","properties":{"density":1},"geometry":{"type":"Polygon","coordinates":[[[-87.408,32.913],[-87.317,32.927],[-87.08,33.102],[-87.058,33.161],[-87.072,33.311],[-87.134,33.322],[-87.244,33.278],[-87.441,33.037],[-87.445,32.942],[-87.408,32.913]]]}},{"type":"Feature","properties":{"density":1},"geometry":{"type":"Polygon","coordinates":[[[-87.223,32.645],[-87.064,32.652],[-87.036,32.666],[-87.02,32.689],[-87.018,32.762],[-87.078,32.783],[-87.188,32.773],[-87.251,32.72],[-87.261,32.663],[-87.242,32.654],[-87.223,32.645]]]}},{"type":"Feature","properties":{"density":1},"geometry":{"type":"Polygon","coordinates":[[[-85.786,32.117],[-85.641,32.103],[-85.606,32.11],[-85.592,32.133],[-85.615,32.177],[-85.676,32.187],[-85.737,32.184],[-85.807,32.156],[-85.786,32.117]]]}},{"type":"Feature","properties":{"density":1},"geometry":{"type":"Polygon","coordinates":[[[-86.013,32.098],[-85.907,32.093],[-85.898,32.112],[-85.919,32.152],[-85.996,32.147],[-86.017,32.124],[-86.013,32.098]]]}},{"type":"Feature","properties":{"density":1},"geometry":{"type":"Polygon","coordinates":[[[-85.76,31.918],[-85.641,31.934],[-85.608,31.972],[-85.641,32.009],[-85.702,32.018],[-85.767,32.002],[-85.783,31.958],[-85.772,31.932],[-85.76,31.918]]]}},{"type":"Feature","properties":{"density":1},"geometry":{"type":"Polygon","coordinates":[[[-89.836,30.495],[-89.681,30.567],[-89.621,30.614],[-89.59,30.658],[-89.593,30.728],[-89.614,30.747],[-89.7,30.749],[-89.777,30.714],[-89.857,30.644],[-89.894,30.595],[-89.906,30.502],[-89.854,30.476],[-89.836,30.495]]]}},{"type":"Feature","properties":{"density":1},"geometry":{"type":"Polygon","coordinates":[[[-89.483,30.766],[-89.244,30.906],[-89.207,30.962],[-89.207,30.997],[-89.254,31.025],[-89.284,31.025],[-89.375,30.983],[-89.438,30.932],[-89.52,30.84],[-89.534,30.784],[-89.494,30.759],[-89.483,30.766]]]}},{"type":"Feature","properties":{"density":1},"geometry":{"type":"Polygon","coordinates":[[[-89.333,30.653],[-89.256,30.707],[-89.099,30.777],[-89.06,30.84],[-89.067,30.859],[-89.144,30.88],[-89.256,30.831],[-89.342,30.738],[-89.368,30.665],[-89.333,30.653]]]}},{"type":"Feature","properties":{"density":1},"geometry":{"type":"Polygon","coordinates":[[[-93.118,30.975],[-92.786,31.115],[-92.732,31.152],[-92.69,31.232],[-92.709,31.302],[-92.744,31.316],[-92.872,31.288],[-93.017,31.206],[-93.162,31.07],[-93.174,30.998],[-93.141,30.963],[-93.118,30.975]]]}},{"type":"Feature","properties":{"density":1},"geometry":{"type":"Polygon","coordinates":[[[-93.083,31.409],[-92.987,31.428],[-92.65,31.423],[-92.463,31.465],[-92.402,31.507],[-92.356,31.568],[-92.37,31.631],[-92.456,31.69],[-92.564,31.69],[-92.676,31.669],[-92.94,31.582],[-93.071,31.507],[-93.099,31.456],[-93.083,31.409]]]}},{"type":"Feature","properties":{"density":1},"geometry":{"type":"Polygon","coordinates":[[[-92.809,31.867],[-92.711,31.893],[-92.18,31.886],[-92.089,31.923],[-92.052,31.994],[-92.171,32.117],[-92.342,32.167],[-92.482,32.164],[-92.716,32.089],[-92.809,32.031],[-92.847,31.994],[-92.865,31.912],[-92.851,31.884],[-92.811,31.879],[-92.809,31.867]]]}},{"type":"Feature","properties":{"density":1},"geometry":{"type":"Polygon","coordinates":[[[-77.428,20.888],[-78.04,20.243],[-78.189,20.132],[-78.56,19.919],[-78.755,19.863],[-78.973,19.886],[-79.21,19.974],[-79.247,20.095],[-79.228,20.211],[-79.08,20.308],[-78.903,20.392],[-78.708,20.536],[-78.476,20.74],[-78.416,20.828],[-78.332,20.912],[-78.212,20.958],[-78.073,20.963],[-77.947,20.916],[-77.785,20.912],[-77.488,20.949],[-77.441,20.94],[-77.423,20.902],[-77.428,20.888]]]}},{"type":"Feature","properties":{"density":1},"geometry":{"type":"Polygon","coordinates":[[[-78.532,21.547],[-78.639,21.366],[-78.806,21.181],[-78.926,20.995],[-79.205,20.698],[-79.353,20.587],[-79.432,20.55],[-79.525,20.573],[-79.558,20.643],[-79.052,21.199],[-78.968,21.315],[-78.69,21.571],[-78.564,21.626],[-78.518,21.594],[-78.532,21.547]]]}},{"type":"Feature","properties":{"density":1},"geometry":{"type":"Polygon","coordinates":[[[-78.69,21.733],[-79.145,21.195],[-79.312,21.037],[-79.548,20.745],[-79.729,20.601],[-79.836,20.596],[-79.887,20.633],[-79.906,20.703],[-79.868,20.819],[-79.548,21.213],[-79.404,21.334],[-79.168,21.589],[-79.024,21.701],[-78.866,21.77],[-78.797,21.775],[-78.722,21.752],[-78.69,21.733]]]}},{"type":"Feature","properties":{"density":1},"geometry":{"type":"Polygon","coordinates":[[[-80.935,22.899],[-81.152,23.066],[-81.362,23.029],[-81.544,22.935],[-81.645,22.768],[-81.761,22.638],[-82.131,22.29],[-82.291,22.159],[-82.392,22.007],[-82.407,21.768],[-82.291,21.572],[-82.044,21.412],[-81.703,21.275],[-81.449,21.238],[-81.138,21.267],[-80.746,21.42],[-80.5,21.615],[-80.384,21.934],[-80.376,22.087],[-80.478,22.355],[-80.427,22.5],[-80.478,22.573],[-80.695,22.732],[-80.79,22.768],[-80.884,22.841],[-80.935,22.899]]]}},{"type":"Feature","properties":{"density":1},"geometry":{"type":"Polygon","coordinates":[[[-81.914,22.734],[-82.304,22.098],[-82.489,21.95],[-82.712,21.88],[-82.814,21.797],[-82.963,21.56],[-83.083,21.402],[-83.403,21.068],[-83.566,20.975],[-83.807,20.92],[-84.123,20.971],[-84.364,21.128],[-84.466,21.36],[-84.513,21.62],[-84.424,21.866],[-84.253,22.159],[-84.011,22.326],[-83.436,22.623],[-83.065,22.734],[-82.568,22.98],[-82.42,22.989],[-82.123,22.943],[-81.914,22.78],[-81.914,22.734]]]}},{"type":"Feature","properties":{"density":1},"geometry":{"type":"Polygon","coordinates":[[[-81.183,26.859],[-81.082,26.77],[-80.903,26.526],[-80.796,26.419],[-80.651,26.306],[-80.449,26.229],[-80.274,26.253],[-80.211,26.312],[-80.179,26.437],[-80.205,26.568],[-80.268,26.728],[-80.354,26.835],[-80.443,26.871],[-80.532,26.838],[-80.684,26.716],[-80.746,26.692],[-80.817,26.704],[-81.049,26.9],[-81.132,26.909],[-81.2,26.885],[-81.186,26.859],[-81.183,26.859]]]}},{"type":"Feature","properties":{"density":1},"geometry":{"type":"Polygon","coordinates":[[[-84.198,30.694],[-83.85,30.671],[-83.488,30.606],[-83.154,30.611],[-82.996,30.662],[-82.718,30.782],[-82.221,31.27],[-82.031,31.418],[-81.372,31.831],[-80.894,31.887],[-80.138,31.919],[-79.892,32.003],[-79.715,32.133],[-79.72,32.36],[-79.91,32.532],[-80.212,32.662],[-82.62,32.894],[-83.029,32.898],[-83.335,32.861],[-83.655,32.875],[-84.3,33.07],[-84.555,33.107],[-84.82,33.112],[-85.233,33.075],[-85.79,32.871],[-86.031,32.685],[-86.096,32.518],[-86.124,32.355],[-86.091,31.891],[-85.994,31.706],[-85.896,31.455],[-85.711,31.209],[-85.548,31.051],[-85.386,30.926],[-85.214,30.833],[-84.337,30.699],[-84.198,30.694]]]}},{"type":"Feature","properties":{"density":1},"geometry":{"type":"Polygon","coordinates":[[[-86.588,31.286],[-86.309,31.211],[-86.155,31.2],[-86.027,31.22],[-85.977,31.292],[-85.974,31.366],[-86.042,31.399],[-86.238,31.413],[-86.485,31.375],[-86.597,31.309],[-86.588,31.286]]]}},{"type":"Feature","properties":{"density":1},"geometry":{"type":"Polygon","coordinates":[[[-85.822,32.099],[-85.573,32.016],[-85.398,31.99],[-85.27,32.01],[-85.219,32.055],[-85.225,32.147],[-85.504,32.194],[-85.68,32.192],[-85.793,32.171],[-85.828,32.144],[-85.825,32.123],[-85.822,32.099]]]}},{"type":"Feature","properties":{"density":1},"geometry":{"type":"Polygon","coordinates":[[[-84.179,23.864],[-84.733,25.081],[-85.23,26.381],[-85.59,27.488],[-86.033,28.677],[-86.945,30.447],[-86.945,30.791],[-86.874,31.259],[-86.917,31.754],[-87.186,32.151],[-87.554,32.491],[-88.121,32.717],[-88.899,32.618],[-91.109,31.768],[-92.228,31.188],[-92.624,30.805],[-93.36,30.211],[-93.686,29.573],[-93.729,28.908],[-93.46,28.171],[-92.822,27.336],[-92.157,27.067],[-91.109,26.613],[-90.316,26.316],[-89.466,25.948],[-87.993,24.461],[-87.512,23.809],[-86.931,23.172],[-86.279,22.719],[-85.727,22.634],[-85.147,22.606],[-84.467,22.719],[-84.113,23.045],[-84.014,23.385],[-84.127,23.753],[-84.179,23.864]]]}},{"type":"Feature","properties":{"density":1},"geometry":{"type":"Polygon","coordinates":[[[-96.761,21.216],[-96.135,21.469],[-95.637,21.596],[-94.957,21.515],[-94.295,21.315],[-93.688,21.071],[-93.199,20.735],[-92.89,20.373],[-92.473,20.01],[-92.292,19.657],[-92.256,19.276],[-92.401,18.995],[-92.727,18.723],[-93.334,18.342],[-93.579,18.034],[-93.788,17.481],[-93.842,16.865],[-93.869,16.24],[-93.842,15.85],[-93.905,15.379],[-94.041,15.016],[-94.331,14.753],[-94.667,14.581],[-95.292,14.418],[-95.745,14.4],[-96.099,14.554],[-96.851,14.762],[-97.748,14.799],[-98.863,14.789],[-100.35,14.989],[-101.147,15.206],[-101.891,15.533],[-102.534,15.841],[-103.014,16.249],[-103.386,16.62],[-103.522,16.938],[-103.44,17.336],[-103.141,17.744],[-102.67,18.007],[-101.709,17.925],[-99.942,17.3],[-99.181,16.838],[-98.564,16.421],[-97.73,16.104],[-96.924,15.85],[-96.543,15.832],[-95.845,15.868],[-95.419,16.022],[-95.211,16.367],[-95.193,16.774],[-95.637,17.237],[-96.298,18.388],[-96.48,18.859],[-96.48,19.512],[-96.38,19.82],[-96.099,20.237],[-96.035,20.409],[-96.035,20.572],[-96.208,20.663],[-96.516,20.663],[-96.86,20.699],[-96.951,20.771],[-97.014,20.898],[-97.014,20.998],[-96.933,21.098],[-96.842,21.161],[-96.761,21.216]]]}},{"type":"Feature","properties":{"density":1},"geometry":{"type":"Polygon","coordinates":[[[-92.894,29.727],[-92.609,29.89],[-92.582,29.985],[-92.626,30.012],[-92.692,30.009],[-92.864,29.905],[-92.929,29.792],[-92.911,29.727],[-92.894,29.727]]]}},{"type":"Feature","properties":{"density":1},"geometry":{"type":"Polygon","coordinates":[[[-93.785,29.753],[-93.69,29.756],[-93.559,29.84],[-93.529,29.887],[-93.485,30.048],[-93.494,30.074],[-93.556,30.122],[-93.604,30.122],[-93.681,30.083],[-93.773,29.935],[-93.805,29.78],[-93.785,29.753]]]}},{"type":"Feature","properties":{"density":1},"geometry":{"type":"Polygon","coordinates":[[[-93.063,31.007],[-92.338,31.176],[-92.219,31.274],[-92.184,31.384],[-92.228,31.473],[-92.326,31.506],[-92.475,31.5],[-92.617,31.47],[-92.849,31.375],[-93.108,31.194],[-93.206,31.084],[-93.235,30.998],[-93.206,30.93],[-93.158,30.93],[-93.099,30.968],[-93.063,31.007]]]}},{"type":"Feature","properties":{"density":1},"geometry":{"type":"Polygon","coordinates":[[[-93.054,31.437],[-92.819,31.467],[-92.528,31.553],[-91.991,31.672],[-91.869,31.734],[-91.7,31.865],[-91.667,31.936],[-91.709,32.031],[-91.792,32.073],[-91.914,32.103],[-92.121,32.088],[-92.3,32.052],[-92.508,31.984],[-92.932,31.812],[-93.084,31.702],[-93.206,31.571],[-93.214,31.5],[-93.179,31.446],[-93.096,31.414],[-93.054,31.437]]]}},{"type":"Feature","properties":{"density":1},"geometry":{"type":"Polygon","coordinates":[[[-99.047,41.987],[-98.561,41.871],[-98.234,41.748],[-98.162,41.697],[-98.082,41.574],[-98.082,41.523],[-98.169,41.465],[-98.271,41.465],[-98.554,41.53],[-98.691,41.588],[-99.083,41.849],[-99.126,41.9],[-99.155,41.98],[-99.126,42.045],[-99.047,41.987]]]}},{"type":"Feature","properties":{"density":1},"geometry":{"type":"Polygon","coordinates":[[[-104.091,35.25],[-103.961,35.199],[-103.724,35.18],[-103.589,35.213],[-103.52,35.269],[-103.492,35.348],[-103.552,35.45],[-103.678,35.477],[-103.794,35.477],[-104.002,35.403],[-104.128,35.273],[-104.091,35.25]]]}},{"type":"Feature","properties":{"density":2},"geometry":{"type":"Polygon","coordinates":[[[-81.397,31.991],[-81.422,32.028],[-81.425,32.084],[-81.408,32.115],[-81.369,32.129],[-81.333,32.119],[-81.317,32.068],[-81.376,31.995],[-81.397,31.991]]]}},{"type":"Feature","properties":{"density":2},"geometry":{"type":"Polygon","coordinates":[[[-81.405,31.987],[-81.489,32.17],[-81.478,32.261],[-81.426,32.319],[-81.39,32.316],[-81.357,32.276],[-81.386,32.14],[-81.39,32.009],[-81.405,31.987]]]}},{"type":"Feature","properties":{"density":2},"geometry":{"type":"Polygon","coordinates":[[[-85.924,33.387],[-85.627,33.359],[-85.561,33.366],[-85.54,33.405],[-85.615,33.431],[-85.926,33.405],[-85.924,33.387]]]}},{"type":"Feature","properties":{"density":2},"geometry":{"type":"Polygon","coordinates":[[[-92.793,31.894],[-92.697,31.93],[-92.435,31.951],[-92.392,31.99],[-92.398,32.025],[-92.479,32.044],[-92.555,32.028],[-92.719,31.965],[-92.787,31.921],[-92.793,31.894]]]}}]}