{"type":"FeatureCollection","features":[{"type":"Feature","properties":{"density":1},"geometry":{"type":"Polygon","coordinates":[[[-49.209,37.672],[-51.646,38.18],[-55.632,39.314],[-59.974,40.318],[-63.954,40.444],[-65.946,40.056],[-68.765,39.472],[-70.952,38.354],[-73.14,36.799],[-74.452,35.778],[-76.201,33.786],[-76.833,32.716],[-77.557,31.213],[-78.323,30.028],[-78.774,29.471],[-79.475,28.799],[-80.224,27.877],[-80.416,27.205],[-80.156,26.466],[-79.398,26.322],[-76.979,26.984],[-74.281,29.183],[-72.167,31.161],[-71.001,32.571],[-69.835,33.64],[-66.53,35.098],[-63.419,35.584],[-60.427,35.458],[-57.635,35.195],[-54.67,34.175],[-51.803,33.105],[-49.616,32.716],[-47.841,33.064],[-46.833,34.202],[-46.948,35.627],[-47.783,37.024],[-49.209,37.672]]]}},{"type":"Feature","properties":{"density":1},"geometry":{"type":"Polygon","coordinates":[[[-83.283,25.444],[-84.02,25.586],[-84.808,25.543],[-85.616,25.315],[-86.113,25.077],[-86.826,24.58],[-87.841,23.695],[-88.619,23.133],[-89.31,22.658],[-90.347,21.988],[-91.465,21.323],[-92.412,21.092],[-93.479,21.103],[-94.257,21.621],[-94.581,22.226],[-94.646,23.414],[-94.257,24.451],[-93.609,25.466],[-92.507,26.092],[-92.291,26.179],[-91.622,26.287],[-90.736,26.611],[-90.088,27.043],[-89.721,27.907],[-90.131,28.685],[-91.384,29.03],[-93.479,29.268],[-95.402,29.225],[-96.093,28.965],[-96.935,28.253],[-97.972,26.568],[-98.28,25.792],[-98.511,24.697],[-98.683,23.459],[-98.741,22.355],[-98.539,21.347],[-97.867,20.617],[-97.685,20.195],[-97.752,19.791],[-98.002,19.378],[-98.642,19.137],[-99.42,19.115],[-100.089,18.878],[-100.37,18.208],[-100.651,17.97],[-101.644,18.143],[-102.638,18.467],[-103.265,18.834],[-104.085,19.266],[-105.057,19.374],[-106.31,19.31],[-107.304,19.007],[-107.628,18.597],[-107.714,17.733],[-106.915,17.322],[-106.008,17.322],[-104.777,17.366],[-103.869,16.998],[-103.697,16.307],[-103.913,15.313],[-104.021,14.536],[-103.502,14.233],[-102.66,14.32],[-101.45,14.968],[-100.975,15.141],[-99.916,15.443],[-99.009,15.443],[-98.447,15.054],[-98.167,14.471],[-98.577,13.801],[-99.7,13.348],[-100.197,12.311],[-99.938,11.836],[-99.29,11.641],[-98.123,11.9],[-95.834,13.153],[-95.402,13.693],[-94.883,14.385],[-94.127,15.054],[-93.738,15.162],[-93.177,15.421],[-92.572,15.616],[-91.686,15.832],[-90.865,15.918],[-89.958,15.789],[-89.526,15.767],[-88.511,15.983],[-88.014,16.566],[-87.863,17.97],[-87.604,19.353],[-87.02,20.325],[-86.005,21.374],[-85.026,22.123],[-83.931,22.723],[-83.391,23.111],[-82.916,23.803],[-82.771,24.309],[-82.787,24.818],[-82.953,25.171],[-83.283,25.444]]]}},{"type":"Feature","properties":{"density":1},"geometry":{"type":"Polygon","coordinates":[[[-109.682,42.384],[-109.272,42.06],[-109.272,41.757],[-109.336,41.52],[-109.562,41.229],[-109.442,41.097],[-108.802,40.986],[-108.657,40.93],[-108.316,40.76],[-108.222,40.354],[-108.491,40.009],[-108.755,39.8],[-108.836,39.676],[-108.824,39.573],[-108.542,39.518],[-108.145,39.552],[-107.71,39.339],[-107.266,38.869],[-107.249,38.485],[-107.642,38.007],[-107.428,37.662],[-106.989,37.521],[-106.677,37.133],[-106.302,36.941],[-105.824,37.018],[-104.975,36.834],[-104.215,36.296],[-104.001,35.104],[-104.001,34.154],[-104.651,33.301],[-105.777,32.934],[-106.701,32.987],[-107.673,33.311],[-109.272,34.11],[-110.573,34.577],[-111.217,35.153],[-112.271,36.348],[-112.958,36.753],[-113.743,37.091],[-114.26,37.171],[-114.682,37.188],[-115.139,37.299],[-115.877,37.367],[-116.295,37.389],[-118.049,37.606],[-118.876,37.585],[-119.64,37.61],[-121.121,37.858],[-122.469,38.251],[-123.293,38.801],[-123.519,39.275],[-123.532,39.808],[-123.485,40.634],[-123.391,41.587],[-123.502,42.232],[-123.634,42.59],[-123.685,43.136],[-123.643,43.618],[-123.374,44.118],[-122.96,44.404],[-122.341,44.48],[-121.479,44.463],[-120.575,44.276],[-119.905,44.207],[-119.295,44.198],[-118.474,44.263],[-117.026,44.263],[-115.709,43.507],[-115.061,43.442],[-111.777,43.442],[-111.41,43.313],[-111.173,43.075],[-110.244,42.686],[-109.682,42.384]]]}},{"type":"Feature","properties":{"density":1},"geometry":{"type":"Polygon","coordinates":[[[-119.718,36.099],[-119.834,36.077],[-119.944,35.877],[-120.014,35.792],[-120.217,35.686],[-120.315,35.61],[-120.368,35.496],[-120.347,35.399],[-120.244,35.266],[-120.15,35.209],[-119.816,34.91],[-119.694,34.843],[-119.494,34.764],[-119.305,34.733],[-119.167,34.764],[-119.038,35.032],[-118.922,35.144],[-118.857,35.266],[-118.817,35.384],[-118.77,35.557],[-118.749,35.832],[-118.756,36.056],[-118.837,36.229],[-118.971,36.323],[-119.167,36.311],[-119.655,36.113],[-119.718,36.099]]]}},{"type":"Feature","properties":{"density":1},"geometry":{"type":"Polygon","coordinates":[[[-106.514,26.744],[-107.348,27.577],[-107.765,28.342],[-108.298,29.245],[-109.016,30.079],[-109.803,30.658],[-110.752,30.449],[-111.447,29.986],[-111.494,29.291],[-111.841,28.62],[-112.304,28.481],[-112.86,28.156],[-113.3,27.601],[-113.647,26.697],[-113.647,25.841],[-112.999,24.683],[-112.559,23.942],[-111.632,23.038],[-110.127,22.344],[-108.599,21.857],[-107.302,21.603],[-105.912,21.603],[-105.218,22.043],[-104.94,22.761],[-104.893,23.502],[-105.194,24.567],[-105.519,25.262],[-106.051,26.304],[-106.514,26.744]]]}},{"type":"Feature","properties":{"density":1},"geometry":{"type":"Polygon","coordinates":[[[-144.509,64.989],[-142.981,64.607],[-141.417,64.468],[-140.271,64.642],[-139.194,64.919],[-138.152,65.336],[-136.346,65.475],[-134.401,65.475],[-132.247,65.302],[-130.371,64.885],[-128.565,64.433],[-127.349,63.877],[-125.091,63.009],[-123.007,62.766],[-120.262,62.939],[-117.796,63.495],[-115.99,64.086],[-114.774,64.885],[-114.531,65.579],[-114.948,66.239],[-116.024,67.038],[-117.831,67.664],[-119.637,68.254],[-124.361,69.227],[-125.82,69.644],[-127.384,70.234],[-130.232,70.408],[-132.907,70.443],[-134.505,70.2],[-136.242,69.679],[-138.013,69.505],[-141.244,69.262],[-143.467,68.984],[-145.725,68.567],[-147.392,68.567],[-148.678,68.22],[-148.921,67.56],[-148.191,66.622],[-147.635,66.239],[-146.559,65.753],[-145.308,65.267],[-144.509,64.989]]]}},{"type":"Feature","properties":{"density":1},"geometry":{"type":"Polygon","coordinates":[[[-105.603,51.407],[-106.993,51.893],[-108.313,52.588],[-109.251,53.282],[-110.188,54.116],[-111.196,54.915],[-112.759,55.575],[-114.67,55.818],[-115.469,55.749],[-115.677,54.95],[-114.774,54.255],[-114.01,53.595],[-111.126,51.858],[-109.285,50.434],[-107.583,49.6],[-105.881,49.079],[-104.492,49.01],[-104.144,49.114],[-104.075,50.156],[-104.214,50.434],[-105.047,51.059],[-105.603,51.407]]]}},{"type":"Feature","properties":{"density":1},"geometry":{"type":"Polygon","coordinates":[[[-93.088,43.864],[-91.801,42.979],[-90.165,42.176],[-89.671,41.95],[-88.621,41.991],[-87.983,42.145],[-87.437,42.361],[-86.81,42.403],[-85.749,42.403],[-84.947,42.269],[-84.061,42.073],[-82.754,42.114],[-82.404,42.351],[-81.509,42.68],[-80.799,42.855],[-79.708,42.917],[-79.234,42.526],[-79.244,41.806],[-79.749,41.075],[-80.397,40.447],[-81.457,39.881],[-82.147,39.346],[-83.351,38.625],[-84.926,38.049],[-86.357,37.73],[-87.458,37.514],[-89.146,37.369],[-90.206,37.503],[-90.999,37.719],[-92.09,38.255],[-92.779,38.913],[-93.5,39.768],[-93.901,40.118],[-94.189,40.241],[-94.982,40.241],[-95.62,40.148],[-96.896,40.097],[-97.534,40.293],[-98.646,40.859],[-98.924,41.147],[-98.78,42.011],[-97.915,42.536],[-97.308,42.742],[-96.104,43.216],[-94.725,43.823],[-94.2,43.957],[-93.489,43.957],[-93.088,43.864]]]}},{"type":"Feature","properties":{"density":1},"geometry":{"type":"Polygon","coordinates":[[[-80.567,25.688],[-80.648,25.752],[-80.668,25.791],[-80.659,25.927],[-80.606,26.02],[-80.578,26.041],[-80.523,26.055],[-80.468,26.048],[-80.393,25.996],[-80.37,25.916],[-80.382,25.873],[-80.453,25.77],[-80.47,25.759],[-80.523,25.769],[-80.547,25.699],[-80.567,25.688]]]}},{"type":"Feature","properties":{"density":1},"geometry":{"type":"Polygon","coordinates":[[[-89.331,37.011],[-89.419,36.953],[-89.441,36.893],[-89.43,36.873],[-89.397,36.86],[-89.323,36.884],[-89.284,36.945],[-89.298,36.986],[-89.331,37.011]]]}},{"type":"Feature","properties":{"density":1},"geometry":{"type":"Polygon","coordinates":[[[-89.929,37.072],[-89.97,37.088],[-90.103,37.094],[-90.254,36.912],[-90.238,36.871],[-90.158,36.829],[-90.045,36.84],[-89.929,36.981],[-89.918,37.042],[-89.929,37.072]]]}},{"type":"Feature","properties":{"density":1},"geometry":{"type":"Polygon","coordinates":[[[-89.496,36.427],[-89.612,36.331],[-89.64,36.251],[-89.593,36.251],[-89.483,36.308],[-89.439,36.375],[-89.439,36.416],[-89.455,36.43],[-89.496,36.427]]]}},{"type":"Feature","properties":{"density":1},"geometry":{"type":"Polygon","coordinates":[[[-89.688,36.052],[-89.709,36.019],[-89.684,35.998],[-89.667,36.003],[-89.667,36.044],[-89.688,36.052]]]}},{"type":"Feature","properties":{"density":1},"geometry":{"type":"Polygon","coordinates":[[[-93.985,39.155],[-94.134,39.275],[-94.25,39.299],[-94.266,39.266],[-94.25,39.233],[-94.134,39.159],[-94.068,39.126],[-93.989,39.118],[-93.985,39.155]]]}},{"type":"Feature","properties":{"density":1},"geometry":{"type":"Polygon","coordinates":[[[-114.636,37.408],[-114.627,37.352],[-114.664,37.334],[-114.692,37.347],[-114.782,37.477],[-114.791,37.514],[-114.794,37.685],[-114.78,37.735],[-114.754,37.786],[-114.692,37.826],[-114.655,37.817],[-114.627,37.744],[-114.627,37.659],[-114.66,37.549],[-114.647,37.47],[-114.636,37.408]]]}},{"type":"Feature","properties":{"density":1},"geometry":{"type":"Polygon","coordinates":[[[-114.318,37.369],[-114.263,37.343],[-114.211,37.349],[-114.169,37.393],[-114.143,37.468],[-114.18,37.514],[-114.235,37.496],[-114.296,37.499],[-114.32,37.472],[-114.329,37.426],[-114.318,37.369]]]}},{"type":"Feature","properties":{"density":1},"geometry":{"type":"Polygon","coordinates":[[[-119.803,35.232],[-119.971,35.342],[-120.049,35.414],[-120.126,35.549],[-120.148,35.612],[-120.148,35.679],[-119.971,35.858],[-119.82,35.918],[-119.726,35.916],[-119.564,35.772],[-119.473,35.612],[-119.453,35.527],[-119.473,35.461],[-119.456,35.351],[-119.373,35.147],[-119.351,34.97],[-119.371,34.937],[-119.418,34.912],[-119.528,34.901],[-119.594,34.924],[-119.715,35.009],[-119.759,35.105],[-119.77,35.177],[-119.803,35.232]]]}},{"type":"Feature","properties":{"density":1},"geometry":{"type":"Polygon","coordinates":[[[-108.18,30.543],[-108.177,30.587],[-108.158,30.609],[-108.119,30.615],[-108.094,30.557],[-108.147,30.532],[-108.18,30.543]]]}},{"type":"Feature","properties":{"density":1},"geometry":{"type":"Polygon","coordinates":[[[-108.64,30.879],[-108.69,30.877],[-108.726,30.907],[-108.706,30.968],[-108.726,31.042],[-108.706,31.075],[-108.676,31.075],[-108.651,31.045],[-108.635,30.904],[-108.64,30.879]]]}},{"type":"Feature","properties":{"density":1},"geometry":{"type":"Polygon","coordinates":[[[-96.601,17.819],[-96.645,17.888],[-96.629,17.951],[-96.612,17.951],[-96.599,17.926],[-96.59,17.83],[-96.601,17.819]]]}},{"type":"Feature","properties":{"density":1},"geometry":{"type":"Polygon","coordinates":[[[-96.191,17.901],[-96.229,17.915],[-96.243,17.959],[-96.229,17.973],[-96.191,17.965],[-96.174,17.921],[-96.191,17.901]]]}},{"type":"Feature","properties":{"density":1},"geometry":{"type":"Polygon","coordinates":[[[-95.805,18.549],[-95.877,18.632],[-95.893,18.665],[-95.89,18.714],[-95.86,18.698],[-95.805,18.623],[-95.783,18.557],[-95.805,18.549]]]}},{"type":"Feature","properties":{"density":1},"geometry":{"type":"Polygon","coordinates":[[[-93.811,17.49],[-93.835,17.493],[-93.844,17.514],[-93.891,17.831],[-93.932,17.93],[-93.948,18.018],[-93.943,18.167],[-93.918,18.228],[-93.869,18.272],[-93.83,18.25],[-93.805,18.195],[-93.764,17.96],[-93.789,17.5],[-93.811,17.49]]]}},{"type":"Feature","properties":{"density":1},"geometry":{"type":"Polygon","coordinates":[[[-92.34,17.707],[-92.434,17.674],[-92.442,17.619],[-92.335,17.63],[-92.321,17.643],[-92.324,17.685],[-92.34,17.707]]]}},{"type":"Feature","properties":{"density":1},"geometry":{"type":"Polygon","coordinates":[[[-91.957,17.621],[-91.996,17.616],[-92.004,17.594],[-92.012,17.431],[-91.985,17.462],[-91.954,17.58],[-91.957,17.621]]]}},{"type":"Feature","properties":{"density":1},"geometry":{"type":"Polygon","coordinates":[[[-92.967,17.782],[-92.928,17.739],[-92.899,17.744],[-92.876,17.843],[-92.842,17.887],[-92.779,17.925],[-92.743,17.976],[-92.741,18.028],[-92.868,18.145],[-93.022,18.148],[-93.085,18.129],[-93.124,18.09],[-93.14,18.005],[-93.014,17.839],[-92.967,17.782]]]}},{"type":"Feature","properties":{"density":1},"geometry":{"type":"Polygon","coordinates":[[[-88.852,17.255],[-88.951,17.238],[-89.074,17.172],[-89.16,17.17],[-89.212,17.216],[-89.228,17.277],[-89.237,17.361],[-89.204,17.474],[-89.184,17.494],[-89.105,17.507],[-89.021,17.479],[-88.908,17.4],[-88.844,17.288],[-88.852,17.255]]]}},{"type":"Feature","properties":{"density":1},"geometry":{"type":"Polygon","coordinates":[[[-101.274,17.457],[-101.318,17.479],[-101.31,17.528],[-101.257,17.525],[-101.249,17.492],[-101.261,17.464],[-101.274,17.457]]]}},{"type":"Feature","properties":{"density":1},"geometry":{"type":"Polygon","coordinates":[[[-100.644,18.154],[-100.685,18.156],[-100.703,18.175],[-100.659,18.187],[-100.633,18.169],[-100.644,18.154]]]}},{"type":"Feature","properties":{"density":1},"geometry":{"type":"Polygon","coordinates":[[[-104.77,19.344],[-104.729,19.315],[-104.781,19.32],[-104.781,19.338],[-104.77,19.344]]]}},{"type":"Feature","properties":{"density":1},"geometry":{"type":"Polygon","coordinates":[[[-104.586,20.835],[-104.616,20.84],[-104.627,20.805],[-104.595,20.796],[-104.57,20.812],[-104.586,20.835]]]}},{"type":"Feature","properties":{"density":1},"geometry":{"type":"Polygon","coordinates":[[[-105.406,23.89],[-105.111,23.957],[-104.769,23.948],[-104.615,24.017],[-104.444,24.045],[-104.328,24.012],[-104.218,23.946],[-104.196,23.91],[-104.185,23.819],[-104.326,23.659],[-104.593,23.538],[-104.783,23.507],[-104.99,23.546],[-105.149,23.618],[-105.408,23.813],[-105.414,23.863],[-105.406,23.89]]]}},{"type":"Feature","properties":{"density":1},"geometry":{"type":"Polygon","coordinates":[[[-69.537,18.548],[-69.506,18.553],[-69.495,18.594],[-69.53,18.625],[-69.697,18.658],[-69.783,18.647],[-69.785,18.627],[-69.765,18.614],[-69.57,18.553],[-69.537,18.548]]]}},{"type":"Feature","properties":{"density":1},"geometry":{"type":"Polygon","coordinates":[[[-69.203,19.115],[-68.887,18.97],[-68.821,18.963],[-68.786,18.983],[-68.799,19.02],[-69.015,19.154],[-69.173,19.328],[-69.342,19.424],[-69.436,19.512],[-69.462,19.514],[-69.453,19.409],[-69.407,19.365],[-69.414,19.27],[-69.364,19.209],[-69.245,19.13],[-69.203,19.115]]]}},{"type":"Feature","properties":{"density":1},"geometry":{"type":"Polygon","coordinates":[[[-71.471,17.827],[-71.522,17.941],[-71.522,17.985],[-71.5,18.011],[-71.463,18.008],[-71.447,17.985],[-71.427,17.861],[-71.449,17.833],[-71.471,17.827]]]}},{"type":"Feature","properties":{"density":1},"geometry":{"type":"Polygon","coordinates":[[[-82.284,22.712],[-82.32,22.761],[-82.313,22.8],[-82.276,22.778],[-82.267,22.721],[-82.284,22.712]]]}},{"type":"Feature","properties":{"density":1},"geometry":{"type":"Polygon","coordinates":[[[-80.309,25.984],[-80.407,25.812],[-80.539,25.687],[-80.583,25.699],[-80.625,25.79],[-80.6,25.88],[-80.642,26.025],[-80.607,26.142],[-80.603,26.267],[-80.552,26.354],[-80.504,26.383],[-80.436,26.39],[-80.385,26.374],[-80.297,26.309],[-80.282,26.275],[-80.311,26.201],[-80.28,26.087],[-80.287,26.03],[-80.309,25.984]]]}},{"type":"Feature","properties":{"density":1},"geometry":{"type":"Polygon","coordinates":[[[-81.827,29.448],[-81.686,29.535],[-81.623,29.597],[-81.623,29.625],[-81.732,29.572],[-81.827,29.465],[-81.827,29.448]]]}},{"type":"Feature","properties":{"density":1},"geometry":{"type":"Polygon","coordinates":[[[-86.135,30.498],[-86.087,30.494],[-86.072,30.479],[-86.076,30.463],[-86.115,30.457],[-86.137,30.483],[-86.135,30.498]]]}},{"type":"Feature","properties":{"density":1},"geometry":{"type":"Polygon","coordinates":[[[-89.43,36.395],[-89.491,36.318],[-89.695,36.155],[-89.728,36.133],[-89.797,36.142],[-89.8,36.172],[-89.772,36.219],[-89.574,36.392],[-89.464,36.447],[-89.422,36.423],[-89.43,36.395]]]}},{"type":"Feature","properties":{"density":1},"geometry":{"type":"Polygon","coordinates":[[[-89.662,36.067],[-89.706,36.051],[-89.756,35.993],[-89.72,35.982],[-89.667,36.001],[-89.64,36.04],[-89.662,36.067]]]}},{"type":"Feature","properties":{"density":1},"geometry":{"type":"Polygon","coordinates":[[[-89.237,36.842],[-89.178,36.84],[-89.161,36.826],[-89.179,36.756],[-89.25,36.64],[-89.349,36.59],[-89.364,36.605],[-89.362,36.638],[-89.265,36.803],[-89.237,36.842]]]}},{"type":"Feature","properties":{"density":1},"geometry":{"type":"Polygon","coordinates":[[[-89.325,36.968],[-89.454,36.829],[-89.41,36.921],[-89.338,36.981],[-89.325,36.968]]]}},{"type":"Feature","properties":{"density":1},"geometry":{"type":"Polygon","coordinates":[[[-88.701,38.797],[-88.521,38.639],[-88.503,38.608],[-88.518,38.586],[-88.727,38.733],[-88.749,38.766],[-88.733,38.786],[-88.701,38.797]]]}},{"type":"Feature","properties":{"density":1},"geometry":{"type":"Polygon","coordinates":[[[-77.214,54.96],[-77.248,54.944],[-77.3,54.861],[-77.206,54.891],[-77.193,54.946],[-77.214,54.96]]]}},{"type":"Feature","properties":{"density":1},"geometry":{"type":"Polygon","coordinates":[[[-72.996,53.676],[-73.323,53.767],[-73.344,53.763],[-73.352,53.743],[-73.315,53.718],[-72.976,53.627],[-72.996,53.676]]]}},{"type":"Feature","properties":{"density":1},"geometry":{"type":"Polygon","coordinates":[[[-119.82,35.384],[-119.911,35.654],[-119.906,35.784],[-119.807,35.883],[-119.669,35.943],[-119.611,35.957],[-119.542,35.949],[-119.487,35.877],[-119.448,35.621],[-119.41,35.508],[-119.534,35.384],[-119.545,35.318],[-119.567,35.293],[-119.696,35.312],[-119.754,35.354],[-119.82,35.384]]]}},{"type":"Feature","properties":{"density":1},"geometry":{"type":"Polygon","coordinates":[[[-115.883,31.447],[-115.824,31.411],[-115.717,31.415],[-115.685,31.468],[-115.731,31.502],[-115.826,31.509],[-115.893,31.5],[-115.898,31.46],[-115.883,31.447]]]}},{"type":"Feature","properties":{"density":1},"geometry":{"type":"Polygon","coordinates":[[[-108.165,30.52],[-108.097,30.528],[-108.072,30.547],[-108.052,30.58],[-108.066,30.644],[-108.124,30.658],[-108.168,30.633],[-108.185,30.602],[-108.185,30.531],[-108.165,30.52]]]}},{"type":"Feature","properties":{"density":1},"geometry":{"type":"Polygon","coordinates":[[[-108.659,30.859],[-108.604,30.911],[-108.587,30.955],[-108.645,30.95],[-108.675,30.906],[-108.67,30.875],[-108.659,30.859]]]}},{"type":"Feature","properties":{"density":1},"geometry":{"type":"Polygon","coordinates":[[[-96.605,20.035],[-96.683,20.086],[-96.796,20.095],[-96.827,19.96],[-96.776,19.937],[-96.726,19.967],[-96.598,19.986],[-96.579,20.001],[-96.586,20.023],[-96.605,20.035]]]}},{"type":"Feature","properties":{"density":1},"geometry":{"type":"Polygon","coordinates":[[[-95.875,17.533],[-95.9,17.535],[-95.934,17.568],[-95.932,17.601],[-95.877,17.59],[-95.867,17.553],[-95.875,17.533]]]}},{"type":"Feature","properties":{"density":1},"geometry":{"type":"Polygon","coordinates":[[[-95.82,17.294],[-95.878,17.314],[-95.877,17.355],[-95.821,17.355],[-95.803,17.329],[-95.807,17.307],[-95.82,17.294]]]}},{"type":"Feature","properties":{"density":1},"geometry":{"type":"Polygon","coordinates":[[[-93.897,17.669],[-93.862,17.498],[-93.825,17.468],[-93.797,17.465],[-93.766,17.516],[-93.766,17.569],[-93.803,18.111],[-93.803,18.34],[-93.897,18.654],[-93.941,18.715],[-93.982,18.731],[-94.012,18.726],[-94.029,18.693],[-93.968,18.483],[-94.034,18.268],[-94.034,18.188],[-94.023,18.086],[-93.932,17.8],[-93.897,17.669]]]}},{"type":"Feature","properties":{"density":1},"geometry":{"type":"Polygon","coordinates":[[[-92.395,18.512],[-92.228,18.449],[-92.202,18.455],[-92.193,18.475],[-92.195,18.497],[-92.237,18.534],[-92.312,18.565],[-92.513,18.726],[-92.604,18.775],[-92.689,18.775],[-92.711,18.748],[-92.634,18.618],[-92.568,18.555],[-92.485,18.522],[-92.395,18.512]]]}},{"type":"Feature","properties":{"density":1},"geometry":{"type":"Polygon","coordinates":[[[-92.333,17.649],[-92.469,17.59],[-92.517,17.598],[-92.554,17.636],[-92.532,17.688],[-92.484,17.708],[-92.361,17.708],[-92.337,17.693],[-92.333,17.671],[-92.333,17.649]]]}},{"type":"Feature","properties":{"density":1},"geometry":{"type":"Polygon","coordinates":[[[-92.199,17.759],[-92.363,17.768],[-92.407,17.743],[-92.356,17.717],[-92.194,17.708],[-92.179,17.737],[-92.199,17.759]]]}},{"type":"Feature","properties":{"density":1},"geometry":{"type":"Polygon","coordinates":[[[-92.84,17.725],[-92.926,17.72],[-93.027,17.776],[-93.146,17.986],[-93.234,18.196],[-93.336,18.535],[-93.328,18.659],[-93.259,18.777],[-93.193,18.775],[-92.967,18.598],[-92.6,18.188],[-92.523,18.064],[-92.512,17.956],[-92.54,17.901],[-92.738,17.722],[-92.777,17.722],[-92.84,17.725]]]}},{"type":"Feature","properties":{"density":1},"geometry":{"type":"Polygon","coordinates":[[[-89.328,17.329],[-89.214,17.292],[-88.97,17.178],[-88.847,17.178],[-88.843,17.197],[-88.862,17.219],[-89.11,17.403],[-89.449,17.594],[-89.545,17.627],[-89.581,17.607],[-89.586,17.558],[-89.537,17.5],[-89.443,17.45],[-89.372,17.39],[-89.328,17.329]]]}},{"type":"Feature","properties":{"density":1},"geometry":{"type":"Polygon","coordinates":[[[-69.513,18.581],[-69.629,18.654],[-69.677,18.654],[-69.697,18.632],[-69.688,18.584],[-69.662,18.57],[-69.523,18.54],[-69.495,18.562],[-69.513,18.581]]]}},{"type":"Feature","properties":{"density":1},"geometry":{"type":"Polygon","coordinates":[[[-68.734,18.508],[-68.792,18.537],[-68.844,18.541],[-68.829,18.504],[-68.785,18.477],[-68.728,18.482],[-68.734,18.508]]]}},{"type":"Feature","properties":{"density":1},"geometry":{"type":"Polygon","coordinates":[[[-68.807,18.991],[-69.075,19.169],[-69.33,19.508],[-69.446,19.698],[-69.611,19.839],[-69.781,20.025],[-69.835,19.991],[-69.975,19.826],[-69.946,19.748],[-69.768,19.562],[-69.781,19.512],[-69.744,19.429],[-69.677,19.376],[-69.632,19.297],[-69.649,19.198],[-69.595,19.132],[-69.21,18.995],[-68.876,18.924],[-68.808,18.931],[-68.782,18.983],[-68.807,18.991]]]}},{"type":"Feature","properties":{"density":1},"geometry":{"type":"Polygon","coordinates":[[[-69.926,19.487],[-70.046,19.801],[-70.178,19.925],[-70.194,19.909],[-70.178,19.863],[-70.079,19.686],[-70.004,19.471],[-69.951,19.45],[-69.926,19.487]]]}},{"type":"Feature","properties":{"density":1},"geometry":{"type":"Polygon","coordinates":[[[-78.635,26.537],[-78.624,26.652],[-78.644,26.685],[-78.668,26.68],[-78.679,26.619],[-78.679,26.548],[-78.666,26.523],[-78.646,26.523],[-78.635,26.537]]]}},{"type":"Feature","properties":{"density":1},"geometry":{"type":"Polygon","coordinates":[[[-77.605,27.007],[-77.634,26.875],[-77.63,26.856],[-77.592,26.843],[-77.544,26.884],[-77.456,27.106],[-77.319,27.341],[-77.299,27.445],[-77.319,27.478],[-77.365,27.486],[-77.415,27.453],[-77.443,27.412],[-77.526,27.226],[-77.567,27.089],[-77.605,27.007]]]}},{"type":"Feature","properties":{"density":1},"geometry":{"type":"Polygon","coordinates":[[[-79.726,25.945],[-79.991,25.734],[-80.152,25.643],[-80.239,25.635],[-80.375,25.676],[-80.437,25.668],[-80.47,25.647],[-80.561,25.643],[-80.631,25.697],[-80.66,25.759],[-80.718,25.916],[-80.731,26.09],[-80.656,26.239],[-80.602,26.305],[-80.52,26.367],[-80.421,26.408],[-80.152,26.462],[-80.02,26.52],[-79.854,26.528],[-79.652,26.462],[-79.569,26.416],[-79.511,26.354],[-79.478,26.276],[-79.474,26.218],[-79.627,25.995],[-79.726,25.945]]]}},{"type":"Feature","properties":{"density":1},"geometry":{"type":"Polygon","coordinates":[[[-87.75,37.645],[-87.604,37.496],[-87.557,37.413],[-87.54,37.308],[-87.565,37.308],[-87.604,37.341],[-87.772,37.545],[-87.799,37.595],[-87.777,37.628],[-87.75,37.645]]]}},{"type":"Feature","properties":{"density":1},"geometry":{"type":"Polygon","coordinates":[[[-86.064,43.078],[-85.981,43.074],[-85.977,43.061],[-86.006,43.032],[-86.055,43.032],[-86.08,43.049],[-86.064,43.078]]]}},{"type":"Feature","properties":{"density":1},"geometry":{"type":"Polygon","coordinates":[[[-77.168,55.125],[-77.211,55.1],[-77.267,55.026],[-77.292,54.97],[-77.31,54.859],[-77.31,54.598],[-77.285,54.53],[-77.248,54.505],[-77.192,54.555],[-77.112,54.747],[-77.068,54.989],[-77.068,55.038],[-77.099,55.088],[-77.168,55.125]]]}},{"type":"Feature","properties":{"density":1},"geometry":{"type":"Polygon","coordinates":[[[-76.095,55.255],[-76.138,55.15],[-76.126,55.1],[-76.089,55.119],[-76.052,55.224],[-76.095,55.255]]]}},{"type":"Feature","properties":{"density":1},"geometry":{"type":"Polygon","coordinates":[[[-101.322,36.119],[-101.268,36.288],[-101.239,36.446],[-101.235,36.586],[-101.161,36.851],[-101.153,36.954],[-101.095,37.004],[-101.037,37.016],[-100.991,36.987],[-100.987,36.95],[-101.02,36.673],[-101.202,36.107],[-101.235,36.069],[-101.268,36.074],[-101.322,36.119]]]}},{"type":"Feature","properties":{"density":1},"geometry":{"type":"Polygon","coordinates":[[[-101.649,37.33],[-101.516,37.533],[-101.446,37.715],[-101.446,37.76],[-101.463,37.772],[-101.512,37.731],[-101.673,37.417],[-101.69,37.371],[-101.686,37.347],[-101.665,37.334],[-101.649,37.33]]]}},{"type":"Feature","properties":{"density":1},"geometry":{"type":"Polygon","coordinates":[[[-126.405,66.63],[-126.642,66.658],[-126.935,66.532],[-127.075,66.365],[-127.131,66.142],[-127.159,65.919],[-127.145,65.667],[-127.549,65.263],[-127.535,65.054],[-127.493,64.83],[-127.368,64.621],[-127.256,64.51],[-126.991,64.328],[-126.475,64.133],[-126.154,64.063],[-125.917,64.063],[-125.805,64.203],[-125.889,64.412],[-125.945,64.691],[-125.624,65.095],[-125.345,65.193],[-125.052,65.179],[-124.759,65.123],[-124.48,65.137],[-124.201,65.221],[-123.992,65.472],[-124.034,65.681],[-124.257,65.96],[-124.703,66.253],[-125.094,66.407],[-125.582,66.546],[-126.126,66.644],[-126.405,66.63]]]}},{"type":"Feature","properties":{"density":1},"geometry":{"type":"Polygon","coordinates":[[[-122.031,38.308],[-121.676,38.443],[-121.538,38.468],[-121.491,38.438],[-121.491,38.377],[-121.524,38.275],[-121.579,38.228],[-121.998,38.217],[-122.02,38.231],[-122.031,38.272],[-122.031,38.308]]]}},{"type":"Feature","properties":{"density":1},"geometry":{"type":"Polygon","coordinates":[[[-118.724,35.301],[-119.133,35.84],[-119.437,36.157],[-119.573,36.237],[-119.697,36.281],[-119.753,36.281],[-119.84,36.231],[-119.896,36.119],[-119.896,36.033],[-119.796,35.865],[-119.548,35.661],[-119.418,35.487],[-119.214,35.295],[-119.102,35.22],[-118.966,35.158],[-118.817,35.158],[-118.711,35.233],[-118.724,35.301]]]}},{"type":"Feature","properties":{"density":1},"geometry":{"type":"Polygon","coordinates":[[[-117.397,33.326],[-117.281,33.367],[-117.193,33.464],[-117.185,33.544],[-117.223,33.61],[-117.265,33.648],[-117.29,33.645],[-117.364,33.574],[-117.436,33.367],[-117.419,33.331],[-117.397,33.326]]]}},{"type":"Feature","properties":{"density":1},"geometry":{"type":"Polygon","coordinates":[[[-115.871,31.445],[-115.626,31.329],[-115.568,31.357],[-115.59,31.39],[-115.772,31.489],[-115.871,31.503],[-115.882,31.47],[-115.871,31.445]]]}},{"type":"Feature","properties":{"density":1},"geometry":{"type":"Polygon","coordinates":[[[-109.808,22.795],[-109.753,22.795],[-109.64,22.864],[-109.579,22.991],[-109.549,23.14],[-109.568,23.234],[-109.618,23.316],[-109.69,23.382],[-109.764,23.404],[-109.863,23.38],[-109.896,23.314],[-109.894,23.223],[-109.83,23.008],[-109.83,22.922],[-109.852,22.87],[-109.841,22.815],[-109.808,22.795]]]}},{"type":"Feature","properties":{"density":1},"geometry":{"type":"Polygon","coordinates":[[[-110.829,33.603],[-110.865,33.686],[-110.87,33.801],[-110.837,34.193],[-110.79,34.27],[-110.724,34.331],[-110.661,34.331],[-110.471,34.281],[-110.275,34.162],[-110.217,34.11],[-110.121,33.956],[-110.107,33.895],[-110.135,33.779],[-110.173,33.738],[-110.432,33.7],[-110.658,33.578],[-110.708,33.564],[-110.799,33.57],[-110.829,33.603]]]}},{"type":"Feature","properties":{"density":1},"geometry":{"type":"Polygon","coordinates":[[[-114.073,37.504],[-114.11,37.364],[-114.18,37.302],[-114.254,37.273],[-114.35,37.302],[-114.407,37.355],[-114.436,37.401],[-114.482,37.579],[-114.507,37.583],[-114.54,37.537],[-114.54,37.347],[-114.581,37.293],[-114.668,37.273],[-114.75,37.293],[-114.866,37.422],[-115.18,37.88],[-115.325,38.033],[-115.437,38.211],[-115.466,38.302],[-115.528,39.075],[-115.416,39.28],[-115.304,39.435],[-115.081,39.596],[-114.926,39.664],[-114.833,39.683],[-114.61,39.689],[-114.3,39.614],[-114.102,39.528],[-114.071,39.497],[-113.947,39.242],[-113.934,39.143],[-113.94,38.529],[-113.922,38.207],[-113.953,37.792],[-113.99,37.668],[-114.073,37.504]]]}},{"type":"Feature","properties":{"density":1},"geometry":{"type":"Polygon","coordinates":[[[-113.723,38.033],[-113.767,38.046],[-113.791,38.102],[-113.81,38.201],[-113.81,38.436],[-113.705,38.963],[-113.636,39.019],[-113.556,39.038],[-113.488,38.988],[-113.444,38.926],[-113.407,38.777],[-113.407,38.666],[-113.457,38.412],[-113.519,38.25],[-113.63,38.083],[-113.723,38.033]]]}},{"type":"Feature","properties":{"density":1},"geometry":{"type":"Polygon","coordinates":[[[-109.038,26.497],[-108.939,26.484],[-108.65,26.492],[-108.567,26.513],[-108.538,26.538],[-108.563,26.579],[-108.683,26.6],[-108.931,26.608],[-109.084,26.55],[-109.063,26.488],[-109.038,26.497]]]}},{"type":"Feature","properties":{"density":1},"geometry":{"type":"Polygon","coordinates":[[[-95.817,17.118],[-95.743,17.11],[-95.673,17.155],[-95.573,17.056],[-95.536,17.052],[-95.491,17.081],[-95.474,17.151],[-95.503,17.238],[-95.491,17.279],[-95.392,17.362],[-95.367,17.453],[-95.375,17.519],[-95.412,17.61],[-95.474,17.684],[-95.59,17.78],[-95.693,17.833],[-95.788,17.846],[-95.871,17.833],[-95.941,17.8],[-95.995,17.751],[-96.032,17.581],[-96.032,17.478],[-95.991,17.321],[-95.888,17.155],[-95.817,17.118]]]}},{"type":"Feature","properties":{"density":1},"geometry":{"type":"Polygon","coordinates":[[[-95.325,17.023],[-95.356,17.202],[-95.361,17.357],[-95.347,17.417],[-95.325,17.425],[-95.281,17.351],[-95.251,17.186],[-95.254,17.056],[-95.29,17.012],[-95.325,17.023]]]}},{"type":"Feature","properties":{"density":1},"geometry":{"type":"Polygon","coordinates":[[[-94.919,17.075],[-94.913,17.285],[-94.875,17.326],[-94.839,17.155],[-94.853,17.075],[-94.88,17.053],[-94.919,17.075]]]}},{"type":"Feature","properties":{"density":1},"geometry":{"type":"Polygon","coordinates":[[[-95.797,18.484],[-95.945,18.613],[-96.058,18.674],[-96.127,18.677],[-96.144,18.654],[-96.141,18.627],[-96.103,18.577],[-96.001,18.503],[-95.866,18.445],[-95.791,18.445],[-95.797,18.484]]]}},{"type":"Feature","properties":{"density":1},"geometry":{"type":"Polygon","coordinates":[[[-97.76,21.674],[-97.929,21.654],[-98.142,21.575],[-98.136,21.562],[-98.079,21.562],[-97.87,21.595],[-97.751,21.639],[-97.76,21.674]]]}},{"type":"Feature","properties":{"density":1},"geometry":{"type":"Polygon","coordinates":[[[-98.167,21.951],[-98.553,21.929],[-98.611,21.888],[-98.554,21.877],[-98.238,21.885],[-98.152,21.925],[-98.167,21.951]]]}},{"type":"Feature","properties":{"density":1},"geometry":{"type":"Polygon","coordinates":[[[-97.941,22.087],[-98.185,22.164],[-98.35,22.197],[-98.431,22.19],[-98.442,22.169],[-98.034,22.055],[-97.946,22.068],[-97.941,22.087]]]}},{"type":"Feature","properties":{"density":1},"geometry":{"type":"Polygon","coordinates":[[[-98.578,22.085],[-98.663,22.019],[-98.736,21.995],[-98.723,22.022],[-98.639,22.085],[-98.589,22.094],[-98.578,22.085]]]}},{"type":"Feature","properties":{"density":1},"geometry":{"type":"Polygon","coordinates":[[[-90.871,16.018],[-91.135,16.073],[-91.207,16.062],[-91.199,16.043],[-91.097,16.007],[-90.901,15.969],[-90.854,15.982],[-90.871,16.018]]]}},{"type":"Feature","properties":{"density":1},"geometry":{"type":"Polygon","coordinates":[[[-90.153,16.39],[-90.246,16.391],[-90.222,16.373],[-90.142,16.371],[-90.153,16.39]]]}},{"type":"Feature","properties":{"density":1},"geometry":{"type":"Polygon","coordinates":[[[-88.913,17.019],[-89.053,17.056],[-89.174,17.126],[-89.286,17.214],[-89.332,17.293],[-89.251,17.284],[-88.922,17.126],[-88.854,17.058],[-88.854,17.034],[-88.897,17.014],[-88.913,17.019]]]}},{"type":"Feature","properties":{"density":1},"geometry":{"type":"Polygon","coordinates":[[[-89.328,19.13],[-89.42,19.196],[-89.446,19.233],[-89.461,19.305],[-89.429,19.301],[-89.354,19.25],[-89.292,19.171],[-89.299,19.132],[-89.328,19.13]]]}},{"type":"Feature","properties":{"density":1},"geometry":{"type":"Polygon","coordinates":[[[-93.857,17.495],[-93.918,17.635],[-94.048,17.813],[-94.109,17.938],[-94.228,18.275],[-94.311,18.647],[-94.368,18.825],[-94.459,18.986],[-94.683,19.549],[-94.728,19.681],[-94.732,19.739],[-94.695,19.747],[-94.629,19.702],[-94.55,19.586],[-94.397,19.226],[-94.145,18.825],[-94.038,18.519],[-93.98,18.296],[-93.831,17.982],[-93.777,17.813],[-93.769,17.573],[-93.806,17.478],[-93.857,17.495]]]}},{"type":"Feature","properties":{"density":1},"geometry":{"type":"Polygon","coordinates":[[[-92.94,17.906],[-92.878,17.881],[-92.828,17.823],[-92.808,17.761],[-92.808,17.691],[-92.862,17.604],[-92.973,17.587],[-93.089,17.6],[-93.225,17.621],[-93.329,17.658],[-93.482,17.827],[-93.568,17.968],[-93.701,18.137],[-93.725,18.286],[-93.713,18.352],[-93.68,18.402],[-93.635,18.435],[-93.573,18.422],[-93.432,18.352],[-93.329,18.278],[-93.031,18.026],[-92.94,17.906]]]}},{"type":"Feature","properties":{"density":1},"geometry":{"type":"Polygon","coordinates":[[[-92.189,17.716],[-92.528,17.906],[-92.583,17.897],[-92.575,17.724],[-92.244,17.641],[-92.173,17.641],[-92.159,17.672],[-92.189,17.716]]]}},{"type":"Feature","properties":{"density":1},"geometry":{"type":"Polygon","coordinates":[[[-92.412,18.322],[-92.647,18.393],[-92.765,18.38],[-92.776,18.349],[-92.757,18.322],[-92.58,18.275],[-92.459,18.267],[-92.412,18.289],[-92.412,18.322]]]}},{"type":"Feature","properties":{"density":1},"geometry":{"type":"Polygon","coordinates":[[[-92.219,18.551],[-92.611,18.961],[-92.732,19.151],[-92.828,19.35],[-92.928,19.476],[-93.065,19.576],[-93.17,19.57],[-93.181,19.482],[-92.977,18.947],[-92.793,18.658],[-92.614,18.523],[-92.498,18.468],[-92.332,18.418],[-92.258,18.424],[-92.211,18.479],[-92.208,18.512],[-92.219,18.551]]]}},{"type":"Feature","properties":{"density":1},"geometry":{"type":"Polygon","coordinates":[[[-88.03,15.007],[-86.775,15.007],[-86.338,15.044],[-85.575,15.072],[-85.129,15.146],[-84.478,15.416],[-84.319,15.527],[-84.217,15.648],[-84.189,16.03],[-84.208,16.169],[-84.319,16.318],[-84.515,16.411],[-84.682,16.42],[-84.943,16.271],[-85.129,16.253],[-85.352,16.271],[-85.677,16.374],[-85.975,16.606],[-86.096,16.755],[-86.114,16.867],[-86.114,17.025],[-86.17,17.155],[-86.245,17.248],[-86.384,17.35],[-86.514,17.415],[-86.896,17.36],[-87.063,17.388],[-87.412,17.555],[-88.04,18.211],[-88.123,18.42],[-88.137,18.657],[-87.984,19.675],[-87.83,20.275],[-87.788,20.638],[-87.719,20.889],[-87.468,21.308],[-87.991,23.421],[-88.012,24.049],[-87.802,24.551],[-87.447,24.97],[-86.045,25.451],[-85.312,25.597],[-84.601,25.451],[-83.868,24.97],[-83.45,24.53],[-83.408,24.091],[-83.575,23.735],[-83.806,23.379],[-83.952,22.752],[-83.387,22.27],[-82.257,22.061],[-81.525,22.145],[-81.441,23.421],[-82.257,24.509],[-82.048,24.813],[-81.65,24.917],[-81.378,24.896],[-81.127,24.729],[-80.981,24.562],[-80.855,24.311],[-80.374,23.892],[-79.788,23.808],[-79.202,23.976],[-78.804,24.373],[-78.616,24.792],[-78.449,25.336],[-78.281,25.733],[-75.247,28.506],[-74.399,29.04],[-73.395,29.636],[-71.731,30.515],[-71.104,30.892],[-69.879,32.367],[-68.31,33.623],[-67.745,33.936],[-65.736,35.192],[-64.355,36.495],[-64.025,36.918],[-63.978,37.672],[-64.12,38.143],[-65.155,38.048],[-66.191,37.719],[-68.122,37.201],[-69.628,36.495],[-70.947,35.788],[-72.312,34.8],[-73.96,33.481],[-74.478,33.01],[-75.278,32.493],[-76.079,31.833],[-81.995,28.914],[-83.314,28.569],[-86.076,28.381],[-86.829,28.224],[-87.959,27.941],[-89.497,27.439],[-90.565,26.811],[-91.255,26.497],[-91.726,26.309],[-92.448,26.089],[-92.919,26.026],[-93.766,26.026],[-94.237,26.183],[-94.488,26.403],[-94.739,27.219],[-94.488,27.753],[-94.143,28.067],[-93.17,28.412],[-92.354,28.443],[-90.47,28.632],[-89.592,28.632],[-88.964,28.726],[-88.587,29.008],[-89.058,29.856],[-90.0,30.107],[-91.004,30.17],[-93.107,30.17],[-93.86,30.013],[-95.398,29.448],[-95.869,29.134],[-96.874,28.349],[-97.125,28.13],[-97.502,27.69],[-98.496,26.466],[-98.998,25.168],[-99.081,24.645],[-99.165,23.892],[-99.144,23.494],[-99.13,21.974],[-99.047,21.639],[-98.907,21.346],[-98.656,21.025],[-98.363,20.579],[-98.126,20.174],[-97.707,19.574],[-97.526,19.128],[-97.331,18.737],[-96.968,18.193],[-96.717,17.928],[-95.977,17.356],[-95.754,17.217],[-95.433,17.189],[-95.252,17.203],[-95.029,17.245],[-94.847,17.259],[-94.61,17.314],[-94.136,17.272],[-93.704,17.007],[-93.62,16.687],[-93.662,16.435],[-93.857,15.975],[-93.983,15.71],[-94.094,15.529],[-94.22,15.361],[-94.75,14.747],[-94.722,14.468],[-94.61,14.203],[-94.164,13.603],[-93.69,13.255],[-93.132,12.99],[-92.504,12.794],[-91.904,12.655],[-91.36,12.557],[-90.913,12.557],[-90.509,12.627],[-90.244,12.906],[-90.132,13.101],[-90.104,13.352],[-90.174,13.52],[-90.314,14.008],[-90.188,14.343],[-90.076,14.44],[-89.714,14.873],[-89.044,14.915],[-88.444,14.929],[-88.03,15.007]]]}},{"type":"Feature","properties":{"density":1},"geometry":{"type":"Polygon","coordinates":[[[-97.951,15.591],[-98.3,15.48],[-98.914,15.438],[-99.667,15.452],[-100.853,15.675],[-101.593,15.689],[-102.485,15.647],[-103.211,15.382],[-103.825,15.005],[-104.076,14.796],[-104.466,14.406],[-104.634,14.168],[-104.662,13.987],[-104.731,13.806],[-104.969,13.541],[-105.373,13.401],[-105.806,13.359],[-106.475,13.359],[-107.089,13.513],[-107.48,13.806],[-107.787,14.099],[-108.024,14.475],[-108.094,14.74],[-108.066,15.033],[-107.828,15.312],[-107.508,15.41],[-106.88,15.424],[-106.419,15.577],[-106.182,15.815],[-106.071,16.066],[-105.666,16.861],[-105.624,17.154],[-105.61,17.447],[-106.782,19.749],[-106.88,20.083],[-106.922,20.586],[-106.824,20.907],[-106.573,21.297],[-106.322,21.562],[-106.071,22.609],[-105.945,22.954],[-105.694,23.111],[-105.223,23.079],[-104.941,22.765],[-104.784,22.514],[-104.69,22.138],[-104.47,21.73],[-103.968,20.443],[-103.748,19.972],[-103.497,19.564],[-102.9,19.03],[-102.273,18.434],[-101.488,18.057],[-99.762,17.147],[-98.537,16.802],[-98.161,16.613],[-97.941,16.362],[-97.91,15.891],[-97.951,15.591]]]}},{"type":"Feature","properties":{"density":1},"geometry":{"type":"Polygon","coordinates":[[[-114.601,63.853],[-115.26,63.477],[-117.096,62.347],[-120.345,61.593],[-122.699,61.217],[-126.419,61.264],[-128.82,61.782],[-130.044,62.206],[-131.974,62.535],[-133.199,62.723],[-135.741,63.194],[-137.154,63.571],[-139.084,64.183],[-140.826,64.795],[-143.227,66.208],[-144.028,66.726],[-145.299,67.196],[-146.664,67.338],[-147.983,67.243],[-149.583,66.631],[-150.949,65.925],[-152.785,65.737],[-154.339,65.737],[-155.281,65.878],[-155.798,66.302],[-155.94,66.726],[-155.893,67.761],[-155.469,68.091],[-153.915,68.844],[-152.738,68.844],[-147.559,68.938],[-145.864,69.033],[-143.651,69.456],[-140.591,69.974],[-138.566,70.351],[-136.118,70.539],[-133.575,70.633],[-130.986,70.963],[-129.196,71.104],[-127.643,71.104],[-120.58,69.927],[-119.215,69.268],[-117.284,68.562],[-115.307,67.667],[-114.789,66.961],[-114.506,66.066],[-114.365,65.172],[-114.601,63.853]]]}},{"type":"Feature","properties":{"density":2},"geometry":{"type":"Polygon","coordinates":[[[-118.723,41.958],[-117.931,42.347],[-117.442,42.462],[-116.506,42.52],[-115.714,42.448],[-114.446,42.822],[-114.259,42.851],[-113.323,42.851],[-112.574,42.664],[-112.157,42.491],[-111.825,42.203],[-111.48,42.045],[-111.293,41.987],[-110.054,42.027],[-109.905,41.986],[-109.801,41.845],[-109.888,41.563],[-110.27,41.18],[-110.803,40.907],[-111.062,40.806],[-111.12,40.633],[-110.947,40.489],[-110.443,40.59],[-110.097,40.59],[-109.495,40.66],[-109.12,40.638],[-108.815,40.436],[-108.861,40.125],[-109.151,39.909],[-110.356,39.683],[-110.803,39.452],[-110.817,39.222],[-110.702,39.092],[-110.126,39.107],[-109.708,39.179],[-108.945,39.236],[-108.419,39.211],[-108.081,39.006],[-107.659,38.799],[-107.557,38.585],[-107.693,38.366],[-108.555,38.238],[-108.879,37.968],[-108.703,37.473],[-108.513,37.134],[-108.427,36.687],[-108.672,36.371],[-109.118,36.313],[-110.025,36.515],[-110.544,36.774],[-111.12,37.177],[-112.286,38.214],[-112.934,38.617],[-113.539,39.179],[-114.533,40.028],[-115.382,40.216],[-117.053,40.244],[-117.528,40.014],[-117.874,39.582],[-118.68,39.424],[-119.53,39.51],[-119.875,39.985],[-120.077,40.748],[-120.005,41.353],[-119.703,41.584],[-119.141,41.728],[-118.723,41.958]]]}},{"type":"Feature","properties":{"density":2},"geometry":{"type":"Polygon","coordinates":[[[-119.846,35.347],[-119.899,35.393],[-119.948,35.467],[-119.95,35.517],[-119.914,35.597],[-119.89,35.615],[-119.782,35.627],[-119.71,35.661],[-119.661,35.664],[-119.628,35.644],[-119.596,35.584],[-119.575,35.467],[-119.495,35.358],[-119.46,35.074],[-119.479,35.056],[-119.56,35.073],[-119.662,35.162],[-119.766,35.293],[-119.825,35.336],[-119.846,35.347]]]}},{"type":"Feature","properties":{"density":2},"geometry":{"type":"Polygon","coordinates":[[[-93.844,17.487],[-93.893,17.66],[-94.05,17.877],[-94.157,18.085],[-94.182,18.207],[-94.182,18.316],[-94.145,18.481],[-94.011,18.585],[-93.702,18.64],[-93.411,18.603],[-93.108,18.621],[-92.917,18.615],[-92.561,18.701],[-92.447,18.701],[-92.342,18.68],[-92.199,18.568],[-92.163,18.451],[-92.167,18.381],[-92.437,18.107],[-92.468,17.967],[-92.384,17.749],[-92.364,17.603],[-92.364,17.458],[-92.456,17.355],[-92.559,17.345],[-92.909,17.416],[-93.015,17.375],[-93.102,17.308],[-93.179,17.273],[-93.348,17.235],[-93.48,17.229],[-93.698,17.29],[-93.743,17.324],[-93.836,17.452],[-93.844,17.487]]]}},{"type":"Feature","properties":{"density":2},"geometry":{"type":"Polygon","coordinates":[[[-114.686,37.367],[-114.72,37.414],[-114.741,37.493],[-114.722,37.514],[-114.685,37.496],[-114.659,37.443],[-114.649,37.375],[-114.669,37.36],[-114.686,37.367]]]}},{"type":"Feature","properties":{"density":2},"geometry":{"type":"Polygon","coordinates":[[[-119.825,35.351],[-119.872,35.384],[-119.914,35.45],[-119.955,35.568],[-119.955,35.637],[-119.919,35.673],[-119.825,35.681],[-119.787,35.659],[-119.828,35.535],[-119.795,35.414],[-119.803,35.359],[-119.825,35.351]]]}},{"type":"Feature","properties":{"density":2},"geometry":{"type":"Polygon","coordinates":[[[-93.826,17.512],[-93.836,17.645],[-93.819,17.669],[-93.806,17.609],[-93.815,17.506],[-93.826,17.512]]]}},{"type":"Feature","properties":{"density":2},"geometry":{"type":"Polygon","coordinates":[[[-92.921,17.744],[-92.904,17.764],[-92.933,17.838],[-92.996,17.862],[-92.943,17.762],[-92.915,17.751],[-92.921,17.744]]]}},{"type":"Feature","properties":{"density":2},"geometry":{"type":"Polygon","coordinates":[[[-88.892,17.299],[-88.991,17.385],[-89.041,17.404],[-89.046,17.373],[-88.925,17.286],[-88.881,17.279],[-88.892,17.299]]]}},{"type":"Feature","properties":{"density":2},"geometry":{"type":"Polygon","coordinates":[[[-69.522,18.579],[-69.583,18.601],[-69.528,18.57],[-69.522,18.579]]]}},{"type":"Feature","properties":{"density":2},"geometry":{"type":"Polygon","coordinates":[[[-68.817,18.981],[-69.074,19.132],[-69.195,19.249],[-69.269,19.282],[-69.256,19.251],[-69.153,19.159],[-68.973,19.038],[-68.841,18.983],[-68.817,18.981]]]}},{"type":"Feature","properties":{"density":2},"geometry":{"type":"Polygon","coordinates":[[[-80.419,25.856],[-80.466,25.949],[-80.471,25.993],[-80.521,26.05],[-80.502,26.085],[-80.429,26.07],[-80.407,26.042],[-80.324,26.053],[-80.32,26.011],[-80.369,25.946],[-80.401,25.858],[-80.419,25.856]]]}},{"type":"Feature","properties":{"density":2},"geometry":{"type":"Polygon","coordinates":[[[-89.228,36.807],[-89.234,36.77],[-89.201,36.781],[-89.212,36.805],[-89.228,36.807]]]}},{"type":"Feature","properties":{"density":2},"geometry":{"type":"Polygon","coordinates":[[[-96.604,20.025],[-96.721,20.022],[-96.61,20.014],[-96.604,20.025]]]}},{"type":"Feature","properties":{"density":2},"geometry":{"type":"Polygon","coordinates":[[[-93.828,17.511],[-93.896,17.814],[-93.891,17.884],[-93.863,17.867],[-93.836,17.803],[-93.812,17.513],[-93.828,17.511]]]}},{"type":"Feature","properties":{"density":2},"geometry":{"type":"Polygon","coordinates":[[[-92.251,18.501],[-92.416,18.589],[-92.457,18.586],[-92.248,18.478],[-92.251,18.501]]]}},{"type":"Feature","properties":{"density":2},"geometry":{"type":"Polygon","coordinates":[[[-92.921,17.769],[-92.947,17.81],[-92.985,17.828],[-93.018,17.801],[-92.98,17.764],[-92.928,17.749],[-92.921,17.769]]]}},{"type":"Feature","properties":{"density":2},"geometry":{"type":"Polygon","coordinates":[[[-88.869,17.189],[-89.222,17.422],[-89.259,17.439],[-89.279,17.424],[-89.242,17.369],[-89.125,17.279],[-88.884,17.178],[-88.869,17.189]]]}},{"type":"Feature","properties":{"density":2},"geometry":{"type":"Polygon","coordinates":[[[-68.813,18.982],[-69.123,19.131],[-69.171,19.14],[-69.187,19.125],[-69.037,19.05],[-68.814,18.971],[-68.813,18.982]]]}},{"type":"Feature","properties":{"density":2},"geometry":{"type":"Polygon","coordinates":[[[-77.605,26.865],[-77.555,27.033],[-77.592,26.974],[-77.608,26.88],[-77.605,26.865]]]}},{"type":"Feature","properties":{"density":2},"geometry":{"type":"Polygon","coordinates":[[[-80.002,25.817],[-80.208,25.666],[-80.261,25.664],[-80.303,25.681],[-80.386,25.751],[-80.41,25.753],[-80.43,25.751],[-80.495,25.692],[-80.579,25.679],[-80.601,25.731],[-80.597,25.789],[-80.515,25.879],[-80.504,25.944],[-80.588,26.023],[-80.592,26.052],[-80.517,26.133],[-80.438,26.19],[-80.305,26.221],[-80.026,26.26],[-79.747,26.217],[-79.692,26.195],[-79.688,26.148],[-79.949,25.878],[-80.002,25.817]]]}},{"type":"Feature","properties":{"density":2},"geometry":{"type":"Polygon","coordinates":[[[-77.174,55.063],[-77.248,54.902],[-77.261,54.735],[-77.211,54.735],[-77.143,54.933],[-77.124,55.051],[-77.174,55.063]]]}},{"type":"Feature","properties":{"density":2},"geometry":{"type":"Polygon","coordinates":[[[-125.517,66.1],[-125.573,66.063],[-125.592,65.998],[-125.592,65.914],[-125.517,65.812],[-125.406,65.756],[-125.313,65.774],[-125.303,65.849],[-125.303,65.923],[-125.34,65.998],[-125.396,66.063],[-125.517,66.1]]]}},{"type":"Feature","properties":{"density":2},"geometry":{"type":"Polygon","coordinates":[[[-126.456,66.556],[-126.642,66.481],[-126.838,66.277],[-126.977,66.081],[-127.014,65.951],[-126.987,65.812],[-126.875,65.672],[-126.503,65.365],[-126.354,65.337],[-126.243,65.402],[-126.131,65.616],[-126.075,65.849],[-126.066,66.053],[-126.084,66.323],[-126.159,66.472],[-126.252,66.546],[-126.336,66.556],[-126.456,66.556]]]}},{"type":"Feature","properties":{"density":2},"geometry":{"type":"Polygon","coordinates":[[[-127.135,65.077],[-127.201,65.058],[-127.293,64.947],[-127.173,64.798],[-127.061,64.696],[-126.801,64.547],[-126.531,64.417],[-126.401,64.398],[-126.298,64.444],[-126.289,64.547],[-126.447,64.714],[-126.587,64.844],[-126.782,64.956],[-126.977,65.095],[-127.135,65.077]]]}},{"type":"Feature","properties":{"density":2},"geometry":{"type":"Polygon","coordinates":[[[-121.987,38.281],[-121.714,38.333],[-121.695,38.333],[-121.687,38.314],[-121.695,38.292],[-121.728,38.275],[-121.998,38.256],[-121.987,38.281]]]}},{"type":"Feature","properties":{"density":2},"geometry":{"type":"Polygon","coordinates":[[[-109.63,23.104],[-109.636,23.209],[-109.687,23.284],[-109.805,23.337],[-109.864,23.323],[-109.864,23.284],[-109.752,23.126],[-109.696,22.994],[-109.673,22.976],[-109.647,22.983],[-109.621,23.064],[-109.63,23.104]]]}},{"type":"Feature","properties":{"density":2},"geometry":{"type":"Polygon","coordinates":[[[-110.801,33.68],[-110.757,33.948],[-110.724,34.058],[-110.683,34.096],[-110.592,34.138],[-110.429,34.105],[-110.372,34.047],[-110.341,33.981],[-110.314,33.857],[-110.614,33.688],[-110.724,33.589],[-110.763,33.578],[-110.788,33.595],[-110.801,33.642],[-110.801,33.68]]]}},{"type":"Feature","properties":{"density":2},"geometry":{"type":"Polygon","coordinates":[[[-114.763,37.364],[-114.949,37.756],[-115.056,37.909],[-115.313,38.19],[-115.358,38.29],[-115.366,38.389],[-115.313,38.769],[-115.246,38.901],[-115.147,38.968],[-115.081,39.125],[-114.965,39.195],[-114.837,39.195],[-114.796,39.158],[-114.779,39.108],[-114.775,39.038],[-114.821,38.827],[-114.829,38.629],[-114.846,38.558],[-114.779,38.496],[-114.697,38.467],[-114.664,38.376],[-114.631,38.17],[-114.593,38.066],[-114.577,37.839],[-114.577,37.529],[-114.593,37.36],[-114.598,37.335],[-114.635,37.314],[-114.734,37.331],[-114.763,37.364]]]}},{"type":"Feature","properties":{"density":2},"geometry":{"type":"Polygon","coordinates":[[[-114.387,37.401],[-114.449,37.591],[-114.465,37.727],[-114.465,37.984],[-114.494,38.211],[-114.474,38.629],[-114.424,38.98],[-114.354,39.137],[-114.296,39.211],[-114.155,39.253],[-114.102,39.232],[-114.052,39.141],[-114.035,39.025],[-114.102,38.306],[-114.085,38.116],[-114.002,37.934],[-114.002,37.843],[-114.044,37.657],[-114.201,37.331],[-114.242,37.314],[-114.288,37.322],[-114.35,37.368],[-114.387,37.401]]]}},{"type":"Feature","properties":{"density":2},"geometry":{"type":"Polygon","coordinates":[[[-113.738,38.133],[-113.742,38.236],[-113.696,38.488],[-113.659,38.579],[-113.639,38.579],[-113.622,38.558],[-113.614,38.414],[-113.663,38.108],[-113.68,38.083],[-113.705,38.083],[-113.738,38.112],[-113.738,38.133]]]}},{"type":"Feature","properties":{"density":2},"geometry":{"type":"Polygon","coordinates":[[[-95.58,17.149],[-95.6,17.297],[-95.688,17.397],[-95.746,17.438],[-95.737,17.457],[-95.693,17.452],[-95.655,17.424],[-95.586,17.43],[-95.55,17.413],[-95.531,17.328],[-95.564,17.115],[-95.58,17.149]]]}},{"type":"Feature","properties":{"density":2},"geometry":{"type":"Polygon","coordinates":[[[-88.891,17.051],[-89.137,17.22],[-89.213,17.236],[-89.224,17.196],[-89.187,17.17],[-89.001,17.065],[-88.906,17.036],[-88.891,17.051]]]}},{"type":"Feature","properties":{"density":2},"geometry":{"type":"Polygon","coordinates":[[[-93.835,17.514],[-93.96,17.855],[-94.046,18.017],[-94.059,18.072],[-94.054,18.101],[-94.035,18.111],[-94.006,18.111],[-93.958,18.081],[-93.833,17.923],[-93.791,17.844],[-93.78,17.648],[-93.813,17.506],[-93.835,17.514]]]}},{"type":"Feature","properties":{"density":2},"geometry":{"type":"Polygon","coordinates":[[[-92.895,17.728],[-93.023,17.705],[-93.13,17.713],[-93.271,17.887],[-93.418,17.981],[-93.44,18.021],[-93.431,18.115],[-93.367,18.143],[-93.323,18.121],[-93.201,17.988],[-93.115,17.957],[-92.906,17.825],[-92.874,17.757],[-92.895,17.728]]]}},{"type":"Feature","properties":{"density":2},"geometry":{"type":"Polygon","coordinates":[[[-92.277,18.515],[-92.346,18.545],[-92.52,18.675],[-92.713,18.936],[-92.875,19.256],[-92.911,19.289],[-92.939,19.278],[-92.95,19.217],[-92.892,19.058],[-92.853,18.969],[-92.738,18.801],[-92.558,18.592],[-92.484,18.545],[-92.313,18.484],[-92.277,18.515]]]}},{"type":"Feature","properties":{"density":2},"geometry":{"type":"Polygon","coordinates":[[[-92.567,17.913],[-92.641,18.145],[-92.725,18.257],[-92.818,18.322],[-92.948,18.517],[-92.994,18.638],[-93.087,18.787],[-93.171,18.852],[-93.571,19.28],[-93.58,19.41],[-93.562,19.549],[-93.515,19.67],[-93.45,19.754],[-93.366,19.819],[-93.273,19.856],[-92.753,19.652],[-92.52,19.605],[-92.418,19.652],[-92.511,19.856],[-92.864,20.052],[-93.078,20.145],[-93.562,20.405],[-93.645,20.424],[-94.101,20.349],[-94.296,20.21],[-94.455,20.015],[-94.575,19.987],[-94.659,19.94],[-94.724,19.81],[-94.724,19.643],[-94.668,19.484],[-94.445,19.084],[-94.343,18.861],[-94.241,18.489],[-94.213,18.192],[-94.138,17.941],[-94.092,17.894],[-93.608,17.699],[-93.199,17.596],[-92.79,17.578],[-92.613,17.727],[-92.567,17.913]]]}},{"type":"Feature","properties":{"density":3},"geometry":{"type":"Polygon","coordinates":[[[-114.675,37.37],[-114.715,37.444],[-114.67,37.375],[-114.675,37.37]]]}},{"type":"Feature","properties":{"density":3},"geometry":{"type":"Polygon","coordinates":[[[-80.417,25.867],[-80.425,25.896],[-80.409,25.908],[-80.392,25.886],[-80.402,25.867],[-80.417,25.867]]]}},{"type":"Feature","properties":{"density":3},"geometry":{"type":"Polygon","coordinates":[[[-88.883,17.19],[-88.966,17.226],[-88.89,17.185],[-88.883,17.19]]]}},{"type":"Feature","properties":{"density":3},"geometry":{"type":"Polygon","coordinates":[[[-80.54,25.751],[-80.557,25.802],[-80.577,25.81],[-80.553,25.749],[-80.54,25.751]]]}},{"type":"Feature","properties":{"density":3},"geometry":{"type":"Polygon","coordinates":[[[-80.406,25.846],[-80.443,25.89],[-80.445,25.909],[-80.416,25.931],[-80.377,25.907],[-80.368,25.87],[-80.388,25.846],[-80.406,25.846]]]}},{"type":"Feature","properties":{"density":3},"geometry":{"type":"Polygon","coordinates":[[[-126.494,66.425],[-126.577,66.388],[-126.615,66.332],[-126.67,66.202],[-126.689,66.109],[-126.689,66.035],[-126.642,65.942],[-126.577,65.895],[-126.503,65.923],[-126.391,66.119],[-126.354,66.267],[-126.354,66.36],[-126.391,66.407],[-126.466,66.435],[-126.494,66.425]]]}},{"type":"Feature","properties":{"density":3},"geometry":{"type":"Polygon","coordinates":[[[-127.042,64.975],[-126.801,64.807],[-126.782,64.77],[-126.782,64.723],[-126.856,64.696],[-127.042,64.844],[-127.098,64.947],[-127.042,64.975]]]}},{"type":"Feature","properties":{"density":3},"geometry":{"type":"Polygon","coordinates":[[[-110.757,33.595],[-110.688,33.672],[-110.647,33.746],[-110.658,33.788],[-110.733,33.768],[-110.771,33.653],[-110.755,33.609],[-110.757,33.595]]]}},{"type":"Feature","properties":{"density":3},"geometry":{"type":"Polygon","coordinates":[[[-114.676,37.36],[-114.705,37.401],[-114.713,37.657],[-114.639,37.703],[-114.614,37.699],[-114.639,37.591],[-114.643,37.355],[-114.66,37.343],[-114.676,37.36]]]}},{"type":"Feature","properties":{"density":3},"geometry":{"type":"Polygon","coordinates":[[[-114.312,37.384],[-114.362,37.55],[-114.358,37.864],[-114.312,38.021],[-114.283,38.062],[-114.213,38.079],[-114.151,38.046],[-114.064,37.818],[-114.097,37.699],[-114.201,37.488],[-114.221,37.38],[-114.271,37.368],[-114.312,37.384]]]}},{"type":"Feature","properties":{"density":3},"geometry":{"type":"Polygon","coordinates":[[[-92.917,17.764],[-92.915,17.788],[-92.946,17.803],[-92.963,17.779],[-92.935,17.753],[-92.917,17.764]]]}}]}