{"type":"FeatureCollection","features":[{"type":"Feature","properties":{"density":1},"geometry":{"type":"Polygon","coordinates":[[[-88.824,33.097],[-88.868,33.004],[-88.861,32.957],[-88.827,32.982],[-88.801,33.035],[-88.801,33.092],[-88.824,33.097]]]}},{"type":"Feature","properties":{"density":1},"geometry":{"type":"Polygon","coordinates":[[[-121.346,35.978],[-121.494,36.042],[-121.707,36.215],[-121.838,36.239],[-121.833,36.17],[-121.697,35.862],[-121.581,35.732],[-121.536,35.706],[-121.422,35.67],[-121.383,35.672],[-121.341,35.699],[-121.326,35.745],[-121.346,35.978]]]}},{"type":"Feature","properties":{"density":1},"geometry":{"type":"Polygon","coordinates":[[[-100.923,50.626],[-99.693,51.126],[-98.501,51.818],[-97.386,52.087],[-95.541,52.663],[-93.503,52.817],[-91.312,53.125],[-89.697,53.24],[-88.083,53.317],[-85.968,53.548],[-84.431,53.855],[-82.124,53.894],[-80.932,53.701],[-79.817,53.279],[-79.433,52.933],[-78.818,52.087],[-78.318,50.588],[-77.626,49.396],[-76.588,48.55],[-75.935,47.973],[-74.935,47.205],[-74.205,46.436],[-73.513,45.628],[-72.667,44.129],[-71.629,41.476],[-71.052,39.631],[-70.822,37.901],[-70.976,36.556],[-71.091,35.71],[-71.783,34.018],[-72.321,32.404],[-73.513,31.481],[-75.243,30.751],[-76.819,30.751],[-77.78,30.328],[-78.818,29.405],[-79.548,28.598],[-81.05,27.6],[-86.122,26.637],[-86.853,26.445],[-87.929,25.945],[-90.12,25.215],[-91.312,24.6],[-91.966,24.292],[-92.504,23.831],[-93.465,22.139],[-94.157,19.833],[-94.81,18.756],[-95.349,17.988],[-96.387,17.372],[-97.617,17.065],[-99.155,16.911],[-100.462,16.95],[-101.807,16.757],[-103.153,16.527],[-105.036,15.335],[-105.651,14.528],[-106.613,13.682],[-107.766,12.298],[-109.65,11.606],[-110.534,11.414],[-113.033,11.452],[-114.724,11.529],[-115.724,11.913],[-116.608,12.913],[-117.184,14.105],[-117.8,15.22],[-117.975,16.86],[-117.975,17.287],[-117.761,20.269],[-117.966,21.012],[-118.351,22.549],[-118.658,23.523],[-118.94,24.19],[-119.273,25.215],[-119.35,25.727],[-119.196,26.368],[-118.966,26.958],[-118.274,28.06],[-117.479,29.162],[-117.069,30.033],[-116.582,31.161],[-116.018,31.853],[-115.608,32.288],[-114.993,32.494],[-114.634,32.417],[-113.66,32.135],[-112.738,31.084],[-112.174,30.341],[-111.303,29.316],[-109.867,27.855],[-108.74,26.932],[-108.15,26.548],[-107.253,25.933],[-106.594,25.785],[-106.138,26.024],[-105.876,26.4],[-105.819,27.027],[-106.115,27.676],[-106.536,28.342],[-107.484,29.495],[-107.971,30.443],[-108.125,31.75],[-108.125,32.237],[-107.766,33.083],[-107.356,33.621],[-105.664,34.569],[-104.434,35.031],[-103.435,35.62],[-102.64,36.158],[-101.666,36.645],[-100.897,37.209],[-99.338,37.853],[-98.159,38.503],[-97.356,39.34],[-96.156,39.977],[-95.054,40.669],[-94.388,40.951],[-93.414,41.002],[-93.157,41.054],[-92.722,41.182],[-92.388,41.361],[-91.978,41.771],[-91.799,42.463],[-91.85,43.155],[-91.978,43.796],[-92.799,45.231],[-93.285,45.462],[-94.131,46.026],[-94.85,46.438],[-95.636,46.729],[-96.73,46.455],[-97.533,46.182],[-98.25,45.908],[-99.053,45.703],[-100.147,45.225],[-100.804,44.35],[-101.624,43.709],[-102.026,43.291],[-102.162,42.71],[-101.573,41.762],[-101.103,41.223],[-100.779,40.489],[-100.864,39.481],[-101.923,37.567],[-102.948,37.106],[-103.82,37.294],[-104.486,37.635],[-105.135,38.319],[-105.255,39.395],[-105.699,40.557],[-106.502,42.061],[-107.34,43.035],[-108.518,43.718],[-109.066,44.525],[-109.407,45.293],[-109.459,46.199],[-109.356,46.985],[-108.741,47.839],[-108.092,48.198],[-106.964,48.386],[-106.11,48.762],[-104.367,49.77],[-102.925,50.129],[-101.541,50.556],[-100.923,50.626]]]}},{"type":"Feature","properties":{"density":1},"geometry":{"type":"Polygon","coordinates":[[[-133.6,72.637],[-132.851,72.637],[-129.968,73.041],[-127.546,73.098],[-122.817,73.098],[-120.741,72.868],[-117.627,72.752],[-113.879,72.579],[-110.592,71.657],[-108.343,70.849],[-106.902,69.869],[-106.383,69.12],[-106.21,68.255],[-105.633,67.332],[-105.172,66.467],[-103.326,65.371],[-101.596,64.91],[-100.097,64.91],[-96.061,65.487],[-94.869,65.237],[-93.177,65.237],[-91.101,65.698],[-89.794,66.467],[-88.41,67.044],[-86.373,67.466],[-84.874,68.158],[-83.336,68.62],[-81.337,68.966],[-79.261,69.196],[-77.262,68.966],[-75.801,68.62],[-74.801,68.158],[-73.417,66.659],[-73.071,66.159],[-72.841,65.275],[-72.572,64.468],[-73.571,61.123],[-74.571,59.701],[-75.493,58.932],[-76.724,58.548],[-77.339,58.086],[-78.3,56.933],[-79.145,56.279],[-82.682,56.203],[-84.451,55.895],[-86.142,55.78],[-88.487,55.434],[-90.063,55.357],[-91.332,55.395],[-92.332,55.241],[-96.061,54.895],[-98.713,54.703],[-100.059,54.55],[-101.789,54.55],[-103.057,54.588],[-105.979,54.78],[-109.208,55.78],[-110.246,56.203],[-111.169,56.779],[-111.592,57.241],[-112.745,57.74],[-114.283,57.856],[-115.697,57.698],[-116.653,57.475],[-117.473,57.202],[-118.362,56.98],[-119.08,56.826],[-119.626,56.655],[-120.6,56.467],[-121.147,56.382],[-121.933,56.416],[-122.599,56.638],[-123.693,57.27],[-124.24,57.698],[-124.684,58.62],[-125.162,59.526],[-125.094,60.346],[-125.111,60.739],[-125.265,61.149],[-125.654,61.427],[-126.143,61.605],[-126.434,61.746],[-126.672,61.807],[-126.743,61.918],[-126.601,61.994],[-126.221,62.045],[-125.867,62.02],[-125.679,62.222],[-125.573,62.617],[-125.35,62.96],[-124.974,63.336],[-124.257,63.609],[-122.736,63.797],[-122.275,63.746],[-121.66,63.558],[-121.181,63.336],[-120.891,63.063],[-120.481,62.755],[-120.019,62.379],[-119.797,62.123],[-119.148,61.764],[-118.464,61.559],[-117.935,61.491],[-117.32,61.371],[-116.517,61.029],[-116.107,60.876],[-115.697,60.5],[-114.552,60.192],[-113.851,60.021],[-112.613,59.919],[-111.305,59.842],[-110.383,59.637],[-108.819,59.381],[-107.82,59.329],[-106.564,59.15],[-105.539,58.945],[-104.873,58.689],[-104.027,58.458],[-102.233,58.099],[-101.566,57.92],[-100.208,57.715],[-99.619,57.715],[-98.978,57.817],[-98.799,57.945],[-98.747,58.279],[-98.85,58.689],[-99.209,59.099],[-99.721,59.355],[-100.413,59.637],[-102.54,60.149],[-103.309,60.252],[-104.463,60.457],[-105.718,60.739],[-106.82,60.893],[-108.461,61.328],[-110.101,61.79],[-112.741,62.815],[-115.124,64.173],[-115.714,64.634],[-118.584,65.89],[-120.327,66.454],[-121.506,66.941],[-123.428,67.633],[-124.171,67.812],[-126.606,68.017],[-128.426,68.274],[-131.809,68.991],[-133.244,69.555],[-134.756,70.093],[-135.243,70.401],[-135.499,70.734],[-135.653,70.99],[-135.704,71.298],[-135.704,71.631],[-135.627,71.939],[-135.397,72.169],[-134.858,72.349],[-134.628,72.451],[-134.295,72.554],[-133.961,72.605],[-133.6,72.637]]]}},{"type":"Feature","properties":{"density":1},"geometry":{"type":"Polygon","coordinates":[[[-70.122,60.67],[-69.257,61.939],[-68.392,63.323],[-67.238,65.226],[-66.777,67.532],[-66.777,69.262],[-66.604,70.762],[-65.854,71.627],[-63.144,72.319],[-60.953,72.665],[-58.704,72.78],[-57.32,72.549],[-55.936,72.146],[-54.264,71.511],[-52.937,71.05],[-52.245,70.243],[-51.553,69.205],[-50.054,66.725],[-49.715,65.578],[-49.381,64.63],[-48.894,62.785],[-48.587,61.401],[-48.689,60.683],[-49.561,60.196],[-51.355,60.042],[-52.893,59.965],[-53.841,60.17],[-55.353,61.016],[-56.532,61.452],[-57.788,62.221],[-59.633,62.682],[-60.556,62.58],[-61.863,62.298],[-62.708,61.734],[-63.58,61.093],[-64.272,60.427],[-65.502,59.735],[-66.399,58.581],[-66.732,58.3],[-67.219,58.069],[-68.014,57.915],[-68.834,57.864],[-69.961,58.223],[-70.474,58.479],[-71.576,58.376],[-73.037,58.043],[-73.754,57.915],[-74.344,57.966],[-74.498,58.428],[-74.37,58.966],[-74.036,59.478],[-73.652,59.76],[-73.165,60.068],[-72.601,60.196],[-71.858,60.299],[-71.448,60.427],[-70.474,60.657],[-70.122,60.67]]]}},{"type":"Feature","properties":{"density":1},"geometry":{"type":"Polygon","coordinates":[[[-120.892,48.406],[-120.764,48.41],[-120.667,48.394],[-120.399,48.12],[-120.111,47.974],[-119.985,47.89],[-119.965,47.841],[-119.979,47.791],[-120.127,47.616],[-120.145,47.575],[-120.12,47.494],[-120.129,47.404],[-120.224,47.364],[-120.327,47.353],[-120.462,47.391],[-120.692,47.546],[-120.775,47.69],[-120.804,47.782],[-120.811,47.886],[-120.791,47.94],[-120.762,47.958],[-120.642,47.989],[-120.627,48.075],[-120.724,48.296],[-120.775,48.325],[-120.916,48.323],[-120.922,48.373],[-120.892,48.406]]]}},{"type":"Feature","properties":{"density":1},"geometry":{"type":"Polygon","coordinates":[[[-82.678,32.875],[-82.713,32.917],[-82.738,32.906],[-82.716,32.833],[-82.691,32.816],[-82.67,32.834],[-82.678,32.875]]]}},{"type":"Feature","properties":{"density":1},"geometry":{"type":"Polygon","coordinates":[[[-122.874,60.767],[-123.167,60.474],[-123.474,60.251],[-123.697,60.055],[-123.879,59.804],[-124.018,59.497],[-124.213,59.232],[-124.437,59.19],[-124.73,59.302],[-124.897,59.567],[-124.897,59.818],[-124.702,59.972],[-124.479,60.097],[-124.297,60.293],[-124.088,60.683],[-123.976,60.948],[-123.474,61.464],[-123.139,61.743],[-122.749,62.009],[-122.442,62.106],[-122.177,62.148],[-121.382,62.148],[-120.949,62.106],[-120.168,62.12],[-119.833,62.022],[-119.735,61.827],[-119.833,61.59],[-120.182,61.367],[-120.475,61.283],[-120.893,61.227],[-121.73,61.213],[-122.191,61.185],[-122.4,61.116],[-122.581,61.018],[-122.874,60.767]]]}},{"type":"Feature","properties":{"density":1},"geometry":{"type":"Polygon","coordinates":[[[-84.81,46.375],[-84.805,46.412],[-84.836,46.454],[-84.968,46.493],[-85.017,46.487],[-85.075,46.45],[-85.133,46.318],[-85.116,46.293],[-85.08,46.289],[-84.95,46.324],[-84.835,46.335],[-84.81,46.375]]]}},{"type":"Feature","properties":{"density":1},"geometry":{"type":"Polygon","coordinates":[[[-88.753,32.858],[-88.718,32.955],[-88.762,33.088],[-88.779,33.115],[-88.814,33.13],[-88.891,33.106],[-89.131,32.801],[-89.139,32.746],[-89.113,32.647],[-89.082,32.634],[-89.034,32.641],[-88.926,32.685],[-88.78,32.801],[-88.753,32.858]]]}},{"type":"Feature","properties":{"density":1},"geometry":{"type":"Polygon","coordinates":[[[-89.438,35.902],[-89.429,36.018],[-89.451,36.046],[-89.49,36.046],[-89.534,36.018],[-89.548,35.974],[-89.581,35.742],[-89.578,35.66],[-89.548,35.591],[-89.498,35.541],[-89.468,35.547],[-89.421,35.596],[-89.41,35.674],[-89.438,35.902]]]}},{"type":"Feature","properties":{"density":1},"geometry":{"type":"Polygon","coordinates":[[[-90.391,35.836],[-90.353,35.886],[-90.344,35.911],[-90.355,35.927],[-90.391,35.933],[-90.421,35.913],[-90.562,35.712],[-90.606,35.596],[-90.617,35.53],[-90.603,35.486],[-90.559,35.497],[-90.532,35.539],[-90.391,35.836]]]}},{"type":"Feature","properties":{"density":1},"geometry":{"type":"Polygon","coordinates":[[[-90.058,36.01],[-90.049,36.04],[-90.077,36.112],[-90.168,36.046],[-90.262,35.908],[-90.32,35.787],[-90.333,35.726],[-90.317,35.69],[-90.292,35.685],[-90.259,35.709],[-90.157,35.833],[-90.058,36.01]]]}},{"type":"Feature","properties":{"density":1},"geometry":{"type":"Polygon","coordinates":[[[-89.832,36.098],[-89.812,36.139],[-89.815,36.192],[-89.843,36.214],[-89.898,36.181],[-89.925,36.136],[-90.036,35.877],[-90.121,35.726],[-90.11,35.704],[-90.06,35.718],[-89.956,35.855],[-89.832,36.098]]]}},{"type":"Feature","properties":{"density":1},"geometry":{"type":"Polygon","coordinates":[[[-89.746,36.616],[-89.719,36.666],[-89.724,36.71],[-89.757,36.712],[-89.815,36.649],[-89.956,36.429],[-89.986,36.346],[-89.953,36.346],[-89.868,36.42],[-89.746,36.616]]]}},{"type":"Feature","properties":{"density":1},"geometry":{"type":"Polygon","coordinates":[[[-121.85,61.129],[-121.553,61.334],[-121.348,61.436],[-120.92,61.464],[-120.53,61.631],[-120.316,61.836],[-120.306,62.022],[-120.418,62.152],[-120.744,62.226],[-121.971,62.226],[-122.315,62.199],[-122.641,62.087],[-123.134,61.845],[-123.571,61.678],[-123.906,61.352],[-124.008,61.092],[-124.287,60.701],[-124.715,60.292],[-124.817,59.864],[-124.622,59.492],[-124.389,59.381],[-124.157,59.371],[-123.934,59.501],[-123.748,59.753],[-123.608,60.041],[-123.376,60.236],[-123.05,60.673],[-122.808,60.813],[-121.99,61.055],[-121.85,61.129]]]}},{"type":"Feature","properties":{"density":1},"geometry":{"type":"Polygon","coordinates":[[[-121.414,35.948],[-121.37,35.912],[-121.345,35.928],[-121.334,35.967],[-121.406,36.088],[-121.447,36.133],[-121.484,36.134],[-121.505,36.118],[-121.494,36.025],[-121.414,35.948]]]}},{"type":"Feature","properties":{"density":1},"geometry":{"type":"Polygon","coordinates":[[[-84.493,46.39],[-84.497,46.504],[-84.462,46.602],[-84.479,46.703],[-84.539,46.817],[-84.688,46.888],[-84.826,46.881],[-85.099,46.839],[-85.182,46.784],[-85.212,46.703],[-85.224,46.589],[-85.098,46.308],[-85.072,45.87],[-85.017,45.711],[-84.96,45.646],[-84.89,45.599],[-84.818,45.584],[-84.677,45.672],[-84.57,45.826],[-84.501,46.067],[-84.517,46.267],[-84.493,46.39]]]}},{"type":"Feature","properties":{"density":1},"geometry":{"type":"Polygon","coordinates":[[[-91.488,34.03],[-91.458,34.113],[-91.455,34.193],[-91.463,34.24],[-91.507,34.254],[-91.543,34.209],[-91.673,33.802],[-91.686,33.705],[-91.651,33.68],[-91.623,33.694],[-91.488,34.03]]]}},{"type":"Feature","properties":{"density":1},"geometry":{"type":"Polygon","coordinates":[[[-91.893,34.072],[-91.89,34.16],[-91.926,34.157],[-92.036,33.959],[-92.061,33.84],[-92.017,33.821],[-91.99,33.843],[-91.937,33.939],[-91.893,34.072]]]}},{"type":"Feature","properties":{"density":1},"geometry":{"type":"Polygon","coordinates":[[[-91.675,33.893],[-91.664,33.948],[-91.675,33.989],[-91.714,33.992],[-91.857,33.722],[-91.89,33.639],[-91.882,33.595],[-91.86,33.592],[-91.832,33.62],[-91.714,33.78],[-91.675,33.893]]]}},{"type":"Feature","properties":{"density":1},"geometry":{"type":"Polygon","coordinates":[[[-91.546,34.543],[-91.529,34.573],[-91.532,34.606],[-91.562,34.639],[-91.593,34.626],[-91.659,34.515],[-91.733,34.317],[-91.728,34.259],[-91.681,34.267],[-91.656,34.306],[-91.546,34.543]]]}},{"type":"Feature","properties":{"density":1},"geometry":{"type":"Polygon","coordinates":[[[-91.215,34.141],[-91.113,34.278],[-91.135,34.328],[-91.177,34.328],[-91.218,34.298],[-91.295,34.207],[-91.356,34.08],[-91.372,33.967],[-91.336,33.961],[-91.312,33.981],[-91.215,34.141]]]}},{"type":"Feature","properties":{"density":1},"geometry":{"type":"Polygon","coordinates":[[[-90.135,35.182],[-90.127,35.226],[-90.157,35.259],[-90.185,35.246],[-90.259,35.144],[-90.339,34.959],[-90.347,34.89],[-90.328,34.863],[-90.3,34.863],[-90.267,34.896],[-90.135,35.182]]]}},{"type":"Feature","properties":{"density":1},"geometry":{"type":"Polygon","coordinates":[[[-89.646,36.064],[-89.616,36.125],[-89.616,36.158],[-89.647,36.169],[-89.682,36.158],[-89.789,36.042],[-89.883,35.912],[-89.919,35.805],[-89.861,35.805],[-89.797,35.901],[-89.646,36.064]]]}},{"type":"Feature","properties":{"density":1},"geometry":{"type":"Polygon","coordinates":[[[-89.875,36.017],[-89.789,36.144],[-89.809,36.172],[-89.85,36.166],[-89.886,36.13],[-90.089,35.885],[-90.109,35.835],[-90.078,35.788],[-90.04,35.791],[-90.01,35.813],[-89.875,36.017]]]}},{"type":"Feature","properties":{"density":1},"geometry":{"type":"Polygon","coordinates":[[[-90.059,35.979],[-90.007,36.039],[-89.99,36.094],[-90.01,36.129],[-90.076,36.127],[-90.236,35.932],[-90.293,35.813],[-90.293,35.772],[-90.244,35.744],[-90.214,35.755],[-90.059,35.979]]]}},{"type":"Feature","properties":{"density":1},"geometry":{"type":"Polygon","coordinates":[[[-121.326,35.963],[-121.309,36.04],[-121.348,36.081],[-121.464,36.111],[-121.571,36.092],[-121.651,36.051],[-121.695,36.015],[-121.734,35.949],[-121.712,35.88],[-121.648,35.861],[-121.612,35.885],[-121.568,35.965],[-121.53,35.985],[-121.48,35.987],[-121.373,35.918],[-121.337,35.93],[-121.326,35.963]]]}},{"type":"Feature","properties":{"density":1},"geometry":{"type":"Polygon","coordinates":[[[-98.333,22.203],[-98.327,22.135],[-98.37,22.03],[-98.513,21.912],[-98.6,21.794],[-98.717,21.689],[-98.947,21.664],[-99.158,21.813],[-99.238,22.005],[-99.183,22.544],[-99.176,22.786],[-99.201,23.016],[-99.161,23.213],[-99.077,23.375],[-98.773,23.797],[-98.624,24.15],[-98.513,24.606],[-98.429,25.043],[-98.336,25.359],[-98.159,25.657],[-97.927,25.806],[-97.62,25.638],[-97.49,25.248],[-97.555,24.68],[-97.648,24.188],[-97.76,23.741],[-98.001,23.313],[-98.215,22.997],[-98.313,22.783],[-98.364,22.551],[-98.333,22.203]]]}},{"type":"Feature","properties":{"density":1},"geometry":{"type":"Polygon","coordinates":[[[-88.088,64.223],[-94.115,64.882],[-96.281,66.012],[-98.164,67.99],[-99.718,69.732],[-102.166,70.815],[-105.179,71.38],[-110.029,71.851],[-112.619,72.039],[-115.491,71.992],[-118.174,71.756],[-120.529,71.756],[-123.542,71.568],[-125.99,70.297],[-126.649,69.308],[-126.838,68.461],[-126.273,67.378],[-125.99,65.447],[-126.179,63.14],[-127.45,61.822],[-128.533,60.974],[-128.486,60.033],[-127.638,58.903],[-126.649,58.008],[-125.802,57.82],[-124.154,57.867],[-122.553,58.338],[-121.094,59.091],[-119.116,59.656],[-117.374,59.515],[-115.538,59.326],[-113.325,59.138],[-111.159,58.808],[-108.099,57.82],[-105.886,56.878],[-103.673,55.889],[-101.46,55.277],[-99.247,54.995],[-95.386,54.853],[-90.395,54.853],[-83.427,54.995],[-80.696,55.183],[-77.541,55.889],[-75.47,56.69],[-73.963,57.773],[-72.645,59.232],[-71.939,60.786],[-71.609,62.858],[-72.127,64.6],[-73.916,65.683],[-77.165,66.295],[-79.896,66.106],[-81.826,65.73],[-84.039,65.4],[-86.017,64.553],[-86.958,64.364],[-88.088,64.223]]]}},{"type":"Feature","properties":{"density":1},"geometry":{"type":"Polygon","coordinates":[[[-76.886,41.529],[-78.288,41.152],[-81.008,39.645],[-82.159,38.704],[-83.289,37.888],[-84.88,37.051],[-86.051,36.904],[-87.035,36.988],[-87.935,37.155],[-89.044,37.239],[-90.592,37.134],[-91.576,36.695],[-92.873,35.544],[-93.773,34.184],[-94.15,32.928],[-94.15,31.819],[-93.773,30.94],[-92.999,30.208],[-91.618,30.103],[-90.006,30.25],[-88.709,30.815],[-87.684,31.463],[-86.972,32.342],[-86.365,33.284],[-85.403,33.891],[-84.377,34.498],[-83.352,34.853],[-81.887,35.314],[-80.569,35.774],[-79.564,36.235],[-78.665,36.883],[-77.702,37.762],[-76.907,38.515],[-76.384,39.373],[-76.112,40.19],[-76.091,40.943],[-76.384,41.403],[-76.593,41.55],[-76.886,41.529]]]}},{"type":"Feature","properties":{"density":1},"geometry":{"type":"Polygon","coordinates":[[[-92.315,18.205],[-92.576,18.367],[-92.822,18.487],[-93.287,18.673],[-93.845,18.71],[-94.394,18.524],[-94.645,18.291],[-95.147,17.742],[-95.389,17.408],[-95.528,17.166],[-95.603,16.952],[-95.668,16.654],[-95.556,16.375],[-95.389,16.171],[-95.082,16.05],[-94.691,16.003],[-94.496,16.171],[-94.263,16.403],[-94.096,16.608],[-93.891,16.664],[-93.296,16.608],[-92.896,16.626],[-92.515,16.803],[-92.32,17.101],[-92.092,17.569],[-91.683,17.722],[-91.646,17.854],[-91.799,17.999],[-92.005,18.04],[-92.171,18.102],[-92.315,18.205]]]}},{"type":"Feature","properties":{"density":2},"geometry":{"type":"Polygon","coordinates":[[[-120.891,48.383],[-120.787,48.398],[-120.708,48.378],[-120.584,48.262],[-120.563,48.2],[-120.571,48.189],[-120.623,48.213],[-120.755,48.35],[-120.806,48.359],[-120.891,48.346],[-120.891,48.383]]]}},{"type":"Feature","properties":{"density":2},"geometry":{"type":"Polygon","coordinates":[[[-121.473,35.853],[-121.576,35.904],[-121.623,35.961],[-121.665,36.069],[-121.665,36.105],[-121.618,36.117],[-121.575,36.093],[-121.473,35.937],[-121.423,35.909],[-121.415,35.872],[-121.473,35.853]]]}},{"type":"Feature","properties":{"density":2},"geometry":{"type":"Polygon","coordinates":[[[-124.981,61.502],[-124.576,61.4],[-124.03,61.35],[-123.842,61.36],[-123.711,61.39],[-123.503,61.466],[-123.129,61.502],[-122.946,61.542],[-122.754,61.542],[-122.688,61.497],[-122.632,61.446],[-122.612,61.4],[-122.607,61.309],[-122.627,61.162],[-122.673,61.011],[-122.754,60.935],[-122.911,60.692],[-123.037,60.57],[-123.027,60.428],[-122.886,60.064],[-122.886,59.953],[-122.921,59.851],[-123.134,59.785],[-123.544,59.703],[-123.709,59.618],[-123.807,59.47],[-123.861,59.352],[-124.074,59.213],[-124.306,59.213],[-124.556,59.257],[-124.87,59.463],[-124.88,59.524],[-124.941,59.612],[-124.948,59.78],[-124.809,60.037],[-124.762,60.088],[-124.593,60.196],[-124.374,60.266],[-124.202,60.347],[-124.155,60.385],[-124.131,60.442],[-124.182,60.698],[-124.178,60.827],[-124.138,60.968],[-124.198,61.07],[-124.377,61.144],[-124.573,61.124],[-124.718,61.029],[-124.769,61.016],[-124.806,61.009],[-124.86,61.036],[-124.904,61.066],[-124.943,61.246],[-125.051,61.406],[-125.051,61.467],[-125.017,61.501],[-124.981,61.502]]]}},{"type":"Feature","properties":{"density":2},"geometry":{"type":"Polygon","coordinates":[[[-96.105,38.576],[-95.772,38.576],[-94.952,38.345],[-94.26,38.038],[-93.773,37.73],[-93.081,37.397],[-92.384,37.25],[-91.484,37.284],[-90.516,37.193],[-89.673,36.988],[-88.673,35.962],[-87.955,35.347],[-87.16,35.053],[-85.828,35.142],[-85.239,35.577],[-84.444,35.987],[-83.906,36.192],[-83.291,36.167],[-82.419,35.757],[-81.856,35.116],[-81.01,34.014],[-80.805,33.553],[-80.702,33.194],[-80.677,32.784],[-81.087,32.271],[-81.599,32.015],[-82.522,31.759],[-84.88,31.579],[-86.494,31.707],[-87.725,31.63],[-90.211,31.246],[-90.723,31.246],[-91.543,31.323],[-92.338,31.554],[-93.312,31.989],[-94.132,32.912],[-94.67,33.296],[-95.131,33.296],[-95.593,33.117],[-96.31,33.066],[-96.669,33.066],[-97.284,33.271],[-97.797,33.706],[-98.241,34.595],[-98.446,35.022],[-98.651,35.74],[-98.651,36.115],[-98.514,36.594],[-98.258,36.987],[-97.951,37.346],[-97.37,37.807],[-96.982,38.28],[-96.572,38.485],[-96.105,38.576]]]}},{"type":"Feature","properties":{"density":2},"geometry":{"type":"Polygon","coordinates":[[[-82.084,49.773],[-81.902,49.523],[-81.92,48.814],[-82.022,48.557],[-82.125,48.147],[-82.501,47.105],[-82.74,46.353],[-82.843,45.892],[-83.133,45.482],[-83.321,44.969],[-83.594,44.628],[-83.868,44.081],[-83.885,43.842],[-83.834,43.056],[-83.68,42.782],[-83.337,42.612],[-82.95,42.506],[-82.418,42.278],[-81.925,41.997],[-81.477,41.466],[-80.451,40.965],[-79.821,40.786],[-79.388,40.536],[-79.206,40.023],[-79.434,39.704],[-79.835,39.536],[-80.331,39.433],[-81.254,39.468],[-82.159,39.57],[-83.082,39.724],[-83.902,39.912],[-85.354,40.305],[-85.767,40.592],[-86.055,41.074],[-86.055,41.313],[-86.14,41.826],[-86.021,42.406],[-85.713,44.423],[-85.542,44.986],[-84.773,47.276],[-84.551,47.703],[-83.885,48.404],[-83.543,49.172],[-83.253,49.531],[-82.723,49.873],[-82.364,49.856],[-82.084,49.773]]]}},{"type":"Feature","properties":{"density":2},"geometry":{"type":"Polygon","coordinates":[[[-88.757,33.04],[-88.732,33.086],[-88.736,33.133],[-88.792,33.135],[-88.863,33.11],[-88.893,32.991],[-88.938,32.923],[-88.947,32.878],[-88.915,32.858],[-88.867,32.884],[-88.757,33.04]]]}},{"type":"Feature","properties":{"density":2},"geometry":{"type":"Polygon","coordinates":[[[-122.78,61.123],[-122.222,61.371],[-122.122,61.44],[-122.042,61.644],[-122.048,61.725],[-122.104,61.774],[-122.24,61.824],[-122.401,61.818],[-122.6,61.805],[-122.817,61.743],[-122.972,61.669],[-123.114,61.539],[-123.294,61.241],[-123.53,60.962],[-123.592,60.857],[-123.573,60.696],[-123.462,60.603],[-123.319,60.621],[-123.127,60.72],[-123.009,60.813],[-122.86,61.068],[-122.78,61.123]]]}},{"type":"Feature","properties":{"density":2},"geometry":{"type":"Polygon","coordinates":[[[-84.926,46.349],[-84.838,46.36],[-84.819,46.392],[-84.83,46.429],[-84.883,46.446],[-84.972,46.441],[-85.102,46.33],[-85.101,46.311],[-84.926,46.349]]]}},{"type":"Feature","properties":{"density":2},"geometry":{"type":"Polygon","coordinates":[[[-88.842,33.109],[-88.879,33.087],[-88.917,33.005],[-89.075,32.818],[-89.091,32.715],[-89.069,32.669],[-89.024,32.68],[-88.915,32.772],[-88.784,32.852],[-88.786,32.881],[-88.879,32.832],[-88.913,32.844],[-88.785,33.053],[-88.792,33.102],[-88.807,33.115],[-88.842,33.109]]]}},{"type":"Feature","properties":{"density":2},"geometry":{"type":"Polygon","coordinates":[[[-121.535,61.504],[-121.482,61.491],[-121.384,61.522],[-121.353,61.552],[-121.357,61.581],[-121.384,61.611],[-121.767,61.789],[-121.967,61.92],[-122.264,62.039],[-122.336,62.028],[-122.51,61.964],[-122.672,61.948],[-122.741,61.893],[-122.791,61.802],[-122.736,61.727],[-122.623,61.686],[-122.523,61.689],[-122.24,61.749],[-122.182,61.738],[-122.146,61.7],[-122.154,61.672],[-122.209,61.62],[-122.196,61.592],[-122.14,61.573],[-121.705,61.565],[-121.535,61.504]]]}},{"type":"Feature","properties":{"density":2},"geometry":{"type":"Polygon","coordinates":[[[-122.711,61.366],[-122.986,61.441],[-123.053,61.443],[-123.135,61.397],[-123.199,61.328],[-123.251,61.206],[-123.259,61.124],[-123.193,61.069],[-123.091,61.069],[-122.909,61.187],[-122.681,61.212],[-122.634,61.251],[-122.614,61.292],[-122.647,61.355],[-122.711,61.366]]]}},{"type":"Feature","properties":{"density":2},"geometry":{"type":"Polygon","coordinates":[[[-84.551,46.417],[-84.493,46.606],[-84.569,46.758],[-84.689,46.835],[-84.807,46.81],[-84.929,46.806],[-84.978,46.784],[-85.052,46.711],[-85.106,46.595],[-85.115,46.537],[-85.101,46.491],[-85.028,46.414],[-84.945,46.36],[-84.936,46.325],[-85.028,46.099],[-85.015,45.859],[-84.997,45.8],[-84.975,45.749],[-84.873,45.668],[-84.809,45.64],[-84.758,45.648],[-84.704,45.681],[-84.587,45.842],[-84.558,45.912],[-84.543,46.145],[-84.567,46.371],[-84.551,46.417]]]}},{"type":"Feature","properties":{"density":2},"geometry":{"type":"Polygon","coordinates":[[[-121.246,61.313],[-121.396,61.287],[-121.507,61.23],[-121.609,61.09],[-122.548,60.83],[-122.846,60.709],[-122.976,60.495],[-122.976,60.272],[-123.106,59.928],[-123.153,59.676],[-123.367,59.425],[-123.711,59.295],[-124.083,59.249],[-124.604,59.249],[-125.348,59.779],[-125.32,60.039],[-125.106,60.272],[-124.938,60.513],[-124.929,60.848],[-125.069,61.211],[-124.985,61.667],[-124.585,62.067],[-124.185,62.346],[-123.739,62.439],[-122.771,62.457],[-121.214,62.385],[-120.774,62.406],[-120.335,62.406],[-119.728,62.301],[-119.058,62.322],[-118.514,62.385],[-118.075,62.385],[-117.74,62.113],[-117.803,61.82],[-118.347,61.381],[-119.184,61.255],[-120.377,61.402],[-121.246,61.313]]]}},{"type":"Feature","properties":{"density":2},"geometry":{"type":"Polygon","coordinates":[[[-92.549,17.449],[-92.463,17.703],[-92.493,17.877],[-92.688,18.165],[-92.818,18.295],[-93.023,18.463],[-93.349,18.611],[-93.786,18.584],[-94.186,18.37],[-94.92,17.57],[-95.116,17.393],[-95.404,17.179],[-95.525,16.947],[-95.516,16.556],[-95.413,16.324],[-95.19,16.212],[-94.706,16.249],[-94.511,16.482],[-94.344,16.807],[-94.241,16.928],[-93.981,17.058],[-93.674,16.956],[-93.46,16.789],[-93.096,16.7],[-92.843,16.83],[-92.67,17.068],[-92.567,17.319],[-92.549,17.449]]]}},{"type":"Feature","properties":{"density":2},"geometry":{"type":"Polygon","coordinates":[[[-91.588,63.415],[-93.503,63.76],[-95.386,64.419],[-96.391,64.921],[-97.489,66.114],[-98.337,66.962],[-100.126,69.253],[-102.951,70.54],[-105.054,70.917],[-106.466,70.917],[-108.099,70.979],[-109.825,71.011],[-112.022,71.136],[-114.0,71.388],[-115.852,71.544],[-117.296,71.576],[-117.892,70.854],[-117.515,69.849],[-116.166,68.939],[-114.659,68.625],[-113.592,68.468],[-109.951,67.558],[-108.978,67.213],[-108.036,66.742],[-106.09,66.02],[-104.332,65.329],[-102.292,64.733],[-99.435,63.854],[-96.893,63.038],[-94.664,62.348],[-93.409,61.469],[-92.373,60.841],[-90.803,60.339],[-89.265,60.056],[-88.198,60.088],[-87.539,60.496],[-87.256,61.249],[-87.256,62.034],[-87.821,62.913],[-88.418,63.164],[-89.485,63.54],[-90.741,63.446],[-91.588,63.415]]]}},{"type":"Feature","properties":{"density":3},"geometry":{"type":"Polygon","coordinates":[[[-123.476,60.77],[-123.523,60.76],[-123.669,60.592],[-123.874,60.446],[-123.976,60.352],[-124.077,60.217],[-124.266,60.065],[-124.33,60.028],[-124.489,60.068],[-124.735,60.038],[-124.809,59.967],[-124.826,59.825],[-124.796,59.738],[-124.755,59.69],[-124.593,59.677],[-124.546,59.66],[-124.472,59.444],[-124.414,59.39],[-124.31,59.343],[-124.175,59.319],[-124.104,59.329],[-124.077,59.356],[-123.986,59.488],[-123.858,59.606],[-123.824,59.714],[-123.672,59.758],[-123.446,59.778],[-123.24,59.832],[-123.149,59.859],[-123.041,59.927],[-123.014,59.957],[-123.024,60.035],[-123.061,60.085],[-123.23,60.176],[-123.324,60.301],[-123.291,60.416],[-123.135,60.585],[-123.115,60.646],[-123.132,60.696],[-123.179,60.747],[-123.28,60.782],[-123.476,60.77]]]}},{"type":"Feature","properties":{"density":3},"geometry":{"type":"Polygon","coordinates":[[[-88.782,33.012],[-88.774,33.073],[-88.82,33.101],[-88.862,33.096],[-88.88,33.003],[-88.871,32.973],[-88.823,32.974],[-88.782,33.012]]]}},{"type":"Feature","properties":{"density":3},"geometry":{"type":"Polygon","coordinates":[[[-84.916,46.359],[-84.845,46.362],[-84.834,46.407],[-84.882,46.426],[-84.957,46.414],[-84.954,46.38],[-84.916,46.359]]]}},{"type":"Feature","properties":{"density":3},"geometry":{"type":"Polygon","coordinates":[[[-88.824,33.026],[-88.803,33.073],[-88.81,33.093],[-88.837,33.099],[-88.864,33.083],[-88.885,33.001],[-88.863,32.998],[-88.824,33.026]]]}},{"type":"Feature","properties":{"density":3},"geometry":{"type":"Polygon","coordinates":[[[-121.462,61.579],[-121.579,61.629],[-121.618,61.616],[-121.564,61.567],[-121.46,61.521],[-121.438,61.554],[-121.462,61.579]]]}},{"type":"Feature","properties":{"density":3},"geometry":{"type":"Polygon","coordinates":[[[-84.61,46.671],[-84.671,46.718],[-84.748,46.723],[-84.855,46.649],[-84.905,46.555],[-84.919,46.453],[-84.883,46.387],[-84.866,46.384],[-84.855,46.401],[-84.844,46.481],[-84.795,46.558],[-84.729,46.574],[-84.701,46.555],[-84.684,46.503],[-84.731,46.373],[-84.905,46.202],[-84.965,46.059],[-84.949,45.79],[-84.919,45.761],[-84.886,45.764],[-84.847,45.816],[-84.83,45.792],[-84.853,45.72],[-84.828,45.676],[-84.797,45.673],[-84.701,45.739],[-84.596,45.946],[-84.582,46.029],[-84.605,46.199],[-84.602,46.368],[-84.555,46.483],[-84.538,46.577],[-84.56,46.629],[-84.61,46.671]]]}},{"type":"Feature","properties":{"density":3},"geometry":{"type":"Polygon","coordinates":[[[-121.54,61.505],[-121.416,61.472],[-121.362,61.51],[-121.354,61.601],[-121.416,61.704],[-121.42,61.753],[-121.4,61.824],[-121.329,61.927],[-121.325,62.01],[-121.371,62.076],[-121.503,62.08],[-121.73,61.993],[-121.999,62.035],[-122.086,62.01],[-122.119,61.906],[-122.094,61.811],[-121.941,61.625],[-121.834,61.567],[-121.718,61.53],[-121.54,61.505]]]}},{"type":"Feature","properties":{"density":3},"geometry":{"type":"Polygon","coordinates":[[[-122.288,61.741],[-122.268,61.832],[-122.346,61.915],[-122.425,61.935],[-122.536,61.894],[-122.689,61.878],[-122.739,61.84],[-122.735,61.741],[-122.64,61.642],[-122.528,61.617],[-122.412,61.613],[-122.354,61.646],[-122.288,61.741]]]}},{"type":"Feature","properties":{"density":3},"geometry":{"type":"Polygon","coordinates":[[[-122.383,61.439],[-122.499,61.315],[-122.722,61.224],[-122.933,61.249],[-123.02,61.245],[-123.251,61.295],[-123.243,61.365],[-123.173,61.402],[-122.97,61.419],[-122.892,61.439],[-122.764,61.505],[-122.536,61.522],[-122.396,61.481],[-122.379,61.46],[-122.383,61.439]]]}}]}