{"type":"FeatureCollection","features":[{"type":"Feature","properties":{"density":1},"geometry":{"type":"Polygon","coordinates":[[[-75.579,20.761],[-75.715,20.811],[-75.791,20.816],[-76.254,20.756],[-76.511,20.761],[-76.738,20.786],[-76.864,20.781],[-77.121,20.731],[-77.202,20.686],[-77.222,20.63],[-77.202,20.58],[-77.161,20.539],[-77.076,20.494],[-76.793,20.398],[-76.486,20.328],[-76.028,20.298],[-75.801,20.368],[-75.604,20.519],[-75.539,20.605],[-75.534,20.64],[-75.554,20.731],[-75.579,20.761]]]}},{"type":"Feature","properties":{"density":1},"geometry":{"type":"Polygon","coordinates":[[[-74.939,20.67],[-75.06,20.691],[-75.216,20.665],[-75.423,20.585],[-75.771,20.398],[-75.922,20.353],[-76.431,20.303],[-76.97,20.328],[-77.131,20.323],[-77.343,20.293],[-77.509,20.232],[-77.715,20.096],[-77.993,19.98],[-78.013,19.93],[-77.977,19.859],[-77.907,19.814],[-77.64,19.718],[-77.539,19.698],[-77.287,19.673],[-77.181,19.678],[-76.909,19.708],[-76.738,19.748],[-76.627,19.794],[-76.38,19.935],[-76.078,20.046],[-75.912,20.071],[-75.569,20.091],[-75.277,20.136],[-74.96,20.202],[-74.869,20.237],[-74.813,20.298],[-74.783,20.464],[-74.834,20.565],[-74.884,20.63],[-74.939,20.67]]]}},{"type":"Feature","properties":{"density":1},"geometry":{"type":"Polygon","coordinates":[[[-80.128,23.153],[-80.172,23.153],[-80.186,23.092],[-80.022,22.765],[-79.935,22.698],[-79.834,22.671],[-79.76,22.678],[-79.754,22.716],[-79.776,22.758],[-79.949,22.933],[-80.128,23.153]]]}},{"type":"Feature","properties":{"density":1},"geometry":{"type":"Polygon","coordinates":[[[-83.085,22.551],[-83.1,22.546],[-83.112,22.507],[-83.028,22.504],[-83.028,22.526],[-83.085,22.551]]]}},{"type":"Feature","properties":{"density":1},"geometry":{"type":"Polygon","coordinates":[[[-80.629,26.436],[-80.693,26.432],[-80.744,26.338],[-80.849,26.223],[-80.93,25.997],[-81.001,25.879],[-81.034,25.602],[-81.004,25.518],[-80.94,25.487],[-80.798,25.48],[-80.569,25.669],[-80.525,25.791],[-80.511,25.919],[-80.39,26.135],[-80.376,26.22],[-80.4,26.274],[-80.474,26.344],[-80.629,26.436]]]}},{"type":"Feature","properties":{"density":1},"geometry":{"type":"Polygon","coordinates":[[[-80.808,26.503],[-80.812,26.375],[-80.764,26.365],[-80.623,26.476],[-80.359,26.55],[-80.231,26.625],[-80.13,26.652],[-79.86,26.662],[-79.635,26.787],[-79.539,26.898],[-79.519,27.019],[-79.585,27.126],[-79.681,27.197],[-79.818,27.227],[-79.964,27.232],[-80.187,27.07],[-80.471,26.908],[-80.683,26.706],[-80.808,26.503]]]}},{"type":"Feature","properties":{"density":1},"geometry":{"type":"Polygon","coordinates":[[[-80.612,26.03],[-80.61,25.932],[-80.582,25.892],[-80.519,25.876],[-80.472,25.885],[-80.267,26.115],[-80.146,26.169],[-79.912,26.223],[-79.871,26.252],[-79.831,26.29],[-79.806,26.344],[-79.781,26.455],[-79.79,26.522],[-79.844,26.628],[-79.894,26.673],[-80.004,26.718],[-80.125,26.734],[-80.245,26.725],[-80.305,26.707],[-80.483,26.581],[-80.645,26.502],[-80.69,26.437],[-80.695,26.376],[-80.629,26.198],[-80.612,26.03]]]}},{"type":"Feature","properties":{"density":1},"geometry":{"type":"Polygon","coordinates":[[[-77.243,26.15],[-77.274,26.142],[-77.276,26.064],[-77.261,25.994],[-77.231,25.971],[-77.21,25.992],[-77.211,26.073],[-77.243,26.15]]]}},{"type":"Feature","properties":{"density":1},"geometry":{"type":"Polygon","coordinates":[[[-92.606,29.878],[-92.693,29.902],[-92.737,29.878],[-92.741,29.844],[-92.693,29.797],[-92.599,29.763],[-92.18,29.675],[-91.86,29.581],[-91.785,29.527],[-91.677,29.405],[-91.6,29.375],[-91.539,29.395],[-91.536,29.429],[-91.556,29.473],[-91.6,29.524],[-91.698,29.601],[-91.856,29.686],[-92.12,29.777],[-92.45,29.858],[-92.606,29.878]]]}},{"type":"Feature","properties":{"density":1},"geometry":{"type":"Polygon","coordinates":[[[-98.716,24.125],[-98.737,24.152],[-98.766,24.129],[-98.775,23.974],[-98.829,23.729],[-98.833,23.67],[-98.815,23.643],[-98.77,23.702],[-98.732,23.835],[-98.716,24.125]]]}},{"type":"Feature","properties":{"density":1},"geometry":{"type":"Polygon","coordinates":[[[-109.945,39.391],[-109.966,39.348],[-109.948,39.323],[-109.867,39.352],[-109.675,39.521],[-109.657,39.546],[-109.662,39.591],[-109.734,39.625],[-109.781,39.602],[-109.905,39.472],[-109.945,39.391]]]}},{"type":"Feature","properties":{"density":1},"geometry":{"type":"Polygon","coordinates":[[[-115.437,46.715],[-115.501,46.765],[-115.531,46.752],[-115.541,46.63],[-115.437,46.438],[-115.386,46.387],[-115.362,46.384],[-115.332,46.435],[-115.403,46.667],[-115.437,46.715]]]}},{"type":"Feature","properties":{"density":1},"geometry":{"type":"Polygon","coordinates":[[[-115.378,46.332],[-115.494,46.347],[-115.575,46.337],[-115.651,46.281],[-115.692,46.21],[-115.681,46.124],[-115.55,46.008],[-115.504,45.942],[-115.464,45.785],[-115.413,45.704],[-115.332,45.663],[-115.084,45.638],[-114.937,45.714],[-114.669,45.896],[-114.482,45.957],[-114.142,46.023],[-114.016,46.129],[-113.996,46.195],[-114.001,46.281],[-114.082,46.463],[-114.087,46.529],[-113.975,46.686],[-113.803,46.782],[-113.742,46.838],[-113.712,46.909],[-113.727,47.02],[-113.783,47.086],[-113.864,47.137],[-113.96,47.172],[-114.127,47.167],[-114.234,47.137],[-114.34,47.091],[-114.512,46.939],[-114.578,46.853],[-114.745,46.549],[-114.856,46.443],[-115.307,46.306],[-115.378,46.332]]]}},{"type":"Feature","properties":{"density":1},"geometry":{"type":"Polygon","coordinates":[[[-115.257,46.923],[-115.277,46.893],[-115.282,46.807],[-115.232,46.741],[-115.141,46.695],[-114.923,46.751],[-114.847,46.807],[-114.741,46.847],[-114.508,46.862],[-114.391,46.893],[-114.29,46.948],[-114.229,47.019],[-114.219,47.065],[-114.229,47.105],[-114.336,47.186],[-114.493,47.217],[-114.639,47.212],[-114.948,47.131],[-115.151,47.024],[-115.257,46.923]]]}},{"type":"Feature","properties":{"density":1},"geometry":{"type":"Polygon","coordinates":[[[-115.617,43.95],[-115.7,43.7],[-115.708,43.594],[-115.67,43.548],[-115.503,43.51],[-115.404,43.518],[-115.184,43.647],[-114.956,43.859],[-114.728,44.14],[-114.538,44.254],[-114.386,44.391],[-114.348,44.467],[-114.288,44.695],[-114.242,44.793],[-114.098,44.998],[-113.847,45.219],[-113.505,45.484],[-113.384,45.56],[-113.095,45.674],[-112.989,45.735],[-112.928,45.803],[-112.928,45.91],[-112.989,46.008],[-113.095,46.107],[-113.194,46.153],[-113.354,46.153],[-113.513,46.137],[-113.68,46.084],[-113.832,46.016],[-113.969,45.917],[-114.128,45.781],[-114.645,45.211],[-115.396,44.269],[-115.617,43.95]]]}},{"type":"Feature","properties":{"density":1},"geometry":{"type":"Polygon","coordinates":[[[-119.332,40.44],[-119.856,40.143],[-120.095,39.967],[-120.181,39.864],[-120.249,39.745],[-120.317,39.557],[-120.334,39.42],[-120.283,39.249],[-120.146,39.096],[-119.958,38.993],[-119.48,38.891],[-119.224,38.891],[-118.916,38.925],[-118.472,39.13],[-117.959,39.454],[-117.618,39.574],[-117.447,39.659],[-117.293,39.796],[-117.054,40.121],[-116.695,40.565],[-116.405,40.89],[-115.977,41.265],[-115.619,41.505],[-115.191,41.761],[-114.816,42.034],[-114.662,42.188],[-114.388,42.53],[-114.218,42.701],[-113.959,42.88],[-113.815,43.047],[-113.756,43.196],[-113.756,43.35],[-113.79,43.487],[-113.807,43.794],[-113.739,43.982],[-113.62,44.17],[-113.38,44.478],[-113.244,44.58],[-112.68,44.802],[-112.167,44.768],[-111.928,44.7],[-111.501,44.631],[-110.766,44.734],[-110.647,44.785],[-110.476,44.905],[-110.356,45.041],[-110.305,45.178],[-110.288,45.434],[-110.476,45.913],[-110.459,46.237],[-110.544,46.443],[-110.647,46.613],[-110.817,46.784],[-111.04,46.904],[-111.279,46.972],[-111.467,47.006],[-112.321,47.109],[-112.748,47.092],[-113.004,46.989],[-113.175,46.938],[-113.585,46.733],[-113.688,46.596],[-113.859,46.289],[-113.995,46.084],[-114.115,45.947],[-114.252,45.845],[-114.969,45.452],[-115.123,45.315],[-115.67,44.683],[-116.029,44.187],[-116.422,43.555],[-117.173,42.649],[-118.865,40.804],[-119.036,40.65],[-119.332,40.44]]]}},{"type":"Feature","properties":{"density":1},"geometry":{"type":"Polygon","coordinates":[[[-121.837,36.389],[-121.882,36.313],[-121.905,36.191],[-121.898,36.1],[-121.867,36.017],[-121.685,35.766],[-121.624,35.705],[-121.44,35.585],[-121.366,35.514],[-121.174,34.987],[-121.039,34.846],[-120.904,34.731],[-120.688,34.596],[-120.485,34.513],[-120.394,34.506],[-120.31,34.521],[-120.204,34.559],[-120.128,34.627],[-120.06,34.771],[-120.037,34.87],[-120.052,35.098],[-120.098,35.25],[-120.28,35.47],[-120.751,35.888],[-120.872,36.024],[-121.024,36.267],[-121.138,36.396],[-121.26,36.495],[-121.358,36.541],[-121.533,36.556],[-121.708,36.495],[-121.837,36.389]]]}},{"type":"Feature","properties":{"density":1},"geometry":{"type":"Polygon","coordinates":[[[-119.799,48.95],[-119.906,48.95],[-119.936,48.896],[-119.936,48.805],[-119.906,48.722],[-119.685,48.486],[-119.609,48.441],[-119.412,48.373],[-119.177,48.342],[-119.07,48.373],[-118.911,48.464],[-118.903,48.555],[-118.918,48.616],[-119.002,48.707],[-119.465,48.828],[-119.799,48.95]]]}},{"type":"Feature","properties":{"density":1},"geometry":{"type":"Polygon","coordinates":[[[-117.437,68.254],[-118.014,68.542],[-119.11,68.773],[-121.705,69.004],[-122.916,69.061],[-124.3,69.004],[-125.972,68.831],[-127.644,68.369],[-128.567,67.677],[-129.259,66.639],[-129.259,65.601],[-129.086,64.563],[-128.855,63.352],[-128.855,62.314],[-129.086,61.392],[-130.066,60.008],[-130.527,59.028],[-130.585,58.163],[-130.585,57.298],[-130.354,56.375],[-130.008,55.395],[-129.374,54.184],[-128.855,53.261],[-127.176,51.364],[-126.895,51.108],[-125.998,50.032],[-125.793,49.724],[-125.536,49.417],[-125.254,49.109],[-124.127,47.802],[-123.87,47.443],[-123.512,46.674],[-123.46,46.341],[-123.383,46.008],[-123.255,45.777],[-122.999,45.572],[-122.768,45.419],[-122.538,45.342],[-122.179,45.06],[-122.051,44.88],[-121.923,44.778],[-121.692,44.675],[-120.846,44.522],[-120.539,44.445],[-120.282,44.317],[-119.77,44.009],[-119.488,43.753],[-119.308,43.394],[-119.232,43.035],[-119.257,42.548],[-119.334,42.343],[-119.462,42.112],[-119.642,41.856],[-120.179,40.944],[-120.372,40.752],[-120.564,40.522],[-120.948,39.868],[-121.371,38.984],[-121.986,37.869],[-122.217,37.369],[-122.371,36.793],[-122.447,36.177],[-122.486,35.601],[-122.332,34.986],[-121.794,34.025],[-121.525,33.756],[-121.256,33.525],[-120.948,33.217],[-120.179,32.602],[-118.923,31.885],[-117.591,30.808],[-116.675,30.27],[-116.444,29.982],[-116.213,29.636],[-116.04,29.174],[-115.983,28.54],[-116.04,27.848],[-116.213,27.214],[-116.444,26.695],[-117.136,25.657],[-117.482,24.965],[-117.828,24.157],[-118.001,23.466],[-118.174,22.658],[-118.174,21.909],[-117.828,21.101],[-117.367,20.64],[-116.559,20.352],[-115.81,20.294],[-115.233,20.294],[-114.368,20.582],[-112.523,21.044],[-111.831,21.044],[-111.139,20.986],[-109.169,19.527],[-108.823,19.373],[-108.285,19.066],[-107.746,18.835],[-107.17,18.643],[-106.632,18.489],[-106.093,18.451],[-105.517,18.489],[-105.055,18.643],[-103.582,18.938],[-103.325,19.117],[-103.069,19.373],[-102.89,19.681],[-102.736,20.04],[-102.685,20.347],[-102.659,20.706],[-102.71,21.014],[-102.941,22.039],[-102.967,22.398],[-102.864,22.859],[-102.685,23.295],[-102.352,23.679],[-101.916,23.91],[-101.403,23.961],[-100.942,23.833],[-100.071,23.397],[-99.584,23.192],[-99.122,23.09],[-98.533,23.064],[-96.846,23.313],[-96.461,23.467],[-96.038,23.774],[-95.539,24.082],[-94.501,24.812],[-94.001,25.043],[-93.501,25.312],[-92.463,25.62],[-91.963,25.735],[-89.9,25.939],[-89.516,25.939],[-89.016,25.746],[-88.093,25.17],[-87.747,24.824],[-87.123,24.087],[-86.935,23.626],[-86.508,22.396],[-86.32,22.054],[-86.132,21.815],[-85.927,21.661],[-85.637,21.541],[-84.987,21.456],[-84.287,21.422],[-83.877,21.353],[-83.467,21.251],[-82.595,20.926],[-82.134,20.67],[-81.604,20.431],[-81.041,20.209],[-80.443,20.021],[-79.93,19.935],[-79.042,19.833],[-78.478,19.833],[-77.794,19.987],[-77.487,20.089],[-76.923,20.414],[-76.701,20.636],[-76.53,20.875],[-76.393,21.183],[-76.274,21.507],[-75.681,22.373],[-75.624,22.624],[-75.772,23.148],[-76.069,23.58],[-76.376,23.922],[-77.048,24.503],[-77.424,24.868],[-77.686,25.323],[-77.766,25.779],[-77.686,26.246],[-77.716,27.929],[-77.601,28.467],[-77.293,29.12],[-76.947,29.697],[-76.524,30.12],[-75.871,30.812],[-75.217,31.273],[-74.641,31.773],[-74.141,32.35],[-73.679,32.926],[-72.603,34.464],[-72.103,35.425],[-71.642,36.463],[-70.719,41.403],[-70.719,41.98],[-70.95,42.787],[-71.584,43.825],[-72.103,44.402],[-74.641,45.728],[-76.601,45.843],[-78.562,45.843],[-79.427,45.901],[-80.522,46.016],[-81.503,46.189],[-82.195,46.362],[-83.117,46.997],[-83.752,47.573],[-84.271,48.496],[-84.732,49.707],[-84.963,50.918],[-84.963,52.013],[-84.501,53.051],[-83.867,53.916],[-83.06,54.666],[-81.906,55.531],[-80.695,56.338],[-79.081,57.203],[-77.293,57.895],[-75.198,58.51],[-74.333,58.568],[-72.776,58.568],[-71.161,58.395],[-69.489,57.934],[-67.644,57.357],[-66.087,56.78],[-64.53,56.319],[-61.474,55.281],[-60.032,54.878],[-58.706,54.532],[-55.477,54.416],[-53.574,54.705],[-51.844,55.512],[-50.575,56.607],[-49.768,58.395],[-49.595,60.24],[-49.768,61.624],[-50.46,63.066],[-51.728,64.45],[-53.458,65.603],[-54.554,66.411],[-55.707,67.16],[-57.149,68.198],[-58.187,69.236],[-59.34,70.447],[-61.012,71.6],[-63.78,72.321],[-64.645,72.494],[-67.154,72.494],[-68.797,72.235],[-70.268,71.716],[-72.084,70.764],[-73.382,69.986],[-74.506,69.207],[-75.544,68.429],[-76.755,67.564],[-78.225,66.872],[-79.609,66.266],[-81.08,65.488],[-83.934,64.623],[-86.875,63.844],[-95.871,63.152],[-99.504,63.152],[-103.656,63.325],[-107.548,64.017],[-112.738,65.315],[-114.381,65.834],[-115.679,66.353],[-116.89,67.045],[-117.437,68.254]]]}},{"type":"Feature","properties":{"density":1},"geometry":{"type":"Polygon","coordinates":[[[-79.773,22.664],[-79.963,22.698],[-80.012,22.743],[-80.01,22.777],[-79.997,22.792],[-79.949,22.797],[-79.829,22.765],[-79.752,22.703],[-79.773,22.664]]]}},{"type":"Feature","properties":{"density":1},"geometry":{"type":"Polygon","coordinates":[[[-92.661,29.836],[-92.647,29.794],[-92.606,29.748],[-92.545,29.716],[-92.442,29.699],[-92.386,29.744],[-92.393,29.801],[-92.435,29.84],[-92.506,29.864],[-92.627,29.887],[-92.663,29.866],[-92.661,29.836]]]}},{"type":"Feature","properties":{"density":1},"geometry":{"type":"Polygon","coordinates":[[[-109.906,39.355],[-109.708,39.437],[-109.644,39.496],[-109.581,39.599],[-109.601,39.659],[-109.7,39.659],[-109.778,39.606],[-109.913,39.436],[-109.941,39.363],[-109.906,39.355]]]}},{"type":"Feature","properties":{"density":1},"geometry":{"type":"Polygon","coordinates":[[[-115.183,46.042],[-115.065,45.951],[-114.896,45.877],[-114.782,45.86],[-114.62,45.907],[-114.522,46.002],[-114.248,46.461],[-114.205,46.643],[-114.313,46.734],[-114.414,46.714],[-115.031,46.386],[-115.126,46.312],[-115.231,46.191],[-115.247,46.13],[-115.183,46.042]]]}},{"type":"Feature","properties":{"density":1},"geometry":{"type":"Polygon","coordinates":[[[-115.552,43.795],[-115.456,43.841],[-115.361,43.945],[-115.351,44.039],[-115.37,44.08],[-115.397,44.089],[-115.463,44.075],[-115.538,44.0],[-115.574,43.927],[-115.579,43.867],[-115.577,43.825],[-115.552,43.795]]]}},{"type":"Feature","properties":{"density":1},"geometry":{"type":"Polygon","coordinates":[[[-121.672,42.402],[-121.585,42.382],[-121.507,42.385],[-121.423,42.436],[-121.422,42.46],[-121.432,42.483],[-121.507,42.516],[-121.66,42.514],[-121.711,42.475],[-121.699,42.424],[-121.672,42.402]]]}},{"type":"Feature","properties":{"density":1},"geometry":{"type":"Polygon","coordinates":[[[-121.995,44.974],[-121.799,44.95],[-121.425,44.95],[-121.043,44.987],[-120.716,44.987],[-120.129,45.051],[-119.913,45.099],[-119.724,45.207],[-119.619,45.321],[-119.626,45.46],[-119.72,45.558],[-119.835,45.547],[-120.011,45.48],[-120.22,45.439],[-120.503,45.331],[-120.777,45.321],[-121.725,45.153],[-122.022,45.142],[-122.059,45.112],[-122.056,45.031],[-122.039,45.001],[-121.995,44.974]]]}},{"type":"Feature","properties":{"density":1},"geometry":{"type":"Polygon","coordinates":[[[-118.347,44.806],[-118.378,44.855],[-118.371,45.0],[-118.317,45.081],[-118.165,45.229],[-117.726,45.459],[-117.564,45.594],[-117.493,45.675],[-117.341,45.918],[-117.186,46.087],[-116.808,46.353],[-116.535,46.525],[-116.265,46.664],[-115.735,46.971],[-115.559,46.984],[-115.519,46.974],[-115.418,46.907],[-115.31,46.785],[-115.283,46.694],[-115.31,46.455],[-115.394,46.326],[-115.816,45.996],[-116.13,45.82],[-116.629,45.604],[-116.92,45.449],[-117.659,44.98],[-117.952,44.821],[-118.31,44.757],[-118.347,44.806]]]}},{"type":"Feature","properties":{"density":1},"geometry":{"type":"Polygon","coordinates":[[[-118.011,45.916],[-117.548,46.069],[-117.514,46.096],[-117.5,46.15],[-117.527,46.193],[-117.57,46.218],[-117.66,46.231],[-117.833,46.173],[-118.04,46.062],[-118.061,46.033],[-118.07,45.943],[-118.058,45.921],[-118.011,45.916]]]}},{"type":"Feature","properties":{"density":1},"geometry":{"type":"Polygon","coordinates":[[[-122.574,61.935],[-122.043,62.33],[-121.162,62.717],[-120.418,63.097],[-120.091,63.226],[-119.628,63.469],[-119.241,63.598],[-118.58,63.727],[-118.033,63.811],[-117.934,63.811],[-116.75,63.568],[-116.454,63.416],[-116.173,63.067],[-116.021,62.642],[-116.044,62.292],[-116.173,61.973],[-116.583,61.639],[-117.122,61.556],[-117.623,61.51],[-118.367,61.51],[-118.732,61.525],[-119.127,61.495],[-119.841,61.495],[-120.19,61.419],[-120.577,61.404],[-121.223,61.343],[-121.496,61.237],[-121.792,61.176],[-122.005,61.176],[-122.255,61.313],[-122.407,61.465],[-122.597,61.708],[-122.567,61.875],[-122.574,61.935]]]}},{"type":"Feature","properties":{"density":1},"geometry":{"type":"Polygon","coordinates":[[[-120.912,63.635],[-120.618,63.662],[-120.429,63.733],[-120.338,63.804],[-120.331,63.902],[-120.385,63.969],[-120.507,64.026],[-120.716,64.037],[-120.905,64.077],[-121.07,64.091],[-121.283,64.064],[-121.323,64.043],[-121.354,63.983],[-121.371,63.891],[-121.344,63.787],[-121.165,63.679],[-121.02,63.628],[-120.912,63.635]]]}},{"type":"Feature","properties":{"density":1},"geometry":{"type":"Polygon","coordinates":[[[-90.998,32.746],[-90.895,32.683],[-90.742,32.651],[-90.643,32.66],[-90.62,32.687],[-90.62,32.716],[-90.697,32.802],[-90.861,32.926],[-91.007,32.964],[-91.037,32.939],[-90.942,32.818],[-90.947,32.797],[-90.998,32.768],[-90.998,32.746]]]}},{"type":"Feature","properties":{"density":1},"geometry":{"type":"Polygon","coordinates":[[[-115.533,43.802],[-115.422,43.857],[-115.353,43.942],[-115.342,44.027],[-115.357,44.046],[-115.448,44.066],[-115.502,44.032],[-115.599,43.851],[-115.584,43.805],[-115.533,43.802]]]}},{"type":"Feature","properties":{"density":1},"geometry":{"type":"Polygon","coordinates":[[[-115.118,46.037],[-115.048,46.037],[-114.92,46.008],[-114.839,46.015],[-114.764,46.033],[-114.706,46.076],[-114.562,46.262],[-114.544,46.321],[-114.537,46.397],[-114.569,46.528],[-114.607,46.555],[-114.74,46.573],[-114.949,46.478],[-115.084,46.366],[-115.212,46.19],[-115.212,46.085],[-115.185,46.051],[-115.118,46.037]]]}},{"type":"Feature","properties":{"density":1},"geometry":{"type":"Polygon","coordinates":[[[-115.21,46.748],[-114.94,46.782],[-114.753,46.841],[-114.697,46.931],[-114.708,46.987],[-114.812,47.048],[-114.974,47.023],[-115.115,46.958],[-115.271,46.847],[-115.282,46.746],[-115.21,46.748]]]}},{"type":"Feature","properties":{"density":1},"geometry":{"type":"Polygon","coordinates":[[[-118.195,45.559],[-118.006,45.505],[-117.922,45.505],[-117.719,45.596],[-117.696,45.62],[-117.665,45.708],[-117.672,45.745],[-117.699,45.795],[-117.763,45.846],[-117.837,45.859],[-118.043,45.805],[-118.209,45.667],[-118.239,45.616],[-118.232,45.573],[-118.195,45.559]]]}},{"type":"Feature","properties":{"density":1},"geometry":{"type":"Polygon","coordinates":[[[-117.986,45.93],[-117.55,46.015],[-117.395,46.092],[-117.341,46.183],[-117.385,46.241],[-117.459,46.261],[-117.571,46.258],[-117.962,46.146],[-118.08,46.052],[-118.124,45.954],[-118.107,45.917],[-118.05,45.91],[-117.986,45.93]]]}},{"type":"Feature","properties":{"density":1},"geometry":{"type":"Polygon","coordinates":[[[-118.277,44.722],[-117.966,44.745],[-117.381,44.859],[-117.131,44.98],[-116.599,45.383],[-116.356,45.603],[-115.961,46.081],[-115.779,46.233],[-115.513,46.636],[-115.422,46.909],[-115.536,47.069],[-115.604,47.122],[-115.764,47.16],[-115.832,47.16],[-116.03,47.076],[-116.159,46.955],[-116.455,46.742],[-116.698,46.453],[-117.222,45.891],[-117.427,45.603],[-117.791,45.284],[-118.406,44.919],[-118.452,44.844],[-118.452,44.752],[-118.353,44.707],[-118.277,44.722]]]}},{"type":"Feature","properties":{"density":1},"geometry":{"type":"Polygon","coordinates":[[[-122.048,45.022],[-121.97,44.856],[-121.812,44.782],[-121.623,44.782],[-121.326,44.829],[-121.177,44.9],[-121.113,44.998],[-121.123,45.062],[-121.181,45.133],[-121.255,45.173],[-121.626,45.227],[-121.788,45.187],[-121.896,45.14],[-122.048,45.022]]]}},{"type":"Feature","properties":{"density":1},"geometry":{"type":"Polygon","coordinates":[[[-120.712,47.89],[-120.526,47.749],[-120.307,47.62],[-120.037,47.519],[-119.834,47.506],[-119.669,47.458],[-119.301,47.445],[-119.149,47.512],[-119.068,47.576],[-119.041,47.63],[-119.102,47.792],[-119.189,47.83],[-119.389,47.877],[-119.74,47.904],[-120.688,48.11],[-120.793,48.113],[-120.857,48.059],[-120.867,48.008],[-120.739,47.877],[-120.712,47.89]]]}},{"type":"Feature","properties":{"density":1},"geometry":{"type":"Polygon","coordinates":[[[-121.285,47.468],[-121.225,47.384],[-121.117,47.31],[-121.046,47.266],[-120.901,47.215],[-120.735,47.202],[-120.661,47.219],[-120.617,47.269],[-120.651,47.367],[-120.712,47.425],[-120.82,47.482],[-121.228,47.553],[-121.272,47.526],[-121.292,47.485],[-121.285,47.468]]]}},{"type":"Feature","properties":{"density":1},"geometry":{"type":"Polygon","coordinates":[[[-98.268,24.214],[-98.224,24.304],[-98.217,24.357],[-98.233,24.382],[-98.314,24.42],[-98.4,24.424],[-98.433,24.403],[-98.472,24.342],[-98.448,24.261],[-98.419,24.232],[-98.329,24.202],[-98.268,24.214]]]}},{"type":"Feature","properties":{"density":1},"geometry":{"type":"Polygon","coordinates":[[[-86.156,15.854],[-86.618,15.974],[-86.97,16.136],[-87.066,16.202],[-87.104,16.262],[-87.105,16.323],[-87.063,16.365],[-86.954,16.368],[-86.909,16.359],[-86.651,16.233],[-86.327,15.984],[-86.124,15.872],[-86.115,15.845],[-86.156,15.854]]]}},{"type":"Feature","properties":{"density":1},"geometry":{"type":"Polygon","coordinates":[[[-78.234,21.874],[-78.715,21.818],[-79.232,21.839],[-79.394,21.864],[-79.551,21.914],[-79.738,22.036],[-79.854,22.157],[-79.905,22.238],[-79.89,22.4],[-79.794,22.542],[-79.627,22.664],[-79.449,22.689],[-79.07,22.603],[-78.68,22.461],[-78.32,22.228],[-78.199,22.087],[-78.123,22.036],[-78.072,21.95],[-78.08,21.926],[-78.128,21.895],[-78.234,21.874]]]}},{"type":"Feature","properties":{"density":1},"geometry":{"type":"Polygon","coordinates":[[[-78.006,21.74],[-78.078,21.681],[-78.303,21.605],[-78.429,21.614],[-78.465,21.661],[-78.458,21.735],[-78.395,21.769],[-78.08,21.785],[-78.008,21.762],[-78.006,21.74]]]}},{"type":"Feature","properties":{"density":1},"geometry":{"type":"Polygon","coordinates":[[[-86.185,33.293],[-86.194,33.169],[-86.118,33.018],[-86.028,32.973],[-85.976,32.996],[-85.947,33.025],[-85.94,33.081],[-86.019,33.227],[-86.073,33.297],[-86.111,33.313],[-86.149,33.324],[-86.185,33.293]]]}},{"type":"Feature","properties":{"density":1},"geometry":{"type":"Polygon","coordinates":[[[-86.724,31.455],[-86.369,31.014],[-86.247,30.899],[-86.18,30.863],[-86.074,30.849],[-86.018,30.881],[-85.995,30.969],[-86.051,31.088],[-86.105,31.142],[-86.272,31.261],[-86.645,31.484],[-86.704,31.488],[-86.724,31.455]]]}},{"type":"Feature","properties":{"density":1},"geometry":{"type":"Polygon","coordinates":[[[-97.775,31.201],[-97.784,31.313],[-97.764,31.403],[-97.73,31.457],[-97.654,31.513],[-97.577,31.489],[-97.541,31.43],[-97.541,31.367],[-97.64,31.246],[-97.706,31.196],[-97.764,31.178],[-97.775,31.201]]]}},{"type":"Feature","properties":{"density":1},"geometry":{"type":"Polygon","coordinates":[[[-126.683,66.941],[-117.284,66.249],[-110.364,66.076],[-105.462,65.73],[-98.37,65.153],[-92.718,63.827],[-88.393,62.732],[-85.453,61.232],[-82.973,59.502],[-80.897,57.772],[-77.61,53.332],[-74.957,50.91],[-71.901,47.969],[-70.056,46.528],[-67.922,43.99],[-66.942,42.549],[-66.365,40.415],[-66.192,38.685],[-66.481,37.301],[-67.057,35.398],[-68.441,33.322],[-69.941,31.592],[-72.536,30.324],[-74.15,29.574],[-75.015,28.767],[-75.707,26.287],[-75.13,23.808],[-74.784,22.712],[-74.554,21.04],[-74.784,19.886],[-76.168,18.56],[-78.475,17.58],[-80.32,17.176],[-83.088,16.484],[-85.222,15.85],[-88.105,15.216],[-90.354,14.581],[-91.969,14.351],[-95.486,13.601],[-98.312,13.428],[-100.272,13.428],[-102.06,13.832],[-103.963,14.87],[-104.078,15.043],[-104.309,16.138],[-104.078,17.003],[-103.617,17.522],[-97.908,19.194],[-95.544,20.232],[-94.045,20.867],[-91.623,22.539],[-87.125,25.134],[-86.202,26.057],[-86.029,26.749],[-86.202,27.21],[-87.009,27.671],[-88.105,27.729],[-91.334,27.037],[-93.18,26.864],[-94.852,27.614],[-95.371,28.882],[-95.14,30.439],[-94.218,31.189],[-92.776,32.111],[-91.161,33.265],[-90.7,34.245],[-90.7,34.937],[-91.392,37.071],[-92.315,38.57],[-93.468,39.781],[-96.351,41.107],[-99.523,43.01],[-102.579,44.106],[-105.174,45.259],[-109.038,45.49],[-112.825,44.995],[-115.255,44.911],[-117.803,44.394],[-119.821,44.106],[-120.686,44.106],[-121.839,44.452],[-122.531,45.201],[-122.704,45.836],[-123.684,47.104],[-124.78,48.373],[-125.991,49.526],[-126.452,50.449],[-126.971,52.064],[-127.433,54.197],[-127.433,55.408],[-126.568,58.061],[-127.663,60.886],[-128.99,62.328],[-130.258,63.539],[-131.066,64.288],[-131.469,65.153],[-131.585,66.018],[-131.354,66.653],[-130.547,67.345],[-129.97,67.633],[-128.586,67.691],[-127.779,67.229],[-126.683,66.941]]]}},{"type":"Feature","properties":{"density":1},"geometry":{"type":"Polygon","coordinates":[[[-115.533,43.798],[-115.209,43.845],[-114.689,44.024],[-114.372,44.267],[-114.318,44.375],[-114.304,44.483],[-114.351,44.567],[-114.456,44.594],[-114.547,44.591],[-114.669,44.56],[-114.888,44.483],[-115.155,44.365],[-115.344,44.253],[-115.479,44.139],[-115.62,43.966],[-115.641,43.889],[-115.634,43.855],[-115.573,43.801],[-115.533,43.798]]]}},{"type":"Feature","properties":{"density":1},"geometry":{"type":"Polygon","coordinates":[[[-121.592,36.168],[-121.314,36.507],[-121.182,36.983],[-121.172,37.099],[-121.208,37.398],[-121.304,37.489],[-121.451,37.524],[-121.511,37.524],[-121.653,37.484],[-121.699,37.443],[-121.815,37.281],[-121.891,36.876],[-121.891,36.568],[-121.846,36.249],[-121.795,36.137],[-121.729,36.087],[-121.694,36.076],[-121.643,36.102],[-121.592,36.168]]]}},{"type":"Feature","properties":{"density":2},"geometry":{"type":"Polygon","coordinates":[[[-115.111,46.206],[-115.158,46.199],[-115.176,46.145],[-115.224,46.111],[-115.424,46.127],[-115.451,46.118],[-115.46,46.066],[-115.325,46.008],[-115.255,45.879],[-115.203,45.888],[-115.107,46.008],[-115.03,45.992],[-114.958,46.012],[-114.859,45.974],[-114.832,45.978],[-114.805,45.999],[-114.796,46.093],[-114.774,46.127],[-114.528,46.251],[-114.474,46.293],[-114.375,46.453],[-114.38,46.53],[-114.436,46.566],[-114.49,46.563],[-114.67,46.467],[-114.922,46.253],[-115.111,46.206]]]}},{"type":"Feature","properties":{"density":2},"geometry":{"type":"Polygon","coordinates":[[[-115.073,46.293],[-115.104,46.264],[-115.107,46.248],[-115.091,46.239],[-114.913,46.246],[-114.834,46.289],[-114.616,46.354],[-114.567,46.397],[-114.562,46.444],[-114.659,46.444],[-114.868,46.343],[-115.073,46.293]]]}},{"type":"Feature","properties":{"density":2},"geometry":{"type":"Polygon","coordinates":[[[-115.438,46.609],[-115.465,46.618],[-115.469,46.593],[-115.411,46.479],[-115.384,46.472],[-115.379,46.503],[-115.438,46.609]]]}},{"type":"Feature","properties":{"density":2},"geometry":{"type":"Polygon","coordinates":[[[-115.19,46.868],[-115.235,46.832],[-115.222,46.8],[-115.021,46.787],[-114.952,46.809],[-114.954,46.843],[-114.985,46.863],[-115.051,46.875],[-115.19,46.868]]]}},{"type":"Feature","properties":{"density":2},"geometry":{"type":"Polygon","coordinates":[[[-115.563,43.854],[-115.57,43.802],[-115.529,43.809],[-115.478,43.856],[-115.462,43.919],[-115.482,43.922],[-115.563,43.854]]]}},{"type":"Feature","properties":{"density":2},"geometry":{"type":"Polygon","coordinates":[[[-119.731,40.148],[-119.822,40.133],[-119.862,40.082],[-119.883,40.026],[-119.883,39.9],[-119.908,39.849],[-120.05,39.717],[-120.07,39.672],[-120.065,39.611],[-120.019,39.56],[-119.943,39.53],[-119.857,39.525],[-119.746,39.566],[-119.63,39.631],[-119.503,39.758],[-119.478,39.874],[-119.498,40.001],[-119.579,40.082],[-119.731,40.148]]]}},{"type":"Feature","properties":{"density":2},"geometry":{"type":"Polygon","coordinates":[[[-121.67,36.285],[-121.715,36.3],[-121.806,36.285],[-121.811,36.184],[-121.786,36.128],[-121.538,35.85],[-121.148,35.318],[-121.123,35.242],[-121.098,35.035],[-121.047,34.923],[-120.92,34.857],[-120.87,34.873],[-120.784,34.928],[-120.753,34.994],[-120.723,35.293],[-120.758,35.389],[-121.088,35.703],[-121.447,36.088],[-121.67,36.285]]]}},{"type":"Feature","properties":{"density":2},"geometry":{"type":"Polygon","coordinates":[[[-121.953,45.041],[-121.984,45.041],[-122.0,45.021],[-122.004,44.994],[-121.984,44.964],[-121.774,44.927],[-121.481,44.96],[-120.914,45.068],[-120.758,45.065],[-120.613,45.008],[-120.559,44.957],[-120.465,44.805],[-120.353,44.697],[-120.215,44.677],[-120.178,44.707],[-120.171,44.738],[-120.191,44.775],[-120.411,44.95],[-120.424,44.991],[-120.316,45.106],[-120.293,45.16],[-120.303,45.214],[-120.347,45.247],[-120.431,45.274],[-120.62,45.295],[-120.802,45.295],[-121.184,45.251],[-121.518,45.318],[-121.575,45.311],[-121.595,45.278],[-121.582,45.244],[-121.504,45.18],[-121.494,45.126],[-121.518,45.095],[-121.602,45.048],[-121.714,45.031],[-121.953,45.041]]]}},{"type":"Feature","properties":{"density":2},"geometry":{"type":"Polygon","coordinates":[[[-118.42,44.927],[-118.463,44.824],[-118.448,44.763],[-118.334,44.71],[-118.152,44.695],[-117.704,44.74],[-117.552,44.71],[-117.491,44.672],[-117.416,44.604],[-117.355,44.52],[-117.324,44.429],[-117.294,44.239],[-117.264,44.178],[-117.188,44.118],[-116.899,43.988],[-116.755,43.829],[-116.679,43.609],[-116.618,43.54],[-116.55,43.502],[-116.428,43.48],[-116.322,43.518],[-116.223,43.594],[-116.208,43.647],[-116.193,43.715],[-116.201,43.966],[-116.254,44.353],[-116.428,44.786],[-116.504,44.885],[-116.603,44.945],[-116.671,44.96],[-116.952,44.953],[-117.028,45.006],[-117.051,45.036],[-117.051,45.074],[-116.983,45.158],[-116.922,45.196],[-116.664,45.302],[-116.504,45.393],[-116.368,45.545],[-116.246,45.614],[-116.132,45.636],[-115.79,45.659],[-115.525,45.644],[-115.358,45.651],[-115.145,45.75],[-115.077,45.803],[-115.046,45.849],[-115.046,46.054],[-115.031,46.137],[-114.978,46.229],[-114.839,46.815],[-114.874,46.901],[-115.044,47.054],[-115.215,47.089],[-115.318,47.089],[-115.933,47.003],[-116.121,46.952],[-116.677,46.882],[-116.859,46.813],[-116.958,46.737],[-117.026,46.646],[-117.057,46.479],[-117.057,46.251],[-117.087,46.16],[-117.095,46.016],[-117.201,45.826],[-117.611,45.598],[-117.771,45.492],[-118.226,45.067],[-118.42,44.927]]]}},{"type":"Feature","properties":{"density":2},"geometry":{"type":"Polygon","coordinates":[[[-118.174,45.741],[-118.253,45.712],[-118.294,45.633],[-118.258,45.604],[-118.044,45.583],[-118.039,45.622],[-118.129,45.669],[-118.118,45.73],[-118.143,45.748],[-118.174,45.741]]]}},{"type":"Feature","properties":{"density":2},"geometry":{"type":"Polygon","coordinates":[[[-117.901,46.117],[-117.992,46.073],[-118.033,46.032],[-118.046,45.968],[-118.029,45.945],[-117.989,45.934],[-117.864,45.961],[-117.54,45.961],[-117.334,46.022],[-117.321,46.053],[-117.331,46.083],[-117.418,46.11],[-117.78,46.137],[-117.901,46.117]]]}},{"type":"Feature","properties":{"density":2},"geometry":{"type":"Polygon","coordinates":[[[-121.115,47.486],[-121.216,47.491],[-121.256,47.471],[-121.282,47.42],[-121.267,47.369],[-121.226,47.329],[-121.059,47.212],[-120.801,47.066],[-120.522,46.838],[-120.431,46.782],[-120.067,46.64],[-119.596,46.499],[-119.156,46.488],[-118.993,46.564],[-118.867,46.666],[-118.837,46.731],[-118.847,46.802],[-118.892,46.863],[-118.968,46.909],[-119.049,46.929],[-119.161,46.939],[-119.601,46.914],[-119.763,46.924],[-120.062,46.969],[-120.365,47.055],[-120.705,47.217],[-120.927,47.349],[-121.115,47.486]]]}},{"type":"Feature","properties":{"density":2},"geometry":{"type":"Polygon","coordinates":[[[-120.705,48.177],[-120.781,48.177],[-120.864,48.154],[-120.917,48.101],[-120.948,48.01],[-120.94,47.881],[-120.788,47.607],[-120.674,47.478],[-120.538,47.364],[-120.241,47.182],[-120.067,47.106],[-119.854,47.038],[-119.619,47.007],[-119.216,47.0],[-118.776,47.076],[-118.495,47.197],[-118.259,47.334],[-118.039,47.539],[-117.956,47.592],[-117.652,47.721],[-117.546,47.782],[-117.462,47.858],[-117.409,47.934],[-117.371,48.025],[-117.303,48.435],[-117.31,48.648],[-117.417,48.868],[-117.546,49.05],[-117.614,49.179],[-117.652,49.27],[-117.69,49.468],[-117.682,49.589],[-117.652,49.665],[-117.401,49.992],[-117.363,50.075],[-117.348,50.273],[-117.401,50.409],[-117.47,50.478],[-117.568,50.531],[-117.827,50.599],[-117.956,50.614],[-118.229,50.607],[-118.525,50.531],[-118.654,50.47],[-118.867,50.311],[-118.958,50.204],[-119.042,50.06],[-119.11,49.908],[-119.148,49.764],[-119.216,49.369],[-119.3,49.004],[-119.383,48.784],[-119.482,48.632],[-119.672,48.496],[-119.786,48.298],[-119.915,48.169],[-119.976,48.131],[-120.302,48.055],[-120.477,48.086],[-120.705,48.177]]]}},{"type":"Feature","properties":{"density":2},"geometry":{"type":"Polygon","coordinates":[[[-120.822,48.371],[-120.852,48.3],[-120.832,48.28],[-120.761,48.286],[-120.538,48.357],[-120.245,48.324],[-120.194,48.28],[-120.15,48.145],[-120.096,48.087],[-120.002,48.084],[-119.941,48.124],[-119.944,48.185],[-120.002,48.256],[-120.036,48.354],[-120.083,48.394],[-120.187,48.435],[-120.552,48.442],[-120.731,48.415],[-120.822,48.371]]]}},{"type":"Feature","properties":{"density":2},"geometry":{"type":"Polygon","coordinates":[[[-121.168,65.008],[-121.27,65.008],[-121.475,64.957],[-121.68,64.855],[-121.834,64.727],[-121.937,64.547],[-121.962,64.316],[-121.783,63.932],[-121.783,63.778],[-121.886,63.573],[-122.142,63.419],[-122.424,63.317],[-122.706,63.266],[-122.936,63.189],[-124.346,62.984],[-124.5,62.753],[-124.551,62.471],[-124.551,62.138],[-124.474,61.83],[-124.218,61.549],[-123.885,61.318],[-123.628,61.164],[-123.295,61.062],[-123.013,61.01],[-121.975,60.933],[-121.36,60.78],[-120.899,60.703],[-120.514,60.703],[-120.207,60.626],[-120.015,60.472],[-119.938,60.28],[-119.976,60.011],[-120.245,59.665],[-120.591,59.396],[-120.937,59.165],[-121.36,58.973],[-121.783,58.742],[-122.936,58.166],[-123.359,57.935],[-123.705,57.704],[-124.013,57.55],[-124.833,56.948],[-124.935,56.769],[-125.012,56.512],[-125.038,56.102],[-125.012,54.949],[-125.14,54.59],[-125.32,54.206],[-125.781,53.565],[-125.935,53.258],[-126.089,52.848],[-126.191,52.412],[-126.242,51.899],[-126.268,51.438],[-126.114,51.028],[-125.884,50.72],[-125.294,50.336],[-125.064,50.233],[-124.782,50.131],[-124.166,49.798],[-123.577,49.336],[-123.321,49.106],[-123.09,48.824],[-122.885,48.491],[-122.603,48.106],[-121.962,47.337],[-121.399,46.978],[-120.502,46.62],[-120.117,46.517],[-119.733,46.466],[-118.836,46.389],[-118.503,46.543],[-118.349,46.568],[-118.016,46.568],[-117.913,46.517],[-117.887,46.415],[-117.887,46.287],[-117.964,46.21],[-118.195,46.056],[-118.272,45.953],[-118.323,45.851],[-118.426,45.748],[-118.528,45.492],[-118.605,45.21],[-118.349,44.441],[-118.041,44.185],[-117.836,44.108],[-117.657,44.006],[-117.503,43.852],[-117.17,43.339],[-117.016,43.185],[-116.811,43.16],[-116.555,43.16],[-116.324,43.211],[-116.145,43.314],[-116.042,43.493],[-115.991,43.775],[-116.017,44.108],[-116.093,44.364],[-116.119,44.518],[-116.196,44.749],[-116.222,44.928],[-116.17,45.108],[-115.991,45.261],[-115.145,45.518],[-114.428,45.979],[-113.377,47.389],[-113.12,47.67],[-112.813,47.85],[-112.454,47.952],[-112.095,48.029],[-111.788,48.055],[-111.48,48.055],[-111.147,47.952],[-110.865,47.824],[-110.09,47.376],[-109.667,47.222],[-109.129,47.145],[-108.667,47.107],[-107.283,47.107],[-105.938,47.03],[-105.438,47.03],[-104.131,46.914],[-103.593,46.799],[-102.978,46.607],[-102.44,46.415],[-101.863,46.146],[-101.209,45.8],[-100.556,45.492],[-100.095,45.3],[-99.633,45.031],[-99.21,44.685],[-98.441,43.993],[-98.172,43.608],[-97.826,43.224],[-97.48,42.801],[-96.02,40.725],[-95.75,40.456],[-95.097,40.11],[-94.213,39.802],[-93.329,39.572],[-92.637,39.456],[-91.945,39.38],[-91.291,39.418],[-90.215,39.649],[-89.292,40.225],[-88.908,40.417],[-88.446,40.687],[-87.946,40.879],[-86.87,41.033],[-85.14,41.033],[-84.371,40.994],[-83.718,40.994],[-82.949,41.186],[-82.372,41.455],[-82.026,41.917],[-81.988,42.455],[-82.18,43.109],[-82.526,43.57],[-83.103,43.801],[-85.425,44.113],[-85.896,44.09],[-86.428,44.012],[-87.062,43.954],[-88.446,43.954],[-89.542,44.127],[-91.099,44.646],[-92.713,45.338],[-93.617,46.037],[-93.694,46.498],[-93.694,46.78],[-93.668,47.19],[-93.566,47.549],[-93.412,47.856],[-93.207,48.189],[-92.848,48.625],[-92.72,48.856],[-92.669,49.112],[-92.643,49.343],[-92.694,49.702],[-93.437,51.111],[-93.668,52.008],[-93.694,52.367],[-93.642,52.675],[-93.412,52.88],[-93.207,53.033],[-92.925,53.136],[-92.54,53.187],[-91.361,52.79],[-91.08,52.739],[-90.054,52.636],[-89.439,52.636],[-88.875,52.739],[-88.44,52.995],[-88.004,53.354],[-87.722,53.789],[-87.415,54.353],[-87.338,54.789],[-87.44,55.25],[-87.645,55.583],[-87.927,55.635],[-88.286,55.583],[-88.645,55.558],[-89.004,55.609],[-89.952,56.019],[-90.618,56.275],[-92.745,57.301],[-93.617,57.634],[-94.411,57.967],[-95.206,58.454],[-96.321,59.338],[-96.782,59.684],[-97.666,60.222],[-98.32,60.491],[-98.896,60.684],[-99.473,60.76],[-100.319,60.837],[-101.049,60.837],[-101.472,60.876],[-101.895,60.876],[-102.587,61.068],[-103.202,61.26],[-104.778,61.914],[-105.086,62.068],[-105.97,62.606],[-106.585,62.875],[-107.123,63.182],[-107.585,63.336],[-108.161,63.605],[-108.738,63.836],[-109.776,64.22],[-110.314,64.336],[-110.814,64.374],[-111.429,64.451],[-111.852,64.451],[-112.39,64.413],[-113.428,64.259],[-114.466,64.22],[-115.619,64.297],[-116.427,64.374],[-116.965,64.489],[-117.849,64.489],[-118.656,64.566],[-120.117,64.874],[-121.168,65.008]]]}},{"type":"Feature","properties":{"density":2},"geometry":{"type":"Polygon","coordinates":[[[-86.746,48.779],[-87.088,48.813],[-87.293,48.779],[-87.498,48.677],[-87.925,48.506],[-88.13,48.369],[-88.216,48.215],[-88.25,47.976],[-88.25,47.754],[-88.164,47.549],[-87.976,47.344],[-87.771,47.173],[-87.549,47.019],[-87.31,46.917],[-87.122,46.78],[-86.985,46.643],[-86.541,45.977],[-86.353,45.789],[-86.097,45.67],[-85.789,45.618],[-84.952,45.635],[-84.662,45.567],[-84.012,45.208],[-83.739,45.123],[-83.414,45.106],[-83.226,45.191],[-83.073,45.328],[-83.056,45.533],[-83.107,45.755],[-83.312,46.028],[-84.132,46.729],[-84.815,47.464],[-85.311,47.891],[-86.114,48.455],[-86.37,48.608],[-86.746,48.779]]]}},{"type":"Feature","properties":{"density":2},"geometry":{"type":"Polygon","coordinates":[[[-74.054,38.596],[-74.285,38.596],[-75.028,38.211],[-75.284,38.057],[-76.489,36.981],[-76.924,36.674],[-77.565,36.315],[-78.155,36.084],[-78.821,35.93],[-80.154,35.751],[-81.179,35.648],[-81.82,35.623],[-83.588,35.623],[-84.511,35.853],[-84.921,35.982],[-85.151,36.135],[-85.254,36.315],[-85.203,36.571],[-85.177,36.802],[-85.211,36.919],[-85.331,37.16],[-85.561,37.314],[-85.869,37.366],[-87.355,37.135],[-88.483,36.93],[-89.841,36.853],[-90.636,36.853],[-91.61,36.879],[-91.943,36.853],[-92.251,36.802],[-92.609,36.699],[-92.84,36.443],[-92.943,36.033],[-92.866,35.7],[-92.635,35.392],[-92.327,35.085],[-91.841,34.495],[-91.789,34.213],[-91.764,33.906],[-91.764,33.521],[-91.866,33.137],[-92.071,32.804],[-92.353,32.496],[-93.019,32.06],[-93.404,31.778],[-93.66,31.496],[-93.865,31.086],[-93.891,30.625],[-93.66,30.138],[-93.122,29.318],[-92.814,28.985],[-92.456,28.703],[-92.02,28.524],[-91.61,28.421],[-90.841,28.293],[-90.175,28.267],[-89.047,28.319],[-88.432,28.421],[-87.817,28.575],[-87.099,28.805],[-86.766,28.985],[-86.356,29.241],[-85.997,29.497],[-85.715,29.779],[-84.998,30.266],[-84.69,30.42],[-84.075,30.599],[-83.409,30.651],[-82.512,30.753],[-82.076,30.856],[-81.666,31.035],[-81.205,31.189],[-80.769,31.368],[-80.384,31.548],[-80.102,31.702],[-79.667,32.009],[-79.308,32.265],[-78.898,32.599],[-78.437,32.932],[-77.821,33.316],[-77.335,33.572],[-76.848,33.854],[-76.104,34.239],[-74.925,35.008],[-74.336,35.443],[-73.695,36.007],[-73.362,36.417],[-73.131,36.827],[-73.029,37.186],[-73.029,37.468],[-73.08,37.724],[-73.208,38.006],[-73.311,38.186],[-73.644,38.468],[-74.054,38.596]]]}},{"type":"Feature","properties":{"density":2},"geometry":{"type":"Polygon","coordinates":[[[-118.293,44.884],[-118.081,45.039],[-117.825,45.255],[-117.673,45.285],[-117.598,45.264],[-117.58,45.226],[-117.585,45.199],[-117.645,45.097],[-117.819,44.983],[-118.191,44.803],[-118.245,44.79],[-118.293,44.796],[-118.308,44.875],[-118.293,44.884]]]}},{"type":"Feature","properties":{"density":2},"geometry":{"type":"Polygon","coordinates":[[[-122.035,62.118],[-121.205,62.462],[-120.653,62.654],[-120.491,62.75],[-120.349,62.806],[-120.015,62.852],[-119.98,62.821],[-119.995,62.72],[-120.076,62.624],[-120.309,62.447],[-120.324,62.401],[-120.294,62.366],[-120.04,62.33],[-119.813,62.345],[-119.681,62.386],[-119.473,62.411],[-119.347,62.396],[-119.311,62.335],[-119.423,62.204],[-119.676,62.087],[-119.691,62.067],[-119.691,61.905],[-119.549,61.768],[-119.544,61.667],[-119.585,61.621],[-120.471,61.515],[-120.734,61.459],[-121.144,61.404],[-121.59,61.297],[-121.741,61.297],[-121.792,61.363],[-121.681,61.47],[-121.63,61.556],[-121.615,61.601],[-121.655,61.697],[-121.731,61.743],[-121.838,61.763],[-121.959,61.728],[-122.03,61.738],[-122.126,61.854],[-122.126,61.94],[-122.101,62.016],[-122.035,62.118]]]}},{"type":"Feature","properties":{"density":2},"geometry":{"type":"Polygon","coordinates":[[[-118.276,44.871],[-118.191,44.952],[-117.844,45.104],[-117.722,45.141],[-117.661,45.128],[-117.661,45.044],[-117.736,44.952],[-117.928,44.888],[-118.279,44.811],[-118.293,44.828],[-118.276,44.871]]]}},{"type":"Feature","properties":{"density":2},"geometry":{"type":"Polygon","coordinates":[[[-113.204,47.589],[-112.677,47.964],[-112.46,48.095],[-112.05,48.242],[-111.28,48.5],[-111.108,48.541],[-110.977,48.551],[-110.835,48.49],[-110.774,48.44],[-110.769,48.333],[-110.835,48.237],[-110.982,48.131],[-111.685,47.675],[-112.257,47.473],[-112.84,47.306],[-113.001,47.245],[-113.143,47.285],[-113.209,47.346],[-113.234,47.468],[-113.204,47.589]]]}},{"type":"Feature","properties":{"density":2},"geometry":{"type":"Polygon","coordinates":[[[-113.393,45.547],[-113.193,45.716],[-112.995,45.853],[-112.608,46.031],[-112.543,46.02],[-112.522,45.93],[-112.543,45.874],[-112.626,45.788],[-113.047,45.57],[-113.344,45.471],[-113.393,45.484],[-113.393,45.547]]]}},{"type":"Feature","properties":{"density":2},"geometry":{"type":"Polygon","coordinates":[[[-115.187,46.12],[-115.108,46.18],[-114.915,46.212],[-114.766,46.196],[-114.744,46.151],[-114.789,46.104],[-115.099,46.068],[-115.153,46.068],[-115.194,46.099],[-115.187,46.12]]]}},{"type":"Feature","properties":{"density":2},"geometry":{"type":"Polygon","coordinates":[[[-118.351,44.89],[-118.203,44.991],[-117.963,45.112],[-117.592,45.342],[-117.12,45.544],[-116.326,45.723],[-115.959,45.737],[-115.878,45.713],[-115.827,45.676],[-115.8,45.632],[-115.8,45.551],[-115.959,45.436],[-116.168,45.328],[-116.391,45.258],[-116.647,45.19],[-117.113,45.112],[-117.4,45.008],[-117.852,44.917],[-118.25,44.802],[-118.328,44.829],[-118.351,44.89]]]}},{"type":"Feature","properties":{"density":2},"geometry":{"type":"Polygon","coordinates":[[[-123.224,62.204],[-122.305,62.386],[-121.683,62.584],[-120.483,63.093],[-119.663,63.328],[-118.615,63.601],[-118.197,63.677],[-115.575,64.077],[-112.96,64.026],[-110.474,64.0],[-109.321,63.846],[-107.911,63.564],[-106.194,62.975],[-104.733,62.591],[-103.401,62.027],[-101.632,60.925],[-99.377,60.079],[-96.814,59.079],[-94.661,58.644],[-92.919,58.311],[-91.919,57.926],[-90.586,57.029],[-90.176,56.465],[-90.099,55.594],[-90.33,55.158],[-90.766,54.774],[-91.714,54.389],[-93.047,54.159],[-94.174,54.107],[-94.892,53.954],[-95.456,53.646],[-95.763,53.185],[-95.815,52.595],[-95.097,51.314],[-94.508,50.724],[-94.021,49.879],[-93.457,48.674],[-92.56,47.316],[-92.022,46.444],[-90.509,44.394],[-89.869,43.753],[-88.331,42.139],[-87.742,41.447],[-87.357,40.806],[-87.203,40.012],[-87.229,39.832],[-87.639,39.217],[-88.203,39.038],[-88.767,39.063],[-89.305,39.448],[-89.997,40.293],[-90.304,40.857],[-90.766,41.959],[-91.817,43.369],[-92.56,44.881],[-93.508,46.649],[-94.61,48.085],[-95.328,49.11],[-98.07,51.98],[-100.018,52.8],[-101.658,53.569],[-103.99,53.954],[-105.297,54.056],[-106.886,54.082],[-108.937,53.774],[-110.551,53.339],[-111.628,52.826],[-113.012,52.647],[-114.601,52.672],[-116.036,52.672],[-117.881,52.928],[-119.598,53.646],[-120.316,54.236],[-120.803,54.979],[-120.88,55.696],[-120.777,56.568],[-119.957,57.721],[-119.291,58.464],[-118.368,59.028],[-117.061,59.618],[-115.728,59.976],[-114.78,60.335],[-114.191,60.745],[-114.114,61.053],[-114.191,61.412],[-114.319,61.642],[-114.754,61.642],[-115.164,61.617],[-115.959,61.54],[-116.318,61.437],[-117.83,61.437],[-118.189,61.514],[-119.47,61.36],[-120.828,61.027],[-121.418,60.925],[-122.341,60.899],[-123.238,61.13],[-123.519,61.642],[-123.519,61.95],[-123.417,62.181],[-123.224,62.204]]]}},{"type":"Feature","properties":{"density":2},"geometry":{"type":"Polygon","coordinates":[[[-121.613,36.203],[-121.516,36.851],[-121.547,36.998],[-121.597,37.018],[-121.663,36.998],[-121.714,36.937],[-121.79,36.613],[-121.79,36.35],[-121.775,36.269],[-121.694,36.213],[-121.623,36.193],[-121.613,36.203]]]}},{"type":"Feature","properties":{"density":3},"geometry":{"type":"Polygon","coordinates":[[[-118.311,44.918],[-118.326,44.877],[-118.286,44.847],[-118.154,44.867],[-117.957,44.948],[-117.542,45.221],[-117.425,45.257],[-117.142,45.302],[-116.975,45.373],[-116.458,45.783],[-116.241,46.031],[-115.972,46.209],[-115.967,46.28],[-115.998,46.32],[-116.099,46.35],[-116.215,46.33],[-116.306,46.29],[-116.565,46.118],[-116.787,45.91],[-116.97,45.788],[-117.071,45.672],[-117.177,45.642],[-117.39,45.626],[-117.552,45.551],[-117.936,45.211],[-118.235,45.009],[-118.311,44.918]]]}},{"type":"Feature","properties":{"density":3},"geometry":{"type":"Polygon","coordinates":[[[-121.13,47.425],[-121.16,47.415],[-121.164,47.388],[-121.12,47.344],[-120.958,47.256],[-120.681,47.06],[-120.607,47.033],[-120.617,47.081],[-120.708,47.168],[-120.836,47.253],[-121.042,47.354],[-121.13,47.425]]]}},{"type":"Feature","properties":{"density":3},"geometry":{"type":"Polygon","coordinates":[[[-120.317,47.916],[-120.403,47.962],[-120.524,47.972],[-120.575,47.946],[-120.595,47.901],[-120.585,47.835],[-120.418,47.678],[-120.2,47.42],[-120.119,47.369],[-119.831,47.329],[-119.512,47.212],[-119.446,47.197],[-119.284,47.202],[-119.005,47.334],[-118.742,47.415],[-118.646,47.521],[-118.636,47.572],[-118.656,47.688],[-118.803,47.881],[-118.823,47.997],[-118.848,48.048],[-118.909,48.119],[-118.985,48.169],[-119.081,48.2],[-119.355,48.174],[-119.512,48.119],[-119.618,48.043],[-119.77,47.845],[-119.896,47.754],[-120.043,47.739],[-120.286,47.87],[-120.317,47.916]]]}},{"type":"Feature","properties":{"density":3},"geometry":{"type":"Polygon","coordinates":[[[-120.776,57.872],[-121.006,57.872],[-121.391,57.833],[-121.698,57.757],[-122.006,57.526],[-122.198,57.257],[-122.429,56.68],[-122.506,56.373],[-122.621,56.142],[-122.736,55.834],[-123.813,54.758],[-124.389,54.104],[-125.158,53.143],[-125.427,52.644],[-125.504,52.221],[-125.35,51.836],[-125.043,51.567],[-124.658,51.49],[-123.928,51.567],[-123.582,51.49],[-123.005,51.067],[-122.852,50.798],[-122.621,50.491],[-122.352,50.337],[-121.967,50.222],[-121.583,50.183],[-121.275,50.298],[-120.929,50.491],[-120.506,50.76],[-120.122,51.067],[-119.738,51.452],[-119.392,51.952],[-118.969,52.451],[-118.584,52.874],[-118.2,53.143],[-117.854,53.336],[-117.239,53.489],[-116.124,53.566],[-114.471,53.451],[-113.856,53.605],[-113.625,53.72],[-113.164,53.874],[-112.626,53.989],[-112.049,54.066],[-111.395,54.181],[-110.665,54.258],[-110.011,54.297],[-107.474,54.297],[-106.628,54.258],[-105.744,54.143],[-104.975,53.951],[-104.283,53.72],[-103.707,53.374],[-102.015,52.182],[-101.439,51.875],[-100.823,51.759],[-100.016,51.682],[-99.516,51.913],[-99.093,52.259],[-98.824,52.759],[-98.786,53.22],[-98.824,53.912],[-98.978,54.643],[-99.17,55.258],[-99.555,55.834],[-100.093,56.334],[-100.785,56.872],[-102.438,57.757],[-103.514,58.141],[-104.514,58.372],[-105.552,58.448],[-106.359,58.41],[-107.128,58.256],[-107.897,58.026],[-108.666,57.872],[-110.357,57.411],[-111.165,57.218],[-111.934,56.988],[-112.702,56.795],[-113.51,56.642],[-114.356,56.565],[-115.278,56.565],[-116.047,56.719],[-116.585,56.872],[-117.047,57.103],[-117.585,57.411],[-118.25,57.725],[-118.685,57.776],[-120.776,57.872]]]}},{"type":"Feature","properties":{"density":3},"geometry":{"type":"Polygon","coordinates":[[[-122.295,62.09],[-122.493,62.1],[-122.629,62.034],[-122.655,61.999],[-122.665,61.918],[-122.584,61.791],[-122.478,61.74],[-122.417,61.735],[-122.386,61.751],[-122.397,61.786],[-122.503,61.852],[-122.528,61.918],[-122.508,61.938],[-122.285,61.989],[-122.245,62.014],[-122.229,62.039],[-122.235,62.059],[-122.295,62.09]]]}},{"type":"Feature","properties":{"density":3},"geometry":{"type":"Polygon","coordinates":[[[-122.619,62.414],[-122.68,62.424],[-122.726,62.399],[-122.685,62.363],[-122.594,62.353],[-122.579,62.383],[-122.619,62.414]]]}},{"type":"Feature","properties":{"density":3},"geometry":{"type":"Polygon","coordinates":[[[-122.938,62.014],[-123.009,61.994],[-123.043,61.967],[-123.083,61.899],[-123.066,61.872],[-122.945,61.869],[-122.645,62.041],[-122.685,62.058],[-122.857,62.007],[-122.938,62.014]]]}},{"type":"Feature","properties":{"density":3},"geometry":{"type":"Polygon","coordinates":[[[-122.037,62.095],[-122.154,62.1],[-122.26,62.075],[-122.321,62.029],[-122.316,62.004],[-122.27,61.983],[-122.042,61.978],[-121.986,61.933],[-121.981,61.867],[-121.951,61.806],[-121.911,61.786],[-121.799,61.776],[-121.647,61.624],[-121.455,61.604],[-120.939,61.705],[-120.174,61.72],[-119.865,61.801],[-119.683,61.806],[-119.567,61.832],[-119.313,62.019],[-119.01,62.176],[-118.888,62.221],[-118.827,62.282],[-118.812,62.366],[-118.873,62.434],[-118.995,62.48],[-119.07,62.487],[-119.245,62.48],[-120.02,62.351],[-120.202,62.335],[-120.521,62.358],[-120.688,62.32],[-120.863,62.351],[-121.106,62.426],[-121.333,62.426],[-121.425,62.404],[-121.668,62.282],[-121.804,62.153],[-121.88,62.123],[-122.037,62.095]]]}},{"type":"Feature","properties":{"density":3},"geometry":{"type":"Polygon","coordinates":[[[-120.685,62.624],[-120.721,62.543],[-120.665,62.528],[-119.81,62.852],[-119.556,62.892],[-119.151,62.887],[-119.116,62.907],[-119.106,62.938],[-119.141,62.973],[-119.182,62.988],[-119.354,63.004],[-119.653,63.009],[-119.967,62.963],[-120.447,62.806],[-120.635,62.695],[-120.685,62.624]]]}},{"type":"Feature","properties":{"density":3},"geometry":{"type":"Polygon","coordinates":[[[-120.711,63.135],[-120.758,63.132],[-120.771,63.115],[-120.771,63.091],[-120.721,63.041],[-120.748,62.987],[-120.738,62.963],[-120.613,62.953],[-120.495,62.977],[-120.336,63.037],[-120.009,63.078],[-119.931,63.115],[-119.921,63.149],[-119.955,63.182],[-120.029,63.186],[-120.539,63.118],[-120.711,63.135]]]}},{"type":"Feature","properties":{"density":3},"geometry":{"type":"Polygon","coordinates":[[[-120.831,63.307],[-120.865,63.267],[-120.86,63.249],[-120.82,63.242],[-120.617,63.289],[-120.566,63.321],[-120.563,63.346],[-120.642,63.348],[-120.831,63.307]]]}},{"type":"Feature","properties":{"density":3},"geometry":{"type":"Polygon","coordinates":[[[-120.746,63.382],[-120.903,63.343],[-120.941,63.319],[-120.914,63.298],[-120.752,63.328],[-120.701,63.364],[-120.694,63.388],[-120.746,63.382]]]}},{"type":"Feature","properties":{"density":3},"geometry":{"type":"Polygon","coordinates":[[[-121.038,63.926],[-121.088,63.932],[-121.105,63.912],[-121.105,63.872],[-121.011,63.791],[-121.0,63.713],[-120.97,63.683],[-120.936,63.679],[-120.919,63.71],[-120.926,63.764],[-121.038,63.926]]]}},{"type":"Feature","properties":{"density":3},"geometry":{"type":"Polygon","coordinates":[[[-118.288,44.85],[-118.15,44.952],[-117.982,45.021],[-117.915,45.024],[-117.931,44.976],[-117.963,44.952],[-118.251,44.814],[-118.281,44.815],[-118.275,44.844],[-118.288,44.85]]]}},{"type":"Feature","properties":{"density":3},"geometry":{"type":"Polygon","coordinates":[[[-122.055,62.051],[-121.352,62.253],[-120.785,62.309],[-120.516,62.304],[-120.263,62.218],[-120.283,62.117],[-120.405,61.99],[-120.638,61.914],[-120.962,61.843],[-121.225,61.813],[-121.66,61.828],[-121.893,61.767],[-121.913,61.863],[-121.873,61.929],[-121.873,61.97],[-121.893,61.99],[-122.04,61.97],[-122.075,62.025],[-122.055,62.051]]]}},{"type":"Feature","properties":{"density":3},"geometry":{"type":"Polygon","coordinates":[[[-113.101,47.473],[-112.63,47.686],[-112.23,47.888],[-112.079,48.005],[-111.856,48.131],[-111.694,48.182],[-111.456,48.222],[-111.355,48.182],[-111.334,48.141],[-111.339,48.045],[-111.37,47.969],[-111.481,47.858],[-111.699,47.741],[-112.291,47.539],[-112.883,47.412],[-112.99,47.372],[-113.121,47.382],[-113.126,47.463],[-113.106,47.458],[-113.101,47.473]]]}},{"type":"Feature","properties":{"density":3},"geometry":{"type":"Polygon","coordinates":[[[-118.318,44.883],[-118.105,45.025],[-117.923,45.085],[-117.521,45.15],[-117.484,45.143],[-117.471,45.106],[-117.464,45.072],[-117.484,45.018],[-117.572,44.974],[-117.761,44.923],[-117.997,44.89],[-118.264,44.815],[-118.294,44.815],[-118.318,44.883]]]}},{"type":"Feature","properties":{"density":3},"geometry":{"type":"Polygon","coordinates":[[[-122.028,45.033],[-122.024,45.002],[-121.997,44.991],[-121.909,44.885],[-121.763,44.905],[-121.707,44.878],[-121.628,44.788],[-121.574,44.752],[-121.446,44.741],[-121.387,44.815],[-121.412,44.91],[-121.509,44.977],[-121.839,45.045],[-122.015,45.056],[-122.028,45.033]]]}},{"type":"Feature","properties":{"density":3},"geometry":{"type":"Polygon","coordinates":[[[-121.714,61.327],[-120.928,61.536],[-119.76,61.782],[-119.409,61.944],[-119.102,62.11],[-118.943,62.214],[-118.676,62.461],[-118.622,62.707],[-118.663,62.805],[-118.815,62.899],[-118.93,62.916],[-119.068,62.92],[-119.257,62.889],[-119.486,62.839],[-120.013,62.663],[-120.28,62.602],[-120.445,62.535],[-120.816,62.424],[-121.093,62.383],[-121.582,62.282],[-122.146,62.272],[-122.342,62.221],[-122.48,62.157],[-122.591,62.066],[-122.659,61.985],[-122.659,61.88],[-122.635,61.843],[-122.534,61.779],[-122.429,61.755],[-121.913,61.745],[-121.694,61.776],[-121.538,61.772],[-121.457,61.698],[-121.478,61.664],[-121.532,61.644],[-121.569,61.533],[-121.66,61.475],[-121.795,61.435],[-121.825,61.398],[-121.829,61.36],[-121.808,61.327],[-121.714,61.327]]]}}]}