{"type":"FeatureCollection","features":[{"type":"Feature","properties":{"density":1},"geometry":{"type":"Polygon","coordinates":[[[-80.557,26.536],[-80.61,26.575],[-80.647,26.575],[-80.668,26.546],[-80.659,26.524],[-80.592,26.481],[-80.358,26.22],[-80.26,26.192],[-80.223,26.216],[-80.225,26.269],[-80.25,26.3],[-80.399,26.399],[-80.538,26.519],[-80.557,26.536]]]}},{"type":"Feature","properties":{"density":1},"geometry":{"type":"Polygon","coordinates":[[[-80.672,26.548],[-80.703,26.559],[-80.721,26.547],[-80.681,26.475],[-80.373,26.199],[-80.311,26.163],[-80.289,26.165],[-80.271,26.203],[-80.29,26.241],[-80.582,26.457],[-80.662,26.536],[-80.672,26.548]]]}},{"type":"Feature","properties":{"density":1},"geometry":{"type":"Polygon","coordinates":[[[-80.749,26.624],[-80.89,26.772],[-80.935,26.78],[-80.953,26.769],[-80.937,26.702],[-80.762,26.559],[-80.729,26.574],[-80.742,26.613],[-80.749,26.624]]]}},{"type":"Feature","properties":{"density":1},"geometry":{"type":"Polygon","coordinates":[[[-80.732,26.548],[-80.808,26.609],[-80.838,26.602],[-80.837,26.566],[-80.721,26.441],[-80.658,26.394],[-80.629,26.404],[-80.632,26.47],[-80.716,26.536],[-80.732,26.548]]]}},{"type":"Feature","properties":{"density":1},"geometry":{"type":"Polygon","coordinates":[[[-81.128,26.828],[-81.191,26.881],[-81.233,26.858],[-81.189,26.788],[-81.069,26.675],[-81.04,26.704],[-81.048,26.742],[-81.116,26.813],[-81.128,26.828]]]}},{"type":"Feature","properties":{"density":1},"geometry":{"type":"Polygon","coordinates":[[[-81.207,28.761],[-80.999,28.717],[-80.884,28.734],[-80.848,28.763],[-80.838,28.836],[-80.86,28.919],[-81.094,29.112],[-81.187,29.163],[-81.7,29.542],[-81.849,29.63],[-81.92,29.644],[-81.971,29.63],[-81.971,29.583],[-81.951,29.561],[-81.785,29.454],[-81.602,29.276],[-81.387,29.105],[-81.358,29.061],[-81.277,28.807],[-81.226,28.768],[-81.207,28.761]]]}},{"type":"Feature","properties":{"density":1},"geometry":{"type":"Polygon","coordinates":[[[-92.332,29.662],[-92.232,29.748],[-92.2,29.794],[-92.2,29.828],[-92.242,29.828],[-92.291,29.794],[-92.325,29.748],[-92.569,29.533],[-92.75,29.396],[-93.069,29.191],[-93.245,29.045],[-93.406,28.896],[-93.455,28.81],[-93.467,28.73],[-93.392,28.732],[-93.26,28.805],[-93.213,28.847],[-93.06,29.052],[-92.61,29.399],[-92.444,29.543],[-92.366,29.631],[-92.332,29.662]]]}},{"type":"Feature","properties":{"density":1},"geometry":{"type":"Polygon","coordinates":[[[-99.346,15.127],[-99.505,15.081],[-99.756,15.263],[-99.892,15.491],[-99.892,15.65],[-99.847,15.877],[-99.574,16.491],[-99.483,16.878],[-99.369,17.264],[-99.369,17.81],[-99.574,18.151],[-99.869,18.356],[-100.347,18.446],[-101.506,18.446],[-102.257,18.356],[-102.734,18.174],[-103.621,17.628],[-104.212,17.219],[-105.099,16.286],[-105.349,15.991],[-105.713,15.468],[-105.895,15.15],[-106.031,14.672],[-106.054,14.24],[-105.667,12.876],[-105.667,12.194],[-105.508,11.534],[-105.258,11.034],[-104.667,10.42],[-103.303,9.67],[-102.416,9.124],[-101.12,8.669],[-98.983,8.169],[-97.164,8.169],[-96.118,8.419],[-94.594,8.715],[-93.844,8.942],[-93.139,9.101],[-92.616,9.352],[-91.616,9.693],[-90.683,10.193],[-89.092,11.125],[-88.432,11.625],[-87.955,12.012],[-87.386,13.08],[-87.409,13.535],[-88.137,14.899],[-88.819,15.15],[-90.047,15.218],[-90.592,15.309],[-91.047,15.536],[-91.752,15.809],[-92.184,16.491],[-92.662,16.855],[-93.207,17.128],[-94.049,17.173],[-94.708,17.173],[-95.367,17.128],[-96.254,16.946],[-96.527,16.787],[-96.982,16.468],[-97.482,16.082],[-97.868,15.809],[-98.619,15.422],[-99.028,15.172],[-99.346,15.127]]]}},{"type":"Feature","properties":{"density":1},"geometry":{"type":"Polygon","coordinates":[[[-81.02,26.856],[-80.934,26.82],[-80.771,26.69],[-80.713,26.621],[-80.684,26.614],[-80.666,26.614],[-80.674,26.758],[-80.655,26.816],[-80.58,26.831],[-80.54,26.82],[-80.186,26.599],[-80.027,26.477],[-79.752,26.227],[-79.51,25.964],[-79.377,25.786],[-79.312,25.609],[-79.275,25.353],[-79.308,25.216],[-79.355,25.136],[-79.478,25.107],[-79.572,25.129],[-79.698,25.212],[-80.117,25.653],[-80.677,26.137],[-80.858,26.328],[-81.013,26.585],[-81.071,26.711],[-81.085,26.784],[-81.078,26.841],[-81.057,26.863],[-81.02,26.856]]]}},{"type":"Feature","properties":{"density":1},"geometry":{"type":"Polygon","coordinates":[[[-81.95,29.617],[-81.936,29.632],[-81.852,29.646],[-81.586,29.594],[-80.913,29.414],[-80.543,29.218],[-80.095,28.81],[-79.982,28.62],[-79.927,28.449],[-79.919,28.362],[-79.939,28.296],[-79.988,28.261],[-80.052,28.258],[-80.231,28.351],[-80.635,28.703],[-80.838,28.923],[-81.274,29.212],[-81.566,29.377],[-81.803,29.493],[-81.948,29.542],[-81.962,29.579],[-81.95,29.617]]]}},{"type":"Feature","properties":{"density":1},"geometry":{"type":"Polygon","coordinates":[[[-85.56,33.822],[-85.543,33.834],[-85.5,33.828],[-85.401,33.724],[-85.329,33.571],[-85.335,33.49],[-85.401,33.481],[-85.479,33.565],[-85.566,33.805],[-85.56,33.822]]]}},{"type":"Feature","properties":{"density":1},"geometry":{"type":"Polygon","coordinates":[[[-86.101,33.256],[-86.058,33.282],[-85.951,33.221],[-85.812,33.071],[-85.78,33.013],[-85.771,32.92],[-85.815,32.894],[-85.925,32.955],[-86.092,33.235],[-86.101,33.256]]]}},{"type":"Feature","properties":{"density":1},"geometry":{"type":"Polygon","coordinates":[[[-89.485,32.637],[-89.445,32.643],[-89.407,32.617],[-89.39,32.582],[-89.402,32.55],[-89.459,32.553],[-89.506,32.602],[-89.503,32.626],[-89.485,32.634],[-89.485,32.637]]]}},{"type":"Feature","properties":{"density":1},"geometry":{"type":"Polygon","coordinates":[[[-93.082,30.5],[-93.068,30.516],[-93.008,30.525],[-92.925,30.502],[-92.793,30.403],[-92.772,30.368],[-92.77,30.322],[-92.781,30.303],[-92.816,30.294],[-92.897,30.305],[-93.059,30.398],[-93.093,30.444],[-93.093,30.467],[-93.082,30.5]]]}},{"type":"Feature","properties":{"density":1},"geometry":{"type":"Polygon","coordinates":[[[-95.096,30.575],[-95.145,30.595],[-95.131,30.615],[-94.995,30.653],[-94.96,30.65],[-94.943,30.632],[-94.957,30.606],[-95.05,30.583],[-95.096,30.575]]]}},{"type":"Feature","properties":{"density":1},"geometry":{"type":"Polygon","coordinates":[[[-95.076,30.806],[-95.09,30.84],[-95.079,30.895],[-95.021,30.947],[-94.94,30.968],[-94.917,30.95],[-94.937,30.866],[-95.047,30.8],[-95.076,30.806]]]}},{"type":"Feature","properties":{"density":1},"geometry":{"type":"Polygon","coordinates":[[[-95.715,30.543],[-95.692,30.609],[-95.666,30.627],[-95.527,30.638],[-95.281,30.577],[-95.183,30.531],[-95.16,30.488],[-95.166,30.456],[-95.267,30.444],[-95.668,30.488],[-95.718,30.525],[-95.715,30.543]]]}},{"type":"Feature","properties":{"density":1},"geometry":{"type":"Polygon","coordinates":[[[-94.862,30.976],[-94.822,31.043],[-94.79,31.037],[-94.764,31.011],[-94.784,30.982],[-94.842,30.962],[-94.862,30.976]]]}},{"type":"Feature","properties":{"density":1},"geometry":{"type":"Polygon","coordinates":[[[-94.212,31.424],[-94.238,31.468],[-94.197,31.569],[-94.085,31.644],[-94.021,31.621],[-94.009,31.577],[-94.024,31.517],[-94.059,31.462],[-94.134,31.418],[-94.18,31.416],[-94.212,31.424]]]}},{"type":"Feature","properties":{"density":1},"geometry":{"type":"Polygon","coordinates":[[[-80.674,26.792],[-80.642,26.824],[-80.583,26.814],[-79.362,25.747],[-78.92,25.177],[-78.808,24.98],[-78.781,24.809],[-78.797,24.756],[-78.925,24.703],[-79.064,24.751],[-79.261,24.878],[-79.693,25.214],[-80.61,26.291],[-80.722,26.472],[-80.727,26.547],[-80.684,26.75],[-80.674,26.792]]]}},{"type":"Feature","properties":{"density":1},"geometry":{"type":"Polygon","coordinates":[[[-80.648,27.931],[-80.628,27.965],[-80.413,27.955],[-80.314,27.934],[-80.106,27.859],[-79.922,27.764],[-79.857,27.658],[-79.864,27.552],[-79.884,27.498],[-79.986,27.426],[-80.085,27.412],[-80.178,27.416],[-80.27,27.453],[-80.341,27.521],[-80.498,27.774],[-80.635,27.9],[-80.648,27.931]]]}},{"type":"Feature","properties":{"density":1},"geometry":{"type":"Polygon","coordinates":[[[-81.964,29.623],[-81.909,29.651],[-81.749,29.657],[-81.162,29.575],[-80.753,29.435],[-80.152,29.008],[-79.958,28.769],[-79.869,28.63],[-79.842,28.548],[-79.842,28.469],[-79.866,28.432],[-80.012,28.404],[-80.077,28.452],[-80.258,28.681],[-80.831,29.107],[-81.302,29.353],[-81.909,29.541],[-81.95,29.575],[-81.964,29.623]]]}},{"type":"Feature","properties":{"density":1},"geometry":{"type":"Polygon","coordinates":[[[-85.69,30.104],[-85.673,30.145],[-85.613,30.145],[-85.49,30.11],[-85.324,30.009],[-85.223,29.908],[-85.119,29.588],[-85.13,29.419],[-85.171,29.277],[-85.204,29.234],[-85.283,29.195],[-85.368,29.214],[-85.452,29.277],[-85.509,29.37],[-85.632,29.501],[-85.668,29.733],[-85.687,30.063],[-85.69,30.104]]]}},{"type":"Feature","properties":{"density":1},"geometry":{"type":"Polygon","coordinates":[[[-84.817,29.933],[-84.744,29.942],[-84.67,29.911],[-84.512,29.759],[-84.129,29.464],[-84.105,29.423],[-84.105,29.352],[-84.233,29.376],[-84.356,29.467],[-84.572,29.633],[-84.817,29.892],[-84.817,29.933]]]}},{"type":"Feature","properties":{"density":1},"geometry":{"type":"Polygon","coordinates":[[[-86.941,30.951],[-86.906,30.947],[-86.895,30.925],[-86.904,30.8],[-86.939,30.833],[-86.947,30.936],[-86.941,30.951]]]}},{"type":"Feature","properties":{"density":1},"geometry":{"type":"Polygon","coordinates":[[[-81.718,30.874],[-81.702,30.89],[-81.497,30.866],[-81.08,30.739],[-80.842,30.652],[-80.798,30.608],[-80.8,30.577],[-80.822,30.553],[-80.883,30.549],[-81.713,30.864],[-81.718,30.874]]]}},{"type":"Feature","properties":{"density":1},"geometry":{"type":"Polygon","coordinates":[[[-87.432,34.289],[-87.407,34.3],[-87.351,34.288],[-87.273,34.232],[-87.23,34.167],[-87.223,34.025],[-87.256,34.015],[-87.282,34.029],[-87.384,34.167],[-87.432,34.264],[-87.432,34.289]]]}},{"type":"Feature","properties":{"density":1},"geometry":{"type":"Polygon","coordinates":[[[-85.596,33.378],[-85.538,33.376],[-85.519,33.345],[-85.535,33.332],[-85.6,33.364],[-85.596,33.378]]]}},{"type":"Feature","properties":{"density":1},"geometry":{"type":"Polygon","coordinates":[[[-85.561,33.808],[-85.557,33.821],[-85.514,33.823],[-85.425,33.769],[-85.276,33.619],[-85.175,33.43],[-85.112,33.25],[-85.119,33.144],[-85.145,33.114],[-85.184,33.114],[-85.233,33.151],[-85.399,33.439],[-85.559,33.776],[-85.561,33.808]]]}},{"type":"Feature","properties":{"density":1},"geometry":{"type":"Polygon","coordinates":[[[-86.096,33.257],[-86.063,33.294],[-85.996,33.278],[-85.795,33.072],[-85.708,32.943],[-85.697,32.847],[-85.732,32.796],[-85.809,32.801],[-85.839,32.824],[-86.017,33.091],[-86.096,33.243],[-86.096,33.257]]]}},{"type":"Feature","properties":{"density":1},"geometry":{"type":"Polygon","coordinates":[[[-87.362,32.882],[-87.366,32.917],[-87.319,32.931],[-87.217,32.854],[-87.121,32.712],[-87.112,32.669],[-87.125,32.646],[-87.168,32.637],[-87.235,32.669],[-87.292,32.724],[-87.359,32.862],[-87.362,32.882]]]}},{"type":"Feature","properties":{"density":1},"geometry":{"type":"Polygon","coordinates":[[[-85.86,32.069],[-85.834,32.083],[-85.778,32.071],[-85.619,31.881],[-85.57,31.757],[-85.594,31.696],[-85.628,31.669],[-85.722,31.657],[-85.786,31.709],[-85.809,31.757],[-85.863,32.048],[-85.86,32.069]]]}},{"type":"Feature","properties":{"density":1},"geometry":{"type":"Polygon","coordinates":[[[-92.561,30.878],[-92.541,30.924],[-92.445,30.946],[-92.403,30.946],[-92.366,30.926],[-92.325,30.881],[-92.329,30.859],[-92.369,30.848],[-92.548,30.854],[-92.561,30.878]]]}},{"type":"Feature","properties":{"density":1},"geometry":{"type":"Polygon","coordinates":[[[-90.903,30.983],[-90.814,30.981],[-90.755,30.933],[-90.772,30.916],[-90.812,30.918],[-90.901,30.955],[-90.905,30.97],[-90.903,30.983]]]}},{"type":"Feature","properties":{"density":1},"geometry":{"type":"Polygon","coordinates":[[[-92.065,29.8],[-92.067,29.819],[-92.032,29.861],[-91.971,29.865],[-91.868,29.767],[-91.851,29.688],[-91.875,29.66],[-91.899,29.669],[-91.989,29.765],[-92.054,29.78],[-92.065,29.8]]]}},{"type":"Feature","properties":{"density":1},"geometry":{"type":"Polygon","coordinates":[[[-92.29,29.752],[-92.244,29.824],[-92.198,29.835],[-92.126,29.8],[-92.096,29.739],[-92.163,29.585],[-92.306,29.442],[-92.797,29.19],[-93.565,28.842],[-93.879,28.674],[-94.022,28.64],[-94.067,28.64],[-94.084,28.664],[-94.091,28.685],[-94.067,28.722],[-93.998,28.79],[-93.773,28.893],[-92.572,29.548],[-92.327,29.722],[-92.29,29.752]]]}},{"type":"Feature","properties":{"density":1},"geometry":{"type":"Polygon","coordinates":[[[-93.073,30.479],[-93.069,30.516],[-93.023,30.568],[-92.931,30.588],[-92.75,30.544],[-92.536,30.459],[-92.265,30.175],[-92.252,30.11],[-92.263,30.077],[-92.296,30.046],[-92.394,30.062],[-93.038,30.418],[-93.062,30.452],[-93.073,30.479]]]}},{"type":"Feature","properties":{"density":1},"geometry":{"type":"Polygon","coordinates":[[[-94.228,31.435],[-94.132,31.566],[-93.958,31.614],[-93.866,31.614],[-93.794,31.595],[-93.741,31.551],[-93.731,31.505],[-93.737,31.477],[-93.792,31.418],[-93.942,31.374],[-94.185,31.387],[-94.231,31.418],[-94.228,31.435]]]}},{"type":"Feature","properties":{"density":1},"geometry":{"type":"Polygon","coordinates":[[[-94.521,31.263],[-94.506,31.293],[-94.329,31.337],[-94.27,31.315],[-94.261,31.274],[-94.311,31.239],[-94.416,31.221],[-94.515,31.245],[-94.521,31.263]]]}},{"type":"Feature","properties":{"density":1},"geometry":{"type":"Polygon","coordinates":[[[-95.285,30.804],[-95.174,30.891],[-94.787,31.033],[-94.646,31.053],[-94.595,31.016],[-94.595,30.99],[-94.622,30.955],[-94.951,30.811],[-95.08,30.78],[-95.255,30.763],[-95.285,30.771],[-95.288,30.789],[-95.285,30.804]]]}},{"type":"Feature","properties":{"density":1},"geometry":{"type":"Polygon","coordinates":[[[-95.783,30.597],[-95.737,30.684],[-95.502,30.763],[-95.338,30.769],[-95.294,30.747],[-95.261,30.704],[-95.268,30.599],[-95.32,30.538],[-95.392,30.5],[-95.643,30.485],[-95.746,30.525],[-95.779,30.575],[-95.783,30.597]]]}},{"type":"Feature","properties":{"density":1},"geometry":{"type":"Polygon","coordinates":[[[-81.205,26.869],[-81.197,26.882],[-81.14,26.888],[-81.033,26.874],[-80.919,26.825],[-80.801,26.735],[-80.774,26.73],[-80.719,26.738],[-80.662,26.801],[-80.586,26.806],[-80.332,26.749],[-79.766,26.527],[-79.554,26.404],[-79.469,26.312],[-79.425,26.158],[-79.408,25.991],[-79.36,25.787],[-79.305,25.186],[-79.312,25.118],[-79.35,25.06],[-79.435,25.053],[-79.537,25.097],[-79.623,25.183],[-79.896,25.636],[-80.094,25.896],[-80.329,26.08],[-80.885,26.384],[-81.192,26.827],[-81.205,26.869]]]}},{"type":"Feature","properties":{"density":1},"geometry":{"type":"Polygon","coordinates":[[[-81.324,27.214],[-81.245,27.225],[-80.985,27.154],[-80.824,27.042],[-80.783,26.955],[-80.794,26.928],[-80.83,26.92],[-80.898,26.936],[-81.234,27.138],[-81.294,27.16],[-81.321,27.19],[-81.324,27.214]]]}},{"type":"Feature","properties":{"density":1},"geometry":{"type":"Polygon","coordinates":[[[-80.718,27.962],[-80.685,27.976],[-80.48,27.973],[-80.085,27.848],[-79.73,27.708],[-79.46,27.572],[-79.263,27.408],[-79.219,27.31],[-79.23,27.247],[-79.26,27.206],[-79.312,27.184],[-79.378,27.187],[-79.673,27.329],[-80.057,27.627],[-80.573,27.848],[-80.688,27.902],[-80.726,27.938],[-80.718,27.962]]]}},{"type":"Feature","properties":{"density":1},"geometry":{"type":"Polygon","coordinates":[[[-81.905,28.694],[-81.81,28.694],[-81.665,28.658],[-81.57,28.563],[-81.564,28.533],[-81.624,28.511],[-81.826,28.631],[-81.919,28.669],[-81.916,28.683],[-81.905,28.694]]]}},{"type":"Feature","properties":{"density":1},"geometry":{"type":"Polygon","coordinates":[[[-81.96,29.619],[-81.933,29.641],[-81.788,29.627],[-81.258,29.548],[-80.655,29.42],[-80.344,29.31],[-80.128,29.223],[-79.929,29.108],[-79.844,28.996],[-79.804,28.912],[-79.784,28.838],[-79.795,28.805],[-79.828,28.778],[-79.88,28.775],[-80.224,28.882],[-80.42,29.016],[-80.707,29.163],[-81.122,29.316],[-81.545,29.417],[-81.93,29.567],[-81.96,29.619]]]}},{"type":"Feature","properties":{"density":1},"geometry":{"type":"Polygon","coordinates":[[[-82.928,30.189],[-82.919,30.222],[-82.897,30.229],[-82.812,30.216],[-82.502,30.006],[-82.397,29.914],[-82.362,29.84],[-82.41,29.825],[-82.631,29.912],[-82.921,30.168],[-82.928,30.189]]]}},{"type":"Feature","properties":{"density":1},"geometry":{"type":"Polygon","coordinates":[[[-85.692,30.1],[-85.643,30.125],[-85.556,30.114],[-85.089,29.833],[-84.903,29.683],[-84.745,29.445],[-84.598,29.175],[-84.508,28.932],[-84.437,28.602],[-84.491,28.454],[-84.63,28.291],[-84.805,28.247],[-84.947,28.272],[-85.045,28.323],[-85.204,28.444],[-85.531,28.747],[-85.61,28.869],[-85.722,29.09],[-85.771,29.26],[-85.769,29.434],[-85.73,29.584],[-85.695,30.062],[-85.692,30.1]]]}},{"type":"Feature","properties":{"density":1},"geometry":{"type":"Polygon","coordinates":[[[-87.446,34.282],[-87.433,34.321],[-87.406,34.33],[-87.343,34.312],[-87.271,34.26],[-87.186,34.15],[-87.131,33.976],[-87.14,33.88],[-87.16,33.836],[-87.208,33.832],[-87.273,33.856],[-87.33,34.068],[-87.428,34.257],[-87.446,34.282]]]}},{"type":"Feature","properties":{"density":1},"geometry":{"type":"Polygon","coordinates":[[[-86.221,33.644],[-86.173,33.633],[-86.146,33.537],[-86.157,33.53],[-86.184,33.557],[-86.223,33.622],[-86.221,33.644]]]}},{"type":"Feature","properties":{"density":1},"geometry":{"type":"Polygon","coordinates":[[[-85.555,33.795],[-85.552,33.823],[-85.535,33.829],[-85.426,33.773],[-85.238,33.589],[-85.111,33.434],[-84.974,33.159],[-84.948,33.056],[-84.943,32.989],[-84.972,32.925],[-85.028,32.882],[-85.103,32.873],[-85.188,32.897],[-85.384,33.063],[-85.43,33.137],[-85.472,33.454],[-85.544,33.69],[-85.555,33.777],[-85.555,33.795]]]}},{"type":"Feature","properties":{"density":1},"geometry":{"type":"Polygon","coordinates":[[[-86.232,33.631],[-86.229,33.646],[-86.192,33.65],[-86.125,33.598],[-86.059,33.491],[-86.055,33.456],[-86.083,33.45],[-86.129,33.478],[-86.227,33.615],[-86.232,33.631]]]}},{"type":"Feature","properties":{"density":1},"geometry":{"type":"Polygon","coordinates":[[[-86.102,33.26],[-86.05,33.275],[-85.834,33.079],[-85.576,32.753],[-85.539,32.633],[-85.53,32.539],[-85.556,32.524],[-85.624,32.529],[-85.766,32.662],[-86.019,33.068],[-86.096,33.249],[-86.102,33.26]]]}},{"type":"Feature","properties":{"density":1},"geometry":{"type":"Polygon","coordinates":[[[-87.369,32.9],[-87.338,32.926],[-87.301,32.919],[-87.139,32.799],[-86.84,32.498],[-86.683,32.214],[-86.694,32.135],[-86.733,32.122],[-86.864,32.146],[-87.255,32.642],[-87.369,32.88],[-87.369,32.9]]]}},{"type":"Feature","properties":{"density":1},"geometry":{"type":"Polygon","coordinates":[[[-86.594,32.256],[-86.535,32.253],[-86.401,32.111],[-86.371,32.037],[-86.371,31.976],[-86.406,31.98],[-86.456,32.024],[-86.596,32.238],[-86.594,32.256]]]}},{"type":"Feature","properties":{"density":1},"geometry":{"type":"Polygon","coordinates":[[[-85.528,32.332],[-85.408,32.308],[-85.194,32.125],[-84.975,31.882],[-84.949,31.836],[-84.951,31.788],[-84.973,31.782],[-85.061,31.838],[-85.528,32.31],[-85.528,32.332]]]}},{"type":"Feature","properties":{"density":1},"geometry":{"type":"Polygon","coordinates":[[[-85.871,32.052],[-85.834,32.066],[-85.777,32.042],[-85.681,31.97],[-85.211,31.493],[-85.13,31.33],[-85.117,31.196],[-85.139,31.142],[-85.211,31.098],[-85.314,31.081],[-85.382,31.103],[-85.532,31.218],[-85.598,31.341],[-85.648,31.596],[-85.698,31.712],[-85.882,32.031],[-85.871,32.052]]]}},{"type":"Feature","properties":{"density":1},"geometry":{"type":"Polygon","coordinates":[[[-88.22,31.609],[-88.199,31.62],[-88.054,31.526],[-88.011,31.448],[-88.015,31.402],[-88.083,31.419],[-88.218,31.587],[-88.22,31.609]]]}},{"type":"Feature","properties":{"density":1},"geometry":{"type":"Polygon","coordinates":[[[-88.406,33.395],[-88.384,33.409],[-88.306,33.398],[-88.216,33.343],[-88.201,33.306],[-88.231,33.297],[-88.393,33.354],[-88.408,33.374],[-88.406,33.395]]]}},{"type":"Feature","properties":{"density":1},"geometry":{"type":"Polygon","coordinates":[[[-88.371,32.756],[-88.297,32.74],[-88.216,32.679],[-88.194,32.616],[-88.201,32.594],[-88.262,32.603],[-88.375,32.716],[-88.371,32.756]]]}},{"type":"Feature","properties":{"density":1},"geometry":{"type":"Polygon","coordinates":[[[-89.618,32.509],[-89.592,32.542],[-89.557,32.553],[-89.456,32.546],[-89.229,32.485],[-89.168,32.422],[-89.159,32.354],[-89.223,32.238],[-89.264,32.218],[-89.33,32.216],[-89.408,32.245],[-89.489,32.301],[-89.622,32.491],[-89.618,32.509]]]}},{"type":"Feature","properties":{"density":1},"geometry":{"type":"Polygon","coordinates":[[[-90.234,32.144],[-90.225,32.157],[-90.188,32.153],[-90.022,32.098],[-89.921,32.026],[-89.917,31.989],[-89.932,31.976],[-90.011,31.996],[-90.231,32.12],[-90.234,32.144]]]}},{"type":"Feature","properties":{"density":1},"geometry":{"type":"Polygon","coordinates":[[[-89.841,32.24],[-89.832,32.266],[-89.749,32.277],[-89.646,32.232],[-89.432,32.096],[-89.41,32.068],[-89.417,32.033],[-89.448,32.013],[-89.557,32.026],[-89.683,32.105],[-89.843,32.234],[-89.841,32.24]]]}},{"type":"Feature","properties":{"density":1},"geometry":{"type":"Polygon","coordinates":[[[-88.624,32.111],[-88.631,32.138],[-88.611,32.157],[-88.474,32.111],[-88.325,32.024],[-88.233,31.935],[-88.203,31.878],[-88.188,31.775],[-88.238,31.747],[-88.373,31.804],[-88.544,31.976],[-88.622,32.101],[-88.624,32.111]]]}},{"type":"Feature","properties":{"density":1},"geometry":{"type":"Polygon","coordinates":[[[-89.349,31.908],[-89.332,31.921],[-89.17,31.889],[-89.063,31.841],[-89.006,31.793],[-89.0,31.74],[-89.094,31.756],[-89.341,31.884],[-89.349,31.908]]]}},{"type":"Feature","properties":{"density":1},"geometry":{"type":"Polygon","coordinates":[[[-91.011,31.511],[-90.98,31.531],[-90.858,31.531],[-90.821,31.491],[-90.817,31.459],[-90.836,31.428],[-90.88,31.413],[-91.002,31.496],[-91.011,31.511]]]}},{"type":"Feature","properties":{"density":1},"geometry":{"type":"Polygon","coordinates":[[[-91.428,31.05],[-91.369,31.061],[-90.954,31.033],[-90.572,30.945],[-90.338,30.869],[-90.1,30.768],[-89.926,30.653],[-89.849,30.52],[-89.856,30.493],[-89.882,30.474],[-89.985,30.485],[-90.507,30.755],[-90.828,30.873],[-91.164,30.961],[-91.424,30.993],[-91.433,31.033],[-91.428,31.05]]]}},{"type":"Feature","properties":{"density":1},"geometry":{"type":"Polygon","coordinates":[[[-90.057,31.456],[-90.017,31.474],[-89.954,31.461],[-89.775,31.288],[-89.766,31.227],[-89.847,31.223],[-90.048,31.445],[-90.057,31.456]]]}},{"type":"Feature","properties":{"density":1},"geometry":{"type":"Polygon","coordinates":[[[-89.797,31.076],[-89.79,31.116],[-89.758,31.133],[-89.579,31.135],[-89.437,31.196],[-89.308,31.148],[-89.183,31.135],[-89.166,31.247],[-89.153,31.282],[-89.131,31.295],[-89.05,31.297],[-88.934,31.258],[-88.768,31.155],[-88.626,31.024],[-88.5,30.827],[-88.419,30.609],[-88.375,30.474],[-88.327,30.164],[-88.321,30.061],[-88.371,29.961],[-88.467,29.908],[-88.675,29.895],[-88.939,29.928],[-89.081,30.0],[-89.262,30.124],[-89.633,30.622],[-89.705,30.751],[-89.729,30.841],[-89.696,30.897],[-89.703,30.95],[-89.779,31.055],[-89.797,31.076]]]}},{"type":"Feature","properties":{"density":1},"geometry":{"type":"Polygon","coordinates":[[[-89.897,29.762],[-89.891,29.838],[-89.856,29.864],[-89.806,29.854],[-89.662,29.753],[-89.581,29.67],[-89.5,29.537],[-89.489,29.423],[-89.548,29.415],[-89.664,29.46],[-89.891,29.731],[-89.897,29.762]]]}},{"type":"Feature","properties":{"density":1},"geometry":{"type":"Polygon","coordinates":[[[-90.548,29.757],[-90.507,29.803],[-90.31,29.766],[-90.092,29.699],[-89.906,29.602],[-89.779,29.465],[-89.751,29.314],[-89.795,29.277],[-89.897,29.257],[-89.989,29.281],[-90.177,29.373],[-90.347,29.478],[-90.421,29.55],[-90.544,29.729],[-90.548,29.757]]]}},{"type":"Feature","properties":{"density":1},"geometry":{"type":"Polygon","coordinates":[[[-91.352,29.515],[-91.332,29.581],[-91.286,29.592],[-91.203,29.478],[-91.179,29.253],[-91.219,29.196],[-91.249,29.203],[-91.301,29.255],[-91.347,29.485],[-91.352,29.515]]]}},{"type":"Feature","properties":{"density":1},"geometry":{"type":"Polygon","coordinates":[[[-91.55,30.723],[-91.529,30.751],[-91.402,30.764],[-91.199,30.742],[-91.107,30.668],[-91.101,30.629],[-91.17,30.594],[-91.275,30.6],[-91.526,30.694],[-91.55,30.723]]]}},{"type":"Feature","properties":{"density":1},"geometry":{"type":"Polygon","coordinates":[[[-92.24,29.808],[-92.12,29.847],[-92.0,29.847],[-91.895,29.812],[-91.815,29.757],[-91.775,29.646],[-91.808,29.611],[-91.865,29.607],[-92.088,29.738],[-92.236,29.792],[-92.24,29.808]]]}},{"type":"Feature","properties":{"density":1},"geometry":{"type":"Polygon","coordinates":[[[-92.965,29.825],[-92.941,29.869],[-92.889,29.858],[-92.906,29.827],[-92.944,29.814],[-92.965,29.825]]]}},{"type":"Feature","properties":{"density":1},"geometry":{"type":"Polygon","coordinates":[[[-93.06,30.449],[-93.091,30.497],[-93.207,30.576],[-93.285,30.603],[-93.391,30.681],[-93.415,30.767],[-93.408,30.842],[-93.374,30.883],[-93.244,30.968],[-93.138,30.995],[-92.794,31.012],[-92.616,30.961],[-92.357,30.746],[-92.255,30.623],[-91.958,30.521],[-91.6,30.33],[-91.402,30.146],[-91.2,29.804],[-91.067,29.143],[-91.084,28.726],[-91.098,28.658],[-91.136,28.61],[-91.149,28.597],[-91.262,28.631],[-91.32,28.668],[-91.419,28.788],[-91.456,28.883],[-91.695,29.259],[-91.808,29.491],[-91.948,29.726],[-92.19,30.013],[-92.661,30.309],[-92.968,30.402],[-93.06,30.449]]]}},{"type":"Feature","properties":{"density":1},"geometry":{"type":"Polygon","coordinates":[[[-92.563,30.878],[-92.548,30.907],[-92.434,30.988],[-92.229,31.089],[-92.035,31.116],[-91.874,31.078],[-91.756,31.012],[-91.653,30.895],[-91.53,30.63],[-91.513,30.54],[-91.535,30.425],[-91.584,30.395],[-91.683,30.39],[-91.83,30.42],[-91.988,30.485],[-92.108,30.548],[-92.179,30.627],[-92.433,30.799],[-92.548,30.851],[-92.563,30.878]]]}},{"type":"Feature","properties":{"density":1},"geometry":{"type":"Polygon","coordinates":[[[-92.217,31.204],[-92.182,31.244],[-92.125,31.274],[-92.021,31.292],[-91.787,31.283],[-91.599,31.218],[-91.525,31.154],[-91.514,31.121],[-91.551,31.082],[-91.682,31.108],[-91.865,31.17],[-92.184,31.165],[-92.217,31.187],[-92.217,31.204]]]}},{"type":"Feature","properties":{"density":1},"geometry":{"type":"Polygon","coordinates":[[[-93.363,33.078],[-93.344,33.115],[-93.232,33.146],[-93.042,33.165],[-93.038,33.141],[-93.06,33.117],[-93.152,33.089],[-93.32,33.069],[-93.363,33.078]]]}},{"type":"Feature","properties":{"density":1},"geometry":{"type":"Polygon","coordinates":[[[-98.947,32.823],[-98.835,33.011],[-98.739,33.109],[-98.551,33.189],[-98.488,33.183],[-98.458,33.126],[-98.45,33.069],[-98.472,32.992],[-98.614,32.823],[-98.726,32.733],[-98.925,32.675],[-98.993,32.705],[-98.988,32.76],[-98.947,32.823]]]}},{"type":"Feature","properties":{"density":1},"geometry":{"type":"Polygon","coordinates":[[[-98.316,32.506],[-98.212,32.626],[-98.158,32.654],[-98.081,32.659],[-98.01,32.624],[-97.972,32.572],[-97.948,32.408],[-97.975,32.375],[-98.002,32.372],[-98.12,32.454],[-98.177,32.463],[-98.327,32.441],[-98.343,32.449],[-98.333,32.471],[-98.316,32.506]]]}},{"type":"Feature","properties":{"density":1},"geometry":{"type":"Polygon","coordinates":[[[-94.058,31.906],[-94.083,31.938],[-94.039,31.977],[-93.807,32.004],[-93.75,31.999],[-93.722,31.969],[-93.72,31.949],[-93.758,31.938],[-94.031,31.895],[-94.058,31.906]]]}},{"type":"Feature","properties":{"density":1},"geometry":{"type":"Polygon","coordinates":[[[-98.117,31.622],[-98.013,31.805],[-97.926,31.876],[-97.866,31.895],[-97.822,31.878],[-97.803,31.837],[-97.814,31.791],[-98.068,31.611],[-98.114,31.608],[-98.117,31.622]]]}},{"type":"Feature","properties":{"density":1},"geometry":{"type":"Polygon","coordinates":[[[-96.018,30.77],[-96.015,30.817],[-95.941,30.893],[-95.824,30.967],[-95.726,31.005],[-95.633,31.01],[-95.565,31.002],[-95.521,30.967],[-95.513,30.915],[-95.535,30.858],[-95.578,30.822],[-95.991,30.751],[-96.018,30.77]]]}},{"type":"Feature","properties":{"density":1},"geometry":{"type":"Polygon","coordinates":[[[-95.799,30.6],[-95.791,30.66],[-95.723,30.745],[-95.505,30.835],[-94.81,31.074],[-94.695,31.134],[-94.562,31.24],[-94.371,31.445],[-94.277,31.505],[-94.004,31.658],[-93.808,31.722],[-93.692,31.731],[-93.586,31.697],[-93.351,31.564],[-93.112,31.398],[-92.946,31.227],[-92.763,31.095],[-92.635,30.895],[-92.605,30.797],[-92.609,30.72],[-92.677,30.673],[-92.771,30.686],[-93.031,30.814],[-93.279,30.878],[-93.846,30.784],[-94.162,30.677],[-94.733,30.4],[-94.921,30.387],[-95.654,30.528],[-95.735,30.575],[-95.799,30.6]]]}},{"type":"Feature","properties":{"density":1},"geometry":{"type":"Polygon","coordinates":[[[-94.738,29.814],[-94.727,29.843],[-94.701,29.843],[-94.701,29.801],[-94.716,29.805],[-94.738,29.814]]]}},{"type":"Feature","properties":{"density":1},"geometry":{"type":"Polygon","coordinates":[[[-94.723,30.006],[-94.721,30.037],[-94.701,30.057],[-94.553,30.094],[-94.461,30.083],[-94.203,29.899],[-93.97,29.812],[-93.86,29.751],[-93.729,29.629],[-93.67,29.522],[-93.629,29.419],[-93.625,29.34],[-93.64,29.303],[-93.699,29.299],[-93.972,29.449],[-94.181,29.615],[-94.299,29.731],[-94.714,29.98],[-94.723,30.006]]]}},{"type":"Feature","properties":{"density":1},"geometry":{"type":"Polygon","coordinates":[[[-105.014,34.951],[-105.031,34.968],[-105.014,34.999],[-104.905,35.071],[-104.649,35.166],[-104.41,35.224],[-104.103,35.269],[-104.021,35.228],[-103.946,35.159],[-103.867,35.04],[-103.779,34.672],[-103.792,34.586],[-103.833,34.494],[-103.867,34.463],[-103.953,34.474],[-104.13,34.559],[-104.366,34.709],[-104.621,34.818],[-104.727,34.88],[-104.857,34.927],[-104.98,34.927],[-105.014,34.951]]]}},{"type":"Feature","properties":{"density":1},"geometry":{"type":"Polygon","coordinates":[[[-114.046,32.751],[-114.131,32.736],[-114.227,32.668],[-114.334,32.55],[-114.341,32.504],[-114.277,32.498],[-114.21,32.535],[-114.035,32.701],[-114.028,32.742],[-114.046,32.751]]]}},{"type":"Feature","properties":{"density":1},"geometry":{"type":"Polygon","coordinates":[[[-119.213,34.233],[-119.246,34.257],[-119.39,34.279],[-119.505,34.276],[-119.549,34.255],[-119.557,34.225],[-119.535,34.175],[-119.497,34.159],[-119.396,34.154],[-119.224,34.197],[-119.213,34.233]]]}},{"type":"Feature","properties":{"density":1},"geometry":{"type":"Polygon","coordinates":[[[-112.887,30.817],[-112.904,30.836],[-112.901,30.885],[-112.857,30.976],[-112.808,31.008],[-112.786,30.997],[-112.786,30.918],[-112.866,30.804],[-112.887,30.817]]]}},{"type":"Feature","properties":{"density":1},"geometry":{"type":"Polygon","coordinates":[[[-99.559,19.253],[-99.623,19.47],[-99.781,19.611],[-99.824,19.679],[-99.824,19.803],[-99.794,19.914],[-99.653,19.999],[-99.44,20.072],[-99.278,20.084],[-99.141,20.067],[-98.979,19.982],[-98.868,19.888],[-98.672,19.675],[-98.497,19.551],[-98.092,19.419],[-97.482,19.368],[-97.265,19.257],[-97.158,19.112],[-97.094,18.779],[-97.145,18.63],[-97.248,18.515],[-97.401,18.472],[-97.636,18.451],[-98.472,18.455],[-98.574,18.387],[-98.638,18.293],[-98.668,18.118],[-98.698,18.05],[-98.762,18.02],[-98.856,18.024],[-99.188,18.216],[-99.342,18.349],[-99.495,18.647],[-99.521,18.826],[-99.525,19.172],[-99.559,19.253]]]}},{"type":"Feature","properties":{"density":1},"geometry":{"type":"Polygon","coordinates":[[[-95.241,16.289],[-95.141,16.422],[-94.9,16.547],[-94.55,16.764],[-94.441,16.772],[-94.183,16.581],[-94.091,16.564],[-93.858,16.706],[-93.583,16.789],[-93.25,16.847],[-93.059,16.822],[-92.859,16.739],[-92.717,16.606],[-92.634,16.464],[-92.625,16.256],[-92.55,15.789],[-92.434,15.423],[-92.326,15.239],[-92.286,15.2],[-91.765,14.888],[-90.555,14.315],[-90.269,14.159],[-90.047,13.951],[-89.891,13.248],[-89.995,12.727],[-90.155,12.224],[-90.496,11.671],[-90.984,10.988],[-92.205,9.93],[-93.848,9.442],[-96.386,9.1],[-98.712,9.117],[-100.665,9.605],[-101.999,10.093],[-103.388,12.519],[-103.87,13.729],[-104.039,14.224],[-104.364,14.64],[-104.573,14.966],[-104.703,15.356],[-104.651,15.825],[-104.482,16.346],[-104.26,16.853],[-104.0,17.244],[-103.44,17.894],[-103.076,18.181],[-102.816,18.22],[-102.321,18.207],[-101.735,18.064],[-101.189,17.79],[-100.525,17.348],[-99.952,17.048],[-99.392,16.931],[-98.82,16.71],[-97.831,16.111],[-96.88,15.903],[-96.49,15.877],[-95.579,16.111],[-95.241,16.289]]]}},{"type":"Feature","properties":{"density":2},"geometry":{"type":"Polygon","coordinates":[[[-81.833,29.514],[-81.792,29.485],[-81.764,29.498],[-81.755,29.525],[-81.79,29.571],[-81.869,29.615],[-81.948,29.62],[-81.933,29.58],[-81.847,29.524],[-81.833,29.514]]]}},{"type":"Feature","properties":{"density":2},"geometry":{"type":"Polygon","coordinates":[[[-81.947,29.613],[-81.865,29.626],[-81.799,29.604],[-81.793,29.58],[-81.813,29.565],[-81.876,29.567],[-81.936,29.593],[-81.947,29.613]]]}},{"type":"Feature","properties":{"density":2},"geometry":{"type":"Polygon","coordinates":[[[-81.945,29.607],[-81.929,29.626],[-81.877,29.629],[-81.817,29.618],[-81.792,29.585],[-81.811,29.563],[-81.855,29.563],[-81.926,29.593],[-81.945,29.607]]]}},{"type":"Feature","properties":{"density":2},"geometry":{"type":"Polygon","coordinates":[[[-85.676,30.104],[-85.63,30.11],[-85.531,30.055],[-85.477,29.973],[-85.422,29.856],[-85.425,29.785],[-85.447,29.73],[-85.518,29.752],[-85.54,29.777],[-85.591,29.919],[-85.673,30.074],[-85.676,30.104]]]}},{"type":"Feature","properties":{"density":2},"geometry":{"type":"Polygon","coordinates":[[[-87.353,34.211],[-87.343,34.243],[-87.318,34.242],[-87.291,34.186],[-87.284,34.123],[-87.308,34.124],[-87.346,34.188],[-87.353,34.211]]]}},{"type":"Feature","properties":{"density":2},"geometry":{"type":"Polygon","coordinates":[[[-85.55,33.797],[-85.522,33.807],[-85.469,33.715],[-85.481,33.71],[-85.539,33.775],[-85.55,33.797]]]}},{"type":"Feature","properties":{"density":2},"geometry":{"type":"Polygon","coordinates":[[[-86.074,33.245],[-86.059,33.26],[-86.032,33.249],[-86.008,33.193],[-86.025,33.189],[-86.067,33.232],[-86.074,33.245]]]}},{"type":"Feature","properties":{"density":2},"geometry":{"type":"Polygon","coordinates":[[[-87.341,32.873],[-87.348,32.911],[-87.31,32.903],[-87.259,32.85],[-87.261,32.819],[-87.284,32.815],[-87.32,32.852],[-87.341,32.873]]]}},{"type":"Feature","properties":{"density":2},"geometry":{"type":"Polygon","coordinates":[[[-94.207,31.429],[-94.161,31.477],[-94.132,31.488],[-94.093,31.479],[-94.119,31.442],[-94.202,31.422],[-94.207,31.429]]]}},{"type":"Feature","properties":{"density":2},"geometry":{"type":"Polygon","coordinates":[[[-80.617,27.94],[-80.418,27.902],[-80.038,27.769],[-79.836,27.681],[-79.814,27.654],[-79.823,27.637],[-79.864,27.635],[-79.954,27.659],[-80.611,27.916],[-80.617,27.94]]]}},{"type":"Feature","properties":{"density":2},"geometry":{"type":"Polygon","coordinates":[[[-81.949,29.602],[-81.903,29.616],[-81.679,29.575],[-81.523,29.512],[-81.485,29.488],[-81.474,29.46],[-81.507,29.45],[-81.55,29.46],[-81.93,29.583],[-81.949,29.602]]]}},{"type":"Feature","properties":{"density":2},"geometry":{"type":"Polygon","coordinates":[[[-84.806,29.927],[-84.722,29.899],[-84.584,29.754],[-84.528,29.67],[-84.526,29.644],[-84.56,29.645],[-84.61,29.682],[-84.804,29.909],[-84.806,29.927]]]}},{"type":"Feature","properties":{"density":2},"geometry":{"type":"Polygon","coordinates":[[[-85.664,30.082],[-85.625,30.096],[-85.538,30.011],[-85.486,29.914],[-85.442,29.743],[-85.438,29.658],[-85.493,29.504],[-85.55,29.441],[-85.611,29.406],[-85.665,29.438],[-85.669,29.471],[-85.615,29.624],[-85.603,29.747],[-85.625,29.974],[-85.66,30.077],[-85.664,30.082]]]}},{"type":"Feature","properties":{"density":2},"geometry":{"type":"Polygon","coordinates":[[[-87.428,34.284],[-87.402,34.299],[-87.334,34.277],[-87.238,34.172],[-87.188,34.033],[-87.21,33.934],[-87.254,33.965],[-87.426,34.251],[-87.428,34.284]]]}},{"type":"Feature","properties":{"density":2},"geometry":{"type":"Polygon","coordinates":[[[-86.083,33.26],[-86.037,33.253],[-85.917,33.126],[-85.919,33.105],[-85.959,33.091],[-86.072,33.229],[-86.083,33.26]]]}},{"type":"Feature","properties":{"density":2},"geometry":{"type":"Polygon","coordinates":[[[-87.354,32.893],[-87.34,32.915],[-87.302,32.91],[-87.157,32.79],[-86.912,32.47],[-86.874,32.397],[-86.876,32.369],[-86.898,32.358],[-87.035,32.438],[-87.226,32.659],[-87.351,32.88],[-87.354,32.893]]]}},{"type":"Feature","properties":{"density":2},"geometry":{"type":"Polygon","coordinates":[[[-89.609,32.509],[-89.603,32.526],[-89.57,32.537],[-89.491,32.531],[-89.358,32.47],[-89.317,32.404],[-89.312,32.363],[-89.367,32.321],[-89.45,32.341],[-89.598,32.491],[-89.609,32.509]]]}},{"type":"Feature","properties":{"density":2},"geometry":{"type":"Polygon","coordinates":[[[-92.555,30.874],[-92.521,30.911],[-92.476,30.923],[-92.406,30.92],[-92.389,30.897],[-92.387,30.876],[-92.404,30.862],[-92.544,30.866],[-92.555,30.874]]]}},{"type":"Feature","properties":{"density":2},"geometry":{"type":"Polygon","coordinates":[[[-96.015,30.762],[-95.988,30.806],[-95.876,30.852],[-95.879,30.817],[-95.982,30.759],[-96.015,30.762]]]}},{"type":"Feature","properties":{"density":2},"geometry":{"type":"Polygon","coordinates":[[[-95.786,30.598],[-95.767,30.62],[-95.436,30.759],[-95.174,30.855],[-94.831,30.929],[-94.645,30.953],[-94.609,30.942],[-94.601,30.915],[-94.648,30.871],[-94.931,30.817],[-95.275,30.686],[-95.753,30.563],[-95.769,30.574],[-95.786,30.598]]]}},{"type":"Feature","properties":{"density":2},"geometry":{"type":"Polygon","coordinates":[[[-94.208,31.434],[-94.2,31.466],[-94.143,31.51],[-93.982,31.57],[-93.681,31.641],[-93.627,31.633],[-93.528,31.592],[-93.133,31.294],[-92.966,31.199],[-92.895,31.117],[-92.792,31.038],[-92.748,30.948],[-92.753,30.909],[-92.813,30.896],[-92.925,30.942],[-93.387,31.267],[-93.763,31.469],[-93.905,31.485],[-94.162,31.42],[-94.203,31.428],[-94.208,31.434]]]}},{"type":"Feature","properties":{"density":2},"geometry":{"type":"Polygon","coordinates":[[[-94.4,29.862],[-94.395,29.919],[-94.38,29.926],[-94.286,29.829],[-94.053,29.663],[-93.989,29.572],[-93.983,29.541],[-93.998,29.535],[-94.38,29.84],[-94.4,29.862]]]}},{"type":"Feature","properties":{"density":3},"geometry":{"type":"Polygon","coordinates":[[[-81.854,29.597],[-81.91,29.622],[-81.943,29.608],[-81.93,29.587],[-81.849,29.544],[-81.82,29.562],[-81.843,29.592],[-81.854,29.597]]]}},{"type":"Feature","properties":{"density":3},"geometry":{"type":"Polygon","coordinates":[[[-81.938,29.619],[-81.826,29.591],[-81.815,29.561],[-81.927,29.594],[-81.938,29.619]]]}},{"type":"Feature","properties":{"density":3},"geometry":{"type":"Polygon","coordinates":[[[-84.801,29.921],[-84.782,29.923],[-84.747,29.895],[-84.727,29.866],[-84.733,29.834],[-84.797,29.907],[-84.801,29.921]]]}},{"type":"Feature","properties":{"density":3},"geometry":{"type":"Polygon","coordinates":[[[-85.644,30.075],[-85.627,30.087],[-85.583,30.058],[-85.575,30.009],[-85.618,30.021],[-85.65,30.07],[-85.644,30.075]]]}},{"type":"Feature","properties":{"density":3},"geometry":{"type":"Polygon","coordinates":[[[-87.428,34.286],[-87.382,34.288],[-87.308,34.242],[-87.249,34.153],[-87.238,34.113],[-87.254,34.092],[-87.31,34.122],[-87.424,34.271],[-87.428,34.286]]]}},{"type":"Feature","properties":{"density":3},"geometry":{"type":"Polygon","coordinates":[[[-86.085,33.26],[-86.042,33.257],[-86.009,33.192],[-86.035,33.192],[-86.059,33.225],[-86.085,33.26]]]}},{"type":"Feature","properties":{"density":3},"geometry":{"type":"Polygon","coordinates":[[[-87.354,32.904],[-87.232,32.829],[-87.205,32.766],[-87.306,32.827],[-87.345,32.891],[-87.354,32.904]]]}},{"type":"Feature","properties":{"density":3},"geometry":{"type":"Polygon","coordinates":[[[-89.607,32.509],[-89.594,32.522],[-89.535,32.524],[-89.507,32.48],[-89.537,32.472],[-89.592,32.507],[-89.607,32.509]]]}},{"type":"Feature","properties":{"density":3},"geometry":{"type":"Polygon","coordinates":[[[-92.544,30.879],[-92.516,30.906],[-92.481,30.909],[-92.476,30.897],[-92.499,30.867],[-92.548,30.871],[-92.544,30.879]]]}},{"type":"Feature","properties":{"density":3},"geometry":{"type":"Polygon","coordinates":[[[-95.78,30.587],[-95.759,30.62],[-95.718,30.639],[-95.682,30.634],[-95.685,30.601],[-95.748,30.582],[-95.78,30.587]]]}},{"type":"Feature","properties":{"density":3},"geometry":{"type":"Polygon","coordinates":[[[-95.286,30.811],[-95.229,30.817],[-95.237,30.792],[-95.27,30.8],[-95.286,30.811]]]}},{"type":"Feature","properties":{"density":3},"geometry":{"type":"Polygon","coordinates":[[[-94.208,31.439],[-94.205,31.469],[-94.154,31.491],[-94.083,31.488],[-94.074,31.472],[-94.083,31.447],[-94.175,31.431],[-94.208,31.439]]]}},{"type":"Feature","properties":{"density":3},"geometry":{"type":"Polygon","coordinates":[[[-93.583,31.496],[-93.629,31.545],[-93.629,31.57],[-93.545,31.551],[-93.111,31.237],[-93.024,31.15],[-93.013,31.117],[-93.062,31.101],[-93.305,31.193],[-93.474,31.333],[-93.559,31.447],[-93.583,31.496]]]}}]}