{"type":"FeatureCollection","features":[{"type":"Feature","properties":{"density":1},"geometry":{"type":"Polygon","coordinates":[[[-84.382,33.268],[-84.267,33.197],[-84.207,33.208],[-84.194,33.23],[-84.196,33.275],[-84.257,33.302],[-84.359,33.304],[-84.381,33.279],[-84.382,33.268]]]}},{"type":"Feature","properties":{"density":1},"geometry":{"type":"Polygon","coordinates":[[[-95.253,33.401],[-95.451,33.546],[-95.468,33.594],[-95.425,33.679],[-95.387,33.694],[-95.339,33.69],[-95.215,33.591],[-95.178,33.511],[-95.179,33.455],[-95.224,33.397],[-95.245,33.398],[-95.253,33.401]]]}},{"type":"Feature","properties":{"density":1},"geometry":{"type":"Polygon","coordinates":[[[-104.32,21.652],[-104.422,21.605],[-104.471,21.558],[-104.483,21.463],[-104.459,21.432],[-104.382,21.418],[-104.199,21.475],[-103.961,21.522],[-103.871,21.587],[-103.776,21.627],[-103.735,21.668],[-103.723,21.749],[-103.747,21.798],[-103.792,21.831],[-103.849,21.839],[-103.981,21.808],[-104.296,21.658],[-104.32,21.652]]]}},{"type":"Feature","properties":{"density":1},"geometry":{"type":"Polygon","coordinates":[[[-104.172,21.404],[-104.203,21.332],[-104.209,21.247],[-104.203,21.202],[-104.142,21.158],[-103.696,21.123],[-103.643,21.135],[-103.607,21.176],[-103.58,21.257],[-103.578,21.347],[-103.593,21.412],[-103.672,21.473],[-103.916,21.497],[-104.156,21.412],[-104.172,21.404]]]}},{"type":"Feature","properties":{"density":1},"geometry":{"type":"Polygon","coordinates":[[[-102.944,20.568],[-102.528,20.496],[-102.424,20.55],[-102.413,20.604],[-102.433,20.667],[-102.49,20.73],[-102.575,20.766],[-102.764,20.777],[-102.856,20.748],[-102.978,20.669],[-102.998,20.627],[-102.991,20.593],[-102.962,20.568],[-102.944,20.568]]]}},{"type":"Feature","properties":{"density":1},"geometry":{"type":"Polygon","coordinates":[[[-91.645,32.144],[-91.286,32.862],[-91.107,33.502],[-91.184,33.887],[-91.671,34.451],[-92.465,34.912],[-93.157,34.963],[-94.413,34.938],[-95.541,34.63],[-96.463,34.117],[-97.13,33.374],[-97.565,32.503],[-97.899,31.452],[-98.104,30.734],[-98.565,29.632],[-99.718,27.89],[-100.718,26.916],[-101.153,26.454],[-101.563,25.352],[-101.358,24.302],[-101.205,23.328],[-101.256,22.149],[-101.615,21.354],[-102.102,20.765],[-102.512,20.509],[-102.999,20.303],[-103.614,20.201],[-104.485,20.38],[-105.767,20.816],[-106.407,20.714],[-106.638,20.457],[-106.843,19.996],[-106.894,19.355],[-106.741,18.484],[-106.1,17.664],[-105.357,16.613],[-103.101,15.229],[-102.435,14.639],[-101.743,13.896],[-100.641,13.153],[-99.539,12.461],[-98.334,12.025],[-96.72,11.487],[-95.002,11.436],[-93.721,11.795],[-92.875,12.359],[-92.286,12.974],[-91.414,13.845],[-90.338,14.614],[-88.723,15.331],[-87.519,15.69],[-86.391,16.152],[-85.52,16.228],[-83.674,16.587],[-82.521,16.972],[-81.932,17.484],[-81.573,18.151],[-81.086,19.125],[-80.881,19.688],[-80.958,20.38],[-81.624,20.995],[-83.188,21.534],[-84.008,21.969],[-85.52,22.687],[-86.263,24.865],[-87.134,26.762],[-87.749,27.556],[-88.877,28.3],[-90.312,28.889],[-91.081,29.402],[-91.748,29.94],[-92.055,30.683],[-92.055,31.093],[-91.876,31.657],[-91.645,32.144]]]}},{"type":"Feature","properties":{"density":1},"geometry":{"type":"Polygon","coordinates":[[[-79.892,21.369],[-80.883,21.796],[-81.754,21.984],[-82.318,22.172],[-83.207,22.292],[-83.48,22.599],[-83.514,22.924],[-83.053,23.454],[-81.703,23.676],[-80.798,23.915],[-79.875,23.932],[-79.192,23.83],[-78.867,23.625],[-77.09,23.095],[-76.526,22.958],[-75.843,22.565],[-75.33,22.224],[-74.783,21.796],[-74.544,21.591],[-74.476,21.233],[-74.578,20.908],[-74.886,20.703],[-75.313,20.566],[-76.526,20.002],[-77.073,19.644],[-77.585,19.507],[-78.064,19.541],[-78.371,19.797],[-78.628,20.071],[-78.987,20.583],[-79.311,20.84],[-79.704,21.181],[-79.892,21.369]]]}},{"type":"Feature","properties":{"density":1},"geometry":{"type":"Polygon","coordinates":[[[-84.363,33.301],[-84.268,33.311],[-84.196,33.293],[-84.129,33.235],[-84.129,33.184],[-84.241,33.185],[-84.335,33.221],[-84.379,33.266],[-84.368,33.296],[-84.363,33.301]]]}},{"type":"Feature","properties":{"density":1},"geometry":{"type":"Polygon","coordinates":[[[-93.549,33.611],[-93.542,33.787],[-93.491,33.89],[-93.434,33.939],[-93.342,33.958],[-93.33,33.888],[-93.406,33.712],[-93.496,33.598],[-93.548,33.599],[-93.549,33.611]]]}},{"type":"Feature","properties":{"density":1},"geometry":{"type":"Polygon","coordinates":[[[-88.822,17.519],[-88.772,17.527],[-88.722,17.511],[-88.713,17.468],[-88.74,17.422],[-88.822,17.402],[-88.875,17.425],[-88.886,17.465],[-88.824,17.516],[-88.822,17.519]]]}},{"type":"Feature","properties":{"density":1},"geometry":{"type":"Polygon","coordinates":[[[-99.662,17.567],[-99.768,17.592],[-99.813,17.576],[-99.828,17.548],[-99.801,17.526],[-99.728,17.511],[-99.673,17.527],[-99.661,17.563],[-99.662,17.567]]]}},{"type":"Feature","properties":{"density":1},"geometry":{"type":"Polygon","coordinates":[[[-99.159,17.111],[-99.253,17.171],[-99.259,17.212],[-99.215,17.228],[-99.11,17.148],[-99.102,17.106],[-99.153,17.106],[-99.159,17.111]]]}},{"type":"Feature","properties":{"density":1},"geometry":{"type":"Polygon","coordinates":[[[-100.476,17.424],[-100.492,17.477],[-100.468,17.499],[-100.446,17.481],[-100.44,17.445],[-100.449,17.421],[-100.475,17.423],[-100.476,17.424]]]}},{"type":"Feature","properties":{"density":1},"geometry":{"type":"Polygon","coordinates":[[[-104.407,21.591],[-104.381,21.655],[-104.316,21.714],[-104.132,21.719],[-104.04,21.75],[-103.869,21.91],[-103.818,21.94],[-103.716,21.952],[-103.684,21.905],[-103.687,21.832],[-103.73,21.661],[-103.731,21.449],[-103.762,21.337],[-103.673,21.226],[-103.676,21.192],[-103.754,21.161],[-103.817,21.163],[-104.201,21.262],[-104.244,21.315],[-104.236,21.431],[-104.208,21.454],[-104.042,21.48],[-104.034,21.53],[-104.146,21.531],[-104.301,21.501],[-104.401,21.533],[-104.413,21.567],[-104.407,21.591]]]}},{"type":"Feature","properties":{"density":1},"geometry":{"type":"Polygon","coordinates":[[[-97.912,16.717],[-97.868,16.657],[-97.859,16.599],[-97.901,16.597],[-97.962,16.652],[-97.969,16.703],[-97.917,16.72],[-97.912,16.717]]]}},{"type":"Feature","properties":{"density":1},"geometry":{"type":"Polygon","coordinates":[[[-104.417,19.865],[-104.303,19.859],[-104.277,19.826],[-104.282,19.773],[-104.344,19.747],[-104.435,19.74],[-104.473,19.773],[-104.478,19.814],[-104.427,19.865],[-104.417,19.865]]]}},{"type":"Feature","properties":{"density":1},"geometry":{"type":"Polygon","coordinates":[[[-99.055,36.286],[-99.052,36.347],[-98.991,36.428],[-98.933,36.46],[-98.887,36.438],[-98.882,36.399],[-98.906,36.358],[-99.018,36.283],[-99.054,36.284],[-99.055,36.286]]]}},{"type":"Feature","properties":{"density":1},"geometry":{"type":"Polygon","coordinates":[[[-96.449,36.908],[-96.278,37.119],[-96.173,37.224],[-95.896,37.403],[-95.803,37.434],[-95.771,37.43],[-95.746,37.4],[-95.756,37.338],[-95.824,37.244],[-96.065,37.02],[-96.369,36.856],[-96.44,36.851],[-96.452,36.897],[-96.449,36.908]]]}},{"type":"Feature","properties":{"density":1},"geometry":{"type":"Polygon","coordinates":[[[-96.964,45.279],[-96.882,45.282],[-96.815,45.266],[-96.412,45.086],[-96.331,45.031],[-96.251,44.941],[-96.243,44.885],[-96.256,44.859],[-96.325,44.839],[-96.395,44.862],[-96.764,45.063],[-96.855,45.141],[-96.994,45.216],[-97.009,45.249],[-96.975,45.278],[-96.964,45.279]]]}},{"type":"Feature","properties":{"density":1},"geometry":{"type":"Polygon","coordinates":[[[-96.335,44.925],[-96.257,44.92],[-96.102,44.846],[-95.938,44.727],[-95.905,44.659],[-95.913,44.625],[-95.973,44.616],[-96.148,44.708],[-96.361,44.888],[-96.367,44.908],[-96.341,44.925],[-96.335,44.925]]]}},{"type":"Feature","properties":{"density":1},"geometry":{"type":"Polygon","coordinates":[[[-96.054,45.179],[-95.975,45.184],[-95.786,45.116],[-95.59,44.99],[-95.415,44.836],[-95.392,44.813],[-95.394,44.756],[-95.415,44.732],[-95.497,44.707],[-95.583,44.735],[-95.947,45.0],[-96.081,45.128],[-96.083,45.156],[-96.061,45.177],[-96.054,45.179]]]}},{"type":"Feature","properties":{"density":1},"geometry":{"type":"Polygon","coordinates":[[[-99.06,36.307],[-99.029,36.395],[-98.948,36.525],[-98.563,36.915],[-98.193,37.194],[-98.13,37.216],[-98.08,37.215],[-98.014,37.188],[-97.991,37.162],[-97.965,37.101],[-97.965,37.003],[-98.002,36.899],[-98.089,36.758],[-98.22,36.638],[-98.441,36.478],[-98.602,36.401],[-98.947,36.314],[-99.022,36.276],[-99.055,36.276],[-99.06,36.305],[-99.06,36.307]]]}},{"type":"Feature","properties":{"density":1},"geometry":{"type":"Polygon","coordinates":[[[-104.353,21.535],[-104.36,21.588],[-104.315,21.621],[-104.178,21.66],[-103.994,21.749],[-103.829,21.807],[-103.74,21.809],[-103.709,21.754],[-103.704,21.562],[-103.734,21.396],[-103.715,21.072],[-103.737,21.023],[-103.791,21.005],[-103.871,21.049],[-104.284,21.403],[-104.294,21.452],[-104.225,21.485],[-104.227,21.502],[-104.347,21.532],[-104.353,21.535]]]}},{"type":"Feature","properties":{"density":1},"geometry":{"type":"Polygon","coordinates":[[[-104.168,19.842],[-104.239,19.919],[-104.369,19.956],[-104.461,19.938],[-104.524,19.889],[-104.501,19.747],[-104.444,19.717],[-104.337,19.718],[-104.224,19.751],[-104.182,19.783],[-104.164,19.829],[-104.168,19.842]]]}},{"type":"Feature","properties":{"density":1},"geometry":{"type":"Polygon","coordinates":[[[-101.409,18.045],[-101.382,18.088],[-101.241,18.178],[-101.094,18.179],[-101.005,18.144],[-100.955,18.104],[-100.928,18.028],[-100.932,17.94],[-100.973,17.883],[-101.07,17.834],[-101.107,17.836],[-101.149,17.891],[-101.157,17.944],[-101.177,17.965],[-101.231,17.96],[-101.228,17.866],[-101.246,17.854],[-101.37,17.918],[-101.415,17.986],[-101.412,18.033],[-101.409,18.045]]]}},{"type":"Feature","properties":{"density":1},"geometry":{"type":"Polygon","coordinates":[[[-99.62,17.547],[-99.614,17.567],[-99.635,17.596],[-99.743,17.612],[-99.947,17.587],[-99.984,17.551],[-99.941,17.501],[-99.877,17.492],[-99.666,17.523],[-99.624,17.542],[-99.62,17.547]]]}},{"type":"Feature","properties":{"density":1},"geometry":{"type":"Polygon","coordinates":[[[-97.78,16.846],[-97.756,16.899],[-97.717,16.909],[-97.678,16.898],[-97.656,16.859],[-97.657,16.823],[-97.695,16.799],[-97.743,16.801],[-97.779,16.837],[-97.78,16.846]]]}},{"type":"Feature","properties":{"density":1},"geometry":{"type":"Polygon","coordinates":[[[-88.534,16.449],[-88.47,16.329],[-88.445,16.208],[-88.473,16.128],[-88.524,16.115],[-88.565,16.153],[-88.567,16.319],[-88.587,16.429],[-88.58,16.452],[-88.548,16.458],[-88.534,16.449]]]}},{"type":"Feature","properties":{"density":1},"geometry":{"type":"Polygon","coordinates":[[[-88.776,17.51],[-88.813,17.507],[-88.858,17.473],[-88.874,17.413],[-88.853,17.38],[-88.788,17.378],[-88.71,17.429],[-88.712,17.48],[-88.773,17.509],[-88.776,17.51]]]}},{"type":"Feature","properties":{"density":1},"geometry":{"type":"Polygon","coordinates":[[[-115.551,47.637],[-115.483,47.7],[-115.451,47.711],[-115.062,47.713],[-115.0,47.704],[-114.982,47.687],[-114.972,47.62],[-115.009,47.569],[-115.246,47.522],[-115.311,47.531],[-115.433,47.591],[-115.549,47.616],[-115.553,47.635],[-115.551,47.637]]]}},{"type":"Feature","properties":{"density":1},"geometry":{"type":"Polygon","coordinates":[[[-115.176,48.75],[-115.189,48.775],[-115.159,48.816],[-115.027,48.843],[-114.854,48.839],[-114.811,48.828],[-114.781,48.785],[-114.789,48.754],[-114.814,48.743],[-115.1,48.734],[-115.173,48.747],[-115.176,48.75]]]}},{"type":"Feature","properties":{"density":1},"geometry":{"type":"Polygon","coordinates":[[[-118.347,48.066],[-118.222,48.061],[-118.125,48.003],[-117.995,47.885],[-117.982,47.818],[-118.004,47.79],[-118.05,47.773],[-118.112,47.769],[-118.171,47.785],[-118.387,47.945],[-118.401,48.018],[-118.37,48.057],[-118.347,48.066]]]}},{"type":"Feature","properties":{"density":1},"geometry":{"type":"Polygon","coordinates":[[[-116.367,44.889],[-116.335,44.869],[-116.322,44.84],[-116.28,44.608],[-116.269,44.323],[-116.278,44.279],[-116.318,44.264],[-116.407,44.282],[-116.548,44.386],[-116.58,44.446],[-116.585,44.493],[-116.587,44.619],[-116.564,44.72],[-116.472,44.837],[-116.418,44.879],[-116.379,44.888],[-116.367,44.889]]]}},{"type":"Feature","properties":{"density":1},"geometry":{"type":"Polygon","coordinates":[[[-112.511,46.99],[-112.451,47.041],[-112.331,47.074],[-112.247,47.066],[-112.218,47.01],[-112.234,46.969],[-112.265,46.948],[-112.5,46.97],[-112.512,46.989],[-112.511,46.99]]]}},{"type":"Feature","properties":{"density":1},"geometry":{"type":"Polygon","coordinates":[[[-112.643,33.329],[-112.713,33.459],[-112.781,33.635],[-112.807,33.73],[-112.813,33.829],[-112.763,34.262],[-112.6,34.689],[-112.484,34.78],[-112.369,34.777],[-112.328,34.767],[-112.227,34.663],[-111.664,34.507],[-111.632,34.456],[-111.625,34.402],[-111.639,34.34],[-111.668,34.304],[-111.821,34.219],[-112.066,34.145],[-112.138,34.08],[-112.196,33.908],[-112.205,33.838],[-112.145,33.571],[-112.147,33.486],[-112.169,33.448],[-112.268,33.409],[-112.43,33.38],[-112.572,33.297],[-112.639,33.32],[-112.643,33.329]]]}},{"type":"Feature","properties":{"density":1},"geometry":{"type":"Polygon","coordinates":[[[-99.071,36.321],[-98.975,36.523],[-98.895,36.614],[-98.594,36.923],[-97.966,37.485],[-97.567,37.882],[-97.445,37.933],[-97.351,37.947],[-97.222,37.916],[-97.166,37.876],[-97.116,37.812],[-97.125,37.615],[-97.351,37.391],[-97.734,37.127],[-98.06,36.85],[-98.261,36.648],[-98.43,36.531],[-98.628,36.416],[-99.026,36.26],[-99.073,36.271],[-99.075,36.308],[-99.071,36.321]]]}},{"type":"Feature","properties":{"density":1},"geometry":{"type":"Polygon","coordinates":[[[-96.571,45.105],[-96.438,45.089],[-95.955,44.928],[-95.27,44.789],[-95.153,44.695],[-95.138,44.626],[-95.173,44.569],[-95.197,44.559],[-95.376,44.557],[-95.914,44.687],[-96.295,44.822],[-96.544,44.954],[-96.591,45.022],[-96.595,45.066],[-96.577,45.099],[-96.571,45.105]]]}},{"type":"Feature","properties":{"density":1},"geometry":{"type":"Polygon","coordinates":[[[-96.023,45.194],[-95.458,44.973],[-94.926,44.792],[-94.687,44.735],[-94.542,44.682],[-94.434,44.577],[-94.428,44.536],[-94.443,44.487],[-94.517,44.424],[-94.666,44.43],[-94.903,44.485],[-95.562,44.792],[-96.04,45.064],[-96.082,45.113],[-96.097,45.161],[-96.081,45.187],[-96.031,45.196],[-96.023,45.194]]]}},{"type":"Feature","properties":{"density":1},"geometry":{"type":"Polygon","coordinates":[[[-97.66,44.146],[-97.379,44.196],[-97.274,44.197],[-97.156,44.19],[-96.907,44.139],[-96.467,44.131],[-96.422,44.106],[-96.383,44.046],[-96.382,44.007],[-96.424,43.924],[-96.548,43.869],[-96.781,43.875],[-97.456,43.996],[-97.619,44.038],[-97.665,44.074],[-97.665,44.14],[-97.66,44.146]]]}},{"type":"Feature","properties":{"density":1},"geometry":{"type":"Polygon","coordinates":[[[-91.93,42.811],[-91.835,42.791],[-91.401,42.503],[-91.354,42.433],[-91.358,42.377],[-91.388,42.354],[-91.454,42.358],[-91.542,42.41],[-91.651,42.521],[-91.951,42.751],[-91.962,42.786],[-91.941,42.808],[-91.93,42.811]]]}},{"type":"Feature","properties":{"density":1},"geometry":{"type":"Polygon","coordinates":[[[-104.393,21.593],[-104.359,21.641],[-104.236,21.69],[-104.071,21.839],[-104.037,21.845],[-103.925,21.819],[-103.767,21.839],[-103.679,21.875],[-103.492,22.033],[-103.41,22.049],[-103.236,22.024],[-103.102,21.962],[-102.991,21.857],[-102.916,21.755],[-102.899,21.645],[-102.901,21.563],[-102.923,21.495],[-102.997,21.354],[-103.093,21.26],[-103.254,21.182],[-103.431,21.137],[-103.669,21.103],[-103.81,21.132],[-104.022,21.254],[-104.144,21.286],[-104.148,21.357],[-104.062,21.459],[-104.081,21.506],[-104.307,21.512],[-104.378,21.536],[-104.392,21.571],[-104.393,21.593]]]}},{"type":"Feature","properties":{"density":1},"geometry":{"type":"Polygon","coordinates":[[[-103.683,20.703],[-103.629,20.757],[-103.547,20.804],[-103.138,20.959],[-102.948,20.992],[-102.846,20.98],[-102.829,20.954],[-102.844,20.876],[-102.879,20.829],[-102.963,20.775],[-103.031,20.754],[-103.36,20.669],[-103.527,20.65],[-103.678,20.649],[-103.686,20.699],[-103.683,20.703]]]}},{"type":"Feature","properties":{"density":1},"geometry":{"type":"Polygon","coordinates":[[[-102.027,21.389],[-101.994,21.453],[-101.938,21.51],[-101.829,21.603],[-101.745,21.65],[-101.618,21.659],[-101.558,21.603],[-101.551,21.536],[-101.573,21.495],[-101.678,21.412],[-101.906,21.343],[-102.008,21.361],[-102.028,21.384],[-102.027,21.389]]]}},{"type":"Feature","properties":{"density":1},"geometry":{"type":"Polygon","coordinates":[[[-101.395,18.033],[-101.359,18.096],[-101.227,18.178],[-101.174,18.244],[-101.097,18.276],[-100.989,18.262],[-100.907,18.221],[-100.865,18.164],[-100.846,18.079],[-100.847,18.018],[-100.866,17.972],[-100.916,17.92],[-101.025,17.849],[-101.111,17.822],[-101.337,17.939],[-101.391,17.996],[-101.397,18.027],[-101.395,18.033]]]}},{"type":"Feature","properties":{"density":1},"geometry":{"type":"Polygon","coordinates":[[[-101.038,17.34],[-101.075,17.364],[-101.093,17.419],[-101.017,17.498],[-100.96,17.465],[-100.929,17.375],[-100.964,17.335],[-101.036,17.337],[-101.038,17.34]]]}},{"type":"Feature","properties":{"density":1},"geometry":{"type":"Polygon","coordinates":[[[-99.097,16.802],[-99.061,16.918],[-99.032,16.958],[-98.981,16.975],[-98.957,16.96],[-98.985,16.862],[-99.056,16.792],[-99.091,16.795],[-99.097,16.802]]]}},{"type":"Feature","properties":{"density":1},"geometry":{"type":"Polygon","coordinates":[[[-99.508,16.974],[-99.432,17.108],[-99.375,17.147],[-99.362,17.133],[-99.391,17.057],[-99.47,16.954],[-99.506,16.967],[-99.508,16.974]]]}},{"type":"Feature","properties":{"density":1},"geometry":{"type":"Polygon","coordinates":[[[-99.881,17.273],[-99.836,17.303],[-99.805,17.36],[-99.823,17.413],[-99.904,17.405],[-99.945,17.363],[-99.95,17.32],[-99.891,17.271],[-99.881,17.273]]]}},{"type":"Feature","properties":{"density":1},"geometry":{"type":"Polygon","coordinates":[[[-99.165,17.108],[-99.125,17.259],[-99.088,17.271],[-99.078,17.218],[-99.096,17.137],[-99.125,17.09],[-99.16,17.098],[-99.165,17.108]]]}},{"type":"Feature","properties":{"density":1},"geometry":{"type":"Polygon","coordinates":[[[-95.732,26.537],[-95.106,26.456],[-94.591,26.425],[-93.633,26.41],[-92.331,26.503],[-90.54,26.788],[-89.443,26.918],[-88.55,26.816],[-87.797,26.583],[-87.313,26.248],[-86.904,25.421],[-86.569,24.798],[-86.102,24.016],[-85.916,23.644],[-85.792,23.303],[-85.6,22.535],[-85.468,22.095],[-85.421,21.258],[-85.254,21.025],[-84.854,20.718],[-84.668,20.225],[-84.649,19.695],[-84.742,19.007],[-85.012,17.947],[-85.235,17.361],[-86.035,16.524],[-86.454,16.236],[-86.946,15.994],[-87.672,15.547],[-88.146,15.333],[-88.937,15.008],[-89.634,14.478],[-89.647,14.217],[-89.51,13.988],[-89.49,13.511],[-89.614,13.192],[-89.779,13.023],[-90.943,12.469],[-91.767,12.337],[-92.331,12.337],[-93.013,12.485],[-93.584,12.628],[-94.198,12.888],[-94.632,13.118],[-95.097,13.409],[-96.625,14.014],[-97.225,14.209],[-97.936,14.377],[-98.927,14.39],[-99.987,14.349],[-101.34,14.125],[-102.156,13.884],[-102.565,13.735],[-103.185,13.543],[-104.611,13.45],[-105.439,13.412],[-106.518,13.403],[-107.355,13.543],[-108.434,13.924],[-108.936,14.249],[-109.261,14.724],[-109.791,16.23],[-109.903,17.607],[-109.773,18.444],[-109.643,18.974],[-109.345,19.383],[-109.06,19.532],[-108.651,19.699],[-108.217,20.009],[-107.274,20.419],[-105.826,20.944],[-105.256,20.977],[-104.859,20.949],[-104.512,20.831],[-104.115,20.732],[-103.737,20.8],[-102.974,21.036],[-102.602,21.135],[-102.246,21.297],[-102.058,21.476],[-101.819,21.631],[-101.494,21.73],[-101.022,21.906],[-100.135,22.678],[-99.431,23.386],[-99.301,23.785],[-99.301,24.278],[-99.273,24.948],[-99.133,25.394],[-98.938,25.766],[-98.733,26.027],[-98.426,26.213],[-97.636,26.483],[-97.282,26.576],[-96.864,26.594],[-96.427,26.566],[-96.085,26.574],[-95.732,26.537]]]}},{"type":"Feature","properties":{"density":1},"geometry":{"type":"Polygon","coordinates":[[[-105.371,22.361],[-105.401,22.465],[-105.401,22.521],[-105.363,22.555],[-105.287,22.558],[-105.235,22.52],[-105.153,22.51],[-105.044,22.529],[-104.895,22.594],[-104.855,22.595],[-104.829,22.574],[-104.837,22.488],[-104.87,22.431],[-104.948,22.361],[-105.163,22.295],[-105.287,22.304],[-105.363,22.347],[-105.371,22.361]]]}},{"type":"Feature","properties":{"density":1},"geometry":{"type":"Polygon","coordinates":[[[-104.691,22.493],[-104.572,22.649],[-104.486,22.664],[-104.447,22.643],[-104.417,22.606],[-104.399,22.519],[-104.396,22.38],[-104.426,22.304],[-104.495,22.28],[-104.533,22.295],[-104.65,22.412],[-104.693,22.436],[-104.696,22.487],[-104.691,22.493]]]}},{"type":"Feature","properties":{"density":2},"geometry":{"type":"Polygon","coordinates":[[[-104.101,21.269],[-104.044,21.241],[-103.942,21.235],[-103.906,21.263],[-103.883,21.31],[-103.885,21.402],[-103.916,21.434],[-103.999,21.436],[-104.103,21.385],[-104.133,21.353],[-104.125,21.304],[-104.101,21.269]]]}},{"type":"Feature","properties":{"density":2},"geometry":{"type":"Polygon","coordinates":[[[-104.333,21.526],[-103.991,21.641],[-103.957,21.674],[-103.971,21.692],[-104.02,21.692],[-104.15,21.646],[-104.314,21.585],[-104.341,21.556],[-104.32,21.542],[-104.333,21.526]]]}},{"type":"Feature","properties":{"density":2},"geometry":{"type":"Polygon","coordinates":[[[-88.818,17.494],[-88.774,17.512],[-88.742,17.495],[-88.748,17.429],[-88.807,17.413],[-88.861,17.426],[-88.862,17.463],[-88.82,17.49],[-88.818,17.494]]]}},{"type":"Feature","properties":{"density":2},"geometry":{"type":"Polygon","coordinates":[[[-104.356,21.531],[-104.37,21.564],[-104.314,21.651],[-104.27,21.655],[-104.211,21.616],[-104.139,21.624],[-104.057,21.663],[-104.034,21.644],[-104.04,21.599],[-104.133,21.549],[-104.316,21.521],[-104.348,21.528],[-104.356,21.531]]]}},{"type":"Feature","properties":{"density":2},"geometry":{"type":"Polygon","coordinates":[[[-104.169,21.386],[-104.131,21.418],[-104.043,21.417],[-103.878,21.535],[-103.829,21.524],[-103.828,21.462],[-103.874,21.362],[-103.863,21.267],[-103.918,21.23],[-103.994,21.22],[-104.175,21.304],[-104.188,21.342],[-104.173,21.381],[-104.169,21.386]]]}},{"type":"Feature","properties":{"density":2},"geometry":{"type":"Polygon","coordinates":[[[-99.059,36.301],[-99.033,36.371],[-99.004,36.402],[-98.939,36.426],[-98.941,36.393],[-99.004,36.299],[-99.04,36.283],[-99.059,36.298],[-99.059,36.301]]]}},{"type":"Feature","properties":{"density":2},"geometry":{"type":"Polygon","coordinates":[[[-99.053,36.317],[-99.026,36.375],[-98.887,36.553],[-98.637,36.794],[-98.453,36.947],[-98.367,36.991],[-98.189,37.154],[-98.137,37.18],[-98.067,37.174],[-98.049,37.116],[-98.01,37.065],[-98.019,37.007],[-98.314,36.711],[-98.502,36.565],[-98.619,36.448],[-98.862,36.366],[-99.024,36.285],[-99.058,36.286],[-99.054,36.315],[-99.053,36.317]]]}},{"type":"Feature","properties":{"density":2},"geometry":{"type":"Polygon","coordinates":[[[-104.117,21.316],[-104.114,21.343],[-104.081,21.36],[-103.984,21.376],[-103.802,21.461],[-103.769,21.449],[-103.772,21.408],[-103.819,21.308],[-103.896,21.202],[-104.042,21.253],[-104.115,21.314],[-104.117,21.316]]]}},{"type":"Feature","properties":{"density":2},"geometry":{"type":"Polygon","coordinates":[[[-104.328,21.58],[-104.048,21.614],[-103.979,21.609],[-103.954,21.563],[-103.967,21.528],[-103.989,21.515],[-104.111,21.515],[-104.321,21.535],[-104.338,21.547],[-104.33,21.577],[-104.328,21.58]]]}},{"type":"Feature","properties":{"density":2},"geometry":{"type":"Polygon","coordinates":[[[-88.761,17.503],[-88.796,17.505],[-88.82,17.484],[-88.831,17.442],[-88.818,17.417],[-88.75,17.431],[-88.736,17.469],[-88.746,17.499],[-88.761,17.503]]]}},{"type":"Feature","properties":{"density":2},"geometry":{"type":"Polygon","coordinates":[[[-115.547,47.635],[-115.469,47.689],[-115.355,47.7],[-115.328,47.688],[-115.339,47.651],[-115.371,47.632],[-115.551,47.63],[-115.547,47.635]]]}},{"type":"Feature","properties":{"density":2},"geometry":{"type":"Polygon","coordinates":[[[-112.638,33.355],[-112.685,33.54],[-112.753,33.698],[-112.775,33.849],[-112.746,34.165],[-112.699,34.333],[-112.63,34.496],[-112.595,34.523],[-112.467,34.553],[-112.016,34.542],[-111.905,34.529],[-111.739,34.446],[-111.761,34.365],[-111.896,34.266],[-111.96,34.224],[-112.175,34.149],[-112.27,34.064],[-112.344,33.948],[-112.358,33.835],[-112.321,33.626],[-112.426,33.526],[-112.569,33.319],[-112.614,33.314],[-112.639,33.349],[-112.638,33.355]]]}},{"type":"Feature","properties":{"density":2},"geometry":{"type":"Polygon","coordinates":[[[-98.491,36.861],[-98.478,36.915],[-98.434,36.965],[-98.036,37.331],[-97.822,37.562],[-97.649,37.645],[-97.605,37.691],[-97.434,37.793],[-97.381,37.804],[-97.311,37.78],[-97.291,37.74],[-97.287,37.629],[-97.371,37.494],[-98.328,36.79],[-98.448,36.787],[-98.484,36.817],[-98.493,36.85],[-98.491,36.861]]]}},{"type":"Feature","properties":{"density":2},"geometry":{"type":"Polygon","coordinates":[[[-104.331,21.583],[-104.063,21.694],[-103.731,21.792],[-103.597,21.773],[-103.553,21.724],[-103.555,21.693],[-103.577,21.67],[-103.647,21.627],[-103.8,21.587],[-104.305,21.525],[-104.367,21.544],[-104.355,21.576],[-104.331,21.583]]]}},{"type":"Feature","properties":{"density":2},"geometry":{"type":"Polygon","coordinates":[[[-104.128,21.334],[-104.03,21.405],[-103.969,21.42],[-103.728,21.372],[-103.744,21.333],[-103.807,21.312],[-103.936,21.325],[-104.101,21.303],[-104.129,21.329],[-104.128,21.334]]]}},{"type":"Feature","properties":{"density":2},"geometry":{"type":"Polygon","coordinates":[[[-105.351,22.367],[-105.308,22.408],[-105.218,22.416],[-105.169,22.392],[-105.163,22.336],[-105.185,22.31],[-105.233,22.307],[-105.351,22.341],[-105.353,22.364],[-105.351,22.367]]]}},{"type":"Feature","properties":{"density":3},"geometry":{"type":"Polygon","coordinates":[[[-104.145,21.351],[-104.11,21.394],[-104.064,21.396],[-104.05,21.381],[-104.073,21.288],[-104.117,21.304],[-104.146,21.347],[-104.145,21.351]]]}}]}