{"type":"FeatureCollection","features":[{"type":"Feature","properties":{"density":1},"geometry":{"type":"Polygon","coordinates":[[[-125.657,59.414],[-124.796,59.391],[-123.89,59.391],[-122.611,59.504],[-121.206,59.765],[-120.21,59.969],[-119.247,60.206],[-118.556,60.274],[-117.605,60.637],[-117.084,60.875],[-116.664,61.135],[-116.189,61.735],[-116.302,62.913],[-116.642,63.412],[-117.401,63.729],[-119.686,64.147],[-120.598,63.965],[-121.585,63.422],[-121.701,62.863],[-121.751,62.375],[-122.01,61.996],[-122.713,61.724],[-123.936,61.35],[-124.774,61.237],[-125.578,61.033],[-126.631,60.512],[-126.801,60.127],[-126.711,59.799],[-126.518,59.663],[-126.099,59.516],[-125.657,59.414]]]}},{"type":"Feature","properties":{"density":1},"geometry":{"type":"Polygon","coordinates":[[[-118.496,44.123],[-118.504,44.178],[-118.377,44.216],[-118.304,44.168],[-118.232,44.047],[-118.172,43.995],[-118.15,43.95],[-118.168,43.909],[-118.199,43.913],[-118.304,43.989],[-118.363,44.095],[-118.486,44.11],[-118.496,44.123]]]}},{"type":"Feature","properties":{"density":1},"geometry":{"type":"Polygon","coordinates":[[[-115.855,44.063],[-115.872,44.099],[-115.912,44.105],[-115.962,44.146],[-116.011,44.137],[-116.017,44.108],[-115.981,44.072],[-115.911,44.045],[-115.863,44.045],[-115.855,44.063]]]}},{"type":"Feature","properties":{"density":1},"geometry":{"type":"Polygon","coordinates":[[[-116.551,55.709],[-116.628,56.542],[-116.474,57.426],[-115.949,59.13],[-114.988,60.399],[-114.719,60.848],[-114.552,61.514],[-114.411,61.988],[-114.104,62.449],[-113.578,62.859],[-112.745,63.141],[-112.117,63.244],[-111.144,63.167],[-110.388,62.936],[-109.619,62.847],[-108.709,62.808],[-107.543,62.988],[-106.402,63.205],[-105.633,63.539],[-104.096,63.551],[-103.826,63.5],[-103.352,63.346],[-102.84,63.346],[-102.417,63.385],[-101.751,63.398],[-100.367,63.59],[-99.982,63.475],[-99.867,63.334],[-99.88,63.064],[-100.059,62.68],[-100.52,62.091],[-102.161,60.873],[-103.083,60.156],[-103.903,59.297],[-104.403,58.9],[-105.611,57.708],[-105.928,57.103],[-106.188,56.122],[-106.274,55.344],[-106.13,54.306],[-105.784,53.441],[-105.265,52.605],[-104.919,52.086],[-103.737,47.588],[-103.275,46.694],[-102.382,45.339],[-101.863,44.272],[-101.401,43.09],[-101.027,40.841],[-100.709,39.255],[-100.45,36.833],[-99.556,35.997],[-97.567,35.392],[-96.846,35.103],[-96.125,34.7],[-95.548,34.181],[-95.433,33.719],[-95.577,33.172],[-96.73,32.48],[-97.249,32.364],[-98.72,32.22],[-99.585,32.22],[-101.171,32.48],[-102.958,32.422],[-103.794,32.422],[-104.486,32.624],[-105.265,32.768],[-105.899,32.912],[-106.649,33.143],[-107.139,33.546],[-107.543,34.411],[-107.456,35.622],[-107.139,36.112],[-106.216,36.372],[-105.207,36.862],[-104.313,37.612],[-104.083,38.967],[-104.054,39.976],[-104.458,40.812],[-104.977,42.138],[-105.899,43.984],[-107.168,45.8],[-109.676,47.559],[-110.974,48.51],[-112.214,49.866],[-113.107,51.019],[-113.886,52.115],[-114.635,53.325],[-115.472,54.075],[-116.135,54.709],[-116.551,55.709]]]}},{"type":"Feature","properties":{"density":1},"geometry":{"type":"Polygon","coordinates":[[[-90.294,28.254],[-90.39,27.543],[-90.909,26.448],[-91.043,25.506],[-91.024,24.622],[-90.909,23.737],[-90.64,22.815],[-89.967,21.7],[-88.141,20.258],[-86.815,19.451],[-85.911,18.586],[-85.488,18.028],[-85.219,17.202],[-85.123,15.856],[-85.431,14.242],[-86.795,12.646],[-88.16,11.243],[-89.275,10.532],[-91.428,10.09],[-93.657,10.244],[-98.597,11.378],[-99.635,11.474],[-101.077,11.512],[-101.654,11.474],[-102.807,11.512],[-103.883,11.781],[-104.921,12.339],[-105.402,13.108],[-105.633,14.069],[-105.69,15.088],[-105.979,15.607],[-106.517,15.953],[-107.478,16.241],[-108.304,16.375],[-109.323,16.491],[-110.342,16.491],[-111.534,16.587],[-113.321,16.664],[-114.475,17.144],[-115.186,17.759],[-115.455,18.855],[-114.974,20.45],[-113.725,21.469],[-111.937,22.219],[-109.861,22.507],[-108.843,22.719],[-107.997,22.834],[-107.228,23.026],[-106.363,23.218],[-105.325,23.314],[-103.979,23.718],[-102.596,24.179],[-101.654,24.756],[-100.462,25.41],[-100.135,25.659],[-99.558,26.159],[-98.655,26.813],[-97.867,27.447],[-97.04,28.216],[-95.599,29.004],[-94.292,29.235],[-92.85,29.1],[-90.64,28.677],[-90.294,28.254]]]}},{"type":"Feature","properties":{"density":1},"geometry":{"type":"Polygon","coordinates":[[[-81.612,29.949],[-81.473,29.619],[-81.473,29.361],[-81.555,29.088],[-81.864,28.764],[-82.364,28.429],[-82.627,28.29],[-83.286,27.841],[-83.518,27.625],[-83.642,27.28],[-83.565,26.893],[-83.369,26.626],[-83.096,26.455],[-82.478,26.207],[-82.049,26.079],[-81.226,25.905],[-80.344,25.871],[-79.487,25.905],[-79.034,26.149],[-78.953,26.74],[-79.069,27.76],[-79.185,28.178],[-79.382,29.325],[-79.22,29.824],[-79.104,30.264],[-79.116,31.157],[-79.359,31.69],[-79.823,32.235],[-80.507,32.826],[-81.144,33.035],[-81.863,33.023],[-82.42,32.571],[-82.593,32.084],[-82.64,31.343],[-82.593,30.925],[-82.373,30.461],[-82.072,30.172],[-81.747,30.021],[-81.612,29.949]]]}},{"type":"Feature","properties":{"density":1},"geometry":{"type":"Polygon","coordinates":[[[-89.369,30.18],[-90.598,30.466],[-91.748,31.219],[-92.13,31.88],[-92.391,32.837],[-92.478,33.48],[-92.478,34.036],[-92.089,34.67],[-91.525,35.026],[-90.915,35.211],[-90.544,35.273],[-90.148,35.271],[-89.626,35.201],[-89.174,34.958],[-88.183,33.689],[-87.715,33.264],[-87.209,32.75],[-86.757,32.402],[-86.322,32.228],[-85.922,31.689],[-85.766,31.132],[-85.829,30.45],[-86.193,30.095],[-86.652,30.002],[-87.278,29.95],[-87.87,30.019],[-88.473,30.041],[-89.369,30.18]]]}},{"type":"Feature","properties":{"density":1},"geometry":{"type":"Polygon","coordinates":[[[-81.283,27.632],[-81.41,27.748],[-81.429,27.82],[-81.372,27.88],[-81.331,27.871],[-81.283,27.82],[-81.254,27.816],[-81.179,27.846],[-81.122,27.829],[-81.135,27.781],[-81.212,27.68],[-81.274,27.634],[-81.283,27.632]]]}},{"type":"Feature","properties":{"density":1},"geometry":{"type":"Polygon","coordinates":[[[-100.188,31.236],[-100.232,31.228],[-100.232,31.25],[-100.18,31.371],[-100.158,31.382],[-100.144,31.371],[-100.144,31.33],[-100.163,31.266],[-100.188,31.236]]]}},{"type":"Feature","properties":{"density":1},"geometry":{"type":"Polygon","coordinates":[[[-105.515,33.661],[-105.168,33.781],[-105.015,33.81],[-104.758,33.905],[-103.928,34.273],[-103.651,34.343],[-103.415,34.38],[-103.031,34.389],[-102.667,34.372],[-102.307,34.327],[-101.861,34.244],[-101.113,34.289],[-100.807,34.352],[-100.625,34.368],[-100.393,34.302],[-100.327,34.227],[-100.315,34.186],[-100.315,34.128],[-100.377,34.041],[-100.551,33.913],[-100.856,33.798],[-101.121,33.752],[-101.543,33.707],[-101.877,33.554],[-102.125,33.384],[-102.638,33.277],[-102.745,33.273],[-102.841,33.302],[-103.308,33.45],[-103.556,33.57],[-103.725,33.62],[-104.101,33.69],[-104.444,33.711],[-104.978,33.599],[-105.234,33.57],[-105.431,33.573],[-105.526,33.612],[-105.541,33.64],[-105.515,33.661]]]}},{"type":"Feature","properties":{"density":1},"geometry":{"type":"Polygon","coordinates":[[[-118.452,44.095],[-118.516,44.115],[-118.594,44.208],[-118.592,44.247],[-118.566,44.276],[-118.478,44.311],[-118.377,44.299],[-118.349,44.284],[-118.316,44.232],[-118.333,44.139],[-118.366,44.1],[-118.43,44.095],[-118.452,44.095]]]}},{"type":"Feature","properties":{"density":1},"geometry":{"type":"Polygon","coordinates":[[[-111.591,60.283],[-111.808,60.339],[-111.981,60.345],[-112.186,60.326],[-112.378,60.252],[-112.893,60.128],[-113.333,60.134],[-113.699,60.388],[-113.91,60.754],[-114.009,60.89],[-114.071,61.033],[-114.102,61.169],[-114.065,61.324],[-113.693,61.895],[-113.476,62.05],[-113.271,62.161],[-112.691,62.524],[-112.366,62.627],[-111.659,62.543],[-111.315,62.422],[-111.082,62.273],[-110.664,61.752],[-110.496,61.603],[-110.292,61.464],[-109.985,61.427],[-109.511,61.343],[-109.018,61.334],[-107.874,61.948],[-107.613,62.273],[-107.325,62.552],[-106.627,63.119],[-106.162,63.38],[-105.223,63.826],[-104.665,64.031],[-103.884,64.17],[-102.935,64.235],[-102.721,64.161],[-102.535,64.022],[-102.405,63.845],[-102.312,63.566],[-102.08,63.343],[-101.67,63.185],[-101.075,63.119],[-100.396,63.11],[-100.117,63.138],[-99.429,63.352],[-98.964,63.389],[-98.769,63.296],[-98.75,63.175],[-99.196,62.924],[-99.559,62.906],[-99.931,62.831],[-100.405,62.701],[-100.936,62.524],[-102.005,61.696],[-102.173,61.594],[-103.065,61.259],[-103.326,61.213],[-103.623,61.194],[-104.005,61.204],[-104.619,61.297],[-105.102,61.157],[-105.846,60.711],[-106.293,60.422],[-106.525,60.404],[-106.702,60.487],[-106.786,60.655],[-106.934,60.748],[-107.158,60.813],[-107.632,60.766],[-107.911,60.683],[-108.618,60.422],[-109.408,60.208],[-109.669,60.199],[-110.078,60.153],[-110.599,60.153],[-110.859,60.227],[-111.389,60.292],[-111.591,60.283]]]}},{"type":"Feature","properties":{"density":1},"geometry":{"type":"Polygon","coordinates":[[[-108.379,29.272],[-108.356,29.349],[-108.31,29.365],[-108.304,29.329],[-108.323,29.285],[-108.351,29.25],[-108.373,29.255],[-108.379,29.272]]]}},{"type":"Feature","properties":{"density":1},"geometry":{"type":"Polygon","coordinates":[[[-104.5,21.891],[-104.475,21.929],[-104.329,22.001],[-104.298,22.004],[-104.235,21.968],[-104.232,21.916],[-104.337,21.83],[-104.439,21.808],[-104.475,21.819],[-104.491,21.863],[-104.5,21.891]]]}},{"type":"Feature","properties":{"density":1},"geometry":{"type":"Polygon","coordinates":[[[-104.351,20.879],[-104.329,20.951],[-104.287,20.992],[-104.213,20.995],[-104.158,20.951],[-104.147,20.915],[-104.202,20.849],[-104.265,20.819],[-104.329,20.849],[-104.351,20.879]]]}},{"type":"Feature","properties":{"density":1},"geometry":{"type":"Polygon","coordinates":[[[-104.18,21.626],[-104.254,21.607],[-104.268,21.577],[-104.161,21.472],[-104.13,21.472],[-104.07,21.516],[-104.059,21.59],[-104.064,21.621],[-104.092,21.651],[-104.139,21.643],[-104.18,21.626]]]}},{"type":"Feature","properties":{"density":1},"geometry":{"type":"Polygon","coordinates":[[[-104.775,19.573],[-104.907,19.692],[-104.91,19.73],[-104.885,19.763],[-104.797,19.736],[-104.723,19.683],[-104.695,19.634],[-104.698,19.587],[-104.72,19.562],[-104.748,19.565],[-104.775,19.573]]]}},{"type":"Feature","properties":{"density":1},"geometry":{"type":"Polygon","coordinates":[[[-104.26,19.496],[-104.177,19.562],[-104.125,19.529],[-104.108,19.482],[-104.117,19.446],[-104.144,19.438],[-104.216,19.441],[-104.274,19.477],[-104.26,19.496]]]}},{"type":"Feature","properties":{"density":1},"geometry":{"type":"Polygon","coordinates":[[[-103.309,18.634],[-103.301,18.487],[-103.257,18.41],[-103.238,18.408],[-103.207,18.432],[-103.196,18.487],[-103.204,18.589],[-103.262,18.669],[-103.298,18.656],[-103.309,18.634]]]}},{"type":"Feature","properties":{"density":1},"geometry":{"type":"Polygon","coordinates":[[[-98.7,16.908],[-98.791,16.949],[-98.959,16.943],[-99.008,16.932],[-99.091,16.872],[-99.099,16.828],[-99.058,16.693],[-99.069,16.569],[-99.017,16.522],[-98.975,16.513],[-98.923,16.53],[-98.896,16.555],[-98.871,16.632],[-98.67,16.786],[-98.659,16.852],[-98.678,16.88],[-98.7,16.908]]]}},{"type":"Feature","properties":{"density":1},"geometry":{"type":"Polygon","coordinates":[[[-92.653,15.974],[-92.599,16.02],[-92.598,16.048],[-92.607,16.084],[-92.656,16.116],[-92.717,16.127],[-92.807,16.099],[-92.879,16.105],[-92.954,16.178],[-93.064,16.217],[-93.083,16.215],[-93.108,16.178],[-93.035,16.075],[-93.031,16.013],[-93.007,15.982],[-92.888,15.934],[-92.842,15.93],[-92.691,15.956],[-92.653,15.974]]]}},{"type":"Feature","properties":{"density":1},"geometry":{"type":"Polygon","coordinates":[[[-92.924,17.723],[-93.071,17.743],[-93.104,17.797],[-93.115,17.876],[-93.08,17.89],[-93.032,17.883],[-92.94,17.81],[-92.856,17.797],[-92.661,17.839],[-92.628,17.806],[-92.606,17.751],[-92.604,17.734],[-92.668,17.718],[-92.876,17.699],[-92.924,17.723]]]}},{"type":"Feature","properties":{"density":1},"geometry":{"type":"Polygon","coordinates":[[[-92.238,18.383],[-92.477,18.609],[-92.512,18.69],[-92.505,18.713],[-92.453,18.697],[-92.22,18.473],[-92.196,18.423],[-92.216,18.379],[-92.238,18.383]]]}},{"type":"Feature","properties":{"density":1},"geometry":{"type":"Polygon","coordinates":[[[-92.139,17.786],[-92.167,17.813],[-92.295,17.855],[-92.338,17.887],[-92.343,17.907],[-92.325,17.925],[-92.246,17.894],[-92.213,17.896],[-92.185,17.922],[-92.2,17.96],[-92.31,18.052],[-92.338,18.103],[-92.308,18.142],[-92.182,18.085],[-92.06,17.99],[-92.049,17.96],[-92.101,17.879],[-92.08,17.8],[-92.121,17.78],[-92.139,17.786]]]}},{"type":"Feature","properties":{"density":1},"geometry":{"type":"Polygon","coordinates":[[[-91.529,17.795],[-91.704,17.894],[-91.814,17.997],[-91.967,18.091],[-91.987,18.129],[-91.968,18.151],[-91.575,17.925],[-91.485,17.83],[-91.483,17.811],[-91.507,17.791],[-91.529,17.795]]]}},{"type":"Feature","properties":{"density":1},"geometry":{"type":"Polygon","coordinates":[[[-90.982,18.392],[-91.098,18.506],[-91.076,18.513],[-90.945,18.423],[-90.952,18.403],[-90.971,18.405],[-90.982,18.392]]]}},{"type":"Feature","properties":{"density":1},"geometry":{"type":"Polygon","coordinates":[[[-90.965,18.127],[-91.042,18.171],[-91.12,18.269],[-91.101,18.28],[-90.991,18.195],[-90.932,18.131],[-90.954,18.113],[-90.965,18.127]]]}},{"type":"Feature","properties":{"density":1},"geometry":{"type":"Polygon","coordinates":[[[-90.811,18.469],[-90.927,18.535],[-90.949,18.594],[-90.919,18.594],[-90.807,18.526],[-90.782,18.484],[-90.8,18.462],[-90.811,18.469]]]}},{"type":"Feature","properties":{"density":1},"geometry":{"type":"Polygon","coordinates":[[[-90.807,18.706],[-90.965,18.827],[-91.219,19.118],[-91.252,19.16],[-91.246,19.224],[-91.193,19.239],[-91.121,19.186],[-90.941,18.954],[-90.8,18.818],[-90.743,18.715],[-90.758,18.697],[-90.793,18.699],[-90.807,18.706]]]}},{"type":"Feature","properties":{"density":1},"geometry":{"type":"Polygon","coordinates":[[[-90.802,19.094],[-90.951,19.204],[-91.087,19.362],[-91.096,19.419],[-91.07,19.424],[-91.037,19.401],[-90.833,19.239],[-90.774,19.175],[-90.75,19.099],[-90.789,19.081],[-90.802,19.094]]]}},{"type":"Feature","properties":{"density":1},"geometry":{"type":"Polygon","coordinates":[[[-90.547,17.891],[-90.713,17.972],[-90.827,18.055],[-90.873,18.114],[-90.871,18.158],[-90.83,18.189],[-90.775,18.183],[-90.656,18.084],[-90.551,18.029],[-90.498,17.968],[-90.489,17.934],[-90.505,17.895],[-90.529,17.888],[-90.547,17.891]]]}},{"type":"Feature","properties":{"density":1},"geometry":{"type":"Polygon","coordinates":[[[-91.996,15.781],[-92.014,15.816],[-91.981,15.882],[-91.959,15.896],[-91.913,15.874],[-91.849,15.908],[-91.809,15.904],[-91.796,15.827],[-91.943,15.761],[-91.994,15.761],[-91.996,15.781]]]}},{"type":"Feature","properties":{"density":1},"geometry":{"type":"Polygon","coordinates":[[[-89.583,15.355],[-89.673,15.316],[-89.745,15.312],[-89.767,15.327],[-89.772,15.362],[-89.609,15.4],[-89.577,15.391],[-89.574,15.362],[-89.583,15.355]]]}},{"type":"Feature","properties":{"density":1},"geometry":{"type":"Polygon","coordinates":[[[-90.785,15.387],[-90.856,15.264],[-90.866,15.199],[-90.84,15.181],[-90.801,15.181],[-90.764,15.24],[-90.735,15.346],[-90.737,15.379],[-90.766,15.394],[-90.785,15.387]]]}},{"type":"Feature","properties":{"density":1},"geometry":{"type":"Polygon","coordinates":[[[-88.18,14.826],[-88.266,14.913],[-88.288,14.926],[-88.308,14.918],[-88.29,14.791],[-88.259,14.722],[-88.216,14.709],[-88.17,14.729],[-88.165,14.799],[-88.18,14.826]]]}},{"type":"Feature","properties":{"density":1},"geometry":{"type":"Polygon","coordinates":[[[-85.891,15.254],[-86.057,15.245],[-86.25,15.306],[-86.261,15.339],[-86.23,15.386],[-86.148,15.386],[-85.903,15.336],[-85.875,15.322],[-85.867,15.267],[-85.891,15.254]]]}},{"type":"Feature","properties":{"density":1},"geometry":{"type":"Polygon","coordinates":[[[-93.725,17.318],[-93.753,17.28],[-93.834,17.261],[-93.898,17.329],[-93.931,17.454],[-93.961,17.675],[-94.034,17.87],[-94.043,17.972],[-94.01,18.048],[-93.894,18.07],[-93.795,17.978],[-93.764,17.877],[-93.725,17.859],[-93.641,17.868],[-93.599,17.914],[-93.545,18.112],[-93.483,18.404],[-93.468,18.649],[-93.448,18.724],[-93.378,18.84],[-93.323,18.884],[-93.132,18.968],[-93.071,18.964],[-93.081,18.93],[-93.195,18.829],[-93.307,18.665],[-93.34,18.536],[-93.327,18.498],[-93.266,18.505],[-93.198,18.595],[-93.02,18.737],[-92.943,18.748],[-92.934,18.728],[-92.956,18.665],[-93.097,18.487],[-93.237,18.345],[-93.336,18.195],[-93.424,17.927],[-93.47,17.609],[-93.525,17.363],[-93.578,17.298],[-93.615,17.302],[-93.645,17.337],[-93.694,17.339],[-93.725,17.318]]]}},{"type":"Feature","properties":{"density":1},"geometry":{"type":"Polygon","coordinates":[[[-95.586,18.151],[-95.678,18.193],[-95.696,18.241],[-95.687,18.261],[-95.597,18.247],[-95.57,18.212],[-95.586,18.155],[-95.586,18.151]]]}},{"type":"Feature","properties":{"density":1},"geometry":{"type":"Polygon","coordinates":[[[-78.342,26.62],[-78.376,26.694],[-78.409,26.71],[-78.432,26.697],[-78.403,26.607],[-78.351,26.602],[-78.342,26.62]]]}},{"type":"Feature","properties":{"density":1},"geometry":{"type":"Polygon","coordinates":[[[-81.23,27.615],[-81.113,27.716],[-81.079,27.829],[-81.101,27.869],[-81.135,27.894],[-81.18,27.89],[-81.299,27.84],[-81.585,28.083],[-81.686,28.094],[-81.707,28.056],[-81.707,27.973],[-81.47,27.788],[-81.446,27.748],[-81.434,27.68],[-81.29,27.613],[-81.234,27.608],[-81.23,27.615]]]}},{"type":"Feature","properties":{"density":1},"geometry":{"type":"Polygon","coordinates":[[[-86.875,30.497],[-86.914,30.573],[-86.907,30.756],[-86.826,30.963],[-86.794,30.996],[-86.671,30.938],[-86.63,30.877],[-86.628,30.834],[-86.794,30.513],[-86.842,30.488],[-86.875,30.497]]]}},{"type":"Feature","properties":{"density":1},"geometry":{"type":"Polygon","coordinates":[[[-97.203,35.422],[-97.236,35.348],[-97.18,35.388],[-97.173,35.404],[-97.194,35.424],[-97.203,35.422]]]}},{"type":"Feature","properties":{"density":1},"geometry":{"type":"Polygon","coordinates":[[[-105.498,33.667],[-105.31,33.753],[-104.84,33.91],[-104.45,33.991],[-104.116,34.097],[-103.751,34.153],[-103.609,34.189],[-102.961,34.371],[-102.698,34.467],[-102.653,34.619],[-102.718,34.69],[-102.86,34.735],[-103.108,34.72],[-103.204,34.74],[-103.265,34.806],[-103.265,34.933],[-103.199,35.024],[-103.103,35.11],[-102.708,35.353],[-102.617,35.368],[-102.323,35.338],[-102.03,35.216],[-101.777,34.832],[-101.605,34.664],[-101.478,34.558],[-101.387,34.508],[-101.311,34.427],[-101.129,34.29],[-101.017,34.072],[-100.992,33.971],[-100.997,33.809],[-101.103,33.632],[-101.301,33.409],[-101.64,33.303],[-101.853,33.287],[-102.141,33.313],[-102.41,33.389],[-102.602,33.47],[-102.794,33.642],[-102.921,33.718],[-103.209,33.804],[-103.392,33.809],[-103.63,33.789],[-103.883,33.713],[-104.814,33.708],[-105.133,33.657],[-105.285,33.591],[-105.356,33.576],[-105.488,33.576],[-105.538,33.606],[-105.538,33.632],[-105.498,33.667]]]}},{"type":"Feature","properties":{"density":1},"geometry":{"type":"Polygon","coordinates":[[[-123.685,40.777],[-123.719,40.858],[-123.683,40.905],[-123.654,40.898],[-123.629,40.833],[-123.667,40.781],[-123.685,40.777]]]}},{"type":"Feature","properties":{"density":1},"geometry":{"type":"Polygon","coordinates":[[[-118.024,40.754],[-117.936,40.754],[-117.875,40.734],[-117.838,40.693],[-117.862,40.673],[-117.943,40.666],[-117.977,40.673],[-118.047,40.727],[-118.024,40.754]]]}},{"type":"Feature","properties":{"density":1},"geometry":{"type":"Polygon","coordinates":[[[-118.495,44.175],[-118.384,44.179],[-118.073,44.236],[-117.972,44.233],[-117.921,44.185],[-117.959,44.148],[-118.029,44.118],[-118.245,44.077],[-118.428,44.074],[-118.502,44.094],[-118.536,44.118],[-118.536,44.148],[-118.495,44.175]]]}},{"type":"Feature","properties":{"density":1},"geometry":{"type":"Polygon","coordinates":[[[-120.224,45.661],[-120.194,45.632],[-120.199,45.607],[-120.224,45.607],[-120.244,45.655],[-120.224,45.661]]]}},{"type":"Feature","properties":{"density":1},"geometry":{"type":"Polygon","coordinates":[[[-113.168,60.015],[-113.328,60.06],[-113.533,60.151],[-113.909,60.527],[-113.772,60.972],[-113.658,61.177],[-113.51,61.336],[-113.203,61.609],[-113.02,61.735],[-111.927,62.316],[-111.631,62.373],[-111.209,62.407],[-110.731,62.259],[-110.457,62.122],[-110.036,61.962],[-109.797,61.894],[-109.671,61.814],[-109.102,61.655],[-108.806,61.678],[-108.27,61.803],[-106.38,63.17],[-105.969,63.569],[-105.616,63.751],[-105.423,63.899],[-105.115,64.07],[-104.865,64.184],[-103.748,64.56],[-102.951,64.924],[-102.359,65.061],[-100.832,65.129],[-100.274,65.106],[-100.126,65.027],[-100.138,64.879],[-101.083,64.138],[-101.22,63.933],[-101.14,63.694],[-100.81,63.466],[-100.639,63.386],[-100.331,63.341],[-100.001,63.341],[-99.352,63.477],[-99.101,63.512],[-98.6,63.534],[-98.269,63.569],[-98.03,63.569],[-97.825,63.546],[-97.575,63.432],[-97.563,63.307],[-97.757,63.238],[-98.372,63.204],[-98.828,63.056],[-99.705,62.486],[-99.898,62.327],[-100.434,62.054],[-100.867,61.894],[-101.094,61.792],[-102.393,61.131],[-102.769,60.698],[-103.27,60.425],[-104.238,59.992],[-104.671,59.844],[-105.537,59.764],[-105.913,59.764],[-106.288,59.741],[-107.063,59.741],[-107.336,59.821],[-107.541,60.049],[-107.541,60.117],[-107.484,60.22],[-107.222,60.47],[-107.245,60.584],[-107.291,60.664],[-107.553,60.744],[-107.86,60.71],[-108.088,60.641],[-108.487,60.584],[-108.874,60.47],[-109.204,60.436],[-109.398,60.379],[-109.751,60.322],[-110.047,60.22],[-110.685,60.049],[-111.357,59.901],[-112.439,59.844],[-113.077,59.969],[-113.168,60.015]]]}},{"type":"Feature","properties":{"density":1},"geometry":{"type":"Polygon","coordinates":[[[-108.403,29.255],[-108.376,29.282],[-108.359,29.36],[-108.329,29.397],[-108.312,29.394],[-108.315,29.303],[-108.339,29.272],[-108.376,29.262],[-108.403,29.255]]]}},{"type":"Feature","properties":{"density":1},"geometry":{"type":"Polygon","coordinates":[[[-104.863,22.115],[-104.921,22.166],[-104.978,22.126],[-105.049,22.129],[-105.056,22.163],[-104.995,22.261],[-105.005,22.392],[-104.992,22.426],[-104.887,22.49],[-104.759,22.541],[-104.688,22.541],[-104.634,22.504],[-104.624,22.45],[-104.718,22.355],[-104.83,22.271],[-104.816,22.146],[-104.846,22.095],[-104.863,22.115]]]}},{"type":"Feature","properties":{"density":1},"geometry":{"type":"Polygon","coordinates":[[[-104.232,21.592],[-104.138,21.613],[-104.003,21.613],[-103.993,21.592],[-104.03,21.559],[-104.117,21.528],[-104.219,21.538],[-104.239,21.572],[-104.232,21.592]]]}},{"type":"Feature","properties":{"density":1},"geometry":{"type":"Polygon","coordinates":[[[-104.276,20.87],[-104.182,20.884],[-104.161,20.914],[-104.246,20.938],[-104.29,20.907],[-104.293,20.884],[-104.276,20.87]]]}},{"type":"Feature","properties":{"density":1},"geometry":{"type":"Polygon","coordinates":[[[-103.844,19.719],[-103.922,19.696],[-103.952,19.618],[-103.814,19.625],[-103.797,19.648],[-103.82,19.706],[-103.844,19.719]]]}},{"type":"Feature","properties":{"density":1},"geometry":{"type":"Polygon","coordinates":[[[-104.9,20.067],[-104.853,20.084],[-104.85,20.138],[-104.907,20.151],[-104.921,20.09],[-104.9,20.067]]]}},{"type":"Feature","properties":{"density":1},"geometry":{"type":"Polygon","coordinates":[[[-104.803,19.797],[-104.863,19.75],[-104.873,19.723],[-104.843,19.557],[-104.826,19.53],[-104.742,19.486],[-104.637,19.483],[-104.475,19.54],[-104.438,19.628],[-104.603,19.733],[-104.769,19.797],[-104.803,19.797]]]}},{"type":"Feature","properties":{"density":1},"geometry":{"type":"Polygon","coordinates":[[[-103.35,18.765],[-103.397,18.736],[-103.492,18.491],[-103.467,18.383],[-103.395,18.331],[-103.244,18.356],[-103.208,18.423],[-103.229,18.574],[-103.292,18.718],[-103.328,18.754],[-103.35,18.765]]]}},{"type":"Feature","properties":{"density":1},"geometry":{"type":"Polygon","coordinates":[[[-103.046,18.394],[-103.139,18.108],[-103.089,18.088],[-102.95,18.322],[-102.97,18.428],[-103.028,18.421],[-103.046,18.394]]]}},{"type":"Feature","properties":{"density":1},"geometry":{"type":"Polygon","coordinates":[[[-103.177,18.349],[-103.33,18.2],[-103.388,18.092],[-103.402,18.025],[-103.388,18.007],[-103.339,18.016],[-103.278,18.117],[-103.161,18.261],[-103.134,18.324],[-103.143,18.358],[-103.177,18.349]]]}},{"type":"Feature","properties":{"density":1},"geometry":{"type":"Polygon","coordinates":[[[-102.909,18.203],[-102.878,18.214],[-102.833,18.277],[-102.785,18.306],[-102.731,18.308],[-102.698,18.268],[-102.756,18.191],[-102.812,18.16],[-102.893,18.149],[-102.914,18.182],[-102.909,18.203]]]}},{"type":"Feature","properties":{"density":1},"geometry":{"type":"Polygon","coordinates":[[[-102.668,18.191],[-102.673,18.144],[-102.716,18.11],[-102.745,18.054],[-102.758,18.007],[-102.749,17.969],[-102.689,17.975],[-102.635,18.011],[-102.45,18.268],[-102.353,18.27],[-102.313,18.299],[-102.376,18.401],[-102.371,18.473],[-102.347,18.515],[-102.358,18.565],[-102.389,18.578],[-102.419,18.558],[-102.497,18.389],[-102.657,18.221],[-102.668,18.191]]]}},{"type":"Feature","properties":{"density":1},"geometry":{"type":"Polygon","coordinates":[[[-101.887,18.089],[-101.797,18.1],[-101.776,18.159],[-101.826,18.172],[-101.869,18.161],[-101.891,18.139],[-101.891,18.107],[-101.887,18.089]]]}},{"type":"Feature","properties":{"density":1},"geometry":{"type":"Polygon","coordinates":[[[-101.227,17.682],[-101.284,17.646],[-101.315,17.605],[-101.315,17.59],[-101.239,17.56],[-101.232,17.54],[-101.272,17.497],[-101.266,17.466],[-101.203,17.396],[-101.032,17.351],[-101.018,17.376],[-101.027,17.423],[-101.061,17.441],[-101.117,17.518],[-101.115,17.56],[-101.07,17.623],[-101.083,17.657],[-101.119,17.682],[-101.194,17.695],[-101.227,17.682]]]}},{"type":"Feature","properties":{"density":1},"geometry":{"type":"Polygon","coordinates":[[[-101.24,17.46],[-101.217,17.396],[-101.169,17.369],[-101.122,17.369],[-101.109,17.433],[-101.149,17.48],[-101.2,17.497],[-101.217,17.48],[-101.24,17.46]]]}},{"type":"Feature","properties":{"density":1},"geometry":{"type":"Polygon","coordinates":[[[-97.78,16.13],[-97.748,15.77],[-97.683,15.73],[-97.651,15.759],[-97.66,15.818],[-97.642,15.876],[-97.591,15.912],[-97.548,15.984],[-97.555,16.009],[-97.618,16.034],[-97.696,16.142],[-97.766,16.162],[-97.78,16.13]]]}},{"type":"Feature","properties":{"density":1},"geometry":{"type":"Polygon","coordinates":[[[-98.941,16.981],[-98.83,17.035],[-98.709,17.037],[-98.675,17.001],[-98.621,16.862],[-98.619,16.74],[-98.779,16.517],[-98.79,16.434],[-98.835,16.394],[-98.909,16.376],[-98.965,16.403],[-99.024,16.502],[-99.069,16.718],[-99.067,16.76],[-98.977,16.97],[-98.941,16.981]]]}},{"type":"Feature","properties":{"density":1},"geometry":{"type":"Polygon","coordinates":[[[-101.038,18.712],[-101.027,18.766],[-100.989,18.779],[-100.96,18.734],[-100.987,18.701],[-101.014,18.703],[-101.038,18.712]]]}},{"type":"Feature","properties":{"density":1},"geometry":{"type":"Polygon","coordinates":[[[-100.573,19.333],[-100.53,19.351],[-100.501,19.409],[-100.489,19.457],[-100.514,19.486],[-100.539,19.475],[-100.611,19.38],[-100.606,19.353],[-100.586,19.34],[-100.573,19.333]]]}},{"type":"Feature","properties":{"density":1},"geometry":{"type":"Polygon","coordinates":[[[-98.12,20.708],[-98.156,20.706],[-98.161,20.686],[-98.154,20.638],[-98.136,20.629],[-98.098,20.656],[-98.095,20.697],[-98.12,20.708]]]}},{"type":"Feature","properties":{"density":1},"geometry":{"type":"Polygon","coordinates":[[[-92.79,16.218],[-92.819,16.204],[-92.896,16.076],[-92.97,16.04],[-93.055,16.031],[-93.098,16.002],[-93.112,15.946],[-93.091,15.914],[-92.952,15.883],[-92.722,15.878],[-92.56,15.889],[-92.419,15.95],[-92.41,16.022],[-92.437,16.074],[-92.549,16.157],[-92.637,16.193],[-92.738,16.209],[-92.79,16.218]]]}},{"type":"Feature","properties":{"density":1},"geometry":{"type":"Polygon","coordinates":[[[-89.698,15.755],[-89.781,15.758],[-89.878,15.708],[-89.896,15.62],[-89.869,15.575],[-89.66,15.51],[-89.592,15.584],[-89.588,15.67],[-89.624,15.722],[-89.653,15.737],[-89.698,15.755]]]}},{"type":"Feature","properties":{"density":1},"geometry":{"type":"Polygon","coordinates":[[[-83.982,15.052],[-84.647,15.13],[-84.914,15.133],[-84.964,15.083],[-84.954,15.042],[-84.806,14.978],[-84.512,14.924],[-84.08,14.934],[-83.935,14.992],[-83.921,15.032],[-83.958,15.046],[-83.982,15.052]]]}},{"type":"Feature","properties":{"density":1},"geometry":{"type":"Polygon","coordinates":[[[-89.419,17.04],[-89.675,17.115],[-89.722,17.084],[-89.736,17.04],[-89.733,17.013],[-89.712,16.996],[-89.581,16.956],[-89.5,16.956],[-89.422,16.976],[-89.388,17.0],[-89.378,17.03],[-89.419,17.04]]]}},{"type":"Feature","properties":{"density":1},"geometry":{"type":"Polygon","coordinates":[[[-88.842,17.01],[-88.946,17.094],[-89.047,17.148],[-89.179,17.297],[-89.149,17.358],[-89.054,17.425],[-88.983,17.439],[-88.916,17.408],[-88.801,17.246],[-88.767,17.172],[-88.767,17.094],[-88.791,17.034],[-88.821,17.013],[-88.842,17.01]]]}},{"type":"Feature","properties":{"density":1},"geometry":{"type":"Polygon","coordinates":[[[-90.527,17.886],[-91.208,18.21],[-91.31,18.287],[-91.337,18.362],[-91.326,18.389],[-91.215,18.375],[-90.999,18.291],[-90.881,18.223],[-90.638,18.068],[-90.483,17.943],[-90.473,17.903],[-90.489,17.882],[-90.527,17.886]]]}},{"type":"Feature","properties":{"density":1},"geometry":{"type":"Polygon","coordinates":[[[-90.655,17.849],[-90.786,17.903],[-90.948,18.044],[-91.016,18.082],[-91.083,18.088],[-91.249,18.061],[-91.296,18.014],[-91.293,17.967],[-91.161,17.812],[-91.026,17.815],[-90.972,17.795],[-90.908,17.724],[-90.901,17.687],[-90.918,17.656],[-91.05,17.68],[-91.073,17.673],[-91.087,17.633],[-91.056,17.569],[-90.965,17.498],[-90.84,17.434],[-90.776,17.434],[-90.608,17.508],[-90.486,17.474],[-90.446,17.474],[-90.412,17.504],[-90.408,17.582],[-90.425,17.619],[-90.618,17.747],[-90.631,17.771],[-90.624,17.815],[-90.655,17.849]]]}},{"type":"Feature","properties":{"density":1},"geometry":{"type":"Polygon","coordinates":[[[-92.241,18.365],[-92.514,18.48],[-92.568,18.591],[-92.504,18.73],[-92.474,18.743],[-92.444,18.733],[-92.352,18.581],[-92.312,18.544],[-92.184,18.48],[-92.157,18.436],[-92.16,18.409],[-92.211,18.362],[-92.241,18.365]]]}},{"type":"Feature","properties":{"density":1},"geometry":{"type":"Polygon","coordinates":[[[-91.559,17.788],[-92.123,18.152],[-92.174,18.233],[-92.16,18.247],[-92.116,18.233],[-92.035,18.173],[-91.691,18.007],[-91.549,17.906],[-91.502,17.852],[-91.482,17.805],[-91.515,17.788],[-91.559,17.788]]]}},{"type":"Feature","properties":{"density":1},"geometry":{"type":"Polygon","coordinates":[[[-90.81,16.907],[-90.918,16.981],[-90.972,17.059],[-91.134,17.174],[-91.374,17.305],[-91.445,17.292],[-91.465,17.251],[-91.428,17.201],[-91.283,17.089],[-91.097,17.005],[-90.932,16.894],[-90.871,16.873],[-90.817,16.88],[-90.81,16.907]]]}},{"type":"Feature","properties":{"density":1},"geometry":{"type":"Polygon","coordinates":[[[-92.1,18.024],[-92.168,18.071],[-92.346,18.107],[-92.397,18.078],[-92.445,17.997],[-92.211,17.86],[-92.067,17.833],[-92.031,17.88],[-92.022,17.921],[-92.04,17.972],[-92.064,17.993],[-92.1,18.024]]]}},{"type":"Feature","properties":{"density":1},"geometry":{"type":"Polygon","coordinates":[[[-92.907,17.798],[-92.718,17.771],[-92.613,17.794],[-92.596,17.69],[-92.626,17.487],[-92.734,17.47],[-92.812,17.494],[-93.021,17.491],[-93.139,17.524],[-93.2,17.599],[-93.237,17.703],[-93.241,17.777],[-93.214,17.815],[-93.17,17.831],[-93.001,17.828],[-92.961,17.808],[-92.907,17.798]]]}},{"type":"Feature","properties":{"density":1},"geometry":{"type":"Polygon","coordinates":[[[-93.474,18.348],[-93.514,18.068],[-93.548,17.977],[-93.548,17.737],[-93.524,17.7],[-93.504,17.7],[-93.49,17.727],[-93.477,17.858],[-93.423,18.074],[-93.42,18.344],[-93.447,18.368],[-93.474,18.348]]]}},{"type":"Feature","properties":{"density":1},"geometry":{"type":"Polygon","coordinates":[[[-93.74,17.371],[-93.733,17.284],[-93.763,17.225],[-93.787,17.198],[-93.882,17.185],[-93.985,17.338],[-94.015,17.457],[-94.008,17.502],[-94.109,17.668],[-94.069,17.918],[-94.024,18.058],[-93.972,18.121],[-93.92,18.141],[-93.859,18.143],[-93.799,18.123],[-93.763,18.094],[-93.715,17.983],[-93.74,17.761],[-93.731,17.497],[-93.751,17.398],[-93.74,17.371]]]}},{"type":"Feature","properties":{"density":1},"geometry":{"type":"Polygon","coordinates":[[[-77.128,26.413],[-77.272,26.458],[-77.348,26.504],[-77.508,26.663],[-77.91,27.18],[-78.153,27.377],[-78.244,27.423],[-78.465,27.628],[-78.548,27.772],[-78.556,27.833],[-78.541,27.893],[-78.48,27.939],[-78.343,27.954],[-78.252,27.855],[-78.161,27.795],[-78.001,27.643],[-77.925,27.529],[-77.766,27.354],[-77.629,27.255],[-77.424,27.066],[-77.075,26.678],[-77.022,26.526],[-77.022,26.458],[-77.067,26.405],[-77.128,26.413]]]}},{"type":"Feature","properties":{"density":1},"geometry":{"type":"Polygon","coordinates":[[[-78.385,26.586],[-78.534,26.661],[-78.605,26.728],[-78.625,26.789],[-78.595,26.84],[-78.557,26.836],[-78.47,26.786],[-78.355,26.681],[-78.338,26.654],[-78.355,26.573],[-78.385,26.586]]]}},{"type":"Feature","properties":{"density":1},"geometry":{"type":"Polygon","coordinates":[[[-81.149,27.153],[-81.284,27.164],[-81.314,27.177],[-81.338,27.224],[-81.165,27.241],[-81.115,27.211],[-81.115,27.164],[-81.149,27.153]]]}},{"type":"Feature","properties":{"density":1},"geometry":{"type":"Polygon","coordinates":[[[-81.25,27.548],[-81.361,27.569],[-81.52,27.65],[-81.54,27.707],[-81.624,27.818],[-81.891,28.044],[-81.989,28.163],[-82.009,28.264],[-82.002,28.328],[-81.972,28.352],[-81.901,28.362],[-81.736,28.348],[-81.557,28.372],[-81.361,28.294],[-81.142,28.23],[-81.047,28.22],[-81.003,28.237],[-80.71,28.223],[-80.568,28.284],[-80.447,28.264],[-80.436,28.22],[-80.487,28.024],[-80.602,27.805],[-80.845,27.643],[-81.007,27.579],[-81.159,27.545],[-81.25,27.548]]]}},{"type":"Feature","properties":{"density":1},"geometry":{"type":"Polygon","coordinates":[[[-84.614,30.053],[-84.594,30.144],[-84.553,30.221],[-84.489,30.265],[-84.465,30.252],[-84.496,30.073],[-84.567,30.012],[-84.6,30.022],[-84.614,30.053]]]}},{"type":"Feature","properties":{"density":1},"geometry":{"type":"Polygon","coordinates":[[[-86.831,30.533],[-86.774,30.618],[-86.787,30.675],[-86.824,30.648],[-86.862,30.564],[-86.862,30.52],[-86.831,30.533]]]}},{"type":"Feature","properties":{"density":1},"geometry":{"type":"Polygon","coordinates":[[[-116.554,43.376],[-116.397,43.376],[-116.174,43.447],[-115.886,43.508],[-115.764,43.573],[-115.673,43.578],[-115.633,43.563],[-115.628,43.528],[-115.653,43.482],[-115.795,43.416],[-116.2,43.28],[-116.367,43.244],[-116.433,43.244],[-116.529,43.28],[-116.59,43.33],[-116.59,43.351],[-116.554,43.376]]]}},{"type":"Feature","properties":{"density":1},"geometry":{"type":"Polygon","coordinates":[[[-119.331,46.11],[-119.088,46.029],[-118.982,46.034],[-118.754,46.181],[-118.632,46.277],[-118.627,46.307],[-118.759,46.388],[-118.896,46.408],[-119.002,46.388],[-119.265,46.292],[-119.371,46.186],[-119.371,46.13],[-119.331,46.11]]]}},{"type":"Feature","properties":{"density":1},"geometry":{"type":"Polygon","coordinates":[[[-123.163,39.656],[-123.2,39.686],[-123.308,39.885],[-123.294,39.906],[-123.166,39.923],[-122.994,39.848],[-122.984,39.811],[-123.028,39.717],[-123.058,39.683],[-123.139,39.653],[-123.163,39.656]]]}},{"type":"Feature","properties":{"density":1},"geometry":{"type":"Polygon","coordinates":[[[-117.97,40.7],[-117.697,40.878],[-117.591,41.019],[-117.58,41.065],[-117.656,41.1],[-117.732,41.095],[-117.909,40.974],[-118.071,40.736],[-118.061,40.7],[-117.996,40.685],[-117.97,40.7]]]}},{"type":"Feature","properties":{"density":1},"geometry":{"type":"Polygon","coordinates":[[[-103.71,34.938],[-103.74,35.024],[-103.821,35.156],[-103.826,35.257],[-103.796,35.282],[-103.684,35.323],[-103.548,35.323],[-103.462,35.292],[-103.406,35.201],[-103.406,35.115],[-103.497,34.923],[-103.548,34.893],[-103.649,34.893],[-103.689,34.923],[-103.71,34.938]]]}},{"type":"Feature","properties":{"density":1},"geometry":{"type":"Polygon","coordinates":[[[-105.468,33.839],[-105.551,33.755],[-105.597,33.649],[-105.581,33.497],[-105.285,33.36],[-105.027,33.292],[-104.769,33.33],[-104.632,33.391],[-104.42,33.512],[-104.215,33.657],[-104.04,33.748],[-103.911,33.778],[-103.053,33.869],[-102.924,33.869],[-102.802,33.839],[-102.643,33.748],[-102.4,33.543],[-102.293,33.406],[-102.149,33.049],[-102.149,32.958],[-102.21,32.829],[-102.24,32.692],[-102.248,32.594],[-102.233,32.472],[-102.149,32.373],[-102.005,32.32],[-101.83,32.32],[-101.42,32.442],[-99.985,33.3],[-99.727,33.247],[-99.56,33.231],[-99.005,33.216],[-98.686,33.171],[-98.223,33.042],[-96.712,32.844],[-96.355,32.844],[-95.953,32.905],[-95.869,32.988],[-95.869,33.019],[-96.006,33.087],[-96.325,33.155],[-96.94,33.171],[-97.122,33.201],[-97.638,33.36],[-98.003,33.52],[-98.982,33.862],[-99.324,33.953],[-99.856,34.044],[-100.471,34.264],[-101.071,34.515],[-101.488,34.659],[-101.618,34.743],[-101.655,34.856],[-101.64,34.932],[-101.572,34.97],[-101.154,34.978],[-100.919,35.039],[-100.858,35.122],[-100.79,35.327],[-100.683,35.411],[-100.349,35.616],[-100.197,35.753],[-100.099,35.912],[-100.046,36.094],[-100.023,36.246],[-100.023,36.398],[-100.114,36.641],[-100.22,36.717],[-100.327,36.762],[-100.361,36.994],[-100.099,37.267],[-99.928,37.393],[-99.609,37.757],[-99.244,38.509],[-97.98,39.853],[-97.673,40.24],[-97.297,40.537],[-97.001,40.719],[-96.75,40.844],[-96.272,41.197],[-95.918,41.528],[-95.668,41.835],[-95.178,42.37],[-95.019,42.575],[-94.119,44.25],[-94.244,44.546],[-94.335,44.637],[-94.688,44.922],[-94.916,45.047],[-95.212,45.241],[-96.135,46.266],[-96.363,46.539],[-96.727,47.462],[-97.012,47.952],[-97.206,48.157],[-97.468,48.328],[-97.969,48.407],[-98.926,48.168],[-99.37,48.168],[-100.418,48.567],[-100.873,48.863],[-101.454,49.205],[-102.81,50.253],[-103.129,50.276],[-103.607,50.515],[-103.892,50.754],[-104.063,51.198],[-104.097,51.711],[-103.823,52.246],[-103.732,52.52],[-103.71,52.93],[-103.789,53.1],[-103.983,53.226],[-104.313,53.26],[-104.598,53.226],[-104.906,53.032],[-105.259,52.873],[-105.76,52.725],[-106.045,52.611],[-106.318,52.44],[-106.421,52.098],[-106.375,51.642],[-106.124,51.255],[-105.498,50.424],[-104.826,49.911],[-104.313,49.592],[-103.88,49.364],[-102.946,48.806],[-102.479,48.407],[-99.996,47.234],[-99.074,46.744],[-98.789,46.46],[-98.766,45.924],[-98.641,45.64],[-98.47,45.435],[-98.117,45.195],[-97.012,44.911],[-96.818,44.797],[-96.636,44.455],[-96.739,44.147],[-96.852,43.897],[-97.057,43.646],[-97.832,42.587],[-98.413,42.291],[-99.062,41.915],[-99.848,41.152],[-100.167,40.947],[-100.816,40.468],[-101.101,39.944],[-101.306,39.603],[-101.636,39.375],[-101.967,39.192],[-102.217,38.93],[-102.343,38.68],[-102.411,38.372],[-102.365,38.122],[-102.206,37.94],[-102.16,37.734],[-102.16,37.598],[-102.331,36.732],[-102.582,36.447],[-102.81,36.14],[-102.924,35.923],[-102.969,35.673],[-102.969,35.331],[-102.901,35.172],[-102.776,34.978],[-102.639,34.807],[-102.616,34.648],[-102.833,34.465],[-103.094,34.431],[-103.653,34.42],[-104.017,34.329],[-104.393,34.101],[-104.587,34.01],[-104.837,33.941],[-105.236,33.941],[-105.468,33.839]]]}},{"type":"Feature","properties":{"density":1},"geometry":{"type":"Polygon","coordinates":[[[-113.832,58.162],[-115.369,58.88],[-116.702,59.623],[-120.034,60.623],[-121.7,60.853],[-122.545,61.084],[-123.647,61.699],[-124.211,62.314],[-124.186,62.775],[-123.622,63.314],[-122.776,63.724],[-121.161,64.467],[-120.162,64.877],[-119.393,65.236],[-116.907,65.697],[-116.087,65.928],[-115.523,66.03],[-113.755,66.081],[-112.063,65.748],[-110.525,65.313],[-109.654,64.979],[-108.757,64.698],[-107.527,64.236],[-106.681,64.134],[-105.81,64.134],[-105.22,64.159],[-104.323,64.39],[-103.503,64.672],[-102.632,65.056],[-102.042,65.236],[-101.273,65.389],[-100.761,65.466],[-99.582,65.415],[-99.069,65.287],[-98.582,64.979],[-97.967,64.851],[-94.789,65.184],[-93.739,65.236],[-93.072,65.133],[-92.329,64.851],[-91.953,64.629],[-91.953,64.236],[-92.38,63.929],[-93.047,63.621],[-93.431,63.416],[-93.969,63.057],[-94.431,62.724],[-94.943,62.442],[-95.131,62.135],[-95.302,61.725],[-95.541,61.246],[-95.849,60.426],[-96.361,59.64],[-96.84,58.726],[-97.224,58.316],[-98.198,57.906],[-99.684,58.085],[-100.376,58.213],[-100.735,58.239],[-101.12,58.213],[-101.427,58.111],[-101.709,57.957],[-102.529,57.137],[-103.196,56.496],[-103.503,56.061],[-103.734,55.343],[-104.093,54.087],[-104.118,53.78],[-104.195,53.241],[-104.4,52.934],[-104.938,52.883],[-105.323,53.421],[-105.63,54.113],[-106.271,54.882],[-106.989,55.522],[-107.604,56.137],[-107.86,56.522],[-108.091,56.906],[-108.578,57.291],[-109.808,57.521],[-110.884,57.598],[-111.653,57.598],[-112.166,57.624],[-113.319,58.008],[-113.832,58.162]]]}},{"type":"Feature","properties":{"density":1},"geometry":{"type":"Polygon","coordinates":[[[-111.784,25.041],[-111.601,24.95],[-111.564,24.906],[-111.561,24.865],[-111.625,24.862],[-111.801,24.95],[-111.858,24.997],[-111.848,25.021],[-111.817,25.037],[-111.784,25.041]]]}},{"type":"Feature","properties":{"density":1},"geometry":{"type":"Polygon","coordinates":[[[-111.814,25.527],[-111.51,25.466],[-111.473,25.419],[-111.48,25.378],[-111.541,25.365],[-111.676,25.405],[-111.811,25.459],[-111.844,25.493],[-111.841,25.513],[-111.814,25.527]]]}},{"type":"Feature","properties":{"density":1},"geometry":{"type":"Polygon","coordinates":[[[-111.912,25.736],[-111.753,25.712],[-111.703,25.665],[-111.763,25.635],[-111.828,25.645],[-111.956,25.689],[-111.963,25.726],[-111.912,25.736]]]}},{"type":"Feature","properties":{"density":1},"geometry":{"type":"Polygon","coordinates":[[[-115.682,31.195],[-115.854,31.118],[-115.905,31.057],[-116.006,31.003],[-116.073,31.03],[-116.114,31.087],[-116.097,31.134],[-116.056,31.165],[-115.739,31.293],[-115.739,31.391],[-115.719,31.404],[-115.689,31.411],[-115.645,31.361],[-115.624,31.253],[-115.648,31.219],[-115.682,31.195]]]}},{"type":"Feature","properties":{"density":1},"geometry":{"type":"Polygon","coordinates":[[[-108.389,29.284],[-108.335,29.338],[-108.217,29.399],[-108.166,29.413],[-108.146,29.389],[-108.156,29.345],[-108.281,29.251],[-108.359,29.234],[-108.392,29.261],[-108.389,29.284]]]}},{"type":"Feature","properties":{"density":1},"geometry":{"type":"Polygon","coordinates":[[[-105.373,22.295],[-105.238,22.325],[-105.13,22.386],[-105.109,22.423],[-105.113,22.45],[-105.238,22.474],[-105.305,22.531],[-105.244,22.619],[-105.14,22.72],[-105.072,22.757],[-104.947,22.774],[-104.944,22.727],[-104.974,22.679],[-104.998,22.541],[-104.961,22.534],[-104.846,22.595],[-104.671,22.75],[-104.448,22.889],[-104.154,22.956],[-104.026,22.963],[-103.969,22.936],[-103.904,22.703],[-103.955,22.565],[-104.019,22.474],[-104.12,22.386],[-104.161,22.325],[-104.39,22.197],[-104.93,21.967],[-105.086,21.917],[-105.153,21.917],[-105.207,21.934],[-105.211,21.974],[-105.18,22.058],[-105.194,22.106],[-105.136,22.17],[-105.055,22.193],[-105.035,22.214],[-105.045,22.264],[-105.143,22.264],[-105.207,22.227],[-105.278,22.21],[-105.386,22.224],[-105.393,22.264],[-105.373,22.295]]]}},{"type":"Feature","properties":{"density":1},"geometry":{"type":"Polygon","coordinates":[[[-105.045,21.896],[-104.833,21.964],[-104.779,21.964],[-104.731,21.944],[-104.941,21.849],[-105.022,21.836],[-105.072,21.863],[-105.045,21.896]]]}},{"type":"Feature","properties":{"density":1},"geometry":{"type":"Polygon","coordinates":[[[-104.542,21.869],[-104.478,21.93],[-104.377,21.988],[-104.279,22.021],[-104.272,21.991],[-104.286,21.964],[-104.387,21.883],[-104.471,21.832],[-104.549,21.826],[-104.542,21.869]]]}},{"type":"Feature","properties":{"density":1},"geometry":{"type":"Polygon","coordinates":[[[-103.341,21.235],[-103.148,21.299],[-103.121,21.299],[-103.108,21.269],[-103.273,21.178],[-103.344,21.184],[-103.341,21.235]]]}},{"type":"Feature","properties":{"density":1},"geometry":{"type":"Polygon","coordinates":[[[-104.279,20.921],[-104.124,20.918],[-104.11,20.877],[-104.161,20.85],[-104.242,20.85],[-104.309,20.884],[-104.279,20.921]]]}},{"type":"Feature","properties":{"density":1},"geometry":{"type":"Polygon","coordinates":[[[-105.076,20.972],[-104.833,20.914],[-104.775,20.857],[-104.809,20.837],[-104.947,20.84],[-105.079,20.918],[-105.082,20.938],[-105.076,20.972]]]}},{"type":"Feature","properties":{"density":1},"geometry":{"type":"Polygon","coordinates":[[[-105.244,20.246],[-105.059,20.239],[-105.015,20.314],[-104.829,20.341],[-104.782,20.317],[-104.687,20.195],[-104.657,20.114],[-104.664,20.013],[-104.752,19.959],[-104.789,19.959],[-104.873,19.993],[-105.055,19.963],[-105.103,19.973],[-105.211,20.094],[-105.261,20.175],[-105.265,20.209],[-105.244,20.246]]]}},{"type":"Feature","properties":{"density":1},"geometry":{"type":"Polygon","coordinates":[[[-104.866,19.659],[-104.735,19.713],[-104.414,19.976],[-104.168,20.087],[-104.087,20.114],[-104.023,20.114],[-103.972,20.087],[-103.911,19.979],[-103.85,19.952],[-103.773,19.831],[-103.577,19.433],[-103.56,19.372],[-103.577,19.237],[-103.722,18.964],[-103.796,18.876],[-103.925,18.771],[-104.083,18.741],[-104.215,18.856],[-104.272,18.879],[-104.33,18.872],[-104.536,18.619],[-104.61,18.582],[-104.691,18.596],[-104.752,18.646],[-104.799,18.721],[-104.822,18.822],[-104.822,19.146],[-104.89,19.456],[-104.9,19.571],[-104.887,19.605],[-104.866,19.659]]]}},{"type":"Feature","properties":{"density":1},"geometry":{"type":"Polygon","coordinates":[[[-102.264,18.118],[-102.244,18.169],[-102.203,18.209],[-102.16,18.216],[-102.16,18.159],[-102.19,18.084],[-102.244,18.084],[-102.264,18.118]]]}},{"type":"Feature","properties":{"density":1},"geometry":{"type":"Polygon","coordinates":[[[-102.453,18.192],[-102.268,18.25],[-102.264,18.223],[-102.284,18.196],[-102.352,18.155],[-102.413,18.145],[-102.453,18.169],[-102.453,18.192]]]}},{"type":"Feature","properties":{"density":1},"geometry":{"type":"Polygon","coordinates":[[[-102.565,18.162],[-102.49,18.23],[-102.433,18.314],[-102.389,18.429],[-102.399,18.456],[-102.443,18.439],[-102.612,18.263],[-102.646,18.203],[-102.635,18.182],[-102.581,18.169],[-102.565,18.162]]]}},{"type":"Feature","properties":{"density":1},"geometry":{"type":"Polygon","coordinates":[[[-103.04,18.365],[-103.108,18.277],[-103.118,18.223],[-103.064,18.118],[-103.246,17.946],[-103.3,17.882],[-103.324,17.821],[-103.317,17.771],[-103.256,17.744],[-103.186,17.757],[-103.111,17.808],[-102.959,18.014],[-102.939,18.142],[-102.956,18.338],[-102.963,18.361],[-103.01,18.381],[-103.04,18.365]]]}},{"type":"Feature","properties":{"density":1},"geometry":{"type":"Polygon","coordinates":[[[-103.361,18.736],[-103.415,18.479],[-103.52,18.547],[-103.601,18.57],[-103.516,18.446],[-103.459,18.402],[-103.405,18.371],[-103.277,18.348],[-103.229,18.381],[-103.202,18.439],[-103.206,18.493],[-103.26,18.668],[-103.348,18.746],[-103.361,18.736]]]}},{"type":"Feature","properties":{"density":1},"geometry":{"type":"Polygon","coordinates":[[[-101.478,17.887],[-101.387,17.998],[-101.301,18.069],[-101.215,18.241],[-101.169,18.282],[-101.032,18.332],[-100.956,18.332],[-100.906,18.312],[-100.921,18.216],[-100.961,18.176],[-101.159,18.054],[-101.21,17.892],[-101.179,17.862],[-101.134,17.862],[-101.037,18.003],[-100.997,18.039],[-100.951,18.039],[-100.936,18.008],[-100.936,17.943],[-100.977,17.887],[-100.987,17.786],[-100.799,17.639],[-100.607,17.558],[-100.577,17.522],[-100.546,17.386],[-100.551,17.279],[-100.607,17.102],[-100.673,16.986],[-100.764,16.915],[-101.037,16.819],[-101.154,16.799],[-101.291,16.864],[-101.326,16.93],[-101.361,17.077],[-101.498,17.279],[-101.559,17.33],[-101.63,17.426],[-101.685,17.517],[-101.711,17.598],[-101.721,17.69],[-101.675,17.796],[-101.625,17.852],[-101.579,17.872],[-101.478,17.887]]]}},{"type":"Feature","properties":{"density":1},"geometry":{"type":"Polygon","coordinates":[[[-98.78,17.31],[-98.871,17.335],[-99.053,17.35],[-99.124,17.335],[-99.276,17.249],[-99.453,16.88],[-99.433,16.637],[-99.357,16.333],[-99.281,16.247],[-99.2,16.206],[-99.033,16.186],[-98.896,16.221],[-98.815,16.272],[-98.764,16.328],[-98.668,16.505],[-98.562,16.626],[-98.491,16.631],[-98.41,16.581],[-98.334,16.596],[-98.192,16.738],[-98.101,17.006],[-98.096,17.112],[-98.111,17.168],[-98.258,17.229],[-98.445,17.234],[-98.678,17.29],[-98.78,17.31]]]}},{"type":"Feature","properties":{"density":1},"geometry":{"type":"Polygon","coordinates":[[[-98.268,16.378],[-98.182,16.444],[-98.005,16.515],[-97.964,16.515],[-97.959,16.459],[-98.116,16.348],[-98.177,16.318],[-98.228,16.318],[-98.268,16.378]]]}},{"type":"Feature","properties":{"density":1},"geometry":{"type":"Polygon","coordinates":[[[-92.936,16.031],[-93.047,16.037],[-93.084,16.017],[-93.104,15.983],[-93.128,15.929],[-93.128,15.886],[-93.091,15.744],[-92.959,15.673],[-92.743,15.632],[-92.571,15.619],[-92.433,15.632],[-92.355,15.69],[-92.288,15.774],[-92.234,15.899],[-92.23,16.017],[-92.348,16.112],[-92.5,16.129],[-92.848,16.064],[-92.936,16.031]]]}},{"type":"Feature","properties":{"density":1},"geometry":{"type":"Polygon","coordinates":[[[-89.994,15.886],[-90.558,15.67],[-90.605,15.595],[-90.551,15.575],[-90.507,15.578],[-90.423,15.609],[-90.194,15.734],[-89.961,15.835],[-89.94,15.872],[-89.994,15.886]]]}},{"type":"Feature","properties":{"density":1},"geometry":{"type":"Polygon","coordinates":[[[-89.755,15.761],[-89.967,15.707],[-90.082,15.656],[-90.237,15.555],[-90.858,15.342],[-90.919,15.308],[-90.943,15.254],[-90.939,15.224],[-90.845,15.187],[-90.757,15.177],[-90.653,15.187],[-90.548,15.224],[-90.406,15.248],[-90.234,15.177],[-90.136,15.17],[-89.866,15.194],[-89.616,15.254],[-89.458,15.352],[-89.377,15.383],[-89.363,15.487],[-89.569,15.497],[-89.627,15.531],[-89.66,15.609],[-89.647,15.724],[-89.687,15.751],[-89.755,15.761]]]}},{"type":"Feature","properties":{"density":1},"geometry":{"type":"Polygon","coordinates":[[[-84.137,14.824],[-84.404,14.855],[-84.542,14.888],[-84.765,14.963],[-84.795,14.99],[-84.988,15.067],[-85.21,15.111],[-85.251,15.152],[-85.234,15.192],[-85.16,15.206],[-84.684,15.182],[-84.566,15.206],[-84.525,15.246],[-84.559,15.297],[-84.815,15.53],[-84.876,15.614],[-84.893,15.671],[-84.863,15.722],[-84.772,15.732],[-84.485,15.614],[-84.171,15.418],[-83.904,15.229],[-83.877,15.189],[-83.894,15.094],[-84.012,14.902],[-84.08,14.838],[-84.137,14.824]]]}},{"type":"Feature","properties":{"density":1},"geometry":{"type":"Polygon","coordinates":[[[-90.454,16.566],[-90.701,16.623],[-90.826,16.671],[-90.954,16.758],[-90.961,16.809],[-90.876,16.833],[-90.637,16.799],[-90.421,16.731],[-90.363,16.684],[-90.356,16.661],[-90.427,16.59],[-90.454,16.566]]]}},{"type":"Feature","properties":{"density":1},"geometry":{"type":"Polygon","coordinates":[[[-88.915,18.868],[-89.01,18.925],[-89.023,18.922],[-88.99,18.861],[-89.006,18.841],[-89.037,18.841],[-89.084,18.871],[-89.216,18.989],[-89.216,19.03],[-89.337,19.151],[-89.341,19.209],[-89.307,19.222],[-89.212,19.195],[-88.996,19.094],[-88.919,19.04],[-88.828,18.932],[-88.817,18.915],[-88.841,18.881],[-88.915,18.868]]]}},{"type":"Feature","properties":{"density":1},"geometry":{"type":"Polygon","coordinates":[[[-88.24,20.64],[-88.463,20.778],[-88.757,20.994],[-89.006,21.22],[-89.023,21.271],[-89.003,21.294],[-88.949,21.284],[-88.406,20.943],[-88.294,20.856],[-88.173,20.704],[-88.18,20.657],[-88.213,20.64],[-88.24,20.64]]]}},{"type":"Feature","properties":{"density":1},"geometry":{"type":"Polygon","coordinates":[[[-89.777,19.545],[-90.388,19.846],[-90.961,20.106],[-91.015,20.143],[-91.056,20.197],[-91.046,20.234],[-90.961,20.231],[-90.843,20.173],[-90.219,19.947],[-89.969,19.839],[-89.888,19.792],[-89.763,19.687],[-89.719,19.586],[-89.746,19.549],[-89.777,19.545]]]}},{"type":"Feature","properties":{"density":1},"geometry":{"type":"Polygon","coordinates":[[[-90.398,17.207],[-90.509,17.21],[-90.573,17.159],[-90.705,17.122],[-90.985,17.142],[-91.079,17.109],[-91.154,17.109],[-91.295,17.166],[-91.457,17.186],[-91.586,17.277],[-91.599,17.392],[-91.545,17.487],[-91.451,17.5],[-91.349,17.537],[-91.339,17.558],[-91.464,17.628],[-91.488,17.693],[-91.525,17.713],[-91.727,17.76],[-91.829,17.814],[-91.849,17.834],[-91.846,17.871],[-91.815,17.915],[-91.765,17.936],[-91.704,17.939],[-91.464,18.013],[-91.39,18.02],[-91.181,17.973],[-90.82,17.834],[-90.651,17.757],[-90.485,17.628],[-90.452,17.551],[-90.452,17.5],[-90.512,17.402],[-90.506,17.365],[-90.361,17.25],[-90.364,17.213],[-90.398,17.207]]]}},{"type":"Feature","properties":{"density":1},"geometry":{"type":"Polygon","coordinates":[[[-91.171,16.991],[-91.353,17.112],[-91.43,17.183],[-91.451,17.234],[-91.312,17.244],[-91.214,17.22],[-91.063,17.126],[-90.988,17.058],[-90.998,16.997],[-91.066,16.974],[-91.117,16.977],[-91.171,16.991]]]}},{"type":"Feature","properties":{"density":1},"geometry":{"type":"Polygon","coordinates":[[[-92.23,18.337],[-92.487,18.354],[-92.642,18.324],[-92.703,18.327],[-92.78,18.374],[-92.959,18.57],[-92.959,18.6],[-92.929,18.658],[-92.821,18.725],[-92.672,18.725],[-92.602,18.705],[-92.382,18.607],[-92.247,18.516],[-92.17,18.425],[-92.173,18.357],[-92.203,18.337],[-92.23,18.337]]]}},{"type":"Feature","properties":{"density":1},"geometry":{"type":"Polygon","coordinates":[[[-90.536,17.909],[-90.57,17.963],[-90.965,18.091],[-91.255,18.209],[-91.559,18.381],[-91.778,18.624],[-91.876,18.762],[-92.065,19.164],[-92.085,19.313],[-92.075,19.461],[-91.943,19.62],[-91.765,19.738],[-91.751,19.988],[-91.704,20.102],[-91.65,20.143],[-91.41,20.129],[-91.198,20.028],[-91.123,19.974],[-90.853,19.853],[-90.347,19.545],[-90.266,19.478],[-90.202,19.37],[-90.172,19.282],[-90.192,19.228],[-90.283,19.184],[-90.35,19.127],[-90.364,18.985],[-90.401,18.904],[-90.502,18.823],[-90.688,18.607],[-90.793,18.553],[-90.836,18.492],[-90.83,18.445],[-90.755,18.384],[-90.391,18.195],[-90.35,18.168],[-90.293,18.087],[-90.313,18.017],[-90.347,17.983],[-90.448,17.936],[-90.536,17.909]]]}},{"type":"Feature","properties":{"density":1},"geometry":{"type":"Polygon","coordinates":[[[-92.957,17.804],[-93.149,17.77],[-93.203,17.74],[-93.223,17.703],[-93.112,17.666],[-92.913,17.679],[-92.856,17.716],[-92.866,17.797],[-92.906,17.804],[-92.957,17.804]]]}},{"type":"Feature","properties":{"density":1},"geometry":{"type":"Polygon","coordinates":[[[-94.168,17.163],[-94.465,17.153],[-94.661,17.176],[-94.762,17.213],[-94.857,17.291],[-94.911,17.355],[-94.921,17.412],[-94.837,17.585],[-94.904,17.753],[-94.762,18.236],[-94.843,18.398],[-94.816,18.509],[-94.793,18.563],[-94.668,18.708],[-94.557,18.769],[-94.445,18.806],[-94.226,18.816],[-94.135,18.803],[-94.01,18.729],[-93.993,18.702],[-93.986,18.631],[-93.993,18.567],[-94.033,18.486],[-94.077,18.209],[-94.06,18.077],[-94.02,18.01],[-93.936,17.973],[-93.814,17.882],[-93.645,17.716],[-93.605,17.632],[-93.591,17.558],[-93.655,17.217],[-93.736,17.055],[-93.797,16.987],[-93.973,16.879],[-94.047,16.852],[-94.121,16.856],[-94.165,16.883],[-94.192,16.926],[-94.189,17.075],[-94.168,17.163]]]}},{"type":"Feature","properties":{"density":1},"geometry":{"type":"Polygon","coordinates":[[[-86.18,17.983],[-85.645,17.402],[-85.303,16.901],[-84.278,16.138],[-83.936,15.807],[-83.743,15.705],[-83.583,15.557],[-83.401,15.283],[-83.332,15.055],[-83.355,14.737],[-84.118,13.392],[-84.266,13.017],[-84.665,12.504],[-85.303,11.969],[-85.793,11.638],[-86.852,11.046],[-87.274,10.784],[-87.911,10.078],[-88.196,9.85],[-89.142,9.406],[-90.144,9.223],[-90.941,9.201],[-91.955,9.212],[-92.912,9.474],[-93.481,9.816],[-94.142,10.089],[-94.609,10.203],[-94.871,10.237],[-95.213,10.408],[-96.956,10.955],[-98.004,11.114],[-98.596,11.148],[-99.291,11.148],[-99.894,11.057],[-100.464,10.921],[-101.113,10.818],[-102.491,10.807],[-104.257,11.422],[-104.827,11.65],[-105.328,11.821],[-106.547,12.333],[-107.754,12.527],[-108.483,12.914],[-108.802,13.176],[-108.996,13.609],[-108.984,14.224],[-108.62,14.68],[-108.46,16.069],[-108.688,16.411],[-108.95,16.741],[-109.36,17.026],[-110.055,17.368],[-111.0,17.801],[-111.661,17.949],[-112.675,17.949],[-114.497,17.778],[-115.784,17.858],[-116.354,18.085],[-116.741,18.575],[-116.673,19.259],[-116.354,19.657],[-115.819,20.033],[-115.033,20.238],[-113.859,20.728],[-112.914,21.149],[-112.276,21.4],[-111.65,21.833],[-111.296,22.334],[-109.432,23.274],[-108.225,23.718],[-107.678,23.786],[-106.949,23.695],[-106.106,23.376],[-105.799,23.183],[-105.263,23.035],[-104.978,23.035],[-104.614,23.0],[-104.261,22.818],[-103.93,22.419],[-103.737,21.747],[-103.475,21.542],[-103.247,21.485],[-102.78,21.485],[-102.416,21.52],[-101.14,22.556],[-100.809,23.114],[-100.707,23.581],[-100.684,23.912],[-100.707,24.458],[-100.946,25.37],[-101.071,25.939],[-101.026,26.201],[-100.496,26.594],[-99.232,27.021],[-98.788,27.295],[-97.216,28.576],[-96.31,28.952],[-95.08,29.345],[-94.26,29.499],[-90.125,30.182],[-88.109,31.122],[-87.477,31.31],[-86.674,31.412],[-85.051,31.293],[-84.384,31.071],[-84.179,30.9],[-83.855,30.233],[-83.53,30.097],[-82.522,29.943],[-81.531,29.977],[-80.403,30.421],[-79.668,30.592],[-79.446,30.575],[-79.241,30.404],[-79.156,30.233],[-78.985,29.43],[-78.985,29.089],[-79.224,28.269],[-79.566,28.029],[-79.822,27.722],[-80.318,27.38],[-80.899,26.799],[-81.001,26.287],[-81.052,25.791],[-81.223,25.33],[-81.633,24.92],[-82.043,24.732],[-82.676,24.663],[-83.052,24.956],[-83.576,25.24],[-83.906,25.491],[-84.248,25.725],[-84.829,25.981],[-85.239,26.066],[-85.666,26.118],[-86.111,26.305],[-86.691,26.391],[-87.187,26.408],[-87.699,26.577],[-88.143,26.697],[-88.468,26.765],[-88.861,26.816],[-89.271,26.731],[-89.664,26.389],[-89.732,26.013],[-89.681,25.689],[-89.425,25.33],[-89.066,24.988],[-88.553,24.544],[-88.16,24.236],[-87.921,23.98],[-87.613,23.604],[-87.135,22.34],[-87.118,21.998],[-87.22,21.622],[-87.323,21.144],[-87.408,20.597],[-87.272,19.879],[-87.015,19.298],[-86.657,18.7],[-86.469,18.427],[-86.18,17.983]]]}},{"type":"Feature","properties":{"density":1},"geometry":{"type":"Polygon","coordinates":[[[-81.295,22.885],[-81.432,22.987],[-81.693,23.113],[-81.876,23.113],[-82.411,23.056],[-82.89,23.044],[-83.117,23.135],[-83.345,23.283],[-83.71,23.933],[-83.824,24.263],[-83.915,24.422],[-84.029,24.525],[-84.256,24.616],[-84.359,24.628],[-84.53,24.616],[-84.609,24.491],[-84.518,24.4],[-84.199,24.217],[-83.994,23.785],[-83.937,23.523],[-83.812,23.226],[-83.664,23.067],[-83.151,22.851],[-82.719,22.771],[-82.411,22.748],[-82.092,22.771],[-81.58,22.771],[-81.466,22.737],[-81.272,22.611],[-81.192,22.634],[-81.295,22.885]]]}},{"type":"Feature","properties":{"density":2},"geometry":{"type":"Polygon","coordinates":[[[-112.317,60.626],[-112.564,60.449],[-112.658,60.396],[-112.819,60.335],[-112.963,60.313],[-113.15,60.334],[-113.181,60.381],[-113.103,60.456],[-113.081,60.541],[-113.142,60.666],[-113.256,60.684],[-113.392,60.772],[-113.485,60.853],[-113.555,60.953],[-113.725,61.118],[-113.72,61.306],[-113.559,61.455],[-113.328,61.488],[-113.213,61.5],[-113.071,61.466],[-112.59,61.461],[-112.28,61.475],[-111.901,61.372],[-111.606,61.27],[-111.235,61.108],[-110.841,60.974],[-110.395,60.866],[-109.577,61.036],[-109.285,61.241],[-108.117,61.771],[-107.912,61.952],[-107.198,62.65],[-106.963,62.818],[-106.005,63.234],[-105.172,63.353],[-104.391,63.353],[-104.034,63.234],[-103.32,62.928],[-102.896,62.809],[-102.182,62.911],[-101.825,63.081],[-101.418,63.132],[-100.687,63.149],[-100.67,63.047],[-101.163,62.64],[-101.893,62.266],[-102.675,61.79],[-104.119,60.992],[-104.985,60.669],[-105.648,60.567],[-106.293,60.499],[-106.429,60.686],[-106.378,60.958],[-106.191,61.161],[-106.157,61.229],[-106.599,61.263],[-108.145,60.72],[-109.266,60.346],[-110.286,60.244],[-111.016,60.21],[-111.951,60.465],[-112.172,60.601],[-112.317,60.626]]]}},{"type":"Feature","properties":{"density":2},"geometry":{"type":"Polygon","coordinates":[[[-118.458,44.124],[-118.479,44.136],[-118.48,44.17],[-118.374,44.182],[-118.34,44.171],[-118.284,44.077],[-118.318,44.066],[-118.36,44.121],[-118.445,44.125],[-118.458,44.124]]]}},{"type":"Feature","properties":{"density":2},"geometry":{"type":"Polygon","coordinates":[[[-115.876,44.088],[-115.871,44.057],[-115.889,44.048],[-115.944,44.071],[-115.932,44.096],[-115.879,44.092],[-115.876,44.088]]]}},{"type":"Feature","properties":{"density":2},"geometry":{"type":"Polygon","coordinates":[[[-105.031,33.57],[-105.255,33.558],[-105.391,33.574],[-105.463,33.599],[-105.479,33.667],[-105.4,33.715],[-105.305,33.724],[-104.809,33.854],[-104.462,33.979],[-104.188,34.026],[-103.924,34.1],[-103.711,34.122],[-103.496,34.124],[-103.164,34.188],[-102.73,34.297],[-102.431,34.325],[-101.773,34.245],[-101.206,34.136],[-101.054,34.121],[-100.733,34.121],[-100.561,34.193],[-100.021,34.303],[-99.821,34.229],[-99.472,34.26],[-99.022,34.258],[-98.527,34.301],[-97.44,34.28],[-96.962,34.246],[-96.589,34.135],[-96.282,34.006],[-95.891,33.904],[-96.172,33.441],[-96.365,33.179],[-97.072,32.863],[-98.518,32.81],[-99.376,32.936],[-99.726,33.095],[-100.518,33.325],[-100.882,33.355],[-101.451,33.167],[-101.97,33.055],[-102.34,33.061],[-103.191,33.251],[-103.581,33.374],[-104.158,33.512],[-104.424,33.512],[-104.925,33.55],[-105.031,33.57]]]}},{"type":"Feature","properties":{"density":2},"geometry":{"type":"Polygon","coordinates":[[[-95.243,25.059],[-94.205,22.406],[-93.859,21.291],[-93.859,20.715],[-93.763,20.1],[-93.532,19.638],[-93.321,19.081],[-92.956,18.716],[-92.341,18.62],[-91.61,18.62],[-91.149,18.543],[-90.572,17.889],[-89.803,17.255],[-89.265,17.12],[-88.746,17.101],[-88.285,16.986],[-87.497,16.332],[-87.305,15.909],[-87.343,15.121],[-87.747,14.448],[-88.362,13.949],[-89.323,13.449],[-90.707,13.161],[-91.591,13.084],[-92.475,13.141],[-93.167,13.41],[-93.629,13.737],[-94.032,14.391],[-94.436,14.91],[-95.023,15.197],[-96.509,15.479],[-97.368,16.274],[-98.265,17.209],[-98.675,17.671],[-98.739,18.286],[-98.393,19.093],[-98.265,20.054],[-98.713,21.182],[-99.008,22.13],[-99.457,22.784],[-99.803,23.719],[-99.764,24.257],[-99.252,24.936],[-98.329,25.41],[-97.189,26.077],[-96.704,26.52],[-96.473,26.808],[-96.031,26.923],[-95.781,26.827],[-95.435,26.058],[-95.397,25.539],[-95.243,25.059]]]}},{"type":"Feature","properties":{"density":2},"geometry":{"type":"Polygon","coordinates":[[[-105.429,33.61],[-105.449,33.645],[-105.361,33.684],[-104.733,33.814],[-104.65,33.788],[-104.648,33.772],[-104.672,33.757],[-104.968,33.724],[-105.381,33.619],[-105.413,33.623],[-105.429,33.61]]]}},{"type":"Feature","properties":{"density":2},"geometry":{"type":"Polygon","coordinates":[[[-118.47,44.133],[-118.54,44.175],[-118.509,44.194],[-118.395,44.186],[-118.322,44.096],[-118.397,44.148],[-118.443,44.139],[-118.47,44.133]]]}},{"type":"Feature","properties":{"density":2},"geometry":{"type":"Polygon","coordinates":[[[-111.693,60.914],[-111.542,60.889],[-111.214,60.752],[-111.112,60.757],[-111.049,60.807],[-110.715,61.253],[-110.74,61.278],[-110.886,61.3],[-111.17,61.396],[-111.451,61.452],[-111.597,61.501],[-112.046,61.576],[-112.213,61.656],[-112.337,61.749],[-112.734,61.948],[-112.988,62.01],[-113.106,61.997],[-113.174,61.972],[-113.217,61.935],[-113.304,61.743],[-113.341,61.458],[-113.335,61.173],[-113.31,61.061],[-113.279,61.024],[-113.217,61.011],[-113.124,61.03],[-113.007,60.931],[-112.94,60.819],[-112.895,60.679],[-112.932,60.608],[-112.945,60.534],[-113.099,60.49],[-113.143,60.459],[-113.184,60.377],[-113.184,60.352],[-113.162,60.333],[-112.989,60.313],[-112.702,60.327],[-112.539,60.382],[-112.446,60.462],[-112.382,60.575],[-112.388,60.647],[-112.498,60.71],[-112.523,60.741],[-112.515,60.787],[-112.429,60.845],[-112.432,60.967],[-112.382,60.989],[-112.225,61.022],[-112.035,61.03],[-111.908,61.008],[-111.749,60.928],[-111.693,60.914]]]}},{"type":"Feature","properties":{"density":2},"geometry":{"type":"Polygon","coordinates":[[[-103.819,62.124],[-104.832,61.566],[-105.037,61.492],[-105.139,61.371],[-105.093,61.334],[-104.814,61.306],[-104.451,61.306],[-103.558,61.445],[-103.103,61.538],[-102.768,61.65],[-102.452,61.687],[-102.163,61.789],[-101.838,61.929],[-101.549,62.096],[-101.345,62.236],[-101.15,62.385],[-101.019,62.617],[-101.001,62.794],[-101.112,62.896],[-101.577,62.803],[-101.987,62.608],[-102.2,62.403],[-102.396,62.273],[-102.6,62.227],[-102.889,62.208],[-103.131,62.264],[-103.475,62.282],[-103.726,62.189],[-103.819,62.124]]]}},{"type":"Feature","properties":{"density":2},"geometry":{"type":"Polygon","coordinates":[[[-104.728,19.592],[-104.825,19.664],[-104.844,19.7],[-104.811,19.694],[-104.742,19.645],[-104.712,19.592],[-104.728,19.584],[-104.728,19.592]]]}},{"type":"Feature","properties":{"density":2},"geometry":{"type":"Polygon","coordinates":[[[-104.296,20.918],[-104.241,20.95],[-104.19,20.948],[-104.199,20.917],[-104.287,20.891],[-104.3,20.904],[-104.296,20.918]]]}},{"type":"Feature","properties":{"density":2},"geometry":{"type":"Polygon","coordinates":[[[-98.774,16.908],[-98.884,16.902],[-98.907,16.872],[-98.964,16.75],[-98.978,16.668],[-98.962,16.648],[-98.94,16.646],[-98.898,16.682],[-98.884,16.772],[-98.771,16.825],[-98.752,16.852],[-98.758,16.894],[-98.774,16.908]]]}},{"type":"Feature","properties":{"density":2},"geometry":{"type":"Polygon","coordinates":[[[-92.651,15.998],[-92.706,16.017],[-92.743,16.077],[-92.71,16.081],[-92.671,16.061],[-92.644,16.026],[-92.656,16.0],[-92.651,15.998]]]}},{"type":"Feature","properties":{"density":2},"geometry":{"type":"Polygon","coordinates":[[[-90.782,18.715],[-90.851,18.758],[-90.914,18.849],[-90.844,18.8],[-90.771,18.708],[-90.782,18.715]]]}},{"type":"Feature","properties":{"density":2},"geometry":{"type":"Polygon","coordinates":[[[-90.787,19.107],[-90.866,19.16],[-90.894,19.231],[-90.817,19.178],[-90.772,19.121],[-90.774,19.096],[-90.787,19.107]]]}},{"type":"Feature","properties":{"density":2},"geometry":{"type":"Polygon","coordinates":[[[-90.549,17.915],[-90.805,18.09],[-90.819,18.112],[-90.814,18.158],[-90.775,18.145],[-90.531,17.972],[-90.511,17.939],[-90.533,17.912],[-90.549,17.915]]]}},{"type":"Feature","properties":{"density":2},"geometry":{"type":"Polygon","coordinates":[[[-93.843,17.517],[-93.86,17.629],[-93.85,17.741],[-93.874,17.803],[-93.867,17.846],[-93.838,17.873],[-93.79,17.763],[-93.788,17.682],[-93.764,17.601],[-93.764,17.535],[-93.799,17.491],[-93.804,17.434],[-93.83,17.502],[-93.843,17.517]]]}},{"type":"Feature","properties":{"density":2},"geometry":{"type":"Polygon","coordinates":[[[-95.603,18.177],[-95.656,18.214],[-95.656,18.241],[-95.605,18.217],[-95.597,18.177],[-95.603,18.177]]]}},{"type":"Feature","properties":{"density":2},"geometry":{"type":"Polygon","coordinates":[[[-81.232,27.705],[-81.407,27.842],[-81.461,27.847],[-81.457,27.813],[-81.308,27.653],[-81.245,27.658],[-81.23,27.689],[-81.232,27.705]]]}},{"type":"Feature","properties":{"density":2},"geometry":{"type":"Polygon","coordinates":[[[-105.432,33.659],[-104.926,33.777],[-104.794,33.858],[-104.693,33.892],[-104.652,33.892],[-104.629,33.868],[-104.645,33.817],[-104.679,33.777],[-105.32,33.628],[-105.408,33.615],[-105.452,33.638],[-105.432,33.659]]]}},{"type":"Feature","properties":{"density":2},"geometry":{"type":"Polygon","coordinates":[[[-113.137,60.336],[-113.201,60.386],[-113.197,60.447],[-113.255,60.491],[-113.251,60.609],[-113.224,60.646],[-113.147,60.653],[-113.062,60.596],[-112.985,60.491],[-112.988,60.4],[-113.039,60.353],[-113.127,60.336],[-113.137,60.336]]]}},{"type":"Feature","properties":{"density":2},"geometry":{"type":"Polygon","coordinates":[[[-104.241,61.867],[-103.429,61.905],[-103.094,61.951],[-102.464,62.148],[-102.069,62.216],[-101.143,62.475],[-100.201,62.475],[-100.163,62.406],[-100.163,62.361],[-100.277,62.27],[-101.128,62.133],[-101.72,61.966],[-102.532,61.677],[-103.208,61.548],[-103.649,61.51],[-104.401,61.51],[-104.59,61.518],[-104.651,61.548],[-104.651,61.624],[-104.613,61.677],[-104.363,61.784],[-104.241,61.867]]]}},{"type":"Feature","properties":{"density":2},"geometry":{"type":"Polygon","coordinates":[[[-104.804,19.643],[-104.765,19.67],[-104.725,19.661],[-104.693,19.589],[-104.732,19.544],[-104.786,19.544],[-104.806,19.604],[-104.804,19.643]]]}},{"type":"Feature","properties":{"density":2},"geometry":{"type":"Polygon","coordinates":[[[-98.817,16.938],[-98.882,16.864],[-98.923,16.72],[-98.927,16.535],[-98.77,16.691],[-98.752,16.742],[-98.74,16.877],[-98.794,16.936],[-98.817,16.938]]]}},{"type":"Feature","properties":{"density":2},"geometry":{"type":"Polygon","coordinates":[[[-92.729,15.986],[-92.727,16.036],[-92.68,16.101],[-92.522,16.081],[-92.515,16.015],[-92.545,15.982],[-92.594,15.966],[-92.682,15.966],[-92.729,15.986]]]}},{"type":"Feature","properties":{"density":2},"geometry":{"type":"Polygon","coordinates":[[[-89.738,15.722],[-89.783,15.71],[-89.77,15.677],[-89.736,15.659],[-89.702,15.663],[-89.696,15.677],[-89.714,15.717],[-89.738,15.722]]]}},{"type":"Feature","properties":{"density":2},"geometry":{"type":"Polygon","coordinates":[[[-91.089,17.097],[-91.262,17.201],[-91.341,17.203],[-91.294,17.149],[-91.13,17.075],[-91.089,17.07],[-91.089,17.097]]]}},{"type":"Feature","properties":{"density":2},"geometry":{"type":"Polygon","coordinates":[[[-93.826,17.479],[-94.01,17.585],[-94.037,17.612],[-94.055,17.704],[-94.03,17.774],[-93.895,17.95],[-93.864,17.95],[-93.817,17.907],[-93.794,17.824],[-93.808,17.684],[-93.781,17.536],[-93.805,17.497],[-93.826,17.479]]]}},{"type":"Feature","properties":{"density":2},"geometry":{"type":"Polygon","coordinates":[[[-81.284,27.636],[-81.341,27.704],[-81.412,27.842],[-81.435,27.953],[-81.429,27.987],[-81.371,28.031],[-81.314,28.055],[-81.213,28.051],[-81.169,28.017],[-81.135,27.943],[-81.125,27.727],[-81.145,27.683],[-81.186,27.646],[-81.263,27.616],[-81.284,27.636]]]}},{"type":"Feature","properties":{"density":2},"geometry":{"type":"Polygon","coordinates":[[[-116.448,43.335],[-116.215,43.376],[-116.023,43.432],[-115.992,43.432],[-115.987,43.416],[-116.038,43.386],[-116.331,43.3],[-116.448,43.305],[-116.448,43.335]]]}},{"type":"Feature","properties":{"density":2},"geometry":{"type":"Polygon","coordinates":[[[-119.327,46.167],[-119.104,46.12],[-119.023,46.086],[-118.917,46.165],[-118.888,46.248],[-118.897,46.266],[-118.971,46.275],[-119.325,46.183],[-119.327,46.167]]]}},{"type":"Feature","properties":{"density":2},"geometry":{"type":"Polygon","coordinates":[[[-123.163,39.696],[-123.2,39.754],[-123.176,39.788],[-123.142,39.788],[-123.109,39.754],[-123.112,39.72],[-123.149,39.7],[-123.163,39.696]]]}},{"type":"Feature","properties":{"density":2},"geometry":{"type":"Polygon","coordinates":[[[-103.664,34.994],[-103.689,35.024],[-103.664,35.156],[-103.613,35.186],[-103.598,35.049],[-103.654,34.968],[-103.664,34.994]]]}},{"type":"Feature","properties":{"density":2},"geometry":{"type":"Polygon","coordinates":[[[-113.054,60.335],[-112.895,60.403],[-112.724,60.563],[-112.667,60.711],[-112.405,61.212],[-112.154,61.394],[-111.881,61.542],[-111.585,61.645],[-111.129,61.747],[-110.765,61.759],[-110.058,61.747],[-109.888,61.873],[-109.876,62.032],[-110.024,62.26],[-110.32,62.397],[-110.708,62.397],[-111.539,62.123],[-111.813,62.066],[-112.12,61.964],[-112.587,61.679],[-112.747,61.531],[-112.883,61.326],[-113.123,60.882],[-113.225,60.54],[-113.191,60.358],[-113.145,60.346],[-113.054,60.335]]]}},{"type":"Feature","properties":{"density":2},"geometry":{"type":"Polygon","coordinates":[[[-96.011,63.963],[-95.84,63.877],[-95.789,63.792],[-95.789,63.672],[-95.926,63.519],[-96.301,63.433],[-96.729,63.296],[-98.335,62.921],[-99.445,62.562],[-100.112,62.305],[-100.744,62.1],[-101.837,61.707],[-103.478,61.571],[-104.571,61.417],[-105.87,61.417],[-106.177,61.554],[-106.331,61.81],[-106.194,61.93],[-105.904,61.947],[-105.152,62.049],[-104.058,62.152],[-102.589,62.408],[-102.128,62.511],[-100.983,62.835],[-100.47,63.057],[-99.941,63.228],[-98.095,63.484],[-97.19,63.536],[-96.216,63.86],[-96.011,63.963]]]}},{"type":"Feature","properties":{"density":2},"geometry":{"type":"Polygon","coordinates":[[[-104.954,22.382],[-104.836,22.413],[-104.681,22.484],[-104.62,22.598],[-104.586,22.639],[-104.539,22.663],[-104.488,22.652],[-104.461,22.565],[-104.411,22.477],[-104.363,22.318],[-104.367,22.281],[-104.515,22.187],[-104.549,22.197],[-104.549,22.335],[-104.563,22.379],[-104.65,22.386],[-104.887,22.322],[-104.947,22.322],[-104.971,22.369],[-104.954,22.382]]]}},{"type":"Feature","properties":{"density":2},"geometry":{"type":"Polygon","coordinates":[[[-105.015,22.163],[-104.897,22.197],[-104.897,22.177],[-104.968,22.15],[-105.011,22.156],[-105.015,22.163]]]}},{"type":"Feature","properties":{"density":2},"geometry":{"type":"Polygon","coordinates":[[[-105.099,21.964],[-105.008,22.018],[-104.971,22.021],[-104.988,21.974],[-105.045,21.944],[-105.092,21.94],[-105.099,21.964]]]}},{"type":"Feature","properties":{"density":2},"geometry":{"type":"Polygon","coordinates":[[[-105.167,20.239],[-105.116,20.233],[-105.062,20.192],[-104.934,20.219],[-104.876,20.165],[-104.758,20.179],[-104.738,20.125],[-104.792,20.091],[-104.914,20.084],[-104.971,20.131],[-105.055,20.125],[-105.113,20.162],[-105.184,20.182],[-105.207,20.202],[-105.194,20.226],[-105.167,20.239]]]}},{"type":"Feature","properties":{"density":2},"geometry":{"type":"Polygon","coordinates":[[[-104.779,19.659],[-104.657,19.73],[-104.458,19.807],[-104.39,19.801],[-104.35,19.763],[-104.347,19.733],[-104.374,19.693],[-104.36,19.615],[-104.407,19.473],[-104.438,19.446],[-104.536,19.416],[-104.566,19.382],[-104.579,19.345],[-104.576,19.217],[-104.583,19.18],[-104.606,19.166],[-104.633,19.176],[-104.664,19.247],[-104.644,19.379],[-104.61,19.47],[-104.617,19.598],[-104.657,19.615],[-104.812,19.595],[-104.802,19.639],[-104.779,19.659]]]}},{"type":"Feature","properties":{"density":2},"geometry":{"type":"Polygon","coordinates":[[[-101.589,17.857],[-101.427,17.791],[-101.372,17.791],[-101.321,17.755],[-101.331,17.695],[-101.544,17.735],[-101.62,17.786],[-101.62,17.826],[-101.589,17.857]]]}},{"type":"Feature","properties":{"density":2},"geometry":{"type":"Polygon","coordinates":[[[-101.225,17.659],[-101.073,17.684],[-100.936,17.629],[-100.901,17.578],[-100.855,17.502],[-100.845,17.452],[-100.86,17.3],[-100.911,17.193],[-101.017,17.153],[-101.113,17.254],[-101.149,17.32],[-101.194,17.482],[-101.169,17.522],[-101.169,17.558],[-101.23,17.629],[-101.225,17.659]]]}},{"type":"Feature","properties":{"density":2},"geometry":{"type":"Polygon","coordinates":[[[-98.926,17.026],[-98.85,17.178],[-98.82,17.183],[-98.699,16.94],[-98.719,16.869],[-98.704,16.814],[-98.724,16.743],[-98.693,16.606],[-98.693,16.495],[-98.704,16.378],[-98.749,16.348],[-98.957,16.297],[-99.129,16.358],[-99.24,16.51],[-99.266,16.611],[-99.25,16.652],[-99.205,16.637],[-99.058,16.642],[-98.911,16.697],[-98.881,16.738],[-98.876,16.839],[-98.916,16.915],[-98.921,16.971],[-98.926,17.026]]]}},{"type":"Feature","properties":{"density":2},"geometry":{"type":"Polygon","coordinates":[[[-93.023,15.994],[-93.05,15.994],[-93.044,15.946],[-92.929,15.848],[-92.915,15.865],[-92.939,15.926],[-92.996,15.983],[-93.023,15.994]]]}},{"type":"Feature","properties":{"density":2},"geometry":{"type":"Polygon","coordinates":[[[-92.662,16.031],[-92.689,16.021],[-92.699,15.99],[-92.689,15.919],[-92.554,15.892],[-92.531,15.909],[-92.527,15.95],[-92.554,15.994],[-92.598,16.017],[-92.662,16.031]]]}},{"type":"Feature","properties":{"density":2},"geometry":{"type":"Polygon","coordinates":[[[-89.751,15.724],[-89.957,15.612],[-90.015,15.568],[-90.045,15.518],[-90.011,15.508],[-89.849,15.558],[-89.758,15.622],[-89.714,15.697],[-89.751,15.724]]]}},{"type":"Feature","properties":{"density":2},"geometry":{"type":"Polygon","coordinates":[[[-89.613,15.389],[-89.684,15.359],[-89.89,15.335],[-89.94,15.319],[-89.94,15.305],[-89.792,15.308],[-89.735,15.332],[-89.66,15.335],[-89.6,15.369],[-89.613,15.389]]]}},{"type":"Feature","properties":{"density":2},"geometry":{"type":"Polygon","coordinates":[[[-84.157,15.017],[-84.566,15.094],[-84.549,15.074],[-84.38,15.02],[-84.164,14.996],[-84.157,15.017]]]}},{"type":"Feature","properties":{"density":2},"geometry":{"type":"Polygon","coordinates":[[[-90.437,16.701],[-90.535,16.715],[-90.562,16.698],[-90.569,16.667],[-90.491,16.627],[-90.437,16.634],[-90.407,16.667],[-90.437,16.701]]]}},{"type":"Feature","properties":{"density":2},"geometry":{"type":"Polygon","coordinates":[[[-88.868,18.925],[-88.959,18.999],[-89.01,19.02],[-89.01,18.989],[-88.979,18.962],[-88.902,18.905],[-88.868,18.905],[-88.868,18.925]]]}},{"type":"Feature","properties":{"density":2},"geometry":{"type":"Polygon","coordinates":[[[-90.617,17.321],[-90.718,17.321],[-90.857,17.288],[-91.16,17.362],[-91.218,17.362],[-91.282,17.335],[-91.282,17.315],[-91.133,17.301],[-90.86,17.23],[-90.668,17.24],[-90.61,17.274],[-90.617,17.321]]]}},{"type":"Feature","properties":{"density":2},"geometry":{"type":"Polygon","coordinates":[[[-90.573,17.628],[-90.698,17.608],[-90.806,17.612],[-90.853,17.601],[-90.87,17.574],[-90.769,17.551],[-90.658,17.558],[-90.55,17.615],[-90.573,17.628]]]}},{"type":"Feature","properties":{"density":2},"geometry":{"type":"Polygon","coordinates":[[[-90.887,18.735],[-91.231,18.874],[-91.383,18.968],[-91.525,19.097],[-91.518,19.167],[-91.447,19.164],[-91.1,18.975],[-91.015,18.975],[-90.992,19.019],[-91.005,19.117],[-91.056,19.184],[-91.316,19.356],[-91.316,19.424],[-91.265,19.464],[-91.144,19.4],[-90.968,19.275],[-90.725,19.164],[-90.668,19.113],[-90.654,19.056],[-90.701,19.009],[-90.82,18.945],[-90.843,18.918],[-90.853,18.877],[-90.809,18.742],[-90.84,18.722],[-90.887,18.735]]]}},{"type":"Feature","properties":{"density":2},"geometry":{"type":"Polygon","coordinates":[[[-92.926,17.774],[-93.034,17.75],[-93.038,17.736],[-92.94,17.73],[-92.916,17.743],[-92.926,17.774]]]}},{"type":"Feature","properties":{"density":2},"geometry":{"type":"Polygon","coordinates":[[[-93.781,17.565],[-93.858,17.61],[-93.934,17.691],[-93.97,17.786],[-93.946,17.97],[-93.986,18.067],[-94.083,18.108],[-94.285,18.117],[-94.384,18.069],[-94.407,18.022],[-94.398,17.979],[-94.33,17.878],[-94.348,17.723],[-94.274,17.651],[-94.355,17.57],[-94.378,17.518],[-94.38,17.471],[-94.339,17.392],[-94.27,17.361],[-94.042,17.356],[-93.829,17.421],[-93.759,17.52],[-93.781,17.565]]]}},{"type":"Feature","properties":{"density":2},"geometry":{"type":"Polygon","coordinates":[[[-87.205,17.338],[-87.034,17.178],[-86.989,17.064],[-86.977,16.894],[-86.92,16.711],[-86.772,16.427],[-86.522,16.233],[-86.34,16.187],[-85.679,16.199],[-85.542,16.176],[-85.417,16.13],[-85.144,15.937],[-84.631,15.755],[-84.392,15.618],[-84.369,15.447],[-84.437,15.31],[-84.574,15.242],[-84.939,15.014],[-85.884,14.593],[-86.191,14.524],[-86.875,14.183],[-87.444,13.83],[-87.718,13.602],[-88.185,13.055],[-88.697,12.554],[-89.062,12.36],[-89.142,12.269],[-89.381,11.756],[-89.495,11.597],[-90.019,11.392],[-90.406,11.381],[-90.668,11.54],[-90.987,12.064],[-91.124,12.565],[-91.42,12.702],[-92.582,13.009],[-93.003,13.237],[-93.094,13.397],[-93.174,13.693],[-93.242,13.864],[-93.39,14.035],[-93.607,14.354],[-93.732,14.729],[-93.846,14.946],[-94.017,15.379],[-94.062,15.55],[-94.575,16.199],[-94.643,16.381],[-94.643,16.802],[-94.803,16.962],[-95.065,17.11],[-95.315,17.167],[-95.93,17.361],[-96.227,17.486],[-96.375,17.6],[-96.625,17.93],[-97.013,19.138],[-97.275,19.787],[-97.502,20.197],[-98.004,20.994],[-98.072,21.188],[-98.174,21.894],[-98.061,22.133],[-97.787,22.475],[-97.48,22.794],[-97.104,23.079],[-96.921,23.819],[-96.716,24.184],[-96.523,24.4],[-96.192,24.56],[-95.737,24.651],[-95.532,24.776],[-95.167,25.118],[-94.996,25.3],[-94.655,25.55],[-92.969,26.086],[-92.73,26.336],[-92.285,26.279],[-91.944,26.086],[-91.75,25.904],[-91.511,25.573],[-91.101,24.651],[-91.01,24.354],[-91.089,23.785],[-91.283,23.42],[-91.739,23.067],[-91.955,22.988],[-92.137,22.862],[-92.274,22.669],[-92.365,22.407],[-92.832,22.019],[-92.969,21.541],[-92.992,21.188],[-92.866,20.755],[-92.764,20.504],[-92.718,20.334],[-92.696,19.149],[-92.513,18.921],[-92.422,18.762],[-92.115,18.579],[-91.898,18.522],[-91.5,18.796],[-91.431,19.012],[-91.294,19.206],[-90.964,19.388],[-90.759,19.457],[-90.588,19.4],[-90.554,19.183],[-90.554,19.001],[-90.657,18.83],[-90.782,18.693],[-90.839,18.557],[-90.531,18.329],[-90.36,18.147],[-90.383,18.01],[-90.463,17.793],[-90.417,17.588],[-90.736,17.121],[-91.158,17.053],[-91.397,17.053],[-91.613,17.235],[-91.716,17.418],[-91.921,17.554],[-92.092,17.531],[-92.24,17.44],[-92.331,17.281],[-92.354,17.042],[-92.263,16.632],[-92.103,16.381],[-91.921,16.256],[-91.762,16.176],[-91.454,16.096],[-91.238,16.085],[-90.976,16.187],[-90.406,16.575],[-89.825,17.008],[-89.472,17.577],[-89.324,17.873],[-89.073,18.101],[-88.709,18.488],[-88.322,18.431],[-88.139,18.238],[-87.741,17.896],[-87.558,17.702],[-87.205,17.338]]]}},{"type":"Feature","properties":{"density":3},"geometry":{"type":"Polygon","coordinates":[[[-113.132,60.35],[-112.971,60.343],[-112.741,60.384],[-112.589,60.463],[-112.392,60.601],[-112.362,60.641],[-112.365,60.663],[-112.455,60.683],[-112.705,60.616],[-112.836,60.528],[-113.132,60.383],[-113.147,60.356],[-113.132,60.35]]]}},{"type":"Feature","properties":{"density":3},"geometry":{"type":"Polygon","coordinates":[[[-105.447,33.63],[-105.444,33.666],[-105.407,33.692],[-105.301,33.694],[-104.907,33.776],[-104.829,33.768],[-104.784,33.746],[-104.804,33.694],[-104.831,33.677],[-104.884,33.645],[-105.011,33.606],[-105.169,33.59],[-105.441,33.626],[-105.447,33.63]]]}},{"type":"Feature","properties":{"density":3},"geometry":{"type":"Polygon","coordinates":[[[-113.151,60.38],[-113.085,60.409],[-113.056,60.459],[-113.027,60.405],[-112.953,60.455],[-112.916,60.455],[-112.895,60.418],[-112.721,60.401],[-112.746,60.364],[-112.899,60.339],[-113.064,60.36],[-113.155,60.356],[-113.159,60.372],[-113.151,60.38]]]}},{"type":"Feature","properties":{"density":3},"geometry":{"type":"Polygon","coordinates":[[[-98.832,16.888],[-98.851,16.872],[-98.851,16.841],[-98.81,16.844],[-98.796,16.885],[-98.832,16.888]]]}},{"type":"Feature","properties":{"density":3},"geometry":{"type":"Polygon","coordinates":[[[-93.834,17.517],[-93.847,17.607],[-93.839,17.702],[-93.814,17.713],[-93.797,17.539],[-93.799,17.521],[-93.819,17.515],[-93.834,17.517]]]}},{"type":"Feature","properties":{"density":3},"geometry":{"type":"Polygon","coordinates":[[[-98.799,16.902],[-98.761,16.85],[-98.76,16.799],[-98.781,16.776],[-98.797,16.785],[-98.83,16.907],[-98.799,16.902]]]}},{"type":"Feature","properties":{"density":3},"geometry":{"type":"Polygon","coordinates":[[[-93.832,17.497],[-93.981,17.578],[-94.033,17.635],[-94.021,17.659],[-93.904,17.689],[-93.882,17.761],[-93.864,17.792],[-93.841,17.799],[-93.837,17.621],[-93.81,17.529],[-93.819,17.497],[-93.832,17.497]]]}},{"type":"Feature","properties":{"density":3},"geometry":{"type":"Polygon","coordinates":[[[-98.835,16.895],[-98.845,16.728],[-98.805,16.768],[-98.769,16.88],[-98.8,16.92],[-98.835,16.895]]]}},{"type":"Feature","properties":{"density":3},"geometry":{"type":"Polygon","coordinates":[[[-93.84,17.527],[-93.948,17.5],[-94.245,17.489],[-94.249,17.451],[-94.211,17.421],[-94.157,17.412],[-94.144,17.43],[-94.047,17.412],[-93.941,17.417],[-93.831,17.471],[-93.817,17.518],[-93.84,17.527]]]}}]}