{"type":"FeatureCollection","features":[{"type":"Feature","properties":{"density":1},"geometry":{"type":"Polygon","coordinates":[[[-84.06,31.292],[-84.046,31.401],[-84.007,31.465],[-83.976,31.472],[-83.95,31.448],[-83.954,31.404],[-84.049,31.283],[-84.06,31.292]]]}},{"type":"Feature","properties":{"density":1},"geometry":{"type":"Polygon","coordinates":[[[-105.439,33.465],[-103.598,32.921],[-102.509,32.893],[-101.407,33.103],[-100.863,33.34],[-99.761,34.023],[-99.133,34.944],[-98.464,36.814],[-98.199,37.093],[-97.892,37.497],[-97.752,38.083],[-97.752,38.767],[-97.934,39.213],[-98.268,39.646],[-98.659,39.855],[-99.036,39.883],[-99.901,39.841],[-100.305,39.673],[-100.724,39.408],[-101.017,39.101],[-101.31,38.655],[-101.714,37.93],[-101.896,37.539],[-102.007,37.232],[-102.203,36.869],[-102.677,36.088],[-102.998,35.628],[-103.235,35.321],[-103.458,35.07],[-103.849,34.693],[-104.644,34.233],[-104.895,34.051],[-105.411,33.73],[-105.481,33.633],[-105.439,33.465]]]}},{"type":"Feature","properties":{"density":1},"geometry":{"type":"Polygon","coordinates":[[[-100.192,22.767],[-100.338,21.972],[-100.778,21.323],[-101.112,20.989],[-101.636,20.8],[-102.431,21.135],[-102.891,21.386],[-103.456,21.784],[-104.23,22.37],[-104.649,22.495],[-105.423,22.537],[-106.302,22.223],[-107.055,21.637],[-107.306,20.821],[-107.306,20.151],[-107.076,19.419],[-106.49,18.415],[-105.549,17.557],[-104.377,16.95],[-101.447,15.883],[-100.003,15.464],[-97.639,14.732],[-96.572,14.481],[-95.337,14.25],[-93.83,14.209],[-91.842,14.02],[-90.67,13.518],[-89.624,13.246],[-88.913,13.267],[-88.494,13.497],[-87.992,13.978],[-87.364,14.439],[-86.736,14.69],[-85.983,14.962],[-85.481,15.255],[-85.104,15.694],[-85.062,16.196],[-85.209,16.406],[-86.15,16.615],[-87.092,17.034],[-87.532,17.41],[-87.824,18.08],[-87.992,18.708],[-87.992,19.733],[-87.783,20.758],[-87.762,21.177],[-87.908,21.7],[-88.306,22.056],[-88.641,22.265],[-88.954,22.37],[-89.373,22.391],[-89.875,22.37],[-90.398,22.872],[-90.524,23.374],[-90.315,24.295],[-89.687,25.257],[-88.913,25.864],[-87.783,26.22],[-86.899,26.586],[-86.626,27.005],[-86.396,27.549],[-86.396,28.323],[-86.647,29.139],[-86.94,29.6],[-87.526,29.788],[-88.698,29.913],[-89.493,29.913],[-90.937,29.851],[-92.841,29.537],[-93.281,29.495],[-94.348,29.265],[-95.269,29.097],[-96.022,28.47],[-97.027,27.256],[-97.299,26.754],[-97.508,26.147],[-98.083,25.432],[-99.318,24.479],[-99.591,24.157],[-99.95,23.611],[-100.087,23.357],[-100.145,23.029],[-100.192,22.767]]]}},{"type":"Feature","properties":{"density":1},"geometry":{"type":"Polygon","coordinates":[[[-120.042,33.956],[-119.974,33.838],[-119.824,33.642],[-119.739,33.609],[-119.68,33.622],[-119.673,33.66],[-119.702,33.721],[-119.86,33.877],[-119.987,33.978],[-120.022,33.976],[-120.038,33.95],[-120.042,33.956]]]}},{"type":"Feature","properties":{"density":1},"geometry":{"type":"Polygon","coordinates":[[[-91.695,18.359],[-91.851,18.471],[-92.047,18.683],[-92.091,18.818],[-92.089,18.9],[-92.064,18.965],[-92.019,18.978],[-91.949,18.914],[-91.763,18.589],[-91.657,18.441],[-91.639,18.369],[-91.685,18.353],[-91.695,18.359]]]}},{"type":"Feature","properties":{"density":1},"geometry":{"type":"Polygon","coordinates":[[[-91.157,18.685],[-91.387,18.848],[-91.534,19.002],[-91.547,19.059],[-91.527,19.102],[-91.465,19.093],[-91.425,19.063],[-91.16,18.803],[-91.104,18.702],[-91.119,18.679],[-91.148,18.681],[-91.157,18.685]]]}},{"type":"Feature","properties":{"density":1},"geometry":{"type":"Polygon","coordinates":[[[-93.038,16.014],[-92.941,16.068],[-92.91,16.042],[-92.908,15.878],[-92.941,15.814],[-93.002,15.778],[-93.084,15.81],[-93.104,15.875],[-93.097,15.958],[-93.052,16.01],[-93.038,16.014]]]}},{"type":"Feature","properties":{"density":1},"geometry":{"type":"Polygon","coordinates":[[[-93.834,17.506],[-93.976,17.718],[-94.038,17.907],[-94.037,18.083],[-94.005,18.132],[-93.943,18.15],[-93.866,18.134],[-93.765,18.071],[-93.722,17.991],[-93.743,17.761],[-93.8,17.51],[-93.833,17.502],[-93.834,17.506]]]}},{"type":"Feature","properties":{"density":1},"geometry":{"type":"Polygon","coordinates":[[[-92.905,17.74],[-92.625,17.807],[-92.423,17.9],[-92.407,17.976],[-92.447,18.095],[-92.503,18.118],[-92.697,17.998],[-92.741,17.942],[-92.931,17.783],[-92.941,17.745],[-92.915,17.74],[-92.905,17.74]]]}},{"type":"Feature","properties":{"density":1},"geometry":{"type":"Polygon","coordinates":[[[-96.778,17.664],[-96.671,17.734],[-96.627,17.74],[-96.6,17.716],[-96.597,17.699],[-96.629,17.66],[-96.686,17.629],[-96.749,17.62],[-96.777,17.658],[-96.778,17.664]]]}},{"type":"Feature","properties":{"density":1},"geometry":{"type":"Polygon","coordinates":[[[-103.28,18.52],[-103.355,18.578],[-103.372,18.605],[-103.365,18.648],[-103.196,18.662],[-103.183,18.641],[-103.187,18.589],[-103.233,18.531],[-103.271,18.52],[-103.28,18.52]]]}},{"type":"Feature","properties":{"density":1},"geometry":{"type":"Polygon","coordinates":[[[-102.476,18.441],[-102.523,18.5],[-102.529,18.545],[-102.509,18.581],[-102.401,18.645],[-102.353,18.639],[-102.34,18.599],[-102.362,18.497],[-102.397,18.457],[-102.473,18.438],[-102.476,18.441]]]}},{"type":"Feature","properties":{"density":1},"geometry":{"type":"Polygon","coordinates":[[[-102.341,18.164],[-102.317,18.197],[-102.314,18.255],[-102.346,18.29],[-102.389,18.293],[-102.424,18.26],[-102.424,18.199],[-102.396,18.168],[-102.35,18.161],[-102.341,18.164]]]}},{"type":"Feature","properties":{"density":1},"geometry":{"type":"Polygon","coordinates":[[[-102.256,18.233],[-102.275,18.294],[-102.211,18.315],[-102.176,18.302],[-102.171,18.265],[-102.252,18.23],[-102.256,18.233]]]}},{"type":"Feature","properties":{"density":1},"geometry":{"type":"Polygon","coordinates":[[[-100.453,18.969],[-100.45,19.08],[-100.423,19.131],[-100.369,19.144],[-100.234,19.132],[-100.196,19.095],[-100.187,19.047],[-100.208,18.997],[-100.244,18.965],[-100.319,18.95],[-100.451,18.964],[-100.453,18.969]]]}},{"type":"Feature","properties":{"density":1},"geometry":{"type":"Polygon","coordinates":[[[-100.916,18.118],[-101.018,18.007],[-101.047,17.916],[-101.043,17.859],[-100.976,17.87],[-100.868,17.99],[-100.87,18.108],[-100.877,18.127],[-100.911,18.124],[-100.916,18.118]]]}},{"type":"Feature","properties":{"density":1},"geometry":{"type":"Polygon","coordinates":[[[-105.265,20.55],[-105.203,20.57],[-105.185,20.543],[-105.208,20.513],[-105.26,20.543],[-105.265,20.55]]]}},{"type":"Feature","properties":{"density":1},"geometry":{"type":"Polygon","coordinates":[[[-105.084,20.522],[-105.036,20.512],[-105.028,20.449],[-105.067,20.214],[-105.103,20.192],[-105.132,20.231],[-105.146,20.374],[-105.127,20.468],[-105.094,20.52],[-105.084,20.522]]]}},{"type":"Feature","properties":{"density":1},"geometry":{"type":"Polygon","coordinates":[[[-105.072,20.108],[-105.12,20.102],[-105.147,20.117],[-105.133,20.189],[-105.102,20.196],[-105.068,20.181],[-105.068,20.11],[-105.072,20.108]]]}},{"type":"Feature","properties":{"density":1},"geometry":{"type":"Polygon","coordinates":[[[-98.806,16.916],[-98.486,16.815],[-98.449,16.794],[-98.441,16.751],[-98.489,16.734],[-98.781,16.811],[-98.835,16.855],[-98.856,16.9],[-98.852,16.919],[-98.81,16.919],[-98.806,16.916]]]}},{"type":"Feature","properties":{"density":1},"geometry":{"type":"Polygon","coordinates":[[[-104.249,20.958],[-104.043,20.831],[-104.022,20.803],[-104.046,20.754],[-104.144,20.724],[-104.192,20.727],[-104.273,20.783],[-104.295,20.828],[-104.306,20.918],[-104.286,20.953],[-104.262,20.96],[-104.249,20.958]]]}},{"type":"Feature","properties":{"density":1},"geometry":{"type":"Polygon","coordinates":[[[-105.369,33.672],[-105.083,33.891],[-104.5,34.248],[-104.325,34.392],[-103.179,34.957],[-102.963,34.988],[-102.889,34.964],[-102.812,34.9],[-102.751,34.816],[-102.653,34.482],[-102.528,34.323],[-102.427,34.266],[-102.252,34.091],[-102.08,33.993],[-101.891,33.916],[-101.669,33.939],[-101.564,33.919],[-101.493,33.882],[-101.439,33.814],[-101.412,33.663],[-101.429,33.568],[-101.55,33.45],[-101.802,33.381],[-102.142,33.384],[-102.486,33.422],[-103.088,33.411],[-103.733,33.448],[-104.066,33.434],[-104.365,33.457],[-104.875,33.499],[-105.333,33.567],[-105.392,33.586],[-105.376,33.662],[-105.369,33.672]]]}},{"type":"Feature","properties":{"density":1},"geometry":{"type":"Polygon","coordinates":[[[-102.726,36.91],[-102.754,37.105],[-102.753,37.238],[-102.745,37.285],[-102.718,37.325],[-102.681,37.334],[-102.516,37.276],[-102.465,37.234],[-102.444,37.165],[-102.447,37.091],[-102.478,37.027],[-102.595,36.92],[-102.667,36.892],[-102.718,36.902],[-102.726,36.91]]]}},{"type":"Feature","properties":{"density":1},"geometry":{"type":"Polygon","coordinates":[[[-120.013,33.968],[-119.914,33.916],[-119.767,33.787],[-119.508,33.603],[-119.453,33.545],[-119.445,33.466],[-119.51,33.441],[-119.611,33.476],[-119.648,33.508],[-119.982,33.857],[-120.04,33.936],[-120.043,33.964],[-120.02,33.97],[-120.013,33.968]]]}},{"type":"Feature","properties":{"density":1},"geometry":{"type":"Polygon","coordinates":[[[-86.289,30.581],[-86.307,30.625],[-86.3,30.697],[-86.28,30.719],[-86.243,30.72],[-86.223,30.697],[-86.231,30.604],[-86.255,30.566],[-86.288,30.577],[-86.289,30.581]]]}},{"type":"Feature","properties":{"density":1},"geometry":{"type":"Polygon","coordinates":[[[-92.529,15.6],[-92.516,15.673],[-92.488,15.679],[-92.423,15.649],[-92.411,15.581],[-92.439,15.495],[-92.499,15.51],[-92.529,15.593],[-92.529,15.6]]]}},{"type":"Feature","properties":{"density":1},"geometry":{"type":"Polygon","coordinates":[[[-93.831,17.483],[-93.905,17.581],[-93.972,17.716],[-94.075,18.034],[-94.155,18.228],[-94.236,18.621],[-94.218,18.724],[-94.189,18.742],[-94.098,18.739],[-93.95,18.657],[-93.637,18.648],[-93.595,18.629],[-93.552,18.566],[-93.564,18.438],[-93.633,18.309],[-93.673,17.811],[-93.745,17.546],[-93.816,17.477],[-93.831,17.483]]]}},{"type":"Feature","properties":{"density":1},"geometry":{"type":"Polygon","coordinates":[[[-91.693,18.354],[-91.94,18.523],[-92.045,18.63],[-92.215,18.845],[-92.267,18.94],[-92.286,19.012],[-92.302,19.123],[-92.284,19.202],[-92.237,19.207],[-92.137,19.109],[-91.907,18.768],[-91.69,18.488],[-91.638,18.395],[-91.635,18.359],[-91.659,18.342],[-91.686,18.347],[-91.693,18.354]]]}},{"type":"Feature","properties":{"density":1},"geometry":{"type":"Polygon","coordinates":[[[-86.314,30.645],[-86.411,31.002],[-86.438,31.26],[-86.433,31.345],[-86.387,31.388],[-86.323,31.362],[-86.239,31.249],[-86.201,31.011],[-86.189,30.798],[-86.196,30.632],[-86.211,30.584],[-86.247,30.565],[-86.284,30.57],[-86.313,30.643],[-86.314,30.645]]]}},{"type":"Feature","properties":{"density":1},"geometry":{"type":"Polygon","coordinates":[[[-90.794,17.717],[-90.959,17.82],[-91.152,18.004],[-91.18,18.048],[-91.191,18.117],[-91.156,18.135],[-91.002,18.055],[-90.775,17.868],[-90.748,17.789],[-90.781,17.722],[-90.794,17.717]]]}},{"type":"Feature","properties":{"density":1},"geometry":{"type":"Polygon","coordinates":[[[-90.535,18.12],[-90.735,18.214],[-91.138,18.567],[-91.15,18.633],[-91.087,18.655],[-90.859,18.546],[-90.8,18.499],[-90.565,18.285],[-90.514,18.22],[-90.496,18.15],[-90.526,18.12],[-90.535,18.12]]]}},{"type":"Feature","properties":{"density":1},"geometry":{"type":"Polygon","coordinates":[[[-93.008,16.011],[-92.83,16.1],[-92.698,16.141],[-92.594,16.121],[-92.548,16.05],[-92.562,15.998],[-92.667,16.003],[-92.745,15.941],[-93.006,15.857],[-93.063,15.876],[-93.111,15.935],[-93.105,15.973],[-93.026,16.004],[-93.008,16.011]]]}},{"type":"Feature","properties":{"density":1},"geometry":{"type":"Polygon","coordinates":[[[-92.935,17.873],[-92.871,17.855],[-92.835,17.862],[-92.776,17.896],[-92.715,17.988],[-92.517,18.051],[-92.434,18.046],[-92.409,18.029],[-92.369,17.914],[-92.315,17.628],[-92.319,17.578],[-92.334,17.558],[-92.46,17.518],[-92.672,17.525],[-92.804,17.576],[-92.894,17.643],[-93.025,17.672],[-93.059,17.705],[-93.081,17.761],[-93.081,17.866],[-93.047,17.9],[-92.945,17.88],[-92.935,17.873]]]}},{"type":"Feature","properties":{"density":1},"geometry":{"type":"Polygon","coordinates":[[[-92.515,17.504],[-92.231,17.557],[-91.933,17.403],[-91.859,17.3],[-91.801,17.247],[-91.804,17.198],[-91.953,17.05],[-92.034,17.021],[-92.18,17.015],[-92.229,17.047],[-92.334,17.211],[-92.505,17.338],[-92.543,17.442],[-92.522,17.499],[-92.515,17.504]]]}},{"type":"Feature","properties":{"density":1},"geometry":{"type":"Polygon","coordinates":[[[-95.266,17.023],[-95.35,17.209],[-95.342,17.298],[-95.286,17.323],[-95.191,17.299],[-95.166,17.236],[-95.171,17.173],[-95.215,17.037],[-95.232,17.018],[-95.263,17.02],[-95.266,17.023]]]}},{"type":"Feature","properties":{"density":1},"geometry":{"type":"Polygon","coordinates":[[[-98.834,17.038],[-98.717,17.025],[-98.635,16.949],[-98.562,16.846],[-98.522,16.822],[-98.096,16.702],[-98.074,16.686],[-98.064,16.638],[-98.096,16.606],[-98.193,16.59],[-98.791,16.661],[-98.823,16.725],[-98.827,16.829],[-98.898,16.966],[-98.892,16.998],[-98.846,17.033],[-98.834,17.038]]]}},{"type":"Feature","properties":{"density":1},"geometry":{"type":"Polygon","coordinates":[[[-100.365,19.172],[-100.201,19.236],[-100.063,19.237],[-100.049,19.167],[-100.074,19.062],[-100.13,18.956],[-100.196,18.896],[-100.251,18.888],[-100.37,18.912],[-100.48,18.976],[-100.493,19.036],[-100.479,19.081],[-100.371,19.168],[-100.365,19.172]]]}},{"type":"Feature","properties":{"density":1},"geometry":{"type":"Polygon","coordinates":[[[-102.334,18.546],[-102.407,18.624],[-102.472,18.657],[-102.527,18.642],[-102.554,18.609],[-102.553,18.56],[-102.514,18.449],[-102.512,18.37],[-102.491,18.323],[-102.433,18.325],[-102.409,18.351],[-102.322,18.478],[-102.323,18.531],[-102.334,18.546]]]}},{"type":"Feature","properties":{"density":1},"geometry":{"type":"Polygon","coordinates":[[[-102.398,18.187],[-102.412,18.298],[-102.361,18.326],[-102.325,18.277],[-102.308,18.158],[-102.324,18.142],[-102.359,18.144],[-102.393,18.18],[-102.398,18.187]]]}},{"type":"Feature","properties":{"density":1},"geometry":{"type":"Polygon","coordinates":[[[-102.128,18.073],[-102.1,18.177],[-102.06,18.245],[-102.015,18.263],[-101.976,18.249],[-101.975,18.14],[-102.015,18.058],[-102.06,18.028],[-102.1,18.025],[-102.127,18.067],[-102.128,18.073]]]}},{"type":"Feature","properties":{"density":1},"geometry":{"type":"Polygon","coordinates":[[[-101.956,18.17],[-101.9,18.292],[-101.835,18.34],[-101.702,18.341],[-101.652,18.293],[-101.655,18.235],[-101.676,18.2],[-101.796,18.123],[-101.916,18.105],[-101.946,18.129],[-101.956,18.167],[-101.956,18.17]]]}},{"type":"Feature","properties":{"density":1},"geometry":{"type":"Polygon","coordinates":[[[-103.288,18.525],[-103.337,18.571],[-103.344,18.649],[-103.13,18.697],[-103.118,18.659],[-103.148,18.599],[-103.212,18.54],[-103.28,18.521],[-103.288,18.525]]]}},{"type":"Feature","properties":{"density":1},"geometry":{"type":"Polygon","coordinates":[[[-101.685,17.837],[-101.728,17.948],[-101.72,18.015],[-101.667,18.051],[-101.589,18.05],[-101.551,17.988],[-101.525,17.835],[-101.53,17.782],[-101.568,17.748],[-101.614,17.752],[-101.681,17.826],[-101.685,17.837]]]}},{"type":"Feature","properties":{"density":1},"geometry":{"type":"Polygon","coordinates":[[[-104.268,20.972],[-104.028,20.923],[-103.942,20.865],[-103.926,20.841],[-103.926,20.783],[-103.984,20.751],[-104.075,20.73],[-104.191,20.759],[-104.237,20.79],[-104.302,20.868],[-104.312,20.949],[-104.28,20.97],[-104.268,20.972]]]}},{"type":"Feature","properties":{"density":1},"geometry":{"type":"Polygon","coordinates":[[[-105.239,20.567],[-105.194,20.575],[-105.146,20.561],[-105.134,20.502],[-105.172,20.475],[-105.2,20.483],[-105.234,20.511],[-105.246,20.562],[-105.239,20.567]]]}},{"type":"Feature","properties":{"density":1},"geometry":{"type":"Polygon","coordinates":[[[-105.386,33.662],[-105.143,33.933],[-104.952,34.092],[-104.547,34.323],[-104.151,34.499],[-103.966,34.613],[-103.598,34.796],[-103.429,34.836],[-103.21,34.961],[-102.668,35.374],[-102.516,35.407],[-102.465,35.386],[-102.421,35.261],[-102.445,34.964],[-102.568,34.557],[-102.561,34.364],[-102.541,34.327],[-102.409,34.236],[-102.321,34.196],[-102.163,34.067],[-101.977,33.882],[-101.913,33.808],[-101.829,33.608],[-101.859,33.568],[-102.011,33.531],[-102.297,33.55],[-102.622,33.602],[-103.344,33.639],[-104.16,33.597],[-104.934,33.616],[-105.34,33.573],[-105.39,33.596],[-105.391,33.654],[-105.386,33.662]]]}},{"type":"Feature","properties":{"density":1},"geometry":{"type":"Polygon","coordinates":[[[-102.214,37.717],[-102.17,37.688],[-102.158,37.553],[-102.23,37.295],[-102.272,37.214],[-102.334,37.126],[-102.507,37.007],[-102.605,36.915],[-102.699,36.885],[-102.717,36.919],[-102.709,36.963],[-102.49,37.223],[-102.284,37.686],[-102.236,37.718],[-102.214,37.717]]]}},{"type":"Feature","properties":{"density":1},"geometry":{"type":"Polygon","coordinates":[[[-120.043,33.967],[-119.993,33.972],[-119.948,33.953],[-119.508,33.628],[-119.361,33.538],[-119.104,33.454],[-119.05,33.414],[-118.954,33.251],[-118.94,33.137],[-118.973,33.101],[-119.018,33.085],[-119.129,33.092],[-119.475,33.295],[-119.752,33.385],[-119.797,33.418],[-119.831,33.454],[-119.893,33.577],[-120.04,33.922],[-120.045,33.965],[-120.043,33.967]]]}},{"type":"Feature","properties":{"density":1},"geometry":{"type":"Polygon","coordinates":[[[-100.234,38.246],[-100.36,38.374],[-100.611,38.823],[-100.701,39.066],[-100.7,39.284],[-100.652,39.551],[-100.439,39.737],[-100.176,39.862],[-99.054,40.12],[-98.622,40.358],[-98.252,40.669],[-97.949,40.757],[-97.652,40.755],[-97.375,40.674],[-97.082,40.532],[-96.887,40.314],[-96.776,39.999],[-96.824,39.64],[-96.898,39.332],[-97.04,38.915],[-97.283,38.428],[-97.523,38.084],[-97.884,37.702],[-98.37,37.314],[-98.778,37.054],[-99.001,36.997],[-99.065,36.997],[-99.133,37.031],[-99.153,37.102],[-99.153,37.247],[-99.126,37.362],[-99.008,37.625],[-98.897,37.807],[-98.89,37.989],[-98.913,38.104],[-99.052,38.344],[-99.17,38.445],[-99.237,38.431],[-99.386,38.347],[-99.636,38.145],[-99.815,38.097],[-99.946,38.104],[-100.045,38.147],[-100.234,38.246]]]}},{"type":"Feature","properties":{"density":1},"geometry":{"type":"Polygon","coordinates":[[[-120.437,37.622],[-120.316,37.558],[-120.309,37.476],[-120.34,37.468],[-120.384,37.494],[-120.461,37.592],[-120.446,37.623],[-120.437,37.622]]]}},{"type":"Feature","properties":{"density":1},"geometry":{"type":"Polygon","coordinates":[[[-104.082,19.515],[-104.172,19.524],[-104.234,19.493],[-104.274,19.425],[-104.275,19.379],[-104.213,19.367],[-104.156,19.388],[-104.085,19.456],[-104.068,19.492],[-104.078,19.512],[-104.082,19.515]]]}},{"type":"Feature","properties":{"density":1},"geometry":{"type":"Polygon","coordinates":[[[-96.814,17.716],[-96.644,17.712],[-96.595,17.697],[-96.559,17.611],[-96.572,17.541],[-96.63,17.528],[-96.756,17.628],[-96.857,17.652],[-96.858,17.695],[-96.823,17.714],[-96.814,17.716]]]}},{"type":"Feature","properties":{"density":1},"geometry":{"type":"Polygon","coordinates":[[[-91.154,18.679],[-91.499,18.898],[-91.661,19.108],[-91.691,19.224],[-91.623,19.237],[-91.346,19.018],[-91.25,18.892],[-91.11,18.76],[-91.1,18.718],[-91.13,18.672],[-91.154,18.679]]]}},{"type":"Feature","properties":{"density":1},"geometry":{"type":"Polygon","coordinates":[[[-70.565,41.659],[-70.258,41.93],[-70.212,41.948],[-70.181,41.931],[-70.188,41.814],[-70.244,41.712],[-70.537,41.613],[-70.563,41.613],[-70.569,41.65],[-70.565,41.659]]]}},{"type":"Feature","properties":{"density":1},"geometry":{"type":"Polygon","coordinates":[[[-105.395,33.668],[-105.321,33.778],[-104.787,34.364],[-104.253,34.885],[-104.101,35.009],[-103.64,35.3],[-102.98,35.782],[-102.563,36.019],[-102.116,36.301],[-101.941,36.486],[-101.657,36.747],[-101.434,36.916],[-100.931,37.402],[-100.833,37.517],[-100.59,37.667],[-100.461,37.672],[-100.358,37.609],[-100.218,37.451],[-100.127,37.28],[-99.914,37.136],[-99.617,37.055],[-99.488,37.001],[-99.133,36.912],[-98.95,36.842],[-98.831,36.716],[-98.8,36.563],[-98.842,36.323],[-98.932,36.12],[-99.073,35.975],[-99.208,35.796],[-99.6,35.509],[-99.806,35.418],[-100.337,35.28],[-100.63,35.131],[-101.111,34.971],[-101.386,34.889],[-102.025,34.772],[-102.361,34.634],[-102.954,34.456],[-103.565,34.295],[-103.701,34.247],[-104.837,33.72],[-105.132,33.605],[-105.3,33.565],[-105.364,33.566],[-105.404,33.608],[-105.398,33.662],[-105.395,33.668]]]}},{"type":"Feature","properties":{"density":1},"geometry":{"type":"Polygon","coordinates":[[[-78.876,36.33],[-78.834,36.516],[-78.77,36.636],[-78.689,36.676],[-78.602,36.684],[-78.566,36.651],[-78.552,36.561],[-78.603,36.454],[-78.744,36.33],[-78.834,36.292],[-78.854,36.291],[-78.878,36.318],[-78.876,36.33]]]}},{"type":"Feature","properties":{"density":1},"geometry":{"type":"Polygon","coordinates":[[[-102.678,37.137],[-102.531,37.447],[-102.399,37.823],[-102.183,38.262],[-102.036,38.449],[-101.922,38.629],[-101.746,38.806],[-101.607,39.004],[-101.348,39.3],[-101.058,39.513],[-100.589,39.902],[-100.471,39.968],[-100.348,40.004],[-99.912,40.023],[-99.782,40.011],[-99.641,39.961],[-99.502,39.853],[-99.439,39.718],[-99.434,39.587],[-99.448,39.387],[-99.493,39.182],[-99.552,39.044],[-99.801,38.826],[-99.925,38.747],[-100.167,38.532],[-100.717,38.369],[-101.212,38.066],[-101.331,37.965],[-101.47,37.884],[-102.383,37.167],[-102.575,36.931],[-102.633,36.89],[-102.675,36.88],[-102.713,36.892],[-102.731,36.942],[-102.711,37.037],[-102.678,37.137]]]}},{"type":"Feature","properties":{"density":1},"geometry":{"type":"Polygon","coordinates":[[[-103.036,36.988],[-103.042,37.095],[-103.015,37.219],[-102.979,37.316],[-102.853,37.544],[-102.649,37.745],[-102.574,37.753],[-102.479,37.698],[-102.418,37.599],[-102.403,37.538],[-102.407,37.466],[-102.445,37.384],[-102.546,37.289],[-102.685,37.228],[-102.857,37.118],[-102.977,36.973],[-103.012,36.965],[-103.034,36.984],[-103.036,36.988]]]}},{"type":"Feature","properties":{"density":1},"geometry":{"type":"Polygon","coordinates":[[[-97.589,39.074],[-96.828,39.494],[-96.039,40.444],[-95.796,40.624],[-95.612,40.802],[-95.482,40.964],[-95.305,41.25],[-95.188,41.653],[-95.195,41.835],[-95.24,41.97],[-95.369,42.158],[-95.771,42.182],[-96.021,42.151],[-96.115,42.101],[-96.27,42.063],[-96.557,42.033],[-96.807,41.932],[-97.475,41.82],[-97.938,41.709],[-98.535,41.684],[-99.061,41.618],[-99.335,41.542],[-99.615,41.516],[-99.945,41.408],[-100.074,41.385],[-100.372,41.296],[-100.53,41.158],[-100.712,40.918],[-100.797,40.668],[-100.817,40.54],[-100.817,40.412],[-100.772,40.215],[-100.67,40.109],[-100.405,40.003],[-100.072,39.9],[-99.88,39.869],[-99.714,39.876],[-99.572,39.842],[-99.181,39.913],[-98.958,39.879],[-98.639,39.93],[-98.136,40.154],[-97.919,40.194],[-97.768,40.194],[-97.627,40.149],[-97.579,40.118],[-97.546,40.053],[-97.532,39.909],[-97.66,39.56],[-97.735,39.425],[-97.759,39.218],[-97.75,39.148],[-97.726,39.099],[-97.672,39.049],[-97.609,39.065],[-97.589,39.074]]]}},{"type":"Feature","properties":{"density":1},"geometry":{"type":"Polygon","coordinates":[[[-99.946,37.32],[-99.919,37.406],[-99.637,37.974],[-99.447,38.245],[-99.358,38.344],[-99.211,38.442],[-99.074,38.492],[-98.975,38.51],[-98.68,38.51],[-98.293,38.393],[-98.155,38.289],[-98.159,38.211],[-98.187,38.129],[-98.238,38.078],[-98.401,37.977],[-98.601,37.882],[-98.956,37.754],[-99.183,37.644],[-99.458,37.552],[-99.697,37.428],[-99.87,37.267],[-99.925,37.269],[-99.944,37.312],[-99.946,37.32]]]}},{"type":"Feature","properties":{"density":1},"geometry":{"type":"Polygon","coordinates":[[[-86.27,30.544],[-86.317,30.622],[-86.53,31.289],[-86.654,31.778],[-86.653,31.954],[-86.576,32.255],[-86.549,32.327],[-86.464,32.389],[-86.36,32.371],[-86.198,32.216],[-86.123,32.116],[-86.056,31.978],[-86.024,31.847],[-86.026,31.289],[-86.089,30.885],[-86.154,30.619],[-86.185,30.563],[-86.218,30.543],[-86.266,30.542],[-86.27,30.544]]]}},{"type":"Feature","properties":{"density":1},"geometry":{"type":"Polygon","coordinates":[[[-88.05,31.689],[-88.083,31.762],[-88.093,31.873],[-88.078,31.927],[-88.017,31.958],[-87.996,31.953],[-87.971,31.905],[-87.963,31.777],[-87.996,31.689],[-88.043,31.682],[-88.05,31.689]]]}},{"type":"Feature","properties":{"density":1},"geometry":{"type":"Polygon","coordinates":[[[-120.016,33.979],[-119.949,33.966],[-119.794,33.874],[-119.494,33.75],[-119.268,33.631],[-119.1,33.582],[-118.946,33.512],[-118.768,33.4],[-118.687,33.293],[-118.593,32.997],[-118.601,32.912],[-118.651,32.891],[-118.929,32.895],[-119.145,32.852],[-119.369,32.936],[-119.669,33.197],[-119.804,33.373],[-120.047,33.937],[-120.045,33.966],[-120.022,33.977],[-120.016,33.979]]]}},{"type":"Feature","properties":{"density":1},"geometry":{"type":"Polygon","coordinates":[[[-120.365,37.609],[-119.735,37.317],[-119.339,37.234],[-119.288,37.2],[-119.243,37.151],[-119.225,37.075],[-119.201,36.852],[-119.216,36.755],[-119.302,36.714],[-119.348,36.705],[-119.407,36.717],[-119.636,36.813],[-119.74,36.873],[-120.042,37.09],[-120.224,37.241],[-120.469,37.552],[-120.494,37.609],[-120.482,37.624],[-120.445,37.636],[-120.408,37.627],[-120.365,37.609]]]}},{"type":"Feature","properties":{"density":1},"geometry":{"type":"Polygon","coordinates":[[[-107.083,26.733],[-107.058,26.781],[-106.97,26.874],[-106.905,26.905],[-106.858,26.904],[-106.874,26.848],[-107.06,26.72],[-107.085,26.729],[-107.083,26.733]]]}},{"type":"Feature","properties":{"density":1},"geometry":{"type":"Polygon","coordinates":[[[-106.571,26.273],[-106.269,26.495],[-106.176,26.516],[-106.15,26.51],[-106.139,26.49],[-106.157,26.417],[-106.28,26.334],[-106.548,26.233],[-106.576,26.242],[-106.574,26.267],[-106.571,26.273]]]}},{"type":"Feature","properties":{"density":1},"geometry":{"type":"Polygon","coordinates":[[[-106.907,26.303],[-106.939,26.321],[-106.943,26.344],[-106.889,26.43],[-106.797,26.479],[-106.733,26.469],[-106.731,26.427],[-106.755,26.391],[-106.847,26.32],[-106.898,26.3],[-106.907,26.303]]]}},{"type":"Feature","properties":{"density":1},"geometry":{"type":"Polygon","coordinates":[[[-100.516,19.107],[-100.433,19.188],[-100.214,19.311],[-99.997,19.38],[-99.945,19.349],[-99.935,19.255],[-99.966,19.078],[-99.988,19.043],[-100.102,18.979],[-100.248,18.942],[-100.392,18.933],[-100.433,18.944],[-100.515,19.023],[-100.526,19.097],[-100.516,19.107]]]}},{"type":"Feature","properties":{"density":1},"geometry":{"type":"Polygon","coordinates":[[[-100.829,18.719],[-100.739,18.829],[-100.682,18.872],[-100.624,18.873],[-100.602,18.855],[-100.598,18.715],[-100.654,18.653],[-100.704,18.633],[-100.762,18.64],[-100.829,18.708],[-100.829,18.719]]]}},{"type":"Feature","properties":{"density":1},"geometry":{"type":"Polygon","coordinates":[[[-102.127,18.098],[-102.005,18.378],[-101.98,18.4],[-101.936,18.393],[-101.921,18.336],[-101.973,18.176],[-102.067,18.065],[-102.125,18.047],[-102.132,18.089],[-102.127,18.098]]]}},{"type":"Feature","properties":{"density":1},"geometry":{"type":"Polygon","coordinates":[[[-101.915,18.121],[-101.854,18.316],[-101.811,18.364],[-101.752,18.371],[-101.757,18.306],[-101.826,18.127],[-101.854,18.088],[-101.885,18.076],[-101.911,18.113],[-101.915,18.121]]]}},{"type":"Feature","properties":{"density":1},"geometry":{"type":"Polygon","coordinates":[[[-103.291,18.61],[-103.231,18.741],[-103.191,18.786],[-103.082,18.829],[-103.034,18.794],[-103.037,18.753],[-103.091,18.652],[-103.231,18.524],[-103.289,18.505],[-103.297,18.582],[-103.291,18.61]]]}},{"type":"Feature","properties":{"density":1},"geometry":{"type":"Polygon","coordinates":[[[-104.438,19.664],[-104.286,19.685],[-104.124,19.739],[-104.009,19.73],[-103.947,19.665],[-103.935,19.604],[-103.962,19.403],[-103.992,19.362],[-104.145,19.247],[-104.424,19.218],[-104.513,19.242],[-104.534,19.266],[-104.586,19.458],[-104.594,19.569],[-104.546,19.634],[-104.472,19.671],[-104.438,19.664]]]}},{"type":"Feature","properties":{"density":1},"geometry":{"type":"Polygon","coordinates":[[[-99.123,26.496],[-98.855,26.779],[-98.465,27.027],[-97.842,27.341],[-96.055,28.3],[-95.516,28.566],[-94.833,28.824],[-94.073,29.06],[-93.375,29.234],[-92.6,29.318],[-91.879,29.303],[-90.99,29.371],[-89.805,29.713],[-88.553,30.123],[-87.429,30.335],[-86.836,30.389],[-85.462,30.427],[-83.214,31.019],[-82.394,31.281],[-81.562,31.611],[-79.656,33.008],[-78.92,33.502],[-78.001,34.155],[-76.786,34.892],[-75.412,36.266],[-74.967,36.813],[-74.443,37.291],[-72.701,38.556],[-71.706,39.057],[-70.316,39.687],[-69.876,39.945],[-68.342,40.333],[-67.431,40.355],[-67.032,40.31],[-66.679,40.162],[-66.178,39.991],[-65.779,39.797],[-65.335,39.478],[-64.175,38.966],[-63.712,38.639],[-63.507,38.229],[-63.902,37.584],[-64.638,36.946],[-65.702,36.228],[-67.077,35.56],[-67.714,34.929],[-68.291,34.239],[-68.982,33.453],[-70.66,32.094],[-71.355,31.63],[-72.106,31.061],[-73.128,30.582],[-73.5,30.453],[-75.193,29.952],[-76.841,29.565],[-77.562,29.306],[-78.132,29.185],[-80.365,28.646],[-81.192,28.372],[-82.005,28.061],[-82.597,27.909],[-83.114,27.803],[-84.116,27.697],[-84.693,27.537],[-85.05,27.226],[-85.422,26.937],[-86.825,25.571],[-87.346,24.86],[-87.429,24.457],[-87.422,23.865],[-87.346,23.394],[-87.308,22.559],[-87.239,22.346],[-87.166,20.673],[-87.237,20.339],[-87.262,19.888],[-87.191,19.478],[-87.105,19.21],[-86.969,18.516],[-86.771,18.142],[-86.366,17.565],[-86.012,17.225],[-85.171,16.522],[-84.564,15.975],[-84.26,15.785],[-83.941,15.618],[-83.706,15.438],[-83.549,15.287],[-83.508,15.064],[-83.549,14.856],[-83.696,14.709],[-84.075,14.522],[-84.541,14.325],[-85.407,14.011],[-86.637,13.515],[-87.67,13.16],[-88.88,12.892],[-90.024,12.846],[-91.183,12.619],[-92.559,11.821],[-92.912,11.445],[-94.193,10.49],[-94.451,10.338],[-95.461,9.973],[-96.076,9.86],[-96.866,9.746],[-97.451,9.73],[-100.735,10.106],[-102.055,10.548],[-103.012,10.799],[-103.871,11.162],[-105.048,11.519],[-105.951,11.699],[-106.825,12.043],[-107.334,12.217],[-107.797,12.43],[-108.177,12.817],[-108.42,13.353],[-108.534,13.664],[-108.655,14.104],[-108.914,14.642],[-109.035,15.335],[-109.109,15.986],[-109.075,17.034],[-109.097,17.683],[-109.04,18.366],[-109.027,19.127],[-109.164,19.662],[-109.187,20.254],[-109.164,20.778],[-108.993,21.337],[-108.731,21.735],[-108.241,22.271],[-107.831,22.533],[-107.227,22.738],[-106.658,22.954],[-106.259,22.943],[-105.724,22.863],[-105.28,22.692],[-105.006,22.464],[-104.733,22.168],[-104.41,21.591],[-104.122,21.196],[-103.651,20.839],[-103.15,20.429],[-102.702,20.224],[-102.026,19.973],[-101.092,19.761],[-100.545,19.7],[-100.203,19.822],[-99.816,20.118],[-99.577,20.414],[-99.451,20.972],[-99.543,21.553],[-99.725,21.986],[-99.93,22.35],[-100.01,22.795],[-100.021,23.296],[-99.896,24.344],[-99.691,25.3],[-99.554,25.722],[-99.338,26.235],[-99.258,26.348],[-99.123,26.496]]]}},{"type":"Feature","properties":{"density":2},"geometry":{"type":"Polygon","coordinates":[[[-105.287,33.591],[-104.475,33.492],[-104.01,33.417],[-103.464,33.436],[-103.235,33.473],[-103.024,33.473],[-102.869,33.504],[-102.664,33.591],[-102.615,33.752],[-102.627,33.87],[-102.695,33.994],[-102.832,34.112],[-103.012,34.199],[-103.142,34.217],[-103.551,34.161],[-103.985,34.068],[-104.909,33.808],[-105.331,33.665],[-105.287,33.591]]]}},{"type":"Feature","properties":{"density":2},"geometry":{"type":"Polygon","coordinates":[[[-99.519,38.664],[-99.761,38.664],[-100.474,38.466],[-100.84,38.218],[-101.045,37.914],[-101.138,37.672],[-101.138,37.362],[-101.088,37.096],[-100.877,36.916],[-100.642,36.86],[-100.22,36.848],[-99.997,36.748],[-99.916,36.68],[-99.836,36.593],[-99.798,36.513],[-99.774,36.358],[-99.792,36.228],[-99.842,36.091],[-99.817,35.967],[-99.588,35.843],[-99.451,35.837],[-99.271,35.93],[-99.116,36.06],[-99.042,36.184],[-99.017,36.401],[-99.03,36.587],[-99.197,37.077],[-99.414,37.344],[-99.488,37.573],[-99.501,37.765],[-99.476,37.877],[-99.315,37.976],[-98.881,37.914],[-98.707,37.914],[-98.658,37.982],[-98.639,38.1],[-98.701,38.261],[-98.893,38.478],[-99.017,38.571],[-99.178,38.652],[-99.352,38.671],[-99.519,38.664]]]}},{"type":"Feature","properties":{"density":2},"geometry":{"type":"Polygon","coordinates":[[[-96.73,19.863],[-96.948,19.146],[-96.927,18.497],[-96.717,17.828],[-96.278,17.221],[-95.232,16.635],[-94.625,16.53],[-94.018,16.572],[-93.223,16.739],[-92.7,16.949],[-92.469,17.179],[-92.302,17.807],[-92.49,18.518],[-92.993,19.041],[-93.306,19.313],[-93.725,19.418],[-94.144,19.481],[-94.96,19.481],[-95.399,19.648],[-95.629,19.836],[-95.755,20.15],[-95.862,20.341],[-95.992,20.471],[-96.11,20.49],[-96.315,20.422],[-96.501,20.248],[-96.606,20.118],[-96.73,19.863]]]}},{"type":"Feature","properties":{"density":2},"geometry":{"type":"Polygon","coordinates":[[[-99.473,23.15],[-99.542,22.466],[-99.528,21.992],[-99.319,21.545],[-98.901,21.029],[-98.524,20.68],[-97.98,20.318],[-97.589,20.15],[-97.101,20.178],[-96.794,20.332],[-96.585,20.611],[-96.417,21.071],[-96.487,21.796],[-96.641,22.201],[-96.989,22.661],[-97.227,23.052],[-97.366,23.373],[-97.408,23.694],[-97.422,24.322],[-97.673,24.698],[-97.98,24.838],[-98.231,24.852],[-98.705,24.656],[-99.054,24.349],[-99.487,23.275],[-99.473,23.15]]]}},{"type":"Feature","properties":{"density":2},"geometry":{"type":"Polygon","coordinates":[[[-93.045,15.942],[-93.015,15.965],[-92.978,15.957],[-92.948,15.892],[-92.959,15.857],[-93.045,15.835],[-93.071,15.89],[-93.049,15.938],[-93.045,15.942]]]}},{"type":"Feature","properties":{"density":2},"geometry":{"type":"Polygon","coordinates":[[[-93.849,17.662],[-93.906,17.681],[-93.957,17.73],[-94.008,17.968],[-93.897,17.994],[-93.819,17.95],[-93.814,17.702],[-93.844,17.662],[-93.849,17.662]]]}},{"type":"Feature","properties":{"density":2},"geometry":{"type":"Polygon","coordinates":[[[-100.444,18.971],[-100.431,19.078],[-100.405,19.113],[-100.291,19.112],[-100.254,19.079],[-100.257,19.061],[-100.41,18.971],[-100.443,18.969],[-100.444,18.971]]]}},{"type":"Feature","properties":{"density":2},"geometry":{"type":"Polygon","coordinates":[[[-98.828,16.864],[-98.84,16.91],[-98.718,16.868],[-98.614,16.852],[-98.6,16.833],[-98.624,16.805],[-98.693,16.799],[-98.774,16.823],[-98.824,16.86],[-98.828,16.864]]]}},{"type":"Feature","properties":{"density":2},"geometry":{"type":"Polygon","coordinates":[[[-105.345,33.669],[-105.252,33.751],[-105.066,33.876],[-104.76,34.044],[-104.663,34.073],[-104.627,34.041],[-104.585,33.962],[-104.584,33.872],[-104.647,33.759],[-104.794,33.661],[-104.928,33.622],[-105.336,33.587],[-105.382,33.601],[-105.35,33.661],[-105.345,33.669]]]}},{"type":"Feature","properties":{"density":2},"geometry":{"type":"Polygon","coordinates":[[[-120.013,33.95],[-119.961,33.931],[-119.896,33.876],[-119.843,33.826],[-119.839,33.79],[-119.9,33.79],[-120.039,33.944],[-120.038,33.955],[-120.016,33.952],[-120.013,33.95]]]}},{"type":"Feature","properties":{"density":2},"geometry":{"type":"Polygon","coordinates":[[[-93.881,17.612],[-93.881,17.702],[-93.855,17.81],[-93.793,17.887],[-93.755,17.895],[-93.74,17.858],[-93.747,17.735],[-93.808,17.496],[-93.854,17.511],[-93.88,17.605],[-93.881,17.612]]]}},{"type":"Feature","properties":{"density":2},"geometry":{"type":"Polygon","coordinates":[[[-93.81,17.94],[-93.898,17.913],[-93.963,17.932],[-94.085,18.143],[-94.101,18.224],[-94.083,18.304],[-94.018,18.434],[-93.986,18.46],[-93.961,18.463],[-93.931,18.44],[-93.85,18.254],[-93.786,18.161],[-93.772,18.012],[-93.803,17.943],[-93.81,17.94]]]}},{"type":"Feature","properties":{"density":2},"geometry":{"type":"Polygon","coordinates":[[[-86.276,30.578],[-86.393,31.01],[-86.394,31.22],[-86.348,31.247],[-86.3,31.226],[-86.237,30.823],[-86.233,30.625],[-86.247,30.586],[-86.276,30.577],[-86.276,30.578]]]}},{"type":"Feature","properties":{"density":2},"geometry":{"type":"Polygon","coordinates":[[[-93.011,15.966],[-92.946,16.014],[-92.907,16.016],[-92.867,15.986],[-92.915,15.908],[-92.991,15.871],[-93.057,15.887],[-93.074,15.919],[-93.07,15.938],[-93.018,15.962],[-93.011,15.966]]]}},{"type":"Feature","properties":{"density":2},"geometry":{"type":"Polygon","coordinates":[[[-92.895,17.831],[-93.027,17.876],[-93.052,17.866],[-93.069,17.813],[-93.009,17.696],[-92.969,17.68],[-92.93,17.693],[-92.913,17.716],[-92.892,17.824],[-92.895,17.831]]]}},{"type":"Feature","properties":{"density":2},"geometry":{"type":"Polygon","coordinates":[[[-98.833,16.864],[-98.872,16.965],[-98.837,16.994],[-98.779,17.002],[-98.673,16.931],[-98.638,16.847],[-98.655,16.785],[-98.707,16.762],[-98.778,16.789],[-98.825,16.854],[-98.833,16.864]]]}},{"type":"Feature","properties":{"density":2},"geometry":{"type":"Polygon","coordinates":[[[-100.473,19.009],[-100.474,19.057],[-100.418,19.127],[-100.267,19.197],[-100.229,19.183],[-100.242,19.115],[-100.331,18.983],[-100.412,18.971],[-100.456,18.987],[-100.473,19.009]]]}},{"type":"Feature","properties":{"density":2},"geometry":{"type":"Polygon","coordinates":[[[-105.327,33.683],[-105.133,33.861],[-105.035,33.91],[-104.862,33.897],[-104.733,33.847],[-104.701,33.808],[-104.699,33.757],[-104.72,33.724],[-104.778,33.7],[-105.182,33.633],[-105.311,33.588],[-105.382,33.607],[-105.347,33.664],[-105.327,33.683]]]}},{"type":"Feature","properties":{"density":2},"geometry":{"type":"Polygon","coordinates":[[[-102.675,36.994],[-102.581,37.078],[-102.403,37.335],[-102.371,37.364],[-102.318,37.375],[-102.292,37.342],[-102.29,37.237],[-102.351,37.144],[-102.604,36.945],[-102.691,36.905],[-102.7,36.929],[-102.679,36.991],[-102.675,36.994]]]}},{"type":"Feature","properties":{"density":2},"geometry":{"type":"Polygon","coordinates":[[[-120.02,33.951],[-119.793,33.801],[-119.72,33.711],[-119.725,33.679],[-119.783,33.675],[-119.851,33.717],[-120.044,33.955],[-120.022,33.953],[-120.02,33.951]]]}},{"type":"Feature","properties":{"density":2},"geometry":{"type":"Polygon","coordinates":[[[-96.794,17.707],[-96.738,17.708],[-96.664,17.678],[-96.648,17.648],[-96.651,17.606],[-96.686,17.6],[-96.82,17.658],[-96.827,17.686],[-96.798,17.706],[-96.794,17.707]]]}},{"type":"Feature","properties":{"density":2},"geometry":{"type":"Polygon","coordinates":[[[-105.394,33.615],[-105.338,33.735],[-105.03,34.035],[-104.768,34.332],[-104.254,34.826],[-104.175,34.88],[-104.016,34.885],[-103.904,34.865],[-103.768,34.838],[-103.617,34.776],[-103.594,34.736],[-103.589,34.657],[-103.633,34.492],[-103.717,34.386],[-103.943,34.221],[-104.236,34.045],[-104.919,33.706],[-105.284,33.585],[-105.362,33.583],[-105.395,33.609],[-105.394,33.615]]]}},{"type":"Feature","properties":{"density":2},"geometry":{"type":"Polygon","coordinates":[[[-102.676,36.994],[-102.613,37.16],[-102.427,37.49],[-102.353,37.66],[-102.311,37.828],[-102.277,37.9],[-102.204,38.015],[-101.913,38.303],[-101.856,38.338],[-101.382,38.335],[-101.332,38.322],[-101.265,38.259],[-101.26,38.23],[-101.283,38.173],[-101.321,38.126],[-101.599,37.953],[-102.161,37.375],[-102.473,37.126],[-102.589,36.976],[-102.639,36.952],[-102.675,36.988],[-102.676,36.994]]]}},{"type":"Feature","properties":{"density":2},"geometry":{"type":"Polygon","coordinates":[[[-99.927,37.334],[-99.864,37.501],[-99.675,37.834],[-99.492,38.127],[-99.448,38.164],[-99.407,38.182],[-99.307,38.161],[-99.281,38.039],[-99.206,37.962],[-99.137,37.926],[-99.101,37.911],[-98.864,37.921],[-98.828,37.903],[-98.822,37.867],[-98.838,37.826],[-98.869,37.8],[-99.162,37.691],[-99.334,37.662],[-99.535,37.583],[-99.747,37.458],[-99.867,37.286],[-99.897,37.275],[-99.923,37.286],[-99.929,37.322],[-99.927,37.334]]]}},{"type":"Feature","properties":{"density":2},"geometry":{"type":"Polygon","coordinates":[[[-86.267,30.55],[-86.614,31.731],[-86.596,31.916],[-86.519,32.185],[-86.432,32.287],[-86.397,32.284],[-86.323,32.221],[-86.232,32.071],[-86.123,31.938],[-86.069,31.809],[-86.073,31.344],[-86.103,31.042],[-86.152,30.732],[-86.186,30.617],[-86.212,30.562],[-86.264,30.548],[-86.267,30.55]]]}},{"type":"Feature","properties":{"density":2},"geometry":{"type":"Polygon","coordinates":[[[-120.016,33.967],[-119.94,33.95],[-119.839,33.894],[-119.137,33.392],[-119.081,33.3],[-119.125,33.197],[-119.083,33.128],[-119.099,33.073],[-119.152,33.07],[-119.402,33.13],[-119.551,33.243],[-119.771,33.512],[-119.933,33.79],[-120.044,33.937],[-120.046,33.959],[-120.023,33.966],[-120.016,33.967]]]}},{"type":"Feature","properties":{"density":2},"geometry":{"type":"Polygon","coordinates":[[[-100.441,18.998],[-100.491,19.061],[-100.487,19.112],[-100.445,19.157],[-100.239,19.258],[-100.16,19.236],[-100.16,19.074],[-100.186,19.019],[-100.35,18.964],[-100.414,18.965],[-100.439,18.992],[-100.441,18.998]]]}},{"type":"Feature","properties":{"density":2},"geometry":{"type":"Polygon","coordinates":[[[-94.844,18.398],[-94.962,18.621],[-95.026,18.82],[-95.053,18.988],[-95.053,19.343],[-94.956,19.814],[-94.784,19.982],[-94.367,20.236],[-94.08,20.381],[-93.858,20.419],[-93.318,20.28],[-93.085,20.243],[-92.521,19.976],[-92.253,19.921],[-91.981,19.828],[-91.718,19.825],[-91.515,19.855],[-91.154,20.002],[-90.881,20.057],[-90.734,20.057],[-90.618,19.936],[-90.526,19.713],[-90.486,19.465],[-90.591,18.957],[-90.783,18.603],[-91.057,18.452],[-91.405,18.334],[-91.695,18.253],[-92.07,18.192],[-92.235,18.131],[-92.35,18.067],[-92.444,17.952],[-92.448,17.821],[-92.407,17.706],[-92.292,17.632],[-91.982,17.483],[-91.894,17.399],[-91.86,17.287],[-91.874,17.149],[-91.945,17.028],[-92.07,16.943],[-92.181,16.899],[-92.495,16.866],[-92.961,16.849],[-93.745,17.043],[-93.882,17.134],[-94.292,17.62],[-94.748,18.124],[-94.838,18.322],[-94.844,18.398]]]}},{"type":"Feature","properties":{"density":3},"geometry":{"type":"Polygon","coordinates":[[[-105.296,33.617],[-104.886,33.623],[-104.678,33.677],[-104.651,33.741],[-104.756,33.785],[-104.911,33.741],[-105.234,33.704],[-105.289,33.685],[-105.296,33.617]]]}},{"type":"Feature","properties":{"density":3},"geometry":{"type":"Polygon","coordinates":[[[-105.376,33.657],[-105.261,33.789],[-105.084,33.933],[-104.833,34.229],[-104.43,34.584],[-104.301,34.603],[-104.163,34.581],[-104.091,34.548],[-104.011,34.539],[-103.91,34.502],[-103.9,34.45],[-103.956,34.382],[-104.329,34.169],[-104.572,33.944],[-104.803,33.8],[-105.058,33.691],[-105.261,33.629],[-105.309,33.589],[-105.37,33.598],[-105.379,33.653],[-105.376,33.657]]]}},{"type":"Feature","properties":{"density":3},"geometry":{"type":"Polygon","coordinates":[[[-86.293,30.626],[-86.332,30.853],[-86.347,31.142],[-86.318,31.377],[-86.28,31.428],[-86.253,31.43],[-86.222,31.407],[-86.2,31.358],[-86.171,31.092],[-86.225,30.557],[-86.26,30.555],[-86.287,30.606],[-86.293,30.626]]]}},{"type":"Feature","properties":{"density":3},"geometry":{"type":"Polygon","coordinates":[[[-93.84,17.523],[-93.857,17.597],[-93.857,17.707],[-93.825,17.862],[-93.753,18.032],[-93.707,18.091],[-93.672,18.108],[-93.653,18.079],[-93.657,18.045],[-93.776,17.559],[-93.811,17.503],[-93.839,17.521],[-93.84,17.523]]]}},{"type":"Feature","properties":{"density":3},"geometry":{"type":"Polygon","coordinates":[[[-119.978,33.965],[-119.891,33.922],[-119.742,33.814],[-119.7,33.751],[-119.688,33.702],[-119.704,33.645],[-119.746,33.628],[-119.803,33.633],[-119.856,33.677],[-119.998,33.919],[-120.003,33.945],[-119.982,33.958],[-119.978,33.965]]]}}]}