{"type":"FeatureCollection","features":[{"type":"Feature","properties":{"density":1},"geometry":{"type":"Polygon","coordinates":[[[-71.698,17.986],[-71.861,17.926],[-71.875,17.898],[-71.848,17.891],[-71.715,17.92],[-71.648,17.953],[-71.63,17.98],[-71.646,18.003],[-71.698,17.986]]]}},{"type":"Feature","properties":{"density":1},"geometry":{"type":"Polygon","coordinates":[[[-100.738,52.817],[-100.834,52.834],[-100.952,52.823],[-101.121,52.688],[-101.261,52.542],[-101.368,52.502],[-101.762,52.441],[-101.891,52.379],[-101.953,52.317],[-101.959,52.137],[-101.936,52.041],[-101.886,51.979],[-101.768,51.895],[-101.408,51.721],[-101.267,51.625],[-101.143,51.512],[-101.053,51.282],[-100.98,51.192],[-100.845,51.124],[-100.553,51.091],[-100.215,51.119],[-100.035,51.152],[-99.917,51.231],[-99.754,51.4],[-99.67,51.417],[-99.388,51.422],[-99.22,51.462],[-99.073,51.546],[-98.933,51.681],[-98.893,51.794],[-98.893,51.889],[-98.927,52.069],[-98.995,52.266],[-99.152,52.418],[-99.349,52.547],[-99.518,52.621],[-99.765,52.671],[-100.232,52.727],[-100.468,52.789],[-100.738,52.817]]]}},{"type":"Feature","properties":{"density":1},"geometry":{"type":"Polygon","coordinates":[[[-117.843,40.304],[-118.001,40.405],[-118.231,40.473],[-118.608,40.478],[-118.76,40.439],[-118.918,40.36],[-119.03,40.264],[-119.137,40.129],[-119.221,39.966],[-119.255,39.798],[-119.289,39.37],[-119.255,39.224],[-119.199,39.078],[-119.03,38.718],[-118.856,38.285],[-118.777,37.671],[-118.738,37.514],[-118.636,37.424],[-118.479,37.345],[-118.439,37.3],[-118.316,36.974],[-118.259,36.963],[-118.203,37.025],[-118.198,37.115],[-118.288,37.525],[-118.333,37.655],[-118.417,37.778],[-118.591,37.975],[-118.642,38.082],[-118.693,38.223],[-118.704,38.341],[-118.749,38.481],[-118.76,38.628],[-118.715,38.763],[-118.614,38.864],[-118.265,39.038],[-118.124,39.151],[-118.023,39.286],[-117.961,39.432],[-117.883,39.561],[-117.81,39.651],[-117.669,39.775],[-117.624,39.859],[-117.63,39.989],[-117.72,40.18],[-117.843,40.304]]]}},{"type":"Feature","properties":{"density":1},"geometry":{"type":"Polygon","coordinates":[[[-115.565,38.003],[-115.622,38.065],[-115.661,38.076],[-115.695,38.071],[-115.728,38.043],[-115.74,37.992],[-115.717,37.896],[-115.723,37.818],[-115.802,37.598],[-115.813,37.525],[-115.807,37.441],[-115.779,37.385],[-115.678,37.407],[-115.582,37.491],[-115.515,37.638],[-115.503,37.896],[-115.565,38.003]]]}},{"type":"Feature","properties":{"density":1},"geometry":{"type":"Polygon","coordinates":[[[-122.273,43.762],[-122.303,43.782],[-122.36,43.787],[-122.47,43.765],[-122.545,43.71],[-122.585,43.657],[-122.615,43.572],[-122.62,43.377],[-122.678,43.295],[-122.82,43.197],[-122.858,43.142],[-122.86,43.097],[-122.808,43.01],[-122.71,42.99],[-122.573,43.005],[-122.443,43.057],[-122.408,43.102],[-122.368,43.242],[-122.285,43.347],[-122.283,43.457],[-122.22,43.625],[-122.223,43.675],[-122.273,43.762]]]}},{"type":"Feature","properties":{"density":1},"geometry":{"type":"Polygon","coordinates":[[[-121.497,46.916],[-121.553,46.928],[-121.598,46.913],[-121.643,46.871],[-121.767,46.646],[-121.775,46.564],[-121.748,46.538],[-121.7,46.53],[-121.673,46.549],[-121.602,46.616],[-121.557,46.721],[-121.463,46.8],[-121.46,46.856],[-121.497,46.916]]]}},{"type":"Feature","properties":{"density":1},"geometry":{"type":"Polygon","coordinates":[[[-120.333,46.39],[-120.475,46.375],[-120.607,46.273],[-120.775,45.917],[-120.82,45.861],[-120.978,45.718],[-121.177,45.598],[-121.304,45.475],[-121.51,45.358],[-121.552,45.321],[-121.578,45.253],[-121.567,45.212],[-121.428,45.175],[-121.105,45.201],[-120.929,45.276],[-120.798,45.276],[-120.633,45.355],[-120.539,45.467],[-120.333,45.831],[-120.127,46.063],[-120.1,46.176],[-120.108,46.277],[-120.179,46.36],[-120.333,46.39]]]}},{"type":"Feature","properties":{"density":1},"geometry":{"type":"Polygon","coordinates":[[[-121.359,44.596],[-121.469,44.653],[-121.574,44.746],[-121.639,44.951],[-121.614,45.033],[-121.554,45.081],[-121.319,45.203],[-121.122,45.353],[-121.029,45.388],[-120.937,45.393],[-120.907,45.333],[-120.909,45.271],[-120.962,45.158],[-121.092,45.001],[-121.104,44.958],[-121.089,44.693],[-121.114,44.611],[-121.167,44.561],[-121.207,44.553],[-121.302,44.561],[-121.359,44.596]]]}},{"type":"Feature","properties":{"density":1},"geometry":{"type":"Polygon","coordinates":[[[-121.502,44.523],[-121.557,44.503],[-121.579,44.416],[-121.627,44.363],[-121.632,44.293],[-121.597,44.253],[-121.497,44.201],[-121.432,44.198],[-121.339,44.241],[-121.222,44.396],[-121.069,44.511],[-121.034,44.573],[-121.034,44.606],[-121.077,44.646],[-121.159,44.646],[-121.392,44.541],[-121.502,44.523]]]}},{"type":"Feature","properties":{"density":1},"geometry":{"type":"Polygon","coordinates":[[[-118.854,43.273],[-118.937,43.194],[-118.97,43.127],[-118.967,43.04],[-118.944,43.025],[-118.723,43.07],[-118.58,43.145],[-118.288,43.325],[-118.164,43.423],[-118.022,43.498],[-117.999,43.524],[-117.999,43.58],[-118.112,43.584],[-118.434,43.419],[-118.854,43.273]]]}},{"type":"Feature","properties":{"density":1},"geometry":{"type":"Polygon","coordinates":[[[-118.36,43.663],[-118.425,43.623],[-118.433,43.558],[-118.41,43.538],[-118.255,43.55],[-117.998,43.655],[-117.88,43.66],[-117.663,43.638],[-117.44,43.688],[-117.045,43.87],[-116.823,44.008],[-116.745,44.105],[-116.718,44.235],[-116.765,44.273],[-116.94,44.235],[-117.183,44.29],[-117.33,44.288],[-117.398,44.25],[-117.415,44.218],[-117.38,44.093],[-117.385,44.043],[-117.485,43.95],[-117.678,43.88],[-118.04,43.798],[-118.36,43.663]]]}},{"type":"Feature","properties":{"density":1},"geometry":{"type":"Polygon","coordinates":[[[-118.438,43.064],[-118.498,43.034],[-118.505,43.004],[-118.49,42.978],[-118.427,42.963],[-118.352,42.974],[-118.288,43.027],[-118.217,43.049],[-117.954,42.974],[-117.827,42.97],[-117.755,42.997],[-117.722,43.034],[-117.718,43.068],[-117.752,43.113],[-117.842,43.15],[-118.01,43.15],[-118.277,43.128],[-118.37,43.102],[-118.438,43.064]]]}},{"type":"Feature","properties":{"density":1},"geometry":{"type":"Polygon","coordinates":[[[-118.074,43.289],[-118.175,43.259],[-118.187,43.203],[-118.078,43.135],[-117.819,43.094],[-117.572,43.203],[-117.41,43.225],[-117.324,43.263],[-117.2,43.285],[-117.073,43.353],[-116.949,43.383],[-116.428,43.428],[-116.267,43.499],[-116.218,43.555],[-116.222,43.664],[-116.282,43.724],[-116.394,43.762],[-116.503,43.777],[-116.739,43.773],[-116.837,43.75],[-116.945,43.694],[-117.257,43.63],[-117.362,43.585],[-117.605,43.405],[-117.763,43.33],[-117.909,43.289],[-118.074,43.289]]]}},{"type":"Feature","properties":{"density":1},"geometry":{"type":"Polygon","coordinates":[[[-116.192,43.75],[-116.237,43.773],[-116.334,43.788],[-116.458,43.78],[-116.578,43.739],[-116.687,43.683],[-116.75,43.623],[-116.81,43.548],[-116.908,43.368],[-116.972,43.293],[-117.043,43.248],[-117.148,43.21],[-117.5,43.109],[-117.575,43.06],[-117.62,42.989],[-117.628,42.903],[-117.568,42.742],[-117.512,42.663],[-117.455,42.603],[-117.339,42.524],[-117.2,42.494],[-117.133,42.52],[-117.073,42.607],[-116.945,42.678],[-116.915,42.768],[-116.882,42.805],[-116.81,42.832],[-116.679,42.798],[-116.477,42.783],[-116.361,42.824],[-116.128,42.959],[-116.053,43.027],[-115.959,43.169],[-115.944,43.218],[-115.937,43.432],[-115.974,43.54],[-116.064,43.687],[-116.192,43.75]]]}},{"type":"Feature","properties":{"density":1},"geometry":{"type":"Polygon","coordinates":[[[-93.221,17.963],[-93.296,17.998],[-93.514,18.148],[-93.599,18.185],[-93.849,18.17],[-93.946,18.223],[-94.129,18.29],[-94.281,18.295],[-94.368,18.263],[-94.413,18.198],[-94.428,18.125],[-94.413,18.058],[-94.371,17.983],[-94.246,17.88],[-94.144,17.838],[-93.879,17.793],[-93.479,17.795],[-93.236,17.718],[-93.124,17.708],[-93.069,17.723],[-93.049,17.78],[-93.066,17.813],[-93.221,17.963]]]}},{"type":"Feature","properties":{"density":1},"geometry":{"type":"Polygon","coordinates":[[[-105.209,38.433],[-104.782,37.437],[-104.697,36.582],[-104.81,35.7],[-106.405,34.931],[-110.904,34.219],[-112.47,34.333],[-114.52,33.991],[-115.631,33.108],[-116.001,32.112],[-115.745,31.087],[-114.357,30.536],[-113.645,30.536],[-113.161,30.678],[-112.335,31.134],[-111.879,31.333],[-111.196,31.39],[-110.114,31.105],[-108.889,30.308],[-108.178,29.425],[-107.836,28.543],[-107.523,27.176],[-107.352,26.065],[-107.807,25.04],[-108.633,24.385],[-109.715,23.731],[-110.655,23.275],[-112.449,22.62],[-113.047,22.307],[-113.759,21.766],[-114.442,20.712],[-114.727,19.801],[-114.755,18.662],[-114.527,17.58],[-113.502,15.701],[-112.591,14.903],[-111.452,14.391],[-110.085,14.135],[-108.348,14.163],[-105.416,14.533],[-104.106,14.533],[-102.995,14.448],[-101.6,13.964],[-100.319,13.252],[-98.866,12.739],[-97.357,12.511],[-95.905,12.426],[-94.481,12.568],[-92.744,12.939],[-91.207,13.451],[-89.811,14.021],[-88.502,14.732],[-87.249,15.729],[-86.537,16.612],[-85.796,17.922],[-85.284,18.89],[-84.6,19.545],[-83.86,20.057],[-82.693,20.712],[-81.411,21.196],[-80.87,21.196],[-80.101,21.054],[-79.674,20.883],[-78.735,20.399],[-78.08,20.171],[-77.083,20.029],[-76.514,20.0],[-75.773,20.0],[-75.261,20.143],[-74.805,20.342],[-74.378,20.712],[-74.093,20.997],[-73.894,21.424],[-73.865,21.965],[-73.894,22.62],[-74.122,23.36],[-74.463,24.101],[-74.919,24.898],[-75.802,26.009],[-76.172,26.72],[-76.4,27.489],[-76.428,28.116],[-76.115,30.166],[-75.83,30.963],[-75.46,31.703],[-74.129,32.465],[-73.744,32.721],[-73.104,32.978],[-72.25,33.02],[-71.096,32.85],[-70.242,32.551],[-69.388,32.166],[-68.363,31.867],[-66.825,31.696],[-63.622,31.483],[-62.127,31.568],[-60.247,31.739],[-58.24,32.252],[-56.745,32.935],[-55.549,33.661],[-54.652,34.43],[-53.798,35.498],[-53.2,36.566],[-52.687,39.171],[-52.901,39.769],[-53.413,40.538],[-54.268,41.178],[-54.994,41.862],[-55.122,42.204],[-55.25,42.802],[-55.293,43.357],[-55.165,44.126],[-54.908,44.809],[-54.609,45.492],[-54.182,46.176],[-53.413,46.987],[-52.303,47.842],[-51.235,48.568],[-49.954,49.336],[-48.971,50.191],[-48.373,51.344],[-48.117,52.454],[-48.117,53.779],[-47.647,56.042],[-47.605,56.512],[-47.733,57.11],[-48.117,57.751],[-48.672,58.349],[-49.441,58.733],[-50.125,58.904],[-51.15,58.989],[-52.303,58.989],[-53.2,58.733],[-55.335,58.05],[-56.788,57.665],[-58.197,57.708],[-59.778,57.964],[-61.401,58.263],[-64.604,58.69],[-66.441,58.69],[-68.491,58.562],[-71.367,58.05],[-71.936,57.794],[-73.132,57.196],[-74.072,56.626],[-75.012,56.028],[-76.264,55.373],[-77.432,54.69],[-78.429,54.149],[-80.963,53.152],[-82.614,52.611],[-84.294,52.298],[-87.284,52.127],[-89.363,52.326],[-92.922,52.953],[-94.232,53.238],[-95.485,53.75],[-96.595,54.32],[-97.336,54.918],[-98.019,55.686],[-98.617,56.626],[-99.244,58.335],[-99.528,59.986],[-99.528,61.267],[-99.585,62.691],[-99.585,63.033],[-99.358,63.916],[-99.101,64.485],[-98.76,64.912],[-98.133,65.368],[-97.25,65.852],[-95.229,66.735],[-94.431,67.19],[-92.353,68.443],[-91.498,68.87],[-90.559,69.24],[-89.591,69.525],[-88.366,69.81],[-87.37,69.952],[-86.231,70.18],[-85.433,70.436],[-85.035,70.693],[-84.807,70.949],[-84.693,71.49],[-84.778,71.775],[-85.006,72.002],[-87.469,72.629],[-88.494,72.8],[-90.075,73.013],[-92.637,73.312],[-95.841,73.782],[-98.788,74.167],[-101.65,74.337],[-104.682,74.551],[-107.715,74.722],[-110.107,74.807],[-112.499,74.807],[-114.207,74.722],[-116.428,74.466],[-117.325,74.337],[-118.009,74.209],[-118.692,74.038],[-119.375,73.739],[-120.059,73.184],[-120.443,72.8],[-120.742,72.244],[-120.998,71.647],[-121.127,71.049],[-121.169,70.451],[-121.169,69.81],[-120.956,69.169],[-120.614,68.486],[-120.272,67.888],[-119.119,66.82],[-118.478,66.393],[-117.624,65.88],[-116.727,65.282],[-116.215,64.813],[-115.787,64.215],[-115.574,63.36],[-115.531,62.463],[-115.916,61.695],[-116.727,60.755],[-117.795,60.072],[-118.777,59.644],[-119.931,59.345],[-121.383,59.046],[-122.579,58.833],[-124.074,58.491],[-124.842,58.235],[-125.611,57.936],[-126.295,57.509],[-126.679,56.954],[-126.935,56.313],[-127.79,54.989],[-127.875,54.69],[-127.96,54.22],[-127.918,53.707],[-127.747,53.238],[-127.405,52.725],[-126.893,52.255],[-125.611,51.572],[-124.971,51.145],[-124.415,50.718],[-123.903,50.162],[-123.39,49.479],[-123.006,48.71],[-122.707,47.899],[-122.579,47.087],[-122.408,45.934],[-122.536,45.165],[-122.584,44.289],[-122.071,43.635],[-120.676,43.065],[-119.195,42.382],[-118.17,41.983],[-117.173,41.955],[-116.063,42.04],[-115.436,42.382],[-115.009,43.407],[-114.411,44.688],[-113.699,45.713],[-112.931,46.511],[-111.274,46.805],[-109.452,47.232],[-108.028,47.033],[-106.377,47.118],[-105.038,46.748],[-104.156,46.349],[-103.842,45.865],[-104.099,45.324],[-105.323,44.726],[-106.291,44.071],[-106.633,43.416],[-106.348,42.477],[-105.693,41.138],[-105.408,40.313],[-105.38,39.145],[-105.209,38.433]]]}},{"type":"Feature","properties":{"density":1},"geometry":{"type":"Polygon","coordinates":[[[-93.309,17.424],[-93.751,17.616],[-93.879,17.643],[-94.102,17.738],[-94.24,17.863],[-94.439,17.896],[-94.547,17.863],[-94.622,17.802],[-94.652,17.653],[-94.47,17.38],[-94.244,17.076],[-94.156,17.019],[-94.031,16.972],[-93.795,16.938],[-93.623,16.874],[-93.43,16.87],[-93.285,16.904],[-93.184,16.951],[-93.103,17.039],[-93.076,17.171],[-93.103,17.275],[-93.191,17.377],[-93.309,17.424]]]}},{"type":"Feature","properties":{"density":1},"geometry":{"type":"Polygon","coordinates":[[[-105.89,63.515],[-105.526,63.383],[-105.434,63.387],[-105.431,63.431],[-106.136,63.802],[-106.447,63.937],[-106.514,63.96],[-106.552,63.954],[-106.568,63.886],[-106.302,63.69],[-105.89,63.515]]]}},{"type":"Feature","properties":{"density":1},"geometry":{"type":"Polygon","coordinates":[[[-104.8,63.107],[-104.516,63.032],[-104.435,63.039],[-104.392,63.076],[-104.459,63.134],[-104.638,63.188],[-105.124,63.238],[-105.175,63.238],[-105.222,63.191],[-105.188,63.144],[-104.8,63.107]]]}},{"type":"Feature","properties":{"density":1},"geometry":{"type":"Polygon","coordinates":[[[-93.803,33.463],[-93.813,33.392],[-93.803,33.362],[-93.749,33.358],[-93.691,33.412],[-93.671,33.466],[-93.577,33.507],[-93.482,33.52],[-93.448,33.544],[-93.432,33.561],[-93.432,33.645],[-93.482,33.73],[-93.58,33.74],[-93.688,33.676],[-93.803,33.463]]]}},{"type":"Feature","properties":{"density":1},"geometry":{"type":"Polygon","coordinates":[[[-115.621,37.823],[-115.729,37.745],[-115.753,37.694],[-115.793,37.519],[-115.793,37.384],[-115.749,37.343],[-115.722,37.343],[-115.668,37.377],[-115.648,37.455],[-115.54,37.583],[-115.489,37.677],[-115.506,37.765],[-115.54,37.802],[-115.621,37.823]]]}},{"type":"Feature","properties":{"density":1},"geometry":{"type":"Polygon","coordinates":[[[-118.405,37.137],[-118.35,36.96],[-118.309,36.93],[-118.279,36.93],[-118.228,36.975],[-118.218,37.107],[-118.259,37.229],[-118.264,37.33],[-118.324,37.461],[-118.421,37.553],[-118.471,37.522],[-118.502,37.36],[-118.405,37.137]]]}},{"type":"Feature","properties":{"density":1},"geometry":{"type":"Polygon","coordinates":[[[-121.51,43.868],[-122.161,43.51],[-122.512,43.402],[-122.566,43.369],[-122.691,43.223],[-122.681,43.129],[-122.593,43.078],[-122.505,43.058],[-122.174,43.132],[-122.093,43.169],[-121.729,43.423],[-121.513,43.51],[-121.324,43.612],[-121.209,43.72],[-121.182,43.794],[-121.175,43.851],[-121.189,43.909],[-121.229,43.939],[-121.331,43.942],[-121.51,43.868]]]}},{"type":"Feature","properties":{"density":1},"geometry":{"type":"Polygon","coordinates":[[[-80.645,56.431],[-81.74,56.431],[-82.663,56.374],[-86.988,56.374],[-88.429,56.431],[-90.505,56.835],[-92.87,57.527],[-94.542,58.334],[-97.137,59.372],[-99.04,60.41],[-101.231,63.293],[-102.788,65.831],[-104.576,70.098],[-105.268,71.943],[-106.709,72.923],[-111.207,73.788],[-112.649,73.788],[-114.379,73.5],[-115.417,72.866],[-116.57,71.482],[-116.916,70.79],[-117.147,69.81],[-116.743,68.714],[-116.685,67.618],[-117.32,66.638],[-118.646,65.946],[-119.857,65.369],[-120.664,65.196],[-121.76,65.139],[-123.086,64.793],[-124.355,64.158],[-125.969,59.603],[-125.912,56.662],[-126.027,56.028],[-126.258,55.163],[-126.488,54.355],[-126.777,53.606],[-126.834,52.798],[-126.431,50.895],[-126.431,50.492],[-126.258,50.03],[-126.258,49.857],[-125.969,48.877],[-125.508,48.358],[-125.047,47.897],[-124.47,47.436],[-124.182,47.09],[-124.182,47.032],[-123.72,45.071],[-123.605,44.668],[-123.259,43.918],[-122.567,42.88],[-121.76,42.361],[-120.664,41.496],[-119.626,41.438],[-117.954,41.265],[-117.147,41.265],[-116.282,41.381],[-115.417,41.727],[-115.071,42.073],[-113.687,43.053],[-112.937,43.803],[-112.187,44.379],[-111.38,44.841],[-109.419,45.533],[-106.94,45.533],[-105.441,45.475],[-103.826,45.052],[-102.788,44.36],[-102.25,43.899],[-101.75,42.976],[-101.519,42.092],[-101.519,41.669],[-101.481,40.746],[-101.558,39.708],[-101.596,38.824],[-100.597,35.979],[-99.712,34.672],[-98.405,33.058],[-97.252,32.212],[-95.676,30.136],[-95.561,29.559],[-95.561,29.136],[-95.637,28.714],[-95.83,28.291],[-96.214,27.599],[-96.445,27.061],[-96.445,26.522],[-96.022,25.753],[-94.792,24.677],[-93.408,23.678],[-91.87,22.986],[-90.409,22.832],[-88.948,22.909],[-88.256,23.139],[-87.795,23.447],[-85.104,24.062],[-84.258,24.408],[-82.721,25.292],[-81.49,26.099],[-80.299,27.022],[-79.338,27.791],[-78.453,28.598],[-78.069,29.329],[-77.454,30.982],[-76.839,32.135],[-76.031,32.981],[-75.186,33.75],[-74.186,34.595],[-73.379,35.134],[-71.956,35.979],[-71.072,36.249],[-69.573,37.094],[-68.958,37.094],[-68.42,36.864],[-67.958,35.557],[-67.689,34.173],[-67.574,32.327],[-67.574,31.328],[-67.651,27.714],[-67.997,25.331],[-67.997,24.216],[-67.843,22.64],[-67.266,21.217],[-66.19,19.718],[-64.191,18.103],[-62.538,17.45],[-61.5,17.373],[-60.039,17.45],[-58.424,17.642],[-57.117,17.949],[-55.118,18.949],[-53.504,19.833],[-52.12,20.756],[-50.659,21.909],[-49.698,22.87],[-48.852,24.869],[-48.967,26.33],[-49.505,26.753],[-50.813,26.292],[-51.966,25.484],[-53.196,24.562],[-56.348,22.524],[-58.386,21.794],[-59.347,21.871],[-60.385,22.101],[-60.885,22.716],[-61.538,24.677],[-62.076,27.407],[-62.076,30.021],[-62.038,32.02],[-61.615,32.981],[-60.731,34.249],[-59.001,35.441],[-57.925,36.594],[-57.54,37.786],[-57.54,39.093],[-57.348,41.823],[-57.002,43.284],[-56.425,44.552],[-55.349,45.398],[-53.542,46.705],[-51.351,48.666],[-49.582,50.626],[-48.467,51.78],[-47.276,52.664],[-45.815,53.356],[-44.662,53.971],[-43.431,54.701],[-42.432,55.778],[-41.971,57.085],[-42.201,58.392],[-43.124,59.622],[-44.008,59.776],[-44.662,59.353],[-45.277,58.353],[-45.7,57.508],[-46.584,56.7],[-47.968,56.354],[-49.121,56.431],[-50.197,56.47],[-52.812,56.7],[-54.349,57.162],[-55.733,57.7],[-58.001,58.969],[-58.386,59.199],[-59.347,59.507],[-61.269,60.276],[-63.076,60.429],[-64.114,60.468],[-64.883,60.237],[-66.151,59.507],[-67.036,58.815],[-68.112,57.738],[-69.188,57.085],[-70.265,56.816],[-72.264,56.431],[-73.187,56.277],[-76.531,56.277],[-77.608,56.431],[-80.645,56.431]]]}},{"type":"Feature","properties":{"density":1},"geometry":{"type":"Polygon","coordinates":[[[-91.628,18.353],[-91.713,19.071],[-91.713,19.378],[-92.26,20.455],[-92.96,21.087],[-93.234,21.736],[-93.302,22.608],[-93.78,23.547],[-94.549,23.752],[-95.66,23.411],[-96.292,22.608],[-96.463,21.941],[-96.583,21.241],[-96.651,20.984],[-97.129,20.54],[-98.035,20.181],[-98.752,20.045],[-101.298,20.574],[-102.494,21.412],[-103.69,22.078],[-105.16,22.693],[-106.612,23.0],[-107.466,23.0],[-108.047,22.71],[-108.098,22.215],[-107.381,21.07],[-107.056,20.66],[-106.441,19.805],[-106.014,19.019],[-105.946,17.858],[-106.048,16.867],[-104.664,15.295],[-103.742,14.731],[-101.725,14.082],[-99.726,13.603],[-98.223,13.449],[-96.343,13.432],[-94.583,13.723],[-92.311,13.569],[-91.354,13.808],[-90.62,14.406],[-90.432,15.449],[-90.466,15.859],[-90.568,16.337],[-90.705,16.679],[-91.218,17.277],[-91.406,17.379],[-91.559,17.772],[-91.628,18.353]]]}},{"type":"Feature","properties":{"density":2},"geometry":{"type":"Polygon","coordinates":[[[-100.873,52.555],[-100.959,52.57],[-101.001,52.555],[-101.229,52.401],[-101.424,52.349],[-101.492,52.296],[-101.484,52.229],[-101.454,52.195],[-101.357,52.146],[-101.154,52.109],[-101.057,52.124],[-100.978,52.202],[-100.854,52.401],[-100.847,52.469],[-100.873,52.555]]]}},{"type":"Feature","properties":{"density":2},"geometry":{"type":"Polygon","coordinates":[[[-99.845,52.591],[-99.908,52.604],[-100.013,52.579],[-100.123,52.484],[-100.313,52.431],[-100.355,52.394],[-100.363,52.346],[-100.303,52.164],[-100.16,52.029],[-100.053,51.879],[-99.92,51.824],[-99.825,51.814],[-99.748,51.836],[-99.695,51.894],[-99.673,51.961],[-99.668,52.111],[-99.68,52.189],[-99.783,52.346],[-99.78,52.516],[-99.8,52.559],[-99.845,52.591]]]}},{"type":"Feature","properties":{"density":2},"geometry":{"type":"Polygon","coordinates":[[[-100.465,52.164],[-100.498,52.176],[-100.553,52.154],[-100.625,52.076],[-100.64,52.026],[-100.645,51.956],[-100.603,51.854],[-100.585,51.734],[-100.558,51.671],[-100.483,51.589],[-100.275,51.496],[-100.153,51.386],[-100.035,51.359],[-99.953,51.424],[-99.945,51.481],[-100.01,51.719],[-100.043,51.766],[-100.223,51.836],[-100.328,51.911],[-100.368,51.959],[-100.43,52.116],[-100.465,52.164]]]}},{"type":"Feature","properties":{"density":2},"geometry":{"type":"Polygon","coordinates":[[[-122.443,43.401],[-122.491,43.408],[-122.549,43.386],[-122.581,43.251],[-122.608,43.21],[-122.734,43.166],[-122.776,43.128],[-122.779,43.065],[-122.751,43.033],[-122.644,43.018],[-122.499,43.091],[-122.446,43.185],[-122.414,43.211],[-122.444,43.276],[-122.446,43.306],[-122.419,43.361],[-122.443,43.401]]]}},{"type":"Feature","properties":{"density":2},"geometry":{"type":"Polygon","coordinates":[[[-120.783,45.666],[-120.982,45.617],[-121.042,45.587],[-121.229,45.437],[-121.387,45.358],[-121.537,45.31],[-121.54,45.28],[-121.484,45.238],[-121.293,45.253],[-120.963,45.407],[-120.693,45.49],[-120.644,45.535],[-120.655,45.625],[-120.783,45.666]]]}},{"type":"Feature","properties":{"density":2},"geometry":{"type":"Polygon","coordinates":[[[-121.369,44.996],[-121.437,44.973],[-121.467,44.936],[-121.497,44.851],[-121.497,44.771],[-121.469,44.716],[-121.392,44.648],[-121.292,44.623],[-121.262,44.656],[-121.264,44.691],[-121.284,44.721],[-121.357,44.763],[-121.387,44.841],[-121.364,44.901],[-121.314,44.958],[-121.327,44.981],[-121.369,44.996]]]}},{"type":"Feature","properties":{"density":2},"geometry":{"type":"Polygon","coordinates":[[[-121.337,44.521],[-121.417,44.471],[-121.514,44.466],[-121.527,44.413],[-121.517,44.388],[-121.479,44.373],[-121.432,44.416],[-121.304,44.451],[-121.289,44.468],[-121.287,44.518],[-121.337,44.521]]]}},{"type":"Feature","properties":{"density":2},"geometry":{"type":"Polygon","coordinates":[[[-119.12,46.179],[-119.261,46.162],[-119.362,46.089],[-119.43,45.87],[-119.492,45.768],[-119.604,45.723],[-119.846,45.729],[-120.11,45.785],[-120.223,45.785],[-120.307,45.763],[-120.397,45.712],[-120.465,45.645],[-120.532,45.56],[-120.572,45.465],[-120.594,45.346],[-120.6,45.161],[-120.679,44.975],[-120.774,44.868],[-121.016,44.655],[-121.044,44.565],[-121.022,44.452],[-120.954,44.368],[-120.853,44.328],[-120.746,44.323],[-120.42,44.396],[-120.313,44.357],[-120.223,44.227],[-120.133,43.963],[-120.06,43.895],[-119.964,43.873],[-119.728,43.873],[-119.61,43.918],[-119.419,43.952],[-119.317,44.008],[-119.16,44.03],[-119.002,44.075],[-118.929,44.171],[-118.862,44.351],[-118.805,44.424],[-118.732,44.469],[-118.597,44.604],[-118.564,44.717],[-118.547,45.009],[-118.468,45.155],[-118.417,45.324],[-118.423,45.403],[-118.485,45.549],[-118.665,45.841],[-118.822,45.999],[-118.974,46.117],[-119.12,46.179]]]}},{"type":"Feature","properties":{"density":2},"geometry":{"type":"Polygon","coordinates":[[[-119.465,43.826],[-119.454,43.938],[-119.404,44.012],[-119.314,44.073],[-119.117,44.141],[-118.948,44.259],[-118.819,44.293],[-118.515,44.293],[-118.447,44.327],[-118.234,44.523],[-118.138,44.72],[-118.093,44.765],[-117.947,44.855],[-117.615,45.193],[-117.457,45.328],[-117.165,45.491],[-117.024,45.547],[-116.884,45.53],[-116.828,45.474],[-116.794,45.39],[-116.782,45.294],[-116.856,45.086],[-116.917,45.018],[-117.199,44.844],[-117.289,44.771],[-117.396,44.625],[-117.469,44.557],[-117.688,44.45],[-118.251,44.0],[-118.779,43.809],[-119.179,43.584],[-119.314,43.539],[-119.381,43.539],[-119.449,43.618],[-119.477,43.792],[-119.465,43.826]]]}},{"type":"Feature","properties":{"density":2},"geometry":{"type":"Polygon","coordinates":[[[-118.041,45.919],[-118.123,45.914],[-118.202,45.884],[-118.337,45.775],[-118.359,45.719],[-118.363,45.681],[-118.341,45.629],[-118.142,45.471],[-118.086,45.389],[-118.074,45.28],[-118.093,45.228],[-118.176,45.123],[-118.198,45.066],[-118.191,45.014],[-118.112,44.913],[-118.011,44.853],[-117.857,44.83],[-117.801,44.804],[-117.621,44.628],[-117.478,44.557],[-117.433,44.56],[-117.358,44.613],[-117.321,44.71],[-117.324,44.789],[-117.366,44.864],[-117.411,44.905],[-117.699,45.055],[-117.726,45.085],[-117.737,45.126],[-117.726,45.175],[-117.684,45.231],[-117.557,45.325],[-117.441,45.348],[-117.197,45.269],[-117.009,45.261],[-116.844,45.333],[-116.781,45.385],[-116.672,45.535],[-116.612,45.584],[-116.372,45.67],[-116.229,45.678],[-116.162,45.703],[-115.926,45.846],[-115.563,46.243],[-115.47,46.395],[-115.403,46.589],[-115.394,46.808],[-115.453,46.977],[-115.546,47.07],[-115.664,47.12],[-115.824,47.137],[-115.993,47.112],[-116.187,47.011],[-116.322,46.893],[-116.525,46.58],[-116.66,46.445],[-116.803,46.37],[-117.056,46.327],[-117.284,46.319],[-117.495,46.268],[-117.655,46.167],[-117.858,45.99],[-117.925,45.948],[-118.041,45.919]]]}},{"type":"Feature","properties":{"density":2},"geometry":{"type":"Polygon","coordinates":[[[-117.691,44.448],[-117.584,44.482],[-117.483,44.442],[-117.393,44.38],[-117.365,44.33],[-117.331,44.2],[-117.28,44.161],[-117.061,44.127],[-116.836,44.161],[-116.706,44.2],[-116.549,44.268],[-116.442,44.335],[-116.363,44.42],[-116.296,44.527],[-116.268,44.645],[-116.217,45.072],[-116.166,45.19],[-116.093,45.303],[-115.998,45.37],[-115.728,45.505],[-115.593,45.607],[-115.508,45.697],[-115.356,45.922],[-115.311,46.04],[-115.226,46.63],[-115.226,46.782],[-115.175,46.947],[-115.099,47.086],[-115.011,47.162],[-114.707,47.238],[-114.403,47.124],[-114.201,47.073],[-113.834,47.048],[-113.593,47.111],[-113.302,47.225],[-113.15,47.301],[-112.467,47.845],[-112.239,47.972],[-111.657,48.149],[-111.492,48.238],[-111.391,48.351],[-111.366,48.503],[-111.378,48.718],[-111.467,48.883],[-111.632,49.035],[-111.986,49.199],[-112.416,49.301],[-112.771,49.364],[-113.074,49.389],[-113.618,49.377],[-113.884,49.313],[-114.403,49.085],[-114.669,48.908],[-115.061,48.541],[-115.2,48.389],[-115.985,47.428],[-116.301,47.01],[-116.517,46.782],[-116.833,46.542],[-117.01,46.453],[-117.175,46.403],[-117.466,46.238],[-117.681,45.998],[-117.782,45.833],[-117.858,45.605],[-117.934,45.2],[-117.947,44.833],[-117.909,44.669],[-117.82,44.567],[-117.668,44.492],[-117.691,44.448]]]}},{"type":"Feature","properties":{"density":2},"geometry":{"type":"Polygon","coordinates":[[[-117.137,42.903],[-117.238,42.903],[-117.332,42.854],[-117.354,42.805],[-117.35,42.772],[-117.275,42.655],[-117.215,42.652],[-117.17,42.693],[-117.077,42.674],[-117.035,42.715],[-117.02,42.742],[-117.05,42.824],[-117.088,42.88],[-117.137,42.903]]]}},{"type":"Feature","properties":{"density":2},"geometry":{"type":"Polygon","coordinates":[[[-120.504,48.236],[-120.586,48.247],[-120.642,48.228],[-120.714,48.157],[-120.815,48.093],[-120.849,48.045],[-120.815,47.932],[-120.635,47.794],[-120.549,47.752],[-120.455,47.756],[-120.342,47.794],[-120.264,47.902],[-120.279,47.974],[-120.342,48.101],[-120.421,48.187],[-120.504,48.236]]]}},{"type":"Feature","properties":{"density":2},"geometry":{"type":"Polygon","coordinates":[[[-120.234,49.713],[-120.331,49.725],[-120.399,49.713],[-120.552,49.631],[-120.601,49.571],[-120.631,49.507],[-120.609,49.395],[-120.609,49.278],[-120.665,49.14],[-120.665,48.952],[-120.639,48.911],[-120.571,48.892],[-120.496,48.922],[-120.417,48.982],[-120.357,49.072],[-120.282,49.282],[-120.035,49.365],[-119.982,49.402],[-119.956,49.488],[-119.877,49.59],[-119.735,49.687],[-119.705,49.792],[-119.742,49.83],[-119.881,49.848],[-119.926,49.83],[-120.001,49.747],[-120.065,49.725],[-120.234,49.713]]]}},{"type":"Feature","properties":{"density":2},"geometry":{"type":"Polygon","coordinates":[[[-120.526,49.687],[-120.624,49.687],[-120.74,49.65],[-120.815,49.567],[-121.01,49.5],[-121.058,49.466],[-121.122,49.361],[-121.133,49.297],[-121.133,49.08],[-121.111,49.016],[-121.073,48.986],[-121.021,48.99],[-120.954,49.023],[-120.886,49.068],[-120.729,49.263],[-120.657,49.301],[-120.586,49.398],[-120.552,49.511],[-120.455,49.605],[-120.455,49.653],[-120.526,49.687]]]}},{"type":"Feature","properties":{"density":2},"geometry":{"type":"Polygon","coordinates":[[[-109.093,71.734],[-109.51,71.81],[-110.099,71.886],[-110.687,71.924],[-112.073,71.924],[-112.756,71.905],[-113.383,71.867],[-114.864,71.677],[-115.395,71.563],[-115.832,71.411],[-116.23,71.108],[-116.553,70.709],[-116.8,70.215],[-116.895,69.703],[-116.838,69.247],[-116.648,68.887],[-116.382,68.659],[-116.097,68.469],[-115.319,68.203],[-114.864,67.975],[-114.541,67.634],[-114.142,66.685],[-113.971,66.172],[-113.383,65.299],[-113.079,64.995],[-112.718,64.748],[-112.282,64.483],[-111.902,64.388],[-111.523,64.35],[-111.181,64.464],[-110.706,65.033],[-110.592,65.375],[-110.516,65.716],[-110.422,66.001],[-110.118,66.267],[-109.795,66.324],[-109.472,66.134],[-109.207,65.735],[-109.169,65.394],[-109.15,64.615],[-108.998,64.236],[-108.732,63.989],[-108.219,63.837],[-107.764,63.837],[-107.327,64.008],[-107.156,64.312],[-107.099,64.596],[-107.08,64.957],[-107.213,65.584],[-107.365,66.077],[-107.574,66.476],[-107.878,66.931],[-108.2,67.254],[-108.447,67.539],[-108.618,67.843],[-108.694,68.203],[-108.618,68.545],[-108.447,68.887],[-108.238,69.19],[-107.821,69.931],[-107.783,70.31],[-107.84,70.69],[-108.011,71.032],[-108.314,71.335],[-108.694,71.62],[-109.093,71.734]]]}},{"type":"Feature","properties":{"density":2},"geometry":{"type":"Polygon","coordinates":[[[-70.339,56.6],[-70.054,56.685],[-69.342,56.714],[-68.602,56.714],[-67.748,56.657],[-66.95,56.486],[-65.1,55.945],[-64.16,55.632],[-63.391,55.29],[-62.936,54.891],[-62.622,54.464],[-62.508,54.037],[-62.565,53.496],[-62.765,53.069],[-62.936,52.442],[-62.964,51.901],[-62.85,51.417],[-62.679,51.076],[-62.195,50.648],[-61.597,50.335],[-60.914,50.079],[-60.145,49.709],[-59.604,49.31],[-59.519,48.741],[-59.775,47.972],[-60.344,47.516],[-61.398,47.288],[-62.565,47.26],[-64.416,47.431],[-65.214,47.459],[-66.039,47.26],[-66.894,46.662],[-67.719,46.263],[-68.801,46.093],[-69.428,46.121],[-69.969,46.349],[-70.51,46.719],[-71.222,47.004],[-71.962,47.175],[-72.731,47.374],[-73.272,47.573],[-74.098,47.943],[-74.582,48.029],[-75.066,47.943],[-75.408,47.516],[-75.835,47.032],[-76.205,45.58],[-76.034,44.811],[-75.806,44.014],[-75.55,43.473],[-75.18,43.103],[-73.699,42.049],[-73.642,41.679],[-73.784,41.252],[-74.212,40.853],[-74.724,40.654],[-75.351,40.654],[-75.92,40.768],[-76.062,40.996],[-76.034,41.821],[-75.949,42.191],[-76.062,42.619],[-76.29,42.989],[-76.575,43.302],[-76.803,43.644],[-77.287,44.299],[-77.543,44.925],[-77.799,45.836],[-77.913,46.861],[-77.942,47.773],[-77.771,48.968],[-77.458,49.794],[-76.974,50.62],[-76.347,51.446],[-75.379,52.813],[-74.696,53.866],[-73.813,54.72],[-72.959,55.432],[-72.218,55.916],[-70.339,56.6]]]}},{"type":"Feature","properties":{"density":2},"geometry":{"type":"Polygon","coordinates":[[[-103.341,53.695],[-103.768,53.923],[-104.594,54.208],[-106.132,54.436],[-107.669,54.55],[-108.638,54.777],[-110.83,55.489],[-112.51,56.287],[-113.962,56.799],[-114.987,56.998],[-115.87,57.027],[-116.668,56.941],[-117.55,56.771],[-118.575,56.457],[-119.287,56.173],[-122.163,54.806],[-122.932,54.493],[-123.786,54.265],[-124.64,54.122],[-125.153,53.895],[-125.409,53.439],[-125.466,53.012],[-125.466,52.613],[-125.267,52.272],[-124.47,51.702],[-123.986,51.503],[-123.074,51.019],[-122.733,50.762],[-122.391,50.364],[-121.793,49.367],[-121.651,49.082],[-121.451,48.769],[-121.337,48.484],[-121.28,48.228],[-121.252,47.972],[-121.252,47.63],[-121.28,47.288],[-121.394,46.947],[-121.537,46.662],[-121.821,46.007],[-121.907,45.694],[-121.992,45.181],[-121.878,44.783],[-121.565,44.327],[-121.11,44.014],[-120.711,43.9],[-120.512,43.815],[-120.17,43.701],[-119.914,43.587],[-119.543,43.473],[-119.002,43.359],[-118.575,43.33],[-118.091,43.33],[-117.636,43.416],[-117.009,43.644],[-116.668,43.843],[-116.44,44.014],[-116.212,44.299],[-115.984,44.64],[-115.756,44.897],[-115.443,45.381],[-115.301,45.694],[-115.187,46.036],[-115.016,46.349],[-114.703,46.605],[-113.478,47.061],[-112.994,47.203],[-111.599,47.402],[-110.745,47.459],[-109.72,47.687],[-107.641,48.285],[-106.616,48.712],[-106.075,48.855],[-105.363,48.997],[-104.651,49.168],[-104.11,49.253],[-103.341,49.253],[-102.658,49.111],[-101.804,48.741],[-101.263,48.342],[-100.75,47.829],[-100.38,47.374],[-99.668,46.918],[-99.013,46.719],[-98.045,46.14],[-97.893,45.988],[-97.457,45.457],[-96.868,44.925],[-96.583,44.697],[-96.261,44.488],[-95.71,44.223],[-95.254,44.109],[-94.742,44.09],[-94.305,44.147],[-92.407,44.469],[-91.743,44.526],[-91.002,44.431],[-90.395,44.242],[-89.844,44.033],[-88.572,43.425],[-87.737,43.046],[-87.187,42.951],[-86.579,42.951],[-86.199,43.179],[-85.896,43.52],[-85.611,43.957],[-85.478,44.394],[-85.383,45.001],[-85.307,45.627],[-85.364,46.311],[-85.478,46.88],[-85.82,47.526],[-86.18,47.981],[-86.826,48.361],[-87.357,48.551],[-88.003,48.665],[-88.477,48.684],[-89.066,48.665],[-89.977,48.589],[-90.547,48.589],[-91.477,48.513],[-92.407,48.475],[-93.603,48.494],[-94.818,48.703],[-95.881,49.006],[-96.166,49.139],[-96.374,49.291],[-96.526,49.424],[-96.906,49.823],[-97.172,50.07],[-97.475,50.297],[-97.76,50.468],[-98.045,50.582],[-98.823,50.943],[-99.013,51.076],[-99.526,51.493],[-99.867,51.702],[-101.728,52.727],[-102.107,52.955],[-102.62,53.221],[-103.341,53.695]]]}},{"type":"Feature","properties":{"density":2},"geometry":{"type":"Polygon","coordinates":[[[-106.8,62.965],[-106.645,62.825],[-106.236,62.6],[-106.186,62.591],[-106.111,62.609],[-106.032,62.666],[-106.023,62.735],[-106.038,62.771],[-106.389,62.96],[-106.546,63.098],[-106.747,63.215],[-106.881,63.281],[-107.05,63.335],[-107.13,63.301],[-107.128,63.206],[-107.058,63.113],[-106.998,63.065],[-106.8,62.965]]]}},{"type":"Feature","properties":{"density":2},"geometry":{"type":"Polygon","coordinates":[[[-117.203,43.108],[-117.321,42.905],[-117.358,42.767],[-117.335,42.683],[-117.237,42.531],[-117.196,42.507],[-117.149,42.527],[-117.115,42.585],[-117.017,42.683],[-117.007,42.804],[-116.913,43.034],[-116.892,43.128],[-116.903,43.297],[-116.936,43.327],[-116.994,43.327],[-117.078,43.266],[-117.203,43.108]]]}},{"type":"Feature","properties":{"density":2},"geometry":{"type":"Polygon","coordinates":[[[-121.405,45.998],[-121.531,45.714],[-121.781,45.36],[-121.872,45.133],[-121.929,44.848],[-121.929,44.449],[-121.656,44.108],[-121.405,43.846],[-121.189,43.72],[-120.585,43.663],[-119.378,43.344],[-119.196,43.322],[-118.489,43.367],[-117.988,43.47],[-117.658,43.572],[-117.316,43.709],[-117.02,43.925],[-116.815,44.108],[-116.69,44.221],[-116.553,44.586],[-116.257,45.087],[-116.006,45.657],[-115.858,45.816],[-115.46,46.135],[-115.368,46.238],[-115.129,46.454],[-114.89,46.613],[-114.651,46.807],[-121.405,45.998]]]}},{"type":"Feature","properties":{"density":2},"geometry":{"type":"Polygon","coordinates":[[[-121.172,46.238],[-121.377,46.015],[-121.531,45.742],[-121.684,45.554],[-121.804,45.281],[-121.89,45.024],[-121.958,44.7],[-121.872,44.341],[-121.616,43.897],[-121.223,43.777],[-120.762,43.504],[-120.352,43.299],[-119.942,43.128],[-119.532,43.196],[-119.241,43.282],[-118.489,43.282],[-117.994,43.47],[-117.276,43.811],[-117.088,43.982],[-116.73,44.204],[-116.337,44.529],[-115.978,44.768],[-115.67,45.042],[-115.294,45.452],[-114.987,45.828],[-114.44,46.443],[-114.269,46.853],[-114.201,47.263],[-113.842,47.639],[-112.014,48.032],[-111.518,48.1],[-109.827,48.1],[-109.092,48.049],[-108.477,47.946],[-107.794,47.741],[-107.161,47.604],[-106.563,47.622],[-105.983,47.741],[-105.47,47.878],[-104.547,47.929],[-103.556,47.929],[-103.112,47.895],[-101.848,47.519],[-100.122,46.631],[-99.558,46.323],[-98.977,46.101],[-97.422,45.349],[-96.807,45.161],[-95.799,45.161],[-94.723,45.435],[-93.51,45.845],[-92.775,46.255],[-92.314,46.784],[-91.989,47.416],[-91.972,47.946],[-92.45,48.544],[-92.69,48.664],[-93.646,48.869],[-94.45,49.142],[-95.628,49.569],[-96.38,49.945],[-96.859,50.304],[-97.508,51.073],[-97.542,51.449],[-97.576,52.371],[-98.055,53.089],[-98.465,53.414],[-98.772,53.533],[-99.422,53.704],[-100.412,54.046],[-100.959,54.217],[-102.565,54.524],[-103.061,54.558],[-104.206,54.558],[-105.026,54.456],[-105.436,54.388],[-107.042,54.217],[-107.366,54.234],[-108.494,54.558],[-110.767,55.925],[-112.031,56.575],[-113.039,56.882],[-114.628,57.104],[-115.516,57.104],[-116.166,56.985],[-117.703,56.78],[-118.882,56.25],[-120.335,55.84],[-122.334,54.866],[-123.239,54.388],[-124.572,53.636],[-124.931,53.294],[-124.999,52.918],[-125.136,52.406],[-124.982,52.098],[-124.692,51.859],[-124.23,51.415],[-123.735,51.124],[-123.188,50.697],[-122.829,50.372],[-122.453,49.894],[-122.146,49.586],[-121.821,48.971],[-121.497,48.681],[-121.343,48.237],[-121.274,47.878],[-121.257,47.622],[-121.086,47.211],[-121.001,46.733],[-120.984,46.579],[-121.172,46.238]]]}},{"type":"Feature","properties":{"density":2},"geometry":{"type":"Polygon","coordinates":[[[-107.017,63.353],[-107.166,63.417],[-107.483,63.623],[-107.679,63.714],[-107.733,63.714],[-107.794,63.69],[-107.827,63.643],[-107.821,63.539],[-107.679,63.366],[-107.412,63.157],[-106.99,62.904],[-106.572,62.742],[-106.194,62.553],[-106.052,62.546],[-105.917,62.617],[-105.897,62.675],[-105.917,62.718],[-106.109,62.887],[-106.403,63.066],[-106.933,63.329],[-107.017,63.353]]]}},{"type":"Feature","properties":{"density":2},"geometry":{"type":"Polygon","coordinates":[[[-121.28,45.509],[-121.334,45.448],[-121.53,45.32],[-121.543,45.3],[-121.533,45.249],[-121.449,45.235],[-121.371,45.306],[-121.179,45.431],[-121.132,45.509],[-121.145,45.539],[-121.196,45.549],[-121.233,45.549],[-121.28,45.509]]]}},{"type":"Feature","properties":{"density":2},"geometry":{"type":"Polygon","coordinates":[[[-120.895,45.097],[-121.01,45.043],[-121.375,44.817],[-121.476,44.739],[-121.483,44.695],[-121.456,44.668],[-121.368,44.668],[-121.115,44.83],[-120.821,44.938],[-120.767,44.976],[-120.733,45.036],[-120.74,45.114],[-120.774,45.131],[-120.825,45.131],[-120.895,45.097]]]}},{"type":"Feature","properties":{"density":2},"geometry":{"type":"Polygon","coordinates":[[[-117.603,43.889],[-117.715,43.804],[-118.163,43.32],[-118.183,43.261],[-118.125,43.169],[-118.048,43.158],[-117.839,43.336],[-117.594,43.464],[-117.4,43.698],[-117.366,43.756],[-117.344,43.842],[-117.353,43.885],[-117.378,43.914],[-117.477,43.932],[-117.603,43.889]]]}},{"type":"Feature","properties":{"density":2},"geometry":{"type":"Polygon","coordinates":[[[-116.905,43.45],[-117.006,43.351],[-117.175,42.895],[-117.229,42.827],[-117.315,42.775],[-117.342,42.742],[-117.337,42.676],[-117.31,42.618],[-117.2,42.499],[-117.135,42.49],[-117.063,42.514],[-116.948,42.613],[-116.682,42.96],[-116.599,43.131],[-116.482,43.318],[-116.349,43.459],[-116.318,43.516],[-116.336,43.563],[-116.388,43.601],[-116.451,43.615],[-116.523,43.601],[-116.66,43.529],[-116.905,43.45]]]}},{"type":"Feature","properties":{"density":2},"geometry":{"type":"Polygon","coordinates":[[[-120.94,46.521],[-121.044,46.249],[-121.403,45.942],[-121.582,45.66],[-121.736,45.378],[-121.941,44.865],[-121.806,44.41],[-121.48,43.968],[-120.711,43.968],[-120.352,43.84],[-119.942,43.379],[-119.378,42.892],[-118.865,42.687],[-118.507,42.687],[-118.02,42.764],[-117.686,42.917],[-116.866,43.404],[-116.251,44.122],[-116.251,44.301],[-116.097,44.814],[-115.892,45.378],[-115.482,45.942],[-115.252,46.505],[-114.995,47.736],[-114.637,48.479],[-113.996,48.94],[-113.483,48.991],[-111.894,49.478],[-110.203,49.478],[-109.562,49.53],[-109.101,49.53],[-108.511,49.376],[-108.152,49.068],[-107.46,48.402],[-106.82,47.992],[-106.102,47.71],[-105.436,47.864],[-105.026,48.069],[-104.334,48.351],[-103.514,48.351],[-102.283,48.274],[-100.618,48.223],[-99.029,48.12],[-97.952,47.889],[-97.183,47.531],[-96.004,47.018],[-95.005,46.864],[-92.493,46.352],[-90.725,45.967],[-89.392,45.557],[-88.469,45.121],[-87.803,44.891],[-87.47,44.84],[-86.317,44.916],[-85.548,45.198],[-85.138,45.378],[-84.702,45.634],[-84.241,46.223],[-83.959,46.813],[-83.882,47.249],[-83.882,47.761],[-84.651,48.863],[-84.907,49.171],[-85.445,49.401],[-87.291,49.453],[-88.316,49.248],[-91.545,48.171],[-92.826,47.915],[-94.057,47.915],[-95.338,48.838],[-96.312,49.683],[-96.824,50.478],[-97.132,51.298],[-97.183,51.631],[-97.798,52.733],[-98.798,53.528],[-99.977,54.143],[-100.874,54.425],[-101.976,54.655],[-102.719,54.655],[-104.052,54.502],[-105.051,54.553],[-105.897,54.655],[-106.999,55.117],[-107.845,55.578],[-108.409,55.988],[-108.973,56.347],[-110.459,57.372],[-110.972,57.526],[-111.612,57.654],[-113.458,57.705],[-114.278,57.705],[-116.713,57.346],[-118.481,57.013],[-119.096,56.706],[-121.428,55.681],[-122.607,55.219],[-124.504,54.553],[-124.965,54.297],[-125.375,53.938],[-125.606,53.476],[-125.683,53.22],[-125.683,52.759],[-125.58,52.323],[-125.068,51.913],[-124.145,51.324],[-122.94,50.606],[-122.428,50.35],[-121.89,49.683],[-121.48,48.94],[-121.428,48.633],[-121.403,48.12],[-121.172,47.479],[-121.121,47.172],[-120.94,46.65],[-120.94,46.521]]]}},{"type":"Feature","properties":{"density":2},"geometry":{"type":"Polygon","coordinates":[[[-93.334,17.53],[-93.375,17.649],[-93.402,17.817],[-93.517,18.023],[-93.581,18.07],[-93.692,18.121],[-93.905,18.141],[-94.08,18.067],[-94.171,17.946],[-94.192,17.868],[-94.185,17.719],[-94.215,17.52],[-94.151,17.379],[-93.942,17.149],[-93.817,17.092],[-93.733,17.122],[-93.571,17.311],[-93.409,17.385],[-93.338,17.389],[-93.294,17.426],[-93.294,17.46],[-93.334,17.53]]]}},{"type":"Feature","properties":{"density":2},"geometry":{"type":"Polygon","coordinates":[[[-48.185,52.834],[-48.492,52.655],[-48.902,52.373],[-49.338,52.04],[-50.056,51.527],[-51.337,50.707],[-52.875,49.682],[-53.439,49.425],[-53.926,49.374],[-55.002,49.349],[-55.771,49.349],[-57.77,49.4],[-58.641,49.4],[-59.846,49.528],[-61.153,49.836],[-63.101,50.22],[-64.126,50.604],[-65.049,50.912],[-65.561,50.963],[-66.92,50.963],[-67.74,50.861],[-68.175,50.707],[-68.79,50.425],[-70.661,49.272],[-71.405,48.477],[-71.687,48.042],[-71.712,47.324],[-71.456,46.863],[-70.61,46.786],[-69.713,46.863],[-66.894,48.349],[-65.741,48.605],[-63.998,48.349],[-62.588,47.836],[-61.358,47.555],[-59.897,47.196],[-57.975,46.863],[-56.386,46.76],[-54.746,46.965],[-53.977,47.273],[-52.439,48.221],[-51.055,49.041],[-49.466,50.322],[-47.108,52.014],[-46.545,52.885],[-46.134,53.731],[-45.955,54.628],[-45.955,55.602],[-46.288,55.986],[-46.698,56.038],[-47.416,55.653],[-47.621,55.294],[-47.672,54.859],[-47.698,53.782],[-47.749,53.424],[-47.826,53.167],[-48.185,52.834]]]}},{"type":"Feature","properties":{"density":2},"geometry":{"type":"Polygon","coordinates":[[[-105.228,63.223],[-104.476,63.018],[-104.377,63.018],[-104.332,63.041],[-104.317,63.124],[-104.476,63.215],[-105.008,63.322],[-105.44,63.474],[-106.602,64.036],[-106.724,64.043],[-106.8,64.02],[-106.792,63.929],[-106.602,63.815],[-105.554,63.337],[-105.228,63.223]]]}},{"type":"Feature","properties":{"density":2},"geometry":{"type":"Polygon","coordinates":[[[-115.732,37.64],[-115.763,37.401],[-115.722,37.374],[-115.685,37.397],[-115.682,37.461],[-115.55,37.65],[-115.54,37.715],[-115.587,37.769],[-115.665,37.758],[-115.729,37.721],[-115.732,37.64]]]}},{"type":"Feature","properties":{"density":2},"geometry":{"type":"Polygon","coordinates":[[[-122.158,43.396],[-122.235,43.355],[-122.552,43.267],[-122.596,43.234],[-122.62,43.186],[-122.6,43.099],[-122.563,43.072],[-122.519,43.065],[-122.448,43.119],[-122.309,43.19],[-122.178,43.193],[-122.026,43.298],[-122.016,43.362],[-122.053,43.396],[-122.104,43.409],[-122.158,43.396]]]}},{"type":"Feature","properties":{"density":2},"geometry":{"type":"Polygon","coordinates":[[[-120.369,46.252],[-120.652,46.117],[-120.892,45.901],[-121.375,45.509],[-121.56,45.313],[-121.577,45.263],[-121.553,45.175],[-121.456,45.155],[-121.094,45.29],[-120.99,45.351],[-120.902,45.428],[-120.514,45.884],[-120.244,46.1],[-120.038,46.231],[-119.95,46.306],[-119.849,46.41],[-119.832,46.498],[-119.856,46.528],[-119.93,46.525],[-120.106,46.437],[-120.369,46.252]]]}},{"type":"Feature","properties":{"density":2},"geometry":{"type":"Polygon","coordinates":[[[-119.846,46.272],[-120.092,46.181],[-120.342,46.036],[-120.814,45.678],[-121.01,45.475],[-121.267,45.158],[-121.506,44.79],[-121.621,44.547],[-121.628,44.47],[-121.607,44.368],[-121.415,44.341],[-121.125,44.352],[-120.936,44.419],[-120.73,44.541],[-120.646,44.665],[-120.639,44.854],[-120.679,44.996],[-120.679,45.101],[-120.608,45.367],[-120.43,45.587],[-120.241,45.759],[-120.109,45.853],[-119.491,46.218],[-119.451,46.262],[-119.434,46.319],[-119.461,46.366],[-119.579,46.387],[-119.846,46.272]]]}},{"type":"Feature","properties":{"density":2},"geometry":{"type":"Polygon","coordinates":[[[-96.635,56.49],[-97.711,56.951],[-98.557,57.797],[-99.749,59.027],[-101.056,60.142],[-101.825,60.95],[-102.978,61.949],[-104.324,63.256],[-105.169,64.179],[-106.131,66.447],[-106.131,67.562],[-106.592,68.946],[-106.669,69.638],[-107.553,70.753],[-108.283,71.175],[-111.743,72.79],[-112.205,72.713],[-113.05,72.713],[-113.935,72.79],[-114.626,72.483],[-115.165,72.06],[-115.511,71.252],[-115.511,70.445],[-115.395,69.33],[-114.896,68.446],[-114.357,67.869],[-114.05,67.408],[-113.781,66.562],[-113.319,65.486],[-112.358,64.294],[-111.513,63.487],[-110.206,62.487],[-108.552,61.488],[-107.668,60.873],[-106.746,60.373],[-105.823,60.181],[-105.054,59.681],[-103.901,58.681],[-103.094,58.182],[-102.44,57.72],[-101.671,56.721],[-101.056,56.336],[-99.518,55.76],[-97.289,55.106],[-96.097,54.876],[-95.674,54.876],[-95.405,55.029],[-95.213,55.414],[-95.213,55.798],[-95.597,56.259],[-96.635,56.49]]]}},{"type":"Feature","properties":{"density":2},"geometry":{"type":"Polygon","coordinates":[[[-117.557,61.026],[-117.113,61.419],[-116.907,62.0],[-116.907,62.513],[-116.976,62.923],[-117.13,63.111],[-117.625,63.572],[-118.274,63.863],[-118.924,64.068],[-119.607,64.119],[-120.496,64.119],[-121.042,64.136],[-121.931,64.341],[-122.717,64.461],[-123.332,64.136],[-123.537,63.521],[-123.537,62.872],[-123.366,62.359],[-123.093,61.744],[-122.665,60.89],[-122.272,60.206],[-121.435,58.669],[-120.735,58.156],[-120.29,57.985],[-119.607,58.173],[-119.026,58.464],[-118.787,58.788],[-118.65,59.01],[-118.65,59.215],[-118.462,59.711],[-117.933,60.565],[-117.847,60.736],[-117.557,61.026]]]}},{"type":"Feature","properties":{"density":2},"geometry":{"type":"Polygon","coordinates":[[[-89.015,51.125],[-90.168,50.92],[-91.731,51.074],[-93.038,51.356],[-95.14,51.945],[-96.242,52.765],[-97.677,53.586],[-98.651,53.996],[-99.548,54.329],[-100.599,54.816],[-101.752,55.123],[-102.726,55.482],[-104.315,56.405],[-107.468,57.866],[-108.826,58.327],[-110.261,58.583],[-113.26,58.968],[-114.669,58.968],[-116.361,58.763],[-118.078,58.404],[-119.462,57.968],[-121.512,57.174],[-122.589,56.712],[-123.383,56.302],[-123.973,55.892],[-124.408,55.508],[-124.767,55.021],[-125.228,54.559],[-125.561,54.047],[-125.895,53.175],[-125.895,52.458],[-125.715,51.766],[-125.228,51.381],[-124.741,51.1],[-123.178,50.074],[-122.896,49.613],[-122.204,48.767],[-121.845,47.691],[-121.845,47.204],[-121.922,46.358],[-122.05,45.538],[-121.999,44.769],[-121.717,44.052],[-120.769,43.385],[-120.154,43.078],[-119.282,42.77],[-118.103,42.206],[-117.386,42.001],[-116.899,42.104],[-116.386,42.309],[-115.438,42.821],[-115.105,43.026],[-114.515,43.436],[-114.234,44.308],[-114.208,44.744],[-114.157,45.128],[-113.567,45.641],[-113.131,46.666],[-112.901,47.076],[-112.619,47.486],[-112.106,48.05],[-111.568,48.357],[-110.927,48.511],[-109.902,48.511],[-109.159,48.537],[-108.159,48.434],[-107.647,48.357],[-107.109,48.255],[-106.058,47.922],[-104.725,47.691],[-103.956,47.588],[-103.341,47.383],[-100.676,46.307],[-100.086,46.102],[-99.42,45.999],[-97.985,45.564],[-96.473,44.615],[-96.268,44.282],[-96.268,43.898],[-96.319,43.206],[-96.037,42.129],[-95.653,41.976],[-95.345,41.873],[-94.627,41.668],[-93.961,41.335],[-93.551,40.592],[-93.551,40.515],[-93.192,39.977],[-92.526,39.361],[-91.603,38.131],[-91.296,37.747],[-90.809,37.465],[-89.963,37.106],[-89.297,37.004],[-86.529,36.773],[-83.966,36.773],[-83.197,36.927],[-82.736,37.106],[-82.223,37.362],[-81.659,37.619],[-79.429,38.977],[-78.097,39.618],[-76.995,40.207],[-76.508,40.54],[-76.046,40.72],[-75.406,40.72],[-75.021,40.694],[-74.611,40.464],[-73.689,39.438],[-73.022,39.182],[-71.151,39.182],[-70.408,39.438],[-69.28,40.13],[-68.409,40.643],[-67.743,41.181],[-67.23,41.54],[-66.436,42.232],[-65.923,42.616],[-65.334,42.924],[-64.821,43.231],[-63.745,43.744],[-62.591,44.257],[-61.233,44.641],[-60.515,44.769],[-60.054,44.82],[-59.336,45.179],[-58.183,45.922],[-58.029,46.23],[-57.952,46.845],[-58.721,47.23],[-60.182,46.768],[-61.874,45.794],[-63.488,44.974],[-64.513,44.513],[-65.308,44.257],[-67.563,43.436],[-68.614,42.975],[-69.511,42.616],[-71.51,42.001],[-72.125,42.001],[-73.304,42.053],[-74.765,42.053],[-75.713,42.104],[-76.251,42.206],[-76.61,42.539],[-77.072,43.129],[-77.456,43.59],[-77.738,44.205],[-77.943,44.872],[-78.481,45.846],[-79.019,46.871],[-79.019,47.742],[-79.071,48.408],[-79.301,48.972],[-79.788,49.485],[-80.147,49.716],[-80.967,50.126],[-81.762,50.382],[-82.505,50.51],[-87.349,50.894],[-87.836,50.971],[-88.553,51.125],[-89.015,51.125]]]}},{"type":"Feature","properties":{"density":2},"geometry":{"type":"Polygon","coordinates":[[[-59.937,51.3],[-60.347,51.326],[-61.936,51.48],[-63.217,51.505],[-64.755,51.582],[-65.242,51.582],[-66.498,51.505],[-67.113,51.249],[-67.497,51.018],[-67.83,50.634],[-68.138,49.429],[-67.984,48.455],[-67.882,48.122],[-67.138,47.635],[-66.446,47.328],[-65.088,47.2],[-63.755,47.277],[-62.756,47.482],[-62.192,47.661],[-61.654,47.712],[-61.218,47.789],[-60.603,47.994],[-60.116,48.071],[-59.424,48.404],[-58.476,48.891],[-58.168,49.429],[-58.168,50.147],[-58.886,51.018],[-59.937,51.3]]]}},{"type":"Feature","properties":{"density":2},"geometry":{"type":"Polygon","coordinates":[[[-98.09,22.247],[-98.09,22.523],[-98.259,22.895],[-98.482,23.242],[-98.593,23.809],[-98.677,23.981],[-98.752,24.022],[-98.816,24.022],[-98.897,23.877],[-98.937,23.738],[-98.974,23.509],[-99.19,23.185],[-99.234,23.003],[-99.065,22.584],[-98.789,22.398],[-98.644,22.186],[-98.563,22.027],[-98.326,21.842],[-98.225,21.815],[-98.144,21.896],[-98.144,21.98],[-98.09,22.247]]]}},{"type":"Feature","properties":{"density":2},"geometry":{"type":"Polygon","coordinates":[[[-93.17,17.487],[-93.16,17.578],[-93.204,17.659],[-93.477,17.757],[-93.899,18.034],[-93.96,18.034],[-94.088,18.02],[-94.267,17.936],[-94.554,17.696],[-94.601,17.565],[-94.601,17.382],[-94.554,17.241],[-94.399,16.971],[-94.301,16.896],[-94.196,16.856],[-93.886,16.64],[-93.778,16.626],[-93.656,16.647],[-93.481,16.775],[-93.214,16.876],[-93.116,16.96],[-93.096,17.041],[-93.089,17.183],[-93.116,17.268],[-93.177,17.362],[-93.17,17.487]]]}},{"type":"Feature","properties":{"density":3},"geometry":{"type":"Polygon","coordinates":[[[-100.982,52.45],[-101.042,52.45],[-101.147,52.337],[-101.394,52.285],[-101.428,52.259],[-101.428,52.225],[-101.406,52.191],[-101.353,52.161],[-101.278,52.146],[-101.151,52.142],[-101.038,52.195],[-100.986,52.307],[-100.914,52.371],[-100.922,52.416],[-100.982,52.45]]]}},{"type":"Feature","properties":{"density":3},"geometry":{"type":"Polygon","coordinates":[[[-100.415,51.936],[-100.473,51.961],[-100.518,51.934],[-100.528,51.889],[-100.508,51.734],[-100.458,51.651],[-100.365,51.606],[-100.268,51.599],[-100.195,51.616],[-100.12,51.676],[-100.108,51.709],[-100.12,51.736],[-100.278,51.796],[-100.345,51.839],[-100.415,51.936]]]}},{"type":"Feature","properties":{"density":3},"geometry":{"type":"Polygon","coordinates":[[[-99.908,52.426],[-99.998,52.439],[-100.043,52.421],[-100.075,52.369],[-100.08,52.301],[-100.158,52.226],[-100.15,52.141],[-100.053,52.026],[-100.033,51.914],[-100.01,51.884],[-99.968,51.869],[-99.848,51.871],[-99.818,51.886],[-99.77,52.006],[-99.77,52.081],[-99.805,52.211],[-99.82,52.344],[-99.85,52.386],[-99.908,52.426]]]}},{"type":"Feature","properties":{"density":3},"geometry":{"type":"Polygon","coordinates":[[[-122.494,43.278],[-122.533,43.268],[-122.588,43.168],[-122.633,43.126],[-122.741,43.096],[-122.728,43.046],[-122.669,43.038],[-122.543,43.091],[-122.466,43.233],[-122.494,43.278]]]}},{"type":"Feature","properties":{"density":3},"geometry":{"type":"Polygon","coordinates":[[[-120.282,45.467],[-120.344,45.53],[-120.394,45.542],[-120.447,45.517],[-120.482,45.467],[-120.492,45.29],[-120.429,45.072],[-120.444,44.94],[-120.539,44.81],[-120.594,44.777],[-120.952,44.637],[-120.977,44.612],[-120.974,44.575],[-120.927,44.475],[-120.859,44.477],[-120.794,44.505],[-120.714,44.442],[-120.674,44.44],[-120.622,44.457],[-120.547,44.532],[-120.494,44.552],[-120.199,44.552],[-120.164,44.577],[-120.164,44.617],[-120.204,44.672],[-120.204,44.7],[-120.169,44.76],[-119.914,44.837],[-119.787,44.947],[-119.762,45.002],[-119.767,45.045],[-119.797,45.052],[-119.887,45.035],[-120.017,44.96],[-120.077,44.962],[-120.117,44.985],[-120.172,45.06],[-120.237,45.235],[-120.282,45.467]]]}},{"type":"Feature","properties":{"density":3},"geometry":{"type":"Polygon","coordinates":[[[-119.158,45.006],[-119.229,44.998],[-119.364,44.886],[-119.732,44.852],[-119.825,44.815],[-119.889,44.766],[-119.927,44.668],[-120.032,44.552],[-120.032,44.503],[-119.949,44.451],[-119.882,44.376],[-119.818,44.353],[-119.687,44.417],[-119.559,44.541],[-119.499,44.56],[-119.323,44.575],[-119.214,44.642],[-119.147,44.725],[-118.899,44.818],[-118.88,44.856],[-118.877,44.916],[-118.884,44.957],[-118.91,44.98],[-119.158,45.006]]]}},{"type":"Feature","properties":{"density":3},"geometry":{"type":"Polygon","coordinates":[[[-119.372,44.596],[-119.409,44.611],[-119.527,44.606],[-119.622,44.553],[-119.729,44.451],[-119.909,44.378],[-120.004,44.311],[-120.057,44.261],[-120.082,44.206],[-120.044,44.138],[-120.044,43.983],[-119.997,43.956],[-119.827,43.958],[-119.747,44.013],[-119.664,44.041],[-119.504,44.056],[-119.449,44.078],[-119.407,44.151],[-119.369,44.271],[-119.244,44.408],[-119.239,44.451],[-119.294,44.531],[-119.372,44.596]]]}},{"type":"Feature","properties":{"density":3},"geometry":{"type":"Polygon","coordinates":[[[-118.369,44.235],[-118.811,44.058],[-119.055,43.92],[-119.242,43.848],[-119.374,43.762],[-119.415,43.68],[-119.404,43.65],[-119.325,43.638],[-119.111,43.747],[-118.912,43.875],[-118.635,43.953],[-118.384,44.051],[-118.264,44.115],[-118.207,44.19],[-118.219,44.253],[-118.241,44.261],[-118.369,44.235]]]}},{"type":"Feature","properties":{"density":3},"geometry":{"type":"Polygon","coordinates":[[[-117.988,45.809],[-118.149,45.809],[-118.232,45.771],[-118.284,45.708],[-118.228,45.663],[-118.089,45.655],[-118.041,45.633],[-118.014,45.595],[-118.022,45.441],[-117.999,45.389],[-117.849,45.273],[-117.752,45.265],[-117.658,45.295],[-117.546,45.423],[-117.452,45.453],[-117.152,45.325],[-117.013,45.318],[-116.893,45.359],[-116.859,45.393],[-116.784,45.591],[-116.724,45.674],[-116.507,45.813],[-116.458,45.865],[-116.443,45.918],[-116.454,45.985],[-116.496,46.03],[-116.619,46.038],[-116.769,45.963],[-116.889,45.843],[-116.961,45.794],[-117.021,45.783],[-117.073,45.798],[-117.118,45.865],[-117.148,45.981],[-117.201,46.041],[-117.287,46.041],[-117.373,46.015],[-117.441,45.966],[-117.546,45.843],[-117.621,45.779],[-117.703,45.741],[-117.801,45.73],[-117.872,45.745],[-117.988,45.809]]]}},{"type":"Feature","properties":{"density":3},"geometry":{"type":"Polygon","coordinates":[[[-116.549,45.64],[-116.65,45.618],[-116.712,45.562],[-116.819,45.286],[-116.931,45.157],[-117.055,45.123],[-117.196,45.123],[-117.308,45.151],[-117.544,45.264],[-117.713,45.264],[-117.747,45.241],[-117.871,45.112],[-117.893,45.005],[-117.876,44.904],[-117.769,44.712],[-117.696,44.65],[-117.449,44.594],[-117.263,44.465],[-117.162,44.47],[-117.061,44.538],[-116.875,44.74],[-116.566,44.982],[-116.51,45.134],[-116.493,45.241],[-116.42,45.376],[-116.386,45.5],[-116.386,45.533],[-116.436,45.59],[-116.549,45.64]]]}},{"type":"Feature","properties":{"density":3},"geometry":{"type":"Polygon","coordinates":[[[-120.271,49.522],[-120.339,49.548],[-120.421,49.552],[-120.455,49.541],[-120.541,49.462],[-120.564,49.387],[-120.537,49.248],[-120.624,49.143],[-120.62,49.095],[-120.586,49.057],[-120.582,49.027],[-120.627,48.922],[-120.59,48.903],[-120.545,48.922],[-120.466,49.005],[-120.41,49.128],[-120.395,49.35],[-120.372,49.368],[-120.26,49.353],[-120.219,49.376],[-120.211,49.447],[-120.271,49.522]]]}},{"type":"Feature","properties":{"density":3},"geometry":{"type":"Polygon","coordinates":[[[-120.796,49.395],[-120.942,49.387],[-121.006,49.331],[-121.01,49.192],[-120.969,49.128],[-120.886,49.132],[-120.867,49.252],[-120.755,49.316],[-120.74,49.342],[-120.755,49.376],[-120.796,49.395]]]}},{"type":"Feature","properties":{"density":3},"geometry":{"type":"Polygon","coordinates":[[[-119.91,51.427],[-120.008,51.42],[-120.098,51.393],[-120.161,51.333],[-120.274,51.105],[-120.356,51.0],[-120.495,50.928],[-121.088,50.913],[-121.253,50.887],[-121.38,50.823],[-121.463,50.707],[-121.481,50.606],[-121.436,50.523],[-121.316,50.385],[-121.298,50.302],[-121.301,50.163],[-121.241,50.137],[-121.136,50.133],[-121.016,50.167],[-120.938,50.287],[-120.941,50.355],[-121.159,50.46],[-121.204,50.523],[-121.211,50.602],[-121.174,50.673],[-121.088,50.722],[-120.544,50.7],[-120.398,50.733],[-120.278,50.797],[-120.094,50.981],[-119.835,51.078],[-119.689,51.161],[-119.659,51.217],[-119.67,51.27],[-119.719,51.337],[-119.824,51.416],[-119.91,51.427]]]}},{"type":"Feature","properties":{"density":3},"geometry":{"type":"Polygon","coordinates":[[[-121.989,52.633],[-122.074,52.633],[-122.226,52.604],[-122.366,52.571],[-122.501,52.514],[-122.608,52.458],[-122.709,52.379],[-122.794,52.289],[-122.861,52.177],[-122.889,52.076],[-122.878,51.986],[-122.844,51.89],[-122.833,51.766],[-122.844,51.643],[-122.929,51.446],[-122.934,51.35],[-122.929,51.249],[-122.895,51.176],[-122.839,51.125],[-122.771,51.108],[-122.732,51.148],[-122.602,51.496],[-122.529,51.581],[-122.462,51.84],[-122.417,51.941],[-122.31,52.008],[-122.147,52.081],[-121.899,52.166],[-121.77,52.228],[-121.708,52.289],[-121.691,52.363],[-121.708,52.486],[-121.77,52.565],[-121.821,52.61],[-121.899,52.633],[-121.989,52.633]]]}},{"type":"Feature","properties":{"density":3},"geometry":{"type":"Polygon","coordinates":[[[-122.351,51.725],[-122.404,51.631],[-122.419,51.474],[-122.452,51.335],[-122.4,51.238],[-122.344,51.204],[-122.284,51.181],[-122.156,51.17],[-122.115,51.23],[-122.164,51.376],[-122.164,51.425],[-122.119,51.556],[-122.066,51.609],[-121.912,51.688],[-121.868,51.74],[-121.834,51.849],[-121.853,51.89],[-121.882,51.909],[-121.999,51.905],[-122.182,51.834],[-122.351,51.725]]]}},{"type":"Feature","properties":{"density":3},"geometry":{"type":"Polygon","coordinates":[[[-121.879,51.658],[-121.954,51.59],[-121.972,51.534],[-121.976,51.38],[-121.946,51.328],[-121.841,51.241],[-121.811,51.17],[-121.811,51.069],[-121.901,50.893],[-121.897,50.825],[-121.875,50.799],[-121.763,50.795],[-121.624,50.863],[-121.515,50.874],[-121.455,50.896],[-121.403,50.934],[-121.343,51.084],[-121.253,51.241],[-120.983,51.47],[-120.784,51.553],[-120.701,51.609],[-120.649,51.684],[-120.63,51.796],[-120.656,51.935],[-120.724,52.055],[-120.81,52.145],[-120.915,52.213],[-121.08,52.269],[-121.241,52.22],[-121.418,52.104],[-121.665,51.8],[-121.763,51.755],[-121.879,51.658]]]}},{"type":"Feature","properties":{"density":3},"geometry":{"type":"Polygon","coordinates":[[[-111.331,68.075],[-111.482,68.21],[-112.048,68.792],[-112.276,68.96],[-113.026,69.374],[-113.263,69.416],[-113.566,69.424],[-113.845,69.332],[-113.971,69.264],[-114.064,69.197],[-114.149,69.087],[-114.216,68.817],[-114.199,68.311],[-114.123,67.838],[-114.047,67.551],[-113.845,67.138],[-113.744,67.045],[-113.44,66.902],[-113.296,66.809],[-113.136,66.657],[-113.052,66.539],[-112.95,66.353],[-112.74,65.729],[-112.655,65.611],[-112.453,65.425],[-112.292,65.375],[-112.132,65.383],[-112.006,65.425],[-111.904,65.51],[-111.862,65.645],[-111.887,66.134],[-111.871,66.303],[-111.786,66.446],[-111.449,66.742],[-111.221,67.062],[-111.162,67.172],[-111.128,67.383],[-111.128,67.551],[-111.17,67.805],[-111.331,68.075]]]}},{"type":"Feature","properties":{"density":3},"geometry":{"type":"Polygon","coordinates":[[[-109.574,54.27],[-110.409,54.592],[-111.51,55.124],[-112.155,55.465],[-112.687,55.788],[-113.275,56.054],[-113.94,56.282],[-114.604,56.358],[-115.382,56.358],[-117.167,56.035],[-117.85,55.883],[-118.496,55.712],[-119.046,55.522],[-119.654,55.257],[-121.134,54.402],[-121.571,54.194],[-121.932,54.061],[-122.767,53.833],[-123.279,53.643],[-124.21,53.377],[-124.494,53.244],[-124.741,53.093],[-124.874,52.922],[-124.931,52.77],[-124.741,52.637],[-124.475,52.599],[-124.286,52.599],[-123.906,52.675],[-123.583,52.77],[-123.185,52.922],[-122.919,53.055],[-122.577,53.188],[-122.311,53.225],[-122.121,53.131],[-122.027,52.96],[-121.951,52.751],[-121.837,52.523],[-121.647,52.333],[-121.4,52.162],[-121.115,52.011],[-120.869,51.916],[-120.508,51.859],[-120.261,51.84],[-119.957,51.954],[-119.426,52.295],[-119.236,52.485],[-119.084,52.751],[-118.78,53.225],[-118.534,53.415],[-118.211,53.624],[-117.907,53.795],[-117.547,53.928],[-117.091,54.061],[-116.673,54.137],[-115.819,54.232],[-115.382,54.251],[-115.041,54.175],[-114.224,53.814],[-113.769,53.643],[-113.37,53.529],[-112.402,53.339],[-112.003,53.206],[-111.187,52.751],[-110.808,52.504],[-110.447,52.333],[-109.934,52.162],[-109.441,52.067],[-109.023,52.067],[-108.681,52.086],[-108.567,52.276],[-108.567,52.485],[-108.776,52.694],[-108.966,52.827],[-109.118,52.998],[-109.156,53.169],[-109.118,53.377],[-109.061,53.548],[-109.061,53.757],[-109.156,54.023],[-109.365,54.175],[-109.574,54.27]]]}},{"type":"Feature","properties":{"density":3},"geometry":{"type":"Polygon","coordinates":[[[-118.631,52.89],[-118.808,52.764],[-118.934,52.65],[-119.137,52.422],[-119.251,52.245],[-119.352,52.042],[-119.39,51.878],[-119.39,51.713],[-119.339,51.574],[-119.213,51.498],[-119.01,51.498],[-118.846,51.561],[-118.631,51.688],[-118.428,51.865],[-118.124,52.207],[-117.732,52.536],[-117.492,52.65],[-117.264,52.7],[-116.973,52.726],[-116.72,52.7],[-116.543,52.574],[-116.15,52.194],[-115.897,52.067],[-115.442,51.903],[-114.986,51.7],[-114.467,51.397],[-114.34,51.245],[-114.328,51.042],[-114.442,50.815],[-114.619,50.612],[-114.897,50.435],[-115.821,50.283],[-116.074,50.194],[-116.302,50.055],[-116.479,49.903],[-116.593,49.739],[-116.72,49.321],[-116.783,49.157],[-116.897,48.929],[-117.036,48.802],[-117.378,48.537],[-117.542,48.334],[-117.58,48.17],[-117.504,48.018],[-117.39,47.879],[-117.213,47.79],[-117.011,47.777],[-116.745,47.879],[-116.467,47.916],[-116.213,48.043],[-115.986,48.195],[-115.758,48.41],[-115.619,48.587],[-115.328,48.866],[-114.707,49.309],[-114.454,49.448],[-114.214,49.536],[-113.847,49.587],[-113.644,49.638],[-113.1,49.676],[-112.594,49.688],[-112.316,49.587],[-111.771,49.296],[-111.468,49.207],[-111.202,49.195],[-110.924,49.157],[-110.379,48.98],[-110.202,48.815],[-110.05,48.701],[-109.785,48.575],[-109.519,48.537],[-109.164,48.511],[-108.835,48.575],[-108.316,48.777],[-108.165,48.916],[-108.139,49.106],[-108.215,49.207],[-108.38,49.309],[-108.646,49.385],[-109.43,49.511],[-109.898,49.612],[-110.291,49.752],[-110.784,50.017],[-110.949,50.131],[-111.025,50.321],[-110.974,50.473],[-110.784,50.625],[-110.506,50.701],[-110.05,50.726],[-109.367,50.802],[-109.013,50.941],[-108.772,51.156],[-108.734,51.308],[-108.797,51.561],[-108.924,51.764],[-109.101,51.89],[-109.405,52.055],[-109.683,52.143],[-109.987,52.207],[-110.278,52.207],[-110.658,52.181],[-111.025,52.067],[-111.278,51.865],[-111.43,51.625],[-111.695,51.409],[-112.075,51.346],[-112.531,51.346],[-112.974,51.447],[-113.303,51.574],[-113.606,51.789],[-114.011,52.03],[-114.935,52.51],[-115.315,52.751],[-115.631,52.928],[-115.986,53.105],[-116.644,53.384],[-117.061,53.434],[-117.454,53.434],[-117.871,53.384],[-118.175,53.282],[-118.403,53.143],[-118.517,53.067],[-118.631,52.89]]]}},{"type":"Feature","properties":{"density":3},"geometry":{"type":"Polygon","coordinates":[[[-104.447,52.846],[-104.618,52.884],[-104.96,52.998],[-105.263,53.055],[-106.023,53.131],[-106.307,53.112],[-106.478,53.074],[-106.573,52.941],[-106.573,52.827],[-106.497,52.751],[-106.118,52.675],[-105.074,52.504],[-104.656,52.409],[-104.257,52.352],[-103.46,52.181],[-102.871,51.973],[-102.188,51.593],[-101.903,51.403],[-101.581,51.156],[-100.992,50.815],[-100.423,50.549],[-99.701,50.359],[-99.265,50.226],[-98.752,50.036],[-98.41,49.79],[-98.126,49.543],[-97.689,49.125],[-97.423,48.973],[-97.063,48.916],[-96.93,48.992],[-96.892,49.201],[-96.892,49.391],[-96.968,49.581],[-97.176,49.846],[-97.423,50.055],[-97.651,50.169],[-98.031,50.302],[-98.372,50.397],[-98.771,50.549],[-99.454,50.872],[-99.872,50.985],[-100.574,51.232],[-101.296,51.536],[-102.511,52.086],[-103.479,52.39],[-104.447,52.846]]]}},{"type":"Feature","properties":{"density":3},"geometry":{"type":"Polygon","coordinates":[[[-106.708,62.939],[-106.692,62.903],[-106.59,62.87],[-106.489,62.902],[-106.462,62.951],[-106.474,63.01],[-106.504,63.037],[-106.669,63.113],[-106.723,63.154],[-106.773,63.164],[-106.819,63.127],[-106.83,63.065],[-106.708,62.939]]]}},{"type":"Feature","properties":{"density":3},"geometry":{"type":"Polygon","coordinates":[[[-106.432,62.744],[-106.195,62.624],[-106.131,62.627],[-106.093,62.663],[-106.099,62.713],[-106.41,62.897],[-106.467,62.888],[-106.492,62.845],[-106.479,62.786],[-106.432,62.744]]]}},{"type":"Feature","properties":{"density":3},"geometry":{"type":"Polygon","coordinates":[[[-122.045,54.756],[-122.318,54.596],[-123.017,54.27],[-123.29,54.11],[-124.445,53.366],[-124.627,53.214],[-124.847,52.88],[-124.999,52.713],[-125.052,52.622],[-125.052,52.561],[-124.991,52.402],[-124.839,52.288],[-124.589,52.242],[-124.171,52.242],[-123.974,52.326],[-123.883,52.409],[-123.207,52.819],[-122.865,52.986],[-122.322,53.195],[-121.012,53.571],[-119.793,53.856],[-119.121,53.947],[-118.039,54.164],[-116.091,54.403],[-114.93,54.425],[-113.688,54.494],[-112.993,54.494],[-112.481,54.312],[-111.877,54.05],[-111.41,53.571],[-110.772,53.104],[-109.718,52.204],[-109.286,52.022],[-108.932,51.749],[-108.557,51.612],[-108.283,51.555],[-107.577,51.544],[-107.258,51.749],[-107.224,51.817],[-107.281,51.954],[-107.463,52.068],[-108.101,52.341],[-108.306,52.557],[-108.42,52.706],[-108.42,52.979],[-108.397,53.15],[-108.329,53.343],[-108.181,53.469],[-108.044,53.617],[-107.964,53.799],[-107.964,53.97],[-108.124,54.118],[-108.898,54.653],[-109.16,54.779],[-109.365,54.824],[-109.65,54.927],[-110.083,55.143],[-110.482,55.394],[-111.586,56.145],[-111.814,56.168],[-112.145,56.316],[-112.634,56.487],[-112.999,56.635],[-113.409,56.715],[-114.024,56.738],[-114.776,56.761],[-115.767,56.761],[-116.302,56.738],[-118.091,56.294],[-118.968,56.032],[-119.332,55.895],[-119.845,55.758],[-120.722,55.462],[-121.576,55.052],[-122.045,54.756]]]}},{"type":"Feature","properties":{"density":3},"geometry":{"type":"Polygon","coordinates":[[[-117.287,53.64],[-117.783,53.469],[-118.193,53.281],[-118.415,53.127],[-118.569,52.956],[-118.74,52.58],[-118.945,52.033],[-118.876,51.863],[-118.689,51.846],[-118.432,51.914],[-117.954,52.17],[-117.322,52.546],[-116.946,52.734],[-116.655,52.785],[-116.245,52.734],[-115.852,52.631],[-115.545,52.529],[-114.639,52.17],[-114.246,52.068],[-113.887,52.033],[-113.119,51.709],[-112.931,51.589],[-112.743,51.384],[-112.52,51.179],[-112.247,51.179],[-112.093,51.196],[-112.025,51.265],[-112.025,51.453],[-112.247,51.726],[-112.606,51.897],[-113.255,52.307],[-113.717,52.512],[-114.161,52.802],[-114.537,53.059],[-114.776,53.383],[-114.947,53.435],[-115.357,53.64],[-115.852,53.845],[-116.228,53.896],[-116.467,53.879],[-117.287,53.64]]]}},{"type":"Feature","properties":{"density":3},"geometry":{"type":"Polygon","coordinates":[[[-114.144,50.991],[-114.502,50.769],[-115.938,49.966],[-116.16,49.795],[-116.467,49.522],[-116.621,49.317],[-116.758,49.043],[-116.689,48.685],[-116.536,48.445],[-116.314,48.377],[-116.006,48.445],[-115.698,48.599],[-114.895,49.129],[-114.656,49.231],[-114.4,49.266],[-113.785,49.266],[-113.101,49.385],[-111.94,49.641],[-110.744,49.641],[-110.163,49.573],[-109.479,49.436],[-108.42,49.197],[-107.89,49.129],[-107.634,49.078],[-107.583,48.941],[-107.566,48.685],[-107.48,48.445],[-107.343,48.36],[-107.07,48.326],[-106.745,48.377],[-106.165,48.685],[-105.789,48.855],[-105.652,48.907],[-105.225,49.026],[-104.934,48.992],[-104.832,48.958],[-104.695,48.958],[-104.541,48.992],[-104.422,49.197],[-104.439,49.368],[-104.61,49.505],[-104.815,49.539],[-106.284,49.556],[-107.617,49.607],[-107.907,49.659],[-108.283,49.693],[-108.522,49.795],[-108.574,49.949],[-108.42,50.086],[-108.334,50.12],[-106.643,50.12],[-106.506,50.171],[-106.438,50.291],[-106.609,50.427],[-107.292,50.462],[-107.634,50.462],[-108.044,50.496],[-108.078,50.632],[-108.01,50.735],[-107.89,50.769],[-107.412,50.803],[-107.19,50.872],[-106.933,50.906],[-106.899,50.923],[-106.848,51.025],[-107.087,51.316],[-107.395,51.47],[-107.976,51.572],[-108.676,51.606],[-109.923,51.623],[-110.111,51.658],[-110.726,51.555],[-111.735,51.47],[-112.367,51.384],[-113.067,51.333],[-113.853,51.162],[-114.144,50.991]]]}},{"type":"Feature","properties":{"density":3},"geometry":{"type":"Polygon","coordinates":[[[-94.717,48.121],[-95.264,48.855],[-95.896,49.402],[-96.374,49.915],[-97.194,50.462],[-97.792,50.701],[-99.125,51.008],[-99.809,51.111],[-100.458,51.299],[-101.415,51.435],[-101.483,51.418],[-101.62,51.316],[-101.688,51.213],[-101.722,51.042],[-101.449,50.598],[-101.107,50.342],[-100.748,50.239],[-100.184,49.898],[-99.826,49.744],[-99.433,49.59],[-99.279,49.573],[-98.886,49.436],[-98.305,49.163],[-97.929,49.026],[-97.434,48.702],[-97.109,48.394],[-96.784,48.138],[-96.186,47.779],[-95.691,47.523],[-95.212,47.454],[-94.922,47.454],[-94.768,47.472],[-94.614,47.625],[-94.58,47.762],[-94.58,47.847],[-94.717,48.121]]]}},{"type":"Feature","properties":{"density":3},"geometry":{"type":"Polygon","coordinates":[[[-120.536,49.604],[-120.624,49.496],[-120.657,49.347],[-120.63,49.246],[-120.627,49.108],[-120.671,48.969],[-120.627,48.882],[-120.536,48.885],[-120.441,48.942],[-120.414,49.111],[-120.289,49.236],[-120.249,49.395],[-120.31,49.523],[-120.397,49.59],[-120.485,49.617],[-120.536,49.604]]]}},{"type":"Feature","properties":{"density":3},"geometry":{"type":"Polygon","coordinates":[[[-120.762,48.301],[-120.802,48.173],[-120.883,48.075],[-120.917,47.981],[-120.91,47.954],[-120.826,47.856],[-120.762,47.856],[-120.671,47.893],[-120.603,47.9],[-120.553,47.889],[-120.475,47.822],[-120.036,47.765],[-119.898,47.835],[-119.702,47.964],[-119.668,47.997],[-119.604,48.126],[-119.601,48.247],[-119.635,48.342],[-119.712,48.359],[-119.945,48.375],[-120.003,48.359],[-120.175,48.247],[-120.3,48.203],[-120.391,48.2],[-120.505,48.227],[-120.58,48.315],[-120.603,48.409],[-120.63,48.429],[-120.667,48.429],[-120.728,48.389],[-120.735,48.325],[-120.762,48.301]]]}},{"type":"Feature","properties":{"density":3},"geometry":{"type":"Polygon","coordinates":[[[-119.368,47.927],[-119.186,47.997],[-118.786,48.008],[-118.477,47.977],[-118.214,47.911],[-118.082,47.911],[-117.92,47.957],[-117.824,48.018],[-117.804,48.038],[-117.783,48.144],[-117.834,48.251],[-117.88,48.296],[-117.981,48.326],[-118.102,48.392],[-118.229,48.519],[-118.325,48.676],[-118.35,48.767],[-118.35,48.909],[-118.391,49.035],[-118.619,49.091],[-118.806,49.05],[-119.029,48.929],[-119.201,48.767],[-119.722,48.119],[-119.743,48.038],[-119.743,47.916],[-119.697,47.866],[-119.56,47.866],[-119.368,47.927]]]}},{"type":"Feature","properties":{"density":3},"geometry":{"type":"Polygon","coordinates":[[[-120.975,45.651],[-121.522,45.324],[-121.549,45.297],[-121.522,45.236],[-121.482,45.219],[-121.434,45.226],[-121.016,45.54],[-120.81,45.634],[-120.797,45.681],[-120.864,45.688],[-120.975,45.651]]]}},{"type":"Feature","properties":{"density":3},"geometry":{"type":"Polygon","coordinates":[[[-120.449,45.32],[-120.466,45.209],[-120.584,44.966],[-120.624,44.935],[-120.722,44.908],[-120.894,44.935],[-120.959,44.905],[-120.972,44.865],[-120.948,44.743],[-120.942,44.551],[-120.928,44.476],[-120.908,44.453],[-120.682,44.416],[-120.614,44.446],[-120.574,44.483],[-120.378,44.507],[-120.334,44.534],[-120.294,44.672],[-120.189,44.804],[-120.057,45.05],[-119.882,45.162],[-119.76,45.189],[-119.629,45.243],[-119.261,45.459],[-118.991,45.546],[-118.829,45.661],[-118.832,45.698],[-118.88,45.739],[-119.177,45.742],[-119.528,45.506],[-119.825,45.364],[-119.943,45.357],[-119.997,45.391],[-120.051,45.6],[-120.014,45.698],[-119.895,45.86],[-119.885,45.918],[-119.909,46.019],[-119.96,46.053],[-120.03,46.066],[-120.206,45.958],[-120.287,45.837],[-120.321,45.762],[-120.449,45.32]]]}},{"type":"Feature","properties":{"density":3},"geometry":{"type":"Polygon","coordinates":[[[-120.027,44.568],[-120.024,44.507],[-119.98,44.419],[-119.906,44.345],[-119.852,44.341],[-119.804,44.368],[-119.443,44.75],[-119.271,44.851],[-119.116,44.841],[-119.021,44.703],[-118.927,44.676],[-118.65,44.753],[-118.367,44.746],[-118.265,44.817],[-118.34,44.925],[-118.491,44.986],[-118.572,45.057],[-118.66,45.101],[-118.842,45.135],[-119.177,45.135],[-119.366,45.101],[-119.602,44.983],[-119.838,44.817],[-119.96,44.709],[-120.003,44.645],[-120.027,44.568]]]}},{"type":"Feature","properties":{"density":3},"geometry":{"type":"Polygon","coordinates":[[[-117.847,45.87],[-117.904,45.843],[-118.235,45.796],[-118.299,45.766],[-118.363,45.688],[-118.353,45.621],[-118.302,45.597],[-118.242,45.594],[-118.08,45.594],[-117.935,45.634],[-117.82,45.617],[-117.408,45.398],[-117.179,45.34],[-117.05,45.351],[-116.969,45.398],[-116.855,45.502],[-116.828,45.6],[-116.838,45.688],[-116.898,45.759],[-116.963,45.806],[-117.091,45.803],[-117.216,45.735],[-117.32,45.735],[-117.425,45.759],[-117.597,45.86],[-117.752,45.897],[-117.847,45.87]]]}},{"type":"Feature","properties":{"density":3},"geometry":{"type":"Polygon","coordinates":[[[-118.745,44.163],[-118.853,44.082],[-119.305,43.839],[-119.416,43.764],[-119.463,43.677],[-119.467,43.616],[-119.393,43.569],[-119.295,43.589],[-119.21,43.643],[-119.129,43.714],[-119.102,43.764],[-118.961,43.876],[-118.772,43.947],[-118.653,43.967],[-118.319,44.088],[-117.874,44.338],[-117.827,44.406],[-117.827,44.473],[-117.854,44.507],[-117.951,44.551],[-118.073,44.561],[-118.238,44.514],[-118.299,44.466],[-118.323,44.318],[-118.356,44.271],[-118.508,44.193],[-118.62,44.19],[-118.745,44.163]]]}},{"type":"Feature","properties":{"density":3},"geometry":{"type":"Polygon","coordinates":[[[-117.31,44.676],[-117.314,44.557],[-117.263,44.49],[-117.118,44.473],[-116.99,44.561],[-116.949,44.622],[-116.949,44.649],[-116.888,44.77],[-116.787,44.898],[-116.706,45.043],[-116.699,45.135],[-116.757,45.239],[-116.861,45.243],[-117.131,45.091],[-117.246,45.064],[-117.411,45.081],[-117.523,45.128],[-117.631,45.148],[-117.719,45.148],[-117.803,45.108],[-117.823,45.074],[-117.816,44.993],[-117.752,44.925],[-117.695,44.878],[-117.587,44.831],[-117.317,44.746],[-117.287,44.723],[-117.31,44.676]]]}},{"type":"Feature","properties":{"density":3},"geometry":{"type":"Polygon","coordinates":[[[-117.972,43.785],[-118.363,43.633],[-118.407,43.602],[-118.427,43.542],[-118.38,43.521],[-118.329,43.521],[-118.1,43.639],[-117.783,43.72],[-117.216,43.771],[-117.162,43.788],[-117.131,43.828],[-117.118,43.903],[-117.155,43.93],[-117.276,43.93],[-117.378,43.896],[-117.688,43.859],[-117.897,43.815],[-117.972,43.785]]]}},{"type":"Feature","properties":{"density":3},"geometry":{"type":"Polygon","coordinates":[[[-117.179,42.616],[-117.277,42.753],[-117.331,42.741],[-117.326,42.704],[-117.197,42.521],[-117.159,42.546],[-117.157,42.582],[-117.179,42.616]]]}},{"type":"Feature","properties":{"density":3},"geometry":{"type":"Polygon","coordinates":[[[-107.051,63.059],[-106.751,62.864],[-106.633,62.813],[-106.126,62.621],[-106.015,62.604],[-105.991,62.624],[-105.985,62.705],[-106.079,62.776],[-106.393,62.887],[-106.778,63.137],[-107.335,63.417],[-107.551,63.589],[-107.645,63.609],[-107.699,63.586],[-107.723,63.532],[-107.702,63.474],[-107.669,63.427],[-107.564,63.339],[-107.362,63.204],[-107.051,63.059]]]}},{"type":"Feature","properties":{"density":3},"geometry":{"type":"Polygon","coordinates":[[[-104.823,51.462],[-104.951,51.667],[-105.233,51.923],[-105.566,52.051],[-106.156,52.359],[-106.361,52.538],[-106.361,52.897],[-105.951,53.384],[-105.925,53.512],[-106.028,53.743],[-106.31,53.973],[-106.771,54.332],[-107.745,54.998],[-108.309,55.255],[-109.155,55.819],[-110.103,56.408],[-111.077,56.869],[-112.025,57.177],[-113.127,57.203],[-114.972,57.203],[-117.176,56.792],[-117.791,56.639],[-118.304,56.382],[-119.047,56.126],[-120.149,55.767],[-120.739,55.614],[-121.559,55.357],[-122.558,54.998],[-123.25,54.793],[-123.789,54.537],[-124.096,54.358],[-124.301,54.101],[-124.455,53.563],[-124.455,53.281],[-124.276,52.743],[-123.942,52.743],[-123.66,52.897],[-123.507,53.076],[-122.866,53.717],[-122.251,54.05],[-121.226,54.435],[-119.996,54.793],[-119.509,54.793],[-119.124,54.845],[-118.56,54.998],[-117.971,54.998],[-117.586,55.024],[-113.05,55.024],[-112.23,54.973],[-111.589,54.793],[-111.128,54.588],[-110.744,54.332],[-110.487,54.23],[-109.001,53.845],[-108.668,53.614],[-108.616,53.204],[-108.719,52.999],[-108.693,52.897],[-108.206,52.717],[-107.847,52.692],[-107.13,52.359],[-105.669,51.564],[-105.31,51.154],[-104.977,51.154],[-104.874,51.205],[-104.823,51.257],[-104.823,51.462]]]}},{"type":"Feature","properties":{"density":3},"geometry":{"type":"Polygon","coordinates":[[[-111.487,53.614],[-111.948,53.845],[-112.256,54.076],[-112.614,54.127],[-113.409,54.409],[-114.255,54.486],[-115.28,54.486],[-115.741,54.537],[-116.305,54.46],[-116.408,54.409],[-116.561,54.178],[-116.356,53.973],[-115.818,53.922],[-115.434,53.922],[-114.46,53.82],[-114.024,53.743],[-113.588,53.384],[-113.178,53.204],[-112.743,53.102],[-111.948,53.102],[-111.384,53.051],[-111.23,53.102],[-111.128,53.281],[-111.256,53.358],[-111.487,53.614]]]}},{"type":"Feature","properties":{"density":3},"geometry":{"type":"Polygon","coordinates":[[[-105.131,50.437],[-106.463,50.59],[-108.514,51.41],[-109.59,51.564],[-111.179,51.487],[-111.641,51.41],[-112.23,51.359],[-113.255,50.975],[-113.87,50.642],[-114.255,50.231],[-114.306,49.95],[-114.28,49.77],[-113.973,49.719],[-113.537,49.745],[-113.127,49.975],[-112.717,50.283],[-112.051,50.334],[-111.179,50.36],[-110.359,50.283],[-109.385,50.052],[-108.924,50.052],[-108.488,50.155],[-108.334,50.206],[-107.54,50.206],[-106.771,50.078],[-106.335,49.975],[-105.9,49.719],[-105.336,49.719],[-104.874,49.77],[-104.644,50.001],[-104.644,50.231],[-104.746,50.334],[-105.131,50.437]]]}},{"type":"Feature","properties":{"density":3},"geometry":{"type":"Polygon","coordinates":[[[-120.202,53.091],[-120.49,53.068],[-120.71,52.961],[-121.204,52.665],[-121.417,52.506],[-121.546,52.308],[-121.91,51.64],[-121.994,51.427],[-121.994,51.291],[-121.941,51.033],[-121.781,50.881],[-121.599,50.835],[-121.477,50.866],[-121.439,50.896],[-121.386,50.972],[-121.386,51.412],[-121.082,51.769],[-120.946,51.891],[-120.665,52.058],[-120.536,52.111],[-120.315,52.156],[-120.126,52.156],[-119.761,52.263],[-119.579,52.384],[-119.503,52.498],[-119.488,52.597],[-119.495,52.878],[-119.723,53.03],[-119.883,53.083],[-120.202,53.091]]]}},{"type":"Feature","properties":{"density":3},"geometry":{"type":"Polygon","coordinates":[[[-121.751,52.832],[-122.176,52.491],[-122.427,52.232],[-122.54,51.83],[-122.632,51.587],[-122.844,51.253],[-122.905,51.116],[-122.905,51.048],[-122.768,50.972],[-122.586,50.941],[-122.358,50.987],[-122.062,51.162],[-122.009,51.511],[-121.948,51.693],[-121.842,51.868],[-121.417,52.369],[-121.128,52.559],[-121.06,52.688],[-121.052,52.787],[-121.113,52.931],[-121.31,52.977],[-121.576,52.954],[-121.751,52.832]]]}},{"type":"Feature","properties":{"density":3},"geometry":{"type":"Polygon","coordinates":[[[-120.607,49.64],[-120.691,49.555],[-120.722,49.431],[-120.725,49.022],[-120.698,48.914],[-120.576,48.901],[-120.441,48.978],[-120.323,49.103],[-120.026,49.258],[-119.976,49.306],[-119.976,49.42],[-120.043,49.495],[-120.252,49.593],[-120.377,49.623],[-120.607,49.64]]]}},{"type":"Feature","properties":{"density":3},"geometry":{"type":"Polygon","coordinates":[[[-120.101,48.695],[-120.236,48.698],[-120.333,48.678],[-120.509,48.556],[-120.9,48.091],[-120.921,48.016],[-120.9,47.935],[-120.796,47.844],[-120.708,47.851],[-120.529,47.919],[-120.452,47.929],[-120.148,47.912],[-119.972,48.03],[-119.922,48.111],[-119.854,48.158],[-119.679,48.246],[-119.591,48.266],[-119.436,48.219],[-119.338,48.155],[-119.21,48.151],[-119.105,48.192],[-119.078,48.219],[-119.051,48.401],[-118.953,48.543],[-118.646,48.698],[-118.562,48.81],[-118.572,48.88],[-118.626,48.921],[-118.835,48.948],[-119.233,49.127],[-119.382,49.225],[-119.554,49.238],[-119.712,49.164],[-119.787,49.066],[-119.942,48.756],[-120.05,48.691],[-120.101,48.695]]]}},{"type":"Feature","properties":{"density":3},"geometry":{"type":"Polygon","coordinates":[[[-120.97,44.895],[-121.317,44.689],[-121.354,44.641],[-121.361,44.571],[-121.327,44.55],[-121.135,44.652],[-120.875,44.706],[-120.831,44.743],[-120.814,44.824],[-120.835,44.895],[-120.882,44.915],[-120.97,44.895]]]}},{"type":"Feature","properties":{"density":3},"geometry":{"type":"Polygon","coordinates":[[[-120.504,45.316],[-120.612,45.212],[-120.659,45.138],[-120.727,44.999],[-120.848,44.645],[-120.943,44.527],[-120.946,44.49],[-120.929,44.466],[-120.845,44.409],[-120.764,44.415],[-120.622,44.503],[-120.551,44.503],[-120.409,44.469],[-120.305,44.469],[-120.251,44.506],[-120.224,44.571],[-120.227,44.797],[-120.15,44.962],[-120.072,45.06],[-119.903,45.202],[-119.775,45.256],[-119.623,45.286],[-119.464,45.367],[-119.154,45.762],[-118.877,45.954],[-118.82,46.029],[-118.803,46.083],[-118.816,46.12],[-119.019,46.123],[-119.248,46.022],[-119.485,45.978],[-119.799,45.883],[-119.944,45.819],[-120.096,45.718],[-120.17,45.61],[-120.2,45.472],[-120.254,45.36],[-120.308,45.32],[-120.504,45.316]]]}},{"type":"Feature","properties":{"density":3},"geometry":{"type":"Polygon","coordinates":[[[-118.337,46.083],[-118.816,45.563],[-119.886,44.625],[-119.923,44.577],[-119.937,44.51],[-119.927,44.415],[-119.883,44.355],[-119.812,44.334],[-119.697,44.476],[-119.421,44.689],[-119.167,44.938],[-118.661,45.509],[-118.56,45.59],[-118.452,45.644],[-118.364,45.637],[-118.192,45.586],[-118.081,45.603],[-117.76,45.796],[-117.655,45.914],[-117.622,45.975],[-117.635,46.015],[-117.696,46.042],[-117.743,46.12],[-117.723,46.224],[-117.541,46.447],[-117.493,46.531],[-117.483,46.623],[-117.52,46.663],[-117.682,46.666],[-117.817,46.609],[-117.936,46.535],[-118.148,46.312],[-118.263,46.153],[-118.337,46.083]]]}},{"type":"Feature","properties":{"density":3},"geometry":{"type":"Polygon","coordinates":[[[-119.437,43.754],[-119.478,43.626],[-119.454,43.585],[-119.343,43.585],[-119.269,43.626],[-119.218,43.673],[-119.194,43.727],[-119.076,43.869],[-118.85,44.014],[-118.722,44.118],[-118.489,44.253],[-118.236,44.456],[-118.131,44.571],[-118.05,44.814],[-117.966,44.942],[-117.777,45.158],[-117.75,45.215],[-117.75,45.259],[-117.784,45.31],[-117.858,45.313],[-117.983,45.239],[-118.496,44.692],[-118.719,44.395],[-118.84,44.297],[-119.164,44.098],[-119.238,44.037],[-119.377,43.882],[-119.437,43.754]]]}},{"type":"Feature","properties":{"density":3},"geometry":{"type":"Polygon","coordinates":[[[-117.856,45.924],[-118.029,45.825],[-118.191,45.8],[-118.281,45.764],[-118.333,45.73],[-118.373,45.604],[-118.245,45.573],[-118.168,45.577],[-117.817,45.649],[-117.604,45.656],[-117.516,45.692],[-117.471,45.742],[-117.46,45.811],[-117.473,45.886],[-117.511,45.933],[-117.572,45.969],[-117.786,45.958],[-117.856,45.924]]]}},{"type":"Feature","properties":{"density":3},"geometry":{"type":"Polygon","coordinates":[[[-116.851,45.201],[-117.022,44.926],[-117.267,44.71],[-117.308,44.618],[-117.31,44.564],[-117.283,44.517],[-117.193,44.524],[-117.135,44.555],[-117.076,44.663],[-116.759,44.965],[-116.7,45.1],[-116.691,45.176],[-116.703,45.239],[-116.73,45.268],[-116.77,45.273],[-116.829,45.246],[-116.851,45.201]]]}},{"type":"Feature","properties":{"density":3},"geometry":{"type":"Polygon","coordinates":[[[-117.589,44.292],[-117.618,44.283],[-118.14,43.882],[-118.395,43.718],[-118.449,43.671],[-118.467,43.61],[-118.449,43.556],[-118.408,43.516],[-118.341,43.527],[-118.068,43.738],[-117.621,43.966],[-117.396,44.139],[-117.346,44.215],[-117.351,44.272],[-117.436,44.326],[-117.495,44.326],[-117.589,44.292]]]}},{"type":"Feature","properties":{"density":3},"geometry":{"type":"Polygon","coordinates":[[[-118.278,43.392],[-118.374,43.284],[-118.489,43.104],[-118.505,42.996],[-118.417,42.94],[-118.386,42.944],[-118.345,42.994],[-118.305,43.086],[-118.197,43.243],[-118.111,43.414],[-118.089,43.511],[-118.116,43.536],[-118.143,43.536],[-118.206,43.493],[-118.278,43.392]]]}},{"type":"Feature","properties":{"density":3},"geometry":{"type":"Polygon","coordinates":[[[-107.362,63.071],[-106.868,62.904],[-106.435,62.684],[-106.306,62.578],[-106.185,62.547],[-106.048,62.547],[-105.942,62.578],[-105.881,62.638],[-105.873,62.714],[-106.01,62.828],[-106.367,62.965],[-106.648,63.124],[-106.921,63.215],[-107.21,63.36],[-107.544,63.572],[-108.129,63.899],[-108.288,64.013],[-108.584,64.187],[-108.911,64.347],[-109.04,64.43],[-109.169,64.491],[-109.328,64.514],[-109.397,64.484],[-109.412,64.377],[-109.397,64.294],[-109.192,64.112],[-108.964,63.944],[-108.516,63.701],[-107.711,63.185],[-107.506,63.094],[-107.362,63.071]]]}},{"type":"Feature","properties":{"density":3},"geometry":{"type":"Polygon","coordinates":[[[-120.797,45.911],[-121.216,45.58],[-121.533,45.29],[-121.564,45.249],[-121.557,45.209],[-121.506,45.202],[-121.283,45.273],[-121.132,45.344],[-121.03,45.418],[-120.74,45.762],[-120.345,46.069],[-120.308,46.11],[-120.301,46.184],[-120.322,46.204],[-120.359,46.204],[-120.436,46.181],[-120.551,46.113],[-120.797,45.911]]]}},{"type":"Feature","properties":{"density":3},"geometry":{"type":"Polygon","coordinates":[[[-120.305,45.894],[-120.419,45.874],[-120.615,45.779],[-120.821,45.617],[-120.909,45.519],[-121.229,44.989],[-121.476,44.709],[-121.499,44.568],[-121.557,44.436],[-121.516,44.389],[-121.486,44.375],[-121.415,44.392],[-121.179,44.402],[-120.956,44.46],[-120.828,44.527],[-120.774,44.625],[-120.74,44.794],[-120.743,44.881],[-120.791,44.996],[-120.784,45.162],[-120.767,45.212],[-120.598,45.448],[-120.477,45.577],[-120.257,45.637],[-120.112,45.725],[-120.038,45.799],[-120.035,45.867],[-120.068,45.901],[-120.153,45.918],[-120.305,45.894]]]}},{"type":"Feature","properties":{"density":3},"geometry":{"type":"Polygon","coordinates":[[[-117.789,49.103],[-117.933,49.027],[-118.017,48.936],[-118.199,48.556],[-118.252,48.404],[-118.214,48.267],[-118.154,48.138],[-117.926,47.933],[-117.789,47.903],[-117.743,47.812],[-117.812,47.69],[-118.123,47.462],[-118.457,47.295],[-119.11,46.9],[-119.748,46.384],[-120.105,46.187],[-120.371,46.134],[-120.675,45.982],[-121.191,45.678],[-121.464,45.465],[-121.518,45.412],[-121.571,45.313],[-121.533,45.222],[-121.464,45.199],[-121.381,45.237],[-121.145,45.268],[-121.176,45.139],[-121.267,44.941],[-121.343,44.812],[-121.502,44.615],[-121.525,44.562],[-121.556,44.47],[-121.54,44.417],[-121.48,44.379],[-121.366,44.379],[-121.267,44.425],[-120.622,44.425],[-120.432,44.433],[-120.287,44.463],[-120.12,44.463],[-119.968,44.395],[-119.862,44.372],[-119.672,44.41],[-119.422,44.577],[-119.255,44.668],[-119.05,44.63],[-118.898,44.668],[-118.738,44.668],[-118.761,44.508],[-118.913,44.341],[-119.239,44.136],[-119.353,44.015],[-119.445,43.848],[-119.475,43.741],[-119.475,43.544],[-119.369,43.544],[-119.148,43.62],[-118.974,43.696],[-118.852,43.779],[-118.526,43.954],[-118.176,44.288],[-117.781,44.592],[-117.531,44.85],[-117.394,44.956],[-117.303,45.063],[-117.106,45.222],[-117.045,45.253],[-116.999,45.253],[-116.999,45.108],[-117.045,44.972],[-117.22,44.82],[-117.652,44.508],[-117.873,44.303],[-118.108,44.136],[-118.351,43.909],[-118.412,43.817],[-118.45,43.643],[-118.374,43.453],[-118.435,43.233],[-118.495,43.119],[-118.51,43.005],[-118.465,42.937],[-118.245,42.906],[-118.085,43.02],[-117.895,43.119],[-117.713,43.187],[-117.63,43.271],[-117.47,43.582],[-117.28,43.779],[-116.878,44.387],[-116.779,44.6],[-116.65,44.751],[-116.134,45.048],[-115.974,45.108],[-115.853,45.23],[-115.716,45.397],[-115.587,45.625],[-115.511,45.723],[-115.481,45.86],[-115.268,46.156],[-115.002,46.323],[-114.934,46.46],[-114.934,46.566],[-115.063,46.551],[-115.693,46.027],[-116.058,45.746],[-116.134,45.837],[-116.073,45.997],[-115.579,46.414],[-115.351,46.688],[-115.131,46.885],[-114.873,47.052],[-114.524,47.356],[-113.749,48.275],[-113.612,48.381],[-113.324,48.7],[-113.271,48.829],[-113.271,48.989],[-113.354,49.042],[-113.612,48.928],[-113.871,48.7],[-114.114,48.442],[-114.402,48.009],[-114.638,47.743],[-114.896,47.698],[-114.873,47.857],[-114.782,48.108],[-114.554,48.434],[-114.417,48.594],[-114.19,48.814],[-114.076,48.89],[-113.795,49.065],[-113.521,49.163],[-113.499,49.247],[-113.55,49.344],[-113.848,49.414],[-114.554,48.981],[-114.752,48.837],[-114.949,48.662],[-115.177,48.419],[-115.496,48.123],[-115.845,47.721],[-116.058,47.523],[-116.354,47.318],[-116.513,47.273],[-116.756,47.303],[-116.969,47.538],[-116.954,47.918],[-116.893,48.138],[-116.992,48.26],[-117.22,48.358],[-117.349,48.396],[-117.493,48.548],[-117.455,48.966],[-117.508,49.08],[-117.789,49.103]]]}},{"type":"Feature","properties":{"density":3},"geometry":{"type":"Polygon","coordinates":[[[-118.42,49.649],[-118.43,49.604],[-118.562,49.426],[-118.871,48.946],[-118.992,48.718],[-119.276,48.282],[-119.311,48.161],[-119.291,48.136],[-119.2,48.141],[-119.109,48.186],[-119.018,48.262],[-118.704,48.647],[-118.284,49.067],[-118.218,49.183],[-118.193,49.305],[-118.198,49.588],[-118.228,49.649],[-118.294,49.7],[-118.385,49.705],[-118.42,49.649]]]}},{"type":"Feature","properties":{"density":3},"geometry":{"type":"Polygon","coordinates":[[[-118.491,49.528],[-118.674,49.047],[-118.866,48.404],[-118.891,48.227],[-118.866,48.146],[-118.835,48.146],[-118.8,48.186],[-118.668,48.475],[-118.451,48.728],[-118.355,48.94],[-118.248,49.118],[-118.117,49.477],[-118.137,49.588],[-118.188,49.649],[-118.248,49.669],[-118.279,49.669],[-118.4,49.599],[-118.491,49.528]]]}},{"type":"Feature","properties":{"density":3},"geometry":{"type":"Polygon","coordinates":[[[-119.929,49.745],[-119.904,49.619],[-119.914,49.432],[-120.015,49.173],[-120.521,48.424],[-120.825,48.136],[-120.871,48.07],[-120.901,47.994],[-120.901,47.908],[-120.861,47.862],[-120.648,47.857],[-120.223,48.08],[-120.056,48.191],[-119.919,48.333],[-119.752,48.591],[-119.676,48.743],[-119.656,48.819],[-119.484,49.133],[-119.453,49.295],[-119.458,49.533],[-119.438,49.634],[-119.332,49.857],[-119.271,50.034],[-119.19,50.186],[-119.159,50.312],[-119.17,50.434],[-119.276,50.596],[-119.342,50.636],[-119.564,50.616],[-119.727,50.429],[-119.792,50.242],[-119.919,50.004],[-119.939,49.892],[-119.929,49.745]]]}},{"type":"Feature","properties":{"density":3},"geometry":{"type":"Polygon","coordinates":[[[-120.779,49.776],[-120.769,49.285],[-120.739,49.032],[-120.648,48.804],[-120.526,48.784],[-120.364,48.849],[-120.081,49.077],[-119.929,49.619],[-119.969,49.963],[-119.975,50.247],[-119.883,50.687],[-119.858,50.92],[-119.858,51.107],[-119.904,51.31],[-120.015,51.472],[-120.182,51.522],[-120.38,51.462],[-120.506,51.355],[-120.597,51.183],[-120.729,50.55],[-120.724,50.236],[-120.779,49.776]]]}},{"type":"Feature","properties":{"density":3},"geometry":{"type":"Polygon","coordinates":[[[-119.767,53.912],[-120.564,53.532],[-121.043,53.274],[-121.331,53.077],[-121.612,52.841],[-122.022,52.378],[-122.364,51.846],[-122.486,51.687],[-122.835,51.391],[-122.911,51.3],[-122.941,51.178],[-122.911,50.996],[-122.82,50.95],[-122.622,50.935],[-122.432,51.011],[-122.235,51.117],[-122.015,51.117],[-121.764,50.882],[-121.438,50.829],[-121.293,50.92],[-121.164,51.095],[-120.936,51.725],[-120.8,51.968],[-120.625,52.188],[-120.466,52.317],[-120.025,52.606],[-119.554,52.811],[-119.114,53.061],[-118.689,53.502],[-118.163,53.912],[-118.026,53.946],[-117.77,54.117],[-117.086,54.647],[-116.881,54.903],[-116.847,55.279],[-117.018,55.432],[-117.479,55.432],[-117.975,55.176],[-118.385,54.92],[-119.068,54.373],[-119.478,54.083],[-119.767,53.912]]]}},{"type":"Feature","properties":{"density":3},"geometry":{"type":"Polygon","coordinates":[[[-90.407,50.623],[-90.791,50.495],[-91.278,50.187],[-91.688,50.085],[-92.278,50.085],[-92.79,50.213],[-93.021,50.238],[-94.43,51.161],[-95.199,51.699],[-95.609,52.109],[-96.763,52.699],[-98.787,53.621],[-99.454,53.673],[-99.941,53.647],[-100.735,53.57],[-102.017,53.903],[-102.914,54.339],[-103.939,55.185],[-105.297,56.056],[-106.604,56.671],[-109.654,57.824],[-111.294,58.209],[-112.576,58.286],[-114.985,58.286],[-116.984,57.953],[-118.47,57.619],[-120.111,57.184],[-121.418,56.748],[-122.52,56.184],[-123.032,55.851],[-123.622,55.518],[-123.904,55.159],[-124.006,54.544],[-123.955,53.98],[-123.519,53.416],[-123.007,53.314],[-122.315,53.288],[-121.802,53.519],[-121.7,53.929],[-121.392,54.518],[-120.931,54.852],[-120.034,55.364],[-118.65,56.082],[-118.163,56.287],[-117.676,56.389],[-117.035,56.389],[-116.599,56.441],[-116.343,56.441],[-116.574,56.287],[-116.881,56.133],[-117.804,55.825],[-119.598,55.005],[-120.982,54.108],[-121.623,53.493],[-122.417,52.776],[-122.622,52.032],[-122.776,51.674],[-122.802,51.058],[-122.571,50.546],[-121.648,50.136],[-121.443,50.059],[-121.187,49.623],[-121.187,49.008],[-121.136,48.367],[-120.905,47.932],[-120.521,47.778],[-120.008,47.778],[-119.47,47.983],[-119.137,48.086],[-118.317,48.162],[-118.112,48.137],[-118.163,47.675],[-118.701,47.317],[-119.444,46.932],[-120.162,46.599],[-120.726,46.317],[-121.187,46.01],[-121.443,45.728],[-121.648,45.343],[-121.238,44.651],[-120.777,44.139],[-120.316,43.985],[-119.906,43.421],[-119.29,43.165],[-118.804,42.908],[-117.599,42.422],[-117.035,42.447],[-116.266,42.755],[-115.549,43.165],[-115.036,43.549],[-114.729,44.344],[-114.882,45.241],[-114.472,45.881],[-113.806,46.394],[-113.601,47.086],[-113.037,47.752],[-112.704,47.983],[-112.499,48.649],[-112.371,49.495],[-111.832,49.88],[-111.038,50.213],[-110.346,50.29],[-108.783,50.187],[-108.296,50.187],[-107.757,50.161],[-107.142,50.11],[-106.63,49.931],[-105.887,49.828],[-105.297,49.675],[-104.374,49.521],[-102.632,49.341],[-102.324,49.341],[-101.812,49.239],[-101.043,49.008],[-100.838,48.598],[-101.222,48.06],[-101.094,47.368],[-100.428,47.368],[-99.71,47.599],[-99.3,47.624],[-97.839,47.547],[-96.968,47.265],[-96.353,46.855],[-95.532,46.497],[-94.635,45.805],[-94.584,45.523],[-94.584,44.702],[-94.61,44.036],[-94.02,42.806],[-93.662,42.678],[-92.636,42.114],[-92.098,41.935],[-91.457,41.653],[-90.74,41.422],[-89.817,41.012],[-89.33,40.909],[-88.433,40.807],[-87.793,40.884],[-86.357,41.012],[-85.537,41.063],[-84.768,41.499],[-82.385,42.345],[-81.206,43.011],[-80.181,43.677],[-79.719,44.164],[-79.463,44.651],[-79.335,45.471],[-79.386,46.086],[-79.95,46.343],[-81.411,46.343],[-82.129,46.035],[-82.692,45.933],[-83.256,45.856],[-83.82,45.83],[-84.64,45.83],[-85.025,45.881],[-85.973,46.086],[-86.793,46.291],[-87.383,46.65],[-86.896,47.163],[-86.255,47.445],[-85.64,47.47],[-85.153,47.675],[-84.563,48.162],[-84.794,48.777],[-85.665,48.906],[-86.178,48.906],[-86.947,48.957],[-88.023,48.624],[-88.382,48.419],[-88.715,48.291],[-89.151,48.086],[-89.458,48.034],[-90.202,48.034],[-90.381,48.086],[-90.996,48.444],[-90.996,48.598],[-90.894,48.957],[-90.612,49.162],[-90.074,49.444],[-89.715,49.572],[-89.305,49.905],[-89.125,50.341],[-89.253,50.648],[-90.099,50.7],[-90.407,50.623]]]}},{"type":"Feature","properties":{"density":3},"geometry":{"type":"Polygon","coordinates":[[[-62.548,51.067],[-65.88,51.067],[-66.563,50.828],[-66.973,50.589],[-67.4,50.298],[-67.64,50.059],[-67.879,49.41],[-67.725,48.812],[-67.247,48.282],[-66.683,48.06],[-65.931,48.043],[-65.487,47.992],[-64.957,47.855],[-64.137,47.599],[-63.659,47.633],[-63.009,47.957],[-62.531,48.128],[-61.762,48.111],[-61.318,48.214],[-60.874,48.402],[-59.985,48.965],[-59.609,49.17],[-59.251,49.495],[-59.114,49.82],[-59.148,50.076],[-59.353,50.418],[-59.814,50.794],[-60.378,50.964],[-61.694,51.152],[-62.223,51.067],[-62.548,51.067]]]}},{"type":"Feature","properties":{"density":3},"geometry":{"type":"Polygon","coordinates":[[[-119.465,60.099],[-119.419,60.251],[-119.495,60.388],[-119.639,60.448],[-119.86,60.464],[-119.89,60.509],[-119.89,60.752],[-119.981,60.912],[-120.232,61.01],[-120.756,61.314],[-121.006,61.489],[-121.28,61.618],[-121.416,61.717],[-121.667,61.861],[-121.826,61.99],[-121.971,61.967],[-121.955,61.755],[-121.773,61.519],[-121.477,61.223],[-121.287,61.124],[-121.204,61.01],[-120.945,60.539],[-120.9,60.388],[-120.771,60.183],[-120.695,59.902],[-120.885,59.735],[-120.945,59.568],[-120.763,59.355],[-120.437,59.416],[-120.011,59.643],[-119.556,59.932],[-119.465,60.099]]]}},{"type":"Feature","properties":{"density":3},"geometry":{"type":"Polygon","coordinates":[[[-118.72,60.95],[-119.374,61.314],[-119.89,61.489],[-120.323,61.694],[-120.832,61.998],[-120.938,62.028],[-120.999,61.967],[-120.991,61.861],[-120.892,61.77],[-120.71,61.656],[-120.497,61.413],[-120.277,61.253],[-119.92,61.117],[-119.761,61.079],[-119.412,60.889],[-118.857,60.631],[-118.66,60.57],[-118.591,60.585],[-118.538,60.676],[-118.538,60.76],[-118.629,60.904],[-118.72,60.95]]]}},{"type":"Feature","properties":{"density":3},"geometry":{"type":"Polygon","coordinates":[[[-118.614,61.269],[-119.024,61.329],[-119.244,61.405],[-119.457,61.542],[-119.692,61.656],[-120.065,61.876],[-120.247,62.013],[-120.353,62.043],[-120.49,62.119],[-120.581,62.142],[-120.664,62.089],[-120.619,61.982],[-120.391,61.815],[-120.209,61.724],[-120.057,61.625],[-119.89,61.58],[-119.51,61.314],[-118.963,61.056],[-118.72,60.988],[-118.538,60.957],[-118.447,60.965],[-118.356,61.026],[-118.333,61.162],[-118.341,61.215],[-118.386,61.269],[-118.462,61.291],[-118.614,61.269]]]}},{"type":"Feature","properties":{"density":3},"geometry":{"type":"Polygon","coordinates":[[[-109.595,67.647],[-109.287,67.562],[-109.116,67.357],[-108.997,67.118],[-109.014,66.827],[-109.15,66.4],[-109.373,65.956],[-109.492,65.597],[-109.475,65.255],[-109.116,65.136],[-108.706,65.306],[-108.313,65.802],[-108.159,66.058],[-108.091,66.451],[-108.091,66.998],[-108.177,67.271],[-108.33,67.408],[-108.621,67.613],[-108.74,68.04],[-108.809,68.45],[-108.809,69.031],[-109.082,69.475],[-109.475,69.851],[-109.971,70.193],[-110.774,70.518],[-111.987,70.962],[-113.012,71.184],[-113.695,71.218],[-114.823,71.218],[-115.25,71.133],[-115.541,70.945],[-115.541,70.62],[-115.353,70.039],[-114.977,69.441],[-114.652,68.997],[-114.345,68.775],[-113.712,68.45],[-112.995,68.143],[-112.294,68.091],[-111.782,67.938],[-111.44,67.886],[-110.398,67.818],[-109.595,67.647]]]}},{"type":"Feature","properties":{"density":3},"geometry":{"type":"Polygon","coordinates":[[[-93.484,17.649],[-93.626,17.652],[-93.717,17.676],[-93.933,17.801],[-94.115,17.787],[-94.294,17.689],[-94.463,17.531],[-94.466,17.46],[-94.443,17.362],[-94.412,17.281],[-94.345,17.203],[-94.274,17.068],[-94.159,16.977],[-93.93,16.822],[-93.815,16.825],[-93.71,16.852],[-93.609,16.927],[-93.531,17.068],[-93.352,17.193],[-93.278,17.268],[-93.231,17.389],[-93.238,17.534],[-93.288,17.598],[-93.352,17.629],[-93.484,17.649]]]}}]}